{"type":"FeatureCollection","municipality":"Sant Andreu de la Barca","source":{"organization":"Ajuntament de Sant Andreu de la Barca","title":"Mapa de divisió dels actuals barris","url":"https://sabarca.cat/regidories-de-barri","official":true,"accessedAt":"2026-08-12"},"features":[{"type":"Feature","id":"081960--barri--cli-ntic","properties":{"name":"Nucli Antic","officialName":"Nucli Antic","municipality":"Sant Andreu de la Barca","kind":"barri","quality":"official","sourceCategory":"Divisió municipal de barris"},"geometry":{"type":"Polygon","coordinates":[[[1.9705814123153687,41.44921637119121],[1.9704338908195493,41.44908368265714],[1.972088813781738,41.44761604895228],[1.9724562764167783,41.44731246578175],[1.972799599170685,41.447041049161726],[1.973939538002014,41.446256950325946],[1.9737571477890015,41.44626901345672],[1.9731724262237549,41.445943308138425],[1.9730275869369507,41.44544469436042],[1.9735908508300783,41.44534014582425],[1.9739127159118652,41.445275808179794],[1.9739985466003416,41.44521951268859],[1.974738836288452,41.44472089334853],[1.975114345550537,41.44507475262975],[1.975414752960205,41.44534818802533],[1.9759404659271238,41.445621622268604],[1.976493000984192,41.44623282405765],[1.9767236709594724,41.446514296629495],[1.976433992385864,41.44688825115759],[1.9763052463531494,41.44695660820393],[1.975865364074707,41.44723003566906],[1.975216269493103,41.44759594415048],[1.9745725393295288,41.44795782962983],[1.9731724262237549,41.4487419079105],[1.9726145267486574,41.44921637119121],[1.972271203994751,41.44961242474721],[1.971874237060547,41.44979537252775],[1.971520185470581,41.449787330877925],[1.9710776209831238,41.44956819553601],[1.9709488749504087,41.449495820398106],[1.9707638025283811,41.44936715328689],[1.9705814123153687,41.44921637119121]]]}},{"type":"Feature","id":"081960--barri--a-olo-nia","properties":{"name":"La Colònia","officialName":"La Colònia","municipality":"Sant Andreu de la Barca","kind":"barri","quality":"official","sourceCategory":"Divisió municipal de barris"},"geometry":{"type":"Polygon","coordinates":[[[1.9562503695487976,41.45623842408809],[1.9559097290039062,41.45654196548969],[1.953871250152588,41.45567355187052],[1.950201988220215,41.45522325874978],[1.9522404670715332,41.44835590132574],[1.9529914855957031,41.44689227216232],[1.955416202545166,41.44653842279313],[1.956210136413574,41.44631324491708],[1.9568324089050293,41.446522338685035],[1.958785057067871,41.44681185202058],[1.9609522819519043,41.44673143177919],[1.9618749618530271,41.446779683936],[1.9636774063110352,41.44771255191423],[1.965104341506958,41.44786735844923],[1.9651687145233154,41.44800407040675],[1.9650426506996155,41.44820310641816],[1.9644096493721008,41.44825537840073],[1.9642728567123413,41.44832373400668],[1.9641870260238645,41.448512716777806],[1.9643023610115051,41.4487398974655],[1.9648978114128113,41.44899924435777],[1.9651874899864197,41.449182193867465],[1.9652143120765684,41.44926864235739],[1.9650426506996155,41.44986975774157],[1.9651874899864197,41.45009291287123],[1.9646590948104856,41.45032008802555],[1.962778866291046,41.45138759955871],[1.9614699482917786,41.45240282492675],[1.9608584046363833,41.45290339554698],[1.9605714082717896,41.453128550550424],[1.9597077369689944,41.45382411374969],[1.9591498374938963,41.454017101061204],[1.9585436582565305,41.45416184116807],[1.9579374790191648,41.454286478223516],[1.9572991132736204,41.454849352265065],[1.956735849380493,41.45547654901485],[1.9565212726593015,41.45580019624745],[1.95631742477417,41.45612384186517],[1.9562503695487976,41.45623842408809]]]}},{"type":"Feature","id":"081960--barri--a-lana","properties":{"name":"La Plana","officialName":"La Plana","municipality":"Sant Andreu de la Barca","kind":"barri","quality":"official","sourceCategory":"Divisió municipal de barris"},"geometry":{"type":"Polygon","coordinates":[[[1.9627118110656738,41.45540015999146],[1.9625937938690183,41.45533583232304],[1.9626688957214355,41.45525542264779],[1.9620251655578613,41.45495790598268],[1.9632589817047117,41.453952772021175],[1.9629478454589844,41.453269272030695],[1.9639080762863157,41.45291545744197],[1.9620037078857422,41.451978643586536],[1.9627869129180906,41.45138558919569],[1.9629424810409544,41.45129311242916],[1.9646644592285156,41.450318077629426],[1.9650158286094666,41.45016729774385],[1.9651874899864197,41.450090902468084],[1.965359151363373,41.45001249669676],[1.9672930240631104,41.44918420429878],[1.968945264816284,41.45022157854305],[1.9663059711456299,41.45237669061157],[1.9627118110656738,41.45540015999146]]]}},{"type":"Feature","id":"081960--barri--l-ala","properties":{"name":"El Palau","officialName":"El Palau","municipality":"Sant Andreu de la Barca","kind":"barri","quality":"official","sourceCategory":"Divisió municipal de barris"},"geometry":{"type":"Polygon","coordinates":[[[1.9639134407043457,41.452907416178874],[1.9629639387130735,41.45327731324893],[1.9632589817047117,41.45396081315466],[1.9620037078857422,41.454965946991564],[1.9626474380493164,41.45525542264779],[1.9590425491333008,41.45863254318068],[1.955287456512451,41.45712090144299],[1.9562503695487976,41.45623440366263],[1.956738531589508,41.45547453877852],[1.9573044776916504,41.454849352265065],[1.9579267501831052,41.45429049876968],[1.9589406251907349,41.45406936835927],[1.9596970081329348,41.453832154899125],[1.9620117545127869,41.451978643586536],[1.9639134407043457,41.452907416178874]]]}},{"type":"Feature","id":"081960--barri--a-olana","properties":{"name":"La Solana","officialName":"La Solana","municipality":"Sant Andreu de la Barca","kind":"barri","quality":"official","sourceCategory":"Divisió municipal de barris"},"geometry":{"type":"Polygon","coordinates":[[[1.980730891227722,41.44408957142917],[1.9810312986373901,41.44392068172146],[1.9811385869979858,41.44385232147668],[1.9811975955963135,41.44388449101261],[1.9814658164978027,41.44397295715414],[1.9814980030059814,41.44424639719272],[1.9814229011535645,41.44456004758276],[1.9804465770721436,41.44534818802533],[1.9793307781219482,41.44632932907699],[1.9783866405487058,41.44737479091941],[1.9776248931884766,41.44825939932073],[1.9772386550903323,41.44884645096531],[1.9766807556152342,41.44977124757524],[1.9761550426483154,41.450993567215136],[1.9755434989929201,41.45247318649223],[1.975318193435669,41.45261793004409],[1.9748997688293457,41.452593806141216],[1.9744277000427246,41.45236060795082],[1.973762512207031,41.45228019458735],[1.9727325439453125,41.45239277326829],[1.9724857807159424,41.45238473194042],[1.9702863693237305,41.45235256661898],[1.9700288772583008,41.4521354502819],[1.9700610637664795,41.451966581517354],[1.970522403717041,41.45131522645053],[1.9709300994873047,41.4508086124326],[1.9715309143066406,41.45031003604441],[1.972271203994751,41.44961041432918],[1.972646713256836,41.44918420429878],[1.973086595535278,41.44879820034558],[1.9747281074523924,41.44786534797711],[1.9757044315338133,41.44731849724931],[1.9764286279678345,41.44689227216232],[1.9767236709594724,41.4464901704569],[1.9770187139511108,41.44615240309856],[1.9771206378936768,41.446043834645685],[1.9772225618362427,41.44598351876001],[1.9787245988845825,41.445167238260154],[1.980730891227722,41.44408957142917]]]}},{"type":"Feature","id":"081960--barri--la-de-l-stacio","properties":{"name":"Pla de l'Estació","officialName":"Pla de l'Estació","municipality":"Sant Andreu de la Barca","kind":"barri","quality":"official","sourceCategory":"Divisió municipal de barris"},"geometry":{"type":"Polygon","coordinates":[[[1.9767129421234129,41.44650625457297],[1.9764876365661619,41.446228803012055],[1.9759511947631834,41.445621622268604],[1.975640058517456,41.44546882092176],[1.9754254817962646,41.44534014582425],[1.9751358032226562,41.44509887932866],[1.974738836288452,41.44472491448755],[1.9739127159118652,41.445275808179794],[1.9730329513549802,41.44544469436042],[1.9724857807159424,41.4453321036222],[1.9713860750198364,41.444998351357384],[1.9707691669464111,41.44466459737586],[1.9706940650939941,41.444628407081936],[1.9705760478973386,41.44460025906159],[1.970393657684326,41.44467263966066],[1.9705331325531006,41.44390861815408],[1.9709086418151858,41.44369951596328],[1.971842050552368,41.44394883003659],[1.9724321365356445,41.44407750789319],[1.9729256629943848,41.443860363862164],[1.9732582569122312,41.44358692219684],[1.9743633270263672,41.44358692219684],[1.9753289222717285,41.44318480000755],[1.9765841960906982,41.44279071784438],[1.9778287410736084,41.44265399490206],[1.978837251663208,41.44271029261909],[1.9796204566955564,41.44317675753836],[1.9796955585479736,41.44361104944897],[1.9810581207275388,41.44365930392628],[1.9811332225799563,41.443860363862164],[1.9798243045806885,41.44459221676781],[1.9776731729507446,41.44573019142797],[1.9770723581314085,41.44608404520495],[1.9767129421234129,41.44650625457297]]]}},{"type":"Feature","id":"081960--barri--l-entre","properties":{"name":"El Centre","officialName":"El Centre","municipality":"Sant Andreu de la Barca","kind":"barri","quality":"official","sourceCategory":"Divisió municipal de barris"},"geometry":{"type":"Polygon","coordinates":[[[1.9739341735839844,41.44626499241337],[1.9725635647773743,41.44721998320913],[1.97154700756073,41.44809052046652],[1.970568001270294,41.44896908779566],[1.968977451324463,41.45020549534802],[1.96730375289917,41.449160079118975],[1.965184807777405,41.45009291287123],[1.9650426506996155,41.44987377856149],[1.9651257991790771,41.44958628930787],[1.9652035832405088,41.44931689262726],[1.9652169942855835,41.44926864235739],[1.9651874899864197,41.44917817300467],[1.9648924469947815,41.448993213046485],[1.96429967880249,41.4487419079105],[1.964181661605835,41.44850869587351],[1.9642782211303709,41.44832373400668],[1.964401602745056,41.448257388860746],[1.9650399684906004,41.44820310641816],[1.9651687145233154,41.44801010181003],[1.965104341506958,41.44786534797711],[1.966080665588379,41.447205909762616],[1.9667029380798338,41.446779683936],[1.966724395751953,41.44647408633686],[1.9660162925720213,41.446385623605295],[1.964771747589111,41.446618843273775],[1.9635164737701414,41.44622478196624],[1.9637417793273926,41.44564574876417],[1.9640421867370603,41.44484152741121],[1.9644927978515623,41.44484152741121],[1.9651257991790771,41.44457613217728],[1.9652116298675535,41.44424639719272],[1.9654905796051023,41.443956872410105],[1.9658660888671875,41.443868406246644],[1.9660270214080813,41.44364321910449],[1.9658660888671875,41.44348237066736],[1.9661664962768555,41.44337781896941],[1.9671750068664549,41.443787982357016],[1.9677972793579102,41.44402925372686],[1.9683873653411863,41.444053380814516],[1.9690418243408203,41.44397295715414],[1.9697606563568115,41.44404533845296],[1.9699323177337649,41.44456808988053],[1.9701361656188963,41.444753062453835],[1.970340013504028,41.44469676650908],[1.9705760478973386,41.44460830135437],[1.9708871841430662,41.44471687220925],[1.9713807106018064,41.444998351357384],[1.9719064235687256,41.445163217148526],[1.9724750518798828,41.445324061419136],[1.973011493682861,41.44544067326597],[1.9731777906417844,41.445943308138425],[1.973762512207031,41.44627303449982],[1.9739341735839844,41.44626499241337]]]}},{"type":"Feature","id":"081960--barri--an-rats","properties":{"name":"Can Prats","officialName":"Can Prats","municipality":"Sant Andreu de la Barca","kind":"barri","quality":"official","sourceCategory":"Divisió municipal de barris"},"geometry":{"type":"Polygon","coordinates":[[[1.9666288,41.4460095,0],[1.9651,41.445929,0],[1.9647513,41.4454103,0],[1.9648049,41.4447187,0],[1.9649069,41.4444051,0],[1.9650999,41.4440713,0],[1.9654218,41.4436933,0],[1.9658081,41.443259,0],[1.9679538,41.4439989,0],[1.9690267,41.4439989,0],[1.9693995,41.444021,0],[1.9697509,41.4438662,0],[1.970105,41.4437174,0],[1.9704456,41.4436791,0],[1.9709378,41.4438752,0],[1.9720603,41.4440612,0],[1.9733558,41.4441195,0],[1.9734215,41.4443035,0],[1.9736341,41.4448016,0],[1.973927,41.4451791,0],[1.9729575,41.4453912,0],[1.9729099,41.4454601,0],[1.9730259,41.4456355,0],[1.9731399,41.4459532,0],[1.9731225,41.446309,0],[1.9732338,41.4464327,0],[1.9733826,41.4465563,0],[1.9726101,41.4468941,0],[1.9723419,41.4470187,0],[1.9718484,41.4471112,0],[1.9712852,41.4472641,0],[1.9706575,41.4476138,0],[1.9702552,41.4473685,0],[1.9699566,41.4476031,0],[1.9680361,41.4463727,0],[1.9676928,41.4466461,0],[1.9666288,41.4460095,0]]]}}]}