{"type":"FeatureCollection","municipality":"Vilanova i la Geltrú","source":{"organization":"Ajuntament de Vilanova i la Geltrú","title":"Cartografia general VNG · Barris","official":true,"accessedAt":"2026-08-10"},"features":[{"type":"Feature","id":"083073--barri--l-armanya","properties":{"name":"L'Armanyà","officialName":"L'Armanyà","municipality":"Vilanova i la Geltrú","kind":"barri","quality":"official"},"geometry":{"type":"Polygon","coordinates":[[[1.7242425817672289,41.24033814424035],[1.7269575736810112,41.24022955427957],[1.7271343944464501,41.240218582726065],[1.7272751000736262,41.240514719400416],[1.7275009811865438,41.24093429523461],[1.7275370472792093,41.241028330643466],[1.7275705684281342,41.24113531707119],[1.7275899463831272,41.24123313093414],[1.7277793676044613,41.24257604564124],[1.7278238248478373,41.2427689202875],[1.7279177112310837,41.243109768233396],[1.727776097538416,41.24311359144728],[1.7265150556177378,41.24314764410694],[1.7258023405464642,41.243166896094124],[1.7256573312320282,41.2431705754367],[1.724973833697089,41.2431892814259],[1.724857123891629,41.2432111285711],[1.7248045250644688,41.24302273754537],[1.7246271367684458,41.242318794534704],[1.7244382823456117,41.24155799436477],[1.7242590339704091,41.2408021106252],[1.7241511450739635,41.240346121334596],[1.7242425817672289,41.24033814424035]]]}},{"type":"Feature","id":"083073--barri--centrevila","properties":{"name":"Centrevila","officialName":"Centrevila","municipality":"Vilanova i la Geltrú","kind":"barri","quality":"official"},"geometry":{"type":"Polygon","coordinates":[[[1.7225689173527376,41.25037338437143],[1.721811901331211,41.24915782645919],[1.721637212287226,41.249219842216355],[1.7210494906811105,41.24942041024689],[1.7206207843073906,41.249566217393614],[1.7201823808109236,41.24913395328813],[1.7198630093091192,41.24882806942076],[1.7207123123744488,41.24855300781801],[1.722530051949058,41.247970626675574],[1.7235801652258338,41.247634201138695],[1.7234833443122546,41.24736606386001],[1.7233931065029844,41.247047566225994],[1.723259648690849,41.246576528113046],[1.7230725615063918,41.24630251587008],[1.723050000385072,41.246215491824174],[1.723039545865405,41.24613158633108],[1.7230794047384723,41.24606240104263],[1.723860382543442,41.24562739236219],[1.7234286786931161,41.245197879534274],[1.7230279003117657,41.244803042191805],[1.7234523648630107,41.24453171601848],[1.7236948516599562,41.24438563617585],[1.723839117108454,41.244293667398026],[1.7238525654422756,41.24429978575105],[1.7239134606582311,41.244338442467345],[1.7239844119175487,41.24439330035274],[1.724243398175671,41.24463127079161],[1.7243373450812776,41.24471058278529],[1.7244940198625358,41.244798276431034],[1.7247549657507375,41.24493037399574],[1.724864753562142,41.244994681587904],[1.7253991890518112,41.245268776589064],[1.726170540326612,41.24559310220145],[1.7260163319121695,41.24577794839904],[1.7262422630624885,41.24614388014118],[1.726378741825817,41.24639538441784],[1.7264359936820712,41.24663908339349],[1.7263589861952127,41.24667559707772],[1.7264511376589307,41.246923668673595],[1.7267663231970312,41.24780001904245],[1.7270274087534656,41.24854076091078],[1.7276658949102908,41.25031441843016],[1.727948849508151,41.25109342808625],[1.7279327286096897,41.25109848943451],[1.725259922952162,41.251897699387285],[1.724802314231636,41.251072956871475],[1.7241156390778167,41.249860075158445],[1.7225689173527376,41.25037338437143]]]}},{"type":"Feature","id":"083073--barri--la-geltru","properties":{"name":"La Geltrú","officialName":"La Geltrú","municipality":"Vilanova i la Geltrú","kind":"barri","quality":"official"},"geometry":{"type":"Polygon","coordinates":[[[1.726170540326612,41.24559310220145],[1.7270011343421507,41.24577260254945],[1.7272077692355,41.245363499014424],[1.7272193634024138,41.24525689914184],[1.7272061159023961,41.244966343857534],[1.7272007325452439,41.244801828034554],[1.7272496375285027,41.24445671000028],[1.7283213808791753,41.24439900388255],[1.7279177112310837,41.243109768233396],[1.7278238248478373,41.2427689202875],[1.7277793676044613,41.24257604564124],[1.7275899463831272,41.24123313093414],[1.7275705684281342,41.24113531707119],[1.7275370472792093,41.241028330643466],[1.7275009811865438,41.24093429523461],[1.7272751000736262,41.240514719400416],[1.7271343944464501,41.240218582726065],[1.7275368222265595,41.240189693729185],[1.7277629536238788,41.24016802796782],[1.7279651962457252,41.240137333000106],[1.7282621033555001,41.24008039324324],[1.7285092114316396,41.240023426709435],[1.728727455620159,41.23995367156684],[1.7288859150612932,41.23989891037311],[1.7291071878805873,41.23980586582724],[1.729297588992036,41.239710549811505],[1.7296325342375258,41.23954393698221],[1.729043892755173,41.23885387753875],[1.7284968490732133,41.23821047010599],[1.727948370248523,41.23755889405958],[1.7278952200124624,41.23719598173959],[1.7278507731347361,41.236802590068685],[1.7293486702313428,41.23674689988293],[1.7302766172519097,41.23672284998051],[1.731610093957949,41.236720549949716],[1.732594567176794,41.23676481104295],[1.733253839668869,41.23680104614223],[1.734180007559963,41.23687054957796],[1.734803715088602,41.23692922603844],[1.7356368488579546,41.2369912493562],[1.7378157681583029,41.23715914305172],[1.738385338894497,41.23719866015706],[1.7388530462568512,41.23721653381823],[1.7392553659944496,41.237221524335695],[1.7396715831753073,41.237224585636845],[1.739686571076559,41.23735418542746],[1.7409477428517242,41.239240791131046],[1.7411305685833742,41.239514293290135],[1.7413863140470596,41.23990216708756],[1.7416679817338614,41.24034889272033],[1.7417400077738514,41.24046312731093],[1.741817816546577,41.240586533929516],[1.742413471132189,41.24152750820088],[1.7399737069181265,41.242605557155365],[1.7406310616598957,41.243938846816036],[1.741089888504358,41.24376752783769],[1.741026742091503,41.243876355564694],[1.7409626914022212,41.24396775791143],[1.7409075683082413,41.24404827277768],[1.7408840939590984,41.2440825603631],[1.7408557639127877,41.244123940429205],[1.740833716560922,41.2442018221076],[1.7408446114597982,41.244263993174165],[1.7408618955981845,41.24432187902638],[1.7408791778377775,41.244373512080145],[1.740890559875117,41.24440751752088],[1.7409447918405645,41.244475700823955],[1.7409787819853264,41.24454998447705],[1.7410307034477326,41.2447185841085],[1.741087497770709,41.244903007984455],[1.741118406992199,41.245003377612576],[1.7411419133732815,41.245085176025285],[1.741183466213384,41.24525617050945],[1.7412313186747455,41.245453089812905],[1.7412607625773424,41.245561936616845],[1.7412719919312545,41.24560344885544],[1.7412963503396888,41.24565639823714],[1.7413254206308793,41.2457039542708],[1.7413616120317226,41.245753211731255],[1.741399016522813,41.24580052017919],[1.7414577498699648,41.24587734263592],[1.7414916624158083,41.24592578162595],[1.7415519032152589,41.24602239179969],[1.7416240734657327,41.24615443837491],[1.7416390489247957,41.24619766027572],[1.7416466673182058,41.24627652547759],[1.7416438732799038,41.24632967582097],[1.7416368150130423,41.246367513142225],[1.7416296902514894,41.24638968596112],[1.7416158974029643,41.246426566240615],[1.7417232547870543,41.24664436883385],[1.741773304958108,41.24674409142808],[1.7419139570027111,41.24699607588691],[1.7420086486816508,41.247157274839054],[1.7420274304358647,41.247191059761086],[1.74205597939327,41.24722442267926],[1.7420754495933335,41.24724483591799],[1.74207995866233,41.24725284433299],[1.7420900429968589,41.24724982479329],[1.7421005090634936,41.24726974808876],[1.7421286132990979,41.24730303370589],[1.7421539797358228,41.247323013038994],[1.7421934791611255,41.24734622161427],[1.7422394805308206,41.24737239408012],[1.7422735937444913,41.24739568606144],[1.7422998762225321,41.24741690889449],[1.7423324019882611,41.247451939886666],[1.7423648627474104,41.24751033974299],[1.7423742325298135,41.24756745162693],[1.7423723998956833,41.24759288650023],[1.7423692580345003,41.24763649199577],[1.7423684795382097,41.24768603647034],[1.7423761651247132,41.247713751179134],[1.7423902872087236,41.24774302176707],[1.7423995907334293,41.24776168316596],[1.7424692927722671,41.24784327179042],[1.7428265305558115,41.24828158834669],[1.7428577096981226,41.24831984425216],[1.7428488152815838,41.248384353638365],[1.7428530255627455,41.24845207886904],[1.7430633304654537,41.24846315242579],[1.7437761521889272,41.24850330693926],[1.744150390478063,41.248522665359026],[1.744821554645768,41.24865011914896],[1.7449607484374723,41.248676552545625],[1.7451794150358564,41.248762698804605],[1.745316390563503,41.248818598364814],[1.7454090300937757,41.24884962303237],[1.745557510881067,41.24889278508535],[1.7458220702807035,41.248969690784804],[1.7458741550279633,41.24897923382168],[1.7459283398717669,41.24898509436046],[1.7460298044142168,41.24899421484574],[1.746084537028007,41.24899773163541],[1.746174698954131,41.24900083891926],[1.746473963232053,41.249008913884005],[1.747650409353259,41.24903374307619],[1.7481051152418148,41.25000728567882],[1.748707541166708,41.25148401876802],[1.7488805846764794,41.25190545416623],[1.7492434135830564,41.252285551410125],[1.7495452721213987,41.25260178079708],[1.7500020786941133,41.25308034241556],[1.7505538661511693,41.25365842026717],[1.7506491133579987,41.25375813696381],[1.7507056004912136,41.253881191352484],[1.7497423198783497,41.254074413208535],[1.7484131500297717,41.254301425740685],[1.747616344721343,41.25443750659253],[1.7468125224844735,41.25457429874348],[1.7458765167562171,41.25473247705978],[1.7451638574710742,41.25483599754518],[1.7445923940296528,41.25489995530166],[1.744279235851208,41.25492526632161],[1.7439154383348656,41.254946994015114],[1.7435399197149088,41.25496039554852],[1.7431720438017622,41.2549646888917],[1.7428407289795063,41.25496049818731],[1.7422099969889369,41.254924438744105],[1.741193618750666,41.254829133716456],[1.74102835411297,41.25481246879947],[1.7405746751809827,41.25474336850729],[1.7400621483626924,41.254654123542956],[1.739571979453049,41.25456130958918],[1.7389344118308474,41.25442354492369],[1.7374987790600496,41.254106561457945],[1.7368762779006035,41.25397214889742],[1.7370507776265045,41.2536914527806],[1.737359571986938,41.25333151686492],[1.7376639679477055,41.253071822920305],[1.7378751624985447,41.252915527737166],[1.7383298502051103,41.25256698583363],[1.7385000433551834,41.25242510006993],[1.738638933340785,41.25228853371441],[1.7387545117037002,41.25216798196858],[1.738897739230596,41.25199156790547],[1.7390106862991161,41.25182778204885],[1.7390533270170596,41.2517267717621],[1.739132014995568,41.25157155160587],[1.7391904986767752,41.251388458291984],[1.7392627069611444,41.25107984509795],[1.739323353664878,41.250788672315835],[1.7394220459736975,41.2503677241359],[1.739539046846018,41.24979890932058],[1.7405452480574843,41.24915925293422],[1.7402245314370122,41.2484539871076],[1.7399689117680732,41.2483111059371],[1.7399192507745533,41.2482769359374],[1.7398948537823486,41.2482494994517],[1.7398927993331348,41.24819487042192],[1.7399117771727495,41.24798835130112],[1.7398789206895109,41.24790592654253],[1.7398189719633337,41.24785908210045],[1.7397186276163557,41.24783165028362],[1.7396140037473964,41.24784432224635],[1.7394876335293263,41.247892020479426],[1.7393157106147514,41.2479699551667],[1.7391385901654455,41.24806235918617],[1.7389597679879547,41.2481733178733],[1.7387834898602008,41.24831024104627],[1.7386496312842,41.24843584115372],[1.7384937489924333,41.24858997924524],[1.7384136153062906,41.24868523455687],[1.7383590807801765,41.248792469317614],[1.7382132683034,41.24904486625806],[1.7381860753343306,41.249081086639],[1.7381577287235956,41.2491052164219],[1.7380868887958931,41.24914000077449],[1.7379786141534577,41.249176384874865],[1.7376480210905445,41.24926259206962],[1.7373225308832325,41.24936482743269],[1.7367648181053925,41.24952298770294],[1.7313338011269488,41.25113671337583],[1.7285494606014697,41.25195984293134],[1.727729333993368,41.25220565757817],[1.7250362738741183,41.25300345233958],[1.724320226293327,41.253215663054235],[1.723785863763742,41.25233069909668],[1.725259922952162,41.251897699387285],[1.7279327286096897,41.25109848943451],[1.727948849508151,41.25109342808625],[1.7276658949102908,41.25031441843016],[1.7270274087534656,41.24854076091078],[1.7267663231970312,41.24780001904245],[1.7264511376589307,41.246923668673595],[1.7263589861952127,41.24667559707772],[1.7264359936820712,41.24663908339349],[1.726378741825817,41.24639538441784],[1.7262422630624885,41.24614388014118],[1.7260163319121695,41.24577794839904],[1.726170540326612,41.24559310220145]]]}},{"type":"Feature","id":"083073--barri--casernes","properties":{"name":"Casernes","officialName":"Casernes","municipality":"Vilanova i la Geltrú","kind":"barri","quality":"official"},"geometry":{"type":"Polygon","coordinates":[[[1.726170540326612,41.24559310220145],[1.7253991890518112,41.245268776589064],[1.724864753562142,41.244994681587904],[1.7251955111581858,41.24432802232591],[1.7251751701676579,41.24422983923393],[1.725108665587837,41.244011661372625],[1.724857123891629,41.2432111285711],[1.724973833697089,41.2431892814259],[1.7256573312320282,41.2431705754367],[1.7258023405464642,41.243166896094124],[1.7265150556177378,41.24314764410694],[1.727776097538416,41.24311359144728],[1.7279177112310837,41.243109768233396],[1.7283213808791753,41.24439900388255],[1.7272496375285027,41.24445671000028],[1.7272007325452439,41.244801828034554],[1.7272061159023961,41.244966343857534],[1.7272193634024138,41.24525689914184],[1.7272077692355,41.245363499014424],[1.7270011343421507,41.24577260254945],[1.726170540326612,41.24559310220145]]]}},{"type":"Feature","id":"083073--barri--fondo-somella","properties":{"name":"Fondo Somella","officialName":"Fondo Somella","municipality":"Vilanova i la Geltrú","kind":"barri","quality":"official"},"geometry":{"type":"Polygon","coordinates":[[[1.6943212207965634,41.25001628919446],[1.6942050292293565,41.25018864302918],[1.6937630709018348,41.25085889758636],[1.6938210823727702,41.250889753211624],[1.6939111487574143,41.25093994439548],[1.6940392338304622,41.251025170712126],[1.6941459936741885,41.25113593101051],[1.69419035090688,41.25119186863678],[1.6942322844414275,41.2512407648108],[1.694242955374012,41.25125302676166],[1.6942676638019862,41.251276341348216],[1.6943403568041515,41.25134651276315],[1.694403746673625,41.25141075547335],[1.6944387134648486,41.25144611327501],[1.69453312891787,41.251539452812096],[1.6946454408102323,41.25165971784245],[1.6947389930553822,41.25176143028739],[1.6948778760435717,41.2519075063393],[1.6950255927591515,41.252066273689195],[1.6950692421936422,41.25212009960312],[1.6951055501213026,41.25216505438779],[1.6951293137269794,41.25219608006846],[1.695195537159603,41.25226369798124],[1.6952863722499232,41.252288650469474],[1.695382327463135,41.252346595620416],[1.695511104278847,41.25242935168617],[1.695606075560059,41.252491843541286],[1.695657347106007,41.252527919366514],[1.6952890090369805,41.25275244363451],[1.6952467308968278,41.25277816342088],[1.6935020621578558,41.25390704438117],[1.6937927617534667,41.254090091270555],[1.6941341495174924,41.25434248564149],[1.6941854710971893,41.2544464806452],[1.6942691235482723,41.25461848624164],[1.6943531115525174,41.254803418106924],[1.6943725426108198,41.25492083501701],[1.6943788515450526,41.255310261347404],[1.6953738449065723,41.25534368551092],[1.6954288167423355,41.255399623115665],[1.6956326868146119,41.25563104971548],[1.69546050027782,41.256335759766635],[1.6951870104081108,41.25630533463283],[1.6950060260615156,41.25628404072501],[1.6948813270570213,41.25628704263483],[1.6948777585038481,41.25638105537353],[1.6948679074112503,41.2564247086559],[1.694849460832794,41.25649539032351],[1.6948240506041106,41.25655730017668],[1.6947930661706867,41.25661534969811],[1.6947527854080053,41.25667164276755],[1.6947069304665554,41.2567240755172],[1.6946529819350546,41.25677399162698],[1.6945618694468318,41.256837625966284],[1.6944841265568333,41.256881123638905],[1.6944116375440645,41.25691491199697],[1.6943372517127602,41.25694078759058],[1.6942714566757249,41.25695731436368],[1.6942099519641916,41.25697276350995],[1.6941279564822858,41.256984970432526],[1.694052165536292,41.25698962620474],[1.6938943908217428,41.25699569947884],[1.6936298494766715,41.257001026982365],[1.6934434882874203,41.25699621416598],[1.6932846647365563,41.25704299658298],[1.693001248483588,41.25713736668037],[1.6928867303619213,41.25716369382178],[1.6927533044555176,41.25718013302568],[1.6925360005145798,41.25719147813709],[1.6918185509466899,41.25741108263367],[1.6918255468163412,41.25745657568454],[1.691193520368238,41.257609443651226],[1.69114666822799,41.25716462219397],[1.6911228271114558,41.256889889615884],[1.6910812529715116,41.25657565139448],[1.6910523894718477,41.25639174762146],[1.6910179336317157,41.25639075541356],[1.690804477696073,41.256377604723575],[1.6905246373471519,41.25636058551561],[1.6902160296069657,41.256330885909925],[1.6899067341546374,41.25627955138697],[1.6895619396272819,41.25621389362617],[1.689326678067634,41.256153209658436],[1.6891384736683923,41.2560994660076],[1.688879718084224,41.256020646471335],[1.688727501187737,41.255951143249845],[1.6885191345844244,41.25586371447734],[1.6882079795691092,41.255725220470794],[1.687766463791078,41.25551982779659],[1.6876453013155281,41.25546120502803],[1.6876567155791908,41.25543061112493],[1.687679653611167,41.255191117981],[1.6877912928689172,41.25430087760953],[1.6878066369174662,41.2542169699631],[1.6877326426713772,41.25412134155791],[1.6876701552424385,41.25403870503064],[1.687613557280815,41.25394658076778],[1.6875856443351338,41.253870786850584],[1.6874869274040918,41.253618531723774],[1.6874302419827298,41.25347199117603],[1.687411365929226,41.25340527455781],[1.6874288987798993,41.25324802719278],[1.687448228443699,41.25312908202173],[1.6874689265814447,41.25299354345881],[1.6875254043651624,41.2528310384814],[1.6875612184288415,41.25277035500673],[1.6877682758846404,41.25238946004363],[1.6878749928129617,41.252205350501676],[1.6879415827199804,41.25212626883561],[1.6880295788121138,41.25205739714858],[1.6882821509853072,41.25191993279787],[1.6885770630964794,41.251762610654154],[1.6887016803181358,41.251715212191876],[1.6887884018991952,41.25169002005743],[1.688895444564904,41.25166312887028],[1.6889871210304233,41.25164918033911],[1.6890982105402608,41.251638302255465],[1.6892845238542757,41.251644437269334],[1.6899853967086333,41.251707432636934],[1.6900541443634371,41.25171574503647],[1.6900824170819382,41.25167793646132],[1.6901280136044898,41.25165206595959],[1.6901893609998488,41.25163870903836],[1.690254861477608,41.25164219401491],[1.6903167015304703,41.251666849090356],[1.6909782039159507,41.25139727863061],[1.6927640378230526,41.25065924463282],[1.6941690285681557,41.250075488450754],[1.6943212207965634,41.25001628919446]]]}},{"type":"Feature","id":"083073--barri--la-collada-els-sis-camins","properties":{"name":"La Collada - Els Sis Camins","officialName":"La Collada - Els Sis Camins","municipality":"Vilanova i la Geltrú","kind":"barri","quality":"official"},"geometry":{"type":"Polygon","coordinates":[[[1.7092794581102662,41.249777887365155],[1.7091275939295323,41.249852021937535],[1.7084626806292678,41.2501747482986],[1.706374434776706,41.25119067906076],[1.7059186964571815,41.25141149019502],[1.7058343869380197,41.251457731031756],[1.7057600638411552,41.25150074435972],[1.705619487017008,41.25158880445278],[1.7054665109522327,41.25169350751569],[1.705434731279537,41.25171501628277],[1.7052402424749482,41.251876144572236],[1.7049886877249933,41.25209742139722],[1.7044532514548316,41.25255803939881],[1.7043538595488612,41.252507554370425],[1.7032981582445845,41.252020414937256],[1.702891727436248,41.25245150605513],[1.7023696812022082,41.25202313155815],[1.7012716112856998,41.25117012905243],[1.701192684042202,41.25111654944085],[1.701163540593297,41.251076374502134],[1.7011533216363985,41.25100986012763],[1.7011586921889725,41.250835810123725],[1.7010406030963061,41.25081653166371],[1.7005117269018535,41.25073720810994],[1.7003055882310638,41.2507188768855],[1.7000813608059295,41.25070594993431],[1.6999951761726686,41.25070670640015],[1.6998856196358199,41.25071333225012],[1.6997859155802566,41.25073053681646],[1.6996981472081736,41.25075127126026],[1.699602580206258,41.25078179580423],[1.699453481581928,41.25083501715642],[1.698314167078305,41.25125850802262],[1.697807107287841,41.25143816802121],[1.6976519868954754,41.25147712383894],[1.6975579854150864,41.25149229176069],[1.6974431129962178,41.25149003414603],[1.6972966418646385,41.251469523695924],[1.6971452909939797,41.251446146151814],[1.696957818304991,41.25140810203245],[1.69675438047134,41.251358797285754],[1.6965056887310477,41.251264867535205],[1.696470513015757,41.25128143603491],[1.6960069296946962,41.251490600199894],[1.696130026056845,41.251744321184326],[1.6958540076446833,41.25184773565264],[1.6957903645235124,41.25187342535894],[1.6958804141193184,41.25200028282599],[1.695998901081195,41.25215929231678],[1.6961237580897148,41.25231508212385],[1.6962496791419392,41.252470226755825],[1.6963153778319586,41.25254731575701],[1.696380406862372,41.25262251170506],[1.6964218080295184,41.25268645182586],[1.6964730688587895,41.252803732327514],[1.6963781254726722,41.25282867562598],[1.6963224106722785,41.25287214785254],[1.6961196606323379,41.253012868390826],[1.6960522839488459,41.252940657802455],[1.6960100100421212,41.252889940119886],[1.695913717126162,41.25278178318932],[1.6958359934164506,41.25270129056782],[1.695758887590852,41.252621814253665],[1.695684436313474,41.25255172196271],[1.695657347106007,41.252527919366514],[1.695606075560059,41.252491843541286],[1.695511104278847,41.25242935168617],[1.695382327463135,41.252346595620416],[1.6952863722499232,41.252288650469474],[1.695195537159603,41.25226369798124],[1.6951293137269794,41.25219608006846],[1.6951055501213026,41.25216505438779],[1.6950692421936422,41.25212009960312],[1.6950255927591515,41.252066273689195],[1.6948778760435717,41.2519075063393],[1.6947389930553822,41.25176143028739],[1.6946454408102323,41.25165971784245],[1.69453312891787,41.251539452812096],[1.6944387134648486,41.25144611327501],[1.694403746673625,41.25141075547335],[1.6943403568041515,41.25134651276315],[1.6942676638019862,41.251276341348216],[1.694242955374012,41.25125302676166],[1.6942322844414275,41.2512407648108],[1.69419035090688,41.25119186863678],[1.6941459936741885,41.25113593101051],[1.6940392338304622,41.251025170712126],[1.6939111487574143,41.25093994439548],[1.6938210823727702,41.250889753211624],[1.6937630709018348,41.25085889758636],[1.6942050292293565,41.25018864302918],[1.6943212207965634,41.25001628919446],[1.6943536282474685,41.24998467182526],[1.6943848933723633,41.24994766260669],[1.6944001007950504,41.249911322520184],[1.6943898917687716,41.249867909056235],[1.6943110675251678,41.24979272821399],[1.693526397277565,41.24913084866674],[1.6926796516910951,41.248439523300554],[1.6923866559638605,41.24818606360981],[1.6918288524327139,41.24770399550979],[1.691788728076377,41.247663577991105],[1.6917670029118574,41.247633266922904],[1.691751142576604,41.24759727465713],[1.6917453274312775,41.247558759274064],[1.6917591551844837,41.24727386340249],[1.6917844227650585,41.24673897459606],[1.6918291550108302,41.24601685305711],[1.6918667428306289,41.24554061582822],[1.6919085640786862,41.244828939735626],[1.6919384573411067,41.24436875140476],[1.6919346035331093,41.244324583010524],[1.6919159329096336,41.2442674554317],[1.6918175394629122,41.24407579797007],[1.6927709660004622,41.243333963726855],[1.6935584116827385,41.243747671337644],[1.6941274548575602,41.244099470805416],[1.694956542880099,41.24441449355334],[1.6951565654316196,41.24448124890289],[1.6951852196123613,41.244516948061175],[1.695371982561746,41.24464747711409],[1.6956125291767348,41.24477838907699],[1.6960445819220964,41.2449889163402],[1.6961826246628375,41.24500157845505],[1.6962050450470165,41.24491005632485],[1.6962893972867936,41.24492988954482],[1.696415999939635,41.24494694918779],[1.696539460960983,41.2449711015257],[1.6967888201678745,41.24507710189324],[1.6971992625995314,41.24520915657268],[1.698066888199649,41.24652885193884],[1.6983925608148822,41.24634787944713],[1.698569571275404,41.24652837454212],[1.6991959641156356,41.24704221579263],[1.698740666838011,41.24742715848643],[1.698726505761578,41.24748706035912],[1.6991220381883618,41.2475911130768],[1.6991558623017362,41.247604763098],[1.6992077356036204,41.24764185093929],[1.6995092056758165,41.247894802257],[1.6995643227865078,41.24793224078511],[1.6996328986908187,41.247958142454166],[1.6997777697046075,41.24799306049362],[1.7003136818215203,41.24808979955005],[1.700459220996658,41.248114530641445],[1.7005233108321658,41.248126137653045],[1.7005780499843948,41.24813925351244],[1.7006825128252194,41.24817178077178],[1.7008724173716037,41.24822902037223],[1.700952095283662,41.248251832003255],[1.7010484184013497,41.24819318509937],[1.701066793051701,41.24819454805715],[1.701553707576677,41.248244352562516],[1.7020090835817825,41.24825575349903],[1.7025214454327235,41.2482664793888],[1.7029091812631976,41.248255921950886],[1.703729811516156,41.248238359538256],[1.7044012554849808,41.24822234480317],[1.7054680114030614,41.24790305703926],[1.7055952899621691,41.24811410278613],[1.7058927276838038,41.24805706212456],[1.7060979301501145,41.248020646008776],[1.7062709653809203,41.248000018393924],[1.706786475511363,41.24792169963286],[1.7070943692785168,41.24787902382331],[1.7071691210501678,41.24787509415907],[1.70721895289409,41.24787412301847],[1.7072740217529514,41.24788007946063],[1.7075432714603618,41.24793648479839],[1.707713218682828,41.247974476251244],[1.7077882623224117,41.24799970650608],[1.7078540389132737,41.24802892605668],[1.7079049823843584,41.24806222699283],[1.7084818981831051,41.248776937189],[1.7091102010567263,41.24957537248705],[1.7092264083767341,41.24971035475753],[1.7092794581102662,41.249777887365155]]]}},{"type":"Feature","id":"083073--barri--placa-de-la-sardana","properties":{"name":"Plaça de La Sardana","officialName":"Plaça de La Sardana","municipality":"Vilanova i la Geltrú","kind":"barri","quality":"official"},"geometry":{"type":"Polygon","coordinates":[[[1.723785863763742,41.25233069909668],[1.724320226293327,41.253215663054235],[1.7250362738741183,41.25300345233958],[1.7259967301097876,41.25472624511575],[1.726063407268769,41.25484333058029],[1.725208183283278,41.25509268759988],[1.7243926412125792,41.25532344721139],[1.7237914496931959,41.25549748302043],[1.7233466687241366,41.2556323808434],[1.7230669018295786,41.25573198361725],[1.7226813984280218,41.2558928175459],[1.7222943807143243,41.25606438810025],[1.7221014797042402,41.25603081497048],[1.7209495504658296,41.25578504445541],[1.719568380616067,41.25548564474156],[1.7176120484821924,41.25503120432169],[1.716616149608143,41.25479553310381],[1.7164337364981777,41.25473445294901],[1.716348340075935,41.25469402068227],[1.7163173035492674,41.25467550175033],[1.7162764770058887,41.254642187458515],[1.7162255004469424,41.254576700229784],[1.7193342443432054,41.253650949338976],[1.7201989125463095,41.25339424067683],[1.7207562618357173,41.253232398471596],[1.721843442324504,41.2529118689408],[1.7226895736856598,41.252661037386694],[1.723785863763742,41.25233069909668]]]}},{"type":"Feature","id":"083073--barri--prat-de-vilanova","properties":{"name":"Prat de Vilanova","officialName":"Prat de Vilanova","municipality":"Vilanova i la Geltrú","kind":"barri","quality":"official"},"geometry":{"type":"Polygon","coordinates":[[[1.6816531979409954,41.26834766021498],[1.683116912299855,41.26803047609439],[1.6866585718936897,41.2672123305379],[1.6871570952986907,41.26709451455517],[1.6876333232218785,41.26875696462285],[1.6828110851668192,41.27080495653641],[1.6827432442123564,41.270729879564406],[1.6826394579295316,41.270543668688624],[1.6825693660411354,41.27037044675733],[1.6825543602654993,41.27034141688886],[1.6825088086922813,41.27026479525166],[1.6824731484105622,41.27018133395934],[1.6824154835682037,41.270016544442036],[1.68236128683371,41.2698779605773],[1.6823158106810128,41.269745615791095],[1.6822148572093687,41.26956662129787],[1.6821582727361164,41.26947608992269],[1.6819982665434672,41.269147402093196],[1.6817779754282662,41.26866343838761],[1.6816531979409954,41.26834766021498]]]}},{"type":"Feature","id":"083073--barri--sant-joan","properties":{"name":"Sant Joan","officialName":"Sant Joan","municipality":"Vilanova i la Geltrú","kind":"barri","quality":"official"},"geometry":{"type":"Polygon","coordinates":[[[1.7198630093091192,41.24882806942076],[1.7201823808109236,41.24913395328813],[1.7206207843073906,41.249566217393614],[1.7210494906811105,41.24942041024689],[1.721637212287226,41.249219842216355],[1.721811901331211,41.24915782645919],[1.7225689173527376,41.25037338437143],[1.7234220916893621,41.251768157994015],[1.723785863763742,41.25233069909668],[1.7226895736856598,41.252661037386694],[1.721843442324504,41.2529118689408],[1.7207562618357173,41.253232398471596],[1.7201989125463095,41.25339424067683],[1.7193342443432054,41.253650949338976],[1.7162255004469424,41.254576700229784],[1.7152076015658675,41.252862892705544],[1.7142054443103671,41.25118215672641],[1.7136091953067072,41.2503563983946],[1.7130235066957553,41.24953574087634],[1.7111764835941385,41.250306965372054],[1.7110111408182,41.24978419858965],[1.710812860339858,41.24954823724929],[1.7104037239171666,41.24922944399705],[1.7137237952347488,41.2476099516803],[1.714851146800574,41.247060455452136],[1.716198848524776,41.24641941669756],[1.7166717472867992,41.24619350725333],[1.7169538546909313,41.246064826561415],[1.717009477032797,41.24604088389113],[1.7176326197116445,41.24671696510742],[1.7179702646860011,41.24707206771279],[1.718180310439756,41.24726086328846],[1.719435665729604,41.248396409410596],[1.7198297819435582,41.24879624552509],[1.7198630093091192,41.24882806942076]]]}},{"type":"Feature","id":"083073--barri--ribes-roges","properties":{"name":"Ribes Roges","officialName":"Ribes Roges","municipality":"Vilanova i la Geltrú","kind":"barri","quality":"official"},"geometry":{"type":"Polygon","coordinates":[[[1.7222943807143243,41.25606438810025],[1.7226813984280218,41.2558928175459],[1.723005104719311,41.25634441273793],[1.7230571315734655,41.25639556939613],[1.7231023000417167,41.25643053712118],[1.7231815141007907,41.25645767494418],[1.7232775076185742,41.256484876677355],[1.7234360543936451,41.25650981594318],[1.7236200804527626,41.256590843092106],[1.7244032878341986,41.2571990521305],[1.724429813211273,41.25722791106543],[1.7244610666804425,41.25726993182296],[1.7245193083062988,41.25736603350168],[1.7250834593643767,41.25831758959369],[1.7255058036924382,41.259031499801836],[1.7261287117130715,41.260108563614246],[1.7260286221963985,41.26010611359589],[1.7254979660782992,41.26009798228154],[1.7243742787625527,41.260065983875506],[1.7234597411523724,41.26003614869068],[1.7227839985259188,41.260073474186115],[1.722086033512466,41.26018891958403],[1.7220056168428277,41.26021074436249],[1.7203610135705008,41.260697526961465],[1.719812524720231,41.26081733658973],[1.7181032062414623,41.2611153309898],[1.7170983659538142,41.26133708612859],[1.7146091503175689,41.26205253710153],[1.7139640953081379,41.262336445230424],[1.7137855865869536,41.26242606117974],[1.7136838511351251,41.262497904445716],[1.7135763521438339,41.262582543848964],[1.7134970357353825,41.262676813487204],[1.7134357942260505,41.26276895344597],[1.7133250187268583,41.262863947142044],[1.7131798890441912,41.26293877405994],[1.7130099260011533,41.26300062487954],[1.7128562794261906,41.26304066839851],[1.7126932210230745,41.26302124343241],[1.712588704793249,41.26297076211035],[1.7124519446899626,41.26292768725891],[1.7122848888239217,41.262935526842774],[1.7120645669607697,41.26301589598132],[1.712041964221831,41.262985667387376],[1.7115674911471812,41.26320512128579],[1.711538939697686,41.263169918487044],[1.7111288778655143,41.26341479350024],[1.7110808255296877,41.263368905060496],[1.710597944897358,41.263677786507095],[1.7105083936481302,41.26360168647286],[1.7104784546771024,41.263491238230436],[1.7112476809543444,41.263017855131466],[1.712223058361203,41.26237051527976],[1.7128854422327224,41.26193703886865],[1.713716082613066,41.261411047942445],[1.7141896509628665,41.261105111218924],[1.7153541950087048,41.2603554020658],[1.7163672254338906,41.25969785535538],[1.7170350112402188,41.259266965971406],[1.718297466165379,41.258428614854495],[1.7189717065891148,41.25799528782069],[1.7197096691009315,41.25752023226314],[1.7204946555741,41.25705377290701],[1.7212682846244416,41.25662286711368],[1.7222943807143243,41.25606438810025]]]}},{"type":"Feature","id":"083073--barri--santa-maria","properties":{"name":"Santa Maria","officialName":"Santa Maria","municipality":"Vilanova i la Geltrú","kind":"barri","quality":"official"},"geometry":{"type":"Polygon","coordinates":[[[1.677369672736639,41.25481362014712],[1.6773977141111904,41.25478834572055],[1.6775020113382078,41.25468599750862],[1.677821648328557,41.25437233616037],[1.679085853662269,41.253465497408],[1.6804432468757393,41.25302939994315],[1.6807075831340992,41.253020228489554],[1.6813802194833798,41.2527813594941],[1.6815779494756375,41.25271227573053],[1.6816495557305533,41.25269069591157],[1.6818721518386834,41.25262439691605],[1.6820668360931716,41.252550008274355],[1.6824068638935297,41.25243725378681],[1.6826531150677062,41.25219318733842],[1.6826855615857035,41.2523709931659],[1.6827856988096068,41.25258138442933],[1.6827929721311339,41.25259499805397],[1.68280254320672,41.25259606513452],[1.6828195094626108,41.252598865731734],[1.6828339034981241,41.252603100645786],[1.6828535108402425,41.25261183659669],[1.6828728907378563,41.25262645280808],[1.6834730560291034,41.25319780310888],[1.6838409390561302,41.25355301360722],[1.6840088845743602,41.25371185873722],[1.6840470263941674,41.25374520922741],[1.6840580874546969,41.25375199871857],[1.6840961351728445,41.253775057786704],[1.6841105110458467,41.253783586618994],[1.684136240194686,41.25380112610827],[1.6841418048985617,41.253806136867496],[1.6841564230549813,41.25382292159699],[1.684162662008194,41.25383201052953],[1.6841702369801517,41.253848041685245],[1.684176709096568,41.25396058713798],[1.6841766595871277,41.25398591995951],[1.6841768007645745,41.25400866247811],[1.6841710642318841,41.25403098509118],[1.6841459335657034,41.25406880848648],[1.6841351924844987,41.254081509092124],[1.684063987569701,41.25413515319647],[1.6839506331745278,41.25421950430767],[1.683897557258021,41.254258146370894],[1.6838614559011253,41.25428285432845],[1.6838345663725223,41.254297264502],[1.683384704662979,41.25448513378809],[1.6833485993482016,41.2545037288402],[1.6831724378759072,41.25463268109258],[1.6830163684270043,41.25474723258808],[1.682990939869833,41.25476588163177],[1.6829762459820408,41.254780158397274],[1.6829716371787178,41.254788664197214],[1.6829716287577179,41.254810160861275],[1.682981958402614,41.25482811306759],[1.6830213409926826,41.254869723424065],[1.6834109674299313,41.25529075740427],[1.6833654268923581,41.25533529977156],[1.6836162874826337,41.25554508590845],[1.6834081790851683,41.25571785431115],[1.6832460339289483,41.255859138006095],[1.6830455722773372,41.25604583795896],[1.6831985779663707,41.256137793163454],[1.6833285331794832,41.25622660468037],[1.683394762000881,41.25627935986176],[1.6835778988180852,41.25641272456766],[1.6837104205754863,41.25652691783828],[1.6838027191536769,41.256585341208734],[1.6839579708204648,41.25672085516992],[1.6839832716228191,41.25674124575045],[1.6840026928162433,41.25674968901619],[1.68404045180176,41.25675105650684],[1.6840674554478758,41.25674424748088],[1.6842373571999465,41.25663278400334],[1.6842689810725806,41.25664900015831],[1.6843984116230337,41.25674524754937],[1.6844707681480033,41.25679298240999],[1.684689477694663,41.25694588165027],[1.684676554794137,41.25695642118735],[1.6840627535578285,41.25744443248389],[1.6838983464182327,41.25757657849147],[1.6836599306883198,41.25749109265417],[1.6835244081928036,41.25760858213631],[1.6828730914121763,41.258173240840364],[1.681980989842393,41.25890710365866],[1.681789380169962,41.25906332719026],[1.681673351026882,41.259162266871776],[1.6815553353755925,41.259288289849266],[1.68144248287014,41.25944231823993],[1.6813671507199046,41.259577743263094],[1.681275189473955,41.259796611204166],[1.6812853732023347,41.26019029573074],[1.6812863980807409,41.260257081029145],[1.6812681193111279,41.26030730491418],[1.6812419567926657,41.26033412890374],[1.6811879439193051,41.260367682118066],[1.680961246525776,41.26050767294592],[1.680765511517106,41.26062924336018],[1.680594016522102,41.26073685489277],[1.6804640997596536,41.260818060387884],[1.6802740508059673,41.26093265501808],[1.6801567226302316,41.26098833923518],[1.679881246563165,41.26111025150083],[1.67958888562819,41.26123564842868],[1.6793174111970104,41.26044168112599],[1.6788409741813433,41.25905706230451],[1.6785195826143493,41.258123071405805],[1.6783028918829788,41.2574933661349],[1.6778103649728686,41.256062126917314],[1.6776026286163184,41.25545848382882],[1.677369672736639,41.25481362014712]]]}},{"type":"Feature","id":"083073--barri--taco","properties":{"name":"Tacó","officialName":"Tacó","municipality":"Vilanova i la Geltrú","kind":"barri","quality":"official"},"geometry":{"type":"Polygon","coordinates":[[[1.7278507731347361,41.236802590068685],[1.7278952200124624,41.23719598173959],[1.727948370248523,41.23755889405958],[1.7284968490732133,41.23821047010599],[1.729043892755173,41.23885387753875],[1.7296325342375258,41.23954393698221],[1.729297588992036,41.239710549811505],[1.7291071878805873,41.23980586582724],[1.7288859150612932,41.23989891037311],[1.728727455620159,41.23995367156684],[1.7285092114316396,41.240023426709435],[1.7282621033555001,41.24008039324324],[1.7279651962457252,41.240137333000106],[1.7277629536238788,41.24016802796782],[1.7275368222265595,41.240189693729185],[1.7271343944464501,41.240218582726065],[1.72702194737251,41.239934754974804],[1.7268137718931433,41.23939538728027],[1.7266836952627764,41.23898777156504],[1.7265828709711601,41.23867625891546],[1.7265081948428207,41.238374596884945],[1.7264790013796454,41.238242271094705],[1.726454321830859,41.238067029374434],[1.7264183878023256,41.237761742296016],[1.726368056521409,41.23744454146162],[1.7263191293154927,41.23730797785364],[1.7261887916114065,41.236901654750945],[1.7262691663862564,41.23689558661997],[1.7278507731347361,41.236802590068685]]]}},{"type":"Feature","id":"083073--barri--moli-de-vent","properties":{"name":"Molí de Vent","officialName":"Molí de Vent","municipality":"Vilanova i la Geltrú","kind":"barri","quality":"official"},"geometry":{"type":"Polygon","coordinates":[[[1.7088469833438078,41.257661783882284],[1.7076369399003748,41.2563548252846],[1.707128117727477,41.255748959734596],[1.7068170436229102,41.25538264448553],[1.706320273283311,41.25483605144588],[1.705913715693294,41.254391016958415],[1.7043318237488327,41.252662879663546],[1.7044532514548316,41.25255803939881],[1.7049886877249933,41.25209742139722],[1.7052402424749482,41.251876144572236],[1.705434731279537,41.25171501628277],[1.7054665109522327,41.25169350751569],[1.705619487017008,41.25158880445278],[1.7057600638411552,41.25150074435972],[1.7058343869380197,41.251457731031756],[1.7059186964571815,41.25141149019502],[1.706374434776706,41.25119067906076],[1.7084626806292678,41.2501747482986],[1.7091275939295323,41.249852021937535],[1.7092794581102662,41.249777887365155],[1.7104037239171666,41.24922944399705],[1.710812860339858,41.24954823724929],[1.7110111408182,41.24978419858965],[1.7111764835941385,41.250306965372054],[1.7130235066957553,41.24953574087634],[1.7136091953067072,41.2503563983946],[1.7142054443103671,41.25118215672641],[1.7152076015658675,41.252862892705544],[1.7162255004469424,41.254576700229784],[1.713624186891918,41.255344487238155],[1.7130669820852935,41.25551937511607],[1.7128040160880749,41.25559315600807],[1.712610123676214,41.25565996397185],[1.7124048642319034,41.25574776897906],[1.7122511664828606,41.255820041010956],[1.7118055042331028,41.25606408718683],[1.7088469833438078,41.257661783882284]]]}},{"type":"Feature","id":"083073--barri--l-aragai","properties":{"name":"L'Aragai","officialName":"L'Aragai","municipality":"Vilanova i la Geltrú","kind":"barri","quality":"official"},"geometry":{"type":"Polygon","coordinates":[[[1.7088469833438078,41.257661783882284],[1.7083944760528604,41.257899324575945],[1.707914741336585,41.25816309020857],[1.7078001805572036,41.25804260026435],[1.7076273548685164,41.25785432006023],[1.7074584526360812,41.2576749824329],[1.7073553046939343,41.25754532361554],[1.7072750449817329,41.25745705324596],[1.7071562946670986,41.25731507145382],[1.7070240904752538,41.25714889856133],[1.7068759294079734,41.25692734579848],[1.7058688516674585,41.25748772469544],[1.7058148102091233,41.25752462391793],[1.7057704498614206,41.257566347475546],[1.7056833681082229,41.25770837060818],[1.7051685587590897,41.25824908146431],[1.7048716638155512,41.25844553735542],[1.7033712714656366,41.25939247986412],[1.702143601962251,41.26001611429547],[1.7013729001051654,41.26040981849625],[1.70113606946908,41.260482293469586],[1.7009282345067656,41.26051109190371],[1.700776254856354,41.260518064804245],[1.7005963761881269,41.260516447109474],[1.7004186007144102,41.26048830764075],[1.7002566497995824,41.26045175635892],[1.7001263146370955,41.26041235628541],[1.6999966461482516,41.260359679750316],[1.6998800334896624,41.26029224581104],[1.6997876799414284,41.26022700173699],[1.6996661092026115,41.260135148275715],[1.6995997850527853,41.26005919350244],[1.6995262332843581,41.259966858660675],[1.6994586309334114,41.25985643998783],[1.6994124167836258,41.25974435460091],[1.6993907819008598,41.25964512419383],[1.6992232184677916,41.25894565864301],[1.699190080758628,41.25873319932164],[1.6991751341093593,41.2584681825065],[1.6991790654570267,41.25824877699867],[1.6992017278076836,41.258002856950135],[1.6992082972381655,41.25796189451527],[1.6992250308527268,41.25784633847992],[1.699230521568191,41.25777696485014],[1.699247770275153,41.25767971002203],[1.6992856998947743,41.25762258809135],[1.6993422035351942,41.257583547264716],[1.6994408401767858,41.25752064499863],[1.6995271925596414,41.25742985257749],[1.6995822692750187,41.25734691472642],[1.6995974946362087,41.25729543139336],[1.6996003920712883,41.25725181101616],[1.6995995318067694,41.2571781540356],[1.6995816140265998,41.25710878079876],[1.6995693658303257,41.25705227963894],[1.699548617360965,41.25696932136194],[1.6995512132783144,41.25687676223399],[1.6995786756771727,41.256799650774155],[1.6996312508252167,41.25673729894188],[1.6997187179165634,41.25664980021331],[1.699909953476816,41.25648226684851],[1.7017773677934416,41.25486737887609],[1.7027445835544002,41.254033323248166],[1.7037087299256628,41.253199942627],[1.7043318237488327,41.252662879663546],[1.705913715693294,41.254391016958415],[1.706320273283311,41.25483605144588],[1.7068170436229102,41.25538264448553],[1.707128117727477,41.255748959734596],[1.7076369399003748,41.2563548252846],[1.7088469833438078,41.257661783882284]]]}},{"type":"Feature","id":"083073--barri--barri-de-mar","properties":{"name":"Barri de Mar","officialName":"Barri de Mar","municipality":"Vilanova i la Geltrú","kind":"barri","quality":"official"},"geometry":{"type":"Polygon","coordinates":[[[1.7422099969889369,41.254924438744105],[1.7422084864090468,41.255009882913235],[1.7422084639871356,41.25519182275962],[1.7415907714563743,41.255316266781875],[1.7410433163628602,41.255555078177146],[1.7405059904140154,41.25569478927778],[1.7400009295114542,41.25592297756899],[1.7393684489997634,41.256476272279805],[1.7389027900359697,41.25667372813656],[1.7385682213878493,41.25674001984655],[1.7381074834561046,41.25674311603775],[1.737847042054413,41.25674218312141],[1.7376715248537353,41.25674875115764],[1.7372190305029076,41.25685764378231],[1.7370983285161627,41.25686491588405],[1.737001298161106,41.25685709396082],[1.7369105078131555,41.2568308159706],[1.736830052216836,41.2567911603175],[1.736739277402142,41.25672804324203],[1.7365401828057592,41.25654922625272],[1.736398016108539,41.2564109790778],[1.7363345091230096,41.25634336431302],[1.7358134421094953,41.25637675990401],[1.7352623567347814,41.25641626167837],[1.7347829574454607,41.256509932597794],[1.7344811404277487,41.25657331443101],[1.7334463061913188,41.25695831854544],[1.7320480977614878,41.257313284769715],[1.7283026100270942,41.25824284083073],[1.728195838740288,41.25826606426478],[1.7280911551760132,41.25828194628648],[1.7279520470572582,41.25829089536189],[1.7277995632847556,41.258291803210085],[1.7277196316827232,41.258303511306124],[1.7276207668369477,41.25833564001014],[1.7272396815595374,41.258481715579926],[1.7256002428245756,41.25900200553456],[1.7255058036924382,41.259031499801836],[1.7250834593643767,41.25831758959369],[1.7245193083062988,41.25736603350168],[1.7244610666804425,41.25726993182296],[1.724429813211273,41.25722791106543],[1.7244032878341986,41.2571990521305],[1.7236200804527626,41.256590843092106],[1.7234360543936451,41.25650981594318],[1.7232775076185742,41.256484876677355],[1.7231815141007907,41.25645767494418],[1.7231023000417167,41.25643053712118],[1.7230571315734655,41.25639556939613],[1.723005104719311,41.25634441273793],[1.7226813984280218,41.2558928175459],[1.7230669018295786,41.25573198361725],[1.7233466687241366,41.2556323808434],[1.7237914496931959,41.25549748302043],[1.7243926412125792,41.25532344721139],[1.725208183283278,41.25509268759988],[1.726063407268769,41.25484333058029],[1.7259967301097876,41.25472624511575],[1.7250362738741183,41.25300345233958],[1.727729333993368,41.25220565757817],[1.7285494606014697,41.25195984293134],[1.7313338011269488,41.25113671337583],[1.7367648181053925,41.24952298770294],[1.7373225308832325,41.24936482743269],[1.7376480210905445,41.24926259206962],[1.7379786141534577,41.249176384874865],[1.7380868887958931,41.24914000077449],[1.7381577287235956,41.2491052164219],[1.7381860753343306,41.249081086639],[1.7382132683034,41.24904486625806],[1.7383590807801765,41.248792469317614],[1.7384136153062906,41.24868523455687],[1.7384937489924333,41.24858997924524],[1.7386496312842,41.24843584115372],[1.7387834898602008,41.24831024104627],[1.7389597679879547,41.2481733178733],[1.7391385901654455,41.24806235918617],[1.7393157106147514,41.2479699551667],[1.7394876335293263,41.247892020479426],[1.7396140037473964,41.24784432224635],[1.7397186276163557,41.24783165028362],[1.7398189719633337,41.24785908210045],[1.7398789206895109,41.24790592654253],[1.7399117771727495,41.24798835130112],[1.7398927993331348,41.24819487042192],[1.7398948537823486,41.2482494994517],[1.7399192507745533,41.2482769359374],[1.7399689117680732,41.2483111059371],[1.7402245314370122,41.2484539871076],[1.7405452480574843,41.24915925293422],[1.739539046846018,41.24979890932058],[1.7394220459736975,41.2503677241359],[1.739323353664878,41.250788672315835],[1.7392627069611444,41.25107984509795],[1.7391904986767752,41.251388458291984],[1.739132014995568,41.25157155160587],[1.7390533270170596,41.2517267717621],[1.7390106862991161,41.25182778204885],[1.738897739230596,41.25199156790547],[1.7387545117037002,41.25216798196858],[1.738638933340785,41.25228853371441],[1.7385000433551834,41.25242510006993],[1.7383298502051103,41.25256698583363],[1.7378751624985447,41.252915527737166],[1.7376639679477055,41.253071822920305],[1.737359571986938,41.25333151686492],[1.7370507776265045,41.2536914527806],[1.7368762779006035,41.25397214889742],[1.7374987790600496,41.254106561457945],[1.7389344118308474,41.25442354492369],[1.739571979453049,41.25456130958918],[1.7400621483626924,41.254654123542956],[1.7405746751809827,41.25474336850729],[1.74102835411297,41.25481246879947],[1.741193618750666,41.254829133716456],[1.7422099969889369,41.254924438744105]]]}},{"type":"Feature","id":"083073--barri--can-marques","properties":{"name":"Can Marquès","officialName":"Can Marquès","municipality":"Vilanova i la Geltrú","kind":"barri","quality":"official"},"geometry":{"type":"Polygon","coordinates":[[[1.7241156390778167,41.249860075158445],[1.724802314231636,41.251072956871475],[1.725259922952162,41.251897699387285],[1.723785863763742,41.25233069909668],[1.7234220916893621,41.251768157994015],[1.7225689173527376,41.25037338437143],[1.7241156390778167,41.249860075158445]]]}},{"type":"Feature","id":"083073--barri--masia-nova","properties":{"name":"Masia Nova","officialName":"Masia Nova","municipality":"Vilanova i la Geltrú","kind":"barri","quality":"official"},"geometry":{"type":"Polygon","coordinates":[[[1.741089888504358,41.24376752783769],[1.7406310616598957,41.243938846816036],[1.7399737069181265,41.242605557155365],[1.742413471132189,41.24152750820088],[1.7424256534388372,41.241546753295815],[1.7424599714713833,41.241600701902705],[1.7425475200817901,41.24203107022665],[1.742664013794924,41.242606141500616],[1.7427197683575653,41.242892400582136],[1.7425030118761677,41.24291914043136],[1.7423530977560662,41.24293690347731],[1.7422514307151722,41.24295164590313],[1.7422030921688347,41.24296054056326],[1.7421290540480017,41.24297883780826],[1.742060424873593,41.243002870096866],[1.7419975910960874,41.24302878702276],[1.7419588709267546,41.24304625994861],[1.7418971892626274,41.24308847655751],[1.7418355076780392,41.24313069319852],[1.741691183463941,41.24321705797595],[1.741583800081115,41.243277134097276],[1.741527403426878,41.24329448828592],[1.7414414839928183,41.24331588278853],[1.741365689154278,41.24334280279799],[1.7413193438794086,41.243370686522425],[1.7412772036677735,41.24341129448316],[1.741255969156859,41.243446461397546],[1.7411924374768721,41.24356928019144],[1.741089888504358,41.24376752783769]]]}},{"type":"Feature","id":"083073--barri--nucli-antic","properties":{"name":"Nucli Antic","officialName":"Nucli Antic","municipality":"Vilanova i la Geltrú","kind":"barri","quality":"official"},"geometry":{"type":"Polygon","coordinates":[[[1.717009477032797,41.24604088389113],[1.7185415819942027,41.24540171310241],[1.7192883066859563,41.2450765568807],[1.7206043870348897,41.24448047446138],[1.7216266530949091,41.24401749565896],[1.721860458985056,41.243911361622665],[1.7221108676093848,41.24380940978847],[1.7223364020876384,41.243727192766606],[1.7225007796054108,41.24380558432489],[1.722805221021153,41.24395043689994],[1.7228882646977854,41.243991677840825],[1.7229479532373484,41.244018527526556],[1.7230213512526285,41.2440463137198],[1.7233569941177485,41.24414182199197],[1.7237039302403638,41.24424365640139],[1.723790714480382,41.24427164652322],[1.723839117108454,41.244293667398026],[1.7236948516599562,41.24438563617585],[1.7234523648630107,41.24453171601848],[1.7230279003117657,41.244803042191805],[1.7234286786931161,41.245197879534274],[1.723860382543442,41.24562739236219],[1.7230794047384723,41.24606240104263],[1.723039545865405,41.24613158633108],[1.723050000385072,41.246215491824174],[1.7230725615063918,41.24630251587008],[1.723259648690849,41.246576528113046],[1.7233931065029844,41.247047566225994],[1.7234833443122546,41.24736606386001],[1.7235801652258338,41.247634201138695],[1.722530051949058,41.247970626675574],[1.7207123123744488,41.24855300781801],[1.7198630093091192,41.24882806942076],[1.7198297819435582,41.24879624552509],[1.719435665729604,41.248396409410596],[1.718180310439756,41.24726086328846],[1.7179702646860011,41.24707206771279],[1.7176326197116445,41.24671696510742],[1.717009477032797,41.24604088389113]]]}}]}
