{"type":"FeatureCollection","name":"ICGC Àrees de poblament - Avià","features":[{"type":"Feature","id":"080116_080116 AP01 BER 3","properties":{"area_id":"080116_080116 AP01 BER 3","nom":"Avià","codi_icgc":"080116 AP01 BER 3","categoria":"Àrees de poblament","codi_municipi":"080116","municipi":"Avià","codi_comarca":"14","comarca":"Berguedà","provincia":"Barcelona","font":"ICGC Àrees de poblament v3r1 202602"},"geometry":{"type":"MultiPolygon","coordinates":[[[[1.82655,42.077904],[1.826781,42.077865],[1.826962,42.077766],[1.826918,42.077735],[1.82674,42.077677],[1.826725,42.077665],[1.826691,42.077636],[1.82665,42.077605],[1.826609,42.077573],[1.826551,42.077532],[1.82649,42.077494],[1.826471,42.077485],[1.826457,42.077477],[1.826437,42.077448],[1.826418,42.077418],[1.826387,42.07737],[1.826266,42.077302],[1.826232,42.077267],[1.826263,42.07725],[1.826217,42.077203],[1.826185,42.077221],[1.826177,42.077218],[1.826085,42.077135],[1.825931,42.077188],[1.825852,42.077217],[1.825835,42.077223],[1.825812,42.077229],[1.82567,42.077152],[1.825636,42.077078],[1.825569,42.076999],[1.825474,42.076949],[1.825382,42.076876],[1.825361,42.076863],[1.825319,42.076827],[1.82531,42.07683],[1.825286,42.076837],[1.825279,42.07684],[1.825261,42.076749],[1.825249,42.076683],[1.82525,42.076677],[1.82527,42.076604],[1.825308,42.076521],[1.825313,42.076515],[1.825415,42.07639],[1.825463,42.076331],[1.825487,42.07629],[1.825517,42.076251],[1.825557,42.076215],[1.825558,42.076141],[1.825556,42.076079],[1.825516,42.076016],[1.825484,42.076001],[1.825399,42.075962],[1.825383,42.075955],[1.825211,42.075873],[1.825249,42.075821],[1.825266,42.075797],[1.825289,42.075671],[1.825314,42.075587],[1.82549,42.075536],[1.825542,42.075511],[1.825671,42.075552],[1.825757,42.075413],[1.825799,42.075353],[1.825877,42.075391],[1.825946,42.075425],[1.826004,42.075287],[1.826126,42.075191],[1.826135,42.075185],[1.826211,42.075131],[1.826249,42.075104],[1.826317,42.075057],[1.826352,42.075086],[1.826492,42.075016],[1.826521,42.075013],[1.826555,42.074992],[1.82661,42.074907],[1.826528,42.074869],[1.826539,42.074853],[1.826554,42.07483],[1.826567,42.074806],[1.826575,42.074792],[1.826647,42.074616],[1.826664,42.074568],[1.82677,42.074587],[1.826812,42.07453],[1.826855,42.074527],[1.827392,42.074539],[1.827398,42.074537],[1.827508,42.074489],[1.82752,42.074484],[1.827561,42.074473],[1.827652,42.074393],[1.827694,42.074356],[1.827733,42.074346],[1.827891,42.074303],[1.82789,42.074276],[1.827899,42.074272],[1.827904,42.074273],[1.828029,42.074256],[1.828084,42.074345],[1.828175,42.0744],[1.8282,42.074413],[1.828209,42.074418],[1.828215,42.074421],[1.828552,42.074309],[1.82865,42.074277],[1.82873,42.07425],[1.828865,42.074204],[1.828909,42.07419],[1.828987,42.074166],[1.829129,42.074119],[1.829133,42.074118],[1.829142,42.07413],[1.829181,42.074113],[1.829212,42.0741],[1.82926,42.074182],[1.829289,42.074231],[1.82931,42.07429],[1.829521,42.074217],[1.829502,42.074138],[1.829492,42.074123],[1.829488,42.074113],[1.829456,42.074023],[1.829468,42.07402],[1.829456,42.074001],[1.829424,42.073911],[1.829493,42.073893],[1.829524,42.073887],[1.82955,42.073882],[1.829636,42.073963],[1.829696,42.074003],[1.829834,42.073949],[1.829584,42.073675],[1.829534,42.073695],[1.829527,42.073699],[1.829434,42.073752],[1.829312,42.073812],[1.829241,42.073757],[1.829146,42.073606],[1.829021,42.073473],[1.828995,42.073484],[1.828807,42.073326],[1.828824,42.073299],[1.828785,42.073247],[1.828722,42.073115],[1.828489,42.073194],[1.828451,42.073198],[1.828424,42.073199],[1.828361,42.073219],[1.828276,42.073176],[1.827795,42.072898],[1.82779,42.072896],[1.82772,42.072859],[1.827622,42.07295],[1.827522,42.073042],[1.827501,42.073062],[1.827468,42.073093],[1.827415,42.073145],[1.827311,42.073249],[1.827305,42.073255],[1.827218,42.073342],[1.827207,42.073353],[1.827155,42.073405],[1.827068,42.073492],[1.826974,42.073579],[1.826882,42.073666],[1.826833,42.07373],[1.826789,42.073795],[1.826701,42.073926],[1.826679,42.073956],[1.826657,42.073986],[1.826642,42.073992],[1.826619,42.073996],[1.826596,42.073994],[1.826574,42.073987],[1.826556,42.073977],[1.826518,42.073949],[1.826471,42.073917],[1.826379,42.073855],[1.826286,42.073793],[1.826231,42.073758],[1.826143,42.073711],[1.826049,42.073669],[1.826001,42.073652],[1.825929,42.073632],[1.825855,42.073616],[1.82576,42.0736],[1.825663,42.073589],[1.82559,42.073587],[1.825516,42.07359],[1.825421,42.073601],[1.825326,42.073618],[1.825277,42.07363],[1.825207,42.073653],[1.825139,42.073681],[1.825085,42.073707],[1.82501,42.073751],[1.824973,42.073778],[1.824946,42.073798],[1.824922,42.073811],[1.8249,42.073817],[1.824892,42.073818],[1.824884,42.073814],[1.82488,42.07381],[1.824864,42.073824],[1.824846,42.073842],[1.82484,42.073848],[1.824845,42.073859],[1.824843,42.073873],[1.824834,42.073893],[1.824817,42.073925],[1.824762,42.07402],[1.824735,42.074071],[1.824684,42.0742],[1.824649,42.074266],[1.824605,42.074295],[1.824283,42.074223],[1.824227,42.074362],[1.824189,42.074457],[1.824188,42.07446],[1.824136,42.074593],[1.824068,42.074764],[1.824064,42.074777],[1.824022,42.074888],[1.824019,42.074896],[1.824012,42.074915],[1.823976,42.075008],[1.823972,42.075017],[1.823915,42.075137],[1.823915,42.075143],[1.823824,42.075381],[1.82382,42.075385],[1.823776,42.075499],[1.823773,42.075509],[1.823728,42.075633],[1.823723,42.075645],[1.823719,42.075653],[1.823646,42.075636],[1.823559,42.075909],[1.823614,42.075921],[1.823642,42.075927],[1.823614,42.076039],[1.823516,42.076133],[1.82327,42.076175],[1.823317,42.076398],[1.823322,42.0764],[1.822839,42.07666],[1.822251,42.076943],[1.822205,42.076892],[1.822159,42.07684],[1.822156,42.076837],[1.822137,42.076815],[1.822123,42.076821],[1.822119,42.076821],[1.8221,42.076821],[1.822074,42.076823],[1.822049,42.076825],[1.822023,42.076794],[1.821942,42.076696],[1.821929,42.076681],[1.82186,42.076599],[1.821815,42.076556],[1.821757,42.076489],[1.821699,42.076423],[1.821632,42.076342],[1.821598,42.076302],[1.821576,42.076279],[1.8216,42.076243],[1.821746,42.076128],[1.821879,42.076037],[1.821863,42.07591],[1.82195,42.075859],[1.821974,42.075846],[1.821985,42.07583],[1.821998,42.075812],[1.82201,42.075792],[1.822022,42.075771],[1.822033,42.075749],[1.822039,42.075734],[1.822044,42.07572],[1.822049,42.075707],[1.822052,42.075694],[1.822054,42.075682],[1.822054,42.075677],[1.822053,42.075666],[1.822052,42.075659],[1.822044,42.075582],[1.822011,42.075499],[1.821941,42.075408],[1.821938,42.075399],[1.821933,42.075388],[1.821914,42.075339],[1.821908,42.075326],[1.821903,42.075314],[1.821897,42.075303],[1.821893,42.075296],[1.821889,42.07529],[1.821884,42.075285],[1.821879,42.075282],[1.821865,42.075278],[1.821857,42.075275],[1.82184,42.075271],[1.821792,42.075262],[1.821774,42.075258],[1.821766,42.075256],[1.821759,42.075254],[1.821752,42.075251],[1.821739,42.075245],[1.821732,42.07524],[1.821696,42.075215],[1.821689,42.07521],[1.821682,42.075206],[1.821675,42.075202],[1.821669,42.075199],[1.821655,42.075196],[1.821646,42.075195],[1.821609,42.075194],[1.821601,42.075193],[1.821594,42.075192],[1.821563,42.075184],[1.821423,42.075146],[1.821142,42.075228],[1.821087,42.075246],[1.820996,42.075278],[1.820878,42.075322],[1.820833,42.075341],[1.820819,42.075347],[1.820804,42.075355],[1.820788,42.075364],[1.820773,42.075373],[1.820699,42.075423],[1.820665,42.075442],[1.820637,42.075465],[1.82063,42.075464],[1.820463,42.075442],[1.819678,42.075816],[1.819592,42.075815],[1.819585,42.075818],[1.819567,42.075818],[1.819435,42.075856],[1.819095,42.075861],[1.819,42.075889],[1.818939,42.075905],[1.818896,42.076066],[1.818837,42.076265],[1.818789,42.076443],[1.818796,42.076529],[1.818761,42.07666],[1.818732,42.076797],[1.818666,42.07685],[1.818549,42.07692],[1.818532,42.076953],[1.818522,42.077069],[1.818534,42.077259],[1.81847,42.0774],[1.818265,42.077503],[1.818136,42.077567],[1.817825,42.077723],[1.817787,42.077786],[1.817741,42.077858],[1.817692,42.077923],[1.817631,42.077969],[1.817545,42.077993],[1.817459,42.078008],[1.817411,42.078016],[1.817273,42.078061],[1.817203,42.078133],[1.817076,42.078171],[1.817018,42.07824],[1.81707,42.078326],[1.816981,42.078364],[1.816939,42.078384],[1.816841,42.078429],[1.816827,42.078436],[1.816698,42.078495],[1.816576,42.078547],[1.816499,42.078577],[1.816218,42.078683],[1.816043,42.078709],[1.815711,42.078607],[1.815699,42.078606],[1.815308,42.078723],[1.815244,42.078824],[1.815254,42.078853],[1.815254,42.078856],[1.815279,42.078963],[1.8153,42.07896],[1.815318,42.079038],[1.815419,42.079209],[1.815474,42.079322],[1.815502,42.07942],[1.815507,42.079436],[1.815341,42.079426],[1.815317,42.07947],[1.815272,42.079552],[1.815273,42.079568],[1.815048,42.079669],[1.814994,42.079718],[1.814991,42.079723],[1.814969,42.079763],[1.814964,42.079793],[1.814965,42.07982],[1.814974,42.079839],[1.814988,42.079862],[1.815084,42.079926],[1.815089,42.079929],[1.815099,42.079926],[1.815082,42.079985],[1.815063,42.080051],[1.815062,42.080056],[1.81516,42.080069],[1.815193,42.080077],[1.815199,42.080078],[1.815224,42.080085],[1.815225,42.080085],[1.815326,42.079959],[1.81556,42.080114],[1.81552,42.080154],[1.815588,42.080202],[1.815624,42.080165],[1.815667,42.080124],[1.815679,42.080113],[1.815705,42.080092],[1.815716,42.080084],[1.815739,42.080067],[1.815767,42.080049],[1.815777,42.080044],[1.815802,42.08003],[1.815827,42.080017],[1.815852,42.080004],[1.815871,42.079996],[1.815715,42.079808],[1.815742,42.079805],[1.815779,42.079804],[1.81581,42.079803],[1.815919,42.079809],[1.81603,42.079818],[1.816266,42.079845],[1.816503,42.079872],[1.816815,42.079904],[1.817127,42.079935],[1.817438,42.079969],[1.81775,42.080002],[1.817949,42.080022],[1.817989,42.080024],[1.818106,42.080033],[1.81837,42.080054],[1.818475,42.080062],[1.818565,42.080073],[1.818601,42.080078],[1.818642,42.080083],[1.818683,42.08009],[1.818724,42.080098],[1.818764,42.080106],[1.818804,42.080116],[1.818843,42.080127],[1.818882,42.080139],[1.81892,42.080152],[1.818958,42.080165],[1.818985,42.080176],[1.818994,42.08018],[1.819031,42.080196],[1.819036,42.080198],[1.819082,42.080221],[1.819127,42.080245],[1.819164,42.080266],[1.819172,42.08027],[1.819215,42.080296],[1.819258,42.080322],[1.819299,42.080351],[1.819339,42.080379],[1.81938,42.080407],[1.819555,42.080528],[1.819665,42.080604],[1.819806,42.080728],[1.819879,42.080842],[1.820101,42.081087],[1.82018,42.081167],[1.820227,42.08113],[1.820252,42.080768],[1.820303,42.080699],[1.820357,42.080702],[1.820376,42.080667],[1.820524,42.080402],[1.820664,42.080214],[1.820714,42.080113],[1.820796,42.07999],[1.820802,42.07998],[1.820872,42.079808],[1.820852,42.079703],[1.82085,42.079691],[1.820832,42.079609],[1.82081,42.079517],[1.820967,42.079368],[1.820968,42.079395],[1.821037,42.079524],[1.821051,42.079595],[1.821075,42.079696],[1.821114,42.079746],[1.821217,42.079783],[1.821438,42.079482],[1.821461,42.07945],[1.821469,42.079306],[1.821481,42.079294],[1.821599,42.079285],[1.821623,42.079213],[1.821424,42.078875],[1.820985,42.079103],[1.820924,42.079009],[1.821784,42.078542],[1.821871,42.078494],[1.822017,42.078405],[1.822109,42.078348],[1.822223,42.078275],[1.822247,42.078263],[1.822262,42.078256],[1.822505,42.078108],[1.822513,42.078102],[1.822567,42.078069],[1.822606,42.078041],[1.822612,42.078037],[1.822602,42.078001],[1.822594,42.077958],[1.82258,42.07789],[1.822596,42.077808],[1.822604,42.077771],[1.822622,42.077682],[1.822562,42.077539],[1.822561,42.077507],[1.82256,42.077475],[1.822565,42.077471],[1.822571,42.07747],[1.822624,42.077474],[1.82268,42.07748],[1.822734,42.077485],[1.822789,42.077488],[1.822844,42.077489],[1.822897,42.07749],[1.822981,42.077492],[1.823063,42.077497],[1.823092,42.077501],[1.823118,42.077508],[1.823171,42.07753],[1.823224,42.077555],[1.823301,42.077593],[1.823356,42.077621],[1.823451,42.077673],[1.823536,42.077722],[1.823644,42.077789],[1.823756,42.077862],[1.823799,42.077888],[1.823739,42.077923],[1.823702,42.07793],[1.823399,42.077995],[1.823376,42.077999],[1.823452,42.078231],[1.823683,42.07819],[1.824017,42.078108],[1.824031,42.078148],[1.824093,42.078148],[1.824182,42.078169],[1.824376,42.078277],[1.824564,42.078399],[1.824555,42.078403],[1.824604,42.078465],[1.824653,42.078444],[1.824765,42.078489],[1.82477,42.078491],[1.824809,42.078537],[1.825013,42.078458],[1.825073,42.078498],[1.825091,42.078509],[1.825171,42.078688],[1.825046,42.078752],[1.825083,42.078787],[1.8253,42.07905],[1.825318,42.079163],[1.825336,42.079192],[1.82539,42.079187],[1.825436,42.079182],[1.825435,42.079177],[1.825436,42.079141],[1.825437,42.079109],[1.825441,42.079039],[1.825443,42.078978],[1.825452,42.078946],[1.825467,42.078931],[1.825475,42.078931],[1.825473,42.078926],[1.825491,42.078931],[1.825512,42.078935],[1.825531,42.078938],[1.825552,42.07894],[1.825552,42.078931],[1.825652,42.078931],[1.825677,42.078881],[1.82564,42.078778],[1.825558,42.078668],[1.825558,42.078657],[1.825546,42.078638],[1.825511,42.078565],[1.825487,42.078503],[1.825452,42.078426],[1.825442,42.07841],[1.825439,42.078405],[1.825427,42.078385],[1.825485,42.078369],[1.825685,42.078205],[1.825791,42.078058],[1.825822,42.078036],[1.825908,42.077998],[1.825991,42.077918],[1.826133,42.077724],[1.826292,42.077811],[1.8263,42.077815],[1.826318,42.077824],[1.826534,42.077923],[1.826548,42.077907],[1.82655,42.077904]]]]}},{"type":"Feature","id":"080116_080116 AP02 BER 3","properties":{"area_id":"080116_080116 AP02 BER 3","nom":"Barri de la Creu","codi_icgc":"080116 AP02 BER 3","categoria":"Àrees de poblament","codi_municipi":"080116","municipi":"Avià","codi_comarca":"14","comarca":"Berguedà","provincia":"Barcelona","font":"ICGC Àrees de poblament v3r1 202602"},"geometry":{"type":"MultiPolygon","coordinates":[[[[1.825286,42.083135],[1.82533,42.083258],[1.825372,42.083369],[1.825538,42.083363],[1.82574,42.083352],[1.825999,42.083318],[1.825993,42.083373],[1.82596,42.08348],[1.825951,42.083556],[1.825964,42.083672],[1.825976,42.083741],[1.826006,42.083795],[1.826097,42.083976],[1.826144,42.084078],[1.826148,42.084133],[1.826135,42.084158],[1.826078,42.084173],[1.826031,42.084189],[1.826011,42.084199],[1.825999,42.084221],[1.825971,42.084274],[1.825951,42.084312],[1.825943,42.084329],[1.825823,42.084311],[1.825581,42.084263],[1.825291,42.084192],[1.825044,42.084126],[1.824922,42.084342],[1.825226,42.084425],[1.825331,42.08444],[1.825404,42.084446],[1.825551,42.084482],[1.825819,42.084527],[1.825898,42.084538],[1.825938,42.084544],[1.826015,42.084577],[1.826085,42.084637],[1.826113,42.084675],[1.826108,42.084725],[1.826091,42.084698],[1.82607,42.084684],[1.825962,42.084679],[1.825933,42.084729],[1.825922,42.084803],[1.825886,42.084903],[1.825887,42.084958],[1.825912,42.085057],[1.825897,42.085145],[1.825889,42.085241],[1.825883,42.085423],[1.825881,42.085435],[1.825867,42.085562],[1.82594,42.085606],[1.825981,42.085621],[1.826068,42.085652],[1.826083,42.085658],[1.826094,42.085645],[1.826155,42.085664],[1.826182,42.08567],[1.826345,42.085601],[1.826384,42.085587],[1.826451,42.085564],[1.82647,42.085561],[1.826516,42.085557],[1.826648,42.08554],[1.826807,42.085534],[1.826817,42.085534],[1.826815,42.085528],[1.826826,42.085527],[1.826792,42.085405],[1.826787,42.085387],[1.826707,42.085154],[1.826695,42.085122],[1.826544,42.084728],[1.826509,42.084649],[1.826511,42.084632],[1.826513,42.084621],[1.826517,42.0846],[1.826557,42.084481],[1.826591,42.084358],[1.826637,42.084256],[1.826845,42.0843],[1.826905,42.084344],[1.827023,42.084324],[1.827259,42.084198],[1.827482,42.084443],[1.827707,42.08435],[1.827144,42.083703],[1.827206,42.08358],[1.827219,42.083551],[1.827243,42.0835],[1.827356,42.083269],[1.827363,42.083271],[1.82742,42.083287],[1.827447,42.083232],[1.827477,42.083169],[1.827483,42.083158],[1.827497,42.083128],[1.82751,42.083132],[1.827582,42.083142],[1.82765,42.083161],[1.827677,42.083156],[1.827725,42.083147],[1.82768,42.08305],[1.827559,42.082882],[1.827518,42.082835],[1.82793,42.082768],[1.827926,42.082757],[1.827911,42.082681],[1.827884,42.082561],[1.827881,42.082546],[1.82786,42.082386],[1.827864,42.082329],[1.827867,42.082281],[1.82787,42.082272],[1.827878,42.082259],[1.827898,42.082238],[1.827905,42.082232],[1.827911,42.082224],[1.827949,42.082152],[1.827997,42.082073],[1.828005,42.082052],[1.828011,42.082032],[1.828016,42.082011],[1.828019,42.08199],[1.828021,42.081969],[1.828021,42.081948],[1.82802,42.081927],[1.828018,42.081906],[1.828015,42.081886],[1.828013,42.081878],[1.828008,42.08187],[1.828004,42.081864],[1.828,42.081859],[1.827996,42.081853],[1.827993,42.081849],[1.827982,42.081836],[1.827976,42.08183],[1.82797,42.081825],[1.827947,42.081806],[1.827931,42.081794],[1.827857,42.081782],[1.827679,42.08182],[1.827463,42.081839],[1.82725,42.081894],[1.827252,42.082005],[1.827252,42.082014],[1.827253,42.082033],[1.827195,42.082061],[1.826934,42.08213],[1.826943,42.08217],[1.826984,42.082266],[1.826944,42.082275],[1.826936,42.082263],[1.826801,42.08232],[1.826814,42.082336],[1.826779,42.082363],[1.826537,42.082524],[1.826481,42.082578],[1.82642,42.082572],[1.826398,42.082664],[1.826397,42.08267],[1.826397,42.082687],[1.826396,42.082696],[1.826414,42.082776],[1.826444,42.082936],[1.826449,42.082946],[1.826469,42.083045],[1.826512,42.083175],[1.826543,42.083311],[1.826552,42.083379],[1.826526,42.083413],[1.826454,42.083432],[1.826358,42.083454],[1.826199,42.083473],[1.826094,42.083502],[1.826037,42.083523],[1.826017,42.083523],[1.826004,42.083513],[1.826002,42.083477],[1.826024,42.083424],[1.826038,42.083359],[1.82605,42.083266],[1.826041,42.083187],[1.826024,42.083117],[1.825997,42.083065],[1.825964,42.08302],[1.825767,42.083051],[1.825615,42.083064],[1.825423,42.083074],[1.825307,42.083085],[1.825286,42.083135]]]]}},{"type":"Feature","id":"080116_080116 AP04 BER 3","properties":{"area_id":"080116_080116 AP04 BER 3","nom":"Cal Rosal","codi_icgc":"080116 AP04 BER 3","categoria":"Àrees de poblament","codi_municipi":"080116","municipi":"Avià","codi_comarca":"14","comarca":"Berguedà","provincia":"Barcelona","font":"ICGC Àrees de poblament v3r1 202602"},"geometry":{"type":"MultiPolygon","coordinates":[[[[1.865666,42.0735],[1.866305,42.073122],[1.866348,42.073097],[1.866273,42.073093],[1.866174,42.073101],[1.866054,42.073075],[1.866006,42.073059],[1.865985,42.07303],[1.865903,42.072989],[1.865869,42.072972],[1.865747,42.073046],[1.865687,42.073082],[1.865566,42.073137],[1.865444,42.073193],[1.865414,42.073212],[1.865377,42.073246],[1.865356,42.073263],[1.86533,42.073277],[1.865304,42.073286],[1.865266,42.073295],[1.865246,42.073295],[1.865227,42.073293],[1.865141,42.073276],[1.865055,42.073259],[1.865011,42.073258],[1.864983,42.073382],[1.864987,42.073383],[1.865023,42.073391],[1.86506,42.073399],[1.865151,42.073424],[1.865198,42.073437],[1.865221,42.073442],[1.865244,42.073448],[1.865257,42.073449],[1.865302,42.073457],[1.865395,42.073418],[1.865448,42.073411],[1.865575,42.0734],[1.865611,42.073493],[1.865626,42.073524],[1.865666,42.0735]]]]}},{"type":"Feature","id":"080116_080116 SI03 BER 2","properties":{"area_id":"080116_080116 SI03 BER 2","nom":"Fibresa Filatura","codi_icgc":"080116 SI03 BER 2","categoria":"Sector industrial","codi_municipi":"080116","municipi":"Avià","codi_comarca":"14","comarca":"Berguedà","provincia":"Barcelona","font":"ICGC Àrees de poblament v3r1 202602"},"geometry":{"type":"MultiPolygon","coordinates":[[[[1.814818,42.077253],[1.814741,42.077257],[1.814588,42.077278],[1.814501,42.07729],[1.81443,42.077299],[1.814426,42.0773],[1.81437,42.077308],[1.814163,42.077343],[1.813957,42.077383],[1.813884,42.0774],[1.813754,42.077429],[1.81375,42.077429],[1.813721,42.077438],[1.813697,42.077451],[1.813678,42.077469],[1.813665,42.077489],[1.81366,42.077511],[1.813661,42.077526],[1.813669,42.077541],[1.813684,42.077554],[1.813704,42.077563],[1.813726,42.077566],[1.813729,42.077608],[1.813724,42.077651],[1.813712,42.077693],[1.813695,42.077729],[1.813696,42.077769],[1.813705,42.077809],[1.813721,42.077847],[1.813744,42.077883],[1.813758,42.077899],[1.814208,42.078523],[1.81429,42.078593],[1.81441,42.078761],[1.814441,42.078804],[1.814738,42.078713],[1.814698,42.078614],[1.814692,42.078576],[1.814687,42.078547],[1.81468,42.078495],[1.814684,42.078488],[1.81466,42.078453],[1.8147,42.078437],[1.814799,42.078391],[1.814895,42.078344],[1.814957,42.078312],[1.815163,42.078228],[1.81522,42.078207],[1.815439,42.078124],[1.815604,42.07799],[1.81567,42.078008],[1.815754,42.078144],[1.815792,42.078293],[1.815848,42.078421],[1.815872,42.078448],[1.815905,42.078487],[1.815954,42.078495],[1.816168,42.078415],[1.816393,42.078284],[1.816506,42.078114],[1.816595,42.078065],[1.816585,42.077987],[1.816537,42.077895],[1.816506,42.077808],[1.816371,42.077795],[1.816267,42.077789],[1.816083,42.077746],[1.815905,42.077714],[1.815754,42.077697],[1.8157,42.077623],[1.81565,42.077403],[1.815572,42.077264],[1.815413,42.077329],[1.815107,42.077456],[1.814996,42.077363],[1.814845,42.07725],[1.814818,42.077253]]]]}},{"type":"Feature","id":"080116_080116 AP03 BER 3","properties":{"area_id":"080116_080116 AP03 BER 3","nom":"Graugés","codi_icgc":"080116 AP03 BER 3","categoria":"Àrees de poblament","codi_municipi":"080116","municipi":"Avià","codi_comarca":"14","comarca":"Berguedà","provincia":"Barcelona","font":"ICGC Àrees de poblament v3r1 202602"},"geometry":{"type":"MultiPolygon","coordinates":[[[[1.844733,42.06868],[1.845287,42.06848],[1.845614,42.068515],[1.845703,42.06852],[1.845904,42.068524],[1.846027,42.068508],[1.846126,42.068491],[1.846325,42.068561],[1.846413,42.068577],[1.846582,42.0686],[1.846736,42.068621],[1.846891,42.068644],[1.846893,42.06863],[1.847106,42.068019],[1.847117,42.067985],[1.84712,42.067963],[1.847106,42.067882],[1.847154,42.067819],[1.847171,42.067795],[1.847271,42.067689],[1.847465,42.067763],[1.847501,42.067776],[1.847516,42.067782],[1.847528,42.067787],[1.847693,42.067863],[1.847961,42.067968],[1.847963,42.067966],[1.847969,42.067969],[1.848134,42.067868],[1.848095,42.067772],[1.848044,42.067648],[1.848069,42.067638],[1.848649,42.067402],[1.848531,42.067241],[1.848343,42.066986],[1.848341,42.066969],[1.848344,42.066961],[1.848349,42.066956],[1.848325,42.066923],[1.848314,42.066907],[1.848304,42.066893],[1.848293,42.066888],[1.847919,42.066374],[1.847695,42.066473],[1.847275,42.066659],[1.847077,42.066746],[1.846539,42.066986],[1.846516,42.066991],[1.846339,42.067035],[1.846171,42.066871],[1.846163,42.066866],[1.845708,42.066566],[1.845545,42.066422],[1.845229,42.066106],[1.844976,42.065794],[1.844786,42.065485],[1.844732,42.065418],[1.844646,42.065517],[1.844435,42.06584],[1.844176,42.066161],[1.843913,42.066486],[1.843879,42.066531],[1.84383,42.066605],[1.843786,42.066681],[1.84375,42.066759],[1.843721,42.066839],[1.843698,42.06692],[1.843722,42.066955],[1.843838,42.066985],[1.843942,42.067098],[1.844099,42.067343],[1.844123,42.067373],[1.844149,42.067395],[1.844142,42.067439],[1.844079,42.067846],[1.844135,42.067849],[1.844297,42.067863],[1.844352,42.067936],[1.844361,42.067947],[1.844381,42.067965],[1.844415,42.067994],[1.84449,42.068061],[1.844515,42.068086],[1.84462,42.068222],[1.844659,42.068363],[1.844688,42.068457],[1.844736,42.068558],[1.844728,42.068682],[1.844733,42.06868]]]]}},{"type":"Feature","id":"080116_080116 AP07 BER 1","properties":{"area_id":"080116_080116 AP07 BER 1","nom":"Molí del Castell","codi_icgc":"080116 AP07 BER 1","categoria":"Àrees de poblament","codi_municipi":"080116","municipi":"Avià","codi_comarca":"14","comarca":"Berguedà","provincia":"Barcelona","font":"ICGC Àrees de poblament v3r1 202602"},"geometry":{"type":"MultiPolygon","coordinates":[[[[1.831727,42.084102],[1.832044,42.084277],[1.832135,42.084183],[1.832282,42.084034],[1.832411,42.083954],[1.832417,42.083923],[1.832377,42.083862],[1.832352,42.08382],[1.832312,42.083776],[1.832258,42.083745],[1.832168,42.083674],[1.832163,42.083646],[1.832156,42.083601],[1.832157,42.083527],[1.832158,42.083515],[1.832133,42.083479],[1.83211,42.08345],[1.832106,42.083448],[1.832066,42.083435],[1.83199,42.083429],[1.831959,42.083441],[1.831902,42.083463],[1.831689,42.0837],[1.831511,42.083891],[1.831467,42.083947],[1.831727,42.084102]]]]}},{"type":"Feature","id":"080116_080116 AP05 BER 3","properties":{"area_id":"080116_080116 AP05 BER 3","nom":"Obiols","codi_icgc":"080116 AP05 BER 3","categoria":"Àrees de poblament","codi_municipi":"080116","municipi":"Avià","codi_comarca":"14","comarca":"Berguedà","provincia":"Barcelona","font":"ICGC Àrees de poblament v3r1 202602"},"geometry":{"type":"MultiPolygon","coordinates":[[[[1.866768,42.061223],[1.86678,42.061211],[1.866841,42.061118],[1.866857,42.061032],[1.866791,42.060949],[1.866773,42.060945],[1.866674,42.060969],[1.866658,42.061004],[1.86653,42.061018],[1.866486,42.061011],[1.866442,42.060984],[1.866398,42.060979],[1.866313,42.060994],[1.866258,42.061021],[1.866238,42.061033],[1.866173,42.061059],[1.866117,42.061079],[1.866076,42.061112],[1.866028,42.061147],[1.866034,42.06121],[1.866058,42.061263],[1.866119,42.061349],[1.866143,42.061339],[1.866186,42.061324],[1.866338,42.06129],[1.866368,42.061284],[1.86639,42.061279],[1.866493,42.061268],[1.866581,42.061269],[1.866717,42.061243],[1.866768,42.061223]]]]}},{"type":"Feature","id":"080116_080116 SI02 BER 2","properties":{"area_id":"080116_080116 SI02 BER 2","nom":"Polígon industrial La Plana","codi_icgc":"080116 SI02 BER 2","categoria":"Sector industrial","codi_municipi":"080116","municipi":"Avià","codi_comarca":"14","comarca":"Berguedà","provincia":"Barcelona","font":"ICGC Àrees de poblament v3r1 202602"},"geometry":{"type":"MultiPolygon","coordinates":[[[[1.8725,42.054536],[1.8725,42.054509],[1.872506,42.054031],[1.872506,42.053966],[1.872507,42.053928],[1.872506,42.05388],[1.872499,42.053835],[1.872494,42.053802],[1.872475,42.053676],[1.872469,42.053641],[1.872376,42.053041],[1.872337,42.052706],[1.872321,42.052566],[1.872043,42.052387],[1.872036,42.052379],[1.871985,42.052323],[1.871969,42.052305],[1.87197,42.052292],[1.871971,42.051889],[1.871977,42.051827],[1.872019,42.051318],[1.872066,42.050611],[1.87203,42.050385],[1.872034,42.050294],[1.87205,42.049965],[1.871642,42.049945],[1.871649,42.04952],[1.871623,42.049518],[1.871569,42.049513],[1.871197,42.049512],[1.871125,42.049887],[1.87107,42.05054],[1.87107,42.05054],[1.871068,42.05057],[1.871063,42.050625],[1.870988,42.051386],[1.870906,42.051385],[1.870852,42.051385],[1.870708,42.051391],[1.870671,42.051827],[1.870819,42.051834],[1.871005,42.051842],[1.87095,42.052541],[1.871181,42.052557],[1.871207,42.052681],[1.871229,42.052765],[1.871273,42.052883],[1.871419,42.052891],[1.871461,42.053502],[1.871482,42.053767],[1.871515,42.053969],[1.871539,42.054263],[1.871743,42.054259],[1.871757,42.054535],[1.871896,42.054532],[1.871984,42.054531],[1.872288,42.054526],[1.872305,42.054993],[1.872495,42.054995],[1.872499,42.054601],[1.8725,42.054573],[1.8725,42.054536]]]]}},{"type":"Feature","id":"080116_080116 SI04 BER 2","properties":{"area_id":"080116_080116 SI04 BER 2","nom":"Polígon industrial del Molí del Castell","codi_icgc":"080116 SI04 BER 2","categoria":"Sector industrial","codi_municipi":"080116","municipi":"Avià","codi_comarca":"14","comarca":"Berguedà","provincia":"Barcelona","font":"ICGC Àrees de poblament v3r1 202602"},"geometry":{"type":"MultiPolygon","coordinates":[[[[1.831727,42.084102],[1.831467,42.083947],[1.8312,42.084236],[1.831051,42.084387],[1.831154,42.084438],[1.831838,42.084808],[1.831934,42.0847],[1.831764,42.084608],[1.831802,42.084573],[1.831883,42.084485],[1.832044,42.084277],[1.831727,42.084102]]],[[[1.833871,42.084258],[1.833677,42.083995],[1.833597,42.084016],[1.833517,42.08404],[1.83344,42.084068],[1.833389,42.084089],[1.833308,42.084126],[1.833229,42.084166],[1.833155,42.084211],[1.833084,42.084259],[1.833061,42.084277],[1.833028,42.084302],[1.832987,42.084333],[1.832896,42.084406],[1.832873,42.084424],[1.832682,42.084638],[1.83296,42.08484],[1.833023,42.084893],[1.833178,42.084798],[1.833328,42.084699],[1.833473,42.084595],[1.833612,42.084487],[1.833745,42.084374],[1.833871,42.084258]]],[[[1.830051,42.08716],[1.828705,42.086175],[1.828549,42.08635],[1.82835,42.086458],[1.828129,42.086527],[1.827946,42.086595],[1.82793,42.086606],[1.828377,42.086958],[1.82876,42.087225],[1.82955,42.087815],[1.830178,42.087266],[1.830134,42.087229],[1.830051,42.08716]]]]}},{"type":"Feature","id":"080116_080116 SI01 BER 2","properties":{"area_id":"080116_080116 SI01 BER 2","nom":"Polígon industrial el Camí de Santa Maria","codi_icgc":"080116 SI01 BER 2","categoria":"Sector industrial","codi_municipi":"080116","municipi":"Avià","codi_comarca":"14","comarca":"Berguedà","provincia":"Barcelona","font":"ICGC Àrees de poblament v3r1 202602"},"geometry":{"type":"MultiPolygon","coordinates":[[[[1.828884,42.073101],[1.829176,42.073557],[1.829341,42.073736],[1.829738,42.07353],[1.829956,42.073409],[1.830138,42.073343],[1.830401,42.07324],[1.830005,42.072723],[1.829881,42.072589],[1.82963,42.072694],[1.829551,42.072765],[1.829495,42.072817],[1.829551,42.072877],[1.829307,42.072991],[1.829148,42.07303],[1.829057,42.073052],[1.828884,42.073101]]]]}},{"type":"Feature","id":"080116_080116 SI05 BER 2","properties":{"area_id":"080116_080116 SI05 BER 2","nom":"Semen Avià","codi_icgc":"080116 SI05 BER 2","categoria":"Sector industrial","codi_municipi":"080116","municipi":"Avià","codi_comarca":"14","comarca":"Berguedà","provincia":"Barcelona","font":"ICGC Àrees de poblament v3r1 202602"},"geometry":{"type":"MultiPolygon","coordinates":[[[[1.804584,42.063776],[1.804592,42.063801],[1.804624,42.063855],[1.804636,42.063909],[1.804629,42.063981],[1.805465,42.064046],[1.805529,42.063781],[1.805289,42.063731],[1.805208,42.063706],[1.805181,42.063762],[1.804887,42.063729],[1.804834,42.063704],[1.804788,42.063703],[1.804755,42.063702],[1.804754,42.063699],[1.804726,42.063611],[1.804639,42.063612],[1.804603,42.063615],[1.80459,42.063619],[1.804557,42.063625],[1.804558,42.063633],[1.804562,42.063691],[1.804566,42.063747],[1.804567,42.063748],[1.804584,42.063776],[1.804584,42.063776]]]]}},{"type":"Feature","id":"080116_080116 AP06 BER 1","properties":{"area_id":"080116_080116 AP06 BER 1","nom":"la Plana","codi_icgc":"080116 AP06 BER 1","categoria":"Àrees de poblament","codi_municipi":"080116","municipi":"Avià","codi_comarca":"14","comarca":"Berguedà","provincia":"Barcelona","font":"ICGC Àrees de poblament v3r1 202602"},"geometry":{"type":"MultiPolygon","coordinates":[[[[1.871051,42.054194],[1.871462,42.05414],[1.871314,42.053245],[1.871145,42.052587],[1.870706,42.052628],[1.871051,42.054194]]]]}}]}