{"type":"FeatureCollection","name":"ICGC Àrees de poblament - Badalona","features":[{"type":"Feature","id":"080155_080155 AP01 BAR 3","properties":{"area_id":"080155_080155 AP01 BAR 3","nom":"Badalona","codi_icgc":"080155 AP01 BAR 3","categoria":"Àrees de poblament","codi_municipi":"080155","municipi":"Badalona","codi_comarca":"13","comarca":"Barcelonès","provincia":"Barcelona","font":"ICGC Àrees de poblament v3r1 202602"},"geometry":{"type":"MultiPolygon","coordinates":[[[[2.236556,41.477621],[2.236723,41.477497],[2.237077,41.477526],[2.237418,41.477571],[2.237722,41.477605],[2.237768,41.477609],[2.237811,41.477614],[2.237814,41.47762],[2.237825,41.477616],[2.237922,41.477627],[2.238128,41.477653],[2.238144,41.477652],[2.238159,41.477647],[2.238167,41.47764],[2.238181,41.477617],[2.238189,41.477594],[2.238215,41.477526],[2.238238,41.477458],[2.238259,41.477383],[2.23828,41.477307],[2.238218,41.477311],[2.238244,41.477232],[2.238279,41.477128],[2.238208,41.476339],[2.238194,41.476183],[2.237999,41.475069],[2.238,41.475048],[2.238004,41.474993],[2.238018,41.474966],[2.238006,41.474957],[2.238015,41.474816],[2.238016,41.4748],[2.238068,41.474675],[2.238223,41.474483],[2.238265,41.474374],[2.238275,41.474346],[2.238277,41.474316],[2.238272,41.474287],[2.238259,41.474259],[2.23824,41.474234],[2.238225,41.47422],[2.238195,41.474203],[2.238125,41.474184],[2.238043,41.474076],[2.238105,41.474043],[2.23821,41.473987],[2.238229,41.473977],[2.238311,41.473929],[2.238389,41.473878],[2.238411,41.473861],[2.238462,41.473823],[2.238529,41.473764],[2.238236,41.473735],[2.238042,41.473713],[2.237958,41.473695],[2.237926,41.473688],[2.237712,41.473673],[2.237496,41.473745],[2.237466,41.47372],[2.237246,41.473532],[2.237207,41.473495],[2.23718,41.473469],[2.237111,41.473401],[2.237081,41.473363],[2.237053,41.473325],[2.237006,41.473237],[2.236997,41.47322],[2.237064,41.473177],[2.237078,41.473168],[2.237129,41.47312],[2.237193,41.473061],[2.237295,41.472965],[2.237396,41.472868],[2.237578,41.472547],[2.237592,41.472575],[2.237629,41.472522],[2.237596,41.472479],[2.237568,41.472474],[2.237545,41.47247],[2.237542,41.472478],[2.237209,41.472442],[2.237038,41.472389],[2.236977,41.472357],[2.2369,41.472317],[2.236728,41.472238],[2.236633,41.472195],[2.236584,41.472175],[2.236525,41.472152],[2.236466,41.472128],[2.236392,41.472098],[2.23632,41.472066],[2.236236,41.472024],[2.236152,41.471981],[2.236129,41.471969],[2.236104,41.471958],[2.236081,41.471955],[2.236057,41.471961],[2.236034,41.47197],[2.236026,41.471973],[2.236058,41.471933],[2.236085,41.471901],[2.236056,41.471888],[2.235836,41.471817],[2.235836,41.471817],[2.235836,41.471817],[2.235654,41.471758],[2.235628,41.47175],[2.235569,41.471729],[2.235532,41.471713],[2.235486,41.471687],[2.235427,41.471646],[2.235368,41.471605],[2.235386,41.471553],[2.235398,41.471518],[2.235404,41.471501],[2.235411,41.471481],[2.235424,41.471452],[2.235429,41.471441],[2.235437,41.471429],[2.235512,41.471349],[2.235583,41.471269],[2.23567,41.471168],[2.235749,41.471073],[2.235701,41.471024],[2.235281,41.47072],[2.235153,41.470631],[2.235066,41.47057],[2.234405,41.470109],[2.234746,41.469857],[2.234778,41.469851],[2.234871,41.469908],[2.235386,41.470224],[2.235501,41.470295],[2.235525,41.47031],[2.235535,41.470312],[2.235554,41.470312],[2.235594,41.470307],[2.235672,41.470299],[2.235721,41.470292],[2.23575,41.470289],[2.235826,41.470278],[2.235902,41.470265],[2.235948,41.470251],[2.235972,41.47024],[2.236003,41.470214],[2.236012,41.47019],[2.236109,41.470097],[2.236176,41.470033],[2.236292,41.469918],[2.236374,41.469838],[2.236491,41.469715],[2.236538,41.469602],[2.236455,41.469468],[2.236448,41.469457],[2.236309,41.469257],[2.236137,41.469012],[2.236025,41.468823],[2.235856,41.468653],[2.235809,41.468606],[2.235791,41.468588],[2.235766,41.468567],[2.235764,41.468551],[2.23572,41.46855],[2.235675,41.468544],[2.235649,41.468536],[2.235627,41.468523],[2.23559,41.468495],[2.235559,41.468465],[2.235537,41.46844],[2.235517,41.468413],[2.23549,41.46837],[2.235464,41.468327],[2.235437,41.468285],[2.23541,41.468242],[2.235384,41.468191],[2.235359,41.468141],[2.235338,41.468106],[2.235316,41.468071],[2.235301,41.468047],[2.235285,41.468024],[2.235268,41.468012],[2.235246,41.468006],[2.235223,41.468004],[2.235203,41.468012],[2.23519,41.468032],[2.235179,41.468051],[2.235172,41.468063],[2.235162,41.468073],[2.235132,41.468089],[2.2351,41.468102],[2.235073,41.468118],[2.235047,41.468135],[2.235019,41.468154],[2.234992,41.468173],[2.234963,41.468198],[2.234936,41.468224],[2.234917,41.468247],[2.23473,41.468251],[2.234717,41.468251],[2.234843,41.468149],[2.234881,41.468083],[2.234927,41.468026],[2.235005,41.467812],[2.235039,41.467631],[2.235103,41.467527],[2.23522,41.467356],[2.235336,41.467185],[2.235426,41.467081],[2.23556,41.466986],[2.235694,41.466892],[2.235895,41.466823],[2.235898,41.466846],[2.235901,41.466886],[2.235909,41.466921],[2.235939,41.467047],[2.236175,41.467096],[2.236263,41.467092],[2.236237,41.467141],[2.236173,41.467217],[2.236284,41.467269],[2.236403,41.467307],[2.23639,41.467329],[2.236381,41.467352],[2.23632,41.467445],[2.236305,41.467469],[2.236186,41.467461],[2.236165,41.467486],[2.236108,41.467535],[2.236212,41.467678],[2.236242,41.467738],[2.236326,41.467735],[2.236286,41.467856],[2.236189,41.467935],[2.236144,41.467994],[2.236128,41.468033],[2.236167,41.468057],[2.236205,41.46808],[2.236231,41.468103],[2.23625,41.46813],[2.236268,41.468157],[2.236288,41.468182],[2.236304,41.468196],[2.236299,41.468202],[2.23624,41.468257],[2.236321,41.468338],[2.236399,41.468345],[2.236406,41.468345],[2.236408,41.468356],[2.236418,41.468375],[2.236432,41.468386],[2.236436,41.468389],[2.236461,41.468402],[2.236484,41.468413],[2.236512,41.468428],[2.23654,41.468444],[2.236594,41.468475],[2.236647,41.468507],[2.236682,41.468528],[2.236723,41.468543],[2.236795,41.468558],[2.236865,41.468571],[2.236908,41.46858],[2.236933,41.468585],[2.237001,41.468598],[2.237055,41.468607],[2.23711,41.468615],[2.237134,41.468618],[2.237184,41.468628],[2.237234,41.468637],[2.23729,41.468644],[2.237347,41.468651],[2.237383,41.468648],[2.237416,41.468645],[2.23748,41.468637],[2.237575,41.468617],[2.237626,41.468605],[2.237669,41.468596],[2.237712,41.46858],[2.237729,41.468575],[2.23774,41.468575],[2.237753,41.468555],[2.237811,41.468482],[2.237733,41.468345],[2.237722,41.46834],[2.237708,41.468332],[2.23759,41.468271],[2.237521,41.468173],[2.237443,41.468181],[2.237395,41.468131],[2.237367,41.468115],[2.237272,41.468035],[2.237361,41.467975],[2.237378,41.46796],[2.237393,41.467952],[2.23729,41.467855],[2.23727,41.467835],[2.237305,41.467794],[2.237338,41.467761],[2.237379,41.467712],[2.237416,41.467662],[2.237457,41.467603],[2.237495,41.467543],[2.237547,41.467447],[2.237598,41.467351],[2.237645,41.467268],[2.237692,41.467184],[2.237718,41.467136],[2.237745,41.467089],[2.237762,41.467066],[2.237783,41.467045],[2.237819,41.467014],[2.237856,41.466986],[2.237875,41.466975],[2.237896,41.466967],[2.237917,41.466966],[2.237933,41.466969],[2.237952,41.466981],[2.237956,41.466983],[2.237979,41.466996],[2.238027,41.467024],[2.238076,41.467051],[2.238143,41.467088],[2.238209,41.467125],[2.23828,41.467167],[2.23835,41.467209],[2.238418,41.467251],[2.238485,41.467293],[2.238525,41.467317],[2.238566,41.467341],[2.238586,41.467349],[2.238607,41.467353],[2.238632,41.467355],[2.238637,41.467355],[2.238677,41.467344],[2.238718,41.467333],[2.238795,41.467264],[2.239201,41.467544],[2.239639,41.467779],[2.239693,41.467808],[2.239758,41.467805],[2.239853,41.467794],[2.239989,41.467741],[2.240164,41.467653],[2.240189,41.467606],[2.240246,41.467502],[2.240278,41.467494],[2.240307,41.467481],[2.240331,41.467463],[2.240349,41.467442],[2.240358,41.467424],[2.240361,41.467418],[2.240363,41.467411],[2.240415,41.467179],[2.240422,41.467147],[2.240435,41.46708],[2.240439,41.467055],[2.240432,41.467038],[2.240419,41.466997],[2.240119,41.466815],[2.239735,41.46661],[2.239681,41.466583],[2.239677,41.466547],[2.239737,41.466485],[2.240141,41.466128],[2.240225,41.466044],[2.240284,41.466015],[2.240381,41.465992],[2.24049,41.465995],[2.240713,41.465802],[2.241022,41.465535],[2.241058,41.465505],[2.241112,41.465533],[2.241687,41.465829],[2.242132,41.466046],[2.242557,41.466281],[2.242844,41.46645],[2.243163,41.466646],[2.243623,41.466955],[2.243831,41.467085],[2.243882,41.467099],[2.243934,41.467093],[2.243986,41.467073],[2.244026,41.467057],[2.244526,41.466877],[2.245021,41.466704],[2.245861,41.466528],[2.245822,41.466591],[2.24582,41.466699],[2.245866,41.466836],[2.245937,41.467029],[2.246022,41.467192],[2.246129,41.467339],[2.246294,41.467522],[2.246489,41.467718],[2.246879,41.468064],[2.247261,41.468381],[2.247552,41.468618],[2.247727,41.468748],[2.247744,41.468761],[2.247847,41.468838],[2.248186,41.46903],[2.248498,41.46915],[2.248507,41.469153],[2.248994,41.469245],[2.249111,41.469256],[2.24916,41.46926],[2.249701,41.469312],[2.250311,41.469356],[2.250385,41.469359],[2.250483,41.469364],[2.250505,41.46932],[2.250531,41.469183],[2.250536,41.469016],[2.250492,41.468769],[2.250494,41.468608],[2.25048,41.468427],[2.250467,41.468143],[2.250469,41.468006],[2.250522,41.467861],[2.250687,41.467659],[2.251055,41.46728],[2.251079,41.46731],[2.25107,41.467423],[2.251042,41.46773],[2.251045,41.467876],[2.2511,41.467918],[2.253152,41.467854],[2.253135,41.468211],[2.253182,41.468271],[2.253233,41.468284],[2.253305,41.468272],[2.253434,41.468201],[2.25348,41.468157],[2.253728,41.467931],[2.253951,41.46773],[2.254198,41.467504],[2.254389,41.46733],[2.254435,41.467355],[2.254537,41.467417],[2.254743,41.467229],[2.254844,41.467289],[2.254971,41.467176],[2.254986,41.467164],[2.255005,41.467148],[2.255035,41.467123],[2.255132,41.467118],[2.255515,41.466766],[2.255557,41.466727],[2.25556,41.466724],[2.255569,41.466709],[2.255572,41.466693],[2.255567,41.466678],[2.255554,41.466664],[2.255488,41.466625],[2.255312,41.46655],[2.255302,41.466548],[2.255278,41.466545],[2.255254,41.466549],[2.255233,41.466558],[2.255226,41.466564],[2.255223,41.466562],[2.255275,41.466516],[2.25494,41.466396],[2.25461,41.466283],[2.253597,41.465952],[2.253501,41.465745],[2.253469,41.465612],[2.253424,41.465543],[2.253413,41.465526],[2.253396,41.465517],[2.253387,41.465515],[2.253368,41.46551],[2.253314,41.4655],[2.253278,41.465493],[2.25326,41.465489],[2.253229,41.465484],[2.253198,41.465482],[2.253167,41.465483],[2.253136,41.465488],[2.253074,41.465498],[2.253085,41.465473],[2.253096,41.465448],[2.253099,41.465434],[2.253099,41.465421],[2.253092,41.465394],[2.253078,41.465368],[2.253063,41.465343],[2.253052,41.465306],[2.253051,41.465303],[2.253044,41.465263],[2.253043,41.465214],[2.253048,41.465165],[2.253053,41.46513],[2.253059,41.465095],[2.253081,41.464841],[2.253089,41.464749],[2.253106,41.464512],[2.253108,41.464491],[2.253126,41.464232],[2.253129,41.464162],[2.253129,41.464131],[2.253122,41.4641],[2.253108,41.46407],[2.253086,41.464043],[2.253059,41.464019],[2.253047,41.464011],[2.252978,41.463965],[2.252974,41.463964],[2.252955,41.463954],[2.252941,41.463939],[2.252934,41.463922],[2.252934,41.463905],[2.252943,41.463897],[2.252932,41.463891],[2.25296,41.463883],[2.252982,41.463866],[2.252994,41.463857],[2.253014,41.463833],[2.253028,41.463806],[2.253034,41.463777],[2.253033,41.463749],[2.253025,41.463721],[2.253005,41.463699],[2.252971,41.463665],[2.252931,41.463635],[2.252895,41.463611],[2.252888,41.463607],[2.25269,41.463473],[2.252475,41.463328],[2.252259,41.463183],[2.252043,41.463039],[2.252017,41.463027],[2.251973,41.463012],[2.251927,41.463002],[2.251879,41.462998],[2.251832,41.462999],[2.251786,41.463004],[2.251702,41.463015],[2.251598,41.463033],[2.25145,41.463061],[2.251186,41.462469],[2.250961,41.461938],[2.250941,41.461948],[2.250941,41.46196],[2.250934,41.462003],[2.250928,41.462019],[2.250918,41.462046],[2.250896,41.462086],[2.250867,41.462124],[2.250831,41.462159],[2.250826,41.462164],[2.250821,41.462168],[2.250686,41.462301],[2.250596,41.462387],[2.250563,41.462418],[2.25054,41.462447],[2.250501,41.462503],[2.250469,41.462562],[2.250444,41.462623],[2.250427,41.462685],[2.250417,41.462749],[2.250415,41.462813],[2.250413,41.462912],[2.250418,41.463219],[2.250418,41.463488],[2.250413,41.463664],[2.250402,41.463783],[2.250401,41.463787],[2.250395,41.463803],[2.250381,41.463817],[2.250362,41.463827],[2.25034,41.463832],[2.250318,41.463831],[2.250296,41.463825],[2.250279,41.463813],[2.250217,41.463771],[2.25019,41.463752],[2.250056,41.463665],[2.24994,41.46359],[2.249935,41.463587],[2.249926,41.463581],[2.249923,41.463577],[2.249921,41.463566],[2.249933,41.463539],[2.249951,41.4635],[2.249983,41.463422],[2.249994,41.463382],[2.25,41.463328],[2.250001,41.463303],[2.249995,41.463089],[2.249988,41.462861],[2.24998,41.462605],[2.24997,41.462326],[2.249961,41.462059],[2.249957,41.462001],[2.249948,41.461921],[2.249932,41.461841],[2.249908,41.461763],[2.249902,41.461746],[2.249835,41.461567],[2.249802,41.461473],[2.249763,41.461396],[2.249749,41.461366],[2.249741,41.461346],[2.249734,41.461315],[2.24973,41.461289],[2.249727,41.461252],[2.249727,41.461247],[2.249731,41.461206],[2.249735,41.461174],[2.24975,41.461139],[2.24977,41.461116],[2.249785,41.461103],[2.249791,41.4611],[2.249727,41.461016],[2.249861,41.460423],[2.249934,41.460295],[2.249934,41.460282],[2.25008,41.460028],[2.250099,41.459943],[2.250086,41.459927],[2.250234,41.459826],[2.250241,41.459824],[2.250271,41.459803],[2.250444,41.459648],[2.250676,41.459445],[2.250812,41.459393],[2.250837,41.459378],[2.25092,41.459308],[2.251003,41.459239],[2.251053,41.459199],[2.251062,41.459191],[2.251249,41.459121],[2.251393,41.458983],[2.251461,41.458912],[2.25148,41.45884],[2.251481,41.458762],[2.251416,41.458675],[2.251049,41.458499],[2.25101,41.458408],[2.251089,41.45834],[2.25069,41.458218],[2.249501,41.457807],[2.249834,41.457322],[2.250253,41.457543],[2.251114,41.45791],[2.251611,41.458055],[2.251634,41.458042],[2.252286,41.458202],[2.253388,41.458458],[2.253526,41.458414],[2.25355,41.45841],[2.25372,41.458323],[2.25401,41.458173],[2.254277,41.458035],[2.254323,41.458009],[2.254456,41.457931],[2.254638,41.457819],[2.254819,41.457707],[2.254907,41.457654],[2.254996,41.457602],[2.255083,41.457547],[2.255168,41.457491],[2.255187,41.457478],[2.255586,41.457242],[2.255775,41.457316],[2.2566,41.457738],[2.256864,41.457907],[2.256883,41.457921],[2.256723,41.458056],[2.256561,41.4582],[2.256364,41.458375],[2.25636,41.458441],[2.25636,41.458442],[2.256391,41.458451],[2.257145,41.458623],[2.257598,41.458205],[2.257863,41.458381],[2.257885,41.458396],[2.258222,41.458103],[2.258912,41.4575],[2.258929,41.457486],[2.259135,41.457312],[2.259249,41.457215],[2.259291,41.45718],[2.259564,41.456949],[2.259622,41.4569],[2.259635,41.456888],[2.260204,41.456403],[2.260316,41.456305],[2.260453,41.456186],[2.260459,41.45618],[2.260482,41.456161],[2.260566,41.456103],[2.260611,41.456071],[2.260759,41.455951],[2.261269,41.456293],[2.261349,41.456052],[2.261395,41.455914],[2.261448,41.455757],[2.26127,41.455617],[2.261216,41.455574],[2.259245,41.454229],[2.25897,41.454024],[2.259145,41.453862],[2.258862,41.453675],[2.258743,41.453771],[2.258681,41.45381],[2.258622,41.453846],[2.257939,41.453353],[2.257358,41.452897],[2.256331,41.452026],[2.256088,41.451804],[2.255868,41.451618],[2.256017,41.451503],[2.255988,41.451477],[2.256041,41.451443],[2.256047,41.451439],[2.255988,41.451387],[2.256007,41.451375],[2.255964,41.451337],[2.255902,41.451377],[2.255701,41.451108],[2.255699,41.451105],[2.255726,41.451086],[2.255584,41.450952],[2.255553,41.45097],[2.255346,41.450782],[2.255074,41.450532],[2.255029,41.450544],[2.254815,41.450695],[2.253965,41.449886],[2.254139,41.449773],[2.253961,41.449589],[2.253917,41.449547],[2.253579,41.449205],[2.253558,41.449183],[2.253595,41.44916],[2.253538,41.449109],[2.253505,41.44913],[2.253502,41.449127],[2.253425,41.449198],[2.253346,41.449204],[2.253228,41.449143],[2.253164,41.449149],[2.253138,41.449129],[2.253058,41.449067],[2.250838,41.447037],[2.250875,41.446608],[2.250842,41.446564],[2.250679,41.446344],[2.250642,41.446294],[2.250574,41.446203],[2.250549,41.44617],[2.2505,41.446104],[2.250307,41.445923],[2.249811,41.445457],[2.248921,41.444515],[2.248615,41.444191],[2.24848,41.444049],[2.24784,41.443371],[2.245686,41.440664],[2.245465,41.440384],[2.244981,41.439864],[2.244605,41.439295],[2.24383,41.438093],[2.243786,41.438026],[2.243589,41.437795],[2.243352,41.437527],[2.242881,41.437617],[2.242773,41.437499],[2.242426,41.437075],[2.242083,41.43714],[2.241237,41.437327],[2.241081,41.437141],[2.240559,41.436532],[2.240041,41.435904],[2.239797,41.43563],[2.239585,41.435367],[2.239404,41.435158],[2.239291,41.434998],[2.238988,41.434634],[2.238491,41.434039],[2.238126,41.43356],[2.238149,41.433518],[2.238468,41.433305],[2.238445,41.433267],[2.239403,41.432624],[2.239556,41.432498],[2.239556,41.432479],[2.239569,41.43246],[2.239587,41.432429],[2.239602,41.432394],[2.239607,41.432376],[2.239607,41.432358],[2.23959,41.432293],[2.239569,41.432228],[2.239524,41.432094],[2.239453,41.431892],[2.239381,41.431691],[2.23937,41.431665],[2.239359,41.43164],[2.23935,41.431624],[2.239345,41.431617],[2.239314,41.431524],[2.239532,41.431363],[2.239528,41.431359],[2.239421,41.431244],[2.238906,41.430692],[2.238402,41.429373],[2.237535,41.428157],[2.236181,41.429189],[2.235802,41.42949],[2.235361,41.429818],[2.236051,41.430624],[2.236699,41.431397],[2.237358,41.432207],[2.237458,41.432329],[2.237376,41.432412],[2.237289,41.432515],[2.237207,41.432607],[2.237192,41.432697],[2.237209,41.432858],[2.237266,41.433263],[2.237302,41.43342],[2.237278,41.433452],[2.237249,41.433531],[2.237898,41.434293],[2.239323,41.436002],[2.23961,41.436338],[2.239619,41.43637],[2.23962,41.436409],[2.239599,41.436454],[2.239512,41.43653],[2.23888,41.436901],[2.236894,41.438083],[2.235786,41.438731],[2.235595,41.438867],[2.234664,41.439411],[2.233602,41.440038],[2.233327,41.44022],[2.232161,41.43934],[2.232358,41.439193],[2.23243,41.43914],[2.23256,41.439038],[2.232565,41.439034],[2.233233,41.438596],[2.23326,41.438574],[2.233475,41.438401],[2.233843,41.438157],[2.234409,41.437741],[2.234459,41.437708],[2.234475,41.437719],[2.234535,41.437757],[2.234885,41.437547],[2.23493,41.437504],[2.235055,41.437393],[2.235228,41.437232],[2.235503,41.437009],[2.235532,41.436933],[2.235649,41.436854],[2.235644,41.436796],[2.235625,41.436774],[2.235642,41.436765],[2.235645,41.436724],[2.23608,41.436452],[2.237045,41.435879],[2.237032,41.435867],[2.236905,41.435749],[2.236798,41.435649],[2.236768,41.43562],[2.236707,41.43556],[2.236659,41.435512],[2.236625,41.435479],[2.236544,41.435402],[2.236542,41.435404],[2.236502,41.435378],[2.236176,41.435615],[2.235836,41.435854],[2.235876,41.435883],[2.235139,41.436396],[2.235116,41.436413],[2.234952,41.436533],[2.234508,41.436858],[2.234156,41.437115],[2.233981,41.437221],[2.233925,41.43726],[2.233822,41.437331],[2.23271,41.438098],[2.23262,41.43816],[2.23261,41.438167],[2.232128,41.437751],[2.231863,41.437522],[2.231837,41.437512],[2.23177,41.437453],[2.231713,41.437402],[2.231298,41.437064],[2.231192,41.436974],[2.230719,41.43657],[2.230716,41.436572],[2.230695,41.436553],[2.230589,41.436456],[2.230436,41.436315],[2.23009,41.435987],[2.229965,41.435852],[2.229964,41.435831],[2.229956,41.435811],[2.229941,41.435794],[2.229938,41.435791],[2.229799,41.435669],[2.229758,41.435636],[2.229731,41.435615],[2.229726,41.435611],[2.229266,41.435197],[2.229195,41.435134],[2.228664,41.434654],[2.228078,41.434122],[2.228056,41.434111],[2.227847,41.433914],[2.227285,41.433412],[2.227038,41.433186],[2.226662,41.432848],[2.226658,41.432843],[2.226533,41.432733],[2.226513,41.432715],[2.226455,41.432664],[2.226442,41.43265],[2.226068,41.432311],[2.225989,41.432238],[2.2259,41.432155],[2.225818,41.432068],[2.225743,41.431978],[2.225674,41.431885],[2.225661,41.431867],[2.225621,41.431795],[2.225574,41.431725],[2.225521,41.431658],[2.225461,41.431594],[2.225395,41.431534],[2.225323,41.431478],[2.225262,41.431436],[2.225249,41.431425],[2.225238,41.431421],[2.225192,41.431423],[2.225205,41.431326],[2.225324,41.431128],[2.225602,41.430789],[2.225932,41.430431],[2.226017,41.430328],[2.226294,41.42999],[2.226328,41.429948],[2.2262,41.429897],[2.226194,41.429895],[2.226181,41.42989],[2.225571,41.429678],[2.225539,41.429667],[2.224984,41.429478],[2.224742,41.429389],[2.224695,41.429372],[2.224686,41.429394],[2.224676,41.429419],[2.224527,41.429557],[2.224072,41.430209],[2.224068,41.430217],[2.224024,41.430304],[2.22374,41.430701],[2.223725,41.430723],[2.223684,41.430783],[2.223537,41.431002],[2.223531,41.431011],[2.223892,41.431301],[2.223262,41.431853],[2.223159,41.431943],[2.22262,41.432512],[2.222469,41.432461],[2.222095,41.432319],[2.221963,41.432264],[2.221537,41.432083],[2.221041,41.431854],[2.220746,41.431717],[2.220654,41.431655],[2.220599,41.431721],[2.219566,41.432958],[2.217499,41.432224],[2.216928,41.432687],[2.216543,41.433069],[2.21668,41.433302],[2.216324,41.433525],[2.216221,41.43359],[2.215665,41.433691],[2.215357,41.433773],[2.21502,41.43415],[2.214692,41.434524],[2.214626,41.434868],[2.214623,41.434886],[2.21467,41.434921],[2.214633,41.434964],[2.214024,41.435689],[2.212811,41.436878],[2.212699,41.437207],[2.213503,41.43816],[2.213562,41.438518],[2.213564,41.43867],[2.213562,41.438801],[2.213573,41.438923],[2.213519,41.439104],[2.213389,41.439422],[2.213322,41.439657],[2.213321,41.439783],[2.213347,41.439944],[2.213448,41.440076],[2.213698,41.440388],[2.214077,41.44081],[2.214231,41.441009],[2.214461,41.441113],[2.21466,41.441185],[2.214738,41.441217],[2.214744,41.441236],[2.21466,41.441374],[2.214682,41.44138],[2.214957,41.441473],[2.214854,41.44167],[2.215175,41.441766],[2.215205,41.441796],[2.215215,41.441828],[2.21521,41.441869],[2.215152,41.442002],[2.215442,41.442286],[2.215655,41.442479],[2.215962,41.442742],[2.216126,41.442884],[2.21647,41.443158],[2.21675,41.443399],[2.217194,41.443844],[2.217395,41.444093],[2.217647,41.444347],[2.217775,41.444463],[2.217956,41.444626],[2.218105,41.444733],[2.218423,41.444938],[2.218557,41.44498],[2.218714,41.445109],[2.219002,41.445499],[2.219096,41.445664],[2.219328,41.445876],[2.220164,41.446384],[2.221212,41.447596],[2.221523,41.447954],[2.222578,41.448966],[2.222752,41.449001],[2.222012,41.450074],[2.218126,41.455701],[2.217744,41.456254],[2.217691,41.45633],[2.217665,41.456368],[2.217308,41.456886],[2.217263,41.456951],[2.21688,41.457505],[2.216918,41.457537],[2.217216,41.457344],[2.217409,41.457514],[2.217699,41.457328],[2.217712,41.457331],[2.217732,41.457336],[2.217736,41.457337],[2.217753,41.457343],[2.217769,41.457352],[2.217783,41.457361],[2.217826,41.4574],[2.217866,41.457439],[2.217887,41.45746],[2.2179,41.457473],[2.217932,41.457507],[2.21796,41.45754],[2.217987,41.457574],[2.218018,41.457616],[2.218049,41.457658],[2.218075,41.457691],[2.218102,41.457722],[2.218127,41.457751],[2.218154,41.45778],[2.218183,41.457805],[2.218215,41.457827],[2.218263,41.457857],[2.218313,41.457884],[2.218366,41.45791],[2.218421,41.457934],[2.21846,41.457949],[2.2185,41.457962],[2.218522,41.457968],[2.218526,41.457977],[2.218544,41.458005],[2.218569,41.45803],[2.2186,41.458051],[2.218635,41.458068],[2.218704,41.458116],[2.218641,41.458149],[2.218698,41.458212],[2.218828,41.458356],[2.218884,41.458419],[2.219001,41.458565],[2.219048,41.458553],[2.2191,41.458599],[2.219107,41.45863],[2.21922,41.458802],[2.219834,41.458401],[2.21957,41.458174],[2.219455,41.458052],[2.219192,41.457804],[2.219189,41.457542],[2.219502,41.457342],[2.219498,41.457337],[2.22168,41.455891],[2.221828,41.455863],[2.2221,41.455986],[2.222974,41.45655],[2.223266,41.456715],[2.223641,41.456876],[2.224569,41.457136],[2.22552,41.457272],[2.226117,41.457359],[2.226388,41.457403],[2.226814,41.457518],[2.227293,41.457734],[2.227489,41.457856],[2.227501,41.457563],[2.227339,41.457101],[2.22635,41.456452],[2.226307,41.456323],[2.226501,41.455824],[2.226782,41.45503],[2.227362,41.455159],[2.228042,41.455292],[2.22828,41.455365],[2.228467,41.455437],[2.228533,41.455483],[2.228654,41.455592],[2.228773,41.455777],[2.228974,41.45612],[2.229289,41.45668],[2.229351,41.456791],[2.229593,41.457224],[2.23,41.457948],[2.22996,41.458027],[2.229877,41.458064],[2.229266,41.458262],[2.228671,41.458443],[2.228529,41.458506],[2.228498,41.458549],[2.228514,41.458626],[2.228589,41.458745],[2.228726,41.458944],[2.228907,41.459161],[2.229146,41.459394],[2.229466,41.459643],[2.230035,41.459963],[2.230628,41.460253],[2.23127,41.460566],[2.231748,41.460802],[2.231638,41.460949],[2.231379,41.461342],[2.23167,41.461403],[2.232034,41.461478],[2.232269,41.461544],[2.232737,41.461665],[2.232765,41.461648],[2.232814,41.46155],[2.232908,41.46156],[2.232981,41.461553],[2.233002,41.461502],[2.23312,41.46139],[2.233244,41.461272],[2.233281,41.461237],[2.233282,41.461235],[2.233282,41.461234],[2.233365,41.461026],[2.233564,41.460598],[2.233775,41.460153],[2.233904,41.459979],[2.234213,41.459627],[2.234604,41.459308],[2.234703,41.459276],[2.234895,41.459379],[2.235364,41.459116],[2.235718,41.458897],[2.235958,41.458739],[2.236207,41.458552],[2.236428,41.458335],[2.236623,41.458146],[2.236712,41.458176],[2.23717,41.45835],[2.237108,41.458466],[2.236905,41.458736],[2.236731,41.458968],[2.236501,41.459188],[2.236232,41.459394],[2.235718,41.459824],[2.235783,41.459896],[2.236268,41.460136],[2.236401,41.460166],[2.236326,41.460354],[2.236258,41.460524],[2.23603,41.461077],[2.236074,41.461085],[2.236947,41.461295],[2.236971,41.461351],[2.236985,41.461391],[2.236836,41.461828],[2.236345,41.462996],[2.236313,41.463093],[2.236319,41.46315],[2.236346,41.46321],[2.23644,41.463298],[2.237093,41.463583],[2.238832,41.464357],[2.238322,41.465065],[2.238174,41.465003],[2.237972,41.464907],[2.237191,41.464511],[2.236931,41.46438],[2.236869,41.464349],[2.236825,41.46434],[2.236503,41.46418],[2.236367,41.464108],[2.236289,41.46407],[2.236208,41.464043],[2.23615,41.46403],[2.236107,41.464035],[2.236062,41.464058],[2.236045,41.46407],[2.236037,41.464075],[2.235982,41.46411],[2.235914,41.464145],[2.235843,41.464176],[2.235818,41.464185],[2.235801,41.464191],[2.235793,41.464193],[2.235767,41.464202],[2.235689,41.464223],[2.235609,41.464238],[2.235578,41.464242],[2.235538,41.464241],[2.235499,41.464236],[2.235462,41.464224],[2.235428,41.464208],[2.235399,41.464187],[2.235357,41.46415],[2.235289,41.464087],[2.235177,41.463992],[2.23506,41.463901],[2.234938,41.463813],[2.234811,41.463731],[2.234678,41.463652],[2.234541,41.463576],[2.234415,41.463513],[2.234285,41.463452],[2.234273,41.463447],[2.234265,41.463443],[2.23424,41.463433],[2.234127,41.463385],[2.233981,41.463324],[2.233912,41.463295],[2.233775,41.463236],[2.233771,41.463221],[2.23376,41.463204],[2.233742,41.46319],[2.233719,41.46318],[2.233694,41.463175],[2.233668,41.463176],[2.233644,41.463183],[2.233623,41.463195],[2.233608,41.463211],[2.233599,41.463229],[2.233598,41.463249],[2.233605,41.463268],[2.233618,41.463284],[2.233638,41.463297],[2.233661,41.463306],[2.233687,41.463308],[2.233694,41.463308],[2.233729,41.463322],[2.2337,41.463395],[2.233616,41.46351],[2.233598,41.463502],[2.23357,41.463491],[2.233533,41.463475],[2.233513,41.46346],[2.23349,41.463451],[2.233465,41.463447],[2.233439,41.463449],[2.233415,41.463457],[2.233394,41.463469],[2.23338,41.463485],[2.233372,41.463504],[2.233372,41.463508],[2.233372,41.463524],[2.233379,41.463543],[2.233393,41.463559],[2.233413,41.463572],[2.233437,41.46358],[2.233463,41.463582],[2.233473,41.463581],[2.233498,41.46359],[2.233464,41.46365],[2.233379,41.463765],[2.233176,41.463682],[2.233072,41.463638],[2.233044,41.463626],[2.233022,41.463616],[2.232935,41.463579],[2.232919,41.463565],[2.232897,41.463554],[2.232871,41.463548],[2.232791,41.463569],[2.232781,41.463573],[2.232784,41.463575],[2.232779,41.463579],[2.232768,41.463597],[2.232764,41.463617],[2.232767,41.463637],[2.232778,41.463656],[2.232793,41.463668],[2.232811,41.463675],[2.232631,41.463914],[2.232468,41.464132],[2.232315,41.464309],[2.232289,41.464314],[2.232268,41.464324],[2.23225,41.464339],[2.23224,41.464356],[2.232236,41.464376],[2.23224,41.464395],[2.232251,41.464413],[2.232269,41.464427],[2.232291,41.464437],[2.232316,41.464442],[2.232342,41.464441],[2.232367,41.464434],[2.232532,41.464501],[2.232816,41.464619],[2.232979,41.464688],[2.233061,41.464725],[2.233172,41.464782],[2.233278,41.464844],[2.233379,41.46491],[2.233475,41.464981],[2.233511,41.465011],[2.233565,41.465055],[2.23365,41.465134],[2.233728,41.465215],[2.233735,41.465222],[2.23377,41.465265],[2.233823,41.46533],[2.23387,41.465383],[2.233922,41.465432],[2.23398,41.465477],[2.234043,41.465518],[2.234111,41.465554],[2.234183,41.465586],[2.234259,41.465612],[2.234338,41.465634],[2.234378,41.465642],[2.234461,41.465659],[2.234547,41.465673],[2.234656,41.46569],[2.234704,41.465698],[2.234995,41.465744],[2.235253,41.465788],[2.235283,41.465798],[2.235326,41.465812],[2.235399,41.465838],[2.235412,41.465844],[2.235449,41.465859],[2.235498,41.46588],[2.235518,41.465895],[2.235539,41.465912],[2.235553,41.46593],[2.235544,41.465926],[2.235535,41.465924],[2.235519,41.465922],[2.235513,41.465923],[2.235505,41.465924],[2.235491,41.465927],[2.235472,41.465934],[2.235422,41.465962],[2.235395,41.465977],[2.235351,41.466004],[2.235317,41.466026],[2.235255,41.466061],[2.235264,41.466071],[2.235209,41.466106],[2.235174,41.466127],[2.234985,41.466268],[2.234952,41.466293],[2.234928,41.466312],[2.234778,41.4664],[2.234572,41.466525],[2.234489,41.466585],[2.234324,41.466659],[2.234245,41.466695],[2.234194,41.466718],[2.234111,41.466752],[2.233992,41.466806],[2.233877,41.466856],[2.233788,41.46695],[2.233616,41.467154],[2.23334,41.467509],[2.233056,41.467876],[2.232874,41.468096],[2.23286,41.468112],[2.232768,41.468211],[2.232653,41.468335],[2.232561,41.468422],[2.232556,41.468427],[2.232552,41.468433],[2.232456,41.468527],[2.232362,41.468623],[2.232315,41.468677],[2.232249,41.468759],[2.23222,41.468802],[2.232192,41.468845],[2.232165,41.468896],[2.23213,41.468973],[2.232102,41.469052],[2.232046,41.469239],[2.23168,41.469199],[2.231348,41.469209],[2.231141,41.469243],[2.230984,41.469171],[2.230907,41.46898],[2.230606,41.468906],[2.23051,41.469025],[2.230414,41.469108],[2.230381,41.469203],[2.230252,41.469369],[2.229838,41.469604],[2.230166,41.469988],[2.230548,41.469847],[2.230844,41.470245],[2.230889,41.47046],[2.230856,41.470555],[2.23076,41.470661],[2.230393,41.470921],[2.230533,41.471089],[2.230182,41.471277],[2.229944,41.471335],[2.229563,41.471404],[2.229181,41.471556],[2.229163,41.471711],[2.22913,41.471866],[2.229046,41.472223],[2.228839,41.472341],[2.228176,41.47211],[2.227871,41.472429],[2.228107,41.472645],[2.228391,41.472707],[2.228611,41.472899],[2.228913,41.472794],[2.229561,41.47287],[2.229893,41.472955],[2.230148,41.472826],[2.230468,41.472566],[2.230769,41.472592],[2.230913,41.472438],[2.231055,41.472486],[2.231038,41.472617],[2.231162,41.472845],[2.23127,41.47306],[2.231555,41.473098],[2.231554,41.473229],[2.231852,41.473457],[2.232088,41.473602],[2.231369,41.474109],[2.230075,41.474958],[2.229742,41.47498],[2.229237,41.474881],[2.228965,41.47507],[2.229246,41.475394],[2.229007,41.475559],[2.228433,41.475841],[2.228288,41.476078],[2.228254,41.476269],[2.228459,41.476342],[2.229058,41.476548],[2.229544,41.475718],[2.230212,41.475436],[2.230354,41.475485],[2.230608,41.475486],[2.230785,41.475225],[2.23096,41.475215],[2.231324,41.475229],[2.231719,41.475291],[2.232164,41.475175],[2.232485,41.47482],[2.232605,41.474058],[2.232718,41.473892],[2.233224,41.474026],[2.23329,41.474043],[2.233299,41.474346],[2.23368,41.474415],[2.233678,41.474446],[2.234026,41.474544],[2.234262,41.474641],[2.234518,41.474416],[2.234712,41.474131],[2.234998,41.474026],[2.23522,41.473949],[2.235212,41.473983],[2.235185,41.474066],[2.23515,41.474148],[2.235128,41.474191],[2.235122,41.474205],[2.234997,41.474474],[2.234794,41.4749],[2.234792,41.474904],[2.234574,41.475327],[2.234543,41.475391],[2.234333,41.475823],[2.234331,41.475838],[2.23433,41.475859],[2.234331,41.475867],[2.234342,41.475895],[2.23436,41.475922],[2.234384,41.475945],[2.234414,41.475964],[2.234442,41.475972],[2.234467,41.475973],[2.23448,41.475974],[2.234529,41.475979],[2.234577,41.475946],[2.234685,41.475886],[2.234747,41.475976],[2.234772,41.476013],[2.234862,41.47611],[2.234909,41.476165],[2.234929,41.476186],[2.234766,41.476285],[2.234823,41.476325],[2.23488,41.476365],[2.234905,41.476385],[2.234945,41.476416],[2.235008,41.476468],[2.235021,41.476499],[2.235023,41.476501],[2.235052,41.476539],[2.235046,41.476541],[2.235066,41.47657],[2.235073,41.476567],[2.235112,41.476618],[2.235132,41.47664],[2.235132,41.47664],[2.235168,41.476671],[2.235207,41.4767],[2.235251,41.47673],[2.235319,41.476771],[2.235355,41.476788],[2.235393,41.476803],[2.235431,41.476814],[2.235452,41.476819],[2.235514,41.476829],[2.235591,41.476841],[2.235677,41.476854],[2.23572,41.476861],[2.235778,41.47687],[2.236093,41.476922],[2.236113,41.476925],[2.236151,41.476931],[2.2362,41.477056],[2.23625,41.477194],[2.236275,41.477262],[2.236356,41.477465],[2.236406,41.47757],[2.236431,41.477626],[2.236478,41.477679],[2.236509,41.477649],[2.236556,41.477621]]]]}},{"type":"Feature","id":"080155_080155 SI03 BAR 2","properties":{"area_id":"080155_080155 SI03 BAR 2","nom":"Industrial Bonavista","codi_icgc":"080155 SI03 BAR 2","categoria":"Sector industrial","codi_municipi":"080155","municipi":"Badalona","codi_comarca":"13","comarca":"Barcelonès","provincia":"Barcelona","font":"ICGC Àrees de poblament v3r1 202602"},"geometry":{"type":"MultiPolygon","coordinates":[[[[2.239883,41.466441],[2.23984,41.466524],[2.239848,41.466549],[2.239881,41.466589],[2.240799,41.467037],[2.24085,41.467067],[2.24085,41.467087],[2.240845,41.467107],[2.240837,41.467126],[2.240825,41.467144],[2.240812,41.467157],[2.240798,41.46717],[2.240785,41.467178],[2.24077,41.467186],[2.240744,41.467197],[2.240715,41.467204],[2.240686,41.467208],[2.240656,41.467208],[2.240626,41.467204],[2.240598,41.467196],[2.240532,41.46732],[2.240474,41.467447],[2.240423,41.467575],[2.24038,41.467705],[2.240344,41.467836],[2.240347,41.46786],[2.240365,41.468015],[2.240384,41.468169],[2.240425,41.46845],[2.240437,41.4685],[2.240457,41.46855],[2.240483,41.468599],[2.240517,41.468645],[2.240549,41.468682],[2.240568,41.468698],[2.240612,41.468726],[2.240587,41.468767],[2.240557,41.468815],[2.240528,41.468891],[2.240725,41.468943],[2.24068,41.469052],[2.240889,41.469101],[2.241043,41.469145],[2.241136,41.469172],[2.241165,41.469175],[2.24119,41.469188],[2.241196,41.46919],[2.241259,41.469211],[2.241348,41.469249],[2.241437,41.469289],[2.241528,41.469328],[2.241619,41.469368],[2.241662,41.469392],[2.24172,41.469434],[2.241749,41.469455],[2.24178,41.469474],[2.241819,41.469493],[2.24188,41.469517],[2.241939,41.469545],[2.242057,41.469617],[2.242112,41.469656],[2.242163,41.469698],[2.242277,41.469802],[2.24239,41.469908],[2.242465,41.46998],[2.24254,41.470053],[2.242565,41.470079],[2.242589,41.470105],[2.242609,41.470124],[2.242673,41.47009],[2.242783,41.47003],[2.242944,41.469934],[2.243002,41.469902],[2.24303,41.469879],[2.243049,41.469851],[2.243057,41.469823],[2.243058,41.469794],[2.243057,41.469771],[2.243056,41.469767],[2.243055,41.46976],[2.243047,41.469735],[2.243033,41.469712],[2.243012,41.469693],[2.242986,41.469677],[2.24283,41.469572],[2.2426,41.46941],[2.242577,41.46939],[2.242495,41.469318],[2.242419,41.469241],[2.242349,41.469162],[2.242285,41.46908],[2.242342,41.469041],[2.242305,41.469004],[2.242257,41.468949],[2.242217,41.468891],[2.242184,41.46883],[2.242157,41.468768],[2.242138,41.468704],[2.242127,41.468639],[2.242123,41.468574],[2.242127,41.468508],[2.242139,41.468443],[2.242158,41.468379],[2.24217,41.468348],[2.242208,41.468276],[2.242252,41.468205],[2.242303,41.468137],[2.242361,41.468072],[2.242425,41.468011],[2.242495,41.467953],[2.242527,41.467929],[2.242687,41.467823],[2.242818,41.467745],[2.242881,41.467703],[2.242963,41.467652],[2.242993,41.467639],[2.243019,41.467623],[2.243042,41.467604],[2.24306,41.467584],[2.243073,41.467563],[2.243082,41.46754],[2.243087,41.467516],[2.243087,41.467491],[2.243081,41.467466],[2.242876,41.467339],[2.242838,41.467316],[2.242607,41.467173],[2.242489,41.467104],[2.242211,41.466939],[2.242047,41.466847],[2.242,41.46682],[2.241892,41.466759],[2.241634,41.466619],[2.241451,41.466522],[2.241145,41.46637],[2.240771,41.466187],[2.240593,41.4661],[2.240507,41.466086],[2.240426,41.466087],[2.240347,41.466098],[2.240296,41.466115],[2.240248,41.466141],[2.239964,41.466365],[2.239883,41.466441]]]]}},{"type":"Feature","id":"080155_080155 AP02 BAR 2","properties":{"area_id":"080155_080155 AP02 BAR 2","nom":"Mas Ram","codi_icgc":"080155 AP02 BAR 2","categoria":"Àrees de poblament","codi_municipi":"080155","municipi":"Badalona","codi_comarca":"13","comarca":"Barcelonès","provincia":"Barcelona","font":"ICGC Àrees de poblament v3r1 202602"},"geometry":{"type":"MultiPolygon","coordinates":[[[[2.250761,41.48207],[2.250859,41.48196],[2.251031,41.481767],[2.251092,41.481698],[2.251117,41.481671],[2.251146,41.481638],[2.251177,41.481603],[2.251446,41.481301],[2.251482,41.481261],[2.251577,41.481154],[2.251616,41.48111],[2.252082,41.480586],[2.252127,41.480537],[2.252856,41.479717],[2.252961,41.479599],[2.25339,41.479117],[2.253416,41.479088],[2.253425,41.479078],[2.253987,41.478447],[2.254286,41.478111],[2.254665,41.477685],[2.254847,41.477481],[2.255368,41.476896],[2.255375,41.476854],[2.255664,41.476301],[2.255701,41.476231],[2.256049,41.475541],[2.25565,41.475453],[2.255371,41.475387],[2.255193,41.475314],[2.255132,41.47529],[2.25466,41.475096],[2.254513,41.475035],[2.254443,41.475021],[2.254302,41.474993],[2.25421,41.474953],[2.254165,41.474955],[2.253949,41.474825],[2.253809,41.474692],[2.253667,41.474558],[2.253651,41.474544],[2.253646,41.474535],[2.253494,41.474294],[2.253481,41.474274],[2.253323,41.473991],[2.253273,41.473933],[2.253095,41.473687],[2.252924,41.47345],[2.252841,41.473368],[2.252752,41.47334],[2.252612,41.473144],[2.252594,41.473114],[2.252581,41.473097],[2.252449,41.47295],[2.252435,41.472934],[2.252424,41.472922],[2.252315,41.4728],[2.252294,41.472783],[2.252268,41.47277],[2.252148,41.472787],[2.252118,41.472791],[2.251691,41.473085],[2.251691,41.473085],[2.251691,41.473085],[2.251024,41.473536],[2.250848,41.473672],[2.250782,41.473731],[2.250756,41.473758],[2.250722,41.473793],[2.250668,41.473859],[2.250655,41.473877],[2.250621,41.473927],[2.250581,41.473997],[2.250546,41.4741],[2.250517,41.474185],[2.250467,41.474197],[2.250361,41.474388],[2.250281,41.474532],[2.250282,41.474536],[2.250195,41.474666],[2.250191,41.474676],[2.250127,41.474839],[2.250115,41.474871],[2.25003,41.475095],[2.249647,41.475183],[2.24853,41.475423],[2.248498,41.475455],[2.248481,41.475618],[2.248525,41.475691],[2.248545,41.475724],[2.248547,41.475727],[2.248548,41.47573],[2.248604,41.475823],[2.248612,41.476003],[2.248707,41.476079],[2.248822,41.476123],[2.248979,41.476212],[2.248988,41.476233],[2.24899,41.476237],[2.249003,41.476258],[2.249022,41.476275],[2.249043,41.476286],[2.249063,41.476291],[2.249081,41.476295],[2.249048,41.476305],[2.249039,41.476343],[2.248993,41.476554],[2.248981,41.476606],[2.248981,41.47661],[2.248972,41.476803],[2.248989,41.47686],[2.24906,41.476925],[2.249071,41.476935],[2.249067,41.476957],[2.24907,41.476979],[2.249081,41.477],[2.249099,41.477018],[2.249122,41.477032],[2.249124,41.477033],[2.249182,41.477058],[2.248994,41.477034],[2.248938,41.477139],[2.248898,41.477197],[2.248803,41.477374],[2.248744,41.477489],[2.248659,41.4776],[2.24863,41.477657],[2.248465,41.477852],[2.248405,41.477923],[2.24839,41.477966],[2.248341,41.478038],[2.248324,41.478068],[2.248318,41.478075],[2.248311,41.478081],[2.248306,41.478087],[2.248302,41.478092],[2.248292,41.478109],[2.248293,41.478113],[2.248296,41.478123],[2.248307,41.478136],[2.248318,41.478149],[2.248321,41.478153],[2.248326,41.478158],[2.248335,41.478167],[2.248354,41.478176],[2.248374,41.478177],[2.248401,41.478174],[2.248429,41.478171],[2.248475,41.478166],[2.248521,41.47816],[2.248574,41.478157],[2.248625,41.478161],[2.248652,41.478165],[2.248679,41.47817],[2.24871,41.478179],[2.248764,41.478202],[2.248824,41.47823],[2.248775,41.47831],[2.248727,41.478393],[2.248718,41.478407],[2.248795,41.478481],[2.248878,41.478551],[2.248965,41.478619],[2.249022,41.47866],[2.249102,41.478575],[2.249177,41.47849],[2.249234,41.478423],[2.249309,41.478457],[2.249402,41.478498],[2.249486,41.478536],[2.249561,41.478578],[2.249625,41.478629],[2.249688,41.478686],[2.249798,41.47879],[2.249909,41.478895],[2.249966,41.478951],[2.24999,41.478977],[2.250004,41.478994],[2.250012,41.479005],[2.249967,41.479048],[2.249863,41.479094],[2.249792,41.479123],[2.249742,41.47919],[2.249731,41.479205],[2.249836,41.479306],[2.249977,41.479426],[2.250107,41.479553],[2.250219,41.479663],[2.25022,41.479665],[2.250315,41.479814],[2.250324,41.479875],[2.250447,41.479865],[2.250561,41.479842],[2.250745,41.479805],[2.250755,41.479794],[2.250768,41.479816],[2.250773,41.479827],[2.250777,41.479839],[2.25078,41.479852],[2.25078,41.479859],[2.250779,41.479871],[2.250766,41.479926],[2.250746,41.479995],[2.250715,41.480082],[2.250698,41.480128],[2.250681,41.480173],[2.250675,41.480207],[2.250674,41.480226],[2.250674,41.48024],[2.250676,41.480272],[2.250689,41.480307],[2.250701,41.480324],[2.250711,41.480334],[2.250712,41.480335],[2.250717,41.48034],[2.250811,41.480369],[2.250856,41.480382],[2.251006,41.48035],[2.250811,41.480987],[2.250793,41.481047],[2.250445,41.480988],[2.250275,41.481035],[2.250237,41.481362],[2.250232,41.481407],[2.250219,41.481521],[2.250168,41.481828],[2.250571,41.48204],[2.250723,41.482114],[2.250761,41.48207]]]]}},{"type":"Feature","id":"080155_080155 SI04 BAR 2","properties":{"area_id":"080155_080155 SI04 BAR 2","nom":"Parc comercial Montigalà","codi_icgc":"080155 SI04 BAR 2","categoria":"Sector industrial","codi_municipi":"080155","municipi":"Badalona","codi_comarca":"13","comarca":"Barcelonès","provincia":"Barcelona","font":"ICGC Àrees de poblament v3r1 202602"},"geometry":{"type":"MultiPolygon","coordinates":[[[[2.225599,41.460378],[2.225599,41.460378],[2.225603,41.460382],[2.225657,41.460396],[2.225657,41.460396],[2.225673,41.460408],[2.225689,41.46042],[2.225702,41.46043],[2.225757,41.460472],[2.225757,41.460472],[2.22576,41.460474],[2.225781,41.46049],[2.225794,41.460502],[2.225818,41.460524],[2.225822,41.460527],[2.226043,41.460724],[2.226044,41.460724],[2.226082,41.460759],[2.226274,41.460928],[2.226321,41.460966],[2.226372,41.460999],[2.226428,41.461028],[2.226489,41.461051],[2.226552,41.461069],[2.226617,41.461082],[2.226684,41.46109],[2.226752,41.461091],[2.226783,41.46109],[2.227383,41.461065],[2.228227,41.46103],[2.228231,41.46103],[2.228346,41.461021],[2.228511,41.461019],[2.228745,41.461016],[2.228829,41.461005],[2.228939,41.460993],[2.229049,41.460961],[2.22905,41.460961],[2.2291,41.460947],[2.229156,41.46092],[2.229172,41.460912],[2.22925,41.460873],[2.229266,41.460857],[2.229351,41.460778],[2.229437,41.460595],[2.229569,41.460204],[2.229624,41.460068],[2.229633,41.460045],[2.228984,41.459642],[2.22854,41.459198],[2.228431,41.459057],[2.22811,41.458639],[2.228029,41.458546],[2.228906,41.458191],[2.229486,41.457995],[2.229438,41.457953],[2.229522,41.457926],[2.229537,41.457915],[2.229546,41.457901],[2.229547,41.457886],[2.229545,41.45788],[2.229554,41.457695],[2.229516,41.457625],[2.22948,41.457569],[2.229411,41.457471],[2.229408,41.457456],[2.229405,41.457449],[2.229395,41.457425],[2.229381,41.457395],[2.229297,41.457255],[2.229266,41.4572],[2.229258,41.457186],[2.229085,41.456884],[2.229046,41.456817],[2.229038,41.456802],[2.228924,41.456599],[2.228907,41.456571],[2.228836,41.456452],[2.228826,41.456435],[2.228709,41.456227],[2.2287,41.456212],[2.228664,41.456146],[2.228654,41.456131],[2.228498,41.455863],[2.228488,41.455848],[2.228453,41.455786],[2.228443,41.455769],[2.228395,41.455687],[2.228365,41.455647],[2.228328,41.455609],[2.228286,41.455576],[2.228238,41.455547],[2.228194,41.455525],[2.228004,41.455479],[2.227926,41.455463],[2.227854,41.455444],[2.227832,41.455439],[2.227452,41.455354],[2.227066,41.45527],[2.227035,41.455263],[2.226981,41.455256],[2.226945,41.455257],[2.226909,41.455266],[2.226877,41.45528],[2.22685,41.455299],[2.226828,41.455321],[2.226816,41.45534],[2.226774,41.455459],[2.226728,41.45559],[2.226708,41.45565],[2.226683,41.455728],[2.226613,41.45593],[2.226605,41.455962],[2.226601,41.456007],[2.226604,41.456052],[2.226615,41.456095],[2.226618,41.456102],[2.226645,41.456167],[2.226713,41.456293],[2.226721,41.456312],[2.226735,41.456327],[2.22685,41.456438],[2.226902,41.456536],[2.226944,41.45658],[2.226883,41.456682],[2.227294,41.456943],[2.227474,41.457089],[2.22751,41.457117],[2.227545,41.457146],[2.227591,41.457192],[2.227631,41.457239],[2.227667,41.457289],[2.227698,41.457341],[2.227703,41.457351],[2.227731,41.457418],[2.227751,41.457486],[2.227762,41.457555],[2.227763,41.457624],[2.227756,41.457693],[2.22774,41.457762],[2.227716,41.457828],[2.227682,41.457893],[2.227639,41.457949],[2.227573,41.458035],[2.227195,41.457804],[2.226909,41.457682],[2.22684,41.457652],[2.226758,41.45762],[2.226623,41.457571],[2.226612,41.457567],[2.226576,41.45756],[2.226539,41.457559],[2.226541,41.457554],[2.226313,41.457507],[2.226303,41.457497],[2.226288,41.457492],[2.226287,41.457491],[2.225622,41.457383],[2.224707,41.457244],[2.224117,41.457142],[2.223824,41.457053],[2.223736,41.457022],[2.223575,41.456964],[2.22354,41.456952],[2.223396,41.456892],[2.223255,41.456827],[2.223118,41.456758],[2.223043,41.456716],[2.223032,41.45671],[2.222815,41.456583],[2.222508,41.456384],[2.222362,41.456291],[2.222204,41.45619],[2.22195,41.456025],[2.221931,41.456014],[2.221908,41.456009],[2.221888,41.456009],[2.221885,41.456009],[2.221862,41.456014],[2.221748,41.456108],[2.221428,41.456371],[2.221402,41.456392],[2.221211,41.456551],[2.221156,41.456596],[2.220959,41.456759],[2.220959,41.456759],[2.220862,41.456839],[2.220822,41.456871],[2.220305,41.457297],[2.220274,41.457322],[2.220227,41.45736],[2.220034,41.457516],[2.220017,41.457531],[2.21969,41.457801],[2.219658,41.457826],[2.21962,41.457857],[2.219645,41.457886],[2.220112,41.458305],[2.220303,41.458468],[2.221137,41.459184],[2.221359,41.459357],[2.222129,41.459987],[2.222231,41.460069],[2.222532,41.460307],[2.223096,41.460758],[2.223315,41.460933],[2.223581,41.461093],[2.223905,41.461173],[2.224161,41.461174],[2.22417,41.461171],[2.224472,41.461085],[2.224906,41.46096],[2.224934,41.460948],[2.224959,41.460932],[2.22518,41.460823],[2.225246,41.460791],[2.225295,41.460768],[2.225589,41.460391],[2.225599,41.460378]]],[[[2.23623,41.462953],[2.236266,41.46286],[2.236358,41.462641],[2.236846,41.461482],[2.236853,41.461464],[2.236853,41.461446],[2.236844,41.461428],[2.23683,41.461414],[2.236809,41.461404],[2.236788,41.461399],[2.236456,41.461317],[2.236012,41.461211],[2.235905,41.461185],[2.235812,41.461162],[2.235964,41.460854],[2.236053,41.46065],[2.23611,41.460514],[2.236217,41.460259],[2.236239,41.460205],[2.236086,41.460124],[2.235727,41.45997],[2.235597,41.459922],[2.235437,41.459863],[2.235582,41.459762],[2.235562,41.459752],[2.235754,41.459634],[2.23627,41.45924],[2.236484,41.459048],[2.236733,41.45877],[2.236746,41.458751],[2.23633,41.458535],[2.235945,41.458846],[2.235454,41.459156],[2.235229,41.45929],[2.235,41.459434],[2.234885,41.459506],[2.234748,41.459402],[2.234725,41.459394],[2.234699,41.459391],[2.234674,41.459394],[2.23465,41.459403],[2.234635,41.459414],[2.234519,41.459504],[2.23441,41.459598],[2.234306,41.459696],[2.234266,41.459738],[2.234209,41.459798],[2.234117,41.459902],[2.234033,41.46001],[2.233954,41.460121],[2.233883,41.460234],[2.233818,41.46035],[2.233775,41.460437],[2.233793,41.460454],[2.233707,41.460665],[2.233687,41.460673],[2.233671,41.460686],[2.233661,41.460701],[2.23366,41.460707],[2.233577,41.460907],[2.233564,41.460937],[2.233476,41.461161],[2.233437,41.461254],[2.23343,41.461276],[2.233431,41.461299],[2.23344,41.461321],[2.233455,41.461341],[2.233458,41.461343],[2.233524,41.461387],[2.233507,41.46141],[2.233534,41.461453],[2.233604,41.461493],[2.233775,41.461593],[2.233919,41.461669],[2.233913,41.46168],[2.234276,41.461883],[2.234317,41.461891],[2.234437,41.461963],[2.234656,41.462094],[2.234895,41.462228],[2.236088,41.462895],[2.236177,41.462947],[2.236192,41.462952],[2.236208,41.462952],[2.236219,41.462948],[2.23623,41.462953]]]]}},{"type":"Feature","id":"080155_080155 SI02 BAR 2","properties":{"area_id":"080155_080155 SI02 BAR 2","nom":"Polígon industrial Badalona Nord","codi_icgc":"080155 SI02 BAR 2","categoria":"Sector industrial","codi_municipi":"080155","municipi":"Badalona","codi_comarca":"13","comarca":"Barcelonès","provincia":"Barcelona","font":"ICGC Àrees de poblament v3r1 202602"},"geometry":{"type":"MultiPolygon","coordinates":[[[[2.257863,41.458381],[2.257598,41.458205],[2.257145,41.458623],[2.256391,41.458451],[2.25636,41.458442],[2.256354,41.458442],[2.256268,41.458342],[2.256573,41.45809],[2.256695,41.457979],[2.255674,41.457466],[2.255583,41.457424],[2.255515,41.457465],[2.254731,41.457955],[2.254612,41.458036],[2.254114,41.458309],[2.253718,41.458533],[2.253717,41.458534],[2.253802,41.458553],[2.25506,41.458821],[2.255372,41.458888],[2.256692,41.459178],[2.257586,41.459374],[2.257649,41.459388],[2.258931,41.459748],[2.259227,41.459831],[2.259488,41.459898],[2.259989,41.460027],[2.260127,41.460071],[2.260134,41.460068],[2.260146,41.460062],[2.260168,41.460059],[2.260185,41.460061],[2.2602,41.460066],[2.260399,41.460131],[2.260799,41.460269],[2.260849,41.460289],[2.261392,41.460472],[2.26182,41.460623],[2.262239,41.460777],[2.262647,41.460928],[2.263267,41.461154],[2.263932,41.461393],[2.264436,41.461582],[2.264767,41.461717],[2.265316,41.461946],[2.26592,41.462196],[2.266153,41.462292],[2.266664,41.462502],[2.267017,41.462641],[2.267369,41.462781],[2.267527,41.462843],[2.267601,41.462874],[2.267957,41.463024],[2.268067,41.463066],[2.268142,41.462996],[2.268196,41.462998],[2.268305,41.462954],[2.268341,41.462911],[2.268394,41.462681],[2.268469,41.462488],[2.268445,41.462401],[2.268712,41.461995],[2.26875,41.461942],[2.268487,41.461813],[2.268032,41.461576],[2.268032,41.461576],[2.267672,41.462047],[2.267632,41.462099],[2.267526,41.462237],[2.267188,41.462097],[2.267105,41.462062],[2.266759,41.46186],[2.266651,41.461803],[2.266562,41.461756],[2.26699,41.461284],[2.266978,41.461278],[2.266201,41.460866],[2.266338,41.460675],[2.26638,41.460616],[2.266814,41.460129],[2.266693,41.460053],[2.2662,41.459741],[2.266177,41.459726],[2.265604,41.459371],[2.265539,41.459331],[2.265523,41.459325],[2.265505,41.459324],[2.265489,41.459329],[2.265477,41.459339],[2.265474,41.459343],[2.265382,41.459286],[2.265387,41.459268],[2.265385,41.459249],[2.265352,41.459214],[2.263953,41.458336],[2.263258,41.457919],[2.261454,41.456785],[2.261057,41.45654],[2.260625,41.456274],[2.260615,41.456282],[2.260575,41.456256],[2.260572,41.456252],[2.259084,41.457462],[2.258115,41.458306],[2.257958,41.458442],[2.257885,41.458396],[2.257863,41.458381]]]]}},{"type":"Feature","id":"080155_080155 SI01 BAR 2","properties":{"area_id":"080155_080155 SI01 BAR 2","nom":"Polígon industrial Badalona Sud","codi_icgc":"080155 SI01 BAR 2","categoria":"Sector industrial","codi_municipi":"080155","municipi":"Badalona","codi_comarca":"13","comarca":"Barcelonès","provincia":"Barcelona","font":"ICGC Àrees de poblament v3r1 202602"},"geometry":{"type":"MultiPolygon","coordinates":[[[[2.233796,41.439648],[2.233964,41.439549],[2.234046,41.439615],[2.234221,41.439515],[2.234312,41.439451],[2.234803,41.439163],[2.235333,41.438844],[2.235511,41.438742],[2.236223,41.43831],[2.236303,41.438261],[2.236793,41.437963],[2.236932,41.437902],[2.238296,41.437095],[2.23903,41.436607],[2.238511,41.436095],[2.238971,41.435846],[2.238859,41.435712],[2.238439,41.435208],[2.238341,41.435014],[2.238337,41.435006],[2.238029,41.434637],[2.237953,41.434568],[2.237841,41.434468],[2.237461,41.434009],[2.237397,41.434004],[2.237064,41.433512],[2.237045,41.433513],[2.236795,41.432901],[2.236765,41.432904],[2.236662,41.432679],[2.236697,41.432614],[2.236524,41.432185],[2.236464,41.432035],[2.236325,41.431688],[2.235765,41.43102],[2.235214,41.430357],[2.234958,41.430055],[2.235054,41.429977],[2.234606,41.429418],[2.234315,41.429065],[2.234223,41.428953],[2.232848,41.430105],[2.232476,41.430416],[2.232232,41.430621],[2.232167,41.430675],[2.232132,41.430705],[2.232105,41.430727],[2.23186,41.430933],[2.231694,41.431072],[2.231456,41.430956],[2.231455,41.430956],[2.231427,41.430943],[2.23093,41.430712],[2.229983,41.430454],[2.229795,41.430403],[2.229613,41.430353],[2.229117,41.430319],[2.229093,41.430354],[2.228905,41.430625],[2.22838,41.430446],[2.228252,41.430399],[2.228204,41.430382],[2.228041,41.430323],[2.227292,41.43005],[2.22727,41.430023],[2.226577,41.429882],[2.226523,41.429947],[2.226482,41.42999],[2.226459,41.430015],[2.226252,41.430234],[2.226,41.430507],[2.225871,41.430663],[2.225824,41.430719],[2.225861,41.430738],[2.225503,41.431131],[2.225338,41.431306],[2.225419,41.431354],[2.225495,41.431406],[2.225565,41.431462],[2.22563,41.431522],[2.225688,41.431585],[2.22574,41.431652],[2.225786,41.431722],[2.225855,41.431823],[2.225892,41.431874],[2.225961,41.431966],[2.226036,41.432055],[2.226117,41.432141],[2.226205,41.432223],[2.226298,41.432301],[2.226461,41.432446],[2.226732,41.432686],[2.226815,41.432754],[2.226862,41.432795],[2.227002,41.432925],[2.227109,41.433019],[2.227136,41.433043],[2.227249,41.433145],[2.227298,41.433188],[2.22797,41.433815],[2.228,41.433788],[2.228122,41.433956],[2.228574,41.434364],[2.228884,41.434642],[2.229266,41.434972],[2.229553,41.435221],[2.230178,41.435783],[2.230207,41.435766],[2.230221,41.435779],[2.230288,41.435885],[2.230289,41.435887],[2.230533,41.436105],[2.231175,41.436683],[2.231207,41.436709],[2.231118,41.43677],[2.23164,41.437212],[2.231645,41.437209],[2.231983,41.437489],[2.232145,41.437575],[2.232403,41.437789],[2.232524,41.43789],[2.232729,41.438069],[2.232734,41.438077],[2.232911,41.437948],[2.233715,41.437383],[2.233813,41.437323],[2.233922,41.437257],[2.233981,41.437221],[2.234156,41.437115],[2.234508,41.436858],[2.234952,41.436533],[2.235045,41.436404],[2.235213,41.43617],[2.2364,41.435321],[2.236574,41.435207],[2.2367,41.435388],[2.237191,41.435771],[2.237311,41.435915],[2.237149,41.435991],[2.237003,41.43606],[2.235921,41.436705],[2.235658,41.436853],[2.235649,41.436854],[2.23597,41.437153],[2.234708,41.437906],[2.234798,41.437989],[2.234325,41.438284],[2.234108,41.438444],[2.234277,41.438588],[2.233716,41.438956],[2.233349,41.438643],[2.23326,41.438574],[2.233233,41.438596],[2.232565,41.439034],[2.23256,41.439038],[2.232562,41.43904],[2.232669,41.439138],[2.233152,41.439571],[2.233471,41.439854],[2.23353,41.439905],[2.233541,41.439905],[2.233738,41.439789],[2.233864,41.439714],[2.233796,41.439648]]]]}},{"type":"Feature","id":"080155_080155 SI06 BAR 2","properties":{"area_id":"080155_080155 SI06 BAR 2","nom":"Polígon industrial Les Guixeres","codi_icgc":"080155 SI06 BAR 2","categoria":"Sector industrial","codi_municipi":"080155","municipi":"Badalona","codi_comarca":"13","comarca":"Barcelonès","provincia":"Barcelona","font":"ICGC Àrees de poblament v3r1 202602"},"geometry":{"type":"MultiPolygon","coordinates":[[[[2.255267,41.465806],[2.256311,41.464949],[2.256384,41.464891],[2.257179,41.464265],[2.257789,41.463913],[2.25879,41.463331],[2.259152,41.463097],[2.259543,41.462828],[2.259547,41.462823],[2.259593,41.462627],[2.260369,41.462458],[2.260554,41.462365],[2.260595,41.462344],[2.260657,41.462286],[2.260657,41.462286],[2.260665,41.462279],[2.260577,41.461826],[2.261154,41.461941],[2.261678,41.461989],[2.261854,41.462002],[2.261859,41.462025],[2.261914,41.462331],[2.262432,41.462501],[2.262716,41.462564],[2.2629,41.46257],[2.262996,41.462528],[2.263167,41.462501],[2.263811,41.462676],[2.264204,41.462731],[2.264362,41.462727],[2.264464,41.462685],[2.264566,41.462633],[2.264655,41.462567],[2.264896,41.462597],[2.264996,41.462581],[2.265024,41.462534],[2.264974,41.462464],[2.264188,41.462197],[2.26391,41.462131],[2.263776,41.462107],[2.263777,41.462106],[2.263823,41.462038],[2.263904,41.46192],[2.263888,41.461914],[2.263708,41.461845],[2.262824,41.461503],[2.261588,41.461088],[2.260897,41.460826],[2.259884,41.460495],[2.2596,41.460402],[2.25859,41.460085],[2.25673,41.459637],[2.255908,41.459455],[2.255178,41.459293],[2.253377,41.458902],[2.252977,41.458813],[2.252524,41.459014],[2.252178,41.459192],[2.251509,41.459636],[2.25114,41.46007],[2.250837,41.460463],[2.250616,41.460863],[2.250788,41.461336],[2.250817,41.461381],[2.251204,41.461681],[2.251494,41.461863],[2.252072,41.462236],[2.255187,41.464233],[2.25527,41.464286],[2.255315,41.464324],[2.255325,41.464339],[2.255357,41.464386],[2.255362,41.464417],[2.255359,41.464448],[2.255335,41.464504],[2.255274,41.464561],[2.254704,41.464891],[2.254636,41.46493],[2.2536,41.465521],[2.253738,41.465869],[2.254928,41.46628],[2.255035,41.466123],[2.255056,41.466091],[2.255267,41.465806]]]]}},{"type":"Feature","id":"080155_080155 SI05 BAR 2","properties":{"area_id":"080155_080155 SI05 BAR 2","nom":"Polígon industrial Pomar de Dalt","codi_icgc":"080155 SI05 BAR 2","categoria":"Sector industrial","codi_municipi":"080155","municipi":"Badalona","codi_comarca":"13","comarca":"Barcelonès","provincia":"Barcelona","font":"ICGC Àrees de poblament v3r1 202602"},"geometry":{"type":"MultiPolygon","coordinates":[[[[2.252981,41.471968],[2.253994,41.47224],[2.254034,41.47225],[2.254113,41.472267],[2.254193,41.472277],[2.254274,41.472282],[2.254355,41.472281],[2.254436,41.472274],[2.254516,41.472261],[2.254593,41.472242],[2.25462,41.472228],[2.254661,41.4722],[2.254695,41.472168],[2.254724,41.472132],[2.254746,41.472094],[2.25476,41.472054],[2.254767,41.472013],[2.254768,41.471989],[2.254772,41.471919],[2.254769,41.471849],[2.254758,41.471779],[2.25474,41.47171],[2.254714,41.471643],[2.254681,41.471578],[2.254661,41.471544],[2.254496,41.47131],[2.254392,41.471177],[2.254271,41.471039],[2.254161,41.470933],[2.254097,41.470871],[2.254009,41.47078],[2.253918,41.470676],[2.253834,41.470568],[2.253756,41.470457],[2.253685,41.470344],[2.253621,41.470228],[2.253565,41.47011],[2.253515,41.469991],[2.253509,41.469975],[2.253401,41.469656],[2.25339,41.469626],[2.253371,41.469598],[2.253346,41.469573],[2.253315,41.469552],[2.25328,41.469536],[2.253241,41.469524],[2.253233,41.469514],[2.253225,41.469522],[2.253033,41.46952],[2.25206,41.469529],[2.252009,41.469535],[2.251957,41.469541],[2.25195,41.469542],[2.251916,41.469554],[2.251886,41.46957],[2.251253,41.46957],[2.250846,41.469566],[2.250592,41.469556],[2.250549,41.469555],[2.250508,41.46956],[2.250468,41.46957],[2.250371,41.46963],[2.250249,41.469727],[2.250097,41.46984],[2.250007,41.469907],[2.249742,41.470061],[2.249325,41.469849],[2.249228,41.469792],[2.248702,41.469514],[2.2487,41.469513],[2.248699,41.469512],[2.247947,41.469114],[2.247491,41.468811],[2.247289,41.468649],[2.247031,41.468441],[2.246937,41.468366],[2.24685,41.468297],[2.246542,41.46805],[2.246217,41.467782],[2.246047,41.467642],[2.245765,41.467412],[2.245613,41.467302],[2.245248,41.467055],[2.245098,41.466961],[2.245073,41.466944],[2.245044,41.466932],[2.245011,41.466926],[2.245005,41.466926],[2.245002,41.466921],[2.244989,41.466925],[2.244511,41.467076],[2.24442,41.467128],[2.244133,41.46729],[2.244343,41.467429],[2.244558,41.467571],[2.244748,41.467698],[2.244973,41.467858],[2.245149,41.467994],[2.245433,41.468227],[2.245771,41.468511],[2.246179,41.468852],[2.246243,41.468904],[2.246501,41.469115],[2.246734,41.469294],[2.246749,41.469305],[2.246774,41.469325],[2.246798,41.469343],[2.246825,41.469364],[2.246865,41.469394],[2.247011,41.469496],[2.247153,41.469589],[2.247311,41.469687],[2.247491,41.469794],[2.247654,41.469887],[2.247826,41.46998],[2.248061,41.470103],[2.248283,41.470221],[2.248535,41.47035],[2.248648,41.470405],[2.249165,41.470647],[2.249562,41.470829],[2.249688,41.470887],[2.250382,41.47116],[2.250843,41.471357],[2.251419,41.471556],[2.251811,41.47165],[2.251994,41.471713],[2.252324,41.471789],[2.252804,41.471921],[2.252834,41.471929],[2.252981,41.471968]]]]}},{"type":"Feature","id":"080155_080155 AP03 BAR 2","properties":{"area_id":"080155_080155 AP03 BAR 2","nom":"Pomar de Dalt","codi_icgc":"080155 AP03 BAR 2","categoria":"Àrees de poblament","codi_municipi":"080155","municipi":"Badalona","codi_comarca":"13","comarca":"Barcelonès","provincia":"Barcelona","font":"ICGC Àrees de poblament v3r1 202602"},"geometry":{"type":"MultiPolygon","coordinates":[[[[2.246394,41.472629],[2.246379,41.472642],[2.246252,41.472749],[2.246121,41.473045],[2.246109,41.473074],[2.246092,41.473092],[2.245788,41.473418],[2.245673,41.473514],[2.245548,41.473619],[2.245546,41.47362],[2.245543,41.473642],[2.24554,41.473657],[2.245516,41.47367],[2.245489,41.473689],[2.24545,41.473722],[2.245392,41.473777],[2.245305,41.473863],[2.245202,41.473985],[2.245199,41.473989],[2.24513,41.474105],[2.245092,41.474118],[2.245061,41.474157],[2.245045,41.47417],[2.245021,41.474177],[2.244908,41.474186],[2.244876,41.474198],[2.244708,41.474218],[2.244685,41.474221],[2.244663,41.474227],[2.244447,41.474291],[2.244255,41.474409],[2.244128,41.474455],[2.244048,41.47444],[2.243812,41.474394],[2.243786,41.47438],[2.243779,41.474391],[2.243641,41.474347],[2.243621,41.474444],[2.243586,41.474551],[2.243465,41.474839],[2.243433,41.474884],[2.24344,41.474898],[2.243418,41.474951],[2.243482,41.47513],[2.243481,41.475133],[2.243601,41.475148],[2.243645,41.475097],[2.243648,41.475094],[2.243736,41.475048],[2.244107,41.474764],[2.244587,41.474872],[2.244712,41.475004],[2.245259,41.474886],[2.245272,41.474883],[2.24531,41.474875],[2.245365,41.474863],[2.24553,41.474039],[2.245692,41.473953],[2.245676,41.473983],[2.246201,41.474218],[2.246153,41.47431],[2.246169,41.474317],[2.246178,41.47432],[2.245867,41.474871],[2.245894,41.47488],[2.246284,41.475008],[2.246414,41.475103],[2.246863,41.475432],[2.246875,41.47544],[2.24715,41.475352],[2.24715,41.475351],[2.247362,41.475379],[2.247737,41.475429],[2.247777,41.475434],[2.247788,41.475436],[2.247804,41.475411],[2.247822,41.475381],[2.247852,41.475335],[2.247852,41.475334],[2.247715,41.475198],[2.247375,41.474857],[2.247278,41.474761],[2.24714,41.474659],[2.247098,41.474628],[2.247087,41.474616],[2.246811,41.474346],[2.246808,41.474344],[2.246799,41.474334],[2.246785,41.474327],[2.246632,41.474244],[2.246393,41.474143],[2.24669,41.473992],[2.246689,41.473992],[2.246608,41.473912],[2.246073,41.473931],[2.24603,41.473905],[2.245916,41.473836],[2.245639,41.473615],[2.245897,41.473508],[2.245903,41.473505],[2.245962,41.473481],[2.24604,41.473362],[2.246072,41.473327],[2.246254,41.47331],[2.246413,41.473258],[2.246555,41.473317],[2.246772,41.473258],[2.247008,41.47325],[2.247072,41.473202],[2.247136,41.473131],[2.247089,41.473071],[2.246954,41.473017],[2.246923,41.473005],[2.246869,41.472897],[2.246862,41.47282],[2.246855,41.47273],[2.248037,41.472552],[2.248087,41.472541],[2.248084,41.472535],[2.247803,41.4719],[2.247793,41.471895],[2.247401,41.472079],[2.247203,41.472095],[2.246416,41.472611],[2.246394,41.472629]]]]}},{"type":"Feature","id":"080155_080155 AP06 BAR 2","properties":{"area_id":"080155_080155 AP06 BAR 2","nom":"Vallençana","codi_icgc":"080155 AP06 BAR 2","categoria":"Àrees de poblament","codi_municipi":"080155","municipi":"Badalona","codi_comarca":"13","comarca":"Barcelonès","provincia":"Barcelona","font":"ICGC Àrees de poblament v3r1 202602"},"geometry":{"type":"MultiPolygon","coordinates":[[[[2.214124,41.479475],[2.214301,41.479554],[2.214447,41.479507],[2.214523,41.479488],[2.214652,41.47951],[2.214708,41.479522],[2.214791,41.479524],[2.21503,41.47952],[2.21522,41.479512],[2.215337,41.479505],[2.215393,41.479492],[2.215433,41.479469],[2.215474,41.479449],[2.215535,41.479436],[2.215576,41.479436],[2.215644,41.479435],[2.215685,41.479424],[2.215767,41.479361],[2.216126,41.479049],[2.216172,41.478994],[2.216217,41.479076],[2.216237,41.479099],[2.216272,41.479111],[2.216317,41.479115],[2.216356,41.479087],[2.21642,41.479025],[2.216616,41.478812],[2.216691,41.478707],[2.216729,41.478683],[2.216764,41.478688],[2.216793,41.478686],[2.216828,41.478672],[2.216873,41.478637],[2.21693,41.478575],[2.21702,41.478468],[2.217062,41.478402],[2.217069,41.478366],[2.217077,41.478238],[2.217147,41.478236],[2.217324,41.478255],[2.217366,41.478205],[2.217393,41.478112],[2.217624,41.47788],[2.217835,41.477674],[2.217678,41.477577],[2.217447,41.477684],[2.217297,41.477626],[2.217091,41.477683],[2.216979,41.477724],[2.216871,41.477777],[2.216806,41.477803],[2.216665,41.477826],[2.216578,41.477824],[2.216353,41.477757],[2.216265,41.47773],[2.216211,41.477746],[2.216032,41.477793],[2.215942,41.47782],[2.215863,41.47784],[2.215807,41.477855],[2.215765,41.477867],[2.215745,41.477879],[2.215691,41.477915],[2.215657,41.477935],[2.215613,41.47796],[2.215581,41.477973],[2.215529,41.477992],[2.215474,41.478005],[2.215429,41.478006],[2.215379,41.478002],[2.215307,41.47799],[2.215188,41.477961],[2.215151,41.477955],[2.215127,41.477951],[2.215043,41.477929],[2.214966,41.477916],[2.21488,41.477903],[2.214813,41.477897],[2.214723,41.477902],[2.214448,41.477918],[2.214427,41.47792],[2.214395,41.477929],[2.214359,41.477941],[2.214324,41.477948],[2.214262,41.477951],[2.214162,41.477931],[2.214065,41.477933],[2.21405,41.477939],[2.214046,41.477983],[2.214037,41.478077],[2.21404,41.47821],[2.214041,41.478234],[2.214019,41.478235],[2.213959,41.478247],[2.213833,41.47829],[2.213664,41.478345],[2.213539,41.478148],[2.21347,41.478172],[2.213428,41.478188],[2.21339,41.478202],[2.213358,41.47821],[2.213312,41.478222],[2.213272,41.478233],[2.213232,41.478244],[2.213181,41.478259],[2.213132,41.478271],[2.213135,41.478276],[2.213266,41.478488],[2.213171,41.478532],[2.213079,41.478569],[2.213007,41.478597],[2.212935,41.478616],[2.212873,41.47862],[2.212796,41.478618],[2.212713,41.478616],[2.212658,41.47861],[2.212583,41.478605],[2.212553,41.478601],[2.212329,41.479131],[2.212298,41.479205],[2.212271,41.479269],[2.212238,41.47935],[2.212182,41.479489],[2.212184,41.479587],[2.212189,41.479683],[2.212224,41.479721],[2.212251,41.479738],[2.21234,41.479767],[2.212391,41.479779],[2.212431,41.479786],[2.212473,41.479786],[2.212546,41.479778],[2.212613,41.47976],[2.212656,41.479741],[2.212701,41.479692],[2.212751,41.479627],[2.212841,41.479511],[2.212906,41.479455],[2.213001,41.479391],[2.213108,41.479329],[2.213144,41.479325],[2.213174,41.479337],[2.213194,41.479377],[2.213449,41.479649],[2.213954,41.479441],[2.214124,41.479475]]]]}},{"type":"Feature","id":"080155_080155 AP05 BAR 2","properties":{"area_id":"080155_080155 AP05 BAR 2","nom":"Vallençana Nova","codi_icgc":"080155 AP05 BAR 2","categoria":"Àrees de poblament","codi_municipi":"080155","municipi":"Badalona","codi_comarca":"13","comarca":"Barcelonès","provincia":"Barcelona","font":"ICGC Àrees de poblament v3r1 202602"},"geometry":{"type":"MultiPolygon","coordinates":[[[[2.216584,41.484378],[2.216594,41.484348],[2.216594,41.484309],[2.216578,41.484279],[2.216562,41.484266],[2.216484,41.4842],[2.216408,41.484135],[2.216336,41.484073],[2.21642,41.484088],[2.21648,41.484107],[2.216583,41.484163],[2.216859,41.483898],[2.216797,41.483844],[2.216656,41.483747],[2.216526,41.483682],[2.216366,41.483632],[2.216095,41.48355],[2.215943,41.483519],[2.215829,41.483518],[2.215502,41.483523],[2.215281,41.483599],[2.215292,41.483691],[2.215301,41.483742],[2.215348,41.483885],[2.215382,41.483992],[2.215406,41.484025],[2.215517,41.484178],[2.21553,41.484189],[2.215578,41.484228],[2.215631,41.484217],[2.215799,41.484221],[2.216053,41.484224],[2.216132,41.48423],[2.216192,41.484241],[2.216292,41.4843],[2.216425,41.484401],[2.216465,41.484416],[2.216499,41.484412],[2.216535,41.484398],[2.216584,41.484378]]]]}},{"type":"Feature","id":"080155_080155 AP04 BAR 2","properties":{"area_id":"080155_080155 AP04 BAR 2","nom":"el Manresà","codi_icgc":"080155 AP04 BAR 2","categoria":"Àrees de poblament","codi_municipi":"080155","municipi":"Badalona","codi_comarca":"13","comarca":"Barcelonès","provincia":"Barcelona","font":"ICGC Àrees de poblament v3r1 202602"},"geometry":{"type":"MultiPolygon","coordinates":[[[[2.267968,41.461542],[2.268014,41.461475],[2.268064,41.461501],[2.268283,41.461614],[2.268657,41.461804],[2.268816,41.461896],[2.269099,41.461504],[2.268225,41.461003],[2.268044,41.460889],[2.267848,41.460765],[2.267651,41.460647],[2.267528,41.460573],[2.267528,41.460573],[2.266857,41.460153],[2.266855,41.460155],[2.266425,41.460637],[2.26637,41.460693],[2.266201,41.460866],[2.266978,41.461278],[2.26699,41.461284],[2.267041,41.461311],[2.267067,41.461325],[2.266724,41.461725],[2.266965,41.461866],[2.267008,41.461891],[2.26716,41.46198],[2.267248,41.462021],[2.267286,41.462039],[2.267439,41.462104],[2.267517,41.46212],[2.267596,41.462022],[2.267601,41.462015],[2.26789,41.461657],[2.267968,41.461542]]]]}},{"type":"Feature","id":"080155_080155 AP07 BAR 4","properties":{"area_id":"080155_080155 AP07 BAR 4","nom":"la Berenguera","codi_icgc":"080155 AP07 BAR 4","categoria":"Àrees de poblament","codi_municipi":"080155","municipi":"Badalona","codi_comarca":"13","comarca":"Barcelonès","provincia":"Barcelona","font":"ICGC Àrees de poblament v3r1 202602"},"geometry":{"type":"MultiPolygon","coordinates":[[[[2.233329,41.478328],[2.233208,41.478293],[2.233086,41.478258],[2.233047,41.47829],[2.233044,41.478292],[2.23285,41.478608],[2.23286,41.478623],[2.232873,41.478642],[2.232895,41.478676],[2.232944,41.478755],[2.233012,41.478875],[2.233044,41.478927],[2.233045,41.478931],[2.233072,41.47899],[2.233075,41.478997],[2.233158,41.479072],[2.233234,41.479147],[2.233251,41.479137],[2.233266,41.479151],[2.233272,41.479157],[2.233353,41.47911],[2.233356,41.479108],[2.233375,41.479095],[2.233397,41.479078],[2.233408,41.479068],[2.233451,41.479053],[2.23348,41.479043],[2.233536,41.479022],[2.233646,41.478956],[2.233789,41.478869],[2.233837,41.478855],[2.233898,41.478818],[2.233957,41.478778],[2.234024,41.478749],[2.234043,41.478738],[2.234117,41.478694],[2.234163,41.478667],[2.234199,41.47864],[2.234225,41.478664],[2.234334,41.478598],[2.234343,41.478591],[2.234353,41.478579],[2.23436,41.478569],[2.234361,41.478558],[2.234358,41.478544],[2.234354,41.478527],[2.234345,41.478504],[2.234335,41.47849],[2.234322,41.478477],[2.23431,41.47847],[2.234296,41.478466],[2.234287,41.47843],[2.234272,41.478398],[2.234234,41.478366],[2.23419,41.478335],[2.234104,41.478271],[2.234054,41.478204],[2.23404,41.478099],[2.233945,41.478054],[2.233872,41.478108],[2.233483,41.478374],[2.233329,41.478328]]]]}}]}