{"type":"FeatureCollection","name":"ICGC Àrees de poblament - el Bruc","features":[{"type":"Feature","id":"080253_080253 SI02 ANO 2","properties":{"area_id":"080253_080253 SI02 ANO 2","nom":"Maxam","codi_icgc":"080253 SI02 ANO 2","categoria":"Sector industrial","codi_municipi":"080253","municipi":"el Bruc","codi_comarca":"06","comarca":"Anoia","provincia":"Barcelona","font":"ICGC Àrees de poblament v3r1 202602"},"geometry":{"type":"MultiPolygon","coordinates":[[[[1.766754,41.641974],[1.766775,41.641964],[1.76688,41.641916],[1.766952,41.641882],[1.767093,41.642086],[1.767239,41.642187],[1.767532,41.642301],[1.767895,41.642358],[1.768151,41.64241],[1.768431,41.642415],[1.769061,41.642418],[1.769146,41.642261],[1.769241,41.642073],[1.769353,41.641835],[1.769379,41.641781],[1.769474,41.641586],[1.769568,41.641393],[1.769467,41.641232],[1.769415,41.641151],[1.769282,41.640924],[1.769312,41.640768],[1.769444,41.640455],[1.769517,41.640238],[1.769369,41.64015],[1.769138,41.640014],[1.768762,41.639808],[1.768631,41.639718],[1.768443,41.639789],[1.768226,41.639866],[1.768072,41.639955],[1.767865,41.640077],[1.767792,41.640274],[1.767727,41.640396],[1.76761,41.640628],[1.76746,41.640648],[1.767278,41.640672],[1.76715,41.640679],[1.767022,41.640656],[1.76697,41.64073],[1.766886,41.640893],[1.766783,41.641095],[1.766584,41.641353],[1.7665,41.641716],[1.766618,41.641835],[1.766754,41.641974]]]]}},{"type":"Feature","id":"080253_080253 AP04 ANO 3","properties":{"area_id":"080253_080253 AP04 ANO 3","nom":"Montserrat Parc","codi_icgc":"080253 AP04 ANO 3","categoria":"Àrees de poblament","codi_municipi":"080253","municipi":"el Bruc","codi_comarca":"06","comarca":"Anoia","provincia":"Barcelona","font":"ICGC Àrees de poblament v3r1 202602"},"geometry":{"type":"MultiPolygon","coordinates":[[[[1.735325,41.604143],[1.735311,41.604153],[1.735252,41.604198],[1.735219,41.604222],[1.735032,41.604477],[1.735139,41.604658],[1.735143,41.604664],[1.735229,41.604829],[1.73523,41.60483],[1.735253,41.604875],[1.735255,41.604881],[1.735258,41.604887],[1.735258,41.604887],[1.735345,41.605057],[1.735358,41.605091],[1.735416,41.605253],[1.735417,41.605257],[1.735453,41.605338],[1.735537,41.605563],[1.735564,41.605644],[1.735548,41.605652],[1.735571,41.605694],[1.7356,41.605753],[1.735647,41.605897],[1.735648,41.6059],[1.735618,41.60595],[1.735584,41.606006],[1.735524,41.606096],[1.735779,41.60617],[1.735854,41.606191],[1.735874,41.606202],[1.735887,41.60621],[1.73592,41.606228],[1.735953,41.60625],[1.735984,41.606272],[1.736032,41.606303],[1.736082,41.606332],[1.736118,41.606348],[1.736141,41.606352],[1.736163,41.606354],[1.736207,41.606367],[1.73626,41.606385],[1.73635,41.606431],[1.736385,41.60645],[1.736409,41.606466],[1.736441,41.606494],[1.736468,41.606526],[1.736476,41.606547],[1.736485,41.606579],[1.736489,41.606612],[1.736489,41.606674],[1.736489,41.606686],[1.736487,41.606759],[1.736491,41.6068],[1.736503,41.606841],[1.736521,41.606869],[1.736534,41.606881],[1.736551,41.60689],[1.736635,41.606917],[1.736717,41.606943],[1.736772,41.606963],[1.73683,41.606982],[1.73685,41.606985],[1.736878,41.606985],[1.736906,41.606983],[1.737002,41.606975],[1.737101,41.606969],[1.737164,41.606964],[1.737216,41.606961],[1.737426,41.607137],[1.737359,41.607173],[1.737432,41.607231],[1.737535,41.607318],[1.737504,41.607355],[1.737487,41.607437],[1.737602,41.607508],[1.737713,41.607405],[1.737888,41.607499],[1.738069,41.607606],[1.73824,41.607711],[1.738393,41.607783],[1.738466,41.607807],[1.738516,41.607826],[1.738661,41.607872],[1.738835,41.607911],[1.738834,41.607952],[1.73889,41.607969],[1.739185,41.608093],[1.739219,41.608127],[1.739248,41.608128],[1.739245,41.608155],[1.739227,41.608337],[1.739225,41.608363],[1.739224,41.608418],[1.739224,41.608492],[1.739225,41.608578],[1.739225,41.608593],[1.739145,41.608636],[1.739012,41.608731],[1.738938,41.608807],[1.739049,41.608808],[1.739072,41.608873],[1.739073,41.608878],[1.739074,41.608886],[1.739082,41.60893],[1.739114,41.609036],[1.739155,41.60914],[1.739244,41.609112],[1.739381,41.60908],[1.739356,41.609013],[1.739408,41.608965],[1.739625,41.609088],[1.739615,41.609121],[1.739625,41.609125],[1.739681,41.609153],[1.739739,41.609179],[1.739816,41.609219],[1.739969,41.609294],[1.739872,41.609431],[1.73986,41.609476],[1.740004,41.609504],[1.740135,41.609509],[1.740286,41.609493],[1.740291,41.609446],[1.740513,41.609412],[1.740555,41.609503],[1.740665,41.609568],[1.740771,41.609539],[1.740805,41.609531],[1.740837,41.609521],[1.7409,41.609503],[1.740962,41.609484],[1.741083,41.609452],[1.741205,41.609419],[1.741228,41.609409],[1.74125,41.609397],[1.741282,41.609381],[1.741308,41.609367],[1.741327,41.609358],[1.741341,41.609354],[1.741359,41.609353],[1.741367,41.609355],[1.741373,41.60936],[1.741383,41.609375],[1.741396,41.6094],[1.741408,41.609426],[1.741445,41.609485],[1.74148,41.609545],[1.741511,41.609601],[1.74154,41.609658],[1.741572,41.609708],[1.741597,41.609742],[1.74165,41.60982],[1.741683,41.609868],[1.741837,41.610093],[1.741893,41.610065],[1.742133,41.61015],[1.742233,41.610261],[1.742141,41.610312],[1.742044,41.610366],[1.74216,41.610513],[1.742243,41.610605],[1.742507,41.610456],[1.742551,41.610442],[1.742582,41.610484],[1.742592,41.610497],[1.742605,41.610544],[1.74261,41.610561],[1.742376,41.610689],[1.742534,41.610809],[1.742726,41.610663],[1.742732,41.610638],[1.742739,41.610613],[1.742776,41.610636],[1.742778,41.610638],[1.742838,41.610671],[1.742962,41.610727],[1.743105,41.610784],[1.743727,41.611034],[1.743734,41.611047],[1.743743,41.611044],[1.743992,41.610982],[1.74398,41.610967],[1.743973,41.610955],[1.743988,41.610926],[1.744019,41.610855],[1.744035,41.610818],[1.744048,41.61078],[1.744062,41.610717],[1.744074,41.610654],[1.744085,41.610608],[1.744098,41.610562],[1.744114,41.610514],[1.744136,41.610468],[1.744166,41.610428],[1.744203,41.610391],[1.744305,41.610297],[1.744398,41.610219],[1.744458,41.610174],[1.744542,41.610121],[1.74475,41.610235],[1.744872,41.610308],[1.744893,41.61032],[1.745009,41.610389],[1.745058,41.610337],[1.745103,41.61029],[1.745164,41.610228],[1.74519,41.610199],[1.74526,41.610127],[1.745298,41.610131],[1.745347,41.610137],[1.745395,41.610143],[1.745461,41.610151],[1.745524,41.610158],[1.745667,41.61017],[1.745789,41.610185],[1.74591,41.610201],[1.745997,41.610212],[1.746083,41.610224],[1.746108,41.610231],[1.746131,41.610243],[1.746174,41.610272],[1.746247,41.610326],[1.746317,41.610376],[1.746444,41.610409],[1.746447,41.610405],[1.746453,41.610395],[1.746564,41.610391],[1.746873,41.610365],[1.746998,41.610425],[1.74701,41.610428],[1.747067,41.61044],[1.747073,41.610435],[1.747115,41.610384],[1.747142,41.610359],[1.747169,41.610336],[1.747203,41.610302],[1.747213,41.610292],[1.747256,41.610239],[1.747314,41.610218],[1.747404,41.610094],[1.747419,41.609983],[1.747389,41.609976],[1.747418,41.609889],[1.747424,41.609738],[1.747421,41.609712],[1.747428,41.609676],[1.747434,41.609659],[1.74744,41.609641],[1.747478,41.609541],[1.747518,41.609444],[1.747533,41.609409],[1.747549,41.609374],[1.74756,41.609339],[1.747564,41.609328],[1.747567,41.609319],[1.747568,41.609316],[1.747583,41.609264],[1.747592,41.609248],[1.747604,41.609234],[1.747619,41.609225],[1.74762,41.609225],[1.747685,41.609213],[1.747667,41.609198],[1.747673,41.609156],[1.747675,41.609088],[1.747673,41.609054],[1.747671,41.609021],[1.747665,41.608959],[1.747663,41.608931],[1.747683,41.608887],[1.747708,41.608844],[1.747713,41.608835],[1.748021,41.608828],[1.74824,41.608846],[1.748274,41.608812],[1.748295,41.608822],[1.748356,41.608844],[1.7484,41.608858],[1.748454,41.608872],[1.748539,41.608885],[1.748569,41.608889],[1.7486,41.608891],[1.748654,41.60889],[1.748708,41.608883],[1.748762,41.608871],[1.748813,41.608854],[1.748847,41.608838],[1.748849,41.608837],[1.748875,41.608823],[1.748879,41.60882],[1.748892,41.608812],[1.748893,41.608811],[1.748903,41.608806],[1.748903,41.608805],[1.748938,41.60877],[1.748929,41.608765],[1.748927,41.60876],[1.748926,41.608755],[1.748929,41.60874],[1.748931,41.608709],[1.748934,41.608678],[1.748939,41.608633],[1.748945,41.608589],[1.748957,41.608543],[1.748976,41.608497],[1.748992,41.608463],[1.749013,41.608431],[1.749048,41.608392],[1.74909,41.608357],[1.749131,41.60833],[1.749177,41.608308],[1.749231,41.60829],[1.749288,41.608279],[1.74935,41.608271],[1.749372,41.60827],[1.749375,41.608271],[1.749439,41.608289],[1.749527,41.608307],[1.749515,41.608299],[1.749508,41.608293],[1.749509,41.608285],[1.749516,41.60828],[1.749521,41.608279],[1.749539,41.608281],[1.749626,41.608292],[1.749706,41.608301],[1.749786,41.60831],[1.749846,41.608315],[1.749907,41.608315],[1.749934,41.608311],[1.749958,41.608304],[1.750003,41.608283],[1.750042,41.608263],[1.750075,41.608239],[1.750094,41.60822],[1.75013,41.608171],[1.750159,41.608122],[1.750211,41.608028],[1.750263,41.607936],[1.750315,41.607851],[1.750372,41.607767],[1.750415,41.607717],[1.750466,41.607671],[1.750521,41.607627],[1.750579,41.607586],[1.750634,41.607549],[1.750725,41.607465],[1.750752,41.607384],[1.750765,41.607344],[1.750773,41.607319],[1.750748,41.607331],[1.750745,41.607322],[1.750742,41.607315],[1.750727,41.60729],[1.75071,41.607269],[1.75067,41.60723],[1.750583,41.607153],[1.750494,41.607079],[1.750462,41.607053],[1.750429,41.607027],[1.750403,41.607012],[1.750375,41.607],[1.750317,41.60698],[1.750282,41.606964],[1.750244,41.606939],[1.750213,41.606908],[1.750203,41.606889],[1.750201,41.606869],[1.750203,41.606856],[1.75021,41.606837],[1.750223,41.60682],[1.750234,41.60681],[1.75026,41.606793],[1.750287,41.60678],[1.750343,41.606757],[1.750369,41.606748],[1.750396,41.606739],[1.750412,41.606729],[1.75042,41.60672],[1.750463,41.606688],[1.750499,41.606666],[1.750513,41.606658],[1.750532,41.606656],[1.750562,41.60665],[1.75064,41.606626],[1.750713,41.606598],[1.750801,41.606564],[1.750886,41.606526],[1.750925,41.606502],[1.750957,41.606474],[1.750975,41.606453],[1.750996,41.606424],[1.751028,41.606357],[1.75105,41.606288],[1.751067,41.606218],[1.751082,41.606148],[1.751092,41.606089],[1.751099,41.606031],[1.751099,41.605982],[1.751094,41.605934],[1.751086,41.605897],[1.751072,41.60586],[1.751052,41.605828],[1.751026,41.605799],[1.751004,41.605783],[1.750915,41.605728],[1.750825,41.605676],[1.750715,41.605615],[1.750603,41.605555],[1.750557,41.605534],[1.750509,41.605515],[1.750432,41.605487],[1.750352,41.605461],[1.750306,41.605448],[1.750259,41.605438],[1.750166,41.605417],[1.750097,41.605396],[1.74992,41.605344],[1.749703,41.605585],[1.749557,41.605732],[1.749509,41.605709],[1.749427,41.605667],[1.749355,41.605632],[1.749237,41.605572],[1.749141,41.605517],[1.749044,41.605455],[1.74895,41.605389],[1.748889,41.605346],[1.748829,41.605302],[1.748805,41.605281],[1.748784,41.605256],[1.748773,41.605244],[1.748767,41.605233],[1.748764,41.605218],[1.748761,41.605209],[1.748775,41.605144],[1.748787,41.605063],[1.748797,41.604983],[1.748808,41.604932],[1.748825,41.604883],[1.748846,41.604835],[1.748897,41.60474],[1.74894,41.604668],[1.748986,41.604597],[1.74902,41.604552],[1.749077,41.604484],[1.749138,41.604416],[1.749175,41.604369],[1.749235,41.604282],[1.749228,41.604277],[1.749237,41.604263],[1.749263,41.604232],[1.749326,41.604133],[1.749391,41.604037],[1.749458,41.603937],[1.749566,41.603762],[1.749686,41.603576],[1.74968,41.603567],[1.749649,41.603516],[1.749617,41.603464],[1.749564,41.603439],[1.74946,41.603369],[1.749406,41.603366],[1.749364,41.603366],[1.749343,41.603388],[1.749327,41.603546],[1.749269,41.603533],[1.749199,41.603676],[1.749262,41.603699],[1.749206,41.603776],[1.749039,41.603992],[1.749032,41.604004],[1.748988,41.604085],[1.748977,41.6041],[1.748936,41.604156],[1.748907,41.604215],[1.748905,41.604218],[1.748835,41.604346],[1.748834,41.604349],[1.748802,41.604403],[1.748694,41.604572],[1.748588,41.604706],[1.748531,41.604769],[1.74848,41.604825],[1.748442,41.604867],[1.748337,41.605068],[1.748314,41.605127],[1.748271,41.605257],[1.748269,41.605272],[1.748258,41.605338],[1.748238,41.605504],[1.748239,41.605542],[1.748243,41.605556],[1.748249,41.605567],[1.748257,41.605583],[1.748265,41.6056],[1.748288,41.605655],[1.748295,41.6057],[1.748306,41.605804],[1.748329,41.605955],[1.748308,41.60612],[1.748132,41.606446],[1.748076,41.606542],[1.748079,41.60668],[1.748074,41.60674],[1.748,41.606837],[1.748014,41.606686],[1.748015,41.606653],[1.747952,41.606667],[1.747663,41.606736],[1.747604,41.606742],[1.747534,41.606758],[1.74738,41.606795],[1.746951,41.606866],[1.746805,41.606898],[1.746612,41.606936],[1.74648,41.606962],[1.746304,41.607005],[1.746233,41.607025],[1.746093,41.607063],[1.746067,41.607063],[1.745937,41.607094],[1.746031,41.607447],[1.745998,41.607463],[1.745948,41.607481],[1.745903,41.607496],[1.745857,41.607509],[1.7458,41.607521],[1.745705,41.607546],[1.745626,41.607563],[1.74555,41.607579],[1.745532,41.607555],[1.745525,41.607536],[1.745521,41.607523],[1.745519,41.607502],[1.745533,41.607474],[1.745474,41.607442],[1.745462,41.607445],[1.745406,41.607439],[1.745157,41.607444],[1.745125,41.607243],[1.744965,41.607269],[1.744955,41.607271],[1.744684,41.607318],[1.744664,41.607322],[1.74465,41.607324],[1.74461,41.607332],[1.744478,41.607355],[1.744043,41.607434],[1.744038,41.607435],[1.743354,41.607558],[1.743052,41.607333],[1.742963,41.607274],[1.742702,41.607071],[1.742395,41.606851],[1.742263,41.606756],[1.742198,41.606709],[1.741946,41.606551],[1.741911,41.606529],[1.741827,41.606464],[1.741771,41.606324],[1.741771,41.606323],[1.741712,41.605949],[1.741712,41.605945],[1.741666,41.605697],[1.741803,41.605646],[1.741668,41.60539],[1.74175,41.605369],[1.741651,41.605144],[1.741646,41.605132],[1.741585,41.604989],[1.741537,41.604913],[1.741469,41.604755],[1.741406,41.604624],[1.741375,41.604518],[1.74137,41.604502],[1.741348,41.604429],[1.741345,41.604421],[1.741335,41.604422],[1.741307,41.604351],[1.741235,41.604384],[1.741195,41.604401],[1.741171,41.604369],[1.7412,41.604348],[1.741185,41.60428],[1.741182,41.604274],[1.741147,41.604203],[1.741143,41.604198],[1.741035,41.604057],[1.740913,41.603946],[1.740823,41.603879],[1.740793,41.603871],[1.740714,41.603849],[1.740614,41.603823],[1.740613,41.603823],[1.740453,41.603738],[1.740344,41.603679],[1.740208,41.60359],[1.740106,41.603488],[1.740154,41.603471],[1.739934,41.603415],[1.739577,41.603315],[1.739481,41.603288],[1.739552,41.603151],[1.739559,41.603137],[1.739595,41.603067],[1.739645,41.602971],[1.739892,41.602715],[1.739709,41.602622],[1.739427,41.602478],[1.739373,41.602469],[1.739165,41.602458],[1.739033,41.602451],[1.738877,41.602378],[1.738758,41.60231],[1.738512,41.602216],[1.738416,41.602178],[1.738381,41.602151],[1.738354,41.602119],[1.738311,41.602049],[1.7383,41.60203],[1.73827,41.601979],[1.738237,41.601916],[1.738227,41.601898],[1.738219,41.601885],[1.738198,41.601855],[1.73816,41.601808],[1.738171,41.601799],[1.738113,41.60175],[1.737771,41.601366],[1.7377,41.601515],[1.737669,41.60157],[1.737631,41.60166],[1.737541,41.601851],[1.737536,41.601866],[1.737533,41.60187],[1.737403,41.602026],[1.737397,41.602033],[1.737362,41.602075],[1.737369,41.602083],[1.737381,41.602091],[1.737394,41.602099],[1.737416,41.602118],[1.737433,41.602139],[1.737436,41.60215],[1.737434,41.602161],[1.73743,41.60217],[1.737423,41.602179],[1.737407,41.602191],[1.737378,41.602205],[1.737366,41.602213],[1.737359,41.602223],[1.737349,41.602259],[1.737338,41.602294],[1.737281,41.602412],[1.737117,41.602494],[1.737112,41.602496],[1.736933,41.602711],[1.736857,41.60279],[1.736805,41.602857],[1.736705,41.602964],[1.736696,41.602974],[1.73661,41.603042],[1.736549,41.603115],[1.736481,41.603196],[1.736463,41.603217],[1.736332,41.60333],[1.736298,41.60335],[1.736282,41.603379],[1.736229,41.60343],[1.736175,41.603506],[1.73616,41.603547],[1.736001,41.603696],[1.735918,41.603743],[1.735804,41.603818],[1.735738,41.603863],[1.735518,41.604011],[1.735325,41.604143]]]]}},{"type":"Feature","id":"080253_080253 SI01 ANO 2","properties":{"area_id":"080253_080253 SI01 ANO 2","nom":"Polígon industrial del Bruc","codi_icgc":"080253 SI01 ANO 2","categoria":"Sector industrial","codi_municipi":"080253","municipi":"el Bruc","codi_comarca":"06","comarca":"Anoia","provincia":"Barcelona","font":"ICGC Àrees de poblament v3r1 202602"},"geometry":{"type":"MultiPolygon","coordinates":[[[[1.778216,41.579955],[1.77831,41.579621],[1.778304,41.57962],[1.778245,41.57961],[1.778234,41.579608],[1.778014,41.579614],[1.777865,41.579633],[1.777795,41.579684],[1.777555,41.57969],[1.777571,41.57963],[1.777586,41.579576],[1.777982,41.578957],[1.778064,41.578816],[1.778088,41.578774],[1.77821,41.578564],[1.778223,41.578546],[1.778497,41.578191],[1.778524,41.578175],[1.778528,41.578173],[1.778777,41.578027],[1.778794,41.578017],[1.778918,41.577715],[1.779153,41.57714],[1.779308,41.576835],[1.779351,41.576751],[1.779379,41.576709],[1.7796,41.57639],[1.779734,41.576203],[1.779729,41.576192],[1.779662,41.576048],[1.779625,41.575969],[1.779702,41.575866],[1.77984,41.575705],[1.77998,41.575543],[1.780006,41.575481],[1.780062,41.575336],[1.780417,41.574893],[1.780554,41.574734],[1.780593,41.574686],[1.78066,41.574603],[1.780693,41.574555],[1.780736,41.574503],[1.7784,41.574162],[1.777771,41.574066],[1.777723,41.574205],[1.777673,41.574298],[1.777404,41.575117],[1.777385,41.575293],[1.77743,41.575408],[1.77747,41.575473],[1.777508,41.575533],[1.777713,41.575556],[1.777929,41.575564],[1.778041,41.575592],[1.778008,41.575662],[1.778,41.575679],[1.777999,41.575681],[1.77793,41.575791],[1.77789,41.575854],[1.777785,41.575988],[1.777739,41.576059],[1.777757,41.576123],[1.777825,41.576206],[1.777915,41.576265],[1.778021,41.576304],[1.778112,41.576316],[1.778257,41.576324],[1.778058,41.576386],[1.778197,41.576563],[1.778467,41.5767],[1.778022,41.576886],[1.777824,41.576993],[1.777801,41.577029],[1.7778,41.577064],[1.777811,41.57716],[1.777768,41.577266],[1.777759,41.577288],[1.777783,41.577284],[1.777817,41.577283],[1.777878,41.577286],[1.777911,41.577292],[1.777946,41.577301],[1.778043,41.577325],[1.778131,41.57735],[1.778236,41.577362],[1.77821,41.577461],[1.778071,41.577992],[1.778409,41.578028],[1.778446,41.578116],[1.778313,41.578285],[1.778165,41.578473],[1.778157,41.57848],[1.778134,41.5785],[1.778087,41.578512],[1.777989,41.578517],[1.777608,41.578536],[1.777303,41.578551],[1.777209,41.578585],[1.777187,41.578623],[1.776816,41.579362],[1.776793,41.579417],[1.776784,41.579504],[1.776729,41.579585],[1.776727,41.579588],[1.776694,41.579594],[1.776572,41.579587],[1.776541,41.579585],[1.776529,41.579584],[1.776524,41.579605],[1.776474,41.579815],[1.776348,41.579975],[1.776242,41.580182],[1.776271,41.580327],[1.776306,41.580507],[1.776267,41.580636],[1.776066,41.580981],[1.775927,41.581222],[1.775875,41.581278],[1.775807,41.581417],[1.775767,41.581714],[1.775846,41.581965],[1.775655,41.582276],[1.775624,41.582301],[1.775439,41.582453],[1.775413,41.582485],[1.775269,41.582583],[1.77513,41.58261],[1.774965,41.582632],[1.774469,41.582954],[1.774638,41.583062],[1.775192,41.583451],[1.775226,41.583438],[1.775265,41.583424],[1.775311,41.5834],[1.775598,41.583251],[1.77569,41.583202],[1.775884,41.58305],[1.775898,41.583038],[1.776186,41.582803],[1.776608,41.582402],[1.776869,41.582132],[1.776982,41.582015],[1.777372,41.581532],[1.777557,41.581259],[1.777708,41.581037],[1.777986,41.580487],[1.778216,41.579955]]]]}},{"type":"Feature","id":"080253_080253 AP08 ANO 2","properties":{"area_id":"080253_080253 AP08 ANO 2","nom":"Raval de l'Espinac","codi_icgc":"080253 AP08 ANO 2","categoria":"Àrees de poblament","codi_municipi":"080253","municipi":"el Bruc","codi_comarca":"06","comarca":"Anoia","provincia":"Barcelona","font":"ICGC Àrees de poblament v3r1 202602"},"geometry":{"type":"MultiPolygon","coordinates":[[[[1.734168,41.61865],[1.73455,41.618589],[1.734592,41.618759],[1.734836,41.618723],[1.734738,41.618352],[1.734713,41.618332],[1.734669,41.618263],[1.734658,41.618246],[1.734618,41.618251],[1.734566,41.618254],[1.734514,41.618251],[1.73447,41.618241],[1.73443,41.618223],[1.734392,41.618198],[1.734354,41.618173],[1.734327,41.618157],[1.734284,41.618136],[1.734242,41.618114],[1.734205,41.618088],[1.734134,41.618006],[1.734049,41.618034],[1.734048,41.618046],[1.734047,41.618084],[1.734041,41.61814],[1.734034,41.618168],[1.734023,41.618196],[1.734,41.618232],[1.733979,41.618258],[1.733941,41.618293],[1.733898,41.618324],[1.733837,41.618361],[1.733777,41.618397],[1.733683,41.618449],[1.733589,41.618503],[1.733572,41.618516],[1.733555,41.618541],[1.733552,41.618547],[1.733485,41.618566],[1.733399,41.618588],[1.733366,41.6186],[1.733351,41.618606],[1.733363,41.618617],[1.733398,41.61865],[1.733522,41.618722],[1.733594,41.618713],[1.733671,41.618703],[1.733704,41.618708],[1.733987,41.618619],[1.734009,41.618609],[1.734059,41.618579],[1.734105,41.618551],[1.734122,41.618538],[1.734179,41.61853],[1.73417,41.618605],[1.734169,41.618619],[1.734168,41.61865]]]]}},{"type":"Feature","id":"080253_080253 AP03 ANO 3","properties":{"area_id":"080253_080253 AP03 ANO 3","nom":"Sant Pau de la Guàrdia","codi_icgc":"080253 AP03 ANO 3","categoria":"Àrees de poblament","codi_municipi":"080253","municipi":"el Bruc","codi_comarca":"06","comarca":"Anoia","provincia":"Barcelona","font":"ICGC Àrees de poblament v3r1 202602"},"geometry":{"type":"MultiPolygon","coordinates":[[[[1.748285,41.612274],[1.748457,41.612165],[1.748649,41.61222],[1.748942,41.612281],[1.749205,41.612272],[1.749308,41.61214],[1.749124,41.612045],[1.748716,41.611965],[1.748486,41.611881],[1.748186,41.611779],[1.74774,41.611629],[1.747511,41.611499],[1.747012,41.61129],[1.746658,41.611205],[1.746519,41.611204],[1.746359,41.611452],[1.746261,41.611718],[1.746272,41.611956],[1.746283,41.612188],[1.746451,41.612295],[1.746676,41.612245],[1.746955,41.612254],[1.7474,41.612398],[1.747687,41.61236],[1.748043,41.612364],[1.748285,41.612274]]]]}},{"type":"Feature","id":"080253_080253 AP06 ANO 2","properties":{"area_id":"080253_080253 AP06 ANO 2","nom":"el  Masgrau","codi_icgc":"080253 AP06 ANO 2","categoria":"Àrees de poblament","codi_municipi":"080253","municipi":"el Bruc","codi_comarca":"06","comarca":"Anoia","provincia":"Barcelona","font":"ICGC Àrees de poblament v3r1 202602"},"geometry":{"type":"MultiPolygon","coordinates":[[[[1.783348,41.585],[1.783358,41.584976],[1.783413,41.584993],[1.783832,41.58491],[1.78383,41.584892],[1.783811,41.58482],[1.783689,41.584829],[1.783656,41.584665],[1.783648,41.584647],[1.783607,41.584558],[1.783539,41.584477],[1.783509,41.584442],[1.783363,41.584389],[1.783348,41.584384],[1.783321,41.584226],[1.783285,41.583988],[1.783276,41.583821],[1.783286,41.583718],[1.783287,41.5837],[1.783291,41.583666],[1.7833,41.583605],[1.783284,41.583603],[1.783276,41.583603],[1.783261,41.583582],[1.783235,41.583546],[1.783313,41.583432],[1.783294,41.583363],[1.783226,41.583124],[1.783111,41.582964],[1.783082,41.582945],[1.782991,41.582884],[1.782939,41.582879],[1.782853,41.582871],[1.782747,41.582792],[1.782698,41.582755],[1.782619,41.582734],[1.782496,41.582677],[1.782492,41.582676],[1.782491,41.582673],[1.782484,41.582651],[1.782449,41.582589],[1.782345,41.582405],[1.782272,41.582237],[1.782234,41.582168],[1.781905,41.581984],[1.781815,41.581933],[1.781778,41.581913],[1.781733,41.582023],[1.781523,41.582529],[1.781498,41.582574],[1.781471,41.582618],[1.781404,41.58269],[1.781398,41.582697],[1.781372,41.58273],[1.781369,41.582734],[1.781343,41.582775],[1.781314,41.582833],[1.781289,41.582891],[1.781275,41.582943],[1.78126,41.582999],[1.78124,41.583085],[1.781224,41.583152],[1.781187,41.583282],[1.781164,41.583363],[1.781145,41.583421],[1.781118,41.583484],[1.781087,41.58357],[1.781082,41.583583],[1.781072,41.583627],[1.780944,41.583595],[1.780777,41.583529],[1.780768,41.583525],[1.780716,41.583534],[1.780672,41.583574],[1.780642,41.583596],[1.780615,41.583623],[1.780506,41.583716],[1.780453,41.58377],[1.780427,41.583827],[1.780409,41.58382],[1.780407,41.583824],[1.780375,41.583894],[1.780349,41.583965],[1.780329,41.584031],[1.780356,41.584043],[1.780377,41.584052],[1.780466,41.584091],[1.78102,41.584213],[1.781084,41.584227],[1.781097,41.584229],[1.781085,41.584303],[1.781062,41.584447],[1.781028,41.584655],[1.781024,41.58468],[1.781017,41.584725],[1.781408,41.584835],[1.781481,41.584647],[1.78146,41.584552],[1.781617,41.58457],[1.781871,41.58465],[1.782125,41.58473],[1.782337,41.584797],[1.782547,41.584864],[1.782567,41.584871],[1.782682,41.58491],[1.782814,41.584957],[1.782959,41.585009],[1.783104,41.585061],[1.783142,41.585073],[1.783183,41.585083],[1.783204,41.585085],[1.783225,41.585084],[1.783233,41.585082],[1.783255,41.585077],[1.783295,41.58506],[1.78331,41.585052],[1.783323,41.585042],[1.783335,41.585027],[1.783348,41.585]]]]}},{"type":"Feature","id":"080253_080253 AP01 ANO 3","properties":{"area_id":"080253_080253 AP01 ANO 3","nom":"el Bruc","codi_icgc":"080253 AP01 ANO 3","categoria":"Àrees de poblament","codi_municipi":"080253","municipi":"el Bruc","codi_comarca":"06","comarca":"Anoia","provincia":"Barcelona","font":"ICGC Àrees de poblament v3r1 202602"},"geometry":{"type":"MultiPolygon","coordinates":[[[[1.779694,41.577189],[1.779615,41.577382],[1.779609,41.577397],[1.779552,41.577537],[1.779415,41.577859],[1.779357,41.578008],[1.779357,41.57801],[1.779393,41.57801],[1.779392,41.578014],[1.779378,41.578053],[1.779362,41.578104],[1.779351,41.578141],[1.779345,41.578159],[1.778565,41.580655],[1.778556,41.580709],[1.778553,41.580725],[1.778549,41.580752],[1.778544,41.580781],[1.778356,41.580718],[1.778342,41.580714],[1.778304,41.580701],[1.778153,41.581022],[1.77815,41.581027],[1.778067,41.581167],[1.777883,41.581455],[1.777719,41.581696],[1.777714,41.581703],[1.777689,41.581737],[1.777529,41.581951],[1.777446,41.582051],[1.777359,41.582156],[1.777378,41.582161],[1.777602,41.582217],[1.778943,41.582417],[1.778897,41.582482],[1.77881,41.582606],[1.778553,41.582887],[1.778531,41.58291],[1.778357,41.583061],[1.778248,41.583141],[1.778197,41.583173],[1.778113,41.583213],[1.777949,41.583292],[1.777856,41.583329],[1.777785,41.583347],[1.777701,41.583361],[1.777555,41.583398],[1.777402,41.583425],[1.777285,41.583439],[1.777206,41.583495],[1.777157,41.583525],[1.777103,41.583546],[1.777017,41.583573],[1.776838,41.583594],[1.776695,41.583628],[1.776474,41.583668],[1.776291,41.583709],[1.776181,41.58374],[1.776111,41.583783],[1.776037,41.583844],[1.775954,41.583895],[1.775868,41.583912],[1.775751,41.583948],[1.775648,41.584004],[1.775532,41.584077],[1.775456,41.584121],[1.775544,41.584175],[1.775698,41.584266],[1.775806,41.58432],[1.775975,41.584393],[1.776067,41.584437],[1.776247,41.584559],[1.776278,41.58458],[1.776621,41.584813],[1.777156,41.585161],[1.777326,41.584972],[1.77748,41.584815],[1.777633,41.584662],[1.777735,41.584544],[1.777808,41.584438],[1.777915,41.584242],[1.77796,41.58415],[1.777986,41.584043],[1.778013,41.583898],[1.778055,41.583758],[1.778123,41.583641],[1.778175,41.58357],[1.778245,41.58348],[1.778315,41.58339],[1.778337,41.583363],[1.778379,41.583309],[1.77867,41.583439],[1.778789,41.583338],[1.778886,41.583251],[1.778891,41.58325],[1.778895,41.583242],[1.778899,41.583233],[1.778944,41.583187],[1.778968,41.583165],[1.778995,41.583144],[1.779052,41.583107],[1.779072,41.583094],[1.779109,41.583069],[1.779117,41.583057],[1.779126,41.583043],[1.77941,41.582786],[1.779424,41.582773],[1.779382,41.582773],[1.779365,41.582773],[1.779409,41.582731],[1.779498,41.582665],[1.7795,41.582664],[1.779506,41.582661],[1.779545,41.582639],[1.779698,41.582555],[1.779703,41.58256],[1.77978,41.582638],[1.779923,41.582573],[1.780042,41.582515],[1.780044,41.582514],[1.780142,41.582552],[1.780225,41.582464],[1.780417,41.582182],[1.780445,41.582183],[1.780453,41.582185],[1.780476,41.58219],[1.78053,41.582208],[1.780534,41.58221],[1.780534,41.58221],[1.780549,41.582216],[1.780583,41.582229],[1.780617,41.582245],[1.780635,41.582254],[1.780654,41.58226],[1.780662,41.582263],[1.780686,41.582258],[1.780709,41.582248],[1.780726,41.582237],[1.780735,41.582231],[1.780767,41.582195],[1.780807,41.582156],[1.780801,41.582127],[1.780785,41.58209],[1.780769,41.582051],[1.780749,41.581992],[1.780728,41.581928],[1.780704,41.581817],[1.780693,41.58178],[1.78077,41.581752],[1.780733,41.581434],[1.780722,41.581405],[1.780681,41.581406],[1.780629,41.581409],[1.780534,41.581423],[1.780503,41.581361],[1.780478,41.581319],[1.780458,41.581299],[1.780428,41.581282],[1.780404,41.581271],[1.780515,41.581262],[1.780503,41.58109],[1.780534,41.581066],[1.780474,41.580996],[1.780508,41.580938],[1.780507,41.580913],[1.780577,41.580825],[1.780617,41.580781],[1.780661,41.580756],[1.780711,41.580724],[1.780728,41.580706],[1.78075,41.580672],[1.780772,41.580559],[1.780778,41.580504],[1.780749,41.580477],[1.780762,41.580349],[1.780788,41.580295],[1.780868,41.580141],[1.780907,41.58004],[1.780907,41.579985],[1.780886,41.579919],[1.780838,41.57987],[1.780807,41.579832],[1.780831,41.579638],[1.780855,41.579476],[1.780865,41.579423],[1.780863,41.579352],[1.780826,41.579252],[1.780807,41.579205],[1.780806,41.579105],[1.780812,41.579061],[1.780838,41.57894],[1.780914,41.578755],[1.780959,41.578641],[1.780983,41.578642],[1.781179,41.578688],[1.781328,41.578448],[1.781319,41.578219],[1.781434,41.578027],[1.781499,41.57794],[1.781612,41.577872],[1.781913,41.577896],[1.782064,41.577743],[1.782025,41.577609],[1.782052,41.577566],[1.782571,41.577774],[1.782569,41.577875],[1.78249,41.578021],[1.782407,41.578148],[1.782329,41.578242],[1.782242,41.57842],[1.782197,41.578505],[1.782162,41.578594],[1.782438,41.578649],[1.782392,41.578733],[1.782303,41.57881],[1.782239,41.578883],[1.782188,41.578936],[1.782104,41.578988],[1.781979,41.579062],[1.781915,41.579125],[1.78189,41.579235],[1.781807,41.579787],[1.78178,41.580025],[1.781694,41.580238],[1.781614,41.580247],[1.781569,41.580449],[1.781538,41.580575],[1.781553,41.580644],[1.781576,41.580752],[1.781575,41.580821],[1.78156,41.58094],[1.781543,41.581016],[1.781541,41.581099],[1.781572,41.581126],[1.781648,41.581146],[1.781733,41.581168],[1.781847,41.581162],[1.781895,41.581004],[1.781952,41.580778],[1.782351,41.580819],[1.782424,41.580512],[1.782436,41.580513],[1.782453,41.580365],[1.782466,41.580243],[1.782475,41.580158],[1.782495,41.58005],[1.782499,41.580027],[1.782526,41.580031],[1.782522,41.580017],[1.782522,41.580016],[1.782493,41.579868],[1.78262,41.57986],[1.782602,41.579725],[1.78259,41.579641],[1.782618,41.579583],[1.782597,41.579578],[1.782692,41.579398],[1.782712,41.579336],[1.782741,41.579246],[1.782759,41.57919],[1.782795,41.579077],[1.782795,41.579077],[1.782808,41.579038],[1.782889,41.578845],[1.783045,41.578546],[1.783099,41.578443],[1.783105,41.578443],[1.783141,41.578446],[1.783163,41.578407],[1.783204,41.578339],[1.783247,41.578272],[1.783266,41.578247],[1.783301,41.578213],[1.783342,41.578183],[1.78343,41.578133],[1.783519,41.578084],[1.783612,41.578027],[1.783702,41.577968],[1.783774,41.577921],[1.783795,41.577906],[1.783818,41.57789],[1.783833,41.577879],[1.783844,41.577871],[1.783852,41.577865],[1.783855,41.577864],[1.783862,41.577861],[1.783898,41.577862],[1.784008,41.577922],[1.783986,41.577943],[1.784044,41.577971],[1.784186,41.577909],[1.784201,41.577902],[1.784294,41.57782],[1.784337,41.577784],[1.784347,41.577767],[1.784356,41.577751],[1.784393,41.577703],[1.784415,41.577676],[1.784533,41.577565],[1.784453,41.577531],[1.784454,41.57753],[1.784443,41.577527],[1.784522,41.577437],[1.784481,41.577411],[1.784504,41.577393],[1.784481,41.577377],[1.784572,41.577305],[1.784693,41.577372],[1.784808,41.577442],[1.78487,41.577297],[1.784892,41.5772],[1.784941,41.577108],[1.785028,41.57708],[1.785063,41.577079],[1.785146,41.576952],[1.785157,41.576935],[1.785292,41.576763],[1.785229,41.576736],[1.785294,41.576647],[1.785297,41.576643],[1.785313,41.576623],[1.785264,41.576605],[1.785739,41.576348],[1.785969,41.576108],[1.786318,41.575798],[1.786529,41.575704],[1.78665,41.575696],[1.78677,41.575731],[1.787049,41.575873],[1.78718,41.575878],[1.7873,41.575879],[1.787509,41.575849],[1.787557,41.575834],[1.787625,41.575811],[1.787716,41.575722],[1.787743,41.575608],[1.787746,41.575493],[1.787715,41.575412],[1.787702,41.575391],[1.787587,41.575424],[1.787468,41.575432],[1.787311,41.575431],[1.787022,41.575407],[1.786829,41.575382],[1.786702,41.57538],[1.786662,41.575381],[1.786656,41.575391],[1.78645,41.575527],[1.786156,41.575658],[1.786069,41.575667],[1.785918,41.575799],[1.785891,41.575801],[1.785825,41.575806],[1.785757,41.575812],[1.785731,41.575815],[1.785703,41.575821],[1.785685,41.575831],[1.785673,41.575842],[1.785656,41.575864],[1.785597,41.575946],[1.785537,41.576027],[1.785485,41.576089],[1.78543,41.57615],[1.785391,41.576188],[1.785333,41.576236],[1.785269,41.57628],[1.785192,41.576328],[1.785112,41.576372],[1.785059,41.576396],[1.785006,41.576421],[1.784971,41.576443],[1.78494,41.576469],[1.784931,41.576481],[1.784926,41.576493],[1.784919,41.576514],[1.784913,41.576523],[1.784907,41.576527],[1.784905,41.576528],[1.7849,41.576525],[1.784893,41.576516],[1.784891,41.576511],[1.78489,41.576488],[1.784893,41.576462],[1.784896,41.576435],[1.784903,41.576411],[1.784912,41.576399],[1.784938,41.57638],[1.784967,41.57636],[1.784986,41.576346],[1.785005,41.576332],[1.785017,41.576323],[1.785018,41.576321],[1.785001,41.576308],[1.784994,41.57629],[1.784992,41.576292],[1.784935,41.576243],[1.784908,41.576216],[1.78481,41.576284],[1.784751,41.576342],[1.78462,41.576352],[1.784479,41.576364],[1.784313,41.576518],[1.784179,41.576654],[1.784235,41.57672],[1.78432,41.576792],[1.784078,41.577009],[1.783896,41.577167],[1.783817,41.577207],[1.783737,41.577196],[1.783709,41.577206],[1.783646,41.577244],[1.783551,41.577323],[1.783522,41.57734],[1.783517,41.577341],[1.783461,41.577352],[1.783302,41.577315],[1.783009,41.577231],[1.782899,41.577171],[1.782876,41.577182],[1.782871,41.577335],[1.782714,41.577535],[1.782675,41.577556],[1.782621,41.577592],[1.782585,41.577641],[1.782539,41.577704],[1.782379,41.577644],[1.782202,41.577577],[1.782152,41.577558],[1.782041,41.577511],[1.782025,41.577504],[1.78201,41.577498],[1.781997,41.57749],[1.781995,41.577484],[1.782003,41.577466],[1.782011,41.577449],[1.782034,41.577458],[1.782092,41.577376],[1.782141,41.577278],[1.781993,41.577216],[1.782001,41.577203],[1.78211,41.577093],[1.7823,41.576914],[1.782386,41.576838],[1.782477,41.576765],[1.782528,41.576729],[1.782582,41.576694],[1.782637,41.576658],[1.782698,41.576625],[1.782758,41.576591],[1.782799,41.576569],[1.78284,41.576546],[1.782892,41.576593],[1.782945,41.57662],[1.783146,41.576595],[1.783153,41.576595],[1.783348,41.576581],[1.783469,41.576563],[1.783603,41.576529],[1.78375,41.576454],[1.783933,41.576335],[1.784133,41.576177],[1.784278,41.576072],[1.784317,41.576047],[1.784424,41.575977],[1.784468,41.575938],[1.784825,41.57575],[1.784865,41.575699],[1.784797,41.575644],[1.784699,41.575545],[1.784367,41.575719],[1.784261,41.575601],[1.784261,41.575601],[1.784263,41.575583],[1.784257,41.575576],[1.784247,41.575566],[1.784207,41.575519],[1.784144,41.575455],[1.784074,41.575392],[1.784058,41.575381],[1.78404,41.575373],[1.784011,41.575368],[1.783968,41.575368],[1.783925,41.575373],[1.783853,41.575384],[1.783818,41.575391],[1.783784,41.575401],[1.783723,41.575423],[1.783662,41.575445],[1.783647,41.575454],[1.783629,41.575469],[1.783594,41.575499],[1.783578,41.575509],[1.783563,41.57552],[1.78356,41.575526],[1.783507,41.575569],[1.783417,41.57552],[1.783397,41.575509],[1.783342,41.575479],[1.783146,41.57565],[1.782962,41.57581],[1.782923,41.575844],[1.782946,41.575858],[1.783015,41.575906],[1.783009,41.575909],[1.782992,41.57592],[1.78297,41.575933],[1.782821,41.576022],[1.782685,41.576126],[1.782676,41.576119],[1.782553,41.576209],[1.782436,41.576295],[1.782381,41.576273],[1.782224,41.576208],[1.782013,41.576121],[1.781948,41.576094],[1.781939,41.576141],[1.781925,41.576211],[1.781857,41.576224],[1.781821,41.576191],[1.781785,41.576158],[1.781767,41.576144],[1.781731,41.576125],[1.781611,41.576076],[1.781539,41.57604],[1.781464,41.576004],[1.781438,41.575995],[1.781432,41.575993],[1.781415,41.57599],[1.781398,41.57599],[1.781369,41.575994],[1.781309,41.575973],[1.781305,41.575975],[1.781204,41.57602],[1.781104,41.576064],[1.781087,41.576071],[1.781068,41.576061],[1.781049,41.57605],[1.78104,41.576042],[1.781037,41.576033],[1.781036,41.576023],[1.781036,41.576003],[1.781043,41.575988],[1.781044,41.575986],[1.781022,41.575978],[1.780937,41.575951],[1.780678,41.575836],[1.780622,41.575917],[1.780547,41.575975],[1.780385,41.576099],[1.780396,41.576213],[1.780374,41.576254],[1.780262,41.57644],[1.780195,41.576424],[1.780038,41.576565],[1.780028,41.576591],[1.780028,41.576591],[1.780527,41.576753],[1.780449,41.576889],[1.78035,41.577096],[1.780248,41.577283],[1.779731,41.57713],[1.779694,41.577189]]]]}},{"type":"Feature","id":"080253_080253 AP05 ANO 3","properties":{"area_id":"080253_080253 AP05 ANO 3","nom":"el Bruc Residencial","codi_icgc":"080253 AP05 ANO 3","categoria":"Àrees de poblament","codi_municipi":"080253","municipi":"el Bruc","codi_comarca":"06","comarca":"Anoia","provincia":"Barcelona","font":"ICGC Àrees de poblament v3r1 202602"},"geometry":{"type":"MultiPolygon","coordinates":[[[[1.804065,41.56939],[1.804117,41.569323],[1.804132,41.569297],[1.804138,41.569287],[1.804067,41.56923],[1.804059,41.569223],[1.803513,41.568793],[1.803468,41.568758],[1.803422,41.568762],[1.803308,41.568792],[1.803009,41.568843],[1.80239,41.568895],[1.802101,41.568919],[1.801841,41.568934],[1.801838,41.568934],[1.801396,41.568943],[1.800389,41.569009],[1.799922,41.569045],[1.799078,41.569131],[1.799004,41.569175],[1.79855,41.569292],[1.79853,41.569257],[1.797914,41.569422],[1.797714,41.569518],[1.797696,41.569558],[1.79768,41.569604],[1.797666,41.569653],[1.797657,41.569706],[1.797663,41.569731],[1.797671,41.569753],[1.797739,41.5699],[1.797804,41.570046],[1.797829,41.570106],[1.79785,41.570166],[1.797858,41.570204],[1.797859,41.570216],[1.797858,41.570225],[1.797855,41.570233],[1.797849,41.57024],[1.797843,41.570244],[1.797832,41.570249],[1.797657,41.5703],[1.79748,41.570353],[1.797407,41.570375],[1.797331,41.570399],[1.797314,41.570409],[1.797304,41.570422],[1.797296,41.570442],[1.797293,41.570459],[1.797296,41.570477],[1.797306,41.570502],[1.797316,41.570526],[1.797442,41.57079],[1.797564,41.571055],[1.797579,41.5711],[1.79759,41.571147],[1.797592,41.571163],[1.797591,41.571179],[1.797573,41.571285],[1.79755,41.571392],[1.797499,41.5716],[1.797493,41.571623],[1.797415,41.571946],[1.797405,41.571983],[1.79736,41.57218],[1.797284,41.572517],[1.797209,41.572854],[1.797129,41.573216],[1.797044,41.573577],[1.797026,41.573649],[1.796974,41.573851],[1.796903,41.574126],[1.796832,41.574429],[1.796761,41.574733],[1.79673,41.574867],[1.796704,41.574976],[1.796758,41.575017],[1.797882,41.574752],[1.798496,41.574607],[1.798523,41.5746],[1.799184,41.574444],[1.799207,41.574438],[1.799776,41.574304],[1.79979,41.57429],[1.800305,41.573784],[1.800327,41.573762],[1.800967,41.573055],[1.801714,41.572228],[1.801744,41.572176],[1.801758,41.572141],[1.801792,41.57214],[1.801913,41.572085],[1.801999,41.572007],[1.802208,41.571736],[1.802433,41.571444],[1.802779,41.571011],[1.803127,41.57058],[1.803455,41.570171],[1.803552,41.570048],[1.803535,41.570039],[1.803584,41.570008],[1.803593,41.570002],[1.803746,41.569804],[1.803746,41.569804],[1.804007,41.569466],[1.804065,41.56939]]]]}},{"type":"Feature","id":"080253_080253 AP07 ANO 2","properties":{"area_id":"080253_080253 AP07 ANO 2","nom":"el Bruc de Dalt","codi_icgc":"080253 AP07 ANO 2","categoria":"Àrees de poblament","codi_municipi":"080253","municipi":"el Bruc","codi_comarca":"06","comarca":"Anoia","provincia":"Barcelona","font":"ICGC Àrees de poblament v3r1 202602"},"geometry":{"type":"MultiPolygon","coordinates":[[[[1.773397,41.589211],[1.773404,41.589256],[1.773424,41.589287],[1.773516,41.58929],[1.773579,41.589288],[1.773674,41.589246],[1.773849,41.589093],[1.77395,41.588995],[1.774015,41.588948],[1.774176,41.589034],[1.774275,41.589036],[1.774378,41.58895],[1.774495,41.58884],[1.774561,41.588792],[1.774666,41.588736],[1.774757,41.588689],[1.774889,41.588558],[1.775072,41.588342],[1.775217,41.588139],[1.775218,41.587984],[1.775189,41.58797],[1.775258,41.587855],[1.775321,41.587647],[1.775011,41.587559],[1.774988,41.587522],[1.774996,41.587413],[1.775011,41.587322],[1.775021,41.587224],[1.775039,41.587149],[1.775069,41.587108],[1.774938,41.587063],[1.774848,41.587095],[1.77476,41.587136],[1.774661,41.587185],[1.774605,41.587231],[1.774547,41.587295],[1.774465,41.587404],[1.774402,41.587479],[1.774346,41.587525],[1.774327,41.587548],[1.774293,41.587587],[1.774274,41.58763],[1.774241,41.587725],[1.774213,41.587836],[1.774152,41.587905],[1.774029,41.588025],[1.773854,41.588206],[1.773773,41.588293],[1.773779,41.588331],[1.773781,41.588362],[1.773738,41.58845],[1.773724,41.588524],[1.773726,41.588624],[1.773727,41.588733],[1.773647,41.588892],[1.773579,41.588977],[1.773488,41.589107],[1.773397,41.589211]]]]}},{"type":"Feature","id":"080253_080253 AP02 ANO 2","properties":{"area_id":"080253_080253 AP02 ANO 2","nom":"les Cases d'en Massacs","codi_icgc":"080253 AP02 ANO 2","categoria":"Àrees de poblament","codi_municipi":"080253","municipi":"el Bruc","codi_comarca":"06","comarca":"Anoia","provincia":"Barcelona","font":"ICGC Àrees de poblament v3r1 202602"},"geometry":{"type":"MultiPolygon","coordinates":[[[[1.784552,41.630076],[1.784569,41.63004],[1.78458,41.630022],[1.784603,41.629999],[1.784617,41.62999],[1.784634,41.629983],[1.784661,41.62998],[1.784702,41.629983],[1.784722,41.629983],[1.784742,41.629982],[1.784794,41.629973],[1.785247,41.630137],[1.785307,41.630063],[1.78539,41.629918],[1.785407,41.629835],[1.7854,41.629784],[1.785343,41.62965],[1.785182,41.629326],[1.785168,41.629246],[1.785129,41.629186],[1.785043,41.629158],[1.784983,41.629166],[1.784954,41.629223],[1.784944,41.629321],[1.784904,41.629359],[1.784836,41.629397],[1.784772,41.629405],[1.784498,41.629405],[1.784428,41.629309],[1.784327,41.629228],[1.784047,41.629333],[1.784023,41.629274],[1.783999,41.629216],[1.78399,41.629189],[1.783985,41.62916],[1.783981,41.629126],[1.783978,41.629101],[1.783968,41.628985],[1.783957,41.628869],[1.783949,41.628771],[1.783942,41.628674],[1.783909,41.628653],[1.783708,41.628565],[1.783565,41.628558],[1.783468,41.62851],[1.783442,41.628501],[1.783225,41.628453],[1.783129,41.628526],[1.783018,41.628489],[1.782849,41.628621],[1.782761,41.628732],[1.782732,41.628786],[1.782696,41.628853],[1.782682,41.628871],[1.782663,41.628887],[1.78262,41.628915],[1.782597,41.628938],[1.782584,41.62896],[1.782577,41.628983],[1.782575,41.628999],[1.782577,41.629055],[1.782582,41.629111],[1.78259,41.62919],[1.782597,41.629268],[1.782595,41.629344],[1.782587,41.62942],[1.782581,41.629474],[1.782575,41.629528],[1.782577,41.62954],[1.782582,41.629551],[1.782603,41.629571],[1.782621,41.629583],[1.782647,41.629595],[1.782737,41.629628],[1.782829,41.629658],[1.782934,41.629691],[1.782948,41.629696],[1.783039,41.629725],[1.78315,41.629762],[1.783261,41.629799],[1.783348,41.62983],[1.783434,41.629863],[1.783537,41.629907],[1.78364,41.629952],[1.783722,41.629985],[1.783806,41.630014],[1.783852,41.630028],[1.783899,41.630041],[1.783927,41.630053],[1.783964,41.630075],[1.784001,41.630096],[1.784035,41.630101],[1.784044,41.630091],[1.784055,41.630083],[1.784078,41.630073],[1.784104,41.630065],[1.784129,41.630085],[1.784155,41.630105],[1.784197,41.630134],[1.784239,41.630164],[1.784261,41.630182],[1.784286,41.630214],[1.784304,41.630248],[1.784313,41.630273],[1.784321,41.630312],[1.784331,41.630351],[1.784339,41.630376],[1.784359,41.630413],[1.784373,41.63043],[1.784392,41.630448],[1.784408,41.630458],[1.784436,41.630467],[1.784464,41.630469],[1.784485,41.630464],[1.784514,41.630451],[1.784525,41.630442],[1.784535,41.630431],[1.784548,41.630397],[1.784556,41.630347],[1.784558,41.630297],[1.784551,41.630216],[1.784543,41.630136],[1.784543,41.630112],[1.784552,41.630076]]]]}}]}