{"type":"FeatureCollection","name":"ICGC Àrees de poblament - Berga","features":[{"type":"Feature","id":"080229_080229 AP01 BER 3","properties":{"area_id":"080229_080229 AP01 BER 3","nom":"Berga","codi_icgc":"080229 AP01 BER 3","categoria":"Àrees de poblament","codi_municipi":"080229","municipi":"Berga","codi_comarca":"14","comarca":"Berguedà","provincia":"Barcelona","font":"ICGC Àrees de poblament v3r1 202602"},"geometry":{"type":"MultiPolygon","coordinates":[[[[1.837207,42.095817],[1.837187,42.096055],[1.837229,42.096053],[1.837439,42.096075],[1.837449,42.096075],[1.837656,42.096129],[1.837768,42.096197],[1.837752,42.096222],[1.837714,42.096244],[1.837818,42.096334],[1.837823,42.096338],[1.837851,42.096315],[1.837872,42.096297],[1.837877,42.096293],[1.837946,42.096362],[1.838061,42.096492],[1.838077,42.096515],[1.838121,42.096597],[1.838133,42.096594],[1.838141,42.096599],[1.838144,42.096601],[1.838216,42.096656],[1.838226,42.096661],[1.838247,42.096676],[1.838272,42.096737],[1.838544,42.096963],[1.838309,42.097149],[1.838299,42.097155],[1.838284,42.097169],[1.838274,42.097178],[1.838168,42.097261],[1.838143,42.09724],[1.838138,42.097244],[1.83804,42.097311],[1.838089,42.097363],[1.838085,42.097368],[1.83809,42.097374],[1.838076,42.097414],[1.838244,42.097574],[1.838266,42.097596],[1.838411,42.097745],[1.838437,42.097772],[1.838638,42.097912],[1.838735,42.098021],[1.838764,42.098072],[1.8388,42.098138],[1.838854,42.098186],[1.838951,42.098243],[1.839001,42.098265],[1.839108,42.098302],[1.839329,42.098377],[1.839411,42.09843],[1.839557,42.098522],[1.83979,42.098731],[1.839805,42.098756],[1.839858,42.098834],[1.839926,42.098905],[1.839871,42.098977],[1.8397,42.099098],[1.839266,42.099357],[1.839413,42.099497],[1.838647,42.099923],[1.838541,42.099972],[1.838419,42.100014],[1.8383,42.100032],[1.837468,42.100272],[1.83679,42.100448],[1.83677,42.100453],[1.836736,42.100462],[1.836596,42.1005],[1.83649,42.100528],[1.836182,42.10061],[1.836083,42.100636],[1.836052,42.100644],[1.83599,42.10066],[1.835938,42.100674],[1.835644,42.100752],[1.835601,42.100764],[1.835499,42.100795],[1.8354,42.100832],[1.835305,42.100875],[1.835214,42.100922],[1.835128,42.100973],[1.835047,42.101029],[1.834972,42.101089],[1.834902,42.101153],[1.834838,42.10122],[1.834781,42.10129],[1.834731,42.101364],[1.834687,42.101439],[1.834651,42.101517],[1.834623,42.101597],[1.834621,42.101603],[1.8346,42.101683],[1.834587,42.101765],[1.834583,42.101819],[1.834778,42.102005],[1.835103,42.102087],[1.83537,42.102183],[1.835678,42.101876],[1.835667,42.101714],[1.835555,42.101555],[1.836022,42.101217],[1.836302,42.101113],[1.837257,42.100714],[1.837292,42.100761],[1.837394,42.10087],[1.837559,42.100996],[1.837686,42.101063],[1.837849,42.101116],[1.838084,42.101169],[1.838257,42.10122],[1.838277,42.101254],[1.838371,42.101341],[1.838011,42.101637],[1.837772,42.102071],[1.837638,42.102077],[1.837428,42.102018],[1.837299,42.10198],[1.837294,42.101988],[1.837155,42.102208],[1.836548,42.102874],[1.836219,42.102999],[1.836088,42.103188],[1.836094,42.103191],[1.836142,42.103218],[1.83619,42.103245],[1.836234,42.10327],[1.836275,42.103298],[1.836323,42.103337],[1.836365,42.103381],[1.836403,42.103423],[1.836436,42.103468],[1.836473,42.10353],[1.836488,42.103562],[1.836499,42.103594],[1.836508,42.103627],[1.836514,42.103652],[1.836527,42.10371],[1.836537,42.103767],[1.836542,42.103794],[1.836567,42.103874],[1.836581,42.1039],[1.836625,42.103928],[1.83667,42.103941],[1.836729,42.103949],[1.836652,42.103959],[1.8366,42.103977],[1.836537,42.104004],[1.836507,42.10402],[1.83647,42.10406],[1.836456,42.104098],[1.836426,42.104088],[1.836363,42.104052],[1.83632,42.104001],[1.836301,42.103941],[1.836275,42.103821],[1.836246,42.103675],[1.836203,42.103588],[1.836076,42.103548],[1.835878,42.103466],[1.835681,42.103506],[1.835548,42.103796],[1.835539,42.103835],[1.835619,42.103854],[1.835694,42.10389],[1.8358,42.10398],[1.835898,42.104095],[1.835988,42.104227],[1.836046,42.104326],[1.83606,42.104427],[1.836059,42.104486],[1.836038,42.104564],[1.836016,42.104629],[1.836038,42.104702],[1.836076,42.10478],[1.836087,42.10479],[1.836131,42.10482],[1.836179,42.104846],[1.836232,42.104867],[1.836287,42.104882],[1.836314,42.104887],[1.836371,42.104899],[1.83643,42.104906],[1.83649,42.104907],[1.836547,42.104903],[1.836631,42.105156],[1.836681,42.105148],[1.836745,42.105139],[1.837014,42.105097],[1.837029,42.105069],[1.837073,42.105004],[1.837105,42.104973],[1.837129,42.104954],[1.837143,42.104944],[1.837166,42.104931],[1.83721,42.104911],[1.837253,42.104896],[1.837284,42.104888],[1.837357,42.104872],[1.837462,42.104852],[1.837687,42.104818],[1.837861,42.104792],[1.837947,42.104791],[1.838044,42.104788],[1.838165,42.1048],[1.838215,42.104816],[1.838266,42.104842],[1.838332,42.104896],[1.838397,42.10498],[1.838449,42.105057],[1.838471,42.105078],[1.83838,42.105155],[1.838297,42.105171],[1.838253,42.105173],[1.838236,42.105165],[1.838213,42.105149],[1.838182,42.105145],[1.838165,42.105152],[1.838157,42.10517],[1.838149,42.105198],[1.838156,42.105222],[1.838182,42.105248],[1.838222,42.10526],[1.83824,42.105259],[1.838258,42.10525],[1.83842,42.105404],[1.838469,42.105356],[1.838502,42.105383],[1.838544,42.105412],[1.838575,42.10543],[1.838603,42.105434],[1.838636,42.105416],[1.838648,42.105403],[1.838654,42.105382],[1.838637,42.105353],[1.83859,42.10532],[1.838537,42.105288],[1.838564,42.105262],[1.838621,42.10523],[1.838733,42.105267],[1.838939,42.105329],[1.839204,42.105396],[1.839629,42.10549],[1.839839,42.105513],[1.83996,42.105514],[1.840048,42.105507],[1.840133,42.105489],[1.840236,42.105451],[1.840558,42.105337],[1.84068,42.105308],[1.840765,42.105296],[1.840847,42.105291],[1.840889,42.105293],[1.840947,42.105302],[1.840987,42.105313],[1.841041,42.105334],[1.841092,42.105359],[1.841145,42.105392],[1.841217,42.105443],[1.841252,42.105468],[1.841289,42.10549],[1.84133,42.105511],[1.841396,42.105538],[1.841467,42.105561],[1.841552,42.105581],[1.841594,42.105588],[1.841637,42.105591],[1.841778,42.105592],[1.84192,42.105592],[1.842018,42.105591],[1.842116,42.105589],[1.842216,42.105592],[1.842314,42.105594],[1.842353,42.105593],[1.842393,42.105592],[1.842425,42.105591],[1.842456,42.10559],[1.842489,42.105586],[1.842521,42.105576],[1.842562,42.105559],[1.842602,42.105539],[1.84266,42.105505],[1.84272,42.10547],[1.842761,42.10545],[1.842805,42.105433],[1.842846,42.10542],[1.84289,42.105411],[1.842946,42.105408],[1.843001,42.105409],[1.843045,42.105412],[1.843089,42.105419],[1.843119,42.105428],[1.843157,42.105445],[1.84319,42.105466],[1.84352,42.10544],[1.843566,42.105439],[1.843684,42.105444],[1.843695,42.105498],[1.843714,42.10555],[1.843719,42.105562],[1.843734,42.105601],[1.843743,42.105621],[1.843763,42.105671],[1.843786,42.105722],[1.843797,42.105749],[1.843811,42.105775],[1.843845,42.105825],[1.843871,42.105858],[1.843929,42.105918],[1.843989,42.105975],[1.844023,42.106005],[1.844059,42.106034],[1.844088,42.106052],[1.844132,42.10607],[1.844178,42.106086],[1.844266,42.106116],[1.844301,42.10613],[1.844336,42.106145],[1.844407,42.106175],[1.844455,42.106195],[1.844503,42.106211],[1.844555,42.106224],[1.844576,42.106226],[1.844597,42.106224],[1.844625,42.106218],[1.844872,42.106121],[1.845053,42.106053],[1.845174,42.105993],[1.845284,42.10595],[1.845282,42.105947],[1.845257,42.105913],[1.845221,42.105863],[1.845191,42.105822],[1.845499,42.105682],[1.845432,42.105578],[1.845475,42.105339],[1.845499,42.105341],[1.845499,42.105338],[1.845502,42.105313],[1.845508,42.105315],[1.845517,42.105317],[1.845569,42.105325],[1.845578,42.105327],[1.845611,42.105332],[1.845621,42.105332],[1.845618,42.105365],[1.845705,42.105376],[1.845708,42.10536],[1.845929,42.105354],[1.845934,42.105277],[1.845945,42.105273],[1.845965,42.105272],[1.84609,42.105216],[1.846112,42.105207],[1.846151,42.105213],[1.846212,42.105075],[1.846266,42.105074],[1.846318,42.105074],[1.846366,42.105076],[1.846413,42.105079],[1.846457,42.105084],[1.846498,42.10509],[1.846536,42.105097],[1.846572,42.105106],[1.846606,42.105117],[1.846641,42.10513],[1.846626,42.105162],[1.846717,42.105193],[1.846673,42.105257],[1.846788,42.105299],[1.846732,42.105373],[1.846764,42.105386],[1.846761,42.105388],[1.846731,42.105423],[1.846678,42.105482],[1.846709,42.105506],[1.846716,42.105511],[1.846779,42.10556],[1.84695,42.105462],[1.84703,42.105527],[1.847053,42.105517],[1.847098,42.105555],[1.847086,42.105568],[1.847114,42.105588],[1.847163,42.105622],[1.847297,42.105716],[1.847328,42.105738],[1.847586,42.10581],[1.847646,42.105709],[1.847648,42.105705],[1.84765,42.105702],[1.847709,42.105723],[1.847748,42.105736],[1.847786,42.10575],[1.847856,42.105777],[1.847877,42.105785],[1.847922,42.105802],[1.847981,42.105827],[1.848016,42.105842],[1.848036,42.105851],[1.848106,42.105886],[1.848117,42.105892],[1.848128,42.105898],[1.848139,42.105904],[1.848148,42.105912],[1.848156,42.105921],[1.848166,42.105928],[1.848174,42.105936],[1.848181,42.105945],[1.848188,42.105954],[1.848194,42.105963],[1.848203,42.105977],[1.848212,42.105995],[1.84822,42.106011],[1.848226,42.106028],[1.848231,42.106043],[1.848235,42.106058],[1.848237,42.106072],[1.848238,42.106084],[1.848267,42.106091],[1.848274,42.106092],[1.848284,42.106092],[1.84839,42.10611],[1.848397,42.106023],[1.848451,42.106027],[1.848495,42.105993],[1.848678,42.10605],[1.849069,42.10617],[1.849131,42.106189],[1.849164,42.106191],[1.849188,42.106201],[1.849198,42.106206],[1.849262,42.106212],[1.849397,42.106278],[1.849433,42.106296],[1.849436,42.106336],[1.849424,42.106439],[1.849457,42.106439],[1.849466,42.106439],[1.849502,42.106439],[1.849512,42.106439],[1.84973,42.106438],[1.850018,42.106489],[1.850219,42.106484],[1.850231,42.106391],[1.850292,42.106192],[1.850391,42.10607],[1.850394,42.106067],[1.850514,42.106126],[1.850567,42.106151],[1.850681,42.106259],[1.850844,42.106452],[1.850977,42.106599],[1.851052,42.106588],[1.851062,42.106588],[1.851083,42.106579],[1.851158,42.106547],[1.851194,42.106531],[1.851382,42.10696],[1.851465,42.107126],[1.851513,42.107163],[1.851512,42.107174],[1.851508,42.107408],[1.851501,42.107436],[1.851578,42.107429],[1.851689,42.107426],[1.851849,42.107445],[1.851923,42.107476],[1.851986,42.107515],[1.852017,42.107548],[1.852052,42.107594],[1.852079,42.107651],[1.852111,42.107714],[1.85216,42.107692],[1.852179,42.10765],[1.852177,42.107578],[1.852224,42.107534],[1.852261,42.107499],[1.852238,42.107453],[1.852173,42.107393],[1.852056,42.107344],[1.852083,42.107291],[1.851948,42.107255],[1.851792,42.107228],[1.851794,42.107197],[1.851939,42.107155],[1.851968,42.107099],[1.852075,42.107107],[1.852113,42.107036],[1.852114,42.107033],[1.852279,42.107074],[1.8523,42.107079],[1.852326,42.107086],[1.852435,42.107135],[1.852493,42.107271],[1.852689,42.107549],[1.8527,42.107554],[1.852712,42.10756],[1.852723,42.107567],[1.852735,42.107574],[1.852747,42.107581],[1.852759,42.107589],[1.852766,42.107592],[1.852772,42.107595],[1.85278,42.107597],[1.852788,42.107599],[1.852797,42.107601],[1.852807,42.107603],[1.852817,42.107605],[1.852829,42.107607],[1.852841,42.107608],[1.852853,42.10761],[1.852866,42.107616],[1.852904,42.107633],[1.85297,42.107676],[1.852986,42.107686],[1.853025,42.107711],[1.853078,42.107739],[1.853119,42.107741],[1.853153,42.107783],[1.853198,42.107884],[1.853231,42.107919],[1.853266,42.107952],[1.853303,42.107984],[1.853343,42.108013],[1.853386,42.108041],[1.85343,42.108067],[1.853477,42.10809],[1.853526,42.108113],[1.853578,42.108133],[1.853632,42.108151],[1.853676,42.108162],[1.853685,42.108164],[1.853838,42.10787],[1.853852,42.107843],[1.853672,42.107669],[1.85356,42.107564],[1.853496,42.107456],[1.853415,42.10718],[1.853401,42.107126],[1.853385,42.107065],[1.853363,42.106988],[1.853325,42.106857],[1.853284,42.106726],[1.853264,42.106676],[1.853241,42.106627],[1.853188,42.106533],[1.85316,42.106488],[1.853077,42.106371],[1.852923,42.106221],[1.852846,42.106146],[1.852714,42.106087],[1.852631,42.10605],[1.852368,42.106011],[1.852339,42.106009],[1.852291,42.106009],[1.852213,42.106014],[1.852136,42.106018],[1.851954,42.106026],[1.85182,42.106032],[1.8516,42.10603],[1.851575,42.106037],[1.851528,42.106029],[1.851452,42.106014],[1.851357,42.105997],[1.851243,42.10591],[1.851139,42.105739],[1.851189,42.105704],[1.85103,42.105456],[1.851177,42.105409],[1.851158,42.105367],[1.851366,42.105252],[1.85137,42.105225],[1.851644,42.105245],[1.85172,42.105227],[1.852841,42.105353],[1.853367,42.10541],[1.854363,42.105519],[1.854324,42.10604],[1.854614,42.106078],[1.854857,42.104783],[1.854978,42.104797],[1.855145,42.104815],[1.855181,42.10482],[1.855227,42.104826],[1.855233,42.104827],[1.855254,42.10483],[1.855496,42.104857],[1.855517,42.104851],[1.855534,42.104849],[1.855556,42.104848],[1.855576,42.104849],[1.855597,42.104852],[1.855699,42.104865],[1.855859,42.104884],[1.855976,42.104898],[1.856094,42.104912],[1.856167,42.104916],[1.856242,42.104912],[1.856313,42.104901],[1.85638,42.104884],[1.856465,42.104858],[1.856507,42.104842],[1.856548,42.104823],[1.85667,42.104749],[1.856786,42.104673],[1.85687,42.104617],[1.856993,42.10453],[1.857115,42.104442],[1.857141,42.104422],[1.857155,42.104408],[1.857162,42.104397],[1.857245,42.104286],[1.857256,42.104277],[1.85728,42.104264],[1.857308,42.104255],[1.857337,42.104252],[1.857366,42.104255],[1.857485,42.104281],[1.857542,42.104329],[1.857562,42.104347],[1.857588,42.104363],[1.857652,42.104387],[1.857682,42.104397],[1.857715,42.104409],[1.857769,42.104428],[1.85779,42.104436],[1.857808,42.104458],[1.857754,42.104487],[1.857655,42.104541],[1.857506,42.104764],[1.857505,42.104809],[1.857517,42.104833],[1.857527,42.104844],[1.85754,42.104853],[1.857587,42.104873],[1.857621,42.104886],[1.857773,42.104919],[1.857883,42.10496],[1.858402,42.105072],[1.858597,42.104595],[1.858678,42.104627],[1.85882,42.104705],[1.858893,42.10474],[1.858903,42.104745],[1.858956,42.104769],[1.859072,42.104821],[1.859127,42.104844],[1.85915,42.104858],[1.859175,42.104885],[1.859195,42.104914],[1.859206,42.104944],[1.859212,42.104989],[1.859218,42.105009],[1.85923,42.105026],[1.859269,42.105056],[1.859375,42.105104],[1.859496,42.105141],[1.859504,42.105143],[1.859601,42.104957],[1.859615,42.104889],[1.859525,42.104864],[1.859388,42.104791],[1.859098,42.104637],[1.859112,42.104591],[1.859097,42.104381],[1.859213,42.104455],[1.859247,42.10446],[1.85927,42.104463],[1.859278,42.104462],[1.859281,42.104458],[1.859322,42.104406],[1.859349,42.104371],[1.859371,42.104328],[1.859374,42.104324],[1.859376,42.104319],[1.859422,42.10423],[1.859431,42.104204],[1.859433,42.104198],[1.859528,42.103917],[1.859497,42.103828],[1.85948,42.103777],[1.859401,42.103723],[1.859395,42.103664],[1.859382,42.10361],[1.859363,42.103561],[1.859359,42.103553],[1.859347,42.103534],[1.85934,42.103523],[1.859329,42.103504],[1.859318,42.103485],[1.859293,42.103445],[1.859245,42.103388],[1.859225,42.103383],[1.85913,42.103361],[1.859128,42.103361],[1.859029,42.10334],[1.858988,42.103336],[1.858987,42.103332],[1.85892,42.103243],[1.858856,42.103195],[1.85881,42.103171],[1.858805,42.103169],[1.858693,42.103121],[1.858577,42.103079],[1.858458,42.103041],[1.858396,42.10303],[1.858463,42.102906],[1.858542,42.102792],[1.858569,42.102742],[1.858567,42.102729],[1.858562,42.102702],[1.858627,42.102636],[1.858863,42.102844],[1.858923,42.102881],[1.858929,42.102884],[1.85895,42.102895],[1.858998,42.10292],[1.859005,42.102923],[1.859137,42.102987],[1.859144,42.10299],[1.859277,42.103057],[1.859283,42.10306],[1.859379,42.103112],[1.859386,42.103115],[1.85941,42.103128],[1.859445,42.103147],[1.859445,42.103147],[1.859456,42.103152],[1.859575,42.103218],[1.859586,42.103222],[1.859604,42.103231],[1.859613,42.103236],[1.859653,42.103258],[1.859691,42.103279],[1.859846,42.103362],[1.859923,42.103404],[1.859975,42.103434],[1.860024,42.103425],[1.86005,42.103411],[1.860045,42.103318],[1.860071,42.103202],[1.860078,42.103077],[1.860081,42.103008],[1.860256,42.102837],[1.860266,42.102837],[1.860384,42.102837],[1.860393,42.102837],[1.860397,42.102708],[1.860381,42.102652],[1.860242,42.102571],[1.860145,42.102513],[1.860084,42.102483],[1.859949,42.102358],[1.859825,42.10223],[1.859761,42.102171],[1.859755,42.102174],[1.859751,42.10217],[1.859568,42.102295],[1.859479,42.102372],[1.859485,42.102396],[1.859459,42.102397],[1.859434,42.102401],[1.859414,42.102408],[1.859398,42.102418],[1.859386,42.10243],[1.859379,42.102445],[1.859375,42.102463],[1.859377,42.102483],[1.85938,42.102499],[1.859382,42.102506],[1.859373,42.102507],[1.859315,42.102518],[1.85925,42.10253],[1.859217,42.102466],[1.859203,42.102438],[1.859177,42.102393],[1.859137,42.102324],[1.85913,42.102313],[1.85908,42.102236],[1.859066,42.102213],[1.859025,42.102157],[1.858983,42.102101],[1.858974,42.102088],[1.858781,42.101868],[1.858772,42.101859],[1.85875,42.101842],[1.858745,42.101838],[1.858684,42.101787],[1.858679,42.101783],[1.858671,42.101777],[1.858674,42.101767],[1.858626,42.101725],[1.858561,42.101674],[1.858511,42.101636],[1.858386,42.101546],[1.858299,42.101493],[1.858194,42.101431],[1.858083,42.101375],[1.858013,42.101347],[1.857983,42.101338],[1.857918,42.101326],[1.857909,42.101324],[1.857865,42.101319],[1.857849,42.101316],[1.85784,42.101316],[1.857827,42.101315],[1.857815,42.101315],[1.857813,42.101315],[1.857809,42.101315],[1.857806,42.101315],[1.857789,42.101316],[1.857774,42.101319],[1.857718,42.101327],[1.85771,42.101328],[1.857674,42.101337],[1.857651,42.101343],[1.857634,42.101349],[1.857595,42.101363],[1.85756,42.101379],[1.857528,42.101396],[1.857498,42.101416],[1.857475,42.101434],[1.857472,42.101437],[1.857373,42.10157],[1.857364,42.101569],[1.857277,42.101556],[1.857268,42.101555],[1.857017,42.10152],[1.856874,42.10187],[1.857161,42.101924],[1.85717,42.101926],[1.857165,42.102014],[1.857168,42.102064],[1.857113,42.102076],[1.857024,42.102171],[1.856902,42.10228],[1.856814,42.102344],[1.856516,42.102287],[1.856366,42.102257],[1.856142,42.102209],[1.855918,42.10216],[1.855462,42.10204],[1.85546,42.10194],[1.85545,42.10194],[1.855359,42.101941],[1.855361,42.102021],[1.855351,42.102019],[1.85506,42.101954],[1.85507,42.101924],[1.855003,42.101911],[1.855002,42.101913],[1.854992,42.10194],[1.854983,42.101938],[1.854973,42.101936],[1.854939,42.101925],[1.854909,42.101909],[1.854884,42.101888],[1.854866,42.101864],[1.854855,42.101838],[1.854844,42.101818],[1.854955,42.101441],[1.854487,42.101402],[1.854476,42.101401],[1.854265,42.101388],[1.853699,42.101354],[1.853041,42.101315],[1.852749,42.1013],[1.85262,42.101293],[1.85262,42.101293],[1.852583,42.101388],[1.852527,42.101556],[1.852519,42.10158],[1.852477,42.101704],[1.852041,42.101726],[1.851978,42.101587],[1.851936,42.101515],[1.851897,42.101448],[1.851831,42.101335],[1.851751,42.101072],[1.851707,42.101039],[1.85169,42.101026],[1.851689,42.101],[1.851688,42.100979],[1.851676,42.101007],[1.851484,42.100848],[1.85124,42.100831],[1.851248,42.100761],[1.851257,42.100667],[1.851267,42.10056],[1.851277,42.100454],[1.851283,42.100376],[1.851288,42.100298],[1.851292,42.100247],[1.851298,42.100197],[1.851304,42.10017],[1.851314,42.100143],[1.851328,42.10011],[1.851347,42.100079],[1.851408,42.100009],[1.851471,42.099936],[1.851592,42.099794],[1.851714,42.099653],[1.851751,42.099611],[1.851788,42.09957],[1.851825,42.099541],[1.851925,42.099482],[1.85203,42.099431],[1.852143,42.099381],[1.852241,42.099338],[1.852338,42.099293],[1.852375,42.09928],[1.852378,42.099224],[1.852477,42.099152],[1.852487,42.09913],[1.85248,42.099121],[1.852483,42.099092],[1.852487,42.099054],[1.852487,42.099024],[1.852476,42.098979],[1.852455,42.098935],[1.852441,42.098914],[1.852414,42.098887],[1.85238,42.098862],[1.852306,42.098827],[1.852291,42.09882],[1.852232,42.098803],[1.852177,42.098792],[1.852094,42.098781],[1.852011,42.098776],[1.852003,42.098776],[1.851876,42.098776],[1.851809,42.098779],[1.851746,42.098785],[1.851734,42.098817],[1.851666,42.098824],[1.851555,42.098863],[1.851445,42.098924],[1.851435,42.098929],[1.851428,42.09891],[1.8512,42.098723],[1.85085,42.098929],[1.850978,42.099045],[1.851027,42.099083],[1.851029,42.09909],[1.850921,42.099148],[1.850929,42.099199],[1.850722,42.099261],[1.850527,42.099309],[1.850472,42.099373],[1.85043,42.09945],[1.850386,42.099583],[1.85035,42.09967],[1.850339,42.099684],[1.850301,42.099733],[1.850275,42.099792],[1.850263,42.09987],[1.850237,42.099948],[1.850203,42.100017],[1.850165,42.100066],[1.850099,42.100096],[1.849902,42.100157],[1.849753,42.100216],[1.84961,42.10025],[1.849528,42.100292],[1.849501,42.100334],[1.849463,42.100453],[1.849453,42.100504],[1.849422,42.100596],[1.849348,42.10072],[1.849263,42.100786],[1.849267,42.100788],[1.84921,42.100834],[1.849097,42.100909],[1.849015,42.100993],[1.848988,42.101031],[1.848939,42.101082],[1.84881,42.101209],[1.848701,42.101246],[1.84862,42.101258],[1.848643,42.101216],[1.848628,42.101175],[1.848533,42.1011],[1.848338,42.100946],[1.848274,42.100907],[1.848113,42.100999],[1.848018,42.101027],[1.847973,42.10098],[1.84791,42.10091],[1.847891,42.100886],[1.847869,42.100859],[1.847845,42.100826],[1.847813,42.100781],[1.847791,42.100738],[1.847649,42.100483],[1.847596,42.100388],[1.847614,42.100269],[1.84762,42.100231],[1.847624,42.10006],[1.84763,42.099948],[1.847646,42.099851],[1.847657,42.099785],[1.847669,42.099749],[1.848209,42.10012],[1.848543,42.099893],[1.848142,42.09955],[1.848145,42.099503],[1.848147,42.099478],[1.848156,42.099359],[1.848335,42.099345],[1.848695,42.099315],[1.848837,42.099258],[1.848887,42.099238],[1.848926,42.099231],[1.849321,42.099197],[1.849344,42.099194],[1.849345,42.099202],[1.849429,42.099164],[1.849416,42.099146],[1.849558,42.099135],[1.849551,42.099099],[1.849774,42.09908],[1.849724,42.098739],[1.849704,42.098722],[1.849679,42.098541],[1.849625,42.098543],[1.849567,42.098254],[1.849546,42.098143],[1.849532,42.098003],[1.849532,42.097831],[1.849552,42.097774],[1.850229,42.097711],[1.850393,42.097698],[1.850584,42.098693],[1.8508,42.098617],[1.850839,42.09861],[1.851326,42.098353],[1.851471,42.09825],[1.85148,42.098244],[1.851413,42.097769],[1.851757,42.097739],[1.851738,42.097577],[1.851963,42.097554],[1.852019,42.097527],[1.852043,42.09751],[1.851922,42.097341],[1.851761,42.0972],[1.851274,42.096802],[1.850875,42.096491],[1.851576,42.095995],[1.851894,42.096245],[1.852158,42.096074],[1.851784,42.095779],[1.851724,42.095732],[1.851235,42.096057],[1.850797,42.095678],[1.850484,42.095887],[1.850256,42.095703],[1.849711,42.096119],[1.849577,42.096118],[1.848885,42.095939],[1.848877,42.095936],[1.848511,42.095816],[1.848382,42.09601],[1.848281,42.095978],[1.848179,42.095965],[1.847988,42.095967],[1.847814,42.095996],[1.847731,42.096031],[1.847626,42.096128],[1.847518,42.09627],[1.847489,42.096334],[1.847466,42.096396],[1.847455,42.096436],[1.847382,42.096641],[1.847128,42.097212],[1.847083,42.09731],[1.846796,42.097267],[1.846341,42.097218],[1.846051,42.097199],[1.846061,42.097137],[1.846063,42.097117],[1.846063,42.09709],[1.846047,42.097062],[1.846025,42.097042],[1.845943,42.096981],[1.84586,42.096922],[1.8456,42.096754],[1.845341,42.096587],[1.845141,42.096457],[1.845183,42.096431],[1.845238,42.096365],[1.845248,42.096269],[1.845238,42.096266],[1.844876,42.096129],[1.844842,42.096116],[1.844826,42.096109],[1.844821,42.096108],[1.844811,42.096106],[1.844811,42.096106],[1.844787,42.096117],[1.844781,42.096119],[1.844724,42.096145],[1.844673,42.096131],[1.844586,42.096105],[1.84456,42.096098],[1.84456,42.096098],[1.844501,42.096083],[1.844501,42.096083],[1.844284,42.096029],[1.844284,42.096029],[1.8442,42.096188],[1.844466,42.096287],[1.844589,42.096408],[1.844282,42.096664],[1.843828,42.096363],[1.843813,42.096353],[1.843273,42.096006],[1.842887,42.095759],[1.842881,42.095733],[1.842878,42.095717],[1.842758,42.09565],[1.842754,42.095653],[1.842676,42.095722],[1.842689,42.095732],[1.842695,42.095745],[1.842693,42.095758],[1.842684,42.09577],[1.84242,42.096005],[1.84213,42.096262],[1.842074,42.096333],[1.842043,42.096372],[1.842018,42.096404],[1.841992,42.096432],[1.841985,42.096439],[1.841928,42.096488],[1.841869,42.096536],[1.8418,42.096592],[1.841726,42.096645],[1.841716,42.09665],[1.841705,42.096653],[1.841695,42.096653],[1.841658,42.096629],[1.841624,42.096605],[1.841483,42.096501],[1.841344,42.096396],[1.841299,42.096354],[1.841391,42.096293],[1.841312,42.096222],[1.841192,42.096121],[1.840501,42.095543],[1.840569,42.095497],[1.840585,42.095496],[1.840595,42.095496],[1.840657,42.095493],[1.840799,42.095422],[1.840988,42.095282],[1.841113,42.095243],[1.841117,42.095245],[1.841123,42.095243],[1.841162,42.095266],[1.841167,42.095268],[1.841171,42.095266],[1.841184,42.095278],[1.841188,42.095282],[1.84126,42.09524],[1.841245,42.095225],[1.84128,42.095188],[1.84131,42.095153],[1.841313,42.095147],[1.841316,42.095149],[1.841565,42.094996],[1.841569,42.095],[1.841575,42.094996],[1.841612,42.095033],[1.841662,42.095061],[1.841686,42.095075],[1.841716,42.095092],[1.841868,42.095177],[1.841872,42.09518],[1.841919,42.095155],[1.841909,42.095149],[1.841827,42.095096],[1.841849,42.095077],[1.841846,42.095075],[1.841854,42.09506],[1.84181,42.095035],[1.841818,42.095022],[1.841788,42.095004],[1.841788,42.094993],[1.841787,42.094957],[1.841767,42.094906],[1.841738,42.094876],[1.841692,42.094839],[1.841675,42.094823],[1.841579,42.094729],[1.841571,42.094721],[1.841559,42.09471],[1.842161,42.094368],[1.842144,42.09425],[1.841893,42.09405],[1.841673,42.09402],[1.841486,42.093986],[1.841366,42.093974],[1.841136,42.093993],[1.84053,42.094062],[1.84028,42.094088],[1.839943,42.094374],[1.839553,42.094206],[1.839337,42.093957],[1.838853,42.094183],[1.838921,42.094369],[1.839047,42.094574],[1.839192,42.094847],[1.839639,42.095132],[1.839551,42.095207],[1.839496,42.095293],[1.839494,42.095443],[1.839492,42.095521],[1.839521,42.095628],[1.839484,42.095625],[1.839475,42.095624],[1.839289,42.095619],[1.839213,42.095758],[1.839198,42.09579],[1.83916,42.09581],[1.839139,42.095815],[1.839129,42.095815],[1.839115,42.095815],[1.838791,42.095714],[1.838543,42.095647],[1.838378,42.09559],[1.838377,42.095592],[1.838295,42.095709],[1.838247,42.095787],[1.838239,42.095784],[1.838199,42.095776],[1.838108,42.095757],[1.838066,42.09575],[1.838024,42.095743],[1.83803,42.095716],[1.837957,42.09567],[1.837868,42.095606],[1.837658,42.095526],[1.837483,42.095476],[1.837437,42.095827],[1.837319,42.095826],[1.837207,42.095817]]]]}},{"type":"Feature","id":"080229_080229 AP05 BER 3","properties":{"area_id":"080229_080229 AP05 BER 3","nom":"Cal Rosal","codi_icgc":"080229 AP05 BER 3","categoria":"Àrees de poblament","codi_municipi":"080229","municipi":"Berga","codi_comarca":"14","comarca":"Berguedà","provincia":"Barcelona","font":"ICGC Àrees de poblament v3r1 202602"},"geometry":{"type":"MultiPolygon","coordinates":[[[[1.866195,42.074078],[1.866269,42.073989],[1.86648,42.074029],[1.86652,42.073943],[1.866561,42.073857],[1.866581,42.073819],[1.866598,42.073791],[1.866631,42.073752],[1.866651,42.073735],[1.866674,42.073719],[1.866696,42.073708],[1.866738,42.073696],[1.866803,42.073684],[1.866836,42.073679],[1.866867,42.07367],[1.866976,42.073635],[1.867027,42.073613],[1.867052,42.073599],[1.867076,42.073582],[1.867105,42.073554],[1.86712,42.073531],[1.867134,42.073495],[1.867141,42.073458],[1.867144,42.073416],[1.867148,42.073374],[1.867102,42.073371],[1.867066,42.073368],[1.867081,42.07336],[1.867089,42.073355],[1.867097,42.073352],[1.867107,42.07335],[1.867113,42.073348],[1.86712,42.073348],[1.867128,42.073348],[1.867133,42.073348],[1.867173,42.073349],[1.867184,42.073348],[1.867211,42.073348],[1.867233,42.073347],[1.867245,42.073347],[1.867253,42.073346],[1.867265,42.073349],[1.867287,42.073357],[1.867308,42.073366],[1.86725,42.073384],[1.867145,42.073583],[1.867082,42.073626],[1.866994,42.073659],[1.866914,42.073698],[1.866834,42.073738],[1.866783,42.073764],[1.866713,42.073807],[1.866679,42.073832],[1.866648,42.073859],[1.866614,42.073898],[1.866596,42.073929],[1.866579,42.073976],[1.866575,42.074001],[1.866838,42.074124],[1.866956,42.074178],[1.867038,42.074217],[1.867062,42.074189],[1.867131,42.074115],[1.867152,42.074093],[1.867248,42.074],[1.867287,42.073967],[1.867351,42.073923],[1.867417,42.073881],[1.867514,42.073823],[1.867531,42.073814],[1.867723,42.073725],[1.867748,42.073716],[1.867837,42.073689],[1.867929,42.073665],[1.86799,42.073652],[1.868036,42.073645],[1.868173,42.07364],[1.868207,42.073643],[1.868256,42.073655],[1.868304,42.073671],[1.86837,42.073698],[1.868387,42.073708],[1.868429,42.07375],[1.868491,42.073838],[1.868564,42.07394],[1.868581,42.073964],[1.868593,42.07398],[1.868662,42.074077],[1.868736,42.07418],[1.86876,42.074214],[1.868836,42.07432],[1.86884,42.074326],[1.868844,42.074331],[1.868928,42.074448],[1.869025,42.07458],[1.869106,42.074682],[1.869159,42.07473],[1.86921,42.074773],[1.869262,42.074812],[1.869306,42.074842],[1.869379,42.074881],[1.869456,42.074919],[1.869483,42.074931],[1.869551,42.074878],[1.869705,42.074908],[1.86976,42.074843],[1.86995,42.075068],[1.870008,42.075135],[1.870082,42.075099],[1.870138,42.075171],[1.87014,42.075246],[1.87015,42.075258],[1.870309,42.07546],[1.870362,42.075501],[1.870405,42.075502],[1.870592,42.075411],[1.870613,42.075373],[1.870312,42.075024],[1.870231,42.074927],[1.870206,42.074938],[1.870147,42.074867],[1.870183,42.07485],[1.870145,42.074804],[1.870232,42.07477],[1.870633,42.075202],[1.870843,42.075425],[1.870857,42.075446],[1.87113,42.075325],[1.870932,42.075097],[1.870578,42.074663],[1.870503,42.074529],[1.870502,42.074466],[1.870454,42.074301],[1.870419,42.074247],[1.870426,42.074244],[1.870412,42.07419],[1.870397,42.074167],[1.870339,42.074192],[1.870316,42.074162],[1.87029,42.074173],[1.870095,42.073919],[1.870066,42.073931],[1.870056,42.073918],[1.870069,42.073912],[1.869877,42.073693],[1.869816,42.073663],[1.869949,42.073511],[1.869345,42.073188],[1.869201,42.073337],[1.869119,42.073364],[1.869057,42.073257],[1.869013,42.073208],[1.868964,42.073149],[1.869102,42.073089],[1.86904,42.073002],[1.869008,42.073007],[1.86888,42.073047],[1.868818,42.072972],[1.868791,42.072984],[1.868773,42.072962],[1.868835,42.072934],[1.868813,42.072907],[1.868848,42.072892],[1.8688,42.072834],[1.868885,42.072795],[1.868862,42.072767],[1.86892,42.07274],[1.868891,42.072704],[1.868829,42.072733],[1.868776,42.072668],[1.868531,42.07278],[1.868504,42.072858],[1.86835,42.072932],[1.868366,42.072913],[1.868253,42.073004],[1.86803,42.07295],[1.86803,42.072934],[1.86803,42.072903],[1.868073,42.072825],[1.868081,42.07281],[1.868091,42.072793],[1.867969,42.07273],[1.867956,42.072734],[1.867922,42.072746],[1.867877,42.072763],[1.867835,42.072776],[1.867808,42.072785],[1.867774,42.072795],[1.867734,42.072804],[1.867707,42.072808],[1.867676,42.072812],[1.867637,42.072816],[1.86761,42.072819],[1.867576,42.07282],[1.867533,42.072818],[1.867517,42.072815],[1.867497,42.07281],[1.867485,42.072805],[1.867474,42.072798],[1.867466,42.072791],[1.867458,42.072782],[1.867449,42.072773],[1.867435,42.07276],[1.867419,42.07275],[1.867405,42.072746],[1.867378,42.072741],[1.867342,42.072736],[1.867312,42.072731],[1.867256,42.072722],[1.867221,42.072717],[1.867102,42.072714],[1.867012,42.072715],[1.86697,42.072729],[1.866809,42.072824],[1.866348,42.073097],[1.866305,42.073122],[1.865666,42.0735],[1.865626,42.073524],[1.86556,42.073563],[1.865501,42.073598],[1.865529,42.073639],[1.865555,42.073673],[1.865576,42.0737],[1.86554,42.073745],[1.865517,42.073788],[1.865515,42.073802],[1.86552,42.073841],[1.865534,42.0739],[1.865538,42.073929],[1.865537,42.073945],[1.865498,42.073996],[1.865527,42.074011],[1.865519,42.074051],[1.865507,42.074098],[1.865491,42.074143],[1.865478,42.074176],[1.865464,42.074209],[1.865417,42.074236],[1.865291,42.074314],[1.865165,42.074391],[1.865137,42.074409],[1.865091,42.074443],[1.86503,42.074499],[1.865001,42.074528],[1.864973,42.074558],[1.864968,42.074564],[1.864833,42.074895],[1.864657,42.075525],[1.86464,42.075593],[1.864852,42.075685],[1.864882,42.075698],[1.864923,42.075663],[1.864984,42.07561],[1.865009,42.075584],[1.865043,42.075535],[1.865062,42.075497],[1.865085,42.075438],[1.865103,42.075378],[1.865152,42.075182],[1.8652,42.074985],[1.865217,42.074921],[1.865245,42.074826],[1.865277,42.074732],[1.865298,42.074687],[1.86532,42.074656],[1.865339,42.074634],[1.865372,42.074604],[1.865412,42.074578],[1.865521,42.074527],[1.865632,42.074477],[1.865703,42.074444],[1.865806,42.07439],[1.865907,42.074334],[1.865975,42.074291],[1.866025,42.074257],[1.866092,42.074202],[1.866122,42.074172],[1.866149,42.07414],[1.866195,42.074078]]]]}},{"type":"Feature","id":"080229_080229 SI02 BER 2","properties":{"area_id":"080229_080229 SI02 BER 2","nom":"Can Canal","codi_icgc":"080229 SI02 BER 2","categoria":"Sector industrial","codi_municipi":"080229","municipi":"Berga","codi_comarca":"14","comarca":"Berguedà","provincia":"Barcelona","font":"ICGC Àrees de poblament v3r1 202602"},"geometry":{"type":"MultiPolygon","coordinates":[[[[1.84981,42.095481],[1.849836,42.095463],[1.850452,42.095004],[1.850895,42.094689],[1.85071,42.09454],[1.850666,42.094513],[1.850559,42.094519],[1.85035,42.09454],[1.850196,42.094567],[1.85011,42.094586],[1.849913,42.094643],[1.849748,42.094711],[1.849641,42.094767],[1.849514,42.094846],[1.849372,42.094937],[1.849211,42.095044],[1.848862,42.095278],[1.848574,42.095477],[1.848224,42.095714],[1.848202,42.095728],[1.848391,42.095877],[1.848411,42.095892],[1.848446,42.095834],[1.848454,42.095821],[1.848539,42.095756],[1.848752,42.095821],[1.84878,42.095793],[1.849041,42.095943],[1.849083,42.095905],[1.849151,42.095943],[1.849623,42.09562],[1.84981,42.095481]]]]}},{"type":"Feature","id":"080229_080229 AP02 BER 2","properties":{"area_id":"080229_080229 AP02 BER 2","nom":"Casampons","codi_icgc":"080229 AP02 BER 2","categoria":"Àrees de poblament","codi_municipi":"080229","municipi":"Berga","codi_comarca":"14","comarca":"Berguedà","provincia":"Barcelona","font":"ICGC Àrees de poblament v3r1 202602"},"geometry":{"type":"MultiPolygon","coordinates":[[[[1.861309,42.102188],[1.861366,42.102101],[1.861438,42.101987],[1.861444,42.101976],[1.861292,42.101919],[1.861296,42.101905],[1.861249,42.101888],[1.861202,42.101889],[1.861416,42.101587],[1.861282,42.101536],[1.861243,42.101521],[1.861208,42.101507],[1.861117,42.101473],[1.861024,42.101442],[1.860989,42.10143],[1.860955,42.101418],[1.860966,42.101395],[1.860871,42.101361],[1.860796,42.101336],[1.860722,42.101311],[1.860581,42.101262],[1.860573,42.101259],[1.860454,42.101216],[1.860337,42.101172],[1.860273,42.101148],[1.860211,42.101124],[1.860176,42.101107],[1.860139,42.10108],[1.860128,42.10107],[1.860117,42.101059],[1.860097,42.101038],[1.860076,42.10102],[1.86012,42.100979],[1.860284,42.100829],[1.860357,42.10072],[1.860358,42.100721],[1.860489,42.100781],[1.860527,42.100735],[1.860569,42.100662],[1.860601,42.100643],[1.86063,42.100648],[1.860646,42.100656],[1.860658,42.100664],[1.860679,42.100676],[1.860688,42.100678],[1.860698,42.100678],[1.860718,42.100678],[1.860737,42.100685],[1.860804,42.100681],[1.861144,42.100878],[1.861321,42.10098],[1.861348,42.100951],[1.861408,42.100881],[1.861442,42.100843],[1.861652,42.100942],[1.861678,42.100954],[1.861702,42.100961],[1.861822,42.100995],[1.861832,42.100975],[1.861913,42.100872],[1.861871,42.100854],[1.861848,42.100883],[1.861801,42.100862],[1.861782,42.100848],[1.861875,42.100735],[1.861918,42.100753],[1.861976,42.100773],[1.862003,42.100782],[1.862136,42.100827],[1.86227,42.100873],[1.862359,42.100904],[1.862445,42.100928],[1.862478,42.100933],[1.862508,42.100936],[1.862528,42.100938],[1.862557,42.100942],[1.862585,42.10095],[1.862639,42.100971],[1.862684,42.100987],[1.862716,42.100999],[1.862755,42.101011],[1.862795,42.101022],[1.862841,42.100997],[1.862867,42.101005],[1.862901,42.100984],[1.862912,42.100953],[1.862972,42.10097],[1.863072,42.100762],[1.863138,42.100791],[1.863187,42.100816],[1.863228,42.100837],[1.863474,42.100963],[1.863504,42.100914],[1.863505,42.100915],[1.863506,42.100915],[1.864424,42.101149],[1.864537,42.10085],[1.864479,42.100837],[1.864652,42.100796],[1.86468,42.100801],[1.864963,42.100853],[1.864957,42.100729],[1.865102,42.10074],[1.865115,42.100739],[1.865119,42.100739],[1.865374,42.100734],[1.865499,42.100728],[1.865602,42.100713],[1.865587,42.100609],[1.865877,42.100588],[1.865928,42.100584],[1.865973,42.100581],[1.866035,42.10058],[1.866286,42.100574],[1.866366,42.100464],[1.86645,42.100349],[1.866486,42.100303],[1.866578,42.100213],[1.866596,42.100214],[1.866649,42.100166],[1.866647,42.100153],[1.866682,42.100076],[1.866689,42.100062],[1.866745,42.100076],[1.866868,42.100036],[1.866912,42.099986],[1.866957,42.099931],[1.866873,42.09981],[1.866753,42.099655],[1.866656,42.099541],[1.866595,42.099466],[1.866581,42.099395],[1.866579,42.099386],[1.866576,42.099375],[1.866537,42.099219],[1.866542,42.09921],[1.866532,42.099174],[1.866514,42.099084],[1.866498,42.099035],[1.866496,42.099027],[1.866473,42.098995],[1.866424,42.099008],[1.866415,42.098984],[1.866406,42.098969],[1.866396,42.098955],[1.866367,42.098932],[1.866348,42.098923],[1.866329,42.098916],[1.866291,42.098907],[1.866254,42.0989],[1.866172,42.098885],[1.866092,42.098869],[1.86603,42.098854],[1.86597,42.098834],[1.865874,42.098796],[1.865776,42.098758],[1.865735,42.098744],[1.865691,42.098735],[1.865649,42.098731],[1.865587,42.098731],[1.865527,42.098735],[1.865443,42.098748],[1.865359,42.098761],[1.865273,42.098778],[1.865187,42.098795],[1.865145,42.098802],[1.86508,42.098808],[1.865014,42.098811],[1.86493,42.098814],[1.864847,42.098812],[1.86479,42.098808],[1.864765,42.098805],[1.864732,42.098801],[1.86469,42.098794],[1.864659,42.098786],[1.864638,42.09878],[1.864614,42.09877],[1.864639,42.098646],[1.864691,42.09864],[1.864802,42.098628],[1.864965,42.098599],[1.865184,42.098585],[1.865191,42.098514],[1.865214,42.09839],[1.865217,42.098368],[1.86523,42.09828],[1.86513,42.098287],[1.864954,42.098324],[1.864749,42.09835],[1.864633,42.098349],[1.86449,42.098343],[1.864525,42.09807],[1.86452,42.09807],[1.864458,42.098072],[1.864364,42.09807],[1.864267,42.098059],[1.864244,42.098057],[1.864143,42.098033],[1.864051,42.097997],[1.863964,42.097943],[1.863914,42.097906],[1.863888,42.097887],[1.863784,42.09784],[1.863731,42.097827],[1.863668,42.097835],[1.863625,42.09776],[1.863453,42.097465],[1.863246,42.097533],[1.863221,42.097541],[1.863047,42.097598],[1.862958,42.097627],[1.862832,42.097666],[1.862807,42.097718],[1.862736,42.097731],[1.862723,42.097734],[1.862569,42.097775],[1.86255,42.097753],[1.862172,42.09787],[1.862179,42.097879],[1.862178,42.097879],[1.862144,42.097892],[1.861864,42.097983],[1.861913,42.098025],[1.861638,42.098178],[1.861648,42.098198],[1.861828,42.098277],[1.861856,42.098293],[1.861866,42.098299],[1.862073,42.098365],[1.862139,42.098379],[1.862141,42.098567],[1.862142,42.09858],[1.86214,42.098613],[1.86213,42.098646],[1.862112,42.098677],[1.862088,42.098705],[1.862058,42.09873],[1.862022,42.09875],[1.861983,42.098766],[1.86194,42.098776],[1.861896,42.098781],[1.861851,42.09878],[1.861807,42.098773],[1.861709,42.098752],[1.861549,42.098722],[1.861467,42.098713],[1.86137,42.098709],[1.861302,42.098715],[1.861236,42.098727],[1.861194,42.098737],[1.861166,42.098744],[1.861124,42.098751],[1.861104,42.098752],[1.86104,42.098672],[1.860996,42.098596],[1.860936,42.098505],[1.86074,42.098564],[1.860682,42.098586],[1.860645,42.098597],[1.860602,42.098605],[1.860553,42.098614],[1.86036,42.098646],[1.860328,42.098654],[1.860285,42.09867],[1.860245,42.098689],[1.860177,42.098719],[1.860109,42.098749],[1.860038,42.098779],[1.859968,42.098809],[1.859902,42.098835],[1.859834,42.098858],[1.859781,42.098874],[1.859727,42.09889],[1.859674,42.098908],[1.859623,42.098928],[1.859588,42.098943],[1.85952,42.098986],[1.859512,42.098982],[1.859472,42.098965],[1.859407,42.098936],[1.859433,42.098905],[1.859245,42.098838],[1.858967,42.098739],[1.858869,42.098794],[1.858747,42.09889],[1.858729,42.098903],[1.858618,42.098967],[1.858553,42.099097],[1.858451,42.099281],[1.858393,42.099241],[1.858129,42.099051],[1.858036,42.099127],[1.857951,42.099198],[1.857911,42.099228],[1.857874,42.099267],[1.857879,42.099269],[1.857859,42.099326],[1.857873,42.099418],[1.857901,42.099495],[1.857954,42.099637],[1.857984,42.099749],[1.858041,42.099786],[1.858185,42.099883],[1.858165,42.099941],[1.858158,42.09996],[1.858069,42.099983],[1.857999,42.100066],[1.857933,42.100145],[1.857932,42.100146],[1.85784,42.100244],[1.85777,42.100319],[1.857716,42.100381],[1.857687,42.100415],[1.857884,42.100517],[1.858105,42.100629],[1.858092,42.10066],[1.858076,42.100718],[1.858069,42.100765],[1.858067,42.100812],[1.858071,42.100848],[1.858081,42.100885],[1.858102,42.100921],[1.858127,42.100953],[1.858146,42.100974],[1.858303,42.101108],[1.858414,42.101198],[1.858566,42.101325],[1.858697,42.101428],[1.858828,42.10153],[1.858839,42.101543],[1.858846,42.101563],[1.858848,42.101571],[1.858848,42.101572],[1.858861,42.101583],[1.858978,42.101658],[1.859001,42.101658],[1.859063,42.101666],[1.859117,42.101683],[1.859194,42.101708],[1.859342,42.101759],[1.859397,42.101773],[1.859432,42.101778],[1.859504,42.101782],[1.859564,42.101782],[1.859648,42.101779],[1.859652,42.101796],[1.859755,42.101827],[1.859934,42.101838],[1.860039,42.101841],[1.860883,42.102155],[1.861027,42.102146],[1.861283,42.102226],[1.861309,42.102188]]]]}},{"type":"Feature","id":"080229_080229 AP03 BER 2","properties":{"area_id":"080229_080229 AP03 BER 2","nom":"Fumanya","codi_icgc":"080229 AP03 BER 2","categoria":"Àrees de poblament","codi_municipi":"080229","municipi":"Berga","codi_comarca":"14","comarca":"Berguedà","provincia":"Barcelona","font":"ICGC Àrees de poblament v3r1 202602"},"geometry":{"type":"MultiPolygon","coordinates":[[[[1.840142,42.106552],[1.840173,42.106542],[1.840226,42.106521],[1.840263,42.106494],[1.840286,42.106444],[1.840289,42.106391],[1.840677,42.106359],[1.840723,42.106359],[1.840824,42.106361],[1.840961,42.106367],[1.841097,42.106379],[1.841206,42.106395],[1.841369,42.106427],[1.841534,42.106458],[1.841638,42.106473],[1.841743,42.106482],[1.841796,42.106482],[1.841874,42.106478],[1.841951,42.106471],[1.841994,42.106466],[1.842057,42.106454],[1.842118,42.106436],[1.842134,42.106428],[1.842153,42.106408],[1.842162,42.106387],[1.842164,42.106369],[1.842164,42.106366],[1.842158,42.106329],[1.842146,42.106302],[1.842133,42.106282],[1.842108,42.106257],[1.842078,42.106239],[1.842031,42.106222],[1.841962,42.106201],[1.84189,42.106186],[1.841784,42.106171],[1.841625,42.10615],[1.841466,42.106131],[1.841375,42.106125],[1.841331,42.106122],[1.841289,42.106117],[1.841246,42.106104],[1.841183,42.106077],[1.841122,42.106047],[1.841043,42.106002],[1.840984,42.105968],[1.840962,42.105956],[1.840932,42.105943],[1.840905,42.105936],[1.840895,42.105935],[1.840863,42.105933],[1.840841,42.105935],[1.840822,42.105939],[1.840736,42.105969],[1.840654,42.106002],[1.84059,42.10603],[1.840518,42.106062],[1.840382,42.106122],[1.840311,42.106154],[1.840239,42.106187],[1.84022,42.106196],[1.840207,42.106202],[1.84019,42.106209],[1.840157,42.106221],[1.840138,42.106227],[1.840119,42.10623],[1.840095,42.10623],[1.84007,42.106227],[1.840044,42.10622],[1.839936,42.106185],[1.839828,42.10615],[1.839753,42.106131],[1.839615,42.1061],[1.839545,42.106084],[1.839477,42.106069],[1.839381,42.106047],[1.839286,42.106024],[1.839224,42.106009],[1.839163,42.105988],[1.839103,42.105965],[1.838981,42.105912],[1.8388,42.105835],[1.838618,42.105756],[1.838436,42.105676],[1.838255,42.105595],[1.838184,42.105557],[1.838118,42.105515],[1.838079,42.105483],[1.838021,42.105433],[1.837963,42.105382],[1.837935,42.105364],[1.837903,42.105349],[1.837884,42.105345],[1.837863,42.105343],[1.837856,42.105344],[1.837826,42.105348],[1.8378,42.105356],[1.837771,42.105372],[1.83777,42.105374],[1.837757,42.105386],[1.837746,42.105401],[1.837737,42.105428],[1.837736,42.105447],[1.837745,42.105498],[1.837759,42.105549],[1.837774,42.105583],[1.8378,42.105632],[1.837812,42.105653],[1.837841,42.10571],[1.837672,42.105704],[1.837625,42.105702],[1.837631,42.105797],[1.837621,42.105899],[1.837525,42.105898],[1.837533,42.105956],[1.83754,42.10602],[1.837548,42.10607],[1.837555,42.106117],[1.837568,42.106116],[1.837832,42.106087],[1.837815,42.106172],[1.837818,42.10621],[1.837828,42.106235],[1.837844,42.106258],[1.837875,42.1063],[1.83789,42.106328],[1.837918,42.106406],[1.837944,42.106485],[1.837957,42.106529],[1.837968,42.106572],[1.83797,42.106601],[1.837969,42.106647],[1.837968,42.106694],[1.837964,42.106749],[1.837959,42.106782],[1.837946,42.106819],[1.837877,42.10693],[1.83784,42.106978],[1.837777,42.107034],[1.837692,42.107109],[1.837492,42.107285],[1.837825,42.107448],[1.837855,42.107462],[1.837855,42.107455],[1.837863,42.107429],[1.837876,42.107407],[1.837894,42.107387],[1.837928,42.10736],[1.837964,42.107332],[1.837976,42.107323],[1.837991,42.107311],[1.838006,42.1073],[1.83802,42.107291],[1.838239,42.107328],[1.838454,42.107266],[1.838664,42.107228],[1.838894,42.1074],[1.838916,42.107416],[1.839083,42.10754],[1.839356,42.107316],[1.839244,42.107226],[1.83914,42.107181],[1.839201,42.10712],[1.83919,42.107066],[1.839702,42.106742],[1.840003,42.106598],[1.840027,42.106591],[1.840088,42.10657],[1.840142,42.106552]]]]}},{"type":"Feature","id":"080229_080229 SI04 BER 2","properties":{"area_id":"080229_080229 SI04 BER 2","nom":"Fàbrica del Garrigar","codi_icgc":"080229 SI04 BER 2","categoria":"Sector industrial","codi_municipi":"080229","municipi":"Berga","codi_comarca":"14","comarca":"Berguedà","provincia":"Barcelona","font":"ICGC Àrees de poblament v3r1 202602"},"geometry":{"type":"MultiPolygon","coordinates":[[[[1.840502,42.107866],[1.840564,42.107816],[1.840541,42.107758],[1.840467,42.107624],[1.840457,42.10757],[1.840469,42.10748],[1.840487,42.107415],[1.840485,42.107396],[1.840287,42.107268],[1.840269,42.10729],[1.840018,42.107558],[1.839945,42.107638],[1.839928,42.10766],[1.840086,42.107739],[1.840303,42.107851],[1.840323,42.10783],[1.84046,42.107894],[1.840502,42.107866]]]]}},{"type":"Feature","id":"080229_080229 SI03 BER 2","properties":{"area_id":"080229_080229 SI03 BER 2","nom":"Nau de la Frigo","codi_icgc":"080229 SI03 BER 2","categoria":"Sector industrial","codi_municipi":"080229","municipi":"Berga","codi_comarca":"14","comarca":"Berguedà","provincia":"Barcelona","font":"ICGC Àrees de poblament v3r1 202602"},"geometry":{"type":"MultiPolygon","coordinates":[[[[1.861202,42.103473],[1.860856,42.10339],[1.860799,42.103474],[1.860713,42.103612],[1.860649,42.103749],[1.860651,42.10375],[1.86074,42.10379],[1.86083,42.103829],[1.860891,42.103854],[1.860986,42.103887],[1.86111,42.103919],[1.861136,42.10392],[1.86115,42.103919],[1.861189,42.103916],[1.861213,42.103911],[1.861222,42.103908],[1.861278,42.103876],[1.861295,42.103865],[1.861318,42.103861],[1.861368,42.103862],[1.861403,42.103841],[1.861491,42.103749],[1.861494,42.103726],[1.861517,42.103673],[1.861526,42.103613],[1.861511,42.10357],[1.861447,42.103549],[1.861202,42.103473]]]]}},{"type":"Feature","id":"080229_080229 SI01 BER 2","properties":{"area_id":"080229_080229 SI01 BER 2","nom":"Polígon industrial de la Valldan","codi_icgc":"080229 SI01 BER 2","categoria":"Sector industrial","codi_municipi":"080229","municipi":"Berga","codi_comarca":"14","comarca":"Berguedà","provincia":"Barcelona","font":"ICGC Àrees de poblament v3r1 202602"},"geometry":{"type":"MultiPolygon","coordinates":[[[[1.82814,42.090772],[1.828252,42.090865],[1.828298,42.090846],[1.828369,42.090816],[1.828441,42.090785],[1.828493,42.090761],[1.828546,42.090737],[1.828577,42.090727],[1.828611,42.090722],[1.828643,42.090721],[1.828691,42.090726],[1.828737,42.090738],[1.828785,42.090758],[1.828828,42.090776],[1.828868,42.090774],[1.828956,42.090703],[1.829055,42.090627],[1.829077,42.09061],[1.829143,42.090559],[1.829598,42.090391],[1.829641,42.090375],[1.829652,42.090371],[1.829733,42.090336],[1.829839,42.090288],[1.829873,42.090273],[1.830025,42.090204],[1.830051,42.090192],[1.830066,42.090184],[1.830173,42.090129],[1.830284,42.090075],[1.830353,42.090041],[1.830366,42.090034],[1.830394,42.090017],[1.830415,42.090005],[1.830431,42.089988],[1.83044,42.089969],[1.830441,42.089949],[1.830435,42.08993],[1.830426,42.089917],[1.830157,42.089739],[1.830105,42.089717],[1.83005,42.089701],[1.829993,42.08969],[1.829934,42.089685],[1.829875,42.089685],[1.829866,42.089686],[1.829692,42.089629],[1.829121,42.08923],[1.82906,42.089162],[1.828622,42.088837],[1.828339,42.088624],[1.828198,42.088535],[1.82806,42.08846],[1.827892,42.088378],[1.827833,42.088326],[1.827783,42.088282],[1.827755,42.088267],[1.827706,42.088253],[1.827552,42.088207],[1.827516,42.088228],[1.827467,42.088262],[1.827445,42.088284],[1.82742,42.088321],[1.827407,42.088339],[1.827392,42.088357],[1.827347,42.088401],[1.827301,42.088446],[1.827264,42.088485],[1.827212,42.088563],[1.827196,42.088605],[1.827174,42.088643],[1.827152,42.088676],[1.827133,42.088695],[1.827122,42.088717],[1.82707,42.08875],[1.827052,42.088761],[1.826979,42.088822],[1.826885,42.088943],[1.826818,42.089004],[1.82672,42.089056],[1.826477,42.0892],[1.826055,42.089449],[1.825956,42.089506],[1.825739,42.089631],[1.825555,42.089737],[1.82534,42.089862],[1.825214,42.089912],[1.825097,42.089975],[1.82507,42.090009],[1.825052,42.090032],[1.825065,42.090067],[1.825229,42.090184],[1.825226,42.090186],[1.824901,42.090539],[1.824841,42.090518],[1.824522,42.090403],[1.824147,42.090247],[1.824047,42.090254],[1.823939,42.090244],[1.823897,42.090245],[1.823825,42.090323],[1.823557,42.090625],[1.823323,42.090881],[1.823402,42.090927],[1.823236,42.091153],[1.823145,42.091294],[1.823112,42.091332],[1.823073,42.091316],[1.823033,42.091301],[1.822949,42.09127],[1.822864,42.091239],[1.822822,42.090754],[1.822013,42.090709],[1.821985,42.090709],[1.821703,42.090951],[1.821549,42.09106],[1.821331,42.091216],[1.82123,42.091197],[1.821228,42.091198],[1.821159,42.091224],[1.821096,42.091249],[1.82092,42.091283],[1.82089,42.091288],[1.820712,42.091369],[1.820634,42.091376],[1.820501,42.091412],[1.820289,42.091496],[1.820227,42.09159],[1.820215,42.091601],[1.820033,42.091756],[1.820002,42.091782],[1.8198,42.091932],[1.8197,42.092002],[1.819655,42.092033],[1.819619,42.092049],[1.819495,42.092121],[1.819465,42.092221],[1.819413,42.092266],[1.819131,42.09247],[1.819082,42.092426],[1.819077,42.092422],[1.818799,42.092671],[1.818801,42.092679],[1.818807,42.092715],[1.818649,42.092832],[1.818479,42.09294],[1.818404,42.09301],[1.818417,42.093037],[1.818339,42.093095],[1.817958,42.093302],[1.817846,42.093342],[1.817806,42.093361],[1.817777,42.093367],[1.817649,42.093414],[1.817682,42.093455],[1.817683,42.093471],[1.817585,42.093484],[1.817224,42.093593],[1.817153,42.093616],[1.817142,42.09362],[1.817171,42.093666],[1.8172,42.093712],[1.817212,42.093741],[1.81722,42.093786],[1.81723,42.09383],[1.817242,42.093857],[1.817262,42.093883],[1.81734,42.094],[1.817463,42.094066],[1.817854,42.094097],[1.818189,42.094116],[1.81839,42.094091],[1.818647,42.094019],[1.81887,42.093915],[1.818725,42.094121],[1.818735,42.094122],[1.818762,42.094223],[1.818974,42.094328],[1.819186,42.094433],[1.819324,42.094506],[1.819423,42.094562],[1.819459,42.094519],[1.819585,42.094403],[1.819723,42.094469],[1.819742,42.094457],[1.820223,42.093912],[1.820945,42.094257],[1.82089,42.094316],[1.82073,42.09445],[1.820728,42.094453],[1.820671,42.094499],[1.820581,42.094572],[1.820542,42.094609],[1.820506,42.094647],[1.820435,42.094725],[1.820424,42.094734],[1.820408,42.094755],[1.820337,42.094834],[1.820274,42.094904],[1.820213,42.094975],[1.820166,42.095038],[1.820123,42.095102],[1.82007,42.095183],[1.820045,42.095222],[1.820017,42.095265],[1.819994,42.095305],[1.81997,42.095344],[1.819947,42.095372],[1.819909,42.095412],[1.819871,42.095453],[1.819821,42.095514],[1.819783,42.09556],[1.819772,42.095555],[1.819576,42.095792],[1.819526,42.095854],[1.819523,42.095857],[1.819508,42.09586],[1.819462,42.095868],[1.819456,42.09587],[1.819356,42.095915],[1.81934,42.095923],[1.819142,42.096041],[1.818677,42.096329],[1.818486,42.096427],[1.818484,42.096428],[1.818396,42.096463],[1.818571,42.096505],[1.818588,42.096509],[1.818798,42.096559],[1.818823,42.096566],[1.819187,42.096666],[1.819499,42.096804],[1.820092,42.096999],[1.820282,42.09707],[1.820395,42.097112],[1.820506,42.097167],[1.820658,42.097242],[1.820933,42.097377],[1.821287,42.09759],[1.821347,42.097624],[1.82149,42.097705],[1.82149,42.097705],[1.821594,42.097764],[1.821629,42.097781],[1.821854,42.097894],[1.822194,42.098068],[1.822326,42.098131],[1.822423,42.098177],[1.822442,42.098186],[1.822506,42.098223],[1.822572,42.098261],[1.822597,42.098247],[1.822668,42.098153],[1.822771,42.098006],[1.822821,42.097964],[1.82286,42.097937],[1.822901,42.097905],[1.822928,42.097875],[1.822982,42.097792],[1.823035,42.097742],[1.823101,42.097689],[1.823131,42.097656],[1.823157,42.097603],[1.823164,42.097582],[1.823184,42.097521],[1.823201,42.097479],[1.823246,42.097399],[1.823301,42.097362],[1.823392,42.097311],[1.823409,42.097299],[1.823443,42.097276],[1.82356,42.097152],[1.823745,42.09694],[1.823804,42.096872],[1.823806,42.096842],[1.823842,42.096402],[1.823843,42.096397],[1.823852,42.09639],[1.823899,42.096333],[1.824099,42.096127],[1.82421,42.096014],[1.824243,42.096026],[1.824266,42.096034],[1.824411,42.095876],[1.824463,42.095859],[1.824487,42.095851],[1.824569,42.095853],[1.824611,42.095803],[1.824653,42.095818],[1.824814,42.095643],[1.8249,42.095551],[1.825016,42.095455],[1.825054,42.095252],[1.825055,42.095244],[1.825076,42.095025],[1.825081,42.094947],[1.825091,42.09479],[1.825176,42.094836],[1.825758,42.094727],[1.825918,42.094662],[1.82596,42.094647],[1.826093,42.094602],[1.826154,42.094445],[1.826403,42.094625],[1.82645,42.094618],[1.826473,42.094614],[1.826485,42.094615],[1.826571,42.094645],[1.826601,42.094607],[1.826688,42.094495],[1.826778,42.094432],[1.827051,42.094295],[1.827094,42.094274],[1.827074,42.094247],[1.827078,42.094233],[1.827075,42.094226],[1.82706,42.094197],[1.827028,42.094133],[1.826847,42.093897],[1.826769,42.093824],[1.826677,42.093763],[1.826508,42.093677],[1.826499,42.093686],[1.826492,42.093684],[1.826308,42.093878],[1.826266,42.093848],[1.82581,42.093598],[1.825745,42.093628],[1.825717,42.093608],[1.825639,42.093505],[1.825612,42.0934],[1.825517,42.093349],[1.825667,42.093184],[1.826562,42.09217],[1.827057,42.091611],[1.82752,42.091222],[1.827632,42.091134],[1.82814,42.090772]]]]}},{"type":"Feature","id":"080229_080229 AP06 BER 1","properties":{"area_id":"080229_080229 AP06 BER 1","nom":"Sant Bartomeu de la Valldan","codi_icgc":"080229 AP06 BER 1","categoria":"Àrees de poblament","codi_municipi":"080229","municipi":"Berga","codi_comarca":"14","comarca":"Berguedà","provincia":"Barcelona","font":"ICGC Àrees de poblament v3r1 202602"},"geometry":{"type":"MultiPolygon","coordinates":[[[[1.836971,42.09607],[1.836981,42.096028],[1.837028,42.095808],[1.837071,42.095573],[1.837342,42.09563],[1.837408,42.095462],[1.83727,42.095436],[1.836988,42.095374],[1.83692,42.095362],[1.836835,42.095349],[1.836728,42.095321],[1.836866,42.095166],[1.836858,42.095141],[1.836837,42.095081],[1.836824,42.095041],[1.836818,42.095032],[1.836792,42.094971],[1.836741,42.094862],[1.836737,42.094854],[1.836704,42.0948],[1.836683,42.094765],[1.836655,42.094718],[1.836603,42.094637],[1.836564,42.094586],[1.836514,42.094524],[1.836463,42.094462],[1.836451,42.094449],[1.836427,42.094425],[1.836418,42.094425],[1.836282,42.094404],[1.836298,42.094327],[1.836303,42.094305],[1.836281,42.094303],[1.836289,42.094247],[1.836217,42.093915],[1.83615,42.093758],[1.836098,42.093662],[1.836017,42.0935],[1.835944,42.093376],[1.83579,42.093165],[1.835643,42.092999],[1.835636,42.093002],[1.835594,42.093019],[1.835459,42.093088],[1.835427,42.0931],[1.835424,42.093098],[1.835418,42.0931],[1.835271,42.093169],[1.835101,42.093024],[1.835076,42.093001],[1.835071,42.093002],[1.835055,42.092992],[1.834986,42.092943],[1.834904,42.092992],[1.834872,42.093006],[1.834868,42.093008],[1.834798,42.093039],[1.834715,42.093073],[1.834698,42.093079],[1.83468,42.093084],[1.834584,42.093109],[1.834561,42.093116],[1.834534,42.093126],[1.834529,42.093125],[1.834466,42.09314],[1.834432,42.093049],[1.834422,42.093015],[1.834396,42.092924],[1.834388,42.092925],[1.834149,42.092961],[1.834144,42.093041],[1.834192,42.09329],[1.834204,42.093347],[1.834206,42.093357],[1.834354,42.093336],[1.834363,42.093334],[1.834392,42.093501],[1.834429,42.093664],[1.834432,42.093679],[1.834456,42.093798],[1.834447,42.093798],[1.8343,42.093814],[1.834291,42.093815],[1.834208,42.093832],[1.83423,42.093964],[1.834162,42.093983],[1.834153,42.093983],[1.834097,42.093991],[1.834088,42.093992],[1.834075,42.093993],[1.834066,42.093994],[1.834042,42.093993],[1.834033,42.093992],[1.834009,42.093989],[1.834,42.093988],[1.833957,42.093978],[1.833906,42.093968],[1.833896,42.093968],[1.833865,42.093965],[1.833855,42.093964],[1.833832,42.093961],[1.833823,42.09396],[1.833796,42.093948],[1.833785,42.09394],[1.833776,42.09393],[1.833768,42.093919],[1.83376,42.093908],[1.833728,42.093869],[1.833697,42.09383],[1.83368,42.093814],[1.833665,42.093804],[1.833626,42.093574],[1.833569,42.093545],[1.833397,42.093529],[1.833255,42.093561],[1.833299,42.093788],[1.833075,42.093829],[1.833113,42.093965],[1.833127,42.094008],[1.833421,42.093954],[1.833464,42.093947],[1.833498,42.09394],[1.833507,42.093938],[1.833526,42.093936],[1.833535,42.093935],[1.833553,42.093935],[1.833563,42.093935],[1.833592,42.093936],[1.833602,42.093936],[1.833631,42.093937],[1.833641,42.093937],[1.833703,42.093962],[1.833736,42.093977],[1.83377,42.093992],[1.833798,42.094002],[1.833832,42.094015],[1.833823,42.094015],[1.833758,42.094018],[1.833749,42.094018],[1.833717,42.094023],[1.833717,42.094094],[1.833737,42.094097],[1.833743,42.094354],[1.833836,42.09435],[1.833846,42.09435],[1.834,42.094351],[1.834009,42.094351],[1.834075,42.094313],[1.834138,42.094319],[1.834148,42.094319],[1.834199,42.094381],[1.834296,42.094454],[1.834367,42.094508],[1.83439,42.094541],[1.83443,42.094702],[1.834473,42.094855],[1.834476,42.094866],[1.834551,42.095045],[1.834594,42.095184],[1.834589,42.095248],[1.834586,42.095252],[1.834546,42.09529],[1.834544,42.095292],[1.834528,42.09531],[1.834449,42.095286],[1.834415,42.095275],[1.834243,42.095506],[1.834386,42.09559],[1.834598,42.095357],[1.834732,42.095368],[1.834796,42.095411],[1.834894,42.095435],[1.835102,42.095546],[1.835388,42.095706],[1.835402,42.095714],[1.835572,42.096024],[1.835584,42.096127],[1.835608,42.096137],[1.835692,42.096174],[1.836136,42.096367],[1.836144,42.09637],[1.836156,42.096338],[1.836186,42.096343],[1.836195,42.096344],[1.83622,42.096346],[1.83623,42.096346],[1.836274,42.096338],[1.83625,42.096405],[1.836209,42.096517],[1.836161,42.096659],[1.836519,42.096717],[1.836696,42.09647],[1.836737,42.096414],[1.836787,42.096323],[1.836752,42.096316],[1.836759,42.096301],[1.836772,42.096273],[1.836756,42.09627],[1.836791,42.09616],[1.836823,42.096059],[1.836961,42.09607],[1.836971,42.09607]]]]}},{"type":"Feature","id":"080229_080229 AP08 BER 2","properties":{"area_id":"080229_080229 AP08 BER 2","nom":"Sant Ferran","codi_icgc":"080229 AP08 BER 2","categoria":"Àrees de poblament","codi_municipi":"080229","municipi":"Berga","codi_comarca":"14","comarca":"Berguedà","provincia":"Barcelona","font":"ICGC Àrees de poblament v3r1 202602"},"geometry":{"type":"MultiPolygon","coordinates":[[[[1.848484,42.106994],[1.848372,42.106544],[1.848205,42.106596],[1.848061,42.106629],[1.84793,42.106639],[1.847815,42.106628],[1.847718,42.106614],[1.847481,42.106541],[1.847186,42.106451],[1.847001,42.106393],[1.846906,42.106364],[1.846751,42.106307],[1.846619,42.106239],[1.846434,42.106138],[1.846163,42.105996],[1.846065,42.105947],[1.846018,42.105962],[1.845968,42.106001],[1.845955,42.106041],[1.845902,42.106095],[1.845833,42.106127],[1.845735,42.106136],[1.845677,42.106131],[1.84549,42.106116],[1.845361,42.106141],[1.845356,42.106166],[1.84545,42.10632],[1.845534,42.106372],[1.845768,42.10647],[1.846012,42.106565],[1.84632,42.106703],[1.846696,42.106836],[1.847077,42.106909],[1.847286,42.10695],[1.84773,42.106981],[1.847899,42.107022],[1.848081,42.107069],[1.848228,42.107111],[1.848376,42.107151],[1.84847,42.107172],[1.848522,42.107183],[1.848521,42.107141],[1.848484,42.106994]]],[[[1.84964,42.107445],[1.849463,42.107383],[1.849439,42.107409],[1.849388,42.107482],[1.849329,42.107599],[1.849711,42.10776],[1.849812,42.107763],[1.849818,42.107763],[1.849905,42.107695],[1.849983,42.107648],[1.849971,42.107609],[1.849959,42.107568],[1.84964,42.107445]]],[[[1.846036,42.109037],[1.846045,42.108951],[1.846062,42.108952],[1.846091,42.108952],[1.846121,42.108947],[1.846165,42.108933],[1.846207,42.108919],[1.846236,42.108912],[1.846282,42.108904],[1.846329,42.108898],[1.84638,42.108893],[1.846431,42.108889],[1.846478,42.108887],[1.846525,42.108886],[1.846561,42.10888],[1.846575,42.108875],[1.846628,42.108855],[1.846642,42.108845],[1.846658,42.108839],[1.846681,42.108829],[1.84679,42.108853],[1.847327,42.109059],[1.847375,42.10898],[1.846969,42.108846],[1.846912,42.108828],[1.846826,42.108799],[1.846811,42.1088],[1.846732,42.108796],[1.846696,42.108786],[1.846684,42.108768],[1.846695,42.108737],[1.846645,42.108698],[1.846464,42.108632],[1.846408,42.108602],[1.846337,42.108607],[1.846178,42.108615],[1.846145,42.108614],[1.846119,42.108613],[1.846112,42.108613],[1.846011,42.108609],[1.846028,42.10869],[1.846004,42.108711],[1.845977,42.108801],[1.84594,42.108925],[1.845903,42.108922],[1.84589,42.108921],[1.845826,42.108917],[1.845762,42.108916],[1.845719,42.108916],[1.845662,42.108917],[1.845604,42.108919],[1.845566,42.10892],[1.845547,42.10892],[1.845518,42.108919],[1.845498,42.108909],[1.845482,42.108887],[1.845476,42.10884],[1.845438,42.108564],[1.845433,42.108528],[1.845738,42.108174],[1.845751,42.108159],[1.845701,42.108118],[1.84563,42.10806],[1.845593,42.10803],[1.845551,42.108003],[1.845508,42.107981],[1.845464,42.10796],[1.845442,42.107948],[1.845436,42.107945],[1.845349,42.1079],[1.845311,42.107868],[1.845278,42.107825],[1.845289,42.107778],[1.845311,42.107732],[1.845434,42.107594],[1.845584,42.107449],[1.845595,42.107439],[1.845666,42.107372],[1.845687,42.107341],[1.845695,42.107313],[1.845882,42.107282],[1.845913,42.107334],[1.846085,42.107565],[1.846436,42.107749],[1.846647,42.107555],[1.846489,42.107481],[1.846452,42.107461],[1.846395,42.107444],[1.846326,42.107437],[1.846267,42.107439],[1.846218,42.107444],[1.846153,42.107464],[1.846133,42.107464],[1.846116,42.107456],[1.846085,42.107426],[1.84607,42.107402],[1.846053,42.107356],[1.846045,42.107303],[1.846061,42.107243],[1.846197,42.107195],[1.846142,42.107135],[1.846115,42.107144],[1.846063,42.107138],[1.846021,42.107124],[1.845946,42.107108],[1.845896,42.107113],[1.845813,42.107146],[1.845763,42.107154],[1.845698,42.107144],[1.845611,42.107122],[1.845578,42.107113],[1.845534,42.107099],[1.845433,42.107064],[1.845351,42.107035],[1.845314,42.107032],[1.845283,42.107042],[1.845227,42.10707],[1.845191,42.107087],[1.845161,42.107097],[1.845094,42.107102],[1.84504,42.107098],[1.844961,42.107119],[1.844896,42.107137],[1.84491,42.107198],[1.844821,42.107332],[1.84481,42.107349],[1.844863,42.107376],[1.844935,42.107418],[1.845005,42.107462],[1.845061,42.107499],[1.845078,42.107512],[1.845203,42.107656],[1.845258,42.10776],[1.845203,42.107873],[1.845157,42.107948],[1.845157,42.107948],[1.845131,42.10799],[1.845118,42.108011],[1.845073,42.108056],[1.845064,42.108076],[1.845031,42.108146],[1.844989,42.108183],[1.844949,42.108202],[1.844912,42.108209],[1.844766,42.108239],[1.84448,42.108318],[1.844492,42.108332],[1.844584,42.108436],[1.844659,42.10842],[1.844664,42.108417],[1.844918,42.108538],[1.845086,42.108638],[1.845026,42.108727],[1.845,42.108771],[1.845134,42.108814],[1.845246,42.108878],[1.84526,42.108931],[1.845284,42.108995],[1.845333,42.109064],[1.845504,42.109225],[1.845798,42.10937],[1.845981,42.109192],[1.84604,42.109144],[1.846036,42.109037]]]]}},{"type":"Feature","id":"080229_080229 AP09 BER 2","properties":{"area_id":"080229_080229 AP09 BER 2","nom":"el Tossalet","codi_icgc":"080229 AP09 BER 2","categoria":"Àrees de poblament","codi_municipi":"080229","municipi":"Berga","codi_comarca":"14","comarca":"Berguedà","provincia":"Barcelona","font":"ICGC Àrees de poblament v3r1 202602"},"geometry":{"type":"MultiPolygon","coordinates":[[[[1.849992,42.092663],[1.850114,42.09256],[1.850241,42.092593],[1.850246,42.092567],[1.850252,42.092538],[1.850268,42.092493],[1.850446,42.092439],[1.850846,42.092426],[1.851219,42.092434],[1.851301,42.092439],[1.851288,42.092311],[1.851266,42.09228],[1.851108,42.09225],[1.851044,42.092238],[1.850966,42.092172],[1.850804,42.09196],[1.850786,42.091936],[1.850738,42.091872],[1.850844,42.091841],[1.850885,42.091829],[1.85089,42.091821],[1.850897,42.09181],[1.850899,42.09181],[1.850982,42.091784],[1.851064,42.091752],[1.851144,42.091711],[1.851165,42.0917],[1.85126,42.091645],[1.851368,42.09158],[1.851421,42.091545],[1.851462,42.091514],[1.851499,42.09147],[1.85146,42.091445],[1.851303,42.091344],[1.851223,42.091162],[1.851301,42.091063],[1.85152,42.090984],[1.851737,42.090932],[1.851831,42.090949],[1.851878,42.090898],[1.851906,42.090867],[1.851977,42.090804],[1.852022,42.090752],[1.852042,42.09073],[1.851937,42.090689],[1.851896,42.090686],[1.851874,42.090665],[1.851844,42.090615],[1.851834,42.090599],[1.851821,42.090546],[1.851857,42.09052],[1.851914,42.090404],[1.851931,42.090339],[1.851952,42.090255],[1.851974,42.090183],[1.851988,42.090135],[1.852018,42.090046],[1.852007,42.089979],[1.851995,42.08995],[1.851985,42.089936],[1.851971,42.089924],[1.851961,42.089917],[1.851957,42.089914],[1.851956,42.089913],[1.851949,42.0899],[1.851934,42.089886],[1.851911,42.089878],[1.85188,42.089872],[1.851849,42.089871],[1.851805,42.089875],[1.851783,42.089879],[1.851761,42.089886],[1.851729,42.089901],[1.851688,42.089927],[1.85165,42.089955],[1.851593,42.090004],[1.851514,42.090082],[1.851423,42.090164],[1.851415,42.09017],[1.851408,42.090178],[1.851368,42.090225],[1.851332,42.090448],[1.851331,42.090449],[1.851286,42.090538],[1.851279,42.090553],[1.85112,42.090734],[1.85112,42.090754],[1.851114,42.090804],[1.851011,42.090839],[1.850743,42.090932],[1.850926,42.09119],[1.850932,42.091199],[1.850953,42.091222],[1.851106,42.091471],[1.851108,42.091476],[1.851222,42.091571],[1.851247,42.091592],[1.851247,42.091592],[1.851247,42.091592],[1.850918,42.09175],[1.850568,42.091853],[1.850538,42.091862],[1.850296,42.091932],[1.850054,42.092001],[1.850051,42.092002],[1.850016,42.091983],[1.84996,42.091952],[1.849903,42.09192],[1.849846,42.091889],[1.849761,42.091844],[1.849722,42.091823],[1.849718,42.09182],[1.849607,42.091764],[1.849482,42.091703],[1.849439,42.09168],[1.849397,42.091658],[1.849383,42.091646],[1.849372,42.09163],[1.849357,42.091593],[1.849347,42.091569],[1.849338,42.091545],[1.849575,42.091304],[1.849576,42.0913],[1.849462,42.091242],[1.849286,42.091152],[1.849234,42.091157],[1.84921,42.091172],[1.849083,42.091272],[1.849052,42.091296],[1.848891,42.091492],[1.849463,42.091725],[1.849587,42.091786],[1.849615,42.0918],[1.849615,42.0918],[1.849619,42.091802],[1.84971,42.091848],[1.849825,42.09191],[1.849882,42.091942],[1.849939,42.091973],[1.849996,42.092004],[1.850012,42.092012],[1.84941,42.092166],[1.849311,42.092193],[1.849187,42.092231],[1.849066,42.092275],[1.848948,42.092324],[1.848946,42.092324],[1.848903,42.092337],[1.848857,42.092345],[1.84881,42.092346],[1.848764,42.092342],[1.848757,42.092341],[1.848761,42.092325],[1.84877,42.092297],[1.848778,42.09227],[1.848787,42.092244],[1.848808,42.092206],[1.848835,42.092169],[1.848879,42.092115],[1.848923,42.09206],[1.848951,42.092026],[1.848978,42.091985],[1.848886,42.091949],[1.848757,42.091899],[1.848645,42.091987],[1.848378,42.092203],[1.848308,42.092184],[1.848206,42.092162],[1.848169,42.092156],[1.848078,42.092144],[1.847987,42.092137],[1.847896,42.092137],[1.847894,42.092137],[1.847882,42.092138],[1.847673,42.092172],[1.847602,42.092268],[1.847591,42.092292],[1.84759,42.092535],[1.8477,42.09256],[1.847815,42.092585],[1.848198,42.092659],[1.848515,42.092315],[1.848599,42.09236],[1.848639,42.092384],[1.848657,42.092396],[1.848676,42.092412],[1.848677,42.092412],[1.848812,42.092419],[1.849035,42.092375],[1.849114,42.09234],[1.849241,42.092289],[1.849305,42.092267],[1.84937,42.092245],[1.849404,42.092234],[1.849435,42.092224],[1.849461,42.092242],[1.849524,42.092284],[1.849559,42.092311],[1.849595,42.092338],[1.84964,42.092369],[1.849673,42.092388],[1.849629,42.092446],[1.849792,42.092697],[1.849992,42.092663]]],[[[1.850847,42.093583],[1.850936,42.093477],[1.850978,42.093481],[1.850985,42.093466],[1.850999,42.093447],[1.851023,42.09341],[1.851044,42.093373],[1.851053,42.093359],[1.851064,42.093342],[1.851075,42.093328],[1.851089,42.093316],[1.85109,42.093316],[1.851169,42.09327],[1.85125,42.093222],[1.851298,42.093193],[1.851344,42.093163],[1.851391,42.093126],[1.851413,42.093106],[1.851431,42.093084],[1.851476,42.093024],[1.851505,42.092985],[1.85152,42.092964],[1.851558,42.092914],[1.851595,42.092864],[1.851621,42.092832],[1.851646,42.092798],[1.851656,42.09278],[1.851662,42.092751],[1.851665,42.092724],[1.851668,42.092691],[1.851668,42.092678],[1.851683,42.09267],[1.851693,42.092664],[1.851724,42.092647],[1.851755,42.092629],[1.851777,42.092617],[1.851904,42.092795],[1.851931,42.092799],[1.851995,42.092764],[1.852042,42.092672],[1.852062,42.092642],[1.852065,42.092606],[1.852055,42.09258],[1.852002,42.092523],[1.851986,42.092491],[1.851989,42.092465],[1.851996,42.092446],[1.851977,42.092419],[1.851943,42.092382],[1.851889,42.092344],[1.851739,42.092308],[1.851734,42.092317],[1.851704,42.092446],[1.851682,42.09245],[1.85165,42.092462],[1.851624,42.092477],[1.851605,42.092489],[1.851589,42.092503],[1.85158,42.092517],[1.851581,42.092539],[1.851587,42.09256],[1.851605,42.092599],[1.851611,42.09261],[1.851621,42.09263],[1.851633,42.09266],[1.851634,42.09269],[1.851632,42.092722],[1.851629,42.092748],[1.851623,42.092773],[1.851616,42.092787],[1.851591,42.092819],[1.851566,42.092851],[1.851528,42.092902],[1.851491,42.092952],[1.85131,42.092887],[1.851163,42.092845],[1.851005,42.092828],[1.850584,42.092802],[1.850557,42.0928],[1.850548,42.0928],[1.850541,42.09285],[1.850532,42.092857],[1.85062,42.093014],[1.850438,42.093169],[1.850441,42.093186],[1.850453,42.093226],[1.850478,42.093245],[1.850552,42.093276],[1.850656,42.093274],[1.850762,42.093263],[1.850727,42.093358],[1.850702,42.093455],[1.850437,42.093736],[1.850654,42.093851],[1.850711,42.093815],[1.850828,42.093607],[1.850847,42.093583]]]]}},{"type":"Feature","id":"080229_080229 AP07 BER 2","properties":{"area_id":"080229_080229 AP07 BER 2","nom":"la Rasa de Cal Rasot","codi_icgc":"080229 AP07 BER 2","categoria":"Àrees de poblament","codi_municipi":"080229","municipi":"Berga","codi_comarca":"14","comarca":"Berguedà","provincia":"Barcelona","font":"ICGC Àrees de poblament v3r1 202602"},"geometry":{"type":"MultiPolygon","coordinates":[[[[1.835621,42.098201],[1.835777,42.098019],[1.835752,42.098009],[1.836005,42.097609],[1.836205,42.097659],[1.836261,42.09757],[1.836225,42.097554],[1.836286,42.097462],[1.836333,42.097335],[1.836306,42.097328],[1.83635,42.097289],[1.836425,42.097223],[1.836252,42.097144],[1.836289,42.097064],[1.836147,42.096983],[1.836003,42.097176],[1.835887,42.09733],[1.835869,42.097355],[1.835844,42.097388],[1.835794,42.097501],[1.83567,42.097782],[1.835613,42.097918],[1.83552,42.098001],[1.835488,42.09802],[1.835457,42.098054],[1.835435,42.098043],[1.83539,42.098103],[1.835621,42.098201]]]]}},{"type":"Feature","id":"080229_080229 AP10 BER 2","properties":{"area_id":"080229_080229 AP10 BER 2","nom":"la Valldan","codi_icgc":"080229 AP10 BER 2","categoria":"Àrees de poblament","codi_municipi":"080229","municipi":"Berga","codi_comarca":"14","comarca":"Berguedà","provincia":"Barcelona","font":"ICGC Àrees de poblament v3r1 202602"},"geometry":{"type":"MultiPolygon","coordinates":[[[[1.828048,42.092614],[1.828133,42.092507],[1.828086,42.092462],[1.827893,42.092379],[1.827787,42.092375],[1.827658,42.092429],[1.827401,42.092655],[1.827291,42.092582],[1.826911,42.092333],[1.826753,42.092212],[1.826706,42.092183],[1.826635,42.092194],[1.826622,42.092216],[1.826595,42.092284],[1.826568,42.092384],[1.826551,42.09242],[1.826505,42.092484],[1.826446,42.092566],[1.82643,42.092647],[1.826436,42.0927],[1.826455,42.092724],[1.826758,42.092939],[1.826948,42.093081],[1.827145,42.093246],[1.827502,42.093584],[1.82756,42.09365],[1.827556,42.093683],[1.827575,42.093755],[1.827605,42.093845],[1.827676,42.093887],[1.827915,42.093925],[1.828141,42.093823],[1.828224,42.093866],[1.82826,42.093881],[1.828284,42.093863],[1.828285,42.093828],[1.82827,42.093756],[1.828275,42.093696],[1.828361,42.093638],[1.828417,42.093624],[1.828477,42.093579],[1.828514,42.093517],[1.828516,42.093443],[1.828445,42.093344],[1.828222,42.0931],[1.828061,42.092949],[1.827927,42.092823],[1.827916,42.092763],[1.827941,42.092701],[1.82797,42.09266],[1.828048,42.092614]]]]}},{"type":"Feature","id":"080229_080229 AP04 BER 2","properties":{"area_id":"080229_080229 AP04 BER 2","nom":"les Cases Noves del Parany","codi_icgc":"080229 AP04 BER 2","categoria":"Àrees de poblament","codi_municipi":"080229","municipi":"Berga","codi_comarca":"14","comarca":"Berguedà","provincia":"Barcelona","font":"ICGC Àrees de poblament v3r1 202602"},"geometry":{"type":"MultiPolygon","coordinates":[[[[1.836441,42.098585],[1.836188,42.098534],[1.835942,42.098481],[1.835698,42.098422],[1.835643,42.098413],[1.835557,42.098395],[1.835604,42.09835],[1.835651,42.0983],[1.835128,42.098093],[1.835098,42.098131],[1.83509,42.098153],[1.835081,42.098182],[1.835033,42.098331],[1.835213,42.098358],[1.835236,42.098364],[1.835234,42.09841],[1.835233,42.098423],[1.835211,42.098481],[1.83518,42.098562],[1.835156,42.098557],[1.835118,42.098559],[1.835096,42.09855],[1.835089,42.09856],[1.835067,42.098594],[1.835151,42.098624],[1.835202,42.098655],[1.835505,42.098789],[1.835894,42.098949],[1.835887,42.098977],[1.835998,42.099002],[1.836293,42.099062],[1.836388,42.099076],[1.83677,42.099152],[1.836965,42.09919],[1.837069,42.09921],[1.837079,42.09921],[1.837123,42.09908],[1.837166,42.098951],[1.837169,42.098938],[1.837271,42.098874],[1.837301,42.09887],[1.837332,42.098768],[1.837277,42.098731],[1.837269,42.098726],[1.837238,42.098705],[1.836971,42.098674],[1.836956,42.098673],[1.836911,42.098669],[1.836902,42.098668],[1.836802,42.098654],[1.836793,42.098652],[1.836695,42.098633],[1.836441,42.098585]]]]}}]}