{"type":"FeatureCollection","name":"ICGC Àrees de poblament - Casserres","features":[{"type":"Feature","id":"080497_080497 SI04 BER 2","properties":{"area_id":"080497_080497 SI04 BER 2","nom":"Ametlla de Casserres","codi_icgc":"080497 SI04 BER 2","categoria":"Sector industrial","codi_municipi":"080497","municipi":"Casserres","codi_comarca":"14","comarca":"Berguedà","provincia":"Barcelona","font":"ICGC Àrees de poblament v3r1 202602"},"geometry":{"type":"MultiPolygon","coordinates":[[[[1.873095,42.045266],[1.873067,42.045255],[1.873019,42.045322],[1.872992,42.045311],[1.872923,42.045408],[1.872889,42.045395],[1.87288,42.045391],[1.87287,42.045405],[1.872857,42.045408],[1.872707,42.045624],[1.872499,42.045928],[1.872466,42.045974],[1.872457,42.045987],[1.872502,42.046005],[1.872486,42.046042],[1.872483,42.0462],[1.872463,42.046453],[1.872476,42.0466],[1.872499,42.046737],[1.872498,42.046745],[1.872502,42.046769],[1.872507,42.046781],[1.872521,42.046797],[1.872535,42.046813],[1.872545,42.046825],[1.872554,42.046838],[1.872556,42.046847],[1.872554,42.046857],[1.872547,42.046889],[1.872538,42.046922],[1.872528,42.04695],[1.872517,42.046979],[1.872512,42.047009],[1.872513,42.047021],[1.87255,42.047077],[1.872603,42.047091],[1.872624,42.047097],[1.872774,42.047129],[1.87293,42.046913],[1.872954,42.046868],[1.873241,42.046319],[1.873301,42.046312],[1.873848,42.045279],[1.873629,42.045207],[1.873473,42.045408],[1.873095,42.045266]]]]}},{"type":"Feature","id":"080497_080497 AP01 BER 3","properties":{"area_id":"080497_080497 AP01 BER 3","nom":"Casserres","codi_icgc":"080497 AP01 BER 3","categoria":"Àrees de poblament","codi_municipi":"080497","municipi":"Casserres","codi_comarca":"14","comarca":"Berguedà","provincia":"Barcelona","font":"ICGC Àrees de poblament v3r1 202602"},"geometry":{"type":"MultiPolygon","coordinates":[[[[1.84671,42.010187],[1.846651,42.010143],[1.846602,42.010091],[1.846567,42.010051],[1.846524,42.010012],[1.84648,42.009973],[1.846453,42.009951],[1.846355,42.009895],[1.84634,42.00989],[1.846243,42.009869],[1.84608,42.009787],[1.845866,42.00967],[1.845643,42.009916],[1.846253,42.010267],[1.846269,42.010261],[1.846313,42.010249],[1.846605,42.010153],[1.846652,42.010196],[1.846717,42.010225],[1.846907,42.01031],[1.846901,42.010322],[1.846892,42.010366],[1.846884,42.010409],[1.84687,42.010454],[1.846852,42.010498],[1.846841,42.010513],[1.846827,42.010527],[1.846793,42.010552],[1.846757,42.010573],[1.846719,42.010591],[1.846691,42.0106],[1.846591,42.010627],[1.846491,42.010653],[1.846424,42.010672],[1.846409,42.010676],[1.846376,42.010683],[1.846352,42.010683],[1.84633,42.010677],[1.846311,42.010667],[1.846292,42.010606],[1.846233,42.010563],[1.846195,42.010523],[1.846135,42.010506],[1.846065,42.010511],[1.846048,42.010498],[1.845868,42.010527],[1.845728,42.010536],[1.845579,42.010545],[1.845398,42.010568],[1.84544,42.010636],[1.845222,42.010638],[1.845141,42.010641],[1.845129,42.010751],[1.845105,42.010791],[1.845058,42.010805],[1.844926,42.010854],[1.844712,42.010932],[1.844445,42.011039],[1.844352,42.011081],[1.844319,42.011098],[1.844159,42.011178],[1.844123,42.011196],[1.84401,42.011077],[1.843993,42.011072],[1.843926,42.011055],[1.843254,42.011392],[1.843244,42.011397],[1.843147,42.011445],[1.843049,42.011492],[1.842986,42.011524],[1.842886,42.011571],[1.842844,42.011588],[1.842641,42.01166],[1.842423,42.011336],[1.842408,42.011313],[1.84232,42.011359],[1.840763,42.01207],[1.840719,42.01209],[1.840707,42.012076],[1.840637,42.012111],[1.840541,42.012159],[1.840255,42.012295],[1.840144,42.012353],[1.840091,42.012377],[1.840068,42.01235],[1.840075,42.012347],[1.840041,42.012244],[1.839976,42.01216],[1.840057,42.012112],[1.840029,42.012075],[1.839951,42.011973],[1.839949,42.01197],[1.840021,42.011934],[1.839933,42.011836],[1.839919,42.011829],[1.839879,42.011784],[1.839804,42.011507],[1.839759,42.01144],[1.839783,42.011431],[1.839781,42.011421],[1.839814,42.011405],[1.839855,42.011385],[1.839833,42.011361],[1.839828,42.011364],[1.839711,42.011232],[1.839839,42.011034],[1.839867,42.010991],[1.839841,42.010976],[1.83984,42.010976],[1.839801,42.010996],[1.839736,42.010932],[1.839834,42.010892],[1.839828,42.010872],[1.83959,42.010789],[1.83954,42.010772],[1.839507,42.010758],[1.839462,42.010739],[1.83924,42.010891],[1.839189,42.010926],[1.839231,42.011037],[1.839102,42.011168],[1.838996,42.0112],[1.838967,42.011191],[1.838863,42.011097],[1.838632,42.011235],[1.838647,42.011253],[1.838513,42.011316],[1.838503,42.011317],[1.838491,42.011316],[1.838479,42.011314],[1.83847,42.01131],[1.838454,42.011295],[1.83844,42.01128],[1.838292,42.011116],[1.83827,42.01109],[1.838268,42.011091],[1.838269,42.011089],[1.838388,42.010959],[1.83848,42.010859],[1.838495,42.010814],[1.838479,42.010779],[1.838356,42.010693],[1.838531,42.010451],[1.83829,42.010336],[1.838251,42.010317],[1.838055,42.010223],[1.838136,42.010126],[1.838067,42.009958],[1.83796,42.009889],[1.837805,42.00984],[1.837758,42.009825],[1.837718,42.009843],[1.837694,42.009859],[1.837674,42.009878],[1.837658,42.009897],[1.837617,42.009965],[1.837543,42.010088],[1.837515,42.010109],[1.837494,42.010118],[1.837469,42.010124],[1.837443,42.010128],[1.837416,42.01013],[1.837338,42.01014],[1.837226,42.010154],[1.837143,42.010174],[1.837273,42.010292],[1.837411,42.010388],[1.837442,42.010419],[1.837649,42.010545],[1.837718,42.010566],[1.837933,42.010776],[1.83789,42.010809],[1.837833,42.010853],[1.837815,42.010853],[1.837371,42.010855],[1.837463,42.011078],[1.837629,42.01126],[1.837633,42.011265],[1.837664,42.011298],[1.837687,42.011324],[1.837885,42.01154],[1.838082,42.011732],[1.838171,42.011815],[1.838296,42.011952],[1.838288,42.01197],[1.838701,42.012421],[1.838641,42.01245],[1.838585,42.012477],[1.838407,42.012563],[1.838374,42.012577],[1.838139,42.012672],[1.838107,42.012687],[1.837646,42.012898],[1.837562,42.012937],[1.837519,42.012956],[1.83731,42.012732],[1.837111,42.012828],[1.836945,42.012898],[1.837145,42.013134],[1.837083,42.013165],[1.837069,42.013173],[1.837057,42.013179],[1.836998,42.013216],[1.836924,42.013247],[1.836878,42.013264],[1.836859,42.01327],[1.836831,42.013279],[1.836798,42.013287],[1.836765,42.013292],[1.836747,42.013293],[1.836728,42.013294],[1.836678,42.013285],[1.836663,42.013284],[1.836372,42.012949],[1.836225,42.012925],[1.836191,42.01292],[1.836129,42.012914],[1.835952,42.012933],[1.835955,42.012949],[1.83597,42.013021],[1.835977,42.013059],[1.835834,42.013074],[1.835817,42.013076],[1.835833,42.013374],[1.835514,42.013427],[1.83548,42.013302],[1.835469,42.01327],[1.83555,42.013252],[1.835443,42.013116],[1.835414,42.013119],[1.835405,42.01312],[1.83533,42.013149],[1.835279,42.013167],[1.83525,42.013178],[1.835128,42.013224],[1.83515,42.013315],[1.835155,42.013336],[1.835187,42.013468],[1.835111,42.013477],[1.835102,42.013478],[1.835049,42.013486],[1.834452,42.013576],[1.834349,42.013564],[1.834125,42.013588],[1.834004,42.013598],[1.833975,42.013586],[1.833969,42.013567],[1.833969,42.013545],[1.833949,42.013452],[1.833928,42.013393],[1.833853,42.013296],[1.833781,42.013217],[1.833655,42.013116],[1.833557,42.013053],[1.833449,42.012999],[1.83337,42.012948],[1.833279,42.012888],[1.833127,42.012808],[1.832844,42.012731],[1.832092,42.012607],[1.831544,42.01252],[1.831428,42.01291],[1.831353,42.013191],[1.831377,42.013236],[1.831409,42.013256],[1.831495,42.01328],[1.833546,42.013606],[1.833666,42.013679],[1.833856,42.013724],[1.834009,42.013728],[1.83438,42.013713],[1.834407,42.013768],[1.834441,42.013776],[1.834473,42.013939],[1.834504,42.013938],[1.834611,42.013923],[1.834708,42.01394],[1.835313,42.01385],[1.835646,42.013799],[1.835679,42.013932],[1.835695,42.013936],[1.835837,42.013919],[1.835845,42.01394],[1.835858,42.01397],[1.835867,42.01399],[1.83592,42.013984],[1.836125,42.01396],[1.836143,42.014052],[1.836153,42.01405],[1.836163,42.014085],[1.836384,42.014058],[1.836369,42.014007],[1.836354,42.013952],[1.836463,42.013981],[1.836465,42.013978],[1.836474,42.013974],[1.836482,42.013973],[1.836491,42.013973],[1.836498,42.013975],[1.836904,42.014077],[1.836889,42.014097],[1.836849,42.014162],[1.836895,42.014174],[1.83741,42.0143],[1.837448,42.014308],[1.837489,42.014241],[1.837552,42.014121],[1.837557,42.014111],[1.837589,42.01407],[1.837601,42.014013],[1.837678,42.013939],[1.837698,42.013936],[1.837781,42.013912],[1.837784,42.01389],[1.838006,42.013888],[1.838399,42.013883],[1.83842,42.013883],[1.838509,42.013851],[1.838569,42.013834],[1.838613,42.013809],[1.838652,42.013812],[1.838703,42.013817],[1.838802,42.013853],[1.838832,42.013862],[1.838839,42.013865],[1.838819,42.013903],[1.838864,42.013915],[1.838839,42.013998],[1.838836,42.01401],[1.838822,42.014076],[1.838974,42.014111],[1.839063,42.014079],[1.839102,42.014091],[1.839369,42.01423],[1.839537,42.014264],[1.839567,42.014205],[1.839685,42.014222],[1.839751,42.01419],[1.839824,42.014184],[1.839847,42.014182],[1.839856,42.014168],[1.839873,42.014169],[1.840028,42.014186],[1.840097,42.014197],[1.840125,42.014201],[1.840118,42.014228],[1.840096,42.014312],[1.840217,42.014332],[1.840242,42.014249],[1.840417,42.014266],[1.840423,42.014242],[1.840479,42.014248],[1.840734,42.014325],[1.840728,42.01435],[1.840789,42.014395],[1.840671,42.014478],[1.840684,42.0145],[1.840674,42.014508],[1.840699,42.014559],[1.840713,42.014578],[1.840732,42.014627],[1.840741,42.014626],[1.840742,42.014673],[1.840745,42.014745],[1.840749,42.014869],[1.840725,42.014868],[1.840701,42.01497],[1.840668,42.015068],[1.84066,42.015088],[1.84079,42.01522],[1.84085,42.015193],[1.840823,42.015121],[1.840869,42.015159],[1.840876,42.015156],[1.840909,42.015195],[1.841324,42.015048],[1.84138,42.015001],[1.841463,42.015042],[1.84156,42.014952],[1.841668,42.014982],[1.841731,42.014899],[1.841667,42.014881],[1.841594,42.014859],[1.841599,42.014852],[1.841446,42.014813],[1.841472,42.014776],[1.84159,42.014513],[1.841599,42.014513],[1.841728,42.014506],[1.841825,42.014518],[1.841812,42.014578],[1.842002,42.0146],[1.842007,42.014684],[1.842223,42.014677],[1.842199,42.014593],[1.842193,42.014547],[1.842172,42.014395],[1.84313,42.01462],[1.843175,42.014574],[1.843224,42.014524],[1.843228,42.01452],[1.843246,42.014383],[1.843273,42.01424],[1.843196,42.014096],[1.843143,42.013917],[1.843097,42.013827],[1.842632,42.013819],[1.842653,42.013774],[1.842629,42.013759],[1.842683,42.01365],[1.842715,42.01364],[1.842955,42.013448],[1.84298,42.013381],[1.843014,42.013321],[1.843051,42.013321],[1.843117,42.01338],[1.843142,42.013403],[1.843239,42.013346],[1.843245,42.013341],[1.843236,42.013284],[1.84327,42.013267],[1.843288,42.013257],[1.84342,42.013197],[1.84345,42.013183],[1.843581,42.013128],[1.84373,42.013062],[1.843731,42.013062],[1.843858,42.013051],[1.843914,42.013046],[1.843933,42.013045],[1.843998,42.01312],[1.844061,42.013204],[1.844104,42.013251],[1.844145,42.013297],[1.844158,42.013315],[1.844242,42.013379],[1.844274,42.013404],[1.844108,42.013495],[1.844074,42.013514],[1.844086,42.013528],[1.844182,42.013632],[1.844213,42.013666],[1.844274,42.013637],[1.844355,42.013602],[1.84455,42.013504],[1.844389,42.013362],[1.84444,42.013338],[1.844475,42.013318],[1.844505,42.013293],[1.844515,42.013281],[1.844556,42.013219],[1.844564,42.013207],[1.844597,42.013168],[1.844652,42.013094],[1.844708,42.013016],[1.844762,42.012938],[1.844818,42.012857],[1.844874,42.012775],[1.844911,42.012712],[1.844937,42.012656],[1.844954,42.01263],[1.844955,42.012613],[1.844951,42.012599],[1.84495,42.012585],[1.844975,42.01258],[1.84501,42.012574],[1.845056,42.012568],[1.845084,42.012566],[1.845107,42.012561],[1.845169,42.012553],[1.845163,42.012519],[1.845328,42.012468],[1.845449,42.01242],[1.845464,42.012414],[1.845565,42.012375],[1.845578,42.012335],[1.845623,42.012339],[1.845682,42.012342],[1.84577,42.01234],[1.845858,42.01233],[1.845973,42.012312],[1.846087,42.012293],[1.846175,42.012278],[1.846263,42.012263],[1.846339,42.012283],[1.846418,42.012352],[1.846417,42.012395],[1.846608,42.012431],[1.846741,42.012361],[1.846757,42.01236],[1.846768,42.012325],[1.846724,42.012223],[1.846708,42.01221],[1.846669,42.012047],[1.846579,42.012034],[1.84661,42.011975],[1.846641,42.011916],[1.846654,42.011899],[1.846684,42.011872],[1.846712,42.011855],[1.846806,42.011812],[1.846906,42.011767],[1.847056,42.011705],[1.847212,42.011649],[1.847279,42.01163],[1.847302,42.011624],[1.847338,42.011615],[1.847362,42.011614],[1.847367,42.011615],[1.847358,42.011558],[1.847356,42.011539],[1.847366,42.011536],[1.847374,42.011533],[1.847487,42.011495],[1.847488,42.011494],[1.847496,42.011688],[1.847469,42.011827],[1.847502,42.011885],[1.847596,42.011936],[1.847692,42.011944],[1.847942,42.011889],[1.848105,42.011818],[1.848104,42.011694],[1.848145,42.011657],[1.848334,42.011572],[1.84836,42.011579],[1.848643,42.011726],[1.848655,42.011725],[1.849298,42.01166],[1.849408,42.011436],[1.849518,42.01119],[1.848505,42.011277],[1.848434,42.011208],[1.848296,42.011146],[1.848206,42.011106],[1.848289,42.011017],[1.849076,42.010664],[1.849403,42.010477],[1.849528,42.010426],[1.849535,42.010423],[1.849572,42.010408],[1.849625,42.010386],[1.849635,42.010393],[1.850102,42.010644],[1.850226,42.010731],[1.850579,42.010579],[1.850703,42.010531],[1.85071,42.010523],[1.850735,42.01049],[1.850742,42.010481],[1.850771,42.010444],[1.850786,42.010425],[1.850813,42.01039],[1.850845,42.010349],[1.85093,42.010184],[1.850969,42.01019],[1.850976,42.010181],[1.850984,42.010165],[1.851103,42.009943],[1.851134,42.009885],[1.851136,42.009883],[1.85114,42.009883],[1.851156,42.009886],[1.851184,42.009821],[1.851124,42.00979],[1.851198,42.009543],[1.85102,42.009466],[1.85095,42.009498],[1.850918,42.009512],[1.850857,42.009431],[1.850849,42.009421],[1.85071,42.00924],[1.850602,42.009221],[1.849814,42.009553],[1.849367,42.009743],[1.849382,42.009757],[1.849191,42.00984],[1.849117,42.009868],[1.849039,42.0099],[1.849033,42.009903],[1.849021,42.009908],[1.849018,42.00991],[1.849005,42.009915],[1.848929,42.009949],[1.848654,42.01007],[1.848428,42.010154],[1.848423,42.010157],[1.848417,42.010159],[1.848419,42.010186],[1.848353,42.010175],[1.848348,42.010175],[1.848062,42.010293],[1.847937,42.010345],[1.847637,42.01047],[1.847619,42.010478],[1.847688,42.010341],[1.847556,42.010297],[1.847571,42.010208],[1.847473,42.010232],[1.847403,42.010239],[1.847371,42.010242],[1.847347,42.010256],[1.847304,42.010237],[1.84721,42.010215],[1.847157,42.010201],[1.847101,42.010201],[1.847032,42.010216],[1.846952,42.010246],[1.846902,42.010257],[1.846873,42.01026],[1.846825,42.010248],[1.84671,42.010187]]]]}},{"type":"Feature","id":"080497_080497 AP02 BER 2","properties":{"area_id":"080497_080497 AP02 BER 2","nom":"Fonogedell","codi_icgc":"080497 AP02 BER 2","categoria":"Àrees de poblament","codi_municipi":"080497","municipi":"Casserres","codi_comarca":"14","comarca":"Berguedà","provincia":"Barcelona","font":"ICGC Àrees de poblament v3r1 202602"},"geometry":{"type":"MultiPolygon","coordinates":[[[[1.815278,41.988787],[1.81486,41.989133],[1.814676,41.989224],[1.814514,41.989187],[1.814319,41.989363],[1.814038,41.989518],[1.813711,41.989586],[1.813766,41.989758],[1.813522,41.989984],[1.813731,41.990079],[1.813953,41.99001],[1.814068,41.989976],[1.814213,41.989927],[1.814378,41.989786],[1.814593,41.989595],[1.814682,41.989424],[1.814825,41.989469],[1.814962,41.989327],[1.814896,41.989255],[1.815081,41.9891],[1.815293,41.989059],[1.815495,41.989018],[1.81561,41.989005],[1.815725,41.98897],[1.815831,41.988936],[1.8159,41.988879],[1.815949,41.988815],[1.816007,41.988752],[1.816132,41.988724],[1.816428,41.988306],[1.81645,41.988142],[1.81646,41.988099],[1.816623,41.9881],[1.816636,41.9879],[1.816302,41.987875],[1.816241,41.988032],[1.816192,41.988075],[1.816077,41.988073],[1.815934,41.988084],[1.815597,41.988669],[1.815336,41.988766],[1.815287,41.988772],[1.815278,41.988787]]]]}},{"type":"Feature","id":"080497_080497 AP09 BER 2","properties":{"area_id":"080497_080497 AP09 BER 2","nom":"Fonollet","codi_icgc":"080497 AP09 BER 2","categoria":"Àrees de poblament","codi_municipi":"080497","municipi":"Casserres","codi_comarca":"14","comarca":"Berguedà","provincia":"Barcelona","font":"ICGC Àrees de poblament v3r1 202602"},"geometry":{"type":"MultiPolygon","coordinates":[[[[1.831372,42.001929],[1.8314,42.001923],[1.831419,42.001923],[1.831484,42.00193],[1.831492,42.001931],[1.831478,42.001883],[1.831447,42.001779],[1.831389,42.001588],[1.831382,42.001563],[1.831331,42.001562],[1.831312,42.001561],[1.831261,42.00156],[1.831251,42.001563],[1.831242,42.001563],[1.831196,42.001568],[1.831151,42.001577],[1.83106,42.001607],[1.83098,42.001633],[1.830969,42.001637],[1.830906,42.001659],[1.830841,42.00168],[1.830817,42.001683],[1.830802,42.001708],[1.830793,42.001722],[1.83077,42.001783],[1.830724,42.001949],[1.830542,42.002],[1.830589,42.002084],[1.830723,42.002272],[1.830717,42.002385],[1.830589,42.00243],[1.830614,42.002576],[1.830616,42.002587],[1.83119,42.002443],[1.831241,42.00243],[1.8313,42.002415],[1.831297,42.002403],[1.831289,42.002335],[1.831287,42.002266],[1.831287,42.002169],[1.831289,42.002072],[1.831293,42.002025],[1.831301,42.001981],[1.831306,42.001971],[1.831315,42.001961],[1.831343,42.001941],[1.831372,42.001929]]]]}},{"type":"Feature","id":"080497_080497 SI03 BER 2","properties":{"area_id":"080497_080497 SI03 BER 2","nom":"Santa Maria","codi_icgc":"080497 SI03 BER 2","categoria":"Sector industrial","codi_municipi":"080497","municipi":"Casserres","codi_comarca":"14","comarca":"Berguedà","provincia":"Barcelona","font":"ICGC Àrees de poblament v3r1 202602"},"geometry":{"type":"MultiPolygon","coordinates":[[[[1.845294,42.013837],[1.845596,42.013628],[1.845585,42.013535],[1.845485,42.013371],[1.845209,42.013594],[1.845198,42.013608],[1.845018,42.013786],[1.844998,42.013794],[1.844961,42.013784],[1.844923,42.013763],[1.84487,42.013738],[1.844842,42.013757],[1.844773,42.013814],[1.844786,42.013837],[1.844799,42.013857],[1.844841,42.013916],[1.844892,42.013973],[1.84495,42.014026],[1.84495,42.014026],[1.844963,42.01402],[1.844975,42.014014],[1.844983,42.01401],[1.845195,42.013902],[1.845241,42.013873],[1.845294,42.013837]]],[[[1.84592,42.01395],[1.845834,42.013798],[1.84557,42.013903],[1.84533,42.014006],[1.845165,42.014127],[1.845112,42.014167],[1.845174,42.014231],[1.845191,42.014359],[1.845281,42.014379],[1.845473,42.014318],[1.845575,42.014253],[1.845762,42.014133],[1.845883,42.014054],[1.845897,42.014015],[1.84592,42.01395]]],[[[1.844204,42.015423],[1.844394,42.015287],[1.844276,42.015163],[1.844413,42.014738],[1.844645,42.014761],[1.844677,42.014764],[1.84477,42.014757],[1.844823,42.014741],[1.84486,42.014724],[1.844905,42.014702],[1.845009,42.014591],[1.844713,42.01445],[1.844491,42.014362],[1.844143,42.014324],[1.844142,42.014325],[1.844014,42.014661],[1.844051,42.014666],[1.844094,42.014673],[1.843883,42.015388],[1.844042,42.015418],[1.844106,42.015388],[1.844204,42.015423]]]]}},{"type":"Feature","id":"080497_080497 SI01 BER 2","properties":{"area_id":"080497_080497 SI01 BER 2","nom":"Zona Sud","codi_icgc":"080497 SI01 BER 2","categoria":"Sector industrial","codi_municipi":"080497","municipi":"Casserres","codi_comarca":"14","comarca":"Berguedà","provincia":"Barcelona","font":"ICGC Àrees de poblament v3r1 202602"},"geometry":{"type":"MultiPolygon","coordinates":[[[[1.849869,42.006966],[1.849848,42.006964],[1.849828,42.006967],[1.849803,42.006977],[1.849783,42.006985],[1.849728,42.007014],[1.849679,42.007047],[1.84955,42.007148],[1.849422,42.007248],[1.849306,42.007338],[1.849246,42.00738],[1.849182,42.007419],[1.849075,42.007473],[1.848965,42.007527],[1.848907,42.007558],[1.848878,42.007572],[1.848849,42.007584],[1.848793,42.007602],[1.84874,42.007633],[1.84876,42.007662],[1.848808,42.007771],[1.848794,42.007852],[1.848782,42.007962],[1.84881,42.008058],[1.848804,42.008069],[1.848801,42.008084],[1.848801,42.008104],[1.848807,42.008122],[1.848816,42.008143],[1.848827,42.008166],[1.848863,42.008213],[1.848878,42.00823],[1.848905,42.008258],[1.848914,42.008264],[1.848922,42.008271],[1.848975,42.008308],[1.849032,42.008344],[1.849057,42.008353],[1.849083,42.008359],[1.849136,42.008363],[1.849176,42.008361],[1.849216,42.008354],[1.849243,42.008345],[1.849288,42.008322],[1.849379,42.008255],[1.849897,42.007942],[1.850236,42.007749],[1.850574,42.00759],[1.850676,42.00754],[1.850504,42.007386],[1.850136,42.007098],[1.849988,42.007044],[1.849941,42.007001],[1.849921,42.006986],[1.849901,42.006976],[1.849869,42.006966]]]]}},{"type":"Feature","id":"080497_080497 AP06 BER 2","properties":{"area_id":"080497_080497 AP06 BER 2","nom":"el Camí de Fonollet","codi_icgc":"080497 AP06 BER 2","categoria":"Àrees de poblament","codi_municipi":"080497","municipi":"Casserres","codi_comarca":"14","comarca":"Berguedà","provincia":"Barcelona","font":"ICGC Àrees de poblament v3r1 202602"},"geometry":{"type":"MultiPolygon","coordinates":[[[[1.840149,42.007455],[1.839932,42.006833],[1.839664,42.006879],[1.839636,42.006884],[1.839639,42.006902],[1.839648,42.006963],[1.839661,42.007032],[1.839673,42.007101],[1.839683,42.007165],[1.839694,42.00723],[1.839713,42.007308],[1.839732,42.007385],[1.83974,42.007442],[1.839743,42.007499],[1.839742,42.007541],[1.839742,42.007584],[1.839745,42.007613],[1.839773,42.007673],[1.839805,42.007729],[1.839834,42.007782],[1.839863,42.007834],[1.8399,42.007896],[1.839937,42.007958],[1.83997,42.008009],[1.839991,42.007994],[1.84038,42.007728],[1.840515,42.007635],[1.840373,42.007472],[1.840149,42.007455]]],[[[1.842473,42.010322],[1.842562,42.010298],[1.842666,42.010269],[1.842659,42.010096],[1.842893,42.009938],[1.842839,42.009876],[1.842822,42.009861],[1.842797,42.009838],[1.84274,42.009831],[1.842585,42.009814],[1.842524,42.009813],[1.842524,42.00981],[1.842516,42.00981],[1.84249,42.00981],[1.842461,42.00981],[1.842457,42.009897],[1.842452,42.009989],[1.84244,42.010056],[1.842418,42.010122],[1.842407,42.010148],[1.842401,42.010158],[1.842389,42.010168],[1.842371,42.010179],[1.84235,42.010185],[1.842338,42.010188],[1.842278,42.01019],[1.842274,42.010191],[1.842236,42.010188],[1.84221,42.010184],[1.842169,42.010172],[1.842129,42.01016],[1.842087,42.010143],[1.842047,42.010123],[1.841966,42.010079],[1.841933,42.010064],[1.841907,42.010053],[1.841862,42.010037],[1.841967,42.009932],[1.841967,42.009903],[1.841929,42.009871],[1.841851,42.009804],[1.8418,42.00976],[1.841623,42.009604],[1.841486,42.009764],[1.841461,42.009741],[1.841434,42.009716],[1.84129,42.009644],[1.840909,42.009453],[1.840771,42.009317],[1.840746,42.009296],[1.840711,42.009233],[1.840697,42.009114],[1.840668,42.009061],[1.840644,42.009028],[1.840688,42.009013],[1.840882,42.008875],[1.84089,42.00882],[1.840885,42.008704],[1.840901,42.008647],[1.840862,42.008624],[1.840935,42.008573],[1.840567,42.008335],[1.840338,42.008196],[1.840332,42.008198],[1.840322,42.008202],[1.84025,42.008257],[1.840214,42.008283],[1.840198,42.008297],[1.840164,42.008313],[1.84019,42.008352],[1.840308,42.008571],[1.84034,42.008644],[1.840427,42.008804],[1.840425,42.008852],[1.840413,42.008901],[1.84041,42.008908],[1.840289,42.008878],[1.840192,42.009094],[1.84016,42.009167],[1.840146,42.0092],[1.840181,42.009234],[1.840386,42.009287],[1.840366,42.009412],[1.840455,42.009498],[1.840466,42.009511],[1.840539,42.009585],[1.840542,42.009587],[1.840546,42.009589],[1.840556,42.009598],[1.840541,42.009619],[1.840598,42.009652],[1.840733,42.009714],[1.840869,42.009773],[1.840981,42.00982],[1.841094,42.009868],[1.841116,42.009878],[1.841127,42.009882],[1.841169,42.009901],[1.841219,42.009927],[1.841231,42.009935],[1.841243,42.009942],[1.84114,42.010024],[1.841134,42.010036],[1.841141,42.010053],[1.841171,42.01013],[1.841214,42.010182],[1.841221,42.010189],[1.841302,42.010234],[1.84135,42.010246],[1.841418,42.010241],[1.841533,42.010285],[1.84159,42.010307],[1.841647,42.010336],[1.841689,42.010371],[1.84182,42.010342],[1.841917,42.010318],[1.841937,42.010315],[1.842017,42.010333],[1.842222,42.010618],[1.842474,42.010531],[1.8425,42.010522],[1.842459,42.010463],[1.842491,42.010451],[1.842473,42.010322]]]]}},{"type":"Feature","id":"080497_080497 AP07 BER 2","properties":{"area_id":"080497_080497 AP07 BER 2","nom":"el Camí de Madrona","codi_icgc":"080497 AP07 BER 2","categoria":"Àrees de poblament","codi_municipi":"080497","municipi":"Casserres","codi_comarca":"14","comarca":"Berguedà","provincia":"Barcelona","font":"ICGC Àrees de poblament v3r1 202602"},"geometry":{"type":"MultiPolygon","coordinates":[[[[1.843343,42.008781],[1.843339,42.008745],[1.843311,42.008705],[1.843264,42.00867],[1.843006,42.008635],[1.84298,42.008634],[1.842968,42.008632],[1.842962,42.008637],[1.842959,42.008644],[1.842907,42.008769],[1.842878,42.008772],[1.842859,42.00876],[1.842836,42.008744],[1.842804,42.008721],[1.842672,42.008629],[1.842561,42.008572],[1.842453,42.008485],[1.842376,42.008467],[1.842159,42.008829],[1.842561,42.008908],[1.842739,42.008959],[1.842746,42.008961],[1.842759,42.008965],[1.842789,42.008974],[1.842745,42.009077],[1.842654,42.009283],[1.842635,42.009326],[1.842616,42.009368],[1.842578,42.009434],[1.842725,42.009448],[1.842832,42.009458],[1.8429,42.009321],[1.842911,42.0093],[1.84292,42.009296],[1.842923,42.009293],[1.842973,42.009243],[1.843042,42.009136],[1.843132,42.009048],[1.843214,42.008991],[1.843243,42.008976],[1.843288,42.008957],[1.8433,42.008953],[1.843352,42.00882],[1.843343,42.008781]]]]}},{"type":"Feature","id":"080497_080497 AP08 BER 2","properties":{"area_id":"080497_080497 AP08 BER 2","nom":"el Camí de Vilanova","codi_icgc":"080497 AP08 BER 2","categoria":"Àrees de poblament","codi_municipi":"080497","municipi":"Casserres","codi_comarca":"14","comarca":"Berguedà","provincia":"Barcelona","font":"ICGC Àrees de poblament v3r1 202602"},"geometry":{"type":"MultiPolygon","coordinates":[[[[1.846486,42.014989],[1.846445,42.014882],[1.846384,42.014788],[1.846348,42.014705],[1.846117,42.014714],[1.846042,42.014903],[1.845935,42.014946],[1.845876,42.014958],[1.845801,42.014973],[1.845606,42.014938],[1.845485,42.014839],[1.845329,42.014663],[1.845414,42.014605],[1.845432,42.014592],[1.845486,42.014561],[1.845569,42.014524],[1.845664,42.014479],[1.845755,42.014429],[1.845858,42.014374],[1.845951,42.014332],[1.84605,42.014323],[1.846138,42.014317],[1.846155,42.014311],[1.846548,42.014359],[1.84661,42.014201],[1.846758,42.014177],[1.846765,42.014107],[1.846804,42.014085],[1.846832,42.01406],[1.846861,42.014036],[1.846887,42.014024],[1.846902,42.014023],[1.84693,42.014019],[1.846881,42.013901],[1.84722,42.013872],[1.847292,42.013911],[1.847317,42.013969],[1.847457,42.014014],[1.847404,42.014153],[1.847536,42.014174],[1.847662,42.01414],[1.847713,42.013944],[1.847504,42.013824],[1.847241,42.013824],[1.84686,42.013849],[1.846759,42.013861],[1.846689,42.01388],[1.84666,42.013889],[1.846331,42.013997],[1.846301,42.014007],[1.84612,42.01405],[1.846074,42.014058],[1.845949,42.01408],[1.84582,42.014158],[1.845677,42.014247],[1.845622,42.014281],[1.845462,42.014347],[1.845267,42.014413],[1.845169,42.014386],[1.845154,42.014395],[1.84512,42.014406],[1.845097,42.014409],[1.845026,42.014412],[1.844955,42.014407],[1.844909,42.014399],[1.844873,42.01439],[1.844807,42.014467],[1.845209,42.014645],[1.845391,42.014783],[1.845454,42.014849],[1.845465,42.014859],[1.845474,42.01488],[1.845504,42.014954],[1.845533,42.015028],[1.845551,42.015079],[1.845566,42.015126],[1.84558,42.015169],[1.845598,42.015239],[1.845615,42.015309],[1.845639,42.015321],[1.845699,42.015444],[1.845771,42.01559],[1.845867,42.015886],[1.846144,42.01586],[1.846198,42.015534],[1.84636,42.015356],[1.846391,42.015318],[1.846419,42.015285],[1.84647,42.015075],[1.846486,42.014989]]]]}},{"type":"Feature","id":"080497_080497 AP04 BER 3","properties":{"area_id":"080497_080497 AP04 BER 3","nom":"el Guixaró","codi_icgc":"080497 AP04 BER 3","categoria":"Àrees de poblament","codi_municipi":"080497","municipi":"Casserres","codi_comarca":"14","comarca":"Berguedà","provincia":"Barcelona","font":"ICGC Àrees de poblament v3r1 202602"},"geometry":{"type":"MultiPolygon","coordinates":[[[[1.88664,41.994761],[1.886576,41.994674],[1.88644,41.994714],[1.886336,41.994579],[1.886291,41.994499],[1.886273,41.994468],[1.886205,41.994438],[1.886025,41.99422],[1.886023,41.99422],[1.886005,41.994221],[1.885915,41.994113],[1.885779,41.994124],[1.885723,41.994171],[1.885751,41.994345],[1.885843,41.994931],[1.885836,41.995081],[1.885806,41.995166],[1.885792,41.99525],[1.885798,41.995341],[1.885881,41.99559],[1.885939,41.995811],[1.885954,41.995898],[1.885943,41.995908],[1.886195,41.99686],[1.886302,41.997017],[1.886643,41.997438],[1.886547,41.99759],[1.886452,41.997659],[1.886404,41.997681],[1.886219,41.997656],[1.886161,41.997644],[1.886134,41.997723],[1.886171,41.997789],[1.885851,41.997781],[1.885842,41.998059],[1.885862,41.998535],[1.886161,41.998523],[1.886312,41.998386],[1.886622,41.998467],[1.886574,41.998516],[1.886478,41.998614],[1.886319,41.998777],[1.886472,41.998847],[1.886337,41.99899],[1.886297,41.999033],[1.886271,41.999061],[1.886275,41.999119],[1.886305,41.999112],[1.886408,41.999092],[1.886524,41.999069],[1.886604,41.999042],[1.886707,41.998973],[1.886721,41.998963],[1.886805,41.998869],[1.886938,41.998666],[1.887106,41.998228],[1.887179,41.998029],[1.887311,41.997697],[1.887379,41.997698],[1.88748,41.99771],[1.887539,41.997568],[1.887478,41.997553],[1.887381,41.997533],[1.887526,41.997138],[1.887566,41.997041],[1.887594,41.996957],[1.887593,41.996926],[1.887589,41.996852],[1.887568,41.996773],[1.887538,41.996677],[1.887305,41.995992],[1.8874,41.99598],[1.887335,41.995757],[1.887311,41.995712],[1.887176,41.995726],[1.886945,41.9954],[1.886621,41.994944],[1.886739,41.994897],[1.88664,41.994761]]]]}},{"type":"Feature","id":"080497_080497 AP05 BER 3","properties":{"area_id":"080497_080497 AP05 BER 3","nom":"l'Ametlla de Casserres","codi_icgc":"080497 AP05 BER 3","categoria":"Àrees de poblament","codi_municipi":"080497","municipi":"Casserres","codi_comarca":"14","comarca":"Berguedà","provincia":"Barcelona","font":"ICGC Àrees de poblament v3r1 202602"},"geometry":{"type":"MultiPolygon","coordinates":[[[[1.872913,42.045291],[1.873007,42.045245],[1.873042,42.045234],[1.873067,42.045227],[1.873096,42.045226],[1.873136,42.045238],[1.873461,42.045351],[1.873941,42.044698],[1.874038,42.044573],[1.874143,42.044621],[1.874204,42.044561],[1.874294,42.04447],[1.874364,42.044387],[1.874266,42.044331],[1.874279,42.04431],[1.874316,42.044266],[1.874344,42.04422],[1.874348,42.044211],[1.874358,42.044186],[1.874367,42.044148],[1.874373,42.04411],[1.874375,42.044035],[1.87437,42.043944],[1.874368,42.04392],[1.874363,42.043853],[1.874362,42.043841],[1.874358,42.043786],[1.874357,42.043779],[1.874478,42.043755],[1.874511,42.043707],[1.874524,42.043689],[1.87459,42.043676],[1.874702,42.043652],[1.874751,42.043642],[1.874759,42.043641],[1.874838,42.04363],[1.874934,42.043627],[1.874985,42.043648],[1.875023,42.043619],[1.875109,42.043523],[1.875042,42.043479],[1.875026,42.043474],[1.874714,42.043278],[1.874345,42.043524],[1.874335,42.043461],[1.874337,42.043448],[1.87434,42.043435],[1.874346,42.043411],[1.874351,42.04339],[1.874351,42.043369],[1.874353,42.043327],[1.874322,42.043256],[1.874296,42.04324],[1.874291,42.043241],[1.87429,42.043237],[1.874284,42.043239],[1.874226,42.043252],[1.874204,42.043239],[1.874205,42.043216],[1.874211,42.043016],[1.874197,42.042964],[1.874159,42.042828],[1.874156,42.042792],[1.874152,42.042767],[1.87415,42.042755],[1.874153,42.042744],[1.874027,42.042669],[1.873912,42.042649],[1.873892,42.042648],[1.873821,42.042647],[1.873636,42.042651],[1.873625,42.042652],[1.873425,42.042678],[1.873382,42.042682],[1.87332,42.042684],[1.873155,42.042695],[1.873153,42.042698],[1.873094,42.042793],[1.873069,42.042833],[1.873057,42.042853],[1.872868,42.043156],[1.872848,42.043152],[1.872844,42.043152],[1.872466,42.043048],[1.872519,42.042896],[1.872282,42.042859],[1.872234,42.043002],[1.872231,42.04301],[1.872225,42.043029],[1.872465,42.043092],[1.872492,42.043099],[1.872424,42.043282],[1.872454,42.043293],[1.872466,42.04329],[1.872511,42.043282],[1.872655,42.043251],[1.872905,42.043233],[1.873009,42.043219],[1.873063,42.04321],[1.873134,42.043213],[1.873409,42.043366],[1.873439,42.043387],[1.873817,42.043639],[1.873846,42.043696],[1.873917,42.04383],[1.873916,42.043929],[1.873591,42.043992],[1.873593,42.044047],[1.873597,42.044059],[1.873606,42.044079],[1.873614,42.044096],[1.873634,42.044165],[1.873635,42.044172],[1.873637,42.044209],[1.87363,42.044244],[1.873693,42.044254],[1.873724,42.04426],[1.873694,42.04433],[1.873783,42.044362],[1.873824,42.044378],[1.873833,42.044392],[1.873581,42.044714],[1.873554,42.044745],[1.873508,42.04474],[1.87338,42.044727],[1.87335,42.044731],[1.873307,42.044755],[1.873241,42.044793],[1.872871,42.045029],[1.872815,42.045116],[1.872772,42.045172],[1.872766,42.045181],[1.872718,42.045237],[1.872594,42.045312],[1.872569,42.045327],[1.87247,42.045387],[1.872432,42.045414],[1.872161,42.045505],[1.872006,42.045604],[1.871955,42.04576],[1.871943,42.046075],[1.871928,42.046211],[1.871924,42.046454],[1.87192,42.046675],[1.871927,42.046818],[1.872096,42.047022],[1.872102,42.047046],[1.872143,42.047123],[1.872193,42.047217],[1.87227,42.047244],[1.872288,42.047226],[1.872488,42.046962],[1.87237,42.046916],[1.872364,42.046906],[1.87236,42.046896],[1.872358,42.046876],[1.872359,42.046857],[1.872359,42.046834],[1.872362,42.046813],[1.872372,42.046783],[1.872383,42.046753],[1.872388,42.046728],[1.872395,42.04668],[1.872397,42.046597],[1.872397,42.046512],[1.872399,42.04646],[1.872402,42.046409],[1.87241,42.046327],[1.872418,42.046246],[1.87242,42.046221],[1.872422,42.046193],[1.872423,42.046177],[1.872425,42.046151],[1.872428,42.046057],[1.872423,42.046025],[1.872417,42.04599],[1.872417,42.045974],[1.872474,42.045894],[1.872517,42.045852],[1.87258,42.045755],[1.872634,42.04567],[1.872849,42.045351],[1.872862,42.045332],[1.872913,42.045291]]]]}},{"type":"Feature","id":"080497_080497 AP03 BER 2","properties":{"area_id":"080497_080497 AP03 BER 2","nom":"la Rectoria de Sant Pau","codi_icgc":"080497 AP03 BER 2","categoria":"Àrees de poblament","codi_municipi":"080497","municipi":"Casserres","codi_comarca":"14","comarca":"Berguedà","provincia":"Barcelona","font":"ICGC Àrees de poblament v3r1 202602"},"geometry":{"type":"MultiPolygon","coordinates":[[[[1.843578,42.028104],[1.843528,42.027936],[1.843442,42.027688],[1.843434,42.027645],[1.843338,42.027575],[1.843149,42.027479],[1.843144,42.027449],[1.843131,42.027378],[1.843132,42.027337],[1.843092,42.027295],[1.843012,42.027272],[1.842957,42.027272],[1.842919,42.027291],[1.842707,42.0275],[1.84266,42.027546],[1.842504,42.027619],[1.842093,42.027592],[1.841808,42.02778],[1.842251,42.028028],[1.842308,42.028022],[1.842618,42.027968],[1.843578,42.028104]]],[[[1.845752,42.027932],[1.845748,42.027884],[1.845583,42.027875],[1.84554,42.027739],[1.845127,42.027799],[1.84514,42.027911],[1.84505,42.027888],[1.844864,42.027897],[1.844909,42.028175],[1.845221,42.028152],[1.845252,42.028088],[1.845685,42.028048],[1.845741,42.028003],[1.845752,42.027932]]]]}},{"type":"Feature","id":"080497_080497 SI02 BER 2","properties":{"area_id":"080497_080497 SI02 BER 2","nom":"les Tres Creus","codi_icgc":"080497 SI02 BER 2","categoria":"Sector industrial","codi_municipi":"080497","municipi":"Casserres","codi_comarca":"14","comarca":"Berguedà","provincia":"Barcelona","font":"ICGC Àrees de poblament v3r1 202602"},"geometry":{"type":"MultiPolygon","coordinates":[[[[1.841785,42.017555],[1.841946,42.016602],[1.841941,42.016571],[1.841914,42.016577],[1.84186,42.016586],[1.841767,42.016598],[1.841673,42.016608],[1.841609,42.016617],[1.841501,42.016639],[1.841393,42.016664],[1.84134,42.01668],[1.841291,42.0167],[1.841249,42.016719],[1.841231,42.016727],[1.841231,42.016727],[1.841231,42.016727],[1.84108,42.016673],[1.841016,42.01663],[1.841063,42.016592],[1.841132,42.016544],[1.841204,42.016499],[1.841229,42.016485],[1.841311,42.01643],[1.841342,42.016403],[1.841358,42.016383],[1.841305,42.01635],[1.840919,42.016016],[1.840645,42.015923],[1.840637,42.01592],[1.840528,42.015998],[1.840387,42.01603],[1.840286,42.016052],[1.840259,42.016007],[1.840257,42.016003],[1.839836,42.015922],[1.839829,42.015924],[1.839807,42.015933],[1.839795,42.015937],[1.839852,42.016086],[1.839882,42.016199],[1.839902,42.016216],[1.83991,42.016238],[1.839996,42.016401],[1.839962,42.016436],[1.840384,42.016758],[1.840421,42.016785],[1.840559,42.016887],[1.840684,42.016962],[1.840764,42.017004],[1.840719,42.017083],[1.840713,42.017094],[1.840801,42.017135],[1.840805,42.01736],[1.841042,42.017347],[1.841041,42.017349],[1.841057,42.01735],[1.841375,42.017436],[1.841495,42.017455],[1.841502,42.017446],[1.841785,42.017555]]]]}}]}