{"type":"FeatureCollection","name":"ICGC Àrees de poblament - Cardona","features":[{"type":"Feature","id":"080478_080478 AP06 BAG 2","properties":{"area_id":"080478_080478 AP06 BAG 2","nom":"Bergús","codi_icgc":"080478 AP06 BAG 2","categoria":"Àrees de poblament","codi_municipi":"080478","municipi":"Cardona","codi_comarca":"07","comarca":"Bages","provincia":"Barcelona","font":"ICGC Àrees de poblament v3r1 202602"},"geometry":{"type":"MultiPolygon","coordinates":[[[[1.612588,41.892759],[1.61287,41.892593],[1.613074,41.892489],[1.613028,41.892446],[1.613018,41.892432],[1.612952,41.892363],[1.612888,41.892294],[1.612805,41.892197],[1.612723,41.892101],[1.61264,41.892008],[1.612559,41.89193],[1.612479,41.891852],[1.612469,41.891844],[1.612454,41.89181],[1.612482,41.891791],[1.612498,41.89178],[1.61254,41.891783],[1.612619,41.891787],[1.612688,41.891792],[1.61279,41.891803],[1.612832,41.89181],[1.61285,41.891786],[1.612994,41.891595],[1.612698,41.891472],[1.612682,41.891484],[1.612633,41.891527],[1.612555,41.891596],[1.612541,41.891616],[1.612498,41.891677],[1.61248,41.891694],[1.612455,41.891706],[1.612428,41.891717],[1.612423,41.891714],[1.612397,41.891736],[1.61236,41.891719],[1.612179,41.891636],[1.612085,41.8916],[1.61194,41.891544],[1.611815,41.891496],[1.611796,41.891488],[1.611659,41.891435],[1.611523,41.891382],[1.611448,41.891357],[1.611372,41.891336],[1.611324,41.891325],[1.6113,41.891324],[1.611276,41.891327],[1.611262,41.891333],[1.611252,41.891344],[1.611241,41.891371],[1.611234,41.891398],[1.611228,41.891417],[1.611228,41.891435],[1.611231,41.89144],[1.611178,41.891569],[1.611176,41.891569],[1.611166,41.891573],[1.611146,41.891598],[1.611131,41.891638],[1.611119,41.891678],[1.611082,41.89177],[1.611046,41.891863],[1.611032,41.891909],[1.611023,41.891956],[1.611024,41.891961],[1.610977,41.892092],[1.610972,41.892092],[1.610953,41.892093],[1.610944,41.892098],[1.610916,41.892123],[1.610914,41.892125],[1.610898,41.892129],[1.610895,41.892142],[1.610866,41.892308],[1.610839,41.892512],[1.61085,41.89252],[1.610921,41.89252],[1.611074,41.892464],[1.610981,41.892658],[1.610968,41.892689],[1.610968,41.89269],[1.610958,41.892714],[1.610952,41.892722],[1.610941,41.892725],[1.610928,41.892723],[1.610877,41.892708],[1.610825,41.892694],[1.610802,41.892762],[1.610787,41.89282],[1.610781,41.892851],[1.610777,41.892883],[1.610776,41.892904],[1.61078,41.892937],[1.610794,41.892969],[1.610815,41.892996],[1.610853,41.893032],[1.610897,41.893064],[1.610984,41.893121],[1.611064,41.893167],[1.611118,41.893188],[1.611162,41.893203],[1.611184,41.89321],[1.61122,41.893215],[1.611257,41.893218],[1.611323,41.893217],[1.611389,41.89321],[1.611438,41.893202],[1.611485,41.893189],[1.611577,41.893157],[1.61168,41.893121],[1.611759,41.893092],[1.611778,41.893085],[1.611841,41.893061],[1.611905,41.89304],[1.611957,41.893025],[1.612037,41.893008],[1.612067,41.893001],[1.612067,41.893001],[1.612117,41.89299],[1.612201,41.892966],[1.612243,41.892953],[1.612283,41.892937],[1.612344,41.892909],[1.612403,41.892877],[1.612437,41.892857],[1.612467,41.892836],[1.612519,41.892804],[1.612588,41.892759]]]]}},{"type":"Feature","id":"080478_080478 AP10 BAG 2","properties":{"area_id":"080478_080478 AP10 BAG 2","nom":"Cal Joanàs","codi_icgc":"080478 AP10 BAG 2","categoria":"Àrees de poblament","codi_municipi":"080478","municipi":"Cardona","codi_comarca":"07","comarca":"Bages","provincia":"Barcelona","font":"ICGC Àrees de poblament v3r1 202602"},"geometry":{"type":"MultiPolygon","coordinates":[[[[1.665634,41.901533],[1.665565,41.901467],[1.665546,41.901449],[1.66535,41.901283],[1.665305,41.901252],[1.66529,41.901137],[1.665273,41.901063],[1.665245,41.900984],[1.665217,41.900891],[1.665096,41.90036],[1.665187,41.900355],[1.665217,41.900349],[1.665264,41.900341],[1.665258,41.900251],[1.665158,41.899691],[1.664805,41.899705],[1.664686,41.899686],[1.664634,41.89964],[1.664592,41.899637],[1.664349,41.899722],[1.66432,41.899732],[1.664331,41.899753],[1.664345,41.899777],[1.664366,41.899815],[1.66439,41.899854],[1.664409,41.899875],[1.664444,41.899897],[1.664481,41.899915],[1.664517,41.899931],[1.664555,41.899945],[1.664577,41.899949],[1.664611,41.899949],[1.664643,41.899941],[1.664657,41.899936],[1.664669,41.89997],[1.664681,41.900005],[1.664685,41.900023],[1.664686,41.900056],[1.664681,41.900106],[1.66468,41.900131],[1.664683,41.900155],[1.664693,41.900198],[1.664698,41.900216],[1.664368,41.900261],[1.664395,41.900364],[1.664556,41.900697],[1.664622,41.900674],[1.664736,41.900702],[1.664865,41.900671],[1.664897,41.900753],[1.664907,41.900745],[1.664925,41.90078],[1.664972,41.900889],[1.665008,41.900987],[1.665048,41.901102],[1.665092,41.901251],[1.665113,41.901326],[1.665135,41.9014],[1.665156,41.901445],[1.66518,41.901515],[1.66513,41.90151],[1.665132,41.901551],[1.665119,41.901663],[1.665139,41.901668],[1.665166,41.901675],[1.665201,41.901685],[1.665218,41.901689],[1.665273,41.901703],[1.665296,41.901699],[1.665318,41.901676],[1.665388,41.901624],[1.665451,41.901594],[1.665481,41.901584],[1.665634,41.901533]]]]}},{"type":"Feature","id":"080478_080478 AP01 BAG 3","properties":{"area_id":"080478_080478 AP01 BAG 3","nom":"Cardona","codi_icgc":"080478 AP01 BAG 3","categoria":"Àrees de poblament","codi_municipi":"080478","municipi":"Cardona","codi_comarca":"07","comarca":"Bages","provincia":"Barcelona","font":"ICGC Àrees de poblament v3r1 202602"},"geometry":{"type":"MultiPolygon","coordinates":[[[[1.680667,41.91187],[1.680567,41.911712],[1.680445,41.91148],[1.680429,41.911446],[1.680289,41.911476],[1.680177,41.911526],[1.680139,41.911543],[1.680124,41.911549],[1.680099,41.911535],[1.68009,41.911455],[1.68008,41.911367],[1.680066,41.91133],[1.680046,41.911278],[1.680039,41.911251],[1.680023,41.911188],[1.68001,41.91113],[1.68001,41.911127],[1.680011,41.911123],[1.680011,41.91112],[1.680012,41.911094],[1.680014,41.91105],[1.67996,41.91083],[1.679934,41.910759],[1.679926,41.910754],[1.679926,41.910747],[1.679929,41.910739],[1.679921,41.91073],[1.679904,41.910715],[1.679875,41.910685],[1.679755,41.91063],[1.679727,41.910619],[1.679399,41.910486],[1.679386,41.910454],[1.679382,41.910411],[1.67965,41.910251],[1.67969,41.910287],[1.679756,41.910347],[1.679803,41.910384],[1.680052,41.910224],[1.679989,41.910156],[1.6799,41.91005],[1.679819,41.909947],[1.679736,41.909845],[1.679641,41.909737],[1.679546,41.909629],[1.679457,41.909526],[1.679368,41.909422],[1.679353,41.909406],[1.67928,41.909325],[1.679184,41.90937],[1.679137,41.909402],[1.679123,41.909412],[1.679109,41.90942],[1.679099,41.90943],[1.679092,41.909441],[1.679082,41.90946],[1.679061,41.909585],[1.679059,41.909596],[1.679052,41.909626],[1.678932,41.90968],[1.678905,41.909688],[1.678894,41.909695],[1.678871,41.909709],[1.678861,41.909693],[1.678804,41.909617],[1.678735,41.909553],[1.678672,41.909493],[1.678566,41.909417],[1.678487,41.909363],[1.678411,41.909321],[1.678294,41.909293],[1.678237,41.909292],[1.678234,41.909209],[1.678241,41.909191],[1.67807,41.909154],[1.677775,41.909119],[1.677728,41.909159],[1.67768,41.9092],[1.677663,41.909212],[1.677645,41.909224],[1.677609,41.909246],[1.677586,41.909263],[1.677555,41.909287],[1.677522,41.90931],[1.677454,41.909359],[1.677429,41.909377],[1.677386,41.909408],[1.677326,41.909364],[1.677262,41.909407],[1.677235,41.909391],[1.677155,41.909326],[1.677121,41.909353],[1.677032,41.909418],[1.677016,41.909409],[1.677,41.909421],[1.676993,41.909417],[1.676976,41.909431],[1.676814,41.909311],[1.676823,41.909294],[1.676848,41.909247],[1.676656,41.909175],[1.676652,41.909173],[1.676576,41.909144],[1.676584,41.909132],[1.676618,41.909082],[1.676652,41.909031],[1.676685,41.908981],[1.676716,41.908929],[1.676731,41.908894],[1.676737,41.908858],[1.676736,41.908839],[1.67673,41.90881],[1.676718,41.908781],[1.676695,41.908742],[1.676664,41.908707],[1.676618,41.908666],[1.6766,41.908654],[1.676592,41.908648],[1.676563,41.908632],[1.676543,41.90862],[1.676483,41.908595],[1.676455,41.908584],[1.676354,41.908554],[1.676325,41.908547],[1.676195,41.908726],[1.675866,41.908597],[1.675412,41.908422],[1.675362,41.908502],[1.675311,41.90866],[1.675229,41.908787],[1.67535,41.90888],[1.675463,41.909001],[1.675435,41.909039],[1.675358,41.909065],[1.675234,41.909088],[1.675122,41.909101],[1.674998,41.909138],[1.674873,41.909189],[1.67466,41.909267],[1.674588,41.909314],[1.674562,41.909373],[1.674549,41.909457],[1.674502,41.909587],[1.674425,41.909678],[1.674255,41.909772],[1.674238,41.909807],[1.674196,41.90992],[1.67411,41.910017],[1.674078,41.910068],[1.673989,41.910108],[1.673837,41.910121],[1.673733,41.910132],[1.673637,41.910137],[1.673538,41.910142],[1.673454,41.910147],[1.67341,41.910128],[1.673267,41.9101],[1.673187,41.910117],[1.673142,41.910161],[1.673066,41.910172],[1.672991,41.910153],[1.672935,41.910153],[1.672831,41.910169],[1.672607,41.910191],[1.672463,41.910216],[1.672348,41.910209],[1.672304,41.910226],[1.672201,41.910367],[1.672266,41.910398],[1.672281,41.910405],[1.672351,41.910438],[1.672393,41.910458],[1.672503,41.910511],[1.672614,41.910564],[1.672665,41.910588],[1.672715,41.910614],[1.672745,41.910634],[1.672755,41.910642],[1.672784,41.910665],[1.672822,41.910696],[1.672876,41.910741],[1.672895,41.910756],[1.672903,41.910769],[1.672905,41.910785],[1.672903,41.910805],[1.672902,41.910814],[1.672888,41.910918],[1.672877,41.910998],[1.672867,41.911105],[1.672857,41.911213],[1.672844,41.911318],[1.672817,41.911465],[1.672815,41.911474],[1.672787,41.91163],[1.67277,41.911752],[1.672755,41.911874],[1.672751,41.911911],[1.672748,41.911948],[1.67275,41.911973],[1.672758,41.911999],[1.672774,41.912023],[1.672797,41.912044],[1.672835,41.912068],[1.672878,41.912087],[1.672901,41.912093],[1.67294,41.912099],[1.673021,41.912113],[1.673069,41.912099],[1.673089,41.912123],[1.673103,41.912142],[1.673146,41.912225],[1.673154,41.912238],[1.673265,41.912207],[1.674101,41.911963],[1.674187,41.912033],[1.674152,41.912057],[1.674168,41.912069],[1.6742,41.912086],[1.674277,41.912099],[1.674344,41.912117],[1.674393,41.912147],[1.674398,41.912144],[1.674464,41.912188],[1.674624,41.912281],[1.674578,41.912332],[1.674672,41.912376],[1.674658,41.912394],[1.674697,41.912415],[1.674737,41.912435],[1.674724,41.912468],[1.674719,41.912489],[1.674742,41.912496],[1.674798,41.912513],[1.674834,41.912524],[1.674861,41.912532],[1.674889,41.912542],[1.674968,41.912572],[1.675015,41.912616],[1.675064,41.912655],[1.67504,41.912675],[1.675115,41.912725],[1.67516,41.912751],[1.675211,41.912775],[1.675254,41.912796],[1.675463,41.912888],[1.675526,41.912937],[1.675476,41.913026],[1.675465,41.913045],[1.675459,41.913054],[1.675445,41.91308],[1.675429,41.913107],[1.675374,41.913088],[1.675373,41.913082],[1.67537,41.913078],[1.675359,41.913074],[1.675348,41.913071],[1.675238,41.913004],[1.675185,41.91297],[1.67516,41.912952],[1.675138,41.912935],[1.675115,41.912916],[1.675092,41.912897],[1.675092,41.912909],[1.675091,41.912922],[1.675092,41.912958],[1.675095,41.912986],[1.675102,41.913029],[1.675106,41.913071],[1.675107,41.913111],[1.675104,41.913172],[1.675099,41.913232],[1.675093,41.913248],[1.675077,41.91327],[1.675076,41.913273],[1.675071,41.913282],[1.675071,41.913289],[1.675071,41.913293],[1.675076,41.913306],[1.675094,41.913323],[1.675117,41.913338],[1.675145,41.913353],[1.675187,41.91337],[1.675232,41.913381],[1.675307,41.913389],[1.675382,41.913396],[1.675408,41.913405],[1.675421,41.913408],[1.675431,41.913405],[1.675452,41.913388],[1.675474,41.913371],[1.67549,41.913364],[1.675522,41.913349],[1.67564,41.913295],[1.675648,41.913292],[1.675692,41.913329],[1.67573,41.913385],[1.675772,41.913428],[1.675984,41.913495],[1.676056,41.913542],[1.67613,41.913589],[1.676138,41.913631],[1.676149,41.913671],[1.676161,41.913692],[1.676179,41.913708],[1.676396,41.913907],[1.676926,41.914259],[1.676935,41.914265],[1.676917,41.91428],[1.67691,41.914286],[1.676845,41.91434],[1.676782,41.914455],[1.676713,41.914554],[1.676853,41.914601],[1.676839,41.914638],[1.676912,41.914654],[1.676922,41.914638],[1.677052,41.91468],[1.677147,41.914711],[1.677159,41.914684],[1.677578,41.914846],[1.677543,41.914911],[1.677637,41.915004],[1.677929,41.915104],[1.678159,41.915215],[1.678416,41.915291],[1.67907,41.915442],[1.679103,41.915436],[1.679147,41.915404],[1.679166,41.915356],[1.679193,41.915247],[1.679219,41.915182],[1.679229,41.915165],[1.679256,41.915148],[1.67935,41.915147],[1.679654,41.915145],[1.6797,41.915137],[1.679722,41.915125],[1.67975,41.915099],[1.680213,41.915137],[1.680463,41.915158],[1.680552,41.915166],[1.680647,41.915173],[1.680694,41.915179],[1.681105,41.915267],[1.681114,41.915247],[1.681249,41.915278],[1.681268,41.915232],[1.681306,41.915241],[1.681376,41.915258],[1.681437,41.91514],[1.681474,41.915082],[1.681477,41.915038],[1.681375,41.914995],[1.681412,41.914914],[1.681406,41.914909],[1.681422,41.914906],[1.681457,41.914899],[1.681479,41.914894],[1.681505,41.914889],[1.681512,41.914888],[1.681534,41.914881],[1.681569,41.914867],[1.681619,41.914846],[1.681627,41.914852],[1.681635,41.91485],[1.681696,41.914901],[1.681735,41.914936],[1.681764,41.914963],[1.681773,41.914971],[1.681798,41.914995],[1.681834,41.915033],[1.681871,41.915073],[1.681902,41.915104],[1.681916,41.91512],[1.681928,41.915137],[1.681936,41.915158],[1.681944,41.915191],[1.681953,41.915223],[1.681975,41.915292],[1.681999,41.91536],[1.682021,41.915413],[1.682047,41.915466],[1.682081,41.915526],[1.68212,41.915585],[1.682162,41.915636],[1.682206,41.915685],[1.682235,41.91572],[1.682556,41.915625],[1.682594,41.915657],[1.682736,41.915592],[1.682975,41.915482],[1.683019,41.915455],[1.682989,41.915459],[1.683015,41.915444],[1.68311,41.915389],[1.683122,41.915379],[1.683007,41.915254],[1.683058,41.915239],[1.6834,41.915138],[1.683263,41.9149],[1.682996,41.914414],[1.682953,41.91433],[1.683031,41.914241],[1.683186,41.914125],[1.683492,41.913858],[1.68362,41.913737],[1.683742,41.913641],[1.683877,41.913553],[1.68396,41.913497],[1.684024,41.913463],[1.684086,41.913433],[1.684049,41.913393],[1.683957,41.91339],[1.6838,41.913419],[1.683644,41.913476],[1.68354,41.913528],[1.68345,41.913571],[1.683294,41.91361],[1.68325,41.913621],[1.683206,41.913633],[1.683149,41.913651],[1.683092,41.913669],[1.683071,41.913675],[1.683026,41.913686],[1.683049,41.913645],[1.683045,41.913621],[1.682906,41.91362],[1.682779,41.913615],[1.682653,41.91362],[1.682587,41.913635],[1.682483,41.913662],[1.682583,41.913595],[1.682713,41.913492],[1.682881,41.913533],[1.682847,41.913392],[1.682905,41.913353],[1.682922,41.913302],[1.683088,41.913173],[1.683115,41.913131],[1.683116,41.912961],[1.683114,41.912926],[1.683111,41.9129],[1.683108,41.912883],[1.683106,41.912878],[1.683103,41.912873],[1.683098,41.912868],[1.683092,41.912862],[1.683085,41.912857],[1.68307,41.912847],[1.683045,41.912831],[1.68303,41.912823],[1.683014,41.912815],[1.682997,41.912808],[1.682983,41.912802],[1.682782,41.91275],[1.682471,41.912691],[1.68236,41.912612],[1.682445,41.912541],[1.682503,41.912497],[1.682503,41.912457],[1.682472,41.912332],[1.682268,41.912185],[1.682193,41.91213],[1.681762,41.911839],[1.681531,41.911679],[1.680986,41.912114],[1.680936,41.912154],[1.680922,41.912141],[1.680667,41.91187]]]]}},{"type":"Feature","id":"080478_080478 AP07 BAG 2","properties":{"area_id":"080478_080478 AP07 BAG 2","nom":"Coma","codi_icgc":"080478 AP07 BAG 2","categoria":"Àrees de poblament","codi_municipi":"080478","municipi":"Cardona","codi_comarca":"07","comarca":"Bages","provincia":"Barcelona","font":"ICGC Àrees de poblament v3r1 202602"},"geometry":{"type":"MultiPolygon","coordinates":[[[[1.650386,41.913769],[1.650126,41.914004],[1.650467,41.91417],[1.650181,41.914424],[1.651028,41.914796],[1.651494,41.914516],[1.651675,41.914384],[1.651754,41.914252],[1.651681,41.914127],[1.651532,41.913925],[1.651305,41.91378],[1.651001,41.913671],[1.650721,41.913639],[1.650465,41.913665],[1.650386,41.913769]]]]}},{"type":"Feature","id":"080478_080478 SI04 BAG 2","properties":{"area_id":"080478_080478 SI04 BAG 2","nom":"Grusvip","codi_icgc":"080478 SI04 BAG 2","categoria":"Sector industrial","codi_municipi":"080478","municipi":"Cardona","codi_comarca":"07","comarca":"Bages","provincia":"Barcelona","font":"ICGC Àrees de poblament v3r1 202602"},"geometry":{"type":"MultiPolygon","coordinates":[[[[1.65896,41.932231],[1.658944,41.93228],[1.658937,41.932332],[1.658937,41.932373],[1.658936,41.932394],[1.658936,41.932415],[1.658936,41.932429],[1.658936,41.932446],[1.658936,41.932482],[1.658936,41.932487],[1.658936,41.93249],[1.658927,41.933065],[1.658928,41.933142],[1.658932,41.933293],[1.658935,41.933428],[1.658937,41.933563],[1.658935,41.933623],[1.658928,41.933683],[1.65892,41.933714],[1.658898,41.933757],[1.658918,41.933854],[1.658923,41.93388],[1.658976,41.934045],[1.659815,41.934017],[1.659948,41.934012],[1.659966,41.934008],[1.660094,41.933959],[1.660182,41.933913],[1.660224,41.933877],[1.660425,41.933622],[1.660419,41.93358],[1.660368,41.933527],[1.660192,41.933388],[1.660169,41.933349],[1.660174,41.933317],[1.660201,41.933287],[1.660205,41.933281],[1.660279,41.93326],[1.660352,41.933239],[1.660365,41.933213],[1.660371,41.933186],[1.660371,41.933159],[1.660365,41.933132],[1.660352,41.933106],[1.660334,41.933083],[1.660311,41.933062],[1.660283,41.933044],[1.660251,41.93303],[1.659935,41.933023],[1.659839,41.932907],[1.659429,41.932407],[1.65934,41.932298],[1.659324,41.932287],[1.65928,41.932262],[1.659231,41.932242],[1.659179,41.932227],[1.659125,41.932219],[1.659069,41.932217],[1.659014,41.93222],[1.65896,41.932231]]]]}},{"type":"Feature","id":"080478_080478 SI03 BAG 2","properties":{"area_id":"080478_080478 SI03 BAG 2","nom":"Polígon industrial La Cort","codi_icgc":"080478 SI03 BAG 2","categoria":"Sector industrial","codi_municipi":"080478","municipi":"Cardona","codi_comarca":"07","comarca":"Bages","provincia":"Barcelona","font":"ICGC Àrees de poblament v3r1 202602"},"geometry":{"type":"MultiPolygon","coordinates":[[[[1.710016,41.900024],[1.710005,41.899982],[1.709963,41.899932],[1.709883,41.899874],[1.709816,41.899834],[1.709718,41.899828],[1.70964,41.899814],[1.709564,41.899794],[1.709525,41.899783],[1.709546,41.899729],[1.709511,41.899713],[1.709088,41.899583],[1.708476,41.899542],[1.707824,41.899572],[1.706414,41.899668],[1.705694,41.89982],[1.705742,41.899977],[1.705382,41.900029],[1.705027,41.900082],[1.704737,41.900226],[1.704439,41.900386],[1.704378,41.900342],[1.704336,41.900325],[1.704291,41.900313],[1.704243,41.900308],[1.704195,41.900308],[1.704148,41.900314],[1.704103,41.900326],[1.704061,41.900344],[1.704023,41.900366],[1.703991,41.900393],[1.703816,41.900612],[1.703322,41.90129],[1.702687,41.902073],[1.702709,41.902266],[1.702709,41.902271],[1.702691,41.902274],[1.702329,41.902314],[1.70224,41.902324],[1.702158,41.902339],[1.702078,41.90236],[1.702026,41.902377],[1.701958,41.902403],[1.701894,41.902436],[1.701837,41.902475],[1.701815,41.902494],[1.701803,41.902504],[1.70175,41.902555],[1.701737,41.90257],[1.701703,41.902609],[1.701676,41.902646],[1.701667,41.902664],[1.701649,41.902698],[1.701623,41.902776],[1.701543,41.903199],[1.701531,41.903303],[1.70153,41.903311],[1.701529,41.903362],[1.701538,41.903412],[1.701555,41.903461],[1.701581,41.903508],[1.701605,41.903541],[1.701634,41.903571],[1.701666,41.9036],[1.7017,41.903624],[1.701737,41.903646],[1.701776,41.903665],[1.702332,41.903854],[1.702468,41.903901],[1.702606,41.903943],[1.702748,41.903981],[1.702892,41.904013],[1.702968,41.904028],[1.703131,41.904043],[1.703275,41.904053],[1.703334,41.90406],[1.703393,41.904073],[1.703448,41.904091],[1.7035,41.904114],[1.703548,41.904142],[1.703583,41.904169],[1.703824,41.904401],[1.703909,41.904463],[1.703941,41.904483],[1.703935,41.904486],[1.703971,41.904503],[1.704356,41.90468],[1.704361,41.90432],[1.704323,41.904051],[1.70425,41.903782],[1.704238,41.903467],[1.704377,41.903393],[1.70435,41.903354],[1.704325,41.903324],[1.704432,41.903279],[1.704392,41.90319],[1.704405,41.903014],[1.704403,41.902966],[1.704394,41.902918],[1.704376,41.902871],[1.704352,41.902826],[1.70432,41.902784],[1.704282,41.902744],[1.704238,41.902709],[1.704188,41.902677],[1.704134,41.90265],[1.704078,41.902629],[1.703969,41.902595],[1.703896,41.902564],[1.703827,41.902528],[1.703763,41.902488],[1.703703,41.902443],[1.703699,41.90244],[1.703631,41.90244],[1.703599,41.902443],[1.703564,41.902446],[1.703499,41.902457],[1.703435,41.902474],[1.703416,41.902481],[1.703361,41.902497],[1.703303,41.902508],[1.703244,41.902513],[1.703185,41.902513],[1.703126,41.902507],[1.703069,41.902495],[1.703014,41.902478],[1.702963,41.902456],[1.702917,41.902429],[1.702875,41.902398],[1.702839,41.902363],[1.702821,41.90234],[1.702838,41.902323],[1.702862,41.902312],[1.702897,41.902309],[1.70304,41.902293],[1.703097,41.902288],[1.703183,41.902279],[1.703353,41.902263],[1.703621,41.902218],[1.703628,41.902143],[1.703659,41.902101],[1.703734,41.902029],[1.703777,41.901987],[1.703811,41.901951],[1.703852,41.901918],[1.703897,41.901889],[1.703948,41.901865],[1.704002,41.901846],[1.704059,41.901833],[1.704113,41.901825],[1.704117,41.901826],[1.704277,41.901876],[1.704375,41.901907],[1.704427,41.901925],[1.704481,41.901938],[1.704536,41.901945],[1.704593,41.901946],[1.704611,41.901946],[1.704945,41.901904],[1.706853,41.901705],[1.706978,41.901678],[1.707887,41.901543],[1.708756,41.901399],[1.709169,41.901301],[1.709771,41.90124],[1.710434,41.901051],[1.711738,41.900833],[1.711952,41.900792],[1.712253,41.900744],[1.711239,41.900388],[1.711205,41.900374],[1.711074,41.900325],[1.710976,41.900282],[1.710748,41.900183],[1.710385,41.900081],[1.710263,41.900047],[1.710016,41.900024]]]]}},{"type":"Feature","id":"080478_080478 SI01 BAG 2","properties":{"area_id":"080478_080478 SI01 BAG 2","nom":"Polígon industrial La Plantada","codi_icgc":"080478 SI01 BAG 2","categoria":"Sector industrial","codi_municipi":"080478","municipi":"Cardona","codi_comarca":"07","comarca":"Bages","provincia":"Barcelona","font":"ICGC Àrees de poblament v3r1 202602"},"geometry":{"type":"MultiPolygon","coordinates":[[[[1.693886,41.918402],[1.694263,41.91815],[1.694119,41.918036],[1.694142,41.91796],[1.694167,41.917934],[1.694199,41.917903],[1.693845,41.917584],[1.693774,41.917523],[1.69388,41.917446],[1.693894,41.917435],[1.693526,41.917137],[1.69347,41.917129],[1.693407,41.917111],[1.693131,41.916922],[1.692714,41.917221],[1.692925,41.917389],[1.692918,41.917394],[1.692878,41.917423],[1.692779,41.917349],[1.692759,41.917362],[1.692703,41.917401],[1.692714,41.917466],[1.693016,41.917699],[1.69306,41.91772],[1.69305,41.917734],[1.693041,41.917748],[1.693035,41.917763],[1.693033,41.917798],[1.693037,41.917815],[1.693086,41.917863],[1.693194,41.917943],[1.693302,41.918022],[1.693302,41.918022],[1.693353,41.918068],[1.693374,41.918132],[1.693366,41.91827],[1.6934,41.918382],[1.693473,41.918482],[1.69352,41.918468],[1.693605,41.918443],[1.693666,41.918502],[1.693868,41.918396],[1.693886,41.918402]]]]}},{"type":"Feature","id":"080478_080478 SI02 BAG 2","properties":{"area_id":"080478_080478 SI02 BAG 2","nom":"Polígon industrial Miner","codi_icgc":"080478 SI02 BAG 2","categoria":"Sector industrial","codi_municipi":"080478","municipi":"Cardona","codi_comarca":"07","comarca":"Bages","provincia":"Barcelona","font":"ICGC Àrees de poblament v3r1 202602"},"geometry":{"type":"MultiPolygon","coordinates":[[[[1.6926,41.91224],[1.692693,41.912106],[1.692754,41.912026],[1.692823,41.911948],[1.692873,41.911897],[1.69295,41.911834],[1.693032,41.911777],[1.693089,41.911742],[1.693155,41.911702],[1.69322,41.911662],[1.693283,41.91163],[1.693343,41.911598],[1.693401,41.911568],[1.693448,41.911547],[1.693521,41.911521],[1.69356,41.911511],[1.693561,41.911511],[1.693635,41.91149],[1.693734,41.911473],[1.694181,41.911431],[1.694253,41.911425],[1.694336,41.911413],[1.694417,41.911395],[1.694495,41.911371],[1.69457,41.911343],[1.694619,41.91132],[1.694641,41.911309],[1.694646,41.911307],[1.694662,41.911295],[1.694671,41.91128],[1.694673,41.911264],[1.694667,41.911248],[1.694654,41.911235],[1.694651,41.911233],[1.694614,41.91122],[1.694575,41.911212],[1.694534,41.911209],[1.694494,41.911211],[1.694468,41.911259],[1.694466,41.911259],[1.69436,41.911228],[1.694268,41.911201],[1.694111,41.911146],[1.694064,41.911129],[1.693963,41.911094],[1.693991,41.911014],[1.693986,41.911012],[1.693994,41.911006],[1.694024,41.910926],[1.69405,41.910845],[1.694074,41.910768],[1.694097,41.910691],[1.694101,41.910677],[1.6941,41.91067],[1.694096,41.910663],[1.694095,41.91066],[1.694092,41.910659],[1.694083,41.910652],[1.694058,41.910637],[1.694037,41.91063],[1.694004,41.910623],[1.69397,41.910619],[1.693803,41.910599],[1.693637,41.910579],[1.693513,41.910565],[1.693388,41.910551],[1.693221,41.910532],[1.693055,41.910508],[1.693025,41.910503],[1.692923,41.910489],[1.692871,41.910481],[1.692744,41.910418],[1.692467,41.910402],[1.692364,41.910398],[1.692273,41.910419],[1.692248,41.910425],[1.692205,41.910435],[1.692124,41.91047],[1.692116,41.910531],[1.692039,41.91053],[1.69196,41.910506],[1.691937,41.910491],[1.691937,41.910491],[1.691868,41.910446],[1.69184,41.910468],[1.691805,41.910496],[1.691802,41.910498],[1.691793,41.910504],[1.691792,41.910504],[1.691763,41.910504],[1.691749,41.910504],[1.691734,41.910504],[1.691689,41.910502],[1.691667,41.910503],[1.691647,41.910509],[1.691592,41.910541],[1.691549,41.910564],[1.69153,41.910547],[1.691511,41.910559],[1.691164,41.910773],[1.691125,41.910737],[1.690966,41.910593],[1.690777,41.910709],[1.690709,41.910744],[1.690706,41.91075],[1.690665,41.91077],[1.690625,41.910811],[1.690625,41.910811],[1.690767,41.91093],[1.690807,41.910941],[1.690837,41.910967],[1.69079,41.910992],[1.690825,41.91103],[1.690835,41.911025],[1.690866,41.911047],[1.69085,41.911059],[1.690778,41.911113],[1.69066,41.911207],[1.690589,41.911277],[1.690547,41.911339],[1.690522,41.911415],[1.690516,41.911485],[1.690578,41.91151],[1.690589,41.911522],[1.690641,41.911596],[1.690653,41.911608],[1.690691,41.91165],[1.690708,41.911689],[1.690712,41.911697],[1.690713,41.911699],[1.69069,41.911929],[1.690725,41.912099],[1.690748,41.912209],[1.690751,41.912213],[1.690812,41.912194],[1.690829,41.912214],[1.69092,41.912323],[1.69111,41.912514],[1.691324,41.912661],[1.69154,41.912813],[1.691718,41.91293],[1.691735,41.912938],[1.691736,41.912939],[1.691763,41.912952],[1.691938,41.913041],[1.691968,41.91304],[1.691991,41.91304],[1.692027,41.913014],[1.692062,41.912989],[1.692062,41.912989],[1.692263,41.912713],[1.692333,41.912616],[1.692388,41.91254],[1.692507,41.912372],[1.6926,41.91224]]]]}},{"type":"Feature","id":"080478_080478 SI05 BAG 2","properties":{"area_id":"080478_080478 SI05 BAG 2","nom":"Semen Cardona","codi_icgc":"080478 SI05 BAG 2","categoria":"Sector industrial","codi_municipi":"080478","municipi":"Cardona","codi_comarca":"07","comarca":"Bages","provincia":"Barcelona","font":"ICGC Àrees de poblament v3r1 202602"},"geometry":{"type":"MultiPolygon","coordinates":[[[[1.717572,41.899737],[1.717407,41.899636],[1.717256,41.899808],[1.71724,41.899822],[1.717189,41.899868],[1.71717,41.899934],[1.717075,41.900188],[1.717064,41.900218],[1.717049,41.90026],[1.71701,41.900303],[1.71723,41.900424],[1.717278,41.90045],[1.717319,41.900529],[1.717393,41.900511],[1.717651,41.900472],[1.717696,41.900466],[1.717802,41.900225],[1.717708,41.899833],[1.717658,41.899791],[1.717572,41.899737]]]]}},{"type":"Feature","id":"080478_080478 AP08 BAG 2","properties":{"area_id":"080478_080478 AP08 BAG 2","nom":"el Pla de la Salut","codi_icgc":"080478 AP08 BAG 2","categoria":"Àrees de poblament","codi_municipi":"080478","municipi":"Cardona","codi_comarca":"07","comarca":"Bages","provincia":"Barcelona","font":"ICGC Àrees de poblament v3r1 202602"},"geometry":{"type":"MultiPolygon","coordinates":[[[[1.695123,41.907714],[1.695181,41.90772],[1.695221,41.907689],[1.69526,41.90766],[1.695298,41.907619],[1.695309,41.907601],[1.695316,41.907574],[1.695312,41.907548],[1.695299,41.907516],[1.695285,41.907495],[1.695503,41.90735],[1.695469,41.907302],[1.695457,41.907289],[1.695407,41.907236],[1.695345,41.907189],[1.695329,41.907197],[1.695159,41.907292],[1.694944,41.907104],[1.695085,41.906996],[1.69509,41.906991],[1.694977,41.906892],[1.694794,41.906765],[1.694615,41.906953],[1.694459,41.907049],[1.695123,41.907714]]]]}},{"type":"Feature","id":"080478_080478 AP11 BAG 2","properties":{"area_id":"080478_080478 AP11 BAG 2","nom":"el Raval de Sant Joan","codi_icgc":"080478 AP11 BAG 2","categoria":"Àrees de poblament","codi_municipi":"080478","municipi":"Cardona","codi_comarca":"07","comarca":"Bages","provincia":"Barcelona","font":"ICGC Àrees de poblament v3r1 202602"},"geometry":{"type":"MultiPolygon","coordinates":[[[[1.680234,41.916501],[1.680098,41.916394],[1.68007,41.916361],[1.680047,41.91638],[1.680021,41.916393],[1.680006,41.916399],[1.680006,41.916389],[1.680003,41.916381],[1.680002,41.916367],[1.679993,41.916338],[1.679982,41.916294],[1.680001,41.916283],[1.679933,41.916174],[1.679826,41.916211],[1.679703,41.916244],[1.679659,41.916241],[1.679462,41.91623],[1.679463,41.916225],[1.679238,41.916211],[1.679075,41.916178],[1.678944,41.916138],[1.678843,41.916098],[1.678831,41.916101],[1.678776,41.916072],[1.678775,41.916044],[1.678769,41.916023],[1.678759,41.915999],[1.678744,41.915977],[1.678724,41.915953],[1.6787,41.915933],[1.678645,41.915895],[1.678588,41.91586],[1.67853,41.915828],[1.678473,41.915795],[1.67846,41.915788],[1.67844,41.915776],[1.678405,41.915759],[1.678363,41.915742],[1.678321,41.915726],[1.67835,41.915676],[1.678336,41.915671],[1.678354,41.91564],[1.678303,41.915624],[1.678295,41.915638],[1.678255,41.915625],[1.678259,41.915619],[1.678143,41.915581],[1.678137,41.915591],[1.678099,41.915578],[1.678104,41.915568],[1.678053,41.915552],[1.678039,41.915576],[1.677984,41.915577],[1.677969,41.915598],[1.677922,41.915667],[1.678161,41.915726],[1.678335,41.915785],[1.678364,41.915793],[1.678371,41.915795],[1.678371,41.915799],[1.678383,41.915874],[1.678336,41.915942],[1.678291,41.916008],[1.67836,41.916049],[1.678363,41.916106],[1.678362,41.916225],[1.678291,41.916258],[1.678322,41.916306],[1.678361,41.916356],[1.678577,41.916414],[1.678596,41.916372],[1.67861,41.916374],[1.67869,41.916362],[1.678746,41.916362],[1.678846,41.91639],[1.678969,41.916426],[1.679086,41.916466],[1.679057,41.916522],[1.679007,41.916621],[1.679089,41.916634],[1.679219,41.916668],[1.679241,41.916673],[1.679327,41.916675],[1.679537,41.916679],[1.679521,41.916762],[1.679648,41.916813],[1.679805,41.91687],[1.679959,41.91677],[1.680049,41.916709],[1.680067,41.916697],[1.680086,41.916683],[1.680111,41.916649],[1.680126,41.916635],[1.680221,41.916518],[1.680234,41.916501]]],[[[1.683601,41.918447],[1.683636,41.918325],[1.683641,41.918309],[1.683649,41.918282],[1.683676,41.918191],[1.68369,41.918135],[1.683711,41.918021],[1.683911,41.918107],[1.683957,41.918118],[1.68399,41.918125],[1.684021,41.918103],[1.684051,41.918121],[1.684091,41.918091],[1.684114,41.918074],[1.684122,41.918068],[1.684369,41.918111],[1.684345,41.918168],[1.68435,41.91819],[1.684516,41.918162],[1.684636,41.918122],[1.684668,41.918112],[1.684695,41.918097],[1.684717,41.918058],[1.684713,41.918019],[1.6847,41.918015],[1.684677,41.91801],[1.684681,41.918003],[1.684674,41.917998],[1.684661,41.917989],[1.684692,41.917947],[1.684709,41.917925],[1.68473,41.917922],[1.684828,41.917906],[1.684842,41.917904],[1.68483,41.917856],[1.684824,41.917826],[1.684823,41.917807],[1.684819,41.917789],[1.684812,41.917752],[1.684813,41.917724],[1.684819,41.917703],[1.684835,41.917673],[1.684851,41.917654],[1.684859,41.917643],[1.684862,41.91764],[1.684886,41.917618],[1.684932,41.917589],[1.684983,41.917566],[1.684995,41.917562],[1.684999,41.917561],[1.685014,41.917559],[1.685024,41.917557],[1.685037,41.917554],[1.68506,41.917551],[1.685057,41.917543],[1.685052,41.917502],[1.685038,41.917471],[1.685012,41.917433],[1.684971,41.917383],[1.68493,41.917333],[1.684908,41.917299],[1.684884,41.917266],[1.684856,41.917232],[1.684827,41.917197],[1.684844,41.917186],[1.684733,41.917091],[1.684718,41.917101],[1.684632,41.917056],[1.684624,41.917052],[1.684551,41.917002],[1.684498,41.916969],[1.684412,41.916924],[1.684325,41.916879],[1.68425,41.91684],[1.684174,41.916803],[1.684159,41.916798],[1.684134,41.916798],[1.684109,41.916802],[1.684081,41.916809],[1.684055,41.916821],[1.684029,41.916837],[1.683995,41.916864],[1.684039,41.916801],[1.684063,41.916782],[1.684091,41.916767],[1.6841,41.916764],[1.684141,41.916748],[1.684192,41.916729],[1.684227,41.916718],[1.684266,41.91671],[1.684275,41.916708],[1.684351,41.916689],[1.684393,41.916679],[1.684435,41.916673],[1.684536,41.916666],[1.68464,41.91666],[1.684712,41.916656],[1.684784,41.916652],[1.684881,41.916645],[1.684976,41.916638],[1.685022,41.916637],[1.685092,41.91664],[1.685127,41.916644],[1.685418,41.916831],[1.685503,41.916887],[1.685635,41.916888],[1.685663,41.916888],[1.685778,41.916885],[1.686075,41.916793],[1.686161,41.91679],[1.686162,41.916689],[1.686123,41.916688],[1.686045,41.916686],[1.685916,41.916685],[1.685788,41.916684],[1.685674,41.916681],[1.685627,41.916679],[1.685598,41.916678],[1.685568,41.916677],[1.685548,41.916686],[1.685536,41.916689],[1.685524,41.916691],[1.685496,41.916691],[1.685439,41.916687],[1.685382,41.916678],[1.685302,41.916659],[1.685223,41.916637],[1.685167,41.916625],[1.685095,41.916617],[1.685023,41.916614],[1.685001,41.916614],[1.684993,41.916612],[1.684919,41.916592],[1.684844,41.916572],[1.684753,41.916551],[1.684662,41.916532],[1.684592,41.916513],[1.684524,41.916491],[1.684479,41.916475],[1.6844,41.91644],[1.684325,41.916401],[1.68428,41.916376],[1.684236,41.916349],[1.684202,41.916332],[1.684153,41.916315],[1.684103,41.916302],[1.684004,41.916277],[1.6839,41.916252],[1.683796,41.916228],[1.683759,41.91622],[1.683721,41.916211],[1.683713,41.916209],[1.683643,41.916149],[1.683493,41.915958],[1.683331,41.915801],[1.683362,41.91574],[1.683437,41.915638],[1.683452,41.915599],[1.683304,41.915546],[1.683197,41.915516],[1.68312,41.91553],[1.682914,41.915594],[1.682432,41.915805],[1.682435,41.915811],[1.682443,41.915823],[1.682504,41.915917],[1.682512,41.915928],[1.682517,41.915943],[1.682514,41.915959],[1.682504,41.915974],[1.682488,41.915984],[1.682459,41.915944],[1.682463,41.915941],[1.682469,41.91593],[1.682468,41.915918],[1.682459,41.915907],[1.682445,41.915901],[1.682429,41.9159],[1.682414,41.915905],[1.682404,41.915914],[1.6824,41.915926],[1.682404,41.915938],[1.68223,41.916016],[1.682273,41.916074],[1.682181,41.916075],[1.682084,41.916059],[1.682052,41.916034],[1.682055,41.916023],[1.682034,41.916004],[1.681946,41.915925],[1.681928,41.915918],[1.681919,41.915914],[1.681678,41.916018],[1.681575,41.916054],[1.681507,41.916078],[1.68149,41.916084],[1.681498,41.916095],[1.681527,41.916147],[1.681561,41.916202],[1.681565,41.916225],[1.681566,41.916233],[1.681557,41.916236],[1.681533,41.916241],[1.681468,41.916257],[1.681429,41.916258],[1.681388,41.916256],[1.681348,41.916249],[1.681309,41.916238],[1.68127,41.916226],[1.681238,41.916219],[1.681207,41.916207],[1.681177,41.916196],[1.681154,41.916189],[1.681128,41.916183],[1.681121,41.916179],[1.681073,41.916242],[1.681069,41.916252],[1.681019,41.916313],[1.680998,41.916338],[1.680988,41.91635],[1.680947,41.916394],[1.680938,41.916406],[1.680909,41.916443],[1.680875,41.916497],[1.68085,41.916552],[1.680846,41.916567],[1.680846,41.916589],[1.680852,41.916612],[1.680872,41.916649],[1.680886,41.916666],[1.680903,41.916681],[1.680943,41.916709],[1.680976,41.916731],[1.680997,41.916745],[1.681029,41.916765],[1.681049,41.916779],[1.681102,41.916812],[1.681156,41.916846],[1.681169,41.916857],[1.681185,41.916877],[1.681189,41.916888],[1.681191,41.916899],[1.681189,41.916933],[1.681186,41.916972],[1.681184,41.917004],[1.681181,41.917045],[1.681178,41.917118],[1.681174,41.917192],[1.681176,41.917213],[1.68118,41.917223],[1.681188,41.917244],[1.681194,41.917253],[1.681222,41.917292],[1.681249,41.917313],[1.681265,41.917322],[1.681285,41.917334],[1.681303,41.917338],[1.681307,41.91734],[1.681393,41.917358],[1.681399,41.917359],[1.681548,41.917411],[1.681719,41.917455],[1.681729,41.917458],[1.681905,41.917503],[1.681864,41.917551],[1.681957,41.917575],[1.682026,41.917594],[1.68206,41.917555],[1.682146,41.917592],[1.68215,41.917594],[1.682171,41.9176],[1.6822,41.917613],[1.682283,41.917645],[1.682317,41.917658],[1.682351,41.91761],[1.682365,41.917617],[1.682393,41.91763],[1.68239,41.917633],[1.682592,41.917731],[1.682596,41.917728],[1.682644,41.91775],[1.682652,41.91774],[1.682913,41.917861],[1.682877,41.917903],[1.682899,41.917913],[1.682955,41.917932],[1.68299,41.917956],[1.682999,41.917955],[1.68302,41.917951],[1.683043,41.917944],[1.683065,41.917936],[1.68308,41.917928],[1.683102,41.917913],[1.683119,41.917896],[1.68313,41.917883],[1.683147,41.91785],[1.683154,41.917826],[1.683155,41.917811],[1.683152,41.917792],[1.683143,41.917768],[1.683132,41.917753],[1.683116,41.917738],[1.683099,41.917726],[1.683088,41.91772],[1.683074,41.917714],[1.682993,41.917676],[1.682941,41.917652],[1.682592,41.917487],[1.682429,41.91741],[1.682617,41.917216],[1.682667,41.917163],[1.682969,41.917306],[1.683209,41.917033],[1.683228,41.917044],[1.683309,41.917091],[1.683343,41.917112],[1.683376,41.917132],[1.683402,41.917148],[1.683428,41.917163],[1.683452,41.917178],[1.683476,41.917193],[1.683492,41.917203],[1.683508,41.917212],[1.683517,41.917234],[1.683525,41.917256],[1.683543,41.917293],[1.683552,41.91731],[1.68356,41.917327],[1.683556,41.917349],[1.683552,41.917372],[1.683543,41.917391],[1.683534,41.917411],[1.683523,41.917434],[1.683512,41.917457],[1.683511,41.91746],[1.683453,41.917576],[1.683459,41.917578],[1.683551,41.917603],[1.683554,41.917604],[1.683688,41.917637],[1.683698,41.917646],[1.683708,41.917658],[1.683728,41.917697],[1.683746,41.917722],[1.683751,41.91773],[1.683766,41.917742],[1.683775,41.917751],[1.683801,41.917771],[1.683827,41.917787],[1.683805,41.917781],[1.683644,41.91774],[1.683635,41.917765],[1.683658,41.917781],[1.683673,41.917802],[1.68368,41.91782],[1.683684,41.917854],[1.683655,41.917905],[1.683636,41.917945],[1.683617,41.918001],[1.683587,41.917986],[1.68356,41.917975],[1.683551,41.917972],[1.683428,41.917956],[1.683394,41.917959],[1.683381,41.917961],[1.683374,41.917962],[1.683361,41.917963],[1.683348,41.918018],[1.683184,41.918027],[1.683183,41.918057],[1.683182,41.918063],[1.683181,41.918095],[1.683181,41.918133],[1.683179,41.918154],[1.68318,41.918196],[1.683179,41.918257],[1.683154,41.918263],[1.683083,41.918286],[1.682972,41.918325],[1.682859,41.918364],[1.682951,41.918386],[1.683172,41.918382],[1.683186,41.91837],[1.683193,41.918368],[1.683299,41.918354],[1.683298,41.918364],[1.683294,41.918405],[1.68332,41.918409],[1.683329,41.91841],[1.683601,41.918447]]]]}},{"type":"Feature","id":"080478_080478 AP05 BAG 2","properties":{"area_id":"080478_080478 AP05 BAG 2","nom":"els Escorials","codi_icgc":"080478 AP05 BAG 2","categoria":"Àrees de poblament","codi_municipi":"080478","municipi":"Cardona","codi_comarca":"07","comarca":"Bages","provincia":"Barcelona","font":"ICGC Àrees de poblament v3r1 202602"},"geometry":{"type":"MultiPolygon","coordinates":[[[[1.694382,41.911793],[1.694263,41.911897],[1.694165,41.911828],[1.694148,41.911828],[1.694112,41.911978],[1.694053,41.912077],[1.693688,41.912083],[1.69348,41.912229],[1.692893,41.912753],[1.692879,41.912787],[1.692854,41.912854],[1.692818,41.912971],[1.692813,41.91299],[1.692803,41.91303],[1.692791,41.913089],[1.692789,41.913123],[1.692794,41.91314],[1.692805,41.913153],[1.692836,41.913172],[1.692853,41.913184],[1.692933,41.913231],[1.693,41.913266],[1.693058,41.913299],[1.693091,41.913322],[1.693124,41.913344],[1.693138,41.913347],[1.693152,41.913344],[1.693205,41.913308],[1.693254,41.913269],[1.693313,41.913218],[1.693374,41.913168],[1.693414,41.913141],[1.693455,41.913116],[1.693485,41.9131],[1.693515,41.913083],[1.693526,41.913075],[1.693537,41.913069],[1.693543,41.913069],[1.693551,41.913074],[1.693559,41.913079],[1.693579,41.913091],[1.693592,41.913087],[1.693615,41.913113],[1.693631,41.913122],[1.693647,41.913124],[1.693663,41.913119],[1.693709,41.913087],[1.693774,41.913037],[1.693841,41.912989],[1.693957,41.912914],[1.694024,41.912868],[1.6941,41.912813],[1.694147,41.912778],[1.694166,41.912763],[1.694184,41.91275],[1.694223,41.91272],[1.694234,41.912712],[1.694237,41.91271],[1.694252,41.912698],[1.694309,41.912654],[1.694343,41.912628],[1.694377,41.912602],[1.694392,41.912592],[1.694413,41.912578],[1.694448,41.912553],[1.694465,41.912543],[1.694494,41.912532],[1.694516,41.912563],[1.694541,41.912594],[1.694562,41.912627],[1.694589,41.912661],[1.6946,41.912675],[1.694713,41.912841],[1.694736,41.912871],[1.694755,41.912891],[1.694773,41.912914],[1.694783,41.91292],[1.694804,41.912923],[1.694824,41.91292],[1.694907,41.912897],[1.694982,41.912867],[1.694999,41.912865],[1.695038,41.912851],[1.695083,41.912828],[1.6951,41.912816],[1.695119,41.912796],[1.695133,41.912774],[1.695141,41.912757],[1.695146,41.912745],[1.695162,41.912715],[1.695191,41.91272],[1.695208,41.912665],[1.695215,41.912645],[1.695222,41.91263],[1.69523,41.912621],[1.69524,41.912614],[1.69527,41.912609],[1.695336,41.91259],[1.695387,41.912569],[1.695432,41.912546],[1.69546,41.912528],[1.695466,41.912524],[1.695511,41.912472],[1.695662,41.912266],[1.695665,41.912249],[1.695668,41.912239],[1.695676,41.912216],[1.695696,41.91217],[1.695724,41.912127],[1.695764,41.912072],[1.695803,41.912018],[1.695859,41.911946],[1.695874,41.911921],[1.695886,41.911886],[1.695895,41.911832],[1.695904,41.911779],[1.695905,41.911775],[1.695904,41.911769],[1.695893,41.911744],[1.69588,41.911732],[1.695876,41.91173],[1.695668,41.911724],[1.695456,41.911742],[1.695376,41.911764],[1.695369,41.911769],[1.695358,41.911784],[1.695353,41.911798],[1.695345,41.911807],[1.695333,41.911813],[1.695319,41.911815],[1.695278,41.911822],[1.695241,41.911827],[1.695202,41.911828],[1.695163,41.911828],[1.695126,41.91183],[1.695035,41.911849],[1.694973,41.911861],[1.694874,41.911876],[1.694776,41.911892],[1.694729,41.911899],[1.694704,41.911905],[1.694617,41.911627],[1.694463,41.911651],[1.694501,41.911768],[1.694382,41.911793]]]]}},{"type":"Feature","id":"080478_080478 AP03 BAG 2","properties":{"area_id":"080478_080478 AP03 BAG 2","nom":"la Colònia Aramburu","codi_icgc":"080478 AP03 BAG 2","categoria":"Àrees de poblament","codi_municipi":"080478","municipi":"Cardona","codi_comarca":"07","comarca":"Bages","provincia":"Barcelona","font":"ICGC Àrees de poblament v3r1 202602"},"geometry":{"type":"MultiPolygon","coordinates":[[[[1.693793,41.909092],[1.693641,41.909084],[1.693428,41.909079],[1.69332,41.909076],[1.693205,41.909135],[1.692989,41.909246],[1.692645,41.909441],[1.692142,41.909752],[1.69215,41.909788],[1.692303,41.909788],[1.692324,41.909808],[1.692375,41.90978],[1.692561,41.909782],[1.692792,41.909775],[1.692792,41.909778],[1.692839,41.909777],[1.692838,41.909773],[1.692886,41.909772],[1.693155,41.909774],[1.693241,41.909776],[1.693377,41.909782],[1.69338,41.909737],[1.693393,41.909531],[1.693587,41.909535],[1.693892,41.909544],[1.6939,41.909482],[1.693861,41.909477],[1.693883,41.9091],[1.693793,41.909092]]]]}},{"type":"Feature","id":"080478_080478 AP04 BAG 2","properties":{"area_id":"080478_080478 AP04 BAG 2","nom":"la Colònia Manuela","codi_icgc":"080478 AP04 BAG 2","categoria":"Àrees de poblament","codi_municipi":"080478","municipi":"Cardona","codi_comarca":"07","comarca":"Bages","provincia":"Barcelona","font":"ICGC Àrees de poblament v3r1 202602"},"geometry":{"type":"MultiPolygon","coordinates":[[[[1.690719,41.912437],[1.69072,41.912498],[1.690726,41.912579],[1.690733,41.912602],[1.690756,41.912641],[1.6908,41.912698],[1.69082,41.912727],[1.690834,41.912757],[1.690843,41.912803],[1.690844,41.912874],[1.690847,41.91291],[1.690856,41.912944],[1.690881,41.912991],[1.690928,41.913061],[1.690959,41.91311],[1.690979,41.913168],[1.690983,41.913182],[1.690998,41.913258],[1.691007,41.913297],[1.691055,41.913404],[1.691094,41.913484],[1.691164,41.913631],[1.691348,41.913914],[1.691281,41.913934],[1.691467,41.91425],[1.691523,41.914226],[1.691526,41.914225],[1.691554,41.914242],[1.691628,41.914287],[1.691646,41.914341],[1.691651,41.914357],[1.69166,41.914366],[1.69176,41.914317],[1.69181,41.914262],[1.69184,41.914228],[1.69186,41.914201],[1.691884,41.914159],[1.691901,41.914115],[1.691905,41.914094],[1.691905,41.914059],[1.691898,41.914025],[1.691863,41.913937],[1.691828,41.913848],[1.691794,41.913758],[1.691764,41.913666],[1.691754,41.913629],[1.691747,41.913573],[1.691748,41.913518],[1.691762,41.91344],[1.691775,41.913364],[1.691788,41.913282],[1.691795,41.913201],[1.69179,41.913176],[1.691772,41.913135],[1.691746,41.913094],[1.691685,41.913011],[1.691652,41.912973],[1.691613,41.912939],[1.691527,41.912878],[1.69144,41.912816],[1.691432,41.91281],[1.69142,41.912806],[1.691084,41.912594],[1.690906,41.912445],[1.690864,41.912414],[1.690844,41.9124],[1.690719,41.912437]]]]}},{"type":"Feature","id":"080478_080478 AP02 BAG 2","properties":{"area_id":"080478_080478 AP02 BAG 2","nom":"la Colònia dels Arquers","codi_icgc":"080478 AP02 BAG 2","categoria":"Àrees de poblament","codi_municipi":"080478","municipi":"Cardona","codi_comarca":"07","comarca":"Bages","provincia":"Barcelona","font":"ICGC Àrees de poblament v3r1 202602"},"geometry":{"type":"MultiPolygon","coordinates":[[[[1.671641,41.908614],[1.672476,41.907791],[1.672158,41.907583],[1.671752,41.907869],[1.671693,41.90791],[1.671492,41.908051],[1.671469,41.908067],[1.671354,41.908148],[1.670774,41.908015],[1.670726,41.908004],[1.670622,41.90798],[1.670589,41.907972],[1.670166,41.908406],[1.670145,41.908426],[1.670127,41.908443],[1.67011,41.908461],[1.670108,41.908464],[1.670086,41.908486],[1.669965,41.908609],[1.670048,41.908677],[1.670135,41.908737],[1.670265,41.908827],[1.670402,41.908897],[1.67057,41.908991],[1.670661,41.909039],[1.670666,41.909044],[1.670683,41.909066],[1.670704,41.90909],[1.670717,41.909141],[1.670709,41.909225],[1.670707,41.90923],[1.670745,41.909279],[1.670782,41.909326],[1.670795,41.909343],[1.670856,41.909421],[1.670835,41.909478],[1.670832,41.909489],[1.67083,41.909493],[1.670853,41.909508],[1.671555,41.909926],[1.671567,41.909933],[1.671577,41.909938],[1.671592,41.909946],[1.671599,41.909952],[1.671837,41.910093],[1.671852,41.910089],[1.672025,41.910049],[1.672053,41.910042],[1.672031,41.91003],[1.671971,41.909991],[1.671902,41.909945],[1.671847,41.909909],[1.671824,41.909872],[1.671923,41.909739],[1.671397,41.909444],[1.671399,41.909347],[1.671416,41.909264],[1.671458,41.909151],[1.671571,41.90908],[1.671556,41.908985],[1.671091,41.908779],[1.671093,41.908774],[1.671641,41.908614]]]]}},{"type":"Feature","id":"080478_080478 AP09 BAG 3","properties":{"area_id":"080478_080478 AP09 BAG 3","nom":"la Coromina","codi_icgc":"080478 AP09 BAG 3","categoria":"Àrees de poblament","codi_municipi":"080478","municipi":"Cardona","codi_comarca":"07","comarca":"Bages","provincia":"Barcelona","font":"ICGC Àrees de poblament v3r1 202602"},"geometry":{"type":"MultiPolygon","coordinates":[[[[1.693705,41.909557],[1.693636,41.909589],[1.693541,41.909606],[1.693428,41.909643],[1.693417,41.909726],[1.693414,41.909834],[1.693176,41.909828],[1.692985,41.909837],[1.692906,41.909844],[1.692917,41.909898],[1.692954,41.909922],[1.692988,41.909927],[1.693151,41.909919],[1.693299,41.909912],[1.693326,41.909911],[1.693323,41.90994],[1.693315,41.910018],[1.693363,41.910021],[1.693372,41.909933],[1.693422,41.909936],[1.693679,41.909951],[1.693676,41.909966],[1.693735,41.909972],[1.693733,41.909983],[1.693895,41.909999],[1.694233,41.910013],[1.694248,41.910014],[1.694298,41.910015],[1.694299,41.910006],[1.694307,41.910006],[1.694284,41.910039],[1.694294,41.910039],[1.69424,41.91052],[1.694222,41.910563],[1.694208,41.910585],[1.69416,41.910683],[1.694181,41.910689],[1.694169,41.910715],[1.694137,41.910795],[1.694105,41.910874],[1.694065,41.910977],[1.694062,41.910985],[1.694086,41.911037],[1.694227,41.911108],[1.694251,41.91112],[1.694453,41.911152],[1.694549,41.911157],[1.694645,41.911162],[1.695771,41.911337],[1.695792,41.911339],[1.695932,41.910794],[1.695943,41.910749],[1.695559,41.910672],[1.695257,41.910628],[1.695005,41.910595],[1.694846,41.910572],[1.694687,41.910549],[1.69459,41.910537],[1.694491,41.91053],[1.694429,41.910531],[1.694367,41.910535],[1.694324,41.910538],[1.69428,41.910546],[1.694268,41.91055],[1.694271,41.910544],[1.694273,41.910541],[1.694287,41.910516],[1.69429,41.910508],[1.694301,41.910486],[1.694344,41.91022],[1.694361,41.910033],[1.694361,41.91003],[1.694423,41.910037],[1.694829,41.910069],[1.695091,41.910099],[1.695243,41.910117],[1.695463,41.910156],[1.695494,41.910161],[1.695672,41.910186],[1.695907,41.910222],[1.69625,41.910267],[1.696238,41.91023],[1.696254,41.910188],[1.696259,41.910175],[1.696264,41.910155],[1.696108,41.910112],[1.696016,41.910088],[1.696007,41.910085],[1.695959,41.910063],[1.695913,41.910037],[1.695873,41.910008],[1.695856,41.909993],[1.695841,41.909975],[1.695828,41.90995],[1.695813,41.909911],[1.695802,41.909872],[1.695794,41.909832],[1.695788,41.909771],[1.695783,41.909741],[1.695776,41.90971],[1.695758,41.909669],[1.695753,41.90966],[1.695747,41.909649],[1.695644,41.909514],[1.695599,41.909454],[1.695582,41.909439],[1.695583,41.909435],[1.695909,41.909343],[1.695914,41.909342],[1.696144,41.90928],[1.696356,41.909222],[1.696394,41.909205],[1.696431,41.909193],[1.69672,41.909103],[1.696864,41.909059],[1.696912,41.909047],[1.697011,41.909022],[1.697005,41.908991],[1.696976,41.908832],[1.697032,41.90882],[1.697141,41.90886],[1.697183,41.908975],[1.697236,41.909005],[1.697251,41.909039],[1.697354,41.90901],[1.697387,41.909082],[1.697425,41.909169],[1.697568,41.909133],[1.697554,41.909102],[1.697551,41.909096],[1.697611,41.909081],[1.697623,41.909108],[1.69784,41.909053],[1.697832,41.909034],[1.697973,41.908999],[1.697978,41.909011],[1.698068,41.908988],[1.698054,41.908956],[1.69804,41.908959],[1.698017,41.908908],[1.697979,41.908918],[1.697936,41.908823],[1.698206,41.908758],[1.698312,41.908774],[1.698426,41.908643],[1.698336,41.908575],[1.698416,41.908508],[1.698403,41.908499],[1.698424,41.908482],[1.698381,41.908454],[1.698359,41.908472],[1.698336,41.908457],[1.698351,41.908445],[1.698363,41.908438],[1.698373,41.908437],[1.698392,41.908437],[1.698415,41.908439],[1.698478,41.908443],[1.698499,41.908446],[1.698564,41.908454],[1.69861,41.908464],[1.698642,41.908474],[1.698664,41.908484],[1.698697,41.908503],[1.698728,41.908527],[1.698738,41.908539],[1.698779,41.908552],[1.698816,41.908563],[1.698933,41.908375],[1.698883,41.908332],[1.698785,41.908286],[1.698641,41.908449],[1.69862,41.908442],[1.698571,41.908431],[1.698482,41.90842],[1.698393,41.908414],[1.698333,41.908414],[1.698298,41.908416],[1.69823,41.908423],[1.69822,41.908424],[1.698178,41.908399],[1.698137,41.908374],[1.698123,41.908363],[1.698115,41.908352],[1.698109,41.908335],[1.698121,41.908294],[1.698157,41.908258],[1.698345,41.908187],[1.698361,41.90818],[1.698359,41.908177],[1.698309,41.908088],[1.698258,41.908054],[1.698245,41.908045],[1.698088,41.90794],[1.698039,41.907908],[1.697718,41.908025],[1.696921,41.908288],[1.696902,41.908109],[1.69686,41.907867],[1.696849,41.907819],[1.696816,41.907654],[1.697284,41.907552],[1.697267,41.907509],[1.697178,41.907293],[1.697036,41.907315],[1.696846,41.907344],[1.696838,41.907345],[1.69683,41.907353],[1.696819,41.907367],[1.696813,41.907375],[1.696799,41.907392],[1.696794,41.907398],[1.696782,41.907423],[1.696778,41.907449],[1.696805,41.907595],[1.696645,41.907646],[1.696627,41.907652],[1.696428,41.907721],[1.696513,41.907918],[1.696456,41.907947],[1.696418,41.907962],[1.696326,41.908001],[1.696265,41.908061],[1.695962,41.908359],[1.695701,41.908614],[1.695216,41.908476],[1.695204,41.908472],[1.695087,41.908439],[1.695079,41.908437],[1.695094,41.908419],[1.695118,41.908388],[1.695191,41.908286],[1.695229,41.908231],[1.695263,41.908183],[1.695351,41.90806],[1.695396,41.908044],[1.695426,41.908002],[1.695411,41.908009],[1.695391,41.908011],[1.695362,41.908005],[1.695326,41.90799],[1.69532,41.907987],[1.695202,41.907923],[1.695121,41.907871],[1.69511,41.90786],[1.694882,41.907793],[1.694666,41.907824],[1.694618,41.907836],[1.694566,41.907852],[1.694548,41.907696],[1.694346,41.907712],[1.694368,41.907892],[1.694341,41.907893],[1.694306,41.907894],[1.694271,41.907892],[1.694252,41.907889],[1.694233,41.907884],[1.694198,41.907869],[1.694145,41.907839],[1.694093,41.907808],[1.694035,41.907772],[1.693977,41.907736],[1.6939,41.907691],[1.693821,41.907647],[1.693752,41.907607],[1.693682,41.907569],[1.693632,41.907547],[1.693578,41.907527],[1.693524,41.907507],[1.693518,41.907497],[1.69347,41.907415],[1.693443,41.907371],[1.693439,41.907364],[1.693431,41.907351],[1.693408,41.907314],[1.693372,41.90726],[1.693331,41.907208],[1.693292,41.907163],[1.693246,41.90712],[1.693204,41.907087],[1.693162,41.907056],[1.693138,41.907039],[1.693161,41.907018],[1.693182,41.906999],[1.693218,41.90697],[1.693229,41.906963],[1.693227,41.90696],[1.693238,41.906956],[1.693259,41.906949],[1.693726,41.906793],[1.693793,41.90677],[1.693901,41.906733],[1.693871,41.906681],[1.693824,41.906625],[1.693865,41.906603],[1.693892,41.906589],[1.693906,41.906572],[1.693908,41.906567],[1.693909,41.906548],[1.693906,41.906542],[1.693882,41.906528],[1.693856,41.906508],[1.693801,41.906501],[1.693843,41.906356],[1.693787,41.906344],[1.693811,41.906221],[1.69377,41.906215],[1.693701,41.906205],[1.693626,41.90643],[1.69366,41.906434],[1.693658,41.906442],[1.69365,41.906473],[1.693657,41.90649],[1.693686,41.906501],[1.69372,41.90651],[1.693771,41.906519],[1.693775,41.906545],[1.693636,41.906565],[1.693389,41.906601],[1.693301,41.906746],[1.693254,41.906761],[1.692933,41.906958],[1.692845,41.906807],[1.692839,41.906796],[1.692825,41.90675],[1.692699,41.906772],[1.692713,41.906818],[1.692725,41.906872],[1.692737,41.906924],[1.692578,41.906954],[1.692518,41.906966],[1.692567,41.907144],[1.692577,41.907143],[1.692588,41.907141],[1.692594,41.907162],[1.692603,41.907191],[1.692606,41.907203],[1.692796,41.907175],[1.692802,41.9072],[1.69279,41.907216],[1.692778,41.907232],[1.692761,41.907256],[1.692746,41.90728],[1.692721,41.907327],[1.692702,41.907375],[1.692688,41.907417],[1.692674,41.90746],[1.692662,41.907498],[1.692631,41.90753],[1.692452,41.907507],[1.692437,41.907505],[1.692409,41.907624],[1.692404,41.907624],[1.692305,41.908002],[1.692303,41.908013],[1.692273,41.907997],[1.692252,41.907985],[1.692239,41.907973],[1.69223,41.907962],[1.692203,41.907937],[1.692159,41.907908],[1.692107,41.907879],[1.692084,41.907872],[1.692041,41.907866],[1.691961,41.907866],[1.691858,41.907876],[1.691799,41.907926],[1.691853,41.907972],[1.691959,41.908036],[1.692023,41.908065],[1.692049,41.908072],[1.692075,41.908076],[1.692182,41.908081],[1.692211,41.908082],[1.692243,41.908084],[1.6923,41.908084],[1.692381,41.908138],[1.69244,41.908179],[1.692473,41.908199],[1.692483,41.908215],[1.692506,41.908233],[1.692559,41.908261],[1.69258,41.908283],[1.69287,41.908394],[1.692954,41.908429],[1.692968,41.908437],[1.693052,41.908478],[1.693125,41.908503],[1.693179,41.908524],[1.693296,41.908574],[1.693357,41.908596],[1.693368,41.908601],[1.693394,41.90861],[1.693432,41.908623],[1.69351,41.908643],[1.693537,41.908655],[1.693588,41.908671],[1.693641,41.908681],[1.693695,41.908686],[1.69375,41.908685],[1.693803,41.908678],[1.693856,41.908666],[1.693905,41.908648],[1.693932,41.908714],[1.693878,41.908801],[1.693846,41.908828],[1.693761,41.908868],[1.693671,41.90889],[1.693512,41.908931],[1.69347,41.908943],[1.693401,41.908953],[1.693334,41.908965],[1.693299,41.908973],[1.693265,41.908982],[1.693201,41.90893],[1.69311,41.908847],[1.693058,41.908799],[1.692963,41.908856],[1.692984,41.908878],[1.692856,41.908901],[1.692782,41.908892],[1.692765,41.90889],[1.692707,41.908885],[1.69264,41.908918],[1.692534,41.908968],[1.692455,41.909008],[1.692446,41.909012],[1.692416,41.909027],[1.69234,41.909065],[1.692473,41.909206],[1.692359,41.909279],[1.692508,41.909407],[1.692786,41.909263],[1.692973,41.909158],[1.693173,41.909048],[1.693359,41.909026],[1.693604,41.909029],[1.693774,41.909022],[1.693773,41.909067],[1.693941,41.909081],[1.693947,41.909106],[1.69391,41.909402],[1.693933,41.909405],[1.693906,41.909553],[1.693772,41.909548],[1.693705,41.909557]]]]}}]}