{"type":"FeatureCollection","name":"ICGC Àrees de poblament - Castellar del Riu","features":[{"type":"Feature","id":"080500_080500 AP03 BER 3","properties":{"area_id":"080500_080500 AP03 BER 3","nom":"Castellar del Riu","codi_icgc":"080500 AP03 BER 3","categoria":"Àrees de poblament","codi_municipi":"080500","municipi":"Castellar del Riu","codi_comarca":"14","comarca":"Berguedà","provincia":"Barcelona","font":"ICGC Àrees de poblament v3r1 202602"},"geometry":{"type":"MultiPolygon","coordinates":[[[[1.762436,42.121055],[1.762474,42.121034],[1.762504,42.121018],[1.762539,42.121002],[1.762577,42.120988],[1.762635,42.120971],[1.762694,42.120958],[1.762732,42.120954],[1.762793,42.12095],[1.762854,42.120944],[1.762896,42.120937],[1.762937,42.120928],[1.762959,42.120923],[1.762985,42.120914],[1.763004,42.120902],[1.763038,42.120886],[1.763062,42.120874],[1.763114,42.120856],[1.763151,42.120846],[1.763209,42.120841],[1.763265,42.120839],[1.763294,42.120837],[1.76344,42.120724],[1.763481,42.120698],[1.76355,42.120585],[1.76361,42.120478],[1.763612,42.120378],[1.763344,42.120354],[1.763142,42.120351],[1.763008,42.120314],[1.762904,42.120234],[1.762769,42.12029],[1.762439,42.120451],[1.762312,42.12055],[1.762433,42.120751],[1.76224,42.120835],[1.762313,42.121014],[1.762347,42.121031],[1.762389,42.121051],[1.762392,42.12105],[1.762398,42.121053],[1.762423,42.121063],[1.762436,42.121055]]]]}},{"type":"Feature","id":"080500_080500 AP02 BER 3","properties":{"area_id":"080500_080500 AP02 BER 3","nom":"Espinalbet","codi_icgc":"080500 AP02 BER 3","categoria":"Àrees de poblament","codi_municipi":"080500","municipi":"Castellar del Riu","codi_comarca":"14","comarca":"Berguedà","provincia":"Barcelona","font":"ICGC Àrees de poblament v3r1 202602"},"geometry":{"type":"MultiPolygon","coordinates":[[[[1.803903,42.117073],[1.804253,42.117225],[1.804445,42.117197],[1.804541,42.117184],[1.804595,42.117174],[1.804798,42.117301],[1.804778,42.117379],[1.804691,42.11746],[1.804796,42.117516],[1.805128,42.117647],[1.805145,42.11774],[1.805153,42.117833],[1.80519,42.117912],[1.805256,42.117985],[1.805388,42.118108],[1.805415,42.118222],[1.805442,42.118294],[1.805528,42.118352],[1.805624,42.118393],[1.805775,42.11836],[1.805769,42.118077],[1.805738,42.117904],[1.805753,42.1179],[1.80573,42.117818],[1.805818,42.117726],[1.805971,42.117735],[1.806362,42.117868],[1.806381,42.117911],[1.806523,42.117991],[1.806733,42.118072],[1.806884,42.118238],[1.806882,42.118323],[1.806901,42.118345],[1.806917,42.118524],[1.806962,42.118674],[1.806893,42.118745],[1.806739,42.118801],[1.806662,42.118786],[1.806447,42.118689],[1.806433,42.118688],[1.806321,42.118821],[1.806512,42.118903],[1.80652,42.118933],[1.806713,42.119182],[1.807141,42.119076],[1.807302,42.119024],[1.807462,42.119026],[1.807542,42.119027],[1.807843,42.119355],[1.807968,42.119371],[1.808065,42.119306],[1.808197,42.119111],[1.808101,42.119086],[1.808135,42.118967],[1.808137,42.118884],[1.808187,42.118795],[1.808212,42.11877],[1.808048,42.1186],[1.807912,42.118699],[1.807806,42.11874],[1.807594,42.118738],[1.807336,42.118714],[1.807241,42.118642],[1.807177,42.118476],[1.807093,42.118325],[1.807144,42.11819],[1.80729,42.118084],[1.807388,42.117978],[1.807495,42.117872],[1.8076,42.11793],[1.807628,42.117974],[1.807685,42.117988],[1.807743,42.117996],[1.807838,42.117994],[1.807969,42.117867],[1.807733,42.117719],[1.807506,42.117693],[1.807487,42.117721],[1.807397,42.117798],[1.807349,42.117827],[1.807156,42.117837],[1.8069,42.11787],[1.806412,42.117865],[1.806483,42.117697],[1.806175,42.117615],[1.806032,42.117585],[1.805946,42.11752],[1.805919,42.117434],[1.806018,42.117271],[1.806136,42.117129],[1.806322,42.11713],[1.806482,42.117109],[1.806739,42.117052],[1.806854,42.116887],[1.806877,42.116917],[1.806955,42.11699],[1.807054,42.117033],[1.807126,42.117039],[1.807255,42.116985],[1.807286,42.116897],[1.807247,42.116831],[1.807105,42.116723],[1.807195,42.116622],[1.80736,42.11666],[1.807439,42.116473],[1.807295,42.116427],[1.807445,42.116076],[1.807359,42.115975],[1.807508,42.115702],[1.807494,42.11563],[1.807438,42.115594],[1.807528,42.115417],[1.807442,42.115386],[1.807409,42.115375],[1.807208,42.115314],[1.807196,42.115332],[1.807036,42.115585],[1.807158,42.115615],[1.807126,42.115627],[1.807101,42.115662],[1.807077,42.115692],[1.807076,42.115715],[1.807107,42.115769],[1.807131,42.115793],[1.807202,42.115842],[1.806974,42.116459],[1.806902,42.116476],[1.806793,42.116438],[1.806806,42.116457],[1.806006,42.116281],[1.805872,42.116346],[1.8053,42.11632],[1.805244,42.116536],[1.805247,42.116611],[1.805505,42.1167],[1.805447,42.116842],[1.805478,42.11686],[1.805605,42.116915],[1.805842,42.117114],[1.805744,42.117203],[1.805663,42.117226],[1.805544,42.117219],[1.805378,42.117104],[1.805077,42.116928],[1.804913,42.116799],[1.804785,42.116698],[1.804643,42.116608],[1.804501,42.116493],[1.804415,42.116391],[1.804275,42.116199],[1.804123,42.115914],[1.803933,42.115965],[1.803939,42.115987],[1.804076,42.116292],[1.80419,42.116436],[1.804312,42.116548],[1.804616,42.116768],[1.804421,42.116959],[1.804423,42.11696],[1.804265,42.117045],[1.803989,42.116956],[1.803903,42.117073]]]]}},{"type":"Feature","id":"080500_080500 AP01 BER 3","properties":{"area_id":"080500_080500 AP01 BER 3","nom":"Llinars","codi_icgc":"080500 AP01 BER 3","categoria":"Àrees de poblament","codi_municipi":"080500","municipi":"Castellar del Riu","codi_comarca":"14","comarca":"Berguedà","provincia":"Barcelona","font":"ICGC Àrees de poblament v3r1 202602"},"geometry":{"type":"MultiPolygon","coordinates":[[[[1.708742,42.131772],[1.709213,42.131412],[1.708861,42.130938],[1.70886,42.130938],[1.708845,42.130933],[1.70835,42.130869],[1.707994,42.130908],[1.707868,42.130978],[1.707762,42.130977],[1.707672,42.130937],[1.707596,42.130978],[1.707489,42.131109],[1.707447,42.131226],[1.707811,42.131392],[1.708004,42.131373],[1.708147,42.131381],[1.708281,42.131412],[1.708461,42.131557],[1.708742,42.131772]]]]}}]}