{"type":"FeatureCollection","name":"ICGC Àrees de poblament - Cornellà de Llobregat","features":[{"type":"Feature","id":"080734_080734 SI04 BLL 2","properties":{"area_id":"080734_080734 SI04 BLL 2","nom":"Actuació industrial Femades","codi_icgc":"080734 SI04 BLL 2","categoria":"Sector industrial","codi_municipi":"080734","municipi":"Cornellà de Llobregat","codi_comarca":"11","comarca":"Baix Llobregat","provincia":"Barcelona","font":"ICGC Àrees de poblament v3r1 202602"},"geometry":{"type":"MultiPolygon","coordinates":[[[[2.095507,41.358077],[2.097283,41.355341],[2.099596,41.352057],[2.095324,41.349991],[2.094198,41.351561],[2.093011,41.35321],[2.092363,41.354292],[2.0905,41.357549],[2.090604,41.357684],[2.090825,41.35773],[2.091161,41.357797],[2.09152,41.357871],[2.091672,41.357894],[2.091781,41.357891],[2.091857,41.357881],[2.091938,41.357864],[2.092086,41.357797],[2.092177,41.357708],[2.09224,41.357644],[2.092511,41.357221],[2.092666,41.356988],[2.094172,41.357529],[2.094526,41.35767],[2.094672,41.357728],[2.095507,41.358077]]],[[[2.091934,41.360423],[2.091832,41.360395],[2.092118,41.360116],[2.092349,41.359896],[2.091882,41.35977],[2.091908,41.359714],[2.092153,41.359132],[2.091887,41.359069],[2.091095,41.358918],[2.089771,41.35866],[2.089185,41.35847],[2.089004,41.358514],[2.088928,41.358723],[2.088895,41.358845],[2.08889,41.359202],[2.088918,41.359445],[2.089008,41.359741],[2.089154,41.360103],[2.08926,41.360308],[2.08925,41.360379],[2.089077,41.360358],[2.089032,41.360632],[2.089258,41.360691],[2.090181,41.360932],[2.090163,41.361089],[2.090687,41.361226],[2.090771,41.361244],[2.090853,41.36121],[2.090948,41.361157],[2.091111,41.361051],[2.09127,41.360943],[2.091427,41.360844],[2.091506,41.360784],[2.091615,41.360697],[2.091853,41.360501],[2.091934,41.360423]]]]}},{"type":"Feature","id":"080734_080734 SI03 BLL 2","properties":{"area_id":"080734_080734 SI03 BLL 2","nom":"Can Bagueria-Carretera d'Esplugues","codi_icgc":"080734 SI03 BLL 2","categoria":"Sector industrial","codi_municipi":"080734","municipi":"Cornellà de Llobregat","codi_comarca":"11","comarca":"Baix Llobregat","provincia":"Barcelona","font":"ICGC Àrees de poblament v3r1 202602"},"geometry":{"type":"MultiPolygon","coordinates":[[[[2.076687,41.365539],[2.076665,41.365554],[2.076574,41.365615],[2.07641,41.365725],[2.076275,41.365806],[2.075649,41.366181],[2.075543,41.366203],[2.075444,41.366261],[2.075937,41.366759],[2.075654,41.36692],[2.075946,41.367244],[2.075356,41.367581],[2.075394,41.367607],[2.077161,41.368643],[2.077327,41.368742],[2.077495,41.368843],[2.077583,41.368884],[2.078033,41.369161],[2.078111,41.36921],[2.078331,41.36935],[2.078918,41.369617],[2.079482,41.368769],[2.079444,41.368731],[2.079411,41.368689],[2.079386,41.368644],[2.079368,41.368597],[2.079358,41.368549],[2.079355,41.368501],[2.07936,41.368452],[2.079373,41.368405],[2.079394,41.368359],[2.079401,41.368346],[2.079405,41.368339],[2.079426,41.368301],[2.078775,41.367634],[2.078597,41.367452],[2.078415,41.367653],[2.078284,41.367783],[2.078068,41.368003],[2.077697,41.368341],[2.077576,41.368254],[2.077149,41.367892],[2.076879,41.367653],[2.076213,41.367103],[2.076777,41.366798],[2.077438,41.366436],[2.077483,41.366407],[2.077502,41.366385],[2.077507,41.36636],[2.077505,41.366343],[2.076687,41.365539]]]]}},{"type":"Feature","id":"080734_080734 SI02 BLL 2","properties":{"area_id":"080734_080734 SI02 BLL 2","nom":"Centre comercial Splau","codi_icgc":"080734 SI02 BLL 2","categoria":"Sector industrial","codi_municipi":"080734","municipi":"Cornellà de Llobregat","codi_comarca":"11","comarca":"Baix Llobregat","provincia":"Barcelona","font":"ICGC Àrees de poblament v3r1 202602"},"geometry":{"type":"MultiPolygon","coordinates":[[[[2.077253,41.348239],[2.077245,41.348206],[2.077334,41.348195],[2.077342,41.348231],[2.077516,41.348208],[2.077509,41.348175],[2.077861,41.34813],[2.077868,41.348159],[2.077958,41.348147],[2.077951,41.348118],[2.078035,41.348107],[2.078042,41.348135],[2.078223,41.348112],[2.078216,41.348084],[2.078311,41.348072],[2.078514,41.348045],[2.07846,41.347809],[2.07846,41.347806],[2.079452,41.347677],[2.079273,41.346894],[2.079216,41.346902],[2.078688,41.34697],[2.078624,41.346633],[2.078621,41.346618],[2.078095,41.346685],[2.078082,41.346686],[2.078078,41.346681],[2.077593,41.346824],[2.077039,41.347042],[2.076684,41.347171],[2.07668,41.347173],[2.076736,41.347239],[2.076769,41.347284],[2.076793,41.347316],[2.076842,41.347395],[2.076884,41.347477],[2.07692,41.347561],[2.076947,41.347646],[2.076968,41.347733],[2.07698,41.34782],[2.076986,41.347908],[2.076983,41.347995],[2.076973,41.348083],[2.076955,41.34817],[2.076944,41.348208],[2.076931,41.348222],[2.076941,41.348218],[2.076933,41.348246],[2.077112,41.348223],[2.07712,41.348257],[2.077253,41.348239]]]]}},{"type":"Feature","id":"080734_080734 AP01 BLL 3","properties":{"area_id":"080734_080734 AP01 BLL 3","nom":"Cornellà de Llobregat","codi_icgc":"080734 AP01 BLL 3","categoria":"Àrees de poblament","codi_municipi":"080734","municipi":"Cornellà de Llobregat","codi_comarca":"11","comarca":"Baix Llobregat","provincia":"Barcelona","font":"ICGC Àrees de poblament v3r1 202602"},"geometry":{"type":"MultiPolygon","coordinates":[[[[2.075543,41.366203],[2.075649,41.366181],[2.076275,41.365806],[2.07641,41.365725],[2.076574,41.365615],[2.076665,41.365554],[2.076687,41.365539],[2.076718,41.365518],[2.076873,41.365414],[2.07781,41.366329],[2.07782,41.366338],[2.077621,41.366457],[2.07724,41.366655],[2.076413,41.367107],[2.076848,41.367478],[2.077396,41.367942],[2.077417,41.367933],[2.07772,41.368192],[2.077986,41.367935],[2.078388,41.367527],[2.078682,41.3672],[2.078931,41.367476],[2.079204,41.367755],[2.079426,41.367978],[2.079567,41.368106],[2.079691,41.368199],[2.079758,41.368229],[2.079784,41.368231],[2.079818,41.368211],[2.079858,41.368103],[2.080222,41.367472],[2.08047,41.367173],[2.080661,41.367004],[2.080829,41.367145],[2.081191,41.367501],[2.0815,41.36777],[2.081532,41.367774],[2.081574,41.36773],[2.081945,41.367363],[2.082274,41.367038],[2.08275,41.36664],[2.082906,41.366493],[2.083068,41.366339],[2.083314,41.366091],[2.083499,41.365919],[2.083551,41.365922],[2.083752,41.365925],[2.085345,41.365951],[2.085376,41.365951],[2.085743,41.366192],[2.08582,41.366243],[2.086174,41.366475],[2.086203,41.366494],[2.086471,41.365943],[2.086489,41.36592],[2.086543,41.36579],[2.086685,41.365685],[2.086712,41.365589],[2.086723,41.365489],[2.08673,41.365351],[2.086731,41.36491],[2.08674,41.364717],[2.086673,41.364492],[2.086627,41.364396],[2.086609,41.364315],[2.086617,41.364227],[2.086643,41.364174],[2.086698,41.364096],[2.086773,41.364051],[2.086873,41.364026],[2.086968,41.364022],[2.087059,41.36403],[2.087166,41.364071],[2.087258,41.364103],[2.087343,41.364118],[2.087403,41.364123],[2.087523,41.364096],[2.087666,41.364029],[2.088339,41.363779],[2.088598,41.363653],[2.088714,41.363571],[2.088819,41.36344],[2.088849,41.363259],[2.08879,41.362955],[2.088614,41.36195],[2.088455,41.36128],[2.088305,41.361108],[2.086639,41.360299],[2.086879,41.359693],[2.087074,41.359847],[2.087742,41.360064],[2.08778,41.360041],[2.087803,41.359979],[2.08779,41.359812],[2.087744,41.359436],[2.087709,41.359288],[2.087668,41.359216],[2.08764,41.35918],[2.08754,41.359137],[2.087367,41.359076],[2.087259,41.35906],[2.087139,41.35904],[2.08795,41.356997],[2.08972,41.357492],[2.090201,41.357579],[2.090415,41.357101],[2.090832,41.356343],[2.091255,41.355648],[2.091584,41.355081],[2.092016,41.354385],[2.092107,41.354226],[2.091357,41.353965],[2.090485,41.353653],[2.090631,41.35339],[2.090894,41.352924],[2.091016,41.352693],[2.091033,41.352646],[2.091134,41.352452],[2.090822,41.352116],[2.090661,41.351938],[2.09075,41.351908],[2.090928,41.351788],[2.091018,41.351693],[2.09107,41.35156],[2.091087,41.351438],[2.090787,41.350985],[2.090754,41.350936],[2.090618,41.351036],[2.090531,41.351116],[2.090424,41.35113],[2.09029,41.351132],[2.090047,41.351096],[2.089919,41.351051],[2.08949,41.350911],[2.088993,41.350714],[2.088599,41.350546],[2.088227,41.350378],[2.087585,41.350111],[2.087461,41.350073],[2.087313,41.350111],[2.08721,41.350162],[2.086945,41.350501],[2.086476,41.351112],[2.086117,41.35161],[2.085859,41.351993],[2.085277,41.352788],[2.085135,41.353033],[2.085018,41.353224],[2.085015,41.353288],[2.085047,41.353343],[2.085111,41.353385],[2.085183,41.353403],[2.086429,41.353575],[2.086167,41.354006],[2.085993,41.354305],[2.085629,41.354906],[2.08542,41.355271],[2.085002,41.355968],[2.084993,41.355982],[2.083855,41.355483],[2.083801,41.355481],[2.083782,41.355485],[2.083724,41.355506],[2.083701,41.35553],[2.082837,41.356744],[2.082639,41.356923],[2.082553,41.356948],[2.08243,41.35695],[2.082316,41.356928],[2.082149,41.356867],[2.081796,41.356707],[2.081532,41.356529],[2.081331,41.356367],[2.081138,41.356212],[2.080904,41.355995],[2.080764,41.355819],[2.080578,41.355567],[2.080514,41.355374],[2.0804,41.355069],[2.079992,41.355076],[2.079669,41.355074],[2.079082,41.355063],[2.078479,41.355082],[2.077298,41.355118],[2.07708,41.355125],[2.077058,41.355123],[2.076797,41.3551],[2.076488,41.355063],[2.07635,41.355037],[2.076277,41.355028],[2.075941,41.354988],[2.075898,41.354982],[2.075849,41.354993],[2.075707,41.355023],[2.075621,41.355049],[2.075578,41.355062],[2.075372,41.354932],[2.075472,41.35481],[2.075556,41.354709],[2.075675,41.354564],[2.076399,41.352805],[2.076609,41.352386],[2.076916,41.351782],[2.07741,41.350758],[2.077671,41.350225],[2.077866,41.3498],[2.078,41.349511],[2.078185,41.349087],[2.078387,41.348698],[2.078518,41.348394],[2.078411,41.348312],[2.078251,41.348225],[2.078041,41.348252],[2.07756,41.348305],[2.077103,41.348406],[2.076705,41.348355],[2.076738,41.348274],[2.076778,41.348103],[2.076813,41.347894],[2.076778,41.347703],[2.076705,41.347512],[2.076625,41.347354],[2.076533,41.347223],[2.07613,41.347351],[2.075724,41.34749],[2.075235,41.347599],[2.074766,41.347689],[2.074408,41.347727],[2.073883,41.347737],[2.07343,41.347674],[2.073,41.347504],[2.072729,41.347278],[2.072687,41.347221],[2.072575,41.347297],[2.072422,41.347339],[2.072258,41.347352],[2.072058,41.347347],[2.071985,41.347363],[2.071949,41.34734],[2.071905,41.347319],[2.071858,41.347303],[2.071807,41.347293],[2.071755,41.347288],[2.071703,41.347289],[2.070471,41.347471],[2.070447,41.347474],[2.070425,41.347482],[2.070408,41.347495],[2.070397,41.347512],[2.070394,41.34753],[2.070398,41.347548],[2.070315,41.3478],[2.070162,41.34781],[2.069907,41.347843],[2.06983,41.347862],[2.069478,41.34795],[2.06947,41.347879],[2.069071,41.347928],[2.068485,41.348012],[2.068474,41.347998],[2.068294,41.348072],[2.068285,41.348057],[2.068102,41.348132],[2.068128,41.348164],[2.068116,41.348169],[2.068078,41.348186],[2.068055,41.348157],[2.067869,41.348232],[2.067851,41.348221],[2.067672,41.348292],[2.067654,41.348276],[2.067471,41.348345],[2.067463,41.348338],[2.067289,41.348412],[2.067349,41.348501],[2.06728,41.348531],[2.067165,41.348579],[2.067145,41.348587],[2.067564,41.349111],[2.067021,41.349382],[2.066603,41.349574],[2.066294,41.349717],[2.066364,41.349801],[2.067508,41.351159],[2.067649,41.351382],[2.067515,41.351427],[2.06729,41.351553],[2.067254,41.35158],[2.067016,41.351762],[2.066935,41.351825],[2.066847,41.351905],[2.066788,41.35196],[2.066633,41.352102],[2.066554,41.352175],[2.066069,41.352509],[2.065606,41.35283],[2.065418,41.352978],[2.065328,41.353049],[2.065074,41.353244],[2.064204,41.35406],[2.064117,41.35408],[2.063836,41.354355],[2.063664,41.354482],[2.063504,41.354626],[2.063452,41.354674],[2.063412,41.354713],[2.063422,41.354794],[2.063409,41.354892],[2.063368,41.354969],[2.063288,41.355061],[2.063224,41.355096],[2.063157,41.355101],[2.063027,41.355236],[2.062726,41.355538],[2.062526,41.355724],[2.062318,41.355916],[2.062129,41.356114],[2.06187,41.356281],[2.061473,41.356628],[2.060684,41.357343],[2.059986,41.357956],[2.059204,41.358662],[2.058901,41.35894],[2.058791,41.359041],[2.059107,41.359257],[2.059131,41.359263],[2.058931,41.359586],[2.058761,41.359884],[2.058573,41.360279],[2.058412,41.360636],[2.05837,41.360747],[2.05827,41.361007],[2.058293,41.361016],[2.060094,41.362227],[2.060122,41.362244],[2.06018,41.362278],[2.059452,41.362949],[2.058863,41.363493],[2.058901,41.363516],[2.060034,41.364204],[2.060719,41.364618],[2.060815,41.364675],[2.061151,41.364876],[2.061271,41.364803],[2.06145,41.364704],[2.061597,41.36463],[2.06181,41.364391],[2.061946,41.364433],[2.061996,41.364453],[2.062087,41.364428],[2.062202,41.364322],[2.062511,41.364002],[2.06266,41.36408],[2.06307,41.363655],[2.063237,41.363475],[2.063589,41.363265],[2.064087,41.362983],[2.064473,41.362796],[2.065022,41.362602],[2.066802,41.360545],[2.067171,41.359947],[2.068175,41.358783],[2.068518,41.358952],[2.069161,41.358456],[2.069542,41.358213],[2.069872,41.358018],[2.070298,41.357805],[2.070488,41.357816],[2.070528,41.357918],[2.070867,41.358784],[2.071061,41.35918],[2.071105,41.359245],[2.071368,41.359634],[2.07148,41.359814],[2.071675,41.360109],[2.071909,41.360369],[2.07205,41.360485],[2.072107,41.360629],[2.072108,41.360633],[2.072194,41.360855],[2.072178,41.361239],[2.072137,41.361248],[2.071628,41.361367],[2.070328,41.361841],[2.070819,41.362528],[2.070928,41.362681],[2.069655,41.363345],[2.069615,41.363375],[2.06887,41.362934],[2.068513,41.362708],[2.068487,41.362732],[2.068486,41.362732],[2.068002,41.363154],[2.068619,41.363522],[2.068944,41.363716],[2.069017,41.363759],[2.068994,41.363772],[2.069045,41.363803],[2.068956,41.363873],[2.068933,41.363891],[2.068907,41.363912],[2.068557,41.364122],[2.068394,41.364242],[2.068401,41.364293],[2.069686,41.364808],[2.070259,41.365032],[2.071114,41.365391],[2.07219,41.365868],[2.072422,41.365956],[2.072978,41.365782],[2.07304,41.365808],[2.073613,41.366383],[2.073454,41.366477],[2.073714,41.366625],[2.073884,41.366673],[2.074083,41.366739],[2.074471,41.366789],[2.075457,41.366199],[2.075543,41.366203]]]]}},{"type":"Feature","id":"080734_080734 AP02 BLL 1","properties":{"area_id":"080734_080734 AP02 BLL 1","nom":"Femades","codi_icgc":"080734 AP02 BLL 1","categoria":"Àrees de poblament","codi_municipi":"080734","municipi":"Cornellà de Llobregat","codi_comarca":"11","comarca":"Baix Llobregat","provincia":"Barcelona","font":"ICGC Àrees de poblament v3r1 202602"},"geometry":{"type":"MultiPolygon","coordinates":[[[[2.092772,41.357322],[2.092435,41.357863],[2.092314,41.358032],[2.092169,41.358107],[2.092001,41.358138],[2.091918,41.358139],[2.091459,41.358025],[2.09121,41.357962],[2.090953,41.357912],[2.090919,41.35799],[2.090692,41.357948],[2.08991,41.357778],[2.089625,41.357709],[2.089574,41.357703],[2.089513,41.357718],[2.089475,41.357746],[2.089446,41.357811],[2.089246,41.358351],[2.089286,41.358424],[2.089518,41.358477],[2.089981,41.358578],[2.090592,41.358715],[2.090965,41.358796],[2.091509,41.358915],[2.091817,41.358982],[2.091934,41.358987],[2.092097,41.358699],[2.092272,41.358271],[2.09341,41.358575],[2.093496,41.358521],[2.093588,41.358443],[2.094297,41.358657],[2.094458,41.358694],[2.094978,41.358844],[2.095297,41.358912],[2.095594,41.359001],[2.095823,41.358569],[2.09547,41.35845],[2.095364,41.358417],[2.095428,41.358299],[2.095392,41.35821],[2.095337,41.358162],[2.09518,41.358107],[2.094983,41.358031],[2.094735,41.357946],[2.094244,41.35776],[2.094296,41.357695],[2.093827,41.35756],[2.093273,41.357338],[2.092865,41.35719],[2.092772,41.357322]]]]}},{"type":"Feature","id":"080734_080734 SI05 BLL 2","properties":{"area_id":"080734_080734 SI05 BLL 2","nom":"Polígon Siemens","codi_icgc":"080734 SI05 BLL 2","categoria":"Sector industrial","codi_municipi":"080734","municipi":"Cornellà de Llobregat","codi_comarca":"11","comarca":"Baix Llobregat","provincia":"Barcelona","font":"ICGC Àrees de poblament v3r1 202602"},"geometry":{"type":"MultiPolygon","coordinates":[[[[2.070404,41.359675],[2.070366,41.359669],[2.070299,41.359304],[2.069742,41.35932],[2.069763,41.35913],[2.069247,41.358557],[2.068716,41.358934],[2.068101,41.359463],[2.067317,41.360324],[2.066415,41.361451],[2.065924,41.362124],[2.065573,41.362643],[2.068168,41.364157],[2.068804,41.363725],[2.068774,41.363701],[2.068342,41.363419],[2.067939,41.363216],[2.067817,41.363148],[2.068138,41.362861],[2.06832,41.362696],[2.068467,41.362578],[2.068856,41.362817],[2.06928,41.363078],[2.069433,41.363172],[2.069468,41.363177],[2.069506,41.363172],[2.069621,41.363126],[2.070668,41.362619],[2.070681,41.362578],[2.070672,41.36255],[2.070469,41.362322],[2.070482,41.362139],[2.070346,41.361966],[2.070195,41.36181],[2.070291,41.361749],[2.070489,41.361636],[2.070527,41.361646],[2.071099,41.361483],[2.071632,41.361322],[2.071734,41.361297],[2.071744,41.361276],[2.072128,41.361197],[2.071991,41.360838],[2.071804,41.360665],[2.071118,41.359799],[2.071042,41.359747],[2.071008,41.359731],[2.070959,41.359714],[2.07086,41.35968],[2.070762,41.35967],[2.070627,41.359675],[2.070442,41.359677],[2.070404,41.359675]]]]}},{"type":"Feature","id":"080734_080734 SI01 BLL 2","properties":{"area_id":"080734_080734 SI01 BLL 2","nom":"Polígon industrial Almeda","codi_icgc":"080734 SI01 BLL 2","categoria":"Sector industrial","codi_municipi":"080734","municipi":"Cornellà de Llobregat","codi_comarca":"11","comarca":"Baix Llobregat","provincia":"Barcelona","font":"ICGC Àrees de poblament v3r1 202602"},"geometry":{"type":"MultiPolygon","coordinates":[[[[2.083189,41.356005],[2.0837,41.355278],[2.083884,41.355353],[2.08496,41.355825],[2.084981,41.355826],[2.085,41.355815],[2.085052,41.355728],[2.085535,41.354935],[2.085538,41.354893],[2.086298,41.353635],[2.082587,41.353113],[2.082469,41.353044],[2.082419,41.353024],[2.082001,41.352848],[2.082157,41.352508],[2.083764,41.352734],[2.084858,41.352887],[2.085021,41.352912],[2.087292,41.349872],[2.087351,41.3498],[2.08798,41.350091],[2.089294,41.35067],[2.089928,41.350906],[2.090236,41.351006],[2.090339,41.351012],[2.090428,41.350992],[2.090522,41.350968],[2.090627,41.350896],[2.090717,41.350798],[2.090876,41.350601],[2.091117,41.350223],[2.091286,41.349893],[2.091456,41.349507],[2.091494,41.349315],[2.091554,41.348976],[2.091582,41.348615],[2.09156,41.3482],[2.091515,41.347959],[2.091444,41.347788],[2.091417,41.347755],[2.091214,41.347614],[2.090778,41.347289],[2.090007,41.346537],[2.089886,41.346444],[2.089721,41.346341],[2.089411,41.346166],[2.088947,41.345995],[2.088561,41.345897],[2.088009,41.345809],[2.08763,41.345782],[2.086942,41.345765],[2.086657,41.34578],[2.08626,41.345902],[2.086158,41.345813],[2.08615,41.345805],[2.086149,41.345791],[2.086141,41.345778],[2.086126,41.345768],[2.086125,41.345768],[2.086062,41.34575],[2.085997,41.345737],[2.085929,41.34573],[2.085893,41.34573],[2.085785,41.345746],[2.085595,41.345778],[2.085069,41.345865],[2.084544,41.345967],[2.084068,41.346082],[2.08379,41.34631],[2.083507,41.346484],[2.083319,41.346556],[2.082964,41.346663],[2.082725,41.34672],[2.082552,41.346749],[2.082549,41.34675],[2.082498,41.347238],[2.0825,41.347258],[2.082509,41.347277],[2.082525,41.347293],[2.082535,41.347301],[2.082604,41.347333],[2.082669,41.347369],[2.082877,41.347575],[2.082851,41.347594],[2.08283,41.347617],[2.082817,41.347642],[2.08281,41.34767],[2.082811,41.347698],[2.08282,41.347724],[2.082666,41.347977],[2.082626,41.34797],[2.082585,41.347968],[2.082545,41.347972],[2.082506,41.347981],[2.08247,41.347996],[2.082439,41.348016],[2.082165,41.347975],[2.082168,41.34796],[2.082163,41.347945],[2.082155,41.347934],[2.082121,41.347919],[2.082095,41.347901],[2.082071,41.347887],[2.082051,41.34788],[2.082014,41.347873],[2.081983,41.347875],[2.081364,41.348016],[2.080359,41.348192],[2.07952,41.348295],[2.079428,41.348307],[2.079351,41.348322],[2.079276,41.348343],[2.0792,41.34837],[2.079128,41.348403],[2.079061,41.348442],[2.079,41.348485],[2.078943,41.348529],[2.07889,41.348576],[2.078844,41.348623],[2.078802,41.348673],[2.078768,41.348718],[2.078739,41.348764],[2.078714,41.348812],[2.078694,41.348861],[2.078678,41.348911],[2.078666,41.348961],[2.078659,41.349011],[2.078657,41.34906],[2.078661,41.349107],[2.078671,41.349154],[2.078685,41.349192],[2.078705,41.349229],[2.078433,41.349569],[2.078393,41.349573],[2.078354,41.349583],[2.078319,41.349597],[2.078288,41.349617],[2.078262,41.34964],[2.07727,41.351664],[2.077267,41.35167],[2.076918,41.352393],[2.076733,41.352776],[2.076448,41.353361],[2.076094,41.354066],[2.075939,41.354788],[2.076518,41.354894],[2.07691,41.354945],[2.077543,41.354941],[2.078473,41.35491],[2.079442,41.354876],[2.079818,41.354834],[2.08,41.354794],[2.080179,41.354745],[2.08033,41.354678],[2.080418,41.354687],[2.080507,41.354697],[2.080557,41.354731],[2.080619,41.354803],[2.080617,41.35497],[2.08064,41.355137],[2.080713,41.355304],[2.080802,41.355468],[2.080848,41.355572],[2.081015,41.355845],[2.081209,41.356033],[2.081484,41.356273],[2.081727,41.356469],[2.081866,41.356558],[2.081991,41.356607],[2.082404,41.356788],[2.082469,41.356823],[2.082527,41.356821],[2.082603,41.356805],[2.082701,41.356691],[2.083189,41.356005]]]]}}]}