{"type":"FeatureCollection","name":"ICGC Àrees de poblament - les Franqueses del Vallès","features":[{"type":"Feature","id":"080863_080863 AP08 VOR 3","properties":{"area_id":"080863_080863 AP08 VOR 3","nom":"Bellavista","codi_icgc":"080863 AP08 VOR 3","categoria":"Àrees de poblament","codi_municipi":"080863","municipi":"les Franqueses del Vallès","codi_comarca":"41","comarca":"Vallès Oriental","provincia":"Barcelona","font":"ICGC Àrees de poblament v3r1 202602"},"geometry":{"type":"MultiPolygon","coordinates":[[[[2.30207,41.616312],[2.302101,41.61621],[2.302083,41.615788],[2.301696,41.615765],[2.301675,41.615071],[2.301606,41.614554],[2.300736,41.614931],[2.299962,41.615107],[2.299924,41.615115],[2.295636,41.61609],[2.293003,41.616689],[2.293021,41.616746],[2.293115,41.617041],[2.293189,41.617303],[2.29322,41.61741],[2.293437,41.618084],[2.293519,41.61834],[2.293563,41.618441],[2.294107,41.61939],[2.294152,41.619466],[2.294755,41.620471],[2.295529,41.621603],[2.295617,41.621733],[2.295681,41.621827],[2.295748,41.621924],[2.295783,41.621914],[2.295784,41.621914],[2.296166,41.621814],[2.296283,41.621783],[2.296556,41.622256],[2.296623,41.622374],[2.296733,41.62253],[2.296974,41.622874],[2.297291,41.622957],[2.297375,41.622979],[2.297794,41.622965],[2.298832,41.622945],[2.299084,41.622914],[2.299276,41.622883],[2.299321,41.622888],[2.299426,41.622864],[2.299572,41.622825],[2.299715,41.622781],[2.299856,41.622733],[2.299992,41.622679],[2.300058,41.622652],[2.300214,41.62257],[2.300403,41.62248],[2.300532,41.62242],[2.300825,41.62225],[2.301093,41.621996],[2.301285,41.621816],[2.301332,41.621759],[2.301477,41.62158],[2.301632,41.621353],[2.301657,41.621315],[2.30167,41.621252],[2.301703,41.621084],[2.301711,41.621049],[2.301698,41.62099],[2.301657,41.620776],[2.301651,41.620745],[2.302271,41.620739],[2.302124,41.620292],[2.301858,41.620271],[2.301499,41.620234],[2.301467,41.620231],[2.301385,41.61974],[2.301381,41.619709],[2.301349,41.619613],[2.301328,41.61955],[2.301318,41.619465],[2.30131,41.619395],[2.301299,41.619308],[2.301284,41.619186],[2.301277,41.619117],[2.301272,41.619042],[2.301268,41.618821],[2.301268,41.618787],[2.301267,41.618769],[2.301419,41.61877],[2.30198,41.61881],[2.302042,41.618388],[2.302122,41.61806],[2.302133,41.617917],[2.302183,41.617731],[2.302309,41.617489],[2.302367,41.617468],[2.302551,41.61719],[2.302841,41.616799],[2.303206,41.616465],[2.303398,41.616323],[2.302943,41.616134],[2.302714,41.616212],[2.302579,41.616347],[2.302482,41.616446],[2.302387,41.616467],[2.302244,41.616459],[2.302128,41.616401],[2.30207,41.616312]]]]}},{"type":"Feature","id":"080863_080863 AP06 VOR 3","properties":{"area_id":"080863_080863 AP06 VOR 3","nom":"Can Baldic","codi_icgc":"080863 AP06 VOR 3","categoria":"Àrees de poblament","codi_municipi":"080863","municipi":"les Franqueses del Vallès","codi_comarca":"41","comarca":"Vallès Oriental","provincia":"Barcelona","font":"ICGC Àrees de poblament v3r1 202602"},"geometry":{"type":"MultiPolygon","coordinates":[[[[2.296273,41.655816],[2.296307,41.655917],[2.295948,41.65606],[2.296041,41.65629],[2.296276,41.656884],[2.296641,41.656925],[2.296341,41.656065],[2.296453,41.656033],[2.296508,41.656007],[2.296533,41.655962],[2.296533,41.655921],[2.296507,41.655839],[2.296481,41.655769],[2.296698,41.655713],[2.29676,41.655712],[2.297075,41.655659],[2.297247,41.655648],[2.29717,41.655398],[2.297037,41.655063],[2.296927,41.654766],[2.296827,41.654492],[2.297005,41.654443],[2.29738,41.65434],[2.297456,41.654319],[2.297884,41.654203],[2.297815,41.654051],[2.297617,41.653818],[2.297478,41.65373],[2.297405,41.653749],[2.297398,41.653736],[2.297419,41.653333],[2.297132,41.653357],[2.297134,41.653722],[2.297048,41.653745],[2.296941,41.653771],[2.296914,41.653774],[2.296888,41.653773],[2.296875,41.653769],[2.296866,41.653762],[2.296865,41.653759],[2.296865,41.653725],[2.296865,41.653688],[2.296867,41.653519],[2.296872,41.65335],[2.296875,41.653292],[2.296879,41.653232],[2.296875,41.653217],[2.296864,41.653204],[2.296842,41.653178],[2.29682,41.653144],[2.296873,41.653009],[2.29675,41.652898],[2.296525,41.652692],[2.296299,41.652837],[2.29604,41.652609],[2.295914,41.652607],[2.295763,41.652605],[2.295438,41.652544],[2.295439,41.652497],[2.295462,41.652265],[2.295499,41.652116],[2.295539,41.651976],[2.295586,41.651858],[2.295651,41.651744],[2.296121,41.651876],[2.296363,41.651485],[2.296238,41.651448],[2.295875,41.65135],[2.295881,41.651284],[2.29588,41.65122],[2.295872,41.651141],[2.295853,41.651094],[2.295839,41.651046],[2.295837,41.651016],[2.295839,41.650985],[2.295842,41.650948],[2.295786,41.650938],[2.295454,41.650885],[2.29545,41.650945],[2.295451,41.651207],[2.295414,41.651296],[2.295325,41.651471],[2.295187,41.651715],[2.295124,41.651729],[2.295076,41.651753],[2.295071,41.651797],[2.295074,41.65188],[2.2951,41.65205],[2.295095,41.652207],[2.295062,41.6523],[2.295017,41.652395],[2.294913,41.652507],[2.294817,41.652554],[2.294797,41.652581],[2.294808,41.652626],[2.294808,41.652656],[2.294779,41.652742],[2.294734,41.652861],[2.29466,41.653048],[2.294631,41.653217],[2.29465,41.653256],[2.294673,41.653382],[2.29468,41.653468],[2.29533,41.65354],[2.295387,41.653545],[2.295545,41.65356],[2.295646,41.65357],[2.295645,41.653573],[2.295635,41.653693],[2.295625,41.653811],[2.295632,41.653925],[2.295681,41.653923],[2.295695,41.653952],[2.295704,41.65397],[2.295706,41.653973],[2.295747,41.653971],[2.295783,41.653976],[2.29579,41.653982],[2.295875,41.654316],[2.295909,41.65445],[2.29599,41.654767],[2.295994,41.654784],[2.296196,41.655504],[2.296227,41.655615],[2.296273,41.655816]]]]}},{"type":"Feature","id":"080863_080863 AP04 VOR 3","properties":{"area_id":"080863_080863 AP04 VOR 3","nom":"Can Suquet","codi_icgc":"080863 AP04 VOR 3","categoria":"Àrees de poblament","codi_municipi":"080863","municipi":"les Franqueses del Vallès","codi_comarca":"41","comarca":"Vallès Oriental","provincia":"Barcelona","font":"ICGC Àrees de poblament v3r1 202602"},"geometry":{"type":"MultiPolygon","coordinates":[[[[2.335549,41.671971],[2.335492,41.671927],[2.335458,41.671896],[2.335383,41.671818],[2.335314,41.671736],[2.335232,41.671633],[2.335148,41.671529],[2.335178,41.671531],[2.335228,41.671536],[2.335301,41.671558],[2.335375,41.671582],[2.335442,41.671604],[2.335507,41.671625],[2.335557,41.671636],[2.335606,41.671648],[2.335643,41.671653],[2.335657,41.671655],[2.335668,41.671659],[2.335691,41.67167],[2.335716,41.67168],[2.335744,41.671685],[2.335784,41.671687],[2.335801,41.671689],[2.335815,41.671693],[2.335831,41.671703],[2.335852,41.671723],[2.335869,41.671746],[2.335886,41.671782],[2.335899,41.671819],[2.335898,41.671829],[2.335891,41.67185],[2.335891,41.671864],[2.335903,41.671877],[2.335923,41.671883],[2.33594,41.671888],[2.335982,41.671902],[2.336024,41.671916],[2.33607,41.671928],[2.33615,41.671932],[2.336181,41.671933],[2.336292,41.671715],[2.336082,41.671665],[2.336024,41.67165],[2.335845,41.671624],[2.335819,41.671627],[2.335771,41.671631],[2.335727,41.671632],[2.335681,41.671631],[2.335675,41.671631],[2.33552,41.671603],[2.335454,41.671582],[2.335388,41.671561],[2.335313,41.671536],[2.335236,41.671512],[2.335175,41.671501],[2.335156,41.671497],[2.335128,41.671488],[2.335105,41.671475],[2.335375,41.671475],[2.335517,41.671327],[2.335703,41.671132],[2.335758,41.671062],[2.335871,41.670916],[2.335879,41.670909],[2.336058,41.670744],[2.33624,41.670493],[2.336249,41.670483],[2.336458,41.670245],[2.336499,41.670189],[2.336475,41.670086],[2.336443,41.669954],[2.336432,41.669911],[2.336141,41.669748],[2.335885,41.669613],[2.335815,41.669576],[2.33566,41.669517],[2.33557,41.669483],[2.335273,41.6694],[2.335076,41.669358],[2.335038,41.669453],[2.334985,41.669448],[2.334786,41.669432],[2.334778,41.669431],[2.334578,41.669379],[2.334537,41.669369],[2.334397,41.669326],[2.3344,41.66929],[2.334263,41.669256],[2.334061,41.669206],[2.333779,41.669022],[2.333642,41.668898],[2.333616,41.668872],[2.333553,41.668869],[2.333505,41.668865],[2.333451,41.668861],[2.333416,41.668865],[2.333384,41.668879],[2.333358,41.668899],[2.333337,41.668917],[2.333303,41.668939],[2.333277,41.668951],[2.333422,41.668824],[2.33292,41.668517],[2.33281,41.668629],[2.332737,41.668708],[2.332729,41.668716],[2.332713,41.668732],[2.332473,41.668614],[2.332319,41.668538],[2.33221,41.668484],[2.332163,41.668551],[2.332101,41.668634],[2.332035,41.66874],[2.331976,41.668835],[2.331887,41.668921],[2.332238,41.669124],[2.332349,41.669166],[2.332331,41.669179],[2.332368,41.6692],[2.331941,41.66955],[2.331869,41.669558],[2.331736,41.669559],[2.331658,41.669559],[2.331658,41.669594],[2.331658,41.669655],[2.331577,41.669659],[2.331562,41.669657],[2.331452,41.669731],[2.331488,41.669767],[2.331552,41.66983],[2.331596,41.669871],[2.33165,41.669914],[2.331676,41.669932],[2.331705,41.669947],[2.331765,41.669975],[2.331839,41.670006],[2.331916,41.670033],[2.33198,41.670051],[2.332047,41.670063],[2.332107,41.670069],[2.332167,41.670072],[2.332283,41.670071],[2.332394,41.670069],[2.332399,41.670069],[2.332461,41.670069],[2.332522,41.670071],[2.332562,41.670076],[2.332638,41.670089],[2.332713,41.670103],[2.332791,41.670117],[2.332869,41.670131],[2.332848,41.670201],[2.332775,41.670189],[2.332941,41.670408],[2.332976,41.67047],[2.333046,41.670594],[2.333058,41.670615],[2.333081,41.670892],[2.333144,41.671191],[2.333151,41.671237],[2.333176,41.671424],[2.333181,41.671461],[2.333238,41.671605],[2.333248,41.671631],[2.333288,41.671677],[2.33346,41.671878],[2.333589,41.672119],[2.33367,41.672124],[2.333768,41.672078],[2.333851,41.672029],[2.334013,41.671931],[2.334028,41.67194],[2.334196,41.672044],[2.334218,41.672067],[2.334248,41.672091],[2.334269,41.67211],[2.334298,41.672137],[2.334508,41.672326],[2.334594,41.672391],[2.334702,41.672472],[2.334799,41.6725],[2.334804,41.672501],[2.334838,41.67251],[2.334911,41.672531],[2.335018,41.672561],[2.335163,41.672606],[2.335354,41.672675],[2.335418,41.6727],[2.335582,41.67276],[2.335927,41.672886],[2.335953,41.672809],[2.336003,41.672607],[2.336004,41.672603],[2.336064,41.672388],[2.336103,41.672234],[2.336105,41.672226],[2.336091,41.67222],[2.336069,41.672211],[2.336034,41.672197],[2.336016,41.672191],[2.336007,41.672188],[2.335999,41.672185],[2.335992,41.672183],[2.335985,41.672182],[2.336013,41.672098],[2.335886,41.672079],[2.33575,41.672058],[2.335714,41.67205],[2.335681,41.67204],[2.335614,41.672009],[2.335549,41.671971]]]]}},{"type":"Feature","id":"080863_080863 AP03 VOR 3","properties":{"area_id":"080863_080863 AP03 VOR 3","nom":"Corró d'Amunt","codi_icgc":"080863 AP03 VOR 3","categoria":"Àrees de poblament","codi_municipi":"080863","municipi":"les Franqueses del Vallès","codi_comarca":"41","comarca":"Vallès Oriental","provincia":"Barcelona","font":"ICGC Àrees de poblament v3r1 202602"},"geometry":{"type":"MultiPolygon","coordinates":[[[[2.325322,41.667056],[2.325349,41.667207],[2.325368,41.667244],[2.325373,41.667249],[2.325401,41.667247],[2.325479,41.66724],[2.325563,41.667239],[2.325629,41.667494],[2.325639,41.667506],[2.325822,41.667478],[2.325886,41.667468],[2.325921,41.667461],[2.325974,41.667564],[2.325886,41.667623],[2.32587,41.667676],[2.32587,41.66773],[2.32588,41.667762],[2.325928,41.66783],[2.325914,41.667837],[2.325901,41.667843],[2.325912,41.667882],[2.325935,41.667917],[2.32596,41.667924],[2.325999,41.667924],[2.326083,41.668026],[2.326149,41.668071],[2.326242,41.668132],[2.32621,41.668141],[2.325988,41.668201],[2.325985,41.66826],[2.325909,41.668271],[2.325983,41.668303],[2.326067,41.668339],[2.326156,41.6684],[2.32621,41.668475],[2.326259,41.668587],[2.326269,41.668682],[2.32628,41.668677],[2.32642,41.668617],[2.326457,41.668615],[2.326718,41.668883],[2.326897,41.66891],[2.327047,41.669065],[2.327108,41.669127],[2.327592,41.669624],[2.327744,41.669844],[2.32812,41.670305],[2.328221,41.670283],[2.328365,41.670215],[2.32859,41.670093],[2.328597,41.670155],[2.328614,41.670148],[2.328632,41.670169],[2.328667,41.670212],[2.328691,41.670252],[2.328735,41.670334],[2.328758,41.670375],[2.328784,41.670415],[2.328824,41.670467],[2.328888,41.670542],[2.328963,41.670614],[2.329025,41.670664],[2.329035,41.670671],[2.329074,41.670697],[2.329116,41.670719],[2.32925,41.67078],[2.329388,41.67084],[2.329384,41.670841],[2.329296,41.670873],[2.329024,41.670917],[2.329092,41.671171],[2.329252,41.671295],[2.329288,41.671324],[2.329407,41.671305],[2.329506,41.671289],[2.329593,41.671235],[2.329721,41.671093],[2.329728,41.671036],[2.329736,41.671004],[2.329826,41.671046],[2.329873,41.671068],[2.330005,41.671127],[2.3302,41.671215],[2.330325,41.671191],[2.33059,41.67111],[2.330749,41.671],[2.330753,41.670997],[2.33072,41.670964],[2.330671,41.670917],[2.33065,41.670897],[2.330606,41.670889],[2.330581,41.670885],[2.33047,41.670879],[2.330425,41.670876],[2.33038,41.670871],[2.330335,41.670864],[2.330305,41.670858],[2.330236,41.670709],[2.330086,41.670625],[2.329948,41.670543],[2.329806,41.670505],[2.329766,41.670434],[2.329673,41.670378],[2.329597,41.670278],[2.329421,41.670078],[2.329261,41.669902],[2.32922,41.669865],[2.328706,41.670073],[2.328666,41.669981],[2.3286,41.669796],[2.328671,41.669761],[2.328469,41.669521],[2.329029,41.669193],[2.328974,41.669165],[2.328905,41.669177],[2.328709,41.669182],[2.328414,41.669189],[2.328326,41.669317],[2.328313,41.669336],[2.328287,41.669343],[2.32826,41.66935],[2.328249,41.669349],[2.328239,41.669341],[2.328224,41.669321],[2.328147,41.66924],[2.328051,41.669136],[2.327957,41.669037],[2.327844,41.668917],[2.327753,41.668819],[2.327663,41.66872],[2.327579,41.668632],[2.327495,41.668545],[2.327412,41.66845],[2.327329,41.668355],[2.327252,41.668276],[2.327174,41.668198],[2.327104,41.668123],[2.327034,41.668047],[2.326968,41.667977],[2.326901,41.667907],[2.326813,41.667817],[2.326726,41.667728],[2.326678,41.667675],[2.326612,41.667592],[2.326542,41.66751],[2.326456,41.667422],[2.32637,41.667334],[2.326238,41.667194],[2.326211,41.66716],[2.326193,41.667137],[2.326185,41.66712],[2.326186,41.667107],[2.326187,41.667099],[2.326224,41.667098],[2.326428,41.667048],[2.32653,41.667023],[2.326686,41.666976],[2.326715,41.66697],[2.326815,41.666935],[2.32709,41.666868],[2.326919,41.666647],[2.32689,41.666609],[2.326472,41.666789],[2.326275,41.666872],[2.326121,41.666937],[2.326116,41.666938],[2.326094,41.666946],[2.326078,41.666948],[2.326062,41.666947],[2.326037,41.666947],[2.326026,41.666946],[2.326019,41.666943],[2.326016,41.666941],[2.32601,41.666936],[2.326005,41.66693],[2.325992,41.666919],[2.325987,41.66691],[2.325977,41.666886],[2.325972,41.666869],[2.325987,41.666856],[2.325928,41.666696],[2.325926,41.66669],[2.325919,41.666673],[2.325909,41.666641],[2.325874,41.666564],[2.32579,41.666476],[2.325685,41.666324],[2.325621,41.666169],[2.325594,41.666126],[2.325382,41.665665],[2.325321,41.665532],[2.325068,41.665746],[2.325025,41.665783],[2.324902,41.66589],[2.325052,41.666005],[2.325351,41.666237],[2.325394,41.666278],[2.325384,41.666288],[2.325303,41.666307],[2.325307,41.666325],[2.325311,41.666346],[2.325133,41.666387],[2.325254,41.666696],[2.325256,41.666702],[2.325274,41.666746],[2.325277,41.666765],[2.325192,41.66677],[2.325192,41.666795],[2.325022,41.666825],[2.325018,41.666804],[2.324926,41.666823],[2.32491,41.666826],[2.324972,41.666922],[2.325021,41.666916],[2.325027,41.666923],[2.325034,41.666922],[2.325236,41.666886],[2.325242,41.666874],[2.325253,41.666873],[2.32529,41.666869],[2.325322,41.667056]]]]}},{"type":"Feature","id":"080863_080863 AP01 VOR 3","properties":{"area_id":"080863_080863 AP01 VOR 3","nom":"Corró d'Avall","codi_icgc":"080863 AP01 VOR 3","categoria":"Àrees de poblament","codi_municipi":"080863","municipi":"les Franqueses del Vallès","codi_comarca":"41","comarca":"Vallès Oriental","provincia":"Barcelona","font":"ICGC Àrees de poblament v3r1 202602"},"geometry":{"type":"MultiPolygon","coordinates":[[[[2.298082,41.637497],[2.298467,41.637283],[2.298488,41.637301],[2.298493,41.637306],[2.298499,41.637309],[2.298506,41.637307],[2.298556,41.637281],[2.298648,41.637239],[2.298741,41.637199],[2.29885,41.637154],[2.298958,41.637108],[2.299033,41.637076],[2.299107,41.637041],[2.29919,41.637001],[2.299272,41.636961],[2.299288,41.636952],[2.299303,41.636942],[2.299344,41.636914],[2.299396,41.636867],[2.299443,41.636816],[2.299496,41.636755],[2.299542,41.636736],[2.299598,41.636672],[2.299734,41.636518],[2.299741,41.63651],[2.29987,41.63652],[2.299936,41.636521],[2.300321,41.636539],[2.300448,41.636545],[2.300542,41.636546],[2.300533,41.636505],[2.300521,41.636448],[2.300506,41.636371],[2.300495,41.636313],[2.300489,41.636278],[2.300482,41.636217],[2.300489,41.6362],[2.300497,41.636126],[2.30051,41.636038],[2.300516,41.636004],[2.300519,41.635987],[2.300522,41.63597],[2.300569,41.635788],[2.300624,41.635607],[2.300738,41.635391],[2.301377,41.635496],[2.30146,41.635358],[2.301682,41.635392],[2.30184,41.635095],[2.302064,41.635138],[2.303445,41.635369],[2.303124,41.63641],[2.30311,41.63646],[2.30316,41.636496],[2.303216,41.636524],[2.303254,41.636541],[2.303295,41.636555],[2.303353,41.63657],[2.303438,41.636584],[2.303483,41.636588],[2.303527,41.636589],[2.303605,41.636588],[2.303719,41.636586],[2.303832,41.636585],[2.304117,41.636585],[2.304177,41.636586],[2.304548,41.636602],[2.304604,41.636577],[2.304642,41.63652],[2.304689,41.636444],[2.3047,41.636379],[2.304706,41.636255],[2.304705,41.636118],[2.304711,41.636022],[2.304766,41.63569],[2.304824,41.635382],[2.304869,41.635302],[2.30491,41.635265],[2.305264,41.635253],[2.305505,41.635255],[2.30574,41.635247],[2.305906,41.635229],[2.306072,41.635168],[2.306064,41.635287],[2.305974,41.635958],[2.305932,41.636358],[2.305942,41.636554],[2.306126,41.636569],[2.306189,41.63666],[2.306238,41.63687],[2.306292,41.637118],[2.307394,41.636863],[2.307371,41.636667],[2.307397,41.636603],[2.307475,41.636413],[2.307469,41.636351],[2.307338,41.636183],[2.307163,41.635877],[2.306971,41.635461],[2.306803,41.635136],[2.306615,41.634896],[2.306501,41.634796],[2.306382,41.634685],[2.306086,41.634383],[2.305829,41.634124],[2.305464,41.634318],[2.305301,41.634145],[2.304727,41.634337],[2.304652,41.63427],[2.304563,41.634264],[2.304487,41.63425],[2.303986,41.634151],[2.303912,41.634431],[2.303403,41.634369],[2.303397,41.634368],[2.303583,41.633909],[2.303375,41.633829],[2.303425,41.633709],[2.303369,41.633681],[2.303062,41.633525],[2.303035,41.633511],[2.303449,41.632905],[2.30305,41.632747],[2.303052,41.632742],[2.302986,41.632671],[2.303111,41.632566],[2.30322,41.632508],[2.303338,41.632465],[2.303424,41.632399],[2.303482,41.632371],[2.303559,41.632294],[2.303687,41.632187],[2.303773,41.632121],[2.303843,41.632072],[2.303923,41.632114],[2.304399,41.632584],[2.304486,41.632668],[2.304655,41.632839],[2.30467,41.63283],[2.304897,41.633055],[2.304937,41.633095],[2.304962,41.633081],[2.305138,41.633233],[2.305647,41.633014],[2.305643,41.633006],[2.305566,41.632883],[2.305516,41.63282],[2.305426,41.632724],[2.305452,41.632704],[2.305209,41.632529],[2.305194,41.63254],[2.305061,41.632436],[2.304973,41.632365],[2.304602,41.632089],[2.304533,41.632038],[2.304445,41.632008],[2.304174,41.631916],[2.304335,41.631785],[2.304369,41.631757],[2.304397,41.631725],[2.304418,41.631691],[2.304433,41.631654],[2.304439,41.631617],[2.304439,41.631579],[2.30443,41.631541],[2.304414,41.631505],[2.304409,41.631497],[2.304407,41.631493],[2.304372,41.631455],[2.304323,41.631404],[2.304272,41.631356],[2.304202,41.6313],[2.304133,41.631245],[2.304101,41.631222],[2.304067,41.631139],[2.304054,41.63113],[2.304014,41.631106],[2.303865,41.631035],[2.303884,41.631013],[2.303909,41.630984],[2.303951,41.630927],[2.303968,41.630897],[2.303985,41.630868],[2.304012,41.630807],[2.304031,41.630744],[2.30404,41.630703],[2.304038,41.63068],[2.304029,41.630658],[2.304013,41.630638],[2.303992,41.630622],[2.303966,41.63061],[2.303956,41.630606],[2.303878,41.630575],[2.303756,41.630551],[2.303672,41.63054],[2.303532,41.63052],[2.303528,41.630551],[2.303513,41.630602],[2.303508,41.630698],[2.303506,41.630735],[2.303505,41.630754],[2.3035,41.63084],[2.303501,41.63086],[2.303472,41.630859],[2.303403,41.630662],[2.303397,41.630643],[2.303343,41.63049],[2.303282,41.630321],[2.302539,41.630309],[2.302535,41.630322],[2.30251,41.630443],[2.3025,41.630491],[2.302473,41.630619],[2.302453,41.630688],[2.302365,41.630661],[2.302118,41.630552],[2.301832,41.630399],[2.301705,41.630325],[2.301694,41.630318],[2.301681,41.630312],[2.301591,41.63027],[2.301306,41.630073],[2.301193,41.629998],[2.301141,41.629965],[2.30109,41.629932],[2.300999,41.629873],[2.300909,41.629813],[2.300883,41.629793],[2.300849,41.629759],[2.300831,41.629742],[2.300811,41.629727],[2.300763,41.629702],[2.300715,41.629678],[2.300657,41.629644],[2.300601,41.629608],[2.300544,41.629569],[2.300488,41.629531],[2.30044,41.629494],[2.300418,41.629474],[2.3004,41.629453],[2.300368,41.629397],[2.300337,41.629342],[2.300301,41.629287],[2.300261,41.629234],[2.300235,41.629198],[2.300207,41.629163],[2.300164,41.629117],[2.300118,41.629073],[2.300049,41.629008],[2.299992,41.628955],[2.299772,41.628757],[2.299075,41.628145],[2.298328,41.627625],[2.298684,41.627234],[2.299103,41.626774],[2.299671,41.626135],[2.298796,41.625398],[2.29878,41.625385],[2.298773,41.625349],[2.298423,41.625028],[2.29832,41.624932],[2.298157,41.624781],[2.298051,41.624682],[2.297944,41.62458],[2.297936,41.624573],[2.297908,41.624548],[2.297876,41.624518],[2.297839,41.624485],[2.297807,41.624461],[2.297748,41.624421],[2.297734,41.624406],[2.297388,41.624032],[2.29736,41.624001],[2.297003,41.623592],[2.296897,41.62347],[2.29632,41.622742],[2.296133,41.622815],[2.296092,41.622796],[2.296088,41.622795],[2.296066,41.622791],[2.29603,41.622785],[2.295717,41.622731],[2.295466,41.622716],[2.295078,41.622705],[2.294595,41.622723],[2.2943,41.622752],[2.294168,41.622799],[2.293994,41.622886],[2.29378,41.622909],[2.293645,41.622914],[2.29351,41.622891],[2.293389,41.62282],[2.293361,41.622745],[2.293361,41.62268],[2.293451,41.622576],[2.293607,41.622451],[2.293646,41.622421],[2.29362,41.622424],[2.293572,41.622424],[2.293525,41.622419],[2.29348,41.622408],[2.293438,41.622391],[2.293375,41.622361],[2.293316,41.622326],[2.293262,41.622287],[2.29308,41.622211],[2.292941,41.622145],[2.292838,41.622103],[2.292788,41.622074],[2.29248,41.621889],[2.29222,41.621748],[2.292058,41.621667],[2.291763,41.621654],[2.29157,41.621647],[2.291494,41.621667],[2.291364,41.62171],[2.290986,41.621883],[2.290662,41.622066],[2.290263,41.62226],[2.289865,41.622389],[2.289645,41.622458],[2.28959,41.622472],[2.289482,41.622495],[2.289436,41.622504],[2.289526,41.622573],[2.289583,41.622612],[2.289624,41.622639],[2.289849,41.622788],[2.289892,41.622815],[2.289944,41.622795],[2.289999,41.62278],[2.290056,41.62277],[2.290114,41.622766],[2.290173,41.622767],[2.290231,41.622774],[2.290287,41.622787],[2.29043,41.622768],[2.290437,41.622769],[2.290475,41.622799],[2.290509,41.622833],[2.290536,41.62287],[2.29059,41.62311],[2.290505,41.623242],[2.290354,41.623261],[2.290335,41.623264],[2.290282,41.623281],[2.290232,41.623303],[2.290203,41.623308],[2.290104,41.623358],[2.289992,41.623438],[2.290331,41.623629],[2.290936,41.623975],[2.291262,41.624184],[2.291517,41.624351],[2.291742,41.624483],[2.291745,41.624485],[2.29194,41.624616],[2.292102,41.624852],[2.292582,41.625246],[2.293052,41.625712],[2.293196,41.625844],[2.293522,41.626233],[2.293691,41.626478],[2.293894,41.62676],[2.294002,41.626946],[2.294112,41.627124],[2.294257,41.627363],[2.294386,41.627605],[2.294412,41.627653],[2.294503,41.627832],[2.294577,41.628032],[2.294666,41.628262],[2.294731,41.628402],[2.294917,41.62898],[2.294979,41.629237],[2.295059,41.62957],[2.29507,41.629631],[2.295084,41.629704],[2.295013,41.629706],[2.295023,41.629817],[2.295104,41.629812],[2.295108,41.629926],[2.295177,41.62991],[2.295202,41.630127],[2.295224,41.630316],[2.295188,41.63032],[2.295195,41.630447],[2.2952,41.630525],[2.295209,41.630613],[2.295228,41.630753],[2.29526,41.630973],[2.295213,41.630975],[2.295214,41.631069],[2.295217,41.631145],[2.295219,41.631269],[2.29522,41.631323],[2.295221,41.631399],[2.295224,41.631584],[2.295225,41.631687],[2.295256,41.631853],[2.295332,41.632628],[2.295349,41.632827],[2.295379,41.633192],[2.295384,41.633273],[2.295382,41.633303],[2.295374,41.633343],[2.295424,41.633716],[2.295514,41.63472],[2.295599,41.635664],[2.295604,41.635743],[2.295608,41.635804],[2.295609,41.635834],[2.295612,41.635859],[2.295759,41.63752],[2.295853,41.638453],[2.295979,41.63846],[2.296154,41.638401],[2.296709,41.638163],[2.296897,41.638063],[2.297284,41.637845],[2.297416,41.637757],[2.297488,41.63773],[2.297599,41.637716],[2.297745,41.637711],[2.298082,41.637497]]]]}},{"type":"Feature","id":"080863_080863 AP10 VOR 3","properties":{"area_id":"080863_080863 AP10 VOR 3","nom":"Llerona","codi_icgc":"080863 AP10 VOR 3","categoria":"Àrees de poblament","codi_municipi":"080863","municipi":"les Franqueses del Vallès","codi_comarca":"41","comarca":"Vallès Oriental","provincia":"Barcelona","font":"ICGC Àrees de poblament v3r1 202602"},"geometry":{"type":"MultiPolygon","coordinates":[[[[2.301784,41.646043],[2.3018,41.645962],[2.301812,41.645895],[2.301817,41.645862],[2.301827,41.645795],[2.301841,41.645694],[2.301843,41.645667],[2.301844,41.645639],[2.301842,41.645627],[2.301834,41.64561],[2.301819,41.645594],[2.301798,41.645579],[2.301786,41.645574],[2.301773,41.645572],[2.30174,41.645572],[2.301707,41.645572],[2.301732,41.645515],[2.301638,41.645512],[2.301609,41.645985],[2.301558,41.645929],[2.30152,41.645893],[2.301483,41.645862],[2.301453,41.645836],[2.301385,41.64578],[2.30134,41.645742],[2.301349,41.645713],[2.301346,41.645692],[2.301335,41.645664],[2.301321,41.645619],[2.301315,41.645581],[2.301317,41.645522],[2.301316,41.645504],[2.301311,41.645491],[2.301307,41.645483],[2.301299,41.645474],[2.301288,41.645465],[2.301224,41.645434],[2.301181,41.645414],[2.301136,41.645393],[2.301083,41.645373],[2.301027,41.645361],[2.30099,41.645356],[2.300955,41.645351],[2.300813,41.645326],[2.300677,41.645305],[2.300539,41.645287],[2.300382,41.645271],[2.300226,41.645255],[2.300131,41.64524],[2.300039,41.645218],[2.299964,41.645193],[2.299891,41.645164],[2.299754,41.645003],[2.299811,41.644807],[2.299832,41.644656],[2.299834,41.644644],[2.300101,41.644553],[2.300363,41.64453],[2.300429,41.644281],[2.300145,41.644183],[2.299807,41.644635],[2.299795,41.644631],[2.299722,41.644664],[2.299652,41.64469],[2.299631,41.644697],[2.299576,41.644715],[2.299556,41.64468],[2.299535,41.644645],[2.299526,41.644624],[2.299519,41.644603],[2.299506,41.64456],[2.299494,41.644533],[2.29948,41.644507],[2.299462,41.64449],[2.299438,41.644478],[2.29942,41.644473],[2.299371,41.64447],[2.299348,41.64447],[2.299283,41.644464],[2.299263,41.644458],[2.299245,41.644454],[2.299225,41.644454],[2.299184,41.644458],[2.299133,41.644464],[2.299082,41.644472],[2.299049,41.644481],[2.298984,41.644503],[2.298919,41.644526],[2.298869,41.644544],[2.298819,41.644564],[2.298788,41.64458],[2.298759,41.644602],[2.298734,41.644627],[2.298716,41.644644],[2.298693,41.644648],[2.298632,41.644641],[2.298592,41.64463],[2.29851,41.644604],[2.298484,41.644595],[2.298416,41.644571],[2.298279,41.644521],[2.298213,41.644498],[2.298203,41.644492],[2.298191,41.644482],[2.298217,41.644084],[2.297695,41.643986],[2.297664,41.643981],[2.297649,41.643975],[2.297646,41.643968],[2.297639,41.643881],[2.297803,41.643569],[2.297867,41.643585],[2.297964,41.643608],[2.29806,41.643632],[2.298113,41.643647],[2.298192,41.643673],[2.298277,41.643698],[2.298297,41.6437],[2.298325,41.643695],[2.298346,41.643683],[2.298351,41.643678],[2.298443,41.643697],[2.298707,41.643753],[2.298749,41.643763],[2.299256,41.643864],[2.299376,41.643894],[2.299895,41.643999],[2.299991,41.643899],[2.300716,41.644068],[2.301297,41.644215],[2.301341,41.644242],[2.301361,41.64423],[2.301467,41.644166],[2.301568,41.644103],[2.30167,41.64404],[2.301705,41.644018],[2.301779,41.643978],[2.301936,41.643953],[2.302233,41.643939],[2.302235,41.643951],[2.302379,41.64394],[2.30247,41.643974],[2.302797,41.644164],[2.302851,41.6442],[2.302759,41.644364],[2.302757,41.644368],[2.302645,41.644477],[2.302427,41.64467],[2.302642,41.644718],[2.303155,41.644818],[2.303325,41.644849],[2.303278,41.644925],[2.303099,41.644895],[2.302881,41.645119],[2.302705,41.645285],[2.302672,41.645485],[2.30278,41.645593],[2.302839,41.645648],[2.302879,41.645624],[2.303028,41.645557],[2.30354,41.645807],[2.303628,41.64585],[2.303617,41.645861],[2.303507,41.645972],[2.303476,41.646128],[2.303134,41.646525],[2.303228,41.646581],[2.303441,41.646723],[2.303501,41.64669],[2.303662,41.646505],[2.30387,41.64626],[2.304043,41.646083],[2.304212,41.646246],[2.304226,41.646261],[2.304956,41.645783],[2.304882,41.645749],[2.304849,41.645733],[2.30466,41.645638],[2.30451,41.64554],[2.304466,41.645538],[2.304436,41.645536],[2.304421,41.645521],[2.304419,41.645518],[2.304386,41.645471],[2.304362,41.645437],[2.304338,41.645414],[2.304319,41.645395],[2.304306,41.645308],[2.304298,41.645251],[2.304255,41.645135],[2.304176,41.645084],[2.304256,41.645007],[2.304334,41.644932],[2.30441,41.64477],[2.30444,41.644626],[2.304467,41.644458],[2.304496,41.644241],[2.304464,41.64415],[2.304431,41.643927],[2.304363,41.643644],[2.304305,41.643521],[2.304279,41.643498],[2.304264,41.643484],[2.304202,41.643469],[2.304078,41.64347],[2.303895,41.643467],[2.303856,41.643466],[2.303652,41.643458],[2.303486,41.643454],[2.303375,41.643454],[2.303355,41.643454],[2.303285,41.643467],[2.303243,41.643487],[2.303228,41.643508],[2.303195,41.643552],[2.303086,41.643735],[2.302857,41.643604],[2.302508,41.643441],[2.302232,41.643324],[2.302063,41.643239],[2.301786,41.64313],[2.301841,41.64338],[2.301859,41.643515],[2.301849,41.64355],[2.30183,41.643617],[2.301821,41.643651],[2.301811,41.643685],[2.301774,41.64382],[2.301748,41.643908],[2.301739,41.643933],[2.301707,41.643969],[2.301321,41.64383],[2.301067,41.643733],[2.300646,41.643572],[2.300455,41.643499],[2.300397,41.64348],[2.30053,41.643312],[2.300564,41.64327],[2.300499,41.643244],[2.300123,41.643092],[2.300004,41.643046],[2.299909,41.643009],[2.299815,41.64297],[2.299731,41.64293],[2.299648,41.642887],[2.299571,41.642851],[2.299492,41.642817],[2.299455,41.642805],[2.299397,41.64279],[2.299338,41.642777],[2.299257,41.642762],[2.299175,41.642746],[2.299089,41.642726],[2.299003,41.642703],[2.298934,41.642685],[2.2989,41.642675],[2.298869,41.642662],[2.29883,41.642643],[2.298779,41.642618],[2.298798,41.642594],[2.298553,41.642491],[2.298529,41.642477],[2.298453,41.64244],[2.298446,41.642446],[2.298216,41.64257],[2.297988,41.642504],[2.297655,41.642515],[2.297651,41.64238],[2.297651,41.641763],[2.297657,41.641304],[2.297652,41.641277],[2.297659,41.640804],[2.298491,41.640941],[2.298491,41.640984],[2.298596,41.640999],[2.298585,41.64112],[2.298515,41.641392],[2.298524,41.641413],[2.298879,41.641461],[2.298777,41.641543],[2.298714,41.641666],[2.298534,41.642036],[2.298707,41.642046],[2.298786,41.642065],[2.29906,41.642145],[2.299337,41.642225],[2.299512,41.642271],[2.299687,41.642314],[2.299768,41.642339],[2.299838,41.642361],[2.299875,41.642372],[2.29989,41.642376],[2.299929,41.642387],[2.299941,41.642394],[2.299952,41.642411],[2.299958,41.642429],[2.299968,41.642458],[2.299973,41.642486],[2.299974,41.642533],[2.29997,41.642598],[2.29993,41.642772],[2.300342,41.642891],[2.300391,41.64268],[2.300388,41.64268],[2.300498,41.642194],[2.300518,41.642106],[2.300659,41.641057],[2.300642,41.641055],[2.300423,41.641007],[2.30035,41.640996],[2.300276,41.640984],[2.300166,41.640971],[2.300056,41.640959],[2.299995,41.640953],[2.299933,41.640947],[2.299873,41.640935],[2.299814,41.640918],[2.299702,41.640884],[2.299634,41.640863],[2.299638,41.640839],[2.29965,41.640765],[2.299671,41.640653],[2.299679,41.640601],[2.299554,41.640587],[2.299447,41.640576],[2.299339,41.640558],[2.299197,41.640536],[2.299176,41.640507],[2.299222,41.640173],[2.299238,41.63997],[2.299221,41.639802],[2.299227,41.639684],[2.299262,41.639555],[2.299303,41.639302],[2.299324,41.63913],[2.299354,41.638992],[2.299403,41.638719],[2.299048,41.638612],[2.298769,41.638524],[2.298503,41.638441],[2.298466,41.638431],[2.298283,41.63838],[2.29815,41.638342],[2.2979,41.638326],[2.297621,41.638308],[2.297619,41.638236],[2.297618,41.638174],[2.297617,41.638111],[2.29753,41.638069],[2.297464,41.638023],[2.297445,41.637999],[2.29742,41.63798],[2.297398,41.637966],[2.297343,41.637965],[2.296222,41.638499],[2.296025,41.638602],[2.295938,41.638693],[2.295993,41.639333],[2.296085,41.640009],[2.296095,41.640315],[2.296143,41.641009],[2.296149,41.641071],[2.296193,41.641065],[2.2962,41.641064],[2.296329,41.641038],[2.296463,41.641011],[2.296556,41.640994],[2.296645,41.640978],[2.296651,41.640977],[2.296684,41.64097],[2.296718,41.640959],[2.296733,41.640952],[2.296745,41.640941],[2.296758,41.640915],[2.296758,41.640911],[2.296762,41.64089],[2.296762,41.640845],[2.296762,41.640802],[2.296763,41.640775],[2.296767,41.640749],[2.296771,41.640735],[2.296779,41.640722],[2.29679,41.640716],[2.296804,41.640713],[2.296849,41.640713],[2.296896,41.640716],[2.297029,41.640728],[2.297432,41.640771],[2.297361,41.641142],[2.297347,41.641217],[2.297337,41.641271],[2.297183,41.641283],[2.297159,41.641287],[2.297132,41.641297],[2.29711,41.641312],[2.297093,41.641331],[2.297082,41.641353],[2.29704,41.641516],[2.297012,41.641621],[2.297051,41.641629],[2.297039,41.641664],[2.297004,41.641657],[2.296976,41.641737],[2.296939,41.641735],[2.296883,41.641733],[2.296881,41.641768],[2.296859,41.641778],[2.296836,41.641788],[2.296816,41.641794],[2.296781,41.641804],[2.296706,41.64182],[2.296633,41.641829],[2.296634,41.641953],[2.296634,41.641962],[2.296639,41.642123],[2.296831,41.642122],[2.296831,41.642459],[2.297403,41.64247],[2.297482,41.642469],[2.297497,41.642469],[2.297509,41.64247],[2.297522,41.642475],[2.297534,41.642485],[2.29754,41.642498],[2.297542,41.642528],[2.297543,41.642641],[2.297543,41.643075],[2.297538,41.643091],[2.297532,41.643099],[2.297515,41.643106],[2.297492,41.643109],[2.297082,41.643106],[2.29674,41.643103],[2.296751,41.643433],[2.296758,41.64354],[2.296754,41.643627],[2.296748,41.64372],[2.296737,41.643805],[2.296416,41.643778],[2.296438,41.643962],[2.296464,41.644347],[2.296603,41.644403],[2.296909,41.644591],[2.296976,41.644614],[2.297077,41.644551],[2.297173,41.644484],[2.297263,41.644413],[2.297348,41.644338],[2.297427,41.64426],[2.297492,41.644177],[2.297501,41.644101],[2.297522,41.644108],[2.297539,41.644116],[2.297548,41.644127],[2.297553,41.644165],[2.297552,41.644214],[2.297551,41.64429],[2.297547,41.644303],[2.297534,41.644309],[2.297516,41.644313],[2.297279,41.644503],[2.297118,41.644768],[2.296968,41.645047],[2.296997,41.645202],[2.297156,41.645335],[2.297314,41.645377],[2.297661,41.645366],[2.297661,41.645328],[2.29766,41.645289],[2.297654,41.645068],[2.297663,41.64485],[2.297678,41.644824],[2.297697,41.644807],[2.297825,41.644772],[2.297823,41.644769],[2.297859,41.644755],[2.297919,41.644841],[2.297943,41.644836],[2.297965,41.64483],[2.297979,41.644828],[2.298198,41.644739],[2.298116,41.644528],[2.298131,41.644523],[2.298147,41.644521],[2.298167,41.644526],[2.298259,41.644554],[2.298395,41.644604],[2.298464,41.644629],[2.298535,41.644652],[2.298661,41.644687],[2.298783,41.644716],[2.298789,41.644717],[2.298983,41.644756],[2.299081,41.644774],[2.299117,41.64478],[2.299179,41.64479],[2.299275,41.644804],[2.299369,41.644817],[2.299412,41.64485],[2.299461,41.644896],[2.299491,41.644923],[2.29951,41.644942],[2.299597,41.64502],[2.299689,41.645098],[2.299732,41.645126],[2.299783,41.645235],[2.299605,41.645408],[2.299608,41.645409],[2.299438,41.645543],[2.299675,41.645616],[2.299817,41.645549],[2.300083,41.645422],[2.300333,41.645348],[2.300445,41.645308],[2.300533,41.645317],[2.300669,41.645335],[2.300805,41.645356],[2.300947,41.645381],[2.300983,41.645386],[2.301018,41.645391],[2.301069,41.645402],[2.301099,41.645412],[2.301133,41.64543],[2.301167,41.645448],[2.301031,41.645578],[2.301005,41.645565],[2.300985,41.64556],[2.300954,41.64556],[2.300925,41.64557],[2.300899,41.64559],[2.30088,41.645612],[2.300866,41.645637],[2.300855,41.645663],[2.300851,41.64568],[2.300856,41.645695],[2.300867,41.645708],[2.300682,41.646102],[2.300583,41.646396],[2.300704,41.646419],[2.300921,41.646461],[2.300787,41.646612],[2.301452,41.646855],[2.301612,41.646736],[2.301838,41.646404],[2.301825,41.646389],[2.301722,41.646275],[2.30176,41.646151],[2.301753,41.646132],[2.301775,41.646089],[2.301784,41.646043]]],[[[2.306647,41.648014],[2.307035,41.647962],[2.307244,41.64798],[2.307521,41.647996],[2.307645,41.647978],[2.307931,41.647951],[2.308168,41.647802],[2.308213,41.647767],[2.307813,41.647151],[2.307657,41.646838],[2.307586,41.646676],[2.307539,41.646623],[2.30744,41.646589],[2.307288,41.646555],[2.307133,41.646535],[2.306898,41.64649],[2.306651,41.64642],[2.306532,41.646536],[2.306506,41.646588],[2.306429,41.646726],[2.306332,41.646859],[2.306186,41.646827],[2.306072,41.646814],[2.306014,41.646857],[2.305789,41.647383],[2.306179,41.647495],[2.30622,41.647538],[2.305971,41.647629],[2.306019,41.647884],[2.306031,41.647999],[2.306269,41.647972],[2.306527,41.647923],[2.306647,41.648014]]],[[[2.30107,41.650644],[2.301298,41.649683],[2.301343,41.649591],[2.3013,41.649549],[2.300839,41.649186],[2.30067,41.649057],[2.300373,41.648942],[2.300207,41.648914],[2.300083,41.649327],[2.299667,41.649253],[2.299625,41.649429],[2.299475,41.649401],[2.299198,41.64928],[2.299052,41.649214],[2.298985,41.64916],[2.298997,41.649097],[2.299066,41.648994],[2.299158,41.648878],[2.299227,41.648795],[2.299204,41.648732],[2.299157,41.648681],[2.299153,41.648643],[2.299186,41.648595],[2.29921,41.648559],[2.29921,41.648549],[2.299207,41.648539],[2.299299,41.648505],[2.299443,41.648529],[2.29945,41.648528],[2.299665,41.648328],[2.299792,41.648219],[2.29981,41.648205],[2.29976,41.648163],[2.299707,41.648117],[2.299658,41.648083],[2.299602,41.648054],[2.299549,41.648038],[2.299494,41.648028],[2.29943,41.64802],[2.299367,41.648012],[2.299313,41.648004],[2.299261,41.647991],[2.299225,41.647973],[2.299191,41.647953],[2.299135,41.647919],[2.299077,41.647887],[2.299063,41.647881],[2.299052,41.647875],[2.299063,41.647865],[2.298906,41.647805],[2.298827,41.647772],[2.298773,41.647723],[2.298739,41.647696],[2.298678,41.647712],[2.298603,41.647489],[2.298622,41.647435],[2.298649,41.647431],[2.298696,41.647425],[2.298671,41.647314],[2.298603,41.647234],[2.298598,41.647235],[2.298597,41.647227],[2.298467,41.647099],[2.298438,41.64707],[2.298435,41.647044],[2.298375,41.646941],[2.298373,41.646928],[2.298367,41.646928],[2.298292,41.646799],[2.298256,41.646748],[2.298255,41.646713],[2.298268,41.64663],[2.298247,41.646569],[2.298228,41.64641],[2.298149,41.646348],[2.298154,41.646317],[2.298105,41.64629],[2.297841,41.646152],[2.297817,41.646139],[2.297536,41.646056],[2.297534,41.646078],[2.297349,41.646],[2.297089,41.645891],[2.29706,41.646284],[2.296725,41.646178],[2.296675,41.6462],[2.296709,41.646453],[2.296727,41.646591],[2.296745,41.64672],[2.296756,41.646803],[2.296877,41.647321],[2.296936,41.64734],[2.296951,41.647387],[2.296948,41.647485],[2.296963,41.647759],[2.296986,41.648006],[2.296991,41.64804],[2.296993,41.648055],[2.297016,41.648054],[2.29702,41.648087],[2.297037,41.648274],[2.297149,41.648925],[2.297166,41.649152],[2.297186,41.649152],[2.297187,41.64916],[2.297189,41.649186],[2.297226,41.649184],[2.297224,41.649387],[2.297222,41.649454],[2.297215,41.649706],[2.297202,41.649832],[2.297197,41.649881],[2.297184,41.649988],[2.297166,41.650111],[2.297195,41.650167],[2.29717,41.650289],[2.297251,41.650298],[2.297257,41.650273],[2.297491,41.6503],[2.297784,41.650305],[2.297783,41.650243],[2.298206,41.650169],[2.298273,41.650291],[2.29841,41.650465],[2.298485,41.650522],[2.298588,41.650576],[2.298712,41.650488],[2.298956,41.650331],[2.299108,41.650231],[2.299216,41.650136],[2.299345,41.649991],[2.299397,41.649932],[2.299496,41.649998],[2.299626,41.650091],[2.300078,41.65015],[2.300213,41.650178],[2.300284,41.650232],[2.300295,41.650333],[2.30029,41.650387],[2.300249,41.650524],[2.30026,41.650592],[2.300323,41.65062],[2.300454,41.650653],[2.300553,41.650663],[2.30066,41.650672],[2.300731,41.65071],[2.300803,41.650738],[2.300862,41.650741],[2.300902,41.650714],[2.30093,41.650688],[2.300982,41.650646],[2.30107,41.650644]]]]}},{"type":"Feature","id":"080863_080863 AP09 VOR 3","properties":{"area_id":"080863_080863 AP09 VOR 3","nom":"Marata","codi_icgc":"080863 AP09 VOR 3","categoria":"Àrees de poblament","codi_municipi":"080863","municipi":"les Franqueses del Vallès","codi_comarca":"41","comarca":"Vallès Oriental","provincia":"Barcelona","font":"ICGC Àrees de poblament v3r1 202602"},"geometry":{"type":"MultiPolygon","coordinates":[[[[2.322731,41.645476],[2.32276,41.645322],[2.322041,41.645438],[2.322158,41.645779],[2.322172,41.645827],[2.322182,41.645861],[2.322205,41.645942],[2.322231,41.646032],[2.322259,41.646122],[2.322253,41.646199],[2.322245,41.646267],[2.322221,41.646515],[2.322307,41.646626],[2.322341,41.646621],[2.322445,41.646611],[2.322525,41.646976],[2.322477,41.647018],[2.322355,41.647128],[2.322317,41.647482],[2.322897,41.647515],[2.322917,41.647516],[2.322916,41.647484],[2.32292,41.647422],[2.322928,41.647363],[2.322935,41.647304],[2.322944,41.647242],[2.322949,41.647178],[2.322941,41.647129],[2.322926,41.647081],[2.322906,41.647018],[2.322885,41.646955],[2.322872,41.646893],[2.32287,41.646831],[2.322873,41.646788],[2.322875,41.646745],[2.322877,41.646718],[2.322878,41.646691],[2.322882,41.646677],[2.322887,41.646662],[2.322892,41.646654],[2.322908,41.646644],[2.322928,41.646637],[2.322946,41.646634],[2.322964,41.646632],[2.322993,41.646631],[2.323023,41.646631],[2.323067,41.64663],[2.323111,41.64663],[2.323216,41.646631],[2.323274,41.646731],[2.323233,41.646885],[2.323232,41.646987],[2.323246,41.647124],[2.323293,41.647219],[2.323379,41.647333],[2.323426,41.647393],[2.323522,41.647415],[2.323734,41.647433],[2.323818,41.647412],[2.323872,41.647288],[2.32392,41.647253],[2.324094,41.6472],[2.324139,41.647134],[2.324165,41.647063],[2.324286,41.647039],[2.324311,41.647082],[2.324211,41.647298],[2.324563,41.647353],[2.324653,41.647075],[2.324628,41.64704],[2.324613,41.64702],[2.324579,41.647014],[2.324499,41.646997],[2.324421,41.646976],[2.324335,41.646952],[2.324249,41.646926],[2.324155,41.646898],[2.324061,41.64687],[2.323998,41.646857],[2.323935,41.646848],[2.323896,41.646838],[2.323791,41.646802],[2.323687,41.646764],[2.323585,41.646724],[2.323544,41.646709],[2.323484,41.646686],[2.323406,41.646657],[2.323325,41.646629],[2.323358,41.646339],[2.323375,41.646189],[2.323423,41.646148],[2.323447,41.646124],[2.323463,41.646118],[2.323471,41.646112],[2.323471,41.646106],[2.323479,41.6461],[2.323495,41.6461],[2.323543,41.646095],[2.323567,41.646089],[2.323591,41.646089],[2.323646,41.646083],[2.32367,41.646084],[2.323678,41.646084],[2.323686,41.646084],[2.323694,41.646084],[2.323702,41.646084],[2.32371,41.646084],[2.323718,41.646084],[2.323742,41.646084],[2.323757,41.646084],[2.323773,41.646084],[2.323781,41.646084],[2.323789,41.646084],[2.323805,41.646084],[2.323813,41.646084],[2.323821,41.646084],[2.323845,41.646085],[2.323853,41.646085],[2.323877,41.646085],[2.323881,41.646083],[2.323991,41.645998],[2.323904,41.64595],[2.323879,41.645903],[2.323882,41.645821],[2.323887,41.645688],[2.323452,41.645706],[2.323362,41.6459],[2.323362,41.645903],[2.32336,41.645907],[2.323343,41.645931],[2.323327,41.645954],[2.323319,41.645963],[2.323308,41.64597],[2.323282,41.645984],[2.323232,41.646005],[2.323183,41.646026],[2.323109,41.646061],[2.323036,41.646096],[2.322984,41.646128],[2.322939,41.646166],[2.322922,41.646186],[2.322909,41.646207],[2.322892,41.646249],[2.322882,41.64629],[2.322699,41.64628],[2.322568,41.646071],[2.322582,41.646043],[2.322583,41.646038],[2.322592,41.646004],[2.322601,41.645967],[2.322614,41.645912],[2.322626,41.645861],[2.322627,41.645859],[2.322641,41.645823],[2.322663,41.64579],[2.322682,41.645769],[2.322739,41.64571],[2.322765,41.645684],[2.322731,41.645476]]]]}},{"type":"Feature","id":"080863_080863 AP07 VOR 3","properties":{"area_id":"080863_080863 AP07 VOR 3","nom":"Milpins","codi_icgc":"080863 AP07 VOR 3","categoria":"Àrees de poblament","codi_municipi":"080863","municipi":"les Franqueses del Vallès","codi_comarca":"41","comarca":"Vallès Oriental","provincia":"Barcelona","font":"ICGC Àrees de poblament v3r1 202602"},"geometry":{"type":"MultiPolygon","coordinates":[[[[2.313209,41.638277],[2.313227,41.638263],[2.313243,41.638265],[2.31344,41.638189],[2.313658,41.638092],[2.313702,41.638072],[2.31373,41.637973],[2.313756,41.637933],[2.313779,41.637892],[2.313801,41.637851],[2.31381,41.637839],[2.313823,41.637822],[2.313837,41.637809],[2.313854,41.637797],[2.313889,41.637778],[2.313944,41.637756],[2.314002,41.637741],[2.314119,41.637715],[2.31416,41.637707],[2.314236,41.63769],[2.314073,41.637578],[2.313733,41.63732],[2.313534,41.637172],[2.313465,41.637115],[2.313449,41.637106],[2.313335,41.637033],[2.313125,41.636957],[2.312941,41.636924],[2.312933,41.636924],[2.312815,41.636921],[2.312775,41.636929],[2.312604,41.636972],[2.312583,41.636978],[2.312306,41.636988],[2.312297,41.636989],[2.312107,41.637022],[2.311896,41.637063],[2.311811,41.637074],[2.311767,41.637069],[2.311712,41.637038],[2.311665,41.636982],[2.311603,41.636866],[2.311538,41.63681],[2.311498,41.636775],[2.311375,41.636674],[2.311313,41.636712],[2.311294,41.636694],[2.311169,41.636573],[2.311144,41.63655],[2.311076,41.636483],[2.310993,41.636403],[2.310672,41.635999],[2.31034,41.635826],[2.310331,41.63582],[2.309999,41.63565],[2.309987,41.635644],[2.309529,41.635403],[2.309493,41.635385],[2.30939,41.635331],[2.309383,41.635328],[2.309208,41.635413],[2.309073,41.635477],[2.30906,41.635483],[2.308731,41.635644],[2.308378,41.635766],[2.308374,41.635767],[2.308042,41.635859],[2.308026,41.635864],[2.307896,41.636137],[2.307867,41.63646],[2.307725,41.636547],[2.307574,41.636882],[2.307591,41.637097],[2.307675,41.637273],[2.307825,41.637506],[2.307867,41.637588],[2.307893,41.637832],[2.307911,41.637907],[2.307986,41.638007],[2.308146,41.638198],[2.308329,41.638463],[2.308913,41.638227],[2.309097,41.638163],[2.309155,41.638241],[2.309236,41.638364],[2.309247,41.638381],[2.309318,41.638486],[2.309383,41.638576],[2.309396,41.638592],[2.309455,41.638662],[2.309574,41.638789],[2.309741,41.638958],[2.309756,41.638974],[2.309927,41.639141],[2.309944,41.639157],[2.310094,41.6393],[2.310115,41.63932],[2.310243,41.639442],[2.310302,41.639497],[2.310362,41.639553],[2.31048,41.639664],[2.310485,41.63967],[2.310633,41.639816],[2.31078,41.639971],[2.310786,41.639978],[2.310939,41.640144],[2.311011,41.640222],[2.311107,41.640313],[2.31115,41.640354],[2.311169,41.640337],[2.311203,41.640317],[2.31128,41.640282],[2.311428,41.640221],[2.31158,41.640166],[2.311762,41.640108],[2.311944,41.64005],[2.312139,41.639982],[2.312227,41.639945],[2.312315,41.639908],[2.312358,41.639886],[2.31237,41.639879],[2.312398,41.639863],[2.312433,41.639835],[2.312463,41.639804],[2.312485,41.639769],[2.312501,41.639733],[2.312509,41.639695],[2.31251,41.639657],[2.312508,41.639639],[2.312507,41.639607],[2.312505,41.639573],[2.312499,41.639551],[2.312497,41.639546],[2.31249,41.639529],[2.312481,41.639508],[2.312434,41.639428],[2.312387,41.639349],[2.312334,41.63926],[2.312282,41.63917],[2.312263,41.639133],[2.312247,41.639096],[2.31222,41.639019],[2.312206,41.638968],[2.312198,41.638917],[2.312198,41.638883],[2.312201,41.638857],[2.312209,41.638831],[2.312212,41.638824],[2.312231,41.638781],[2.312246,41.638751],[2.312266,41.638723],[2.312284,41.638705],[2.312315,41.638684],[2.312349,41.638671],[2.312375,41.638667],[2.312429,41.638663],[2.312484,41.638659],[2.312593,41.638652],[2.312604,41.638652],[2.312703,41.638646],[2.312738,41.638642],[2.312772,41.638634],[2.312794,41.638626],[2.312815,41.638616],[2.312833,41.638605],[2.312862,41.638577],[2.312903,41.638531],[2.312944,41.638485],[2.31299,41.638433],[2.313036,41.638381],[2.313063,41.638353],[2.313095,41.638327],[2.31312,41.638313],[2.31318,41.638287],[2.313209,41.638277]]]]}},{"type":"Feature","id":"080863_080863 AP12 VOR 4","properties":{"area_id":"080863_080863 AP12 VOR 4","nom":"Pla de Llerona","codi_icgc":"080863 AP12 VOR 4","categoria":"Àrees de poblament","codi_municipi":"080863","municipi":"les Franqueses del Vallès","codi_comarca":"41","comarca":"Vallès Oriental","provincia":"Barcelona","font":"ICGC Àrees de poblament v3r1 202602"},"geometry":{"type":"MultiPolygon","coordinates":[[[[2.290395,41.653453],[2.290398,41.653456],[2.290427,41.653484],[2.290447,41.653508],[2.290463,41.653533],[2.290468,41.65355],[2.290468,41.653572],[2.290459,41.653605],[2.29045,41.653637],[2.29041,41.653723],[2.29037,41.653809],[2.290306,41.653957],[2.290245,41.654106],[2.290199,41.654231],[2.290156,41.654357],[2.290138,41.654402],[2.290112,41.654446],[2.290092,41.654463],[2.290066,41.654473],[2.290026,41.654476],[2.289986,41.654472],[2.289919,41.654456],[2.289853,41.65444],[2.289763,41.65442],[2.289672,41.654404],[2.289619,41.654401],[2.289585,41.654402],[2.289557,41.654404],[2.289547,41.654405],[2.289516,41.654407],[2.289507,41.654408],[2.289488,41.654415],[2.289438,41.654447],[2.289394,41.654482],[2.289346,41.654524],[2.289296,41.654565],[2.289293,41.654567],[2.289305,41.654578],[2.289282,41.654576],[2.289129,41.654559],[2.288999,41.654754],[2.288964,41.654864],[2.289077,41.654906],[2.289197,41.654936],[2.289289,41.654853],[2.289344,41.654767],[2.289351,41.654735],[2.289595,41.654763],[2.289765,41.654782],[2.290057,41.654806],[2.29025,41.654822],[2.290348,41.654826],[2.290685,41.65484],[2.290767,41.654843],[2.290525,41.655295],[2.290475,41.655353],[2.290416,41.655424],[2.29041,41.655437],[2.29046,41.655437],[2.290513,41.655429],[2.290567,41.655423],[2.290568,41.655477],[2.290484,41.655511],[2.290496,41.655566],[2.290616,41.65555],[2.290619,41.655565],[2.290823,41.655538],[2.290893,41.655526],[2.290893,41.655564],[2.290941,41.655559],[2.290971,41.655599],[2.290929,41.655617],[2.290954,41.65565],[2.290965,41.655665],[2.290906,41.655679],[2.290883,41.655827],[2.29088,41.655847],[2.290877,41.655871],[2.290826,41.656197],[2.290816,41.656261],[2.290816,41.656261],[2.291082,41.656295],[2.291178,41.656308],[2.291221,41.656242],[2.29125,41.656218],[2.291278,41.656194],[2.291293,41.65618],[2.291303,41.656164],[2.291314,41.656127],[2.291329,41.656062],[2.291343,41.655997],[2.291358,41.65591],[2.291362,41.655815],[2.291813,41.655837],[2.291797,41.65617],[2.292121,41.656185],[2.292198,41.656195],[2.292279,41.656206],[2.292296,41.656209],[2.292442,41.656236],[2.292589,41.656264],[2.292724,41.656287],[2.292858,41.656309],[2.292901,41.656315],[2.292943,41.656321],[2.292952,41.656321],[2.292955,41.65632],[2.293125,41.656102],[2.293132,41.655984],[2.293132,41.655979],[2.293268,41.655989],[2.293437,41.655995],[2.293499,41.655997],[2.293505,41.655853],[2.293506,41.655841],[2.29351,41.65568],[2.293512,41.655607],[2.293512,41.655533],[2.293508,41.655497],[2.293499,41.655462],[2.293484,41.655421],[2.293469,41.65538],[2.293462,41.655366],[2.293454,41.655353],[2.293447,41.655339],[2.293438,41.655324],[2.293347,41.655163],[2.293253,41.655002],[2.293193,41.654901],[2.292924,41.654317],[2.29274,41.653661],[2.292734,41.653638],[2.29273,41.653613],[2.292727,41.653579],[2.292727,41.653544],[2.292729,41.653519],[2.292733,41.653494],[2.292743,41.653457],[2.29276,41.653421],[2.292907,41.653313],[2.293096,41.653201],[2.29324,41.653046],[2.293293,41.652971],[2.293316,41.652932],[2.293336,41.652892],[2.293375,41.652791],[2.293417,41.652668],[2.293428,41.652637],[2.293455,41.652561],[2.293485,41.652486],[2.29349,41.652475],[2.293553,41.652332],[2.293603,41.652218],[2.29362,41.652182],[2.293629,41.652161],[2.293644,41.652127],[2.293644,41.652127],[2.293704,41.651995],[2.293642,41.651933],[2.293566,41.65195],[2.293357,41.651959],[2.292995,41.651961],[2.292582,41.651935],[2.292446,41.651921],[2.292436,41.651906],[2.29245,41.651802],[2.292449,41.651801],[2.292245,41.651624],[2.292112,41.651487],[2.291806,41.651602],[2.291752,41.65141],[2.291753,41.651399],[2.291757,41.651334],[2.291849,41.651319],[2.291843,41.651012],[2.292475,41.650995],[2.292693,41.650994],[2.292768,41.650995],[2.292901,41.650981],[2.2929,41.65098],[2.292866,41.650905],[2.29285,41.650865],[2.292719,41.6505],[2.292682,41.650389],[2.292604,41.650402],[2.292023,41.650452],[2.292061,41.650708],[2.291623,41.65072],[2.291577,41.65021],[2.291418,41.650182],[2.29142,41.650243],[2.291154,41.650205],[2.291089,41.650196],[2.291087,41.650234],[2.291084,41.650344],[2.291115,41.650361],[2.291243,41.650428],[2.291275,41.650446],[2.29132,41.650478],[2.291362,41.650513],[2.291388,41.650542],[2.291407,41.650574],[2.291422,41.650621],[2.291431,41.650669],[2.291437,41.650717],[2.291438,41.650765],[2.29143,41.650806],[2.291413,41.650847],[2.291397,41.650874],[2.291374,41.650897],[2.291341,41.650921],[2.291304,41.650941],[2.291259,41.650962],[2.291211,41.650983],[2.291171,41.651005],[2.291133,41.651031],[2.291106,41.651058],[2.291095,41.651075],[2.291089,41.651093],[2.291086,41.651121],[2.291085,41.651148],[2.291086,41.651261],[2.291087,41.65135],[2.291113,41.651492],[2.291175,41.651604],[2.29119,41.65163],[2.290772,41.651678],[2.290793,41.651761],[2.291284,41.651837],[2.291243,41.651937],[2.291122,41.652238],[2.291108,41.652299],[2.291092,41.652373],[2.291092,41.652373],[2.291283,41.652391],[2.291231,41.65272],[2.291228,41.652736],[2.291245,41.652738],[2.291648,41.652758],[2.291773,41.652765],[2.291792,41.652765],[2.291809,41.652765],[2.291783,41.652842],[2.29177,41.652963],[2.291766,41.653003],[2.291756,41.653109],[2.291749,41.653177],[2.291742,41.653211],[2.291729,41.653244],[2.291699,41.653307],[2.291677,41.653351],[2.291668,41.653358],[2.291649,41.653368],[2.291612,41.653375],[2.291558,41.653375],[2.291426,41.653381],[2.290835,41.653406],[2.290549,41.653409],[2.290537,41.653411],[2.290477,41.653391],[2.290436,41.653379],[2.29042,41.653357],[2.290396,41.653269],[2.290359,41.653111],[2.290331,41.653075],[2.2903,41.653061],[2.290223,41.653049],[2.290122,41.653031],[2.290032,41.653369],[2.290131,41.653386],[2.290277,41.653409],[2.290337,41.653428],[2.290395,41.653453]]]]}},{"type":"Feature","id":"080863_080863 SI04 VOR 3","properties":{"area_id":"080863_080863 SI04 VOR 3","nom":"Polígon industrial El Ramassar","codi_icgc":"080863 SI04 VOR 3","categoria":"Sector industrial","codi_municipi":"080863","municipi":"les Franqueses del Vallès","codi_comarca":"41","comarca":"Vallès Oriental","provincia":"Barcelona","font":"ICGC Àrees de poblament v3r1 202602"},"geometry":{"type":"MultiPolygon","coordinates":[[[[2.307983,41.613388],[2.308134,41.61321],[2.308227,41.613224],[2.30833,41.613096],[2.308557,41.612659],[2.308673,41.612442],[2.308734,41.612237],[2.308758,41.612201],[2.308775,41.612163],[2.308784,41.612124],[2.308786,41.612084],[2.308781,41.612045],[2.308778,41.612035],[2.308777,41.612007],[2.308776,41.611975],[2.308777,41.611884],[2.308752,41.611768],[2.308889,41.611147],[2.308812,41.611058],[2.308405,41.611],[2.308261,41.610997],[2.308249,41.610967],[2.308262,41.61096],[2.30828,41.610954],[2.308312,41.610946],[2.30837,41.610933],[2.308741,41.610865],[2.308761,41.610858],[2.30878,41.610847],[2.308794,41.610838],[2.308805,41.610826],[2.308814,41.610803],[2.308817,41.610778],[2.308818,41.610737],[2.308819,41.610695],[2.308817,41.610623],[2.308816,41.610544],[2.308821,41.610207],[2.308827,41.60987],[2.308828,41.60976],[2.308831,41.609233],[2.308835,41.609232],[2.309061,41.60918],[2.309156,41.60898],[2.30916,41.608964],[2.309107,41.608855],[2.309105,41.608851],[2.309088,41.608782],[2.309028,41.60878],[2.308952,41.608762],[2.308987,41.60859],[2.308985,41.608536],[2.30898,41.608435],[2.308971,41.608336],[2.308966,41.608283],[2.308981,41.608133],[2.308994,41.607983],[2.309007,41.607818],[2.304005,41.607481],[2.303752,41.607464],[2.30345,41.607443],[2.303064,41.607545],[2.303065,41.607552],[2.303072,41.607574],[2.303119,41.607738],[2.303131,41.607783],[2.303255,41.608063],[2.303264,41.608098],[2.30349,41.60864],[2.303641,41.609033],[2.30383,41.60959],[2.303868,41.609709],[2.303919,41.609868],[2.303925,41.609885],[2.303928,41.609898],[2.303894,41.610398],[2.303877,41.61044],[2.30373,41.610798],[2.303683,41.610905],[2.303492,41.611341],[2.30337,41.611626],[2.30322,41.611978],[2.303209,41.612012],[2.303173,41.612123],[2.304186,41.612576],[2.306617,41.613906],[2.306665,41.614086],[2.306718,41.614116],[2.307139,41.614354],[2.307452,41.614382],[2.307609,41.614304],[2.307678,41.61427],[2.307678,41.614261],[2.307768,41.614149],[2.307904,41.613965],[2.307907,41.613961],[2.307911,41.613956],[2.307923,41.613939],[2.3078,41.613729],[2.307983,41.613388]]],[[[2.30688,41.614742],[2.306992,41.614634],[2.307004,41.614601],[2.307009,41.614566],[2.307006,41.614531],[2.306996,41.614497],[2.306954,41.614444],[2.306597,41.614244],[2.306423,41.614147],[2.30487,41.613278],[2.304117,41.612866],[2.30374,41.612679],[2.303258,41.61244],[2.303255,41.612438],[2.303217,41.612445],[2.303018,41.612336],[2.302515,41.61348],[2.302591,41.613536],[2.302842,41.613565],[2.303414,41.613581],[2.303491,41.613605],[2.303534,41.613624],[2.303567,41.613644],[2.303594,41.61368],[2.303614,41.613718],[2.303627,41.613758],[2.303632,41.613799],[2.30363,41.613841],[2.30361,41.614166],[2.303602,41.614398],[2.303571,41.614721],[2.304494,41.615094],[2.304898,41.614695],[2.305644,41.615097],[2.305778,41.615161],[2.305885,41.615176],[2.306,41.615183],[2.306067,41.615159],[2.30647,41.614975],[2.306521,41.61495],[2.306673,41.614869],[2.306747,41.614831],[2.306816,41.614789],[2.30688,41.614742]]],[[[2.310876,41.617508],[2.311286,41.617109],[2.311333,41.617054],[2.310973,41.616762],[2.310968,41.616766],[2.310527,41.617178],[2.310441,41.61714],[2.310361,41.617104],[2.309462,41.61661],[2.309416,41.616556],[2.309825,41.616183],[2.309962,41.616027],[2.309967,41.616021],[2.309902,41.615998],[2.309792,41.615938],[2.309487,41.615772],[2.309436,41.615749],[2.309305,41.615692],[2.309071,41.615555],[2.30876,41.615387],[2.308754,41.615384],[2.308704,41.615429],[2.308381,41.615227],[2.308321,41.615226],[2.30828,41.615213],[2.308237,41.615205],[2.308193,41.615202],[2.308149,41.615206],[2.308106,41.615215],[2.308066,41.615229],[2.30803,41.615248],[2.308024,41.615251],[2.307979,41.615276],[2.307939,41.615305],[2.307904,41.615338],[2.307827,41.615494],[2.307812,41.615552],[2.307809,41.615596],[2.307816,41.615649],[2.307827,41.615682],[2.307865,41.615759],[2.307992,41.615924],[2.308009,41.616025],[2.307751,41.616241],[2.307865,41.616412],[2.308129,41.616656],[2.308482,41.616973],[2.308513,41.617001],[2.30854,41.617027],[2.308576,41.61706],[2.308577,41.617065],[2.308584,41.617072],[2.308621,41.617108],[2.308834,41.616814],[2.309089,41.616562],[2.309111,41.61654],[2.309115,41.616536],[2.310199,41.617128],[2.310266,41.617165],[2.310266,41.617166],[2.310876,41.617508]]],[[[2.313171,41.61723],[2.313125,41.617198],[2.313103,41.617217],[2.312839,41.616992],[2.312604,41.616722],[2.312535,41.616664],[2.312525,41.616633],[2.312565,41.616593],[2.312668,41.616495],[2.312702,41.616474],[2.312645,41.616428],[2.312661,41.616409],[2.312642,41.616392],[2.312681,41.616357],[2.31264,41.616326],[2.312672,41.616302],[2.312382,41.616114],[2.312232,41.616121],[2.312093,41.616062],[2.312026,41.616121],[2.311966,41.616176],[2.311889,41.616247],[2.31176,41.616364],[2.311521,41.616508],[2.311463,41.616535],[2.311455,41.61652],[2.311452,41.616503],[2.311451,41.616497],[2.311449,41.616485],[2.311446,41.61646],[2.311437,41.616395],[2.311433,41.616367],[2.311425,41.616325],[2.311413,41.616285],[2.311397,41.616247],[2.31138,41.61621],[2.311357,41.616165],[2.311332,41.616121],[2.311295,41.61606],[2.311258,41.615998],[2.311195,41.615892],[2.311132,41.615786],[2.311084,41.615698],[2.311038,41.615608],[2.311015,41.61556],[2.310997,41.61551],[2.310986,41.615464],[2.310976,41.615418],[2.310962,41.61535],[2.310952,41.615282],[2.310949,41.61524],[2.310946,41.615197],[2.310939,41.61517],[2.310921,41.615129],[2.310903,41.615089],[2.310852,41.615028],[2.310816,41.614996],[2.310789,41.614988],[2.31076,41.61498],[2.310728,41.614969],[2.310676,41.614929],[2.310625,41.61489],[2.310516,41.614801],[2.310413,41.614707],[2.310376,41.614669],[2.310329,41.614613],[2.310321,41.614564],[2.310283,41.614576],[2.310203,41.6146],[2.31019,41.614587],[2.310076,41.614634],[2.310087,41.614645],[2.310057,41.614657],[2.310012,41.614675],[2.30985,41.614755],[2.309681,41.614831],[2.309409,41.614849],[2.309361,41.614822],[2.308741,41.614424],[2.308528,41.614253],[2.30834,41.614131],[2.308327,41.614158],[2.308261,41.614287],[2.308194,41.614417],[2.308154,41.614505],[2.308137,41.614547],[2.30812,41.614588],[2.308118,41.614592],[2.308111,41.614607],[2.308108,41.614619],[2.30814,41.614738],[2.308193,41.614911],[2.309526,41.615623],[2.313387,41.617731],[2.313406,41.617739],[2.313462,41.617682],[2.313491,41.617654],[2.313591,41.617557],[2.313572,41.617529],[2.313152,41.617246],[2.313171,41.61723]]],[[[2.314567,41.620131],[2.314572,41.620119],[2.314603,41.62012],[2.314635,41.620124],[2.314653,41.620128],[2.31467,41.620135],[2.314704,41.62015],[2.314728,41.620157],[2.314744,41.620158],[2.314806,41.620136],[2.314818,41.620123],[2.314831,41.620092],[2.314835,41.620068],[2.31487,41.620089],[2.314697,41.619975],[2.31443,41.619921],[2.314393,41.619902],[2.314349,41.619787],[2.314346,41.619482],[2.314411,41.619368],[2.315012,41.618761],[2.314113,41.618269],[2.313959,41.618184],[2.313874,41.618266],[2.313866,41.618282],[2.313852,41.618301],[2.31379,41.618366],[2.313704,41.618453],[2.313648,41.618511],[2.313549,41.618613],[2.313538,41.618608],[2.313387,41.618741],[2.313057,41.618602],[2.312736,41.618931],[2.312604,41.619099],[2.312314,41.619078],[2.312254,41.619079],[2.312194,41.619088],[2.312115,41.619113],[2.312044,41.619166],[2.311981,41.619235],[2.311929,41.619319],[2.311872,41.619407],[2.311867,41.619415],[2.311912,41.619442],[2.311936,41.61946],[2.312065,41.619554],[2.312086,41.619552],[2.312259,41.619672],[2.312309,41.619701],[2.312359,41.61973],[2.312415,41.619762],[2.312422,41.619766],[2.312513,41.619674],[2.312711,41.619477],[2.313208,41.619012],[2.313369,41.618861],[2.313668,41.619218],[2.313872,41.619461],[2.313962,41.619538],[2.31403,41.619608],[2.314081,41.619736],[2.314113,41.619811],[2.31416,41.61985],[2.314195,41.619866],[2.314231,41.619879],[2.314297,41.61995],[2.314294,41.619992],[2.31433,41.620063],[2.314319,41.620092],[2.314241,41.620134],[2.314215,41.620207],[2.314182,41.620325],[2.314339,41.620343],[2.314531,41.620256],[2.314567,41.620131]]],[[[2.322207,41.624805],[2.321594,41.623877],[2.321515,41.623795],[2.321488,41.623767],[2.321484,41.623763],[2.321264,41.62373],[2.32116,41.62361],[2.321047,41.623463],[2.320703,41.62297],[2.320685,41.622944],[2.320423,41.622581],[2.320414,41.622569],[2.320317,41.622535],[2.320227,41.622496],[2.320074,41.622389],[2.319926,41.622291],[2.319728,41.622104],[2.319574,41.621974],[2.319419,41.621861],[2.319189,41.621734],[2.319018,41.621644],[2.318878,41.621591],[2.318869,41.621584],[2.318794,41.62157],[2.318707,41.621553],[2.318591,41.621532],[2.318473,41.621511],[2.318384,41.621495],[2.318295,41.621478],[2.318281,41.621472],[2.318271,41.621467],[2.318256,41.621458],[2.31824,41.621447],[2.318192,41.621411],[2.318011,41.621275],[2.317847,41.621143],[2.317813,41.621114],[2.317699,41.621015],[2.317648,41.621003],[2.316838,41.621646],[2.316843,41.621657],[2.316999,41.621848],[2.317409,41.622208],[2.317622,41.622491],[2.317702,41.622521],[2.317809,41.622551],[2.317861,41.622548],[2.317962,41.622547],[2.317984,41.62255],[2.318006,41.62255],[2.318025,41.622546],[2.318058,41.622558],[2.318094,41.62257],[2.318118,41.622578],[2.318143,41.622585],[2.318153,41.622588],[2.31825,41.622621],[2.31832,41.622674],[2.318509,41.622755],[2.318604,41.6228],[2.31862,41.622851],[2.318663,41.622893],[2.318718,41.622926],[2.319022,41.623115],[2.319349,41.62332],[2.319586,41.62347],[2.319759,41.623569],[2.319906,41.62348],[2.319984,41.623439],[2.320128,41.623342],[2.320597,41.623634],[2.320186,41.623892],[2.319658,41.624231],[2.319398,41.624399],[2.319694,41.624766],[2.319752,41.624808],[2.320012,41.624636],[2.320423,41.624774],[2.320636,41.624585],[2.320868,41.624779],[2.321101,41.624624],[2.321568,41.624858],[2.322004,41.625174],[2.322044,41.625239],[2.322132,41.625378],[2.321899,41.625513],[2.321781,41.625581],[2.321804,41.625621],[2.321821,41.625652],[2.321867,41.625731],[2.321909,41.625781],[2.321952,41.62583],[2.322057,41.625956],[2.322161,41.626083],[2.322171,41.626097],[2.322179,41.626112],[2.32218,41.626123],[2.322173,41.626134],[2.322153,41.626145],[2.322132,41.626155],[2.322122,41.626161],[2.322113,41.626168],[2.322108,41.626175],[2.322107,41.626183],[2.322109,41.626198],[2.322114,41.626213],[2.322121,41.626227],[2.322191,41.626321],[2.322262,41.626411],[2.323051,41.626058],[2.323064,41.625943],[2.322769,41.625435],[2.32273,41.625368],[2.322693,41.625257],[2.32266,41.625158],[2.32263,41.625111],[2.322593,41.625068],[2.32259,41.625065],[2.322544,41.625028],[2.322494,41.624996],[2.322439,41.624968],[2.3224,41.624952],[2.322341,41.624919],[2.322287,41.624882],[2.32227,41.624868],[2.322236,41.62483],[2.322207,41.624805]]],[[[2.325035,41.632737],[2.325355,41.632693],[2.325548,41.632696],[2.325682,41.632698],[2.325729,41.632698],[2.325903,41.632694],[2.326069,41.632688],[2.326206,41.63268],[2.326369,41.632668],[2.326399,41.632667],[2.326621,41.632498],[2.326552,41.632336],[2.325863,41.630762],[2.32581,41.630641],[2.325745,41.630494],[2.3253,41.629477],[2.324775,41.62941],[2.324556,41.629395],[2.324512,41.629427],[2.324557,41.629599],[2.32511,41.630519],[2.324197,41.630399],[2.324073,41.630382],[2.323939,41.630396],[2.323872,41.630431],[2.323714,41.630945],[2.323752,41.631009],[2.323827,41.631067],[2.323951,41.631075],[2.324069,41.631072],[2.324209,41.631069],[2.324339,41.631067],[2.324441,41.631066],[2.324533,41.631064],[2.324658,41.631555],[2.324743,41.63196],[2.324754,41.632002],[2.324943,41.632744],[2.325035,41.632737]]]]}},{"type":"Feature","id":"080863_080863 SI03 VOR 2","properties":{"area_id":"080863_080863 SI03 VOR 2","nom":"Polígon industrial Núm. 10","codi_icgc":"080863 SI03 VOR 2","categoria":"Sector industrial","codi_municipi":"080863","municipi":"les Franqueses del Vallès","codi_comarca":"41","comarca":"Vallès Oriental","provincia":"Barcelona","font":"ICGC Àrees de poblament v3r1 202602"},"geometry":{"type":"MultiPolygon","coordinates":[[[[2.309026,41.620123],[2.308572,41.61982],[2.307743,41.620687],[2.308198,41.620926],[2.309026,41.620123]]],[[[2.306649,41.620711],[2.306677,41.620688],[2.306706,41.620662],[2.306718,41.620647],[2.306725,41.620631],[2.306727,41.620606],[2.306725,41.62058],[2.306717,41.620561],[2.306716,41.620557],[2.306705,41.620539],[2.306685,41.62051],[2.306651,41.620469],[2.306615,41.620424],[2.306541,41.620336],[2.306448,41.620212],[2.306442,41.620204],[2.306343,41.620071],[2.306197,41.619876],[2.306049,41.619681],[2.305988,41.619606],[2.305925,41.619532],[2.305892,41.619492],[2.30589,41.619489],[2.305853,41.619446],[2.30583,41.619423],[2.305801,41.619403],[2.305739,41.619373],[2.305687,41.619355],[2.305633,41.619342],[2.305575,41.619333],[2.305517,41.619328],[2.305453,41.619329],[2.305434,41.619329],[2.305375,41.619333],[2.305047,41.619369],[2.305114,41.619303],[2.30513,41.619282],[2.305124,41.619261],[2.305105,41.619226],[2.305095,41.619207],[2.305087,41.619191],[2.305067,41.619147],[2.305059,41.61913],[2.305046,41.619082],[2.305067,41.61902],[2.305078,41.619],[2.305099,41.618961],[2.305116,41.618927],[2.305133,41.618892],[2.305138,41.618872],[2.305131,41.618763],[2.305127,41.618696],[2.305125,41.618696],[2.304628,41.618659],[2.304506,41.618686],[2.304503,41.618686],[2.304123,41.618705],[2.304092,41.618864],[2.304023,41.618858],[2.304033,41.61868],[2.304033,41.618631],[2.304171,41.618115],[2.304053,41.618082],[2.30354,41.617956],[2.303138,41.617847],[2.302967,41.618134],[2.302806,41.618413],[2.30294,41.618437],[2.303098,41.618466],[2.303027,41.618716],[2.302971,41.618746],[2.302946,41.61885],[2.302989,41.618945],[2.303031,41.619014],[2.303038,41.619169],[2.303072,41.619282],[2.303061,41.619341],[2.303052,41.619356],[2.303036,41.619416],[2.30304,41.619447],[2.303062,41.619488],[2.303099,41.619549],[2.30312,41.619582],[2.303147,41.619626],[2.30316,41.619656],[2.303154,41.619689],[2.303134,41.619716],[2.303255,41.619768],[2.30331,41.619773],[2.303348,41.619775],[2.303411,41.619759],[2.303469,41.619732],[2.303531,41.619711],[2.303595,41.619694],[2.303638,41.619686],[2.30372,41.619665],[2.303803,41.619647],[2.303827,41.619642],[2.303827,41.619642],[2.303918,41.619625],[2.303971,41.619615],[2.304414,41.619523],[2.304944,41.619426],[2.305156,41.619403],[2.30516,41.619423],[2.30516,41.619424],[2.305169,41.619469],[2.305185,41.619549],[2.305147,41.619571],[2.305193,41.619732],[2.305261,41.619804],[2.305321,41.619925],[2.30539,41.620063],[2.305481,41.620259],[2.305532,41.620426],[2.305714,41.620701],[2.305831,41.620692],[2.305892,41.62098],[2.30591,41.621063],[2.305915,41.621086],[2.305942,41.621084],[2.306003,41.62108],[2.306053,41.621078],[2.306126,41.621065],[2.306155,41.62106],[2.306258,41.621035],[2.306337,41.62099],[2.306343,41.620978],[2.306352,41.620964],[2.306368,41.620946],[2.306421,41.6209],[2.306476,41.620854],[2.306563,41.620783],[2.306649,41.620711]]],[[[2.312105,41.620828],[2.31168,41.620763],[2.311496,41.620762],[2.311357,41.620666],[2.311357,41.620573],[2.311592,41.620371],[2.311702,41.620217],[2.310668,41.619818],[2.310022,41.620536],[2.31001,41.62055],[2.310835,41.621035],[2.310912,41.621055],[2.31111,41.620939],[2.311315,41.620795],[2.311233,41.621338],[2.311145,41.621873],[2.311944,41.621978],[2.312337,41.622062],[2.312552,41.62213],[2.312757,41.62194],[2.312887,41.621674],[2.313048,41.621485],[2.31314,41.621425],[2.313217,41.621387],[2.313307,41.621297],[2.313326,41.62124],[2.313308,41.621159],[2.313207,41.621111],[2.313112,41.621072],[2.312878,41.620971],[2.31265,41.620912],[2.31246,41.620863],[2.312105,41.620828]]]]}},{"type":"Feature","id":"080863_080863 SI01 VOR 3","properties":{"area_id":"080863_080863 SI01 VOR 3","nom":"Polígon industrial Pla de Llerona","codi_icgc":"080863 SI01 VOR 3","categoria":"Sector industrial","codi_municipi":"080863","municipi":"les Franqueses del Vallès","codi_comarca":"41","comarca":"Vallès Oriental","provincia":"Barcelona","font":"ICGC Àrees de poblament v3r1 202602"},"geometry":{"type":"MultiPolygon","coordinates":[[[[2.289005,41.645779],[2.289001,41.645586],[2.289006,41.645438],[2.289011,41.645371],[2.289418,41.64537],[2.291867,41.645457],[2.292075,41.645458],[2.292081,41.645458],[2.29225,41.645446],[2.292193,41.644282],[2.292077,41.642697],[2.292024,41.642278],[2.291963,41.642044],[2.291616,41.64126],[2.291268,41.640509],[2.290705,41.639361],[2.2905,41.63894],[2.290183,41.638314],[2.289817,41.637503],[2.289537,41.636939],[2.289202,41.636246],[2.288885,41.635594],[2.288724,41.635197],[2.288598,41.634867],[2.288539,41.63471],[2.288205,41.633561],[2.288187,41.633495],[2.288127,41.633161],[2.288098,41.632911],[2.288088,41.632819],[2.288071,41.632819],[2.287886,41.632829],[2.287798,41.632833],[2.286347,41.632906],[2.280435,41.634541],[2.279959,41.634672],[2.279945,41.634676],[2.279863,41.634868],[2.279831,41.634942],[2.279829,41.634948],[2.279769,41.635115],[2.279744,41.63519],[2.279727,41.63524],[2.279707,41.635313],[2.279703,41.635325],[2.2797,41.635337],[2.279692,41.635367],[2.279672,41.635453],[2.279653,41.635568],[2.27964,41.635668],[2.279627,41.635768],[2.27962,41.635835],[2.279608,41.635926],[2.279574,41.636237],[2.27955,41.636477],[2.279543,41.636548],[2.279508,41.636907],[2.279473,41.637266],[2.279431,41.637696],[2.279389,41.638125],[2.279359,41.638434],[2.279328,41.638742],[2.279312,41.638906],[2.279308,41.638947],[2.279269,41.639333],[2.27923,41.639718],[2.279187,41.640132],[2.279143,41.640545],[2.279132,41.640684],[2.279124,41.640823],[2.279105,41.6411],[2.279091,41.641254],[2.279081,41.6413],[2.279026,41.641762],[2.27894,41.64249],[2.278907,41.642767],[2.280301,41.642875],[2.28062,41.642909],[2.281682,41.642993],[2.281969,41.643018],[2.282552,41.643022],[2.282664,41.64201],[2.282666,41.641987],[2.282799,41.641994],[2.28318,41.642017],[2.28457,41.642103],[2.285354,41.642147],[2.28562,41.642182],[2.28587,41.642247],[2.28593,41.642262],[2.286086,41.642324],[2.286098,41.642327],[2.286247,41.642364],[2.286579,41.642371],[2.286594,41.642371],[2.286604,41.642383],[2.286638,41.642427],[2.286659,41.642497],[2.286667,41.642527],[2.286667,41.642655],[2.286671,41.64349],[2.28667,41.643499],[2.286669,41.643539],[2.286668,41.643654],[2.286666,41.6439],[2.286665,41.643904],[2.286629,41.643937],[2.28617,41.643934],[2.28566,41.643931],[2.285659,41.643969],[2.28565,41.644852],[2.28559,41.64485],[2.28508,41.644832],[2.284732,41.644819],[2.284733,41.644852],[2.284742,41.645263],[2.284921,41.645775],[2.284927,41.645774],[2.285388,41.645733],[2.285483,41.645736],[2.285637,41.645739],[2.285714,41.645741],[2.287009,41.645766],[2.287673,41.645774],[2.287696,41.645775],[2.287757,41.645775],[2.287766,41.645802],[2.287901,41.64591],[2.287907,41.645972],[2.28812,41.645974],[2.288349,41.645923],[2.288337,41.645889],[2.288537,41.64585],[2.288951,41.645788],[2.289005,41.645779]]]]}},{"type":"Feature","id":"080863_080863 SI02 VOR 3","properties":{"area_id":"080863_080863 SI02 VOR 3","nom":"Polígon industrial del Congost","codi_icgc":"080863 SI02 VOR 3","categoria":"Sector industrial","codi_municipi":"080863","municipi":"les Franqueses del Vallès","codi_comarca":"41","comarca":"Vallès Oriental","provincia":"Barcelona","font":"ICGC Àrees de poblament v3r1 202602"},"geometry":{"type":"MultiPolygon","coordinates":[[[[2.293385,41.632269],[2.293563,41.632269],[2.294452,41.632285],[2.294497,41.632283],[2.294549,41.632272],[2.294593,41.632252],[2.294627,41.632223],[2.294651,41.632187],[2.29466,41.632164],[2.294663,41.632143],[2.294663,41.632109],[2.294662,41.632078],[2.29466,41.631892],[2.294659,41.631841],[2.294662,41.631819],[2.294673,41.631797],[2.294691,41.631778],[2.294714,41.631763],[2.294742,41.631753],[2.294769,41.631749],[2.294916,41.631748],[2.294921,41.631671],[2.294861,41.631499],[2.294821,41.631377],[2.294789,41.631258],[2.294795,41.630916],[2.294792,41.630562],[2.294721,41.629896],[2.294673,41.629522],[2.294608,41.62932],[2.294649,41.629266],[2.294681,41.629208],[2.294615,41.628882],[2.294472,41.628457],[2.294285,41.627898],[2.294149,41.627577],[2.293883,41.62707],[2.293647,41.626726],[2.293583,41.626629],[2.293545,41.626572],[2.293465,41.626449],[2.293197,41.626091],[2.293192,41.626085],[2.292951,41.625811],[2.292234,41.62514],[2.291943,41.624897],[2.291919,41.624892],[2.291739,41.624757],[2.291686,41.624717],[2.291452,41.624543],[2.291308,41.624438],[2.291162,41.624335],[2.290984,41.624215],[2.290863,41.624134],[2.290739,41.624056],[2.29061,41.623983],[2.290522,41.623937],[2.2904,41.623879],[2.290247,41.623811],[2.290225,41.6238],[2.290132,41.623752],[2.29012,41.623755],[2.290057,41.62377],[2.289805,41.623794],[2.289,41.623869],[2.288037,41.623963],[2.287947,41.623976],[2.287833,41.623994],[2.287823,41.623995],[2.287953,41.624698],[2.288389,41.626577],[2.288521,41.627287],[2.28871,41.628381],[2.288818,41.629119],[2.288905,41.629713],[2.289131,41.63094],[2.289305,41.632057],[2.289517,41.633221],[2.289685,41.634105],[2.289677,41.634169],[2.289731,41.634187],[2.28984,41.63417],[2.289894,41.63417],[2.289937,41.634449],[2.289935,41.634612],[2.29,41.634653],[2.290912,41.634583],[2.292346,41.634476],[2.292471,41.634462],[2.292501,41.634459],[2.292437,41.63393],[2.29233,41.632739],[2.292854,41.632728],[2.292864,41.632664],[2.293035,41.632661],[2.293174,41.632648],[2.293326,41.63262],[2.293379,41.632585],[2.293408,41.63256],[2.293409,41.632456],[2.293385,41.632269]]]]}},{"type":"Feature","id":"080863_080863 AP11 VOR 2","properties":{"area_id":"080863_080863 AP11 VOR 2","nom":"Veïnat del Cabirol","codi_icgc":"080863 AP11 VOR 2","categoria":"Àrees de poblament","codi_municipi":"080863","municipi":"les Franqueses del Vallès","codi_comarca":"41","comarca":"Vallès Oriental","provincia":"Barcelona","font":"ICGC Àrees de poblament v3r1 202602"},"geometry":{"type":"MultiPolygon","coordinates":[[[[2.290065,41.658801],[2.29022,41.658634],[2.29016,41.658462],[2.28973,41.65852],[2.289716,41.658466],[2.28943,41.658489],[2.28913,41.658452],[2.289142,41.658709],[2.288818,41.658682],[2.288785,41.659018],[2.289257,41.659071],[2.289581,41.659073],[2.289576,41.65893],[2.290065,41.658801]]]]}},{"type":"Feature","id":"080863_080863 AP02 VOR 2","properties":{"area_id":"080863_080863 AP02 VOR 2","nom":"el Foguerar","codi_icgc":"080863 AP02 VOR 2","categoria":"Àrees de poblament","codi_municipi":"080863","municipi":"les Franqueses del Vallès","codi_comarca":"41","comarca":"Vallès Oriental","provincia":"Barcelona","font":"ICGC Àrees de poblament v3r1 202602"},"geometry":{"type":"MultiPolygon","coordinates":[[[[2.327896,41.639715],[2.327925,41.639763],[2.327927,41.639822],[2.327986,41.639882],[2.328029,41.6399],[2.328188,41.639931],[2.328218,41.63994],[2.32842,41.640045],[2.32844,41.640087],[2.328383,41.640206],[2.328232,41.640223],[2.327978,41.640275],[2.327475,41.640517],[2.327501,41.640575],[2.327659,41.640782],[2.328069,41.640663],[2.328299,41.640664],[2.328363,41.640647],[2.328587,41.64047],[2.328738,41.640435],[2.328818,41.640382],[2.328867,41.640245],[2.329097,41.640365],[2.32935,41.640426],[2.329919,41.640662],[2.330125,41.640759],[2.330517,41.640493],[2.330581,41.640487],[2.330816,41.640792],[2.330917,41.640954],[2.330932,41.641009],[2.331163,41.640967],[2.331974,41.640877],[2.332626,41.640797],[2.332698,41.640803],[2.332761,41.640863],[2.3329,41.641192],[2.332892,41.641233],[2.332756,41.64128],[2.332653,41.641315],[2.332414,41.64138],[2.33235,41.641427],[2.33223,41.641539],[2.332116,41.641729],[2.332116,41.641777],[2.332313,41.641933],[2.332416,41.641952],[2.332695,41.641852],[2.33283,41.641805],[2.332943,41.641793],[2.333022,41.64174],[2.333055,41.641592],[2.333096,41.641479],[2.33312,41.641413],[2.332885,41.640923],[2.332778,41.640702],[2.332142,41.640788],[2.331816,41.640798],[2.331809,41.64078],[2.331849,41.640733],[2.331921,41.640697],[2.332048,41.640627],[2.332313,41.640414],[2.332386,41.640194],[2.332515,41.640093],[2.333502,41.639922],[2.333504,41.639801],[2.333538,41.639563],[2.333603,41.639397],[2.333603,41.639373],[2.333378,41.63934],[2.333046,41.639405],[2.33295,41.639461],[2.332949,41.639571],[2.332964,41.639679],[2.333018,41.63984],[2.332937,41.639873],[2.33288,41.639896],[2.332691,41.639963],[2.332316,41.640062],[2.331807,41.640173],[2.331581,41.639958],[2.331244,41.640098],[2.331069,41.640115],[2.330966,41.640072],[2.330933,41.64],[2.330841,41.639899],[2.330746,41.639838],[2.330596,41.639742],[2.330546,41.639747],[2.330505,41.639751],[2.329729,41.639928],[2.32933,41.640063],[2.329226,41.64011],[2.329203,41.640062],[2.329404,41.639491],[2.329276,41.63945],[2.328842,41.639649],[2.328523,41.639772],[2.328341,41.639829],[2.328316,41.639836],[2.328213,41.6398],[2.32796,41.63965],[2.327828,41.639375],[2.328021,41.63915],[2.3281,41.639239],[2.328194,41.639311],[2.32836,41.63939],[2.328543,41.639385],[2.328654,41.639397],[2.328806,41.639327],[2.329044,41.639269],[2.329086,41.639108],[2.329111,41.638965],[2.329009,41.638893],[2.328912,41.638982],[2.328745,41.639023],[2.328554,41.639045],[2.328316,41.639062],[2.328039,41.638923],[2.327902,41.639137],[2.327517,41.639522],[2.327738,41.639613],[2.327896,41.639715]]]]}},{"type":"Feature","id":"080863_080863 AP05 VOR 3","properties":{"area_id":"080863_080863 AP05 VOR 3","nom":"els Gorgs","codi_icgc":"080863 AP05 VOR 3","categoria":"Àrees de poblament","codi_municipi":"080863","municipi":"les Franqueses del Vallès","codi_comarca":"41","comarca":"Vallès Oriental","provincia":"Barcelona","font":"ICGC Àrees de poblament v3r1 202602"},"geometry":{"type":"MultiPolygon","coordinates":[[[[2.300326,41.666201],[2.30033,41.666188],[2.300377,41.666183],[2.300431,41.666174],[2.300493,41.666156],[2.300553,41.666134],[2.300595,41.666122],[2.300704,41.666097],[2.300815,41.666076],[2.300843,41.666072],[2.300874,41.666068],[2.300933,41.666064],[2.300988,41.666063],[2.301042,41.666067],[2.301077,41.666075],[2.301162,41.666099],[2.301247,41.666123],[2.301345,41.666083],[2.301458,41.665854],[2.301558,41.665652],[2.301604,41.665559],[2.301623,41.665567],[2.30166,41.665582],[2.302903,41.666103],[2.30298,41.666094],[2.303143,41.665882],[2.302957,41.66579],[2.302988,41.665756],[2.302985,41.665727],[2.302984,41.665719],[2.30279,41.665586],[2.302781,41.665582],[2.302544,41.665452],[2.302364,41.665367],[2.302356,41.665363],[2.302306,41.665337],[2.302264,41.665315],[2.302222,41.665292],[2.302192,41.665254],[2.302625,41.665126],[2.302969,41.665052],[2.30311,41.664929],[2.302966,41.664813],[2.303009,41.664802],[2.303049,41.664786],[2.303086,41.664766],[2.303109,41.664748],[2.303145,41.664704],[2.303173,41.664659],[2.30318,41.664645],[2.303185,41.664636],[2.303171,41.664632],[2.303196,41.664586],[2.303228,41.664529],[2.303257,41.664497],[2.303293,41.664471],[2.303321,41.664456],[2.30336,41.664439],[2.303385,41.66443],[2.303404,41.664423],[2.303427,41.664418],[2.303465,41.664412],[2.303487,41.664409],[2.303493,41.664408],[2.303524,41.664402],[2.303549,41.664397],[2.303584,41.664387],[2.303617,41.664372],[2.303651,41.664351],[2.303667,41.664336],[2.303677,41.66432],[2.303687,41.664289],[2.303696,41.66426],[2.303709,41.664224],[2.303723,41.664186],[2.303733,41.664167],[2.303742,41.664153],[2.303769,41.664096],[2.303769,41.664095],[2.303783,41.664046],[2.303862,41.663835],[2.303949,41.663613],[2.304412,41.663688],[2.304519,41.663474],[2.30434,41.66333],[2.304141,41.663215],[2.304089,41.663243],[2.304059,41.663259],[2.304028,41.663254],[2.304015,41.663252],[2.303852,41.663226],[2.303664,41.663197],[2.303347,41.663129],[2.30334,41.663127],[2.303015,41.663048],[2.302952,41.663032],[2.30273,41.662979],[2.302711,41.662975],[2.302548,41.662936],[2.30244,41.662856],[2.302302,41.662713],[2.302293,41.662704],[2.302106,41.662523],[2.302088,41.662507],[2.301987,41.662421],[2.301864,41.662341],[2.301801,41.662311],[2.301528,41.662207],[2.30145,41.662177],[2.301416,41.66217],[2.301392,41.662163],[2.30136,41.662152],[2.301223,41.662104],[2.301168,41.662086],[2.301141,41.662076],[2.300881,41.662229],[2.300867,41.662237],[2.300712,41.662331],[2.300321,41.662572],[2.300269,41.662605],[2.30011,41.662704],[2.300022,41.66276],[2.300018,41.662763],[2.299797,41.662892],[2.299793,41.662894],[2.299614,41.66307],[2.2996,41.663061],[2.299482,41.66299],[2.299465,41.66298],[2.299344,41.662892],[2.299239,41.662811],[2.29912,41.662713],[2.299071,41.662683],[2.29889,41.662589],[2.298836,41.662558],[2.298791,41.662532],[2.298729,41.662506],[2.298719,41.662502],[2.298506,41.662385],[2.298419,41.662307],[2.298414,41.662301],[2.298369,41.662218],[2.298346,41.662115],[2.298341,41.661991],[2.298328,41.661904],[2.298303,41.661859],[2.298298,41.66185],[2.298248,41.661806],[2.298184,41.661786],[2.298157,41.661785],[2.2981,41.661782],[2.298098,41.661782],[2.297926,41.661775],[2.297904,41.661793],[2.297847,41.661844],[2.297794,41.661895],[2.297752,41.661939],[2.29771,41.661983],[2.297683,41.662012],[2.297628,41.662074],[2.297573,41.662135],[2.297524,41.662188],[2.297504,41.662208],[2.297507,41.662219],[2.297499,41.662214],[2.297474,41.66224],[2.297467,41.662235],[2.29738,41.662175],[2.297294,41.662116],[2.297178,41.662029],[2.297091,41.661967],[2.296959,41.661878],[2.296831,41.661789],[2.296774,41.661744],[2.296693,41.661672],[2.296648,41.661627],[2.296529,41.661545],[2.296468,41.661584],[2.295888,41.661959],[2.295808,41.66201],[2.295013,41.661334],[2.294913,41.66134],[2.294795,41.66143],[2.294794,41.66143],[2.294718,41.661474],[2.294646,41.66152],[2.294575,41.661567],[2.294531,41.661598],[2.29447,41.661646],[2.29444,41.661674],[2.294411,41.661704],[2.2944,41.661721],[2.294397,41.661734],[2.294299,41.661808],[2.294359,41.661814],[2.294467,41.661825],[2.294684,41.661854],[2.294828,41.661877],[2.294856,41.661883],[2.294882,41.661894],[2.294886,41.661899],[2.294888,41.661905],[2.294884,41.661917],[2.294843,41.661951],[2.294803,41.661986],[2.294757,41.662029],[2.29471,41.662072],[2.295313,41.662426],[2.295631,41.662672],[2.295767,41.662777],[2.295796,41.663018],[2.2957,41.663023],[2.295699,41.663142],[2.295162,41.663112],[2.295117,41.663113],[2.294978,41.663479],[2.294977,41.663481],[2.295432,41.663452],[2.295492,41.663448],[2.295801,41.663428],[2.295876,41.663423],[2.295884,41.663487],[2.295932,41.663528],[2.295949,41.663542],[2.296045,41.663557],[2.296051,41.663557],[2.296083,41.663655],[2.296111,41.663678],[2.296091,41.663679],[2.296178,41.663939],[2.296189,41.663974],[2.296194,41.663973],[2.296342,41.66428],[2.296986,41.664035],[2.297113,41.663986],[2.297227,41.664141],[2.297341,41.664249],[2.297378,41.664284],[2.297445,41.664299],[2.29758,41.664171],[2.297798,41.664027],[2.297855,41.66399],[2.29787,41.664008],[2.298136,41.663824],[2.298223,41.663871],[2.298866,41.664222],[2.299131,41.664381],[2.298911,41.664659],[2.29883,41.664762],[2.29877,41.664832],[2.29849,41.66511],[2.298483,41.665107],[2.29833,41.665022],[2.298227,41.664957],[2.298125,41.664885],[2.297818,41.664672],[2.297816,41.664674],[2.297738,41.664762],[2.29728,41.665278],[2.297595,41.665425],[2.297701,41.665474],[2.297699,41.665477],[2.297773,41.665507],[2.297871,41.665548],[2.298358,41.66575],[2.298389,41.665774],[2.298419,41.665797],[2.298429,41.6658],[2.298447,41.665804],[2.298443,41.66581],[2.298522,41.665871],[2.298752,41.665918],[2.298818,41.665925],[2.298885,41.665932],[2.29891,41.665933],[2.298936,41.665931],[2.298987,41.665929],[2.299047,41.66593],[2.299106,41.665935],[2.299146,41.665943],[2.299219,41.665965],[2.29929,41.665987],[2.299431,41.666032],[2.299456,41.666039],[2.299532,41.666061],[2.299633,41.66609],[2.299701,41.66611],[2.299798,41.66614],[2.299895,41.66617],[2.299948,41.666183],[2.299979,41.666189],[2.300002,41.666193],[2.300055,41.666198],[2.300108,41.666199],[2.300214,41.666196],[2.300242,41.666194],[2.30026,41.666193],[2.300271,41.666193],[2.300326,41.666201]]]]}},{"type":"Feature","id":"080863_080863 AP13 VOR 2","properties":{"area_id":"080863_080863 AP13 VOR 2","nom":"la Riera","codi_icgc":"080863 AP13 VOR 2","categoria":"Àrees de poblament","codi_municipi":"080863","municipi":"les Franqueses del Vallès","codi_comarca":"41","comarca":"Vallès Oriental","provincia":"Barcelona","font":"ICGC Àrees de poblament v3r1 202602"},"geometry":{"type":"MultiPolygon","coordinates":[[[[2.334689,41.682757],[2.334624,41.68277],[2.334582,41.682651],[2.334652,41.682334],[2.334195,41.682281],[2.333856,41.682265],[2.333683,41.682287],[2.333469,41.682327],[2.333078,41.682389],[2.3329,41.682499],[2.332403,41.682592],[2.332279,41.682631],[2.332069,41.682655],[2.332078,41.682705],[2.332115,41.682844],[2.332148,41.682862],[2.332313,41.682992],[2.332427,41.683114],[2.332642,41.683062],[2.332982,41.682932],[2.333178,41.682879],[2.333464,41.682866],[2.333745,41.682936],[2.333901,41.683041],[2.334076,41.683204],[2.334174,41.683373],[2.334177,41.683544],[2.333999,41.683694],[2.333769,41.683792],[2.333677,41.68392],[2.333638,41.684063],[2.333531,41.68427],[2.333478,41.684398],[2.333381,41.684519],[2.333366,41.684591],[2.333299,41.684644],[2.333193,41.684701],[2.333073,41.684753],[2.332988,41.684757],[2.332945,41.684706],[2.332783,41.68472],[2.332697,41.684758],[2.332587,41.684772],[2.332349,41.684728],[2.332044,41.684658],[2.331745,41.684599],[2.33165,41.684563],[2.331679,41.684495],[2.33178,41.684367],[2.33193,41.684168],[2.331901,41.68413],[2.33172,41.684109],[2.331638,41.684112],[2.331552,41.684149],[2.331317,41.68412],[2.330537,41.684054],[2.330422,41.683975],[2.330166,41.683856],[2.330022,41.683916],[2.330149,41.684066],[2.330356,41.684354],[2.330359,41.684522],[2.330323,41.684722],[2.330192,41.68501],[2.330466,41.685201],[2.33087,41.68539],[2.331184,41.685593],[2.332085,41.685732],[2.332785,41.685679],[2.333398,41.685416],[2.333849,41.684846],[2.333941,41.684561],[2.334464,41.684193],[2.334462,41.684182],[2.334681,41.684055],[2.33491,41.684042],[2.335227,41.684072],[2.335474,41.684202],[2.335626,41.68428],[2.335854,41.6843],[2.336064,41.684315],[2.336128,41.684316],[2.336127,41.684416],[2.336199,41.684631],[2.336946,41.684502],[2.337271,41.684456],[2.337614,41.684415],[2.337616,41.684234],[2.337567,41.684114],[2.337502,41.683982],[2.336498,41.684132],[2.336295,41.684117],[2.336207,41.684049],[2.336169,41.684006],[2.336218,41.683831],[2.3363,41.683673],[2.336192,41.683611],[2.335944,41.68359],[2.335798,41.683599],[2.33566,41.683646],[2.335416,41.683683],[2.335212,41.683667],[2.335023,41.683556],[2.334955,41.683375],[2.334883,41.683168],[2.334764,41.682945],[2.33478,41.682742],[2.334689,41.682757]]]]}}]}