{"type":"FeatureCollection","name":"ICGC Àrees de poblament - Font-rubí","features":[{"type":"Feature","id":"080850_080850 AP15 APE 3","properties":{"area_id":"080850_080850 AP15 APE 3","nom":"Cal Semisó","codi_icgc":"080850 AP15 APE 3","categoria":"Àrees de poblament","codi_municipi":"080850","municipi":"Font-rubí","codi_comarca":"03","comarca":"Alt Penedès","provincia":"Barcelona","font":"ICGC Àrees de poblament v3r1 202602"},"geometry":{"type":"MultiPolygon","coordinates":[[[[1.657794,41.404233],[1.657852,41.404227],[1.658089,41.404342],[1.658138,41.404429],[1.65793,41.404703],[1.658604,41.404941],[1.658755,41.404753],[1.658913,41.404534],[1.658944,41.40449],[1.659163,41.404186],[1.658488,41.403892],[1.657913,41.404171],[1.657853,41.404149],[1.657821,41.404137],[1.657565,41.404042],[1.657522,41.404026],[1.657284,41.403937],[1.657033,41.404023],[1.657013,41.40403],[1.65701,41.404031],[1.656582,41.404203],[1.656119,41.404436],[1.655579,41.404537],[1.655546,41.404592],[1.65554,41.404603],[1.655349,41.404928],[1.655432,41.40496],[1.655459,41.404971],[1.655851,41.405124],[1.65638,41.404998],[1.656431,41.404986],[1.656451,41.404958],[1.65649,41.404913],[1.656534,41.40487],[1.656562,41.404846],[1.656592,41.404824],[1.656624,41.404804],[1.656659,41.404791],[1.656714,41.40478],[1.65677,41.404767],[1.656822,41.404756],[1.656874,41.404743],[1.656941,41.404719],[1.656999,41.404684],[1.657055,41.404637],[1.65711,41.404591],[1.657183,41.404533],[1.657255,41.404475],[1.657328,41.404429],[1.657407,41.404389],[1.657521,41.404336],[1.657636,41.404286],[1.657714,41.404257],[1.657794,41.404233]]]]}},{"type":"Feature","id":"080850_080850 AP12 APE 2","properties":{"area_id":"080850_080850 AP12 APE 2","nom":"Can Castellví","codi_icgc":"080850 AP12 APE 2","categoria":"Àrees de poblament","codi_municipi":"080850","municipi":"Font-rubí","codi_comarca":"03","comarca":"Alt Penedès","provincia":"Barcelona","font":"ICGC Àrees de poblament v3r1 202602"},"geometry":{"type":"MultiPolygon","coordinates":[[[[1.622529,41.445736],[1.622568,41.445726],[1.622678,41.445692],[1.622786,41.445657],[1.622857,41.445631],[1.622907,41.445609],[1.622953,41.445582],[1.622981,41.445561],[1.623019,41.445526],[1.623048,41.445487],[1.623099,41.445401],[1.623115,41.445368],[1.623142,41.445313],[1.623192,41.445194],[1.623241,41.445076],[1.623274,41.444997],[1.623305,41.444917],[1.62332,41.444863],[1.623326,41.444809],[1.623331,41.4447],[1.623331,41.44463],[1.623333,41.444561],[1.623341,41.444531],[1.623357,41.444501],[1.623398,41.444446],[1.623445,41.444395],[1.623481,41.444361],[1.623499,41.444346],[1.623519,41.444333],[1.623523,41.444332],[1.623485,41.444243],[1.623533,41.444178],[1.623513,41.444142],[1.623505,41.444116],[1.623501,41.44408],[1.623503,41.444044],[1.623509,41.444021],[1.623533,41.443952],[1.623557,41.443883],[1.623591,41.4438],[1.623607,41.443734],[1.62362,41.443679],[1.623604,41.443668],[1.623568,41.443622],[1.623561,41.443614],[1.62356,41.443612],[1.623536,41.44358],[1.623517,41.443555],[1.623489,41.443508],[1.623461,41.44346],[1.62344,41.443386],[1.623422,41.443312],[1.623398,41.443201],[1.623374,41.443089],[1.623347,41.442987],[1.623318,41.442885],[1.623294,41.442811],[1.623269,41.442737],[1.623267,41.442708],[1.623275,41.442679],[1.623301,41.442629],[1.623331,41.44258],[1.623365,41.442523],[1.623386,41.442495],[1.623413,41.442472],[1.62347,41.442433],[1.623527,41.442394],[1.623592,41.442351],[1.623655,41.442306],[1.62372,41.442241],[1.623783,41.442175],[1.623888,41.442065],[1.623942,41.442011],[1.624002,41.44196],[1.624063,41.44191],[1.624161,41.441846],[1.624254,41.441884],[1.624334,41.441905],[1.62434,41.441918],[1.62457,41.441986],[1.624624,41.441969],[1.624691,41.441898],[1.624762,41.441827],[1.624825,41.44176],[1.624856,41.441729],[1.624873,41.441712],[1.624887,41.441699],[1.624936,41.441658],[1.625016,41.441603],[1.625097,41.441548],[1.62516,41.441501],[1.625214,41.441461],[1.625222,41.441455],[1.625297,41.441406],[1.62538,41.441364],[1.625389,41.441361],[1.625429,41.441345],[1.625481,41.441329],[1.625553,41.44131],[1.625621,41.441296],[1.625651,41.441296],[1.62571,41.441289],[1.625737,41.441281],[1.62581,41.441272],[1.62592,41.441261],[1.625923,41.441261],[1.626005,41.441251],[1.626087,41.44124],[1.626128,41.441232],[1.626154,41.441227],[1.626218,41.441207],[1.626324,41.441164],[1.626348,41.441154],[1.62643,41.44112],[1.626541,41.441073],[1.626614,41.441041],[1.626652,41.441025],[1.626739,41.440989],[1.626826,41.440953],[1.626866,41.440935],[1.626884,41.440927],[1.626939,41.440898],[1.627,41.440853],[1.627053,41.440803],[1.62706,41.440796],[1.627097,41.440757],[1.62714,41.440711],[1.627186,41.440663],[1.627234,41.440615],[1.627252,41.440607],[1.627269,41.440599],[1.62731,41.440591],[1.627352,41.440584],[1.627394,41.440578],[1.627417,41.440577],[1.627441,41.440574],[1.627456,41.440571],[1.627474,41.440568],[1.627505,41.440563],[1.627534,41.440558],[1.62757,41.440551],[1.627632,41.440534],[1.627712,41.440511],[1.62779,41.440486],[1.627826,41.440473],[1.627861,41.440456],[1.627886,41.440439],[1.627902,41.440417],[1.627911,41.440385],[1.627914,41.440353],[1.627915,41.440337],[1.627913,41.440321],[1.627906,41.440306],[1.627918,41.440288],[1.627924,41.440278],[1.627948,41.440281],[1.627978,41.440289],[1.628018,41.4403],[1.628037,41.440306],[1.628039,41.440277],[1.628062,41.440015],[1.628671,41.439772],[1.628968,41.439701],[1.628998,41.439693],[1.629064,41.439678],[1.629163,41.439288],[1.629395,41.438814],[1.629267,41.438726],[1.629039,41.438937],[1.62861,41.438966],[1.628444,41.439195],[1.628502,41.439253],[1.628322,41.439685],[1.628142,41.439624],[1.628146,41.439592],[1.628156,41.439491],[1.628156,41.439483],[1.62815,41.439475],[1.628131,41.439466],[1.628115,41.439462],[1.628085,41.439459],[1.62804,41.439462],[1.628017,41.439462],[1.627996,41.439459],[1.627911,41.439435],[1.627869,41.439423],[1.627825,41.439415],[1.627738,41.439407],[1.627651,41.439399],[1.627622,41.439398],[1.627593,41.439396],[1.627547,41.439389],[1.627478,41.439373],[1.627427,41.439361],[1.62734,41.439271],[1.627295,41.43923],[1.627093,41.439048],[1.627144,41.439107],[1.627114,41.439084],[1.62709,41.439057],[1.627085,41.439061],[1.62684,41.439203],[1.626594,41.439349],[1.626334,41.439503],[1.626208,41.439583],[1.626039,41.439657],[1.62583,41.439727],[1.625765,41.439679],[1.625755,41.439672],[1.625742,41.439673],[1.625305,41.439691],[1.624941,41.439706],[1.624909,41.439707],[1.625002,41.439808],[1.625009,41.439816],[1.625009,41.439821],[1.625009,41.439823],[1.62501,41.439857],[1.624986,41.439897],[1.624978,41.439899],[1.624802,41.439944],[1.624788,41.439948],[1.624712,41.43997],[1.6246,41.440005],[1.624387,41.44007],[1.624166,41.440202],[1.624159,41.440207],[1.624131,41.440225],[1.624066,41.440263],[1.624015,41.440272],[1.623836,41.440317],[1.623748,41.440349],[1.623608,41.440469],[1.62343,41.440626],[1.623301,41.440732],[1.623297,41.440734],[1.62323,41.440785],[1.623161,41.440838],[1.623066,41.440915],[1.623002,41.440956],[1.622905,41.441036],[1.622904,41.441036],[1.622814,41.441107],[1.622645,41.441239],[1.622554,41.441346],[1.622488,41.441478],[1.622485,41.441485],[1.622452,41.441497],[1.622424,41.441497],[1.622374,41.441499],[1.622323,41.4415],[1.622281,41.441506],[1.622242,41.441519],[1.622171,41.44155],[1.622123,41.441567],[1.622007,41.441594],[1.621968,41.441603],[1.621922,41.441633],[1.621222,41.442094],[1.621059,41.442201],[1.621145,41.442296],[1.620911,41.442514],[1.620636,41.442682],[1.620604,41.442713],[1.620539,41.442776],[1.620504,41.44281],[1.620494,41.44282],[1.620416,41.442896],[1.62038,41.44291],[1.620361,41.442918],[1.620128,41.443014],[1.619831,41.443096],[1.619742,41.443134],[1.619693,41.443155],[1.619688,41.443157],[1.619649,41.443174],[1.619667,41.443329],[1.619896,41.443329],[1.619893,41.443446],[1.619852,41.443425],[1.619737,41.443425],[1.619732,41.443469],[1.619727,41.443523],[1.619859,41.443524],[1.619885,41.443512],[1.620003,41.443564],[1.620091,41.443604],[1.620178,41.443646],[1.620253,41.443682],[1.620327,41.443717],[1.620385,41.443745],[1.620443,41.443773],[1.620461,41.443791],[1.620476,41.443811],[1.620505,41.443835],[1.620537,41.443858],[1.620593,41.443889],[1.62065,41.443919],[1.620675,41.443937],[1.620699,41.443956],[1.620704,41.443957],[1.620713,41.443964],[1.620907,41.444121],[1.621087,41.44431],[1.621244,41.444567],[1.621284,41.444747],[1.621406,41.444873],[1.621451,41.444916],[1.621626,41.445031],[1.62172,41.445145],[1.621772,41.445187],[1.621783,41.445197],[1.62195,41.445346],[1.622003,41.445363],[1.622217,41.445366],[1.622468,41.445372],[1.622596,41.445373],[1.622591,41.445401],[1.622586,41.44542],[1.622566,41.445445],[1.622535,41.445467],[1.622482,41.445498],[1.622429,41.445531],[1.622414,41.44554],[1.6224,41.445549],[1.62239,41.445558],[1.622383,41.445569],[1.622378,41.445588],[1.622378,41.445608],[1.622379,41.445618],[1.622381,41.445636],[1.622381,41.445636],[1.622387,41.445664],[1.622387,41.445664],[1.622429,41.445724],[1.622433,41.44573],[1.622433,41.44573],[1.622436,41.445729],[1.622447,41.445735],[1.622473,41.445744],[1.622491,41.445744],[1.622529,41.445736]]]]}},{"type":"Feature","id":"080850_080850 SI02 APE 2","properties":{"area_id":"080850_080850 SI02 APE 2","nom":"Can Manou","codi_icgc":"080850 SI02 APE 2","categoria":"Sector industrial","codi_municipi":"080850","municipi":"Font-rubí","codi_comarca":"03","comarca":"Alt Penedès","provincia":"Barcelona","font":"ICGC Àrees de poblament v3r1 202602"},"geometry":{"type":"MultiPolygon","coordinates":[[[[1.68307,41.391783],[1.685318,41.39007],[1.685604,41.389736],[1.685917,41.389353],[1.685922,41.389346],[1.685899,41.389342],[1.685873,41.389337],[1.685869,41.389337],[1.685861,41.389335],[1.68576,41.389317],[1.685646,41.389303],[1.685531,41.389295],[1.685393,41.389282],[1.685254,41.38927],[1.685113,41.38926],[1.684972,41.38925],[1.684825,41.389236],[1.68468,41.38922],[1.684538,41.389201],[1.684395,41.389184],[1.684279,41.389171],[1.684162,41.389158],[1.684068,41.389147],[1.683974,41.389137],[1.68388,41.389122],[1.683786,41.38911],[1.683724,41.389111],[1.683663,41.38911],[1.68362,41.389104],[1.683587,41.389099],[1.683586,41.389106],[1.683582,41.38914],[1.683565,41.38928],[1.683532,41.389373],[1.683496,41.38948],[1.683421,41.389629],[1.683416,41.38964],[1.683387,41.38968],[1.683245,41.389956],[1.683124,41.390205],[1.682967,41.390447],[1.682931,41.39051],[1.68292,41.390543],[1.68293,41.390566],[1.682875,41.390628],[1.682845,41.390621],[1.68282,41.390627],[1.682807,41.390632],[1.68266,41.39079],[1.682527,41.390924],[1.682313,41.391103],[1.682196,41.3912],[1.682109,41.391263],[1.682045,41.391315],[1.683013,41.391736],[1.68307,41.391783]]]]}},{"type":"Feature","id":"080850_080850 SI03 APE 2","properties":{"area_id":"080850_080850 SI03 APE 2","nom":"Cava Martín Soler","codi_icgc":"080850 SI03 APE 2","categoria":"Sector industrial","codi_municipi":"080850","municipi":"Font-rubí","codi_comarca":"03","comarca":"Alt Penedès","provincia":"Barcelona","font":"ICGC Àrees de poblament v3r1 202602"},"geometry":{"type":"MultiPolygon","coordinates":[[[[1.690896,41.410641],[1.690899,41.410649],[1.691011,41.410712],[1.691157,41.410794],[1.691142,41.410837],[1.69114,41.410861],[1.691131,41.410962],[1.691105,41.411276],[1.69115,41.411359],[1.691211,41.411425],[1.691454,41.411307],[1.691606,41.411128],[1.691672,41.411049],[1.691739,41.411004],[1.691868,41.410956],[1.691982,41.410889],[1.692117,41.410793],[1.692257,41.410716],[1.692411,41.410651],[1.692442,41.410596],[1.69244,41.410552],[1.692332,41.410439],[1.692367,41.410413],[1.692187,41.410303],[1.692104,41.410252],[1.692107,41.410187],[1.691981,41.410123],[1.69193,41.410097],[1.691872,41.410086],[1.691862,41.410074],[1.691846,41.410061],[1.691829,41.410051],[1.691804,41.410039],[1.691747,41.409985],[1.691696,41.409989],[1.691659,41.410005],[1.691623,41.410021],[1.691605,41.41003],[1.691299,41.410217],[1.691261,41.410171],[1.691197,41.410105],[1.69087,41.410275],[1.690948,41.410378],[1.690898,41.410405],[1.690884,41.410415],[1.690872,41.410427],[1.690855,41.410455],[1.690843,41.41048],[1.690838,41.410506],[1.690841,41.410522],[1.690851,41.410552],[1.690865,41.410582],[1.69088,41.410611],[1.690896,41.410641]]]]}},{"type":"Feature","id":"080850_080850 SI04 APE 2","properties":{"area_id":"080850_080850 SI04 APE 2","nom":"Celler Josep Piñol","codi_icgc":"080850 SI04 APE 2","categoria":"Sector industrial","codi_municipi":"080850","municipi":"Font-rubí","codi_comarca":"03","comarca":"Alt Penedès","provincia":"Barcelona","font":"ICGC Àrees de poblament v3r1 202602"},"geometry":{"type":"MultiPolygon","coordinates":[[[[1.638601,41.420885],[1.638617,41.420864],[1.638587,41.420869],[1.638549,41.420872],[1.638537,41.420873],[1.638523,41.420875],[1.638521,41.420875],[1.638509,41.420875],[1.638505,41.420876],[1.63849,41.420876],[1.63846,41.420878],[1.63838,41.420881],[1.638298,41.420881],[1.638294,41.420881],[1.638211,41.420876],[1.638173,41.42087],[1.638107,41.420871],[1.638097,41.420896],[1.637857,41.421473],[1.63785,41.421498],[1.637848,41.421748],[1.637845,41.42203],[1.637847,41.422391],[1.638134,41.422541],[1.638311,41.422636],[1.638415,41.422589],[1.638736,41.422398],[1.63935,41.421994],[1.63941,41.421957],[1.639419,41.421943],[1.639434,41.421918],[1.639398,41.421871],[1.639322,41.421767],[1.639245,41.421664],[1.639109,41.4215],[1.639096,41.421485],[1.638802,41.421166],[1.638647,41.420999],[1.638607,41.420953],[1.638594,41.420937],[1.63859,41.420926],[1.638589,41.420919],[1.63859,41.420912],[1.63859,41.420906],[1.638592,41.4209],[1.638597,41.42089],[1.638601,41.420885]]]]}},{"type":"Feature","id":"080850_080850 AP04 APE 3","properties":{"area_id":"080850_080850 AP04 APE 3","nom":"Coll de la Barraca","codi_icgc":"080850 AP04 APE 3","categoria":"Àrees de poblament","codi_municipi":"080850","municipi":"Font-rubí","codi_comarca":"03","comarca":"Alt Penedès","provincia":"Barcelona","font":"ICGC Àrees de poblament v3r1 202602"},"geometry":{"type":"MultiPolygon","coordinates":[[[[1.572095,41.443161],[1.57229,41.443222],[1.572743,41.443382],[1.57283,41.4434],[1.572986,41.443445],[1.573093,41.443487],[1.573363,41.443579],[1.573583,41.443648],[1.573774,41.44371],[1.573781,41.443693],[1.573785,41.443683],[1.573564,41.443273],[1.573418,41.443019],[1.573404,41.443019],[1.573371,41.443019],[1.573365,41.443021],[1.573321,41.443034],[1.573276,41.443046],[1.573258,41.443048],[1.573245,41.443044],[1.573226,41.443034],[1.573207,41.443021],[1.57319,41.443006],[1.573173,41.442983],[1.573159,41.442959],[1.573143,41.442924],[1.573125,41.442869],[1.573114,41.442843],[1.573099,41.442817],[1.573073,41.442785],[1.573056,41.442771],[1.573038,41.442758],[1.57302,41.442748],[1.573002,41.442738],[1.572913,41.442717],[1.572823,41.442697],[1.572748,41.44268],[1.572672,41.442662],[1.572621,41.442648],[1.572572,41.442631],[1.572475,41.442592],[1.572435,41.442577],[1.572397,41.442561],[1.572375,41.442546],[1.572344,41.442518],[1.572314,41.442489],[1.57227,41.44245],[1.572226,41.442411],[1.572203,41.442394],[1.572174,41.442418],[1.572177,41.442538],[1.572165,41.44271],[1.572162,41.44276],[1.572138,41.442868],[1.572121,41.442922],[1.572101,41.442961],[1.57208,41.443011],[1.572081,41.443057],[1.572087,41.443117],[1.572095,41.443161]]]]}},{"type":"Feature","id":"080850_080850 SI01 APE 2","properties":{"area_id":"080850_080850 SI01 APE 2","nom":"Font-Rubí","codi_icgc":"080850 SI01 APE 2","categoria":"Sector industrial","codi_municipi":"080850","municipi":"Font-rubí","codi_comarca":"03","comarca":"Alt Penedès","provincia":"Barcelona","font":"ICGC Àrees de poblament v3r1 202602"},"geometry":{"type":"MultiPolygon","coordinates":[[[[1.653823,41.416108],[1.653707,41.416038],[1.653752,41.415971],[1.65353,41.415836],[1.653454,41.415805],[1.653232,41.415888],[1.653193,41.415818],[1.65308,41.415855],[1.652873,41.415921],[1.652923,41.416008],[1.652937,41.41603],[1.652778,41.416062],[1.652773,41.416047],[1.652732,41.416055],[1.652736,41.416068],[1.652717,41.416069],[1.652614,41.416081],[1.652524,41.416088],[1.652534,41.416125],[1.652598,41.416369],[1.653224,41.416436],[1.65352,41.416471],[1.653712,41.416497],[1.653772,41.416291],[1.653792,41.416211],[1.653805,41.416174],[1.653827,41.41614],[1.653829,41.416134],[1.653831,41.416121],[1.653823,41.416108]]]]}},{"type":"Feature","id":"080850_080850 AP06 APE 3","properties":{"area_id":"080850_080850 AP06 APE 3","nom":"Font-rubí","codi_icgc":"080850 AP06 APE 3","categoria":"Àrees de poblament","codi_municipi":"080850","municipi":"Font-rubí","codi_comarca":"03","comarca":"Alt Penedès","provincia":"Barcelona","font":"ICGC Àrees de poblament v3r1 202602"},"geometry":{"type":"MultiPolygon","coordinates":[[[[1.58669,41.436586],[1.586868,41.436787],[1.586913,41.436801],[1.587052,41.436737],[1.587425,41.436802],[1.587647,41.436775],[1.587876,41.436795],[1.588137,41.436851],[1.588031,41.437185],[1.588392,41.437297],[1.588594,41.436912],[1.588605,41.436872],[1.588424,41.436302],[1.588301,41.436206],[1.587692,41.436111],[1.587626,41.436207],[1.587524,41.436244],[1.587296,41.436251],[1.587223,41.436279],[1.587158,41.436334],[1.587053,41.436416],[1.58669,41.436586]]]]}},{"type":"Feature","id":"080850_080850 AP16 APE 3","properties":{"area_id":"080850_080850 AP16 APE 3","nom":"Font-rubí de Baix","codi_icgc":"080850 AP16 APE 3","categoria":"Àrees de poblament","codi_municipi":"080850","municipi":"Font-rubí","codi_comarca":"03","comarca":"Alt Penedès","provincia":"Barcelona","font":"ICGC Àrees de poblament v3r1 202602"},"geometry":{"type":"MultiPolygon","coordinates":[[[[1.591336,41.433977],[1.591276,41.433942],[1.59122,41.433902],[1.591178,41.433865],[1.591145,41.433824],[1.591136,41.433807],[1.591126,41.433789],[1.591169,41.433774],[1.591211,41.43376],[1.591274,41.433736],[1.591338,41.433714],[1.59142,41.433695],[1.591502,41.433677],[1.591626,41.433648],[1.591726,41.433621],[1.591728,41.43362],[1.592115,41.43347],[1.592145,41.433459],[1.592458,41.433142],[1.592481,41.433118],[1.592567,41.433031],[1.592578,41.432987],[1.592625,41.432801],[1.592623,41.43278],[1.592615,41.432728],[1.592609,41.432706],[1.592005,41.432472],[1.591996,41.432482],[1.591982,41.432496],[1.591726,41.432763],[1.59168,41.4328],[1.591398,41.433032],[1.591102,41.433278],[1.591067,41.433308],[1.591044,41.433327],[1.591039,41.433331],[1.590993,41.433398],[1.590963,41.43344],[1.590924,41.433496],[1.590914,41.433512],[1.5909,41.433529],[1.590949,41.433578],[1.590989,41.433635],[1.591024,41.433693],[1.591064,41.433767],[1.591083,41.433801],[1.591104,41.43384],[1.591111,41.433849],[1.591112,41.43385],[1.591116,41.433855],[1.591116,41.433856],[1.591119,41.433876],[1.591114,41.433896],[1.591101,41.433915],[1.591083,41.43393],[1.59106,41.43394],[1.591046,41.433944],[1.591004,41.433942],[1.590963,41.43394],[1.590937,41.433937],[1.59083,41.434032],[1.590779,41.434155],[1.590749,41.434196],[1.590535,41.434341],[1.590411,41.434425],[1.590349,41.434467],[1.590326,41.434482],[1.590356,41.434519],[1.590398,41.434582],[1.590437,41.434643],[1.590474,41.434704],[1.590486,41.434726],[1.590511,41.434771],[1.590546,41.434839],[1.590568,41.434889],[1.590586,41.43494],[1.590587,41.434949],[1.59062,41.434976],[1.590623,41.434978],[1.59096,41.435254],[1.59111,41.435389],[1.591446,41.435164],[1.591598,41.435062],[1.592048,41.434822],[1.592091,41.434809],[1.592052,41.434737],[1.592009,41.434666],[1.591988,41.434635],[1.591988,41.434635],[1.591936,41.434556],[1.591859,41.434448],[1.591766,41.434325],[1.591673,41.434204],[1.591641,41.434162],[1.591607,41.434119],[1.591576,41.43409],[1.591538,41.434067],[1.591463,41.434034],[1.591398,41.434006],[1.591336,41.433977]]]]}},{"type":"Feature","id":"080850_080850 AP17 APE 3","properties":{"area_id":"080850_080850 AP17 APE 3","nom":"Grabuac","codi_icgc":"080850 AP17 APE 3","categoria":"Àrees de poblament","codi_municipi":"080850","municipi":"Font-rubí","codi_comarca":"03","comarca":"Alt Penedès","provincia":"Barcelona","font":"ICGC Àrees de poblament v3r1 202602"},"geometry":{"type":"MultiPolygon","coordinates":[[[[1.676279,41.396904],[1.67629,41.396862],[1.676296,41.396863],[1.676621,41.396919],[1.67664,41.39688],[1.676705,41.396745],[1.676727,41.396654],[1.676734,41.396631],[1.676742,41.396606],[1.67677,41.39651],[1.676914,41.396376],[1.677058,41.396241],[1.677109,41.396263],[1.677374,41.396379],[1.677459,41.396416],[1.677467,41.39642],[1.67748,41.396341],[1.677514,41.396132],[1.677592,41.39598],[1.677692,41.395785],[1.677808,41.395602],[1.677841,41.395561],[1.677859,41.395537],[1.677879,41.39551],[1.677939,41.395439],[1.677949,41.395429],[1.677962,41.395414],[1.677972,41.395404],[1.678368,41.395254],[1.67869,41.395093],[1.678675,41.395099],[1.678495,41.394911],[1.678452,41.394867],[1.678648,41.394742],[1.678867,41.394603],[1.679087,41.394464],[1.679291,41.394336],[1.67945,41.394228],[1.680207,41.393902],[1.680247,41.393885],[1.680138,41.393794],[1.68002,41.393694],[1.679902,41.393594],[1.679802,41.393508],[1.679751,41.393465],[1.679699,41.393423],[1.679674,41.393404],[1.679649,41.393385],[1.67955,41.393279],[1.679527,41.393295],[1.679464,41.393338],[1.679402,41.39338],[1.679375,41.393398],[1.679315,41.393437],[1.679226,41.393492],[1.679144,41.393542],[1.679062,41.393593],[1.67899,41.393641],[1.678921,41.393692],[1.678865,41.393739],[1.678808,41.393786],[1.67874,41.393844],[1.678672,41.393904],[1.678606,41.393974],[1.678555,41.394031],[1.678543,41.394044],[1.678483,41.394106],[1.678473,41.394117],[1.678231,41.394045],[1.678094,41.394145],[1.677967,41.394173],[1.677731,41.394093],[1.677559,41.394013],[1.676961,41.394245],[1.67723,41.394611],[1.678034,41.394376],[1.678232,41.394448],[1.67823,41.394451],[1.678203,41.394521],[1.678174,41.394588],[1.678149,41.394657],[1.678104,41.394803],[1.678067,41.394912],[1.678048,41.394954],[1.678024,41.394981],[1.67799,41.395003],[1.677474,41.395278],[1.677176,41.395429],[1.677096,41.395464],[1.677061,41.39547],[1.677031,41.395468],[1.677015,41.395462],[1.676997,41.395448],[1.676935,41.395379],[1.676921,41.395356],[1.676905,41.395318],[1.676889,41.395281],[1.67687,41.395222],[1.676851,41.395164],[1.676822,41.395072],[1.676793,41.394979],[1.676779,41.394946],[1.676765,41.394923],[1.676718,41.394947],[1.676689,41.394979],[1.676169,41.395207],[1.676071,41.39525],[1.676021,41.395204],[1.675594,41.395412],[1.675691,41.395557],[1.675314,41.395806],[1.675282,41.395827],[1.675133,41.395677],[1.675052,41.395595],[1.675013,41.395631],[1.674981,41.395702],[1.674988,41.395716],[1.675,41.395744],[1.675009,41.395772],[1.675014,41.395794],[1.675016,41.395816],[1.675014,41.395843],[1.675012,41.395856],[1.67501,41.39587],[1.675,41.395913],[1.67499,41.395956],[1.674982,41.395999],[1.674975,41.396043],[1.674968,41.396085],[1.674965,41.396128],[1.674965,41.396165],[1.674966,41.396203],[1.674967,41.396237],[1.674969,41.396271],[1.674974,41.396347],[1.674979,41.396424],[1.674979,41.396431],[1.674982,41.396485],[1.674985,41.396547],[1.674982,41.396569],[1.67498,41.396591],[1.674976,41.396611],[1.674969,41.39663],[1.674959,41.396661],[1.674949,41.396692],[1.674946,41.39671],[1.674942,41.396743],[1.67494,41.396762],[1.674938,41.396775],[1.674938,41.396779],[1.674937,41.396781],[1.674947,41.396803],[1.675006,41.396786],[1.67502,41.396776],[1.675047,41.39676],[1.675097,41.396736],[1.675147,41.396714],[1.67517,41.396708],[1.675195,41.396705],[1.675244,41.396694],[1.675281,41.396685],[1.675298,41.396677],[1.675316,41.396659],[1.675333,41.39664],[1.675383,41.396598],[1.675433,41.396555],[1.675461,41.396538],[1.675491,41.396525],[1.675497,41.396523],[1.675503,41.396525],[1.675503,41.396528],[1.675493,41.396542],[1.67547,41.396561],[1.675461,41.396571],[1.675456,41.396582],[1.675453,41.396599],[1.675455,41.396628],[1.675464,41.396655],[1.67547,41.396666],[1.675478,41.396676],[1.675493,41.396688],[1.675508,41.3967],[1.67581,41.396872],[1.675872,41.396942],[1.675885,41.396956],[1.675895,41.396972],[1.675905,41.396993],[1.675909,41.397006],[1.675909,41.397022],[1.675911,41.397046],[1.675921,41.397068],[1.675923,41.39707],[1.67619,41.39715],[1.676213,41.397157],[1.67625,41.397014],[1.676279,41.396904]]]]}},{"type":"Feature","id":"080850_080850 AP01 APE 3","properties":{"area_id":"080850_080850 AP01 APE 3","nom":"Guardiola de Font-rubí","codi_icgc":"080850 AP01 APE 3","categoria":"Àrees de poblament","codi_municipi":"080850","municipi":"Font-rubí","codi_comarca":"03","comarca":"Alt Penedès","provincia":"Barcelona","font":"ICGC Àrees de poblament v3r1 202602"},"geometry":{"type":"MultiPolygon","coordinates":[[[[1.655162,41.416991],[1.655197,41.416973],[1.6552,41.416912],[1.655183,41.416845],[1.655247,41.416783],[1.655429,41.416727],[1.655666,41.416635],[1.655892,41.416521],[1.655938,41.416489],[1.655965,41.416402],[1.65598,41.416356],[1.655977,41.416359],[1.655979,41.416345],[1.655978,41.416326],[1.655976,41.416305],[1.655964,41.416281],[1.655947,41.416258],[1.655917,41.416225],[1.65588,41.416193],[1.655846,41.416174],[1.655807,41.416161],[1.655765,41.416154],[1.655694,41.416135],[1.655666,41.416128],[1.65561,41.416108],[1.655075,41.415916],[1.65507,41.415919],[1.655278,41.416219],[1.655343,41.416303],[1.655397,41.416408],[1.655344,41.416467],[1.655274,41.416567],[1.655168,41.416621],[1.655091,41.416683],[1.655034,41.41672],[1.654908,41.416697],[1.654792,41.416692],[1.654563,41.416705],[1.654359,41.41668],[1.653738,41.41662],[1.653552,41.416601],[1.652882,41.416524],[1.652776,41.416502],[1.652604,41.416466],[1.652521,41.41635],[1.652456,41.416101],[1.652489,41.416071],[1.652309,41.415557],[1.652576,41.415578],[1.65289,41.415327],[1.652843,41.4153],[1.652697,41.415281],[1.652614,41.415265],[1.652535,41.415258],[1.652236,41.415264],[1.652172,41.415089],[1.652076,41.41492],[1.652192,41.414871],[1.65221,41.414863],[1.652229,41.414858],[1.652267,41.414839],[1.652304,41.414817],[1.652305,41.414817],[1.652302,41.414794],[1.652299,41.41477],[1.652298,41.414758],[1.652296,41.414722],[1.652294,41.414675],[1.652346,41.414676],[1.652398,41.414677],[1.652463,41.414679],[1.652529,41.41468],[1.652541,41.414678],[1.652552,41.414673],[1.652574,41.414662],[1.652581,41.414659],[1.652609,41.414641],[1.652637,41.414623],[1.652695,41.414582],[1.652755,41.414542],[1.652793,41.414519],[1.652832,41.414495],[1.652794,41.414467],[1.652833,41.414417],[1.652877,41.414377],[1.652817,41.414314],[1.65277,41.414283],[1.65275,41.414261],[1.652737,41.414221],[1.652777,41.414155],[1.652813,41.414112],[1.652843,41.414077],[1.652873,41.414042],[1.652891,41.41402],[1.652902,41.414008],[1.652918,41.413936],[1.652919,41.413916],[1.652924,41.413784],[1.652924,41.413763],[1.652882,41.413728],[1.652813,41.413657],[1.652773,41.413655],[1.652816,41.413614],[1.652838,41.413591],[1.652875,41.413559],[1.652915,41.413528],[1.652951,41.413497],[1.652985,41.413466],[1.653026,41.413433],[1.65306,41.413404],[1.653073,41.413385],[1.653086,41.413366],[1.653092,41.413353],[1.653096,41.413333],[1.653098,41.413313],[1.6531,41.413283],[1.653102,41.413253],[1.653107,41.413237],[1.653097,41.413157],[1.653078,41.413153],[1.653022,41.413134],[1.652968,41.413114],[1.652931,41.413103],[1.652875,41.41309],[1.652819,41.413076],[1.652773,41.413066],[1.652728,41.413053],[1.652707,41.413044],[1.652687,41.413031],[1.652658,41.413013],[1.65263,41.412993],[1.652592,41.412963],[1.652554,41.412932],[1.652517,41.412899],[1.65248,41.412866],[1.652434,41.412821],[1.652357,41.412739],[1.65228,41.412656],[1.652215,41.412585],[1.652156,41.412523],[1.652103,41.41246],[1.652051,41.4124],[1.651859,41.412392],[1.651834,41.412404],[1.651786,41.412426],[1.651739,41.412448],[1.651687,41.41247],[1.651633,41.412489],[1.651543,41.412518],[1.651453,41.412546],[1.651376,41.412571],[1.6513,41.412597],[1.651251,41.412616],[1.651204,41.412637],[1.651163,41.412658],[1.651125,41.412683],[1.651101,41.412702],[1.651079,41.412722],[1.651052,41.412749],[1.651027,41.412777],[1.651001,41.412813],[1.650977,41.412849],[1.650944,41.412905],[1.650935,41.412921],[1.650836,41.412911],[1.650747,41.412889],[1.650649,41.412914],[1.650601,41.412926],[1.650552,41.412921],[1.650462,41.412921],[1.65038,41.412921],[1.650372,41.412925],[1.650346,41.412936],[1.650314,41.413031],[1.650304,41.413063],[1.650299,41.413078],[1.650299,41.413096],[1.650305,41.413108],[1.650327,41.413117],[1.650334,41.413256],[1.650338,41.413307],[1.650371,41.413418],[1.650392,41.413448],[1.650384,41.413464],[1.650361,41.413508],[1.650218,41.413407],[1.650032,41.413324],[1.650019,41.413335],[1.649841,41.413399],[1.649804,41.413413],[1.649729,41.413375],[1.649635,41.413323],[1.649462,41.413231],[1.649289,41.41314],[1.64909,41.41304],[1.648977,41.412987],[1.648991,41.41281],[1.649292,41.412373],[1.649035,41.412248],[1.649255,41.412063],[1.649519,41.411879],[1.649803,41.411719],[1.649814,41.411714],[1.649716,41.41158],[1.649545,41.411578],[1.649436,41.411494],[1.649339,41.411414],[1.649033,41.411568],[1.64897,41.411591],[1.649056,41.411658],[1.648723,41.411855],[1.648615,41.411858],[1.648457,41.411851],[1.648043,41.412157],[1.648041,41.412159],[1.647974,41.412252],[1.647962,41.412273],[1.647907,41.412335],[1.647788,41.41251],[1.64774,41.412622],[1.64773,41.41265],[1.647715,41.412689],[1.647706,41.412713],[1.647698,41.412734],[1.647479,41.41283],[1.647545,41.41301],[1.64755,41.413024],[1.647571,41.413016],[1.64764,41.412994],[1.647733,41.412959],[1.647826,41.412927],[1.647936,41.412887],[1.647959,41.412897],[1.647974,41.412901],[1.647991,41.412903],[1.648024,41.412901],[1.648048,41.412895],[1.648142,41.412966],[1.648539,41.413185],[1.649061,41.41347],[1.649181,41.413502],[1.649228,41.413509],[1.649542,41.413322],[1.649622,41.413365],[1.650145,41.413646],[1.650149,41.413648],[1.650153,41.413661],[1.650102,41.413747],[1.650117,41.413797],[1.650261,41.413873],[1.650279,41.41388],[1.650251,41.413925],[1.650225,41.413944],[1.650034,41.414124],[1.649922,41.414191],[1.650083,41.414291],[1.649875,41.414462],[1.649824,41.414503],[1.649784,41.414538],[1.649726,41.41459],[1.649681,41.41462],[1.649657,41.414622],[1.649638,41.41462],[1.649611,41.414608],[1.649601,41.414604],[1.64958,41.414593],[1.64953,41.414577],[1.649509,41.414572],[1.649461,41.414574],[1.649397,41.41459],[1.649341,41.414607],[1.649292,41.414621],[1.64924,41.414635],[1.649184,41.414641],[1.649075,41.41464],[1.649029,41.414643],[1.649005,41.414654],[1.64899,41.41467],[1.648985,41.414687],[1.648985,41.414732],[1.649001,41.414836],[1.649028,41.415003],[1.649021,41.415011],[1.649005,41.415023],[1.648975,41.415039],[1.648944,41.415048],[1.648877,41.41506],[1.648694,41.415091],[1.648388,41.415143],[1.647849,41.41526],[1.647817,41.415273],[1.647764,41.415293],[1.647728,41.415305],[1.647595,41.415348],[1.647439,41.4154],[1.647321,41.415444],[1.647289,41.415459],[1.647262,41.41547],[1.647258,41.415472],[1.647207,41.415495],[1.647125,41.415537],[1.647085,41.415561],[1.647048,41.415586],[1.646973,41.415643],[1.646917,41.415687],[1.646905,41.415697],[1.646901,41.4157],[1.646767,41.415809],[1.646634,41.415917],[1.646435,41.416078],[1.646273,41.416208],[1.646235,41.416239],[1.64613,41.41632],[1.645993,41.416425],[1.645653,41.416689],[1.645273,41.416985],[1.645149,41.417065],[1.645155,41.41707],[1.645201,41.41711],[1.645212,41.417106],[1.645237,41.417107],[1.645262,41.417112],[1.645289,41.417128],[1.645616,41.417363],[1.645625,41.417373],[1.64563,41.417386],[1.645632,41.417395],[1.64563,41.417402],[1.645588,41.417427],[1.645546,41.417451],[1.645521,41.417464],[1.645484,41.417483],[1.645445,41.417501],[1.645422,41.417509],[1.645384,41.417518],[1.645367,41.417524],[1.645354,41.417534],[1.64533,41.417558],[1.645307,41.417582],[1.64528,41.41761],[1.645268,41.417622],[1.645252,41.417637],[1.645238,41.417648],[1.645222,41.417658],[1.645155,41.417708],[1.645086,41.417757],[1.645063,41.41777],[1.645025,41.417786],[1.644988,41.417804],[1.644933,41.417837],[1.644878,41.417871],[1.644876,41.417872],[1.644593,41.418064],[1.644423,41.41818],[1.6447,41.418405],[1.644679,41.41842],[1.644664,41.418436],[1.644659,41.418452],[1.644668,41.418468],[1.645168,41.418892],[1.645197,41.418899],[1.645202,41.4189],[1.645359,41.419025],[1.645561,41.419198],[1.645714,41.419324],[1.645724,41.419337],[1.645729,41.419353],[1.645729,41.419374],[1.645724,41.419396],[1.645649,41.419444],[1.645631,41.419452],[1.645424,41.419549],[1.645383,41.419569],[1.645496,41.419668],[1.645599,41.419796],[1.645649,41.419773],[1.645872,41.41968],[1.645907,41.419665],[1.645974,41.419637],[1.646034,41.419685],[1.646077,41.419737],[1.646132,41.419795],[1.64622,41.419873],[1.646347,41.419985],[1.646449,41.420066],[1.646496,41.420098],[1.646503,41.4201],[1.646511,41.420101],[1.646522,41.420101],[1.64653,41.420099],[1.64653,41.420099],[1.646536,41.420097],[1.646875,41.419968],[1.647126,41.419872],[1.647134,41.419869],[1.647135,41.419869],[1.647141,41.419866],[1.647191,41.419847],[1.647226,41.419834],[1.647263,41.419819],[1.64726,41.419815],[1.647323,41.419783],[1.647346,41.419785],[1.647364,41.419777],[1.647447,41.419747],[1.647533,41.41972],[1.647618,41.419693],[1.64763,41.419689],[1.647632,41.419673],[1.647596,41.419653],[1.647588,41.419648],[1.647617,41.419632],[1.64759,41.419611],[1.647537,41.419588],[1.64747,41.41955],[1.647409,41.419507],[1.647316,41.419427],[1.647297,41.419413],[1.647047,41.419224],[1.646971,41.419157],[1.646945,41.419134],[1.646909,41.419103],[1.646897,41.419073],[1.646896,41.419048],[1.646909,41.41902],[1.646932,41.418999],[1.647109,41.41888],[1.647215,41.418828],[1.647309,41.418788],[1.647576,41.418673],[1.647593,41.418666],[1.647495,41.418578],[1.64734,41.418438],[1.647282,41.418385],[1.647348,41.418335],[1.647401,41.418296],[1.647467,41.418246],[1.647533,41.418196],[1.647557,41.418178],[1.647582,41.418159],[1.647604,41.418139],[1.647621,41.418115],[1.647626,41.418092],[1.647621,41.41807],[1.647606,41.418041],[1.647586,41.418014],[1.647564,41.417991],[1.64754,41.417969],[1.647512,41.417946],[1.647496,41.417935],[1.647475,41.417925],[1.647454,41.417917],[1.647428,41.417909],[1.647404,41.417903],[1.647389,41.417899],[1.647587,41.417786],[1.647563,41.41773],[1.647544,41.417668],[1.64753,41.417637],[1.647509,41.417605],[1.647532,41.417593],[1.6475,41.417557],[1.64745,41.417522],[1.647409,41.417493],[1.64734,41.417442],[1.647279,41.41739],[1.647246,41.417355],[1.647313,41.41733],[1.647346,41.417319],[1.647374,41.417305],[1.647482,41.417253],[1.647694,41.417152],[1.647828,41.417087],[1.647825,41.417078],[1.647802,41.416998],[1.647807,41.416991],[1.647621,41.416868],[1.647373,41.416689],[1.647365,41.416684],[1.647412,41.416538],[1.647315,41.41646],[1.647181,41.416353],[1.647177,41.41635],[1.647091,41.416283],[1.647045,41.416253],[1.647035,41.416247],[1.646909,41.416159],[1.646878,41.416135],[1.646795,41.41607],[1.646998,41.415901],[1.647359,41.415739],[1.647397,41.415761],[1.647435,41.415782],[1.64748,41.415806],[1.647504,41.415816],[1.64753,41.415823],[1.647554,41.415827],[1.647579,41.415827],[1.64764,41.415824],[1.647702,41.415821],[1.647745,41.415822],[1.647788,41.415828],[1.647835,41.415841],[1.64788,41.415857],[1.647909,41.415869],[1.647937,41.415882],[1.647964,41.415898],[1.647975,41.415907],[1.647982,41.415918],[1.647993,41.415949],[1.648004,41.41598],[1.648219,41.41596],[1.648222,41.415959],[1.648528,41.415927],[1.648539,41.415673],[1.648771,41.415639],[1.648774,41.415639],[1.648979,41.415609],[1.649012,41.415604],[1.649247,41.415582],[1.649291,41.415577],[1.649358,41.415791],[1.649414,41.415824],[1.649355,41.415883],[1.649306,41.415929],[1.649207,41.416013],[1.649145,41.416065],[1.649148,41.416099],[1.649149,41.416114],[1.649203,41.416186],[1.649277,41.416271],[1.649287,41.416281],[1.649316,41.416313],[1.649567,41.416181],[1.649553,41.416143],[1.649523,41.416066],[1.64952,41.416048],[1.649619,41.415996],[1.649867,41.415867],[1.64992,41.415834],[1.650078,41.415732],[1.650236,41.415632],[1.650293,41.415597],[1.650338,41.415568],[1.650339,41.415543],[1.650431,41.415487],[1.650564,41.415407],[1.650644,41.415487],[1.650728,41.415575],[1.650798,41.415702],[1.650891,41.415865],[1.650935,41.415929],[1.650997,41.416009],[1.651118,41.415942],[1.651129,41.415943],[1.651143,41.415946],[1.651173,41.415952],[1.65119,41.415957],[1.651213,41.415966],[1.651233,41.415974],[1.651395,41.416043],[1.651503,41.416086],[1.651503,41.416086],[1.651489,41.416107],[1.651476,41.416128],[1.651464,41.416141],[1.651438,41.416158],[1.651411,41.416176],[1.651315,41.41624],[1.65122,41.416306],[1.651201,41.416321],[1.651178,41.416346],[1.651161,41.416376],[1.651151,41.416411],[1.650733,41.416192],[1.650706,41.416217],[1.650695,41.416224],[1.650301,41.416463],[1.650384,41.416504],[1.650139,41.416722],[1.650125,41.416734],[1.65014,41.416738],[1.650192,41.416755],[1.650243,41.416774],[1.650303,41.416802],[1.650361,41.416832],[1.650443,41.416876],[1.650525,41.416921],[1.650559,41.416936],[1.650596,41.416949],[1.650623,41.416954],[1.65065,41.416953],[1.650688,41.416949],[1.650725,41.416946],[1.650758,41.416949],[1.65079,41.416957],[1.65081,41.416965],[1.650892,41.417005],[1.650972,41.417047],[1.651004,41.417063],[1.651033,41.417081],[1.65105,41.417094],[1.651067,41.41711],[1.65108,41.417121],[1.651093,41.417108],[1.651133,41.417067],[1.651182,41.417098],[1.651247,41.41714],[1.651269,41.417154],[1.651296,41.417172],[1.651316,41.417227],[1.651335,41.417275],[1.651341,41.417299],[1.651346,41.417336],[1.651353,41.417375],[1.651361,41.417398],[1.651362,41.417404],[1.651436,41.417468],[1.651628,41.417474],[1.651644,41.417545],[1.651663,41.417642],[1.651721,41.417897],[1.651776,41.418071],[1.651806,41.418151],[1.65182,41.418149],[1.651825,41.418166],[1.651869,41.418171],[1.652019,41.418878],[1.652145,41.418942],[1.652371,41.419021],[1.652738,41.419039],[1.653024,41.418995],[1.653145,41.418958],[1.653222,41.418897],[1.653236,41.418854],[1.653236,41.418811],[1.6531,41.418691],[1.652893,41.418593],[1.652849,41.418454],[1.652749,41.418131],[1.65272,41.418038],[1.653097,41.417991],[1.653009,41.417599],[1.652996,41.417555],[1.653005,41.417555],[1.653129,41.417549],[1.653141,41.417561],[1.653243,41.417679],[1.653268,41.417667],[1.653337,41.417744],[1.653341,41.417818],[1.653347,41.417819],[1.653382,41.417779],[1.653496,41.417648],[1.653557,41.417552],[1.653585,41.417582],[1.653684,41.417541],[1.653712,41.417573],[1.653973,41.41747],[1.653997,41.417499],[1.654121,41.417449],[1.65447,41.417298],[1.654508,41.417281],[1.654783,41.417157],[1.654792,41.417153],[1.655162,41.416991]]]]}},{"type":"Feature","id":"080850_080850 AP14 APE 3","properties":{"area_id":"080850_080850 AP14 APE 3","nom":"Mas Moió","codi_icgc":"080850 AP14 APE 3","categoria":"Àrees de poblament","codi_municipi":"080850","municipi":"Font-rubí","codi_comarca":"03","comarca":"Alt Penedès","provincia":"Barcelona","font":"ICGC Àrees de poblament v3r1 202602"},"geometry":{"type":"MultiPolygon","coordinates":[[[[1.624948,41.421443],[1.625001,41.421436],[1.624999,41.421443],[1.624993,41.421455],[1.625014,41.421452],[1.625021,41.421438],[1.625031,41.421427],[1.625051,41.421417],[1.625077,41.421395],[1.625119,41.421344],[1.62516,41.421297],[1.625215,41.421257],[1.62528,41.421226],[1.625352,41.421197],[1.624987,41.42102],[1.624655,41.421016],[1.624309,41.420894],[1.624199,41.420953],[1.623925,41.421211],[1.623978,41.421322],[1.623993,41.421352],[1.624015,41.421398],[1.62405,41.421405],[1.624082,41.421411],[1.624093,41.421405],[1.624139,41.42138],[1.624172,41.421364],[1.62419,41.421359],[1.624196,41.421357],[1.624235,41.421349],[1.624305,41.421347],[1.624376,41.421352],[1.624445,41.421363],[1.62451,41.421381],[1.624562,41.4214],[1.624608,41.421421],[1.624633,41.421434],[1.624664,41.421446],[1.624697,41.421452],[1.624792,41.421451],[1.624884,41.421447],[1.624948,41.421443]]],[[[1.628838,41.422179],[1.628764,41.42193],[1.628749,41.421937],[1.628719,41.421868],[1.62849,41.421776],[1.627668,41.421646],[1.627578,41.421805],[1.627712,41.421864],[1.627807,41.421906],[1.627853,41.421926],[1.627995,41.42198],[1.628139,41.42203],[1.628269,41.422073],[1.628404,41.422111],[1.628579,41.422141],[1.628754,41.422167],[1.628838,41.422179]]],[[[1.630935,41.422421],[1.630659,41.422018],[1.6306,41.422028],[1.630342,41.422072],[1.630282,41.422083],[1.630143,41.422087],[1.630141,41.422143],[1.630111,41.422144],[1.630109,41.422207],[1.630178,41.422207],[1.630247,41.422208],[1.630272,41.422209],[1.630281,41.42221],[1.630287,41.422212],[1.630165,41.422251],[1.630108,41.422272],[1.630035,41.422299],[1.629886,41.422356],[1.629738,41.422414],[1.629599,41.422472],[1.62946,41.422531],[1.629362,41.422567],[1.62926,41.422598],[1.629172,41.422619],[1.629081,41.422633],[1.628999,41.422643],[1.628991,41.422668],[1.628788,41.4227],[1.628795,41.422881],[1.628846,41.42316],[1.629096,41.423299],[1.629249,41.42337],[1.629588,41.423114],[1.629626,41.422947],[1.629778,41.422872],[1.630321,41.42264],[1.630801,41.42247],[1.630883,41.42244],[1.630935,41.422421]]],[[[1.627051,41.423383],[1.626705,41.423051],[1.626462,41.422777],[1.626394,41.422789],[1.626253,41.422817],[1.62612,41.422847],[1.625987,41.422878],[1.625872,41.422902],[1.625755,41.422922],[1.62563,41.422938],[1.625505,41.422955],[1.625322,41.422979],[1.625138,41.423005],[1.624953,41.423036],[1.624769,41.423068],[1.624629,41.423094],[1.624488,41.42312],[1.624444,41.423129],[1.624462,41.423162],[1.624468,41.423175],[1.624551,41.423334],[1.624801,41.423762],[1.625602,41.423588],[1.6255,41.423393],[1.626033,41.423286],[1.626302,41.423579],[1.626714,41.424027],[1.626772,41.424003],[1.626862,41.423967],[1.627053,41.423889],[1.627092,41.423873],[1.62715,41.42385],[1.627154,41.423846],[1.627194,41.423799],[1.627232,41.423751],[1.627295,41.423665],[1.627332,41.423616],[1.627214,41.423556],[1.627051,41.423383]]]]}},{"type":"Feature","id":"080850_080850 AP22 APE 2","properties":{"area_id":"080850_080850 AP22 APE 2","nom":"Mas de la Mosca","codi_icgc":"080850 AP22 APE 2","categoria":"Àrees de poblament","codi_municipi":"080850","municipi":"Font-rubí","codi_comarca":"03","comarca":"Alt Penedès","provincia":"Barcelona","font":"ICGC Àrees de poblament v3r1 202602"},"geometry":{"type":"MultiPolygon","coordinates":[[[[1.637093,41.425327],[1.63725,41.425019],[1.637484,41.42518],[1.637746,41.424897],[1.637445,41.424772],[1.637787,41.424421],[1.637806,41.424405],[1.637834,41.42438],[1.638142,41.424472],[1.63827,41.424423],[1.638359,41.424334],[1.638411,41.424284],[1.638424,41.424243],[1.638409,41.424201],[1.638373,41.424198],[1.638314,41.424206],[1.638171,41.424228],[1.637987,41.424176],[1.637914,41.424252],[1.637758,41.424396],[1.637561,41.424591],[1.63753,41.424584],[1.637423,41.424603],[1.637001,41.424376],[1.636997,41.42438],[1.636994,41.42438],[1.636569,41.424389],[1.63653,41.424468],[1.636518,41.424596],[1.63664,41.424655],[1.636761,41.424756],[1.63648,41.42501],[1.636496,41.425182],[1.636523,41.425247],[1.63688,41.425423],[1.636728,41.42565],[1.636698,41.425692],[1.636691,41.425702],[1.636646,41.425769],[1.636597,41.425832],[1.636556,41.425884],[1.636539,41.425904],[1.636584,41.425925],[1.636937,41.425834],[1.637225,41.42576],[1.637213,41.425757],[1.637276,41.425739],[1.637202,41.425731],[1.637176,41.425728],[1.637196,41.425682],[1.637222,41.425621],[1.63709,41.425572],[1.636905,41.425498],[1.636987,41.425332],[1.637093,41.425327]]],[[[1.63796,41.426086],[1.637636,41.42596],[1.637623,41.425998],[1.637608,41.426042],[1.637529,41.426027],[1.637478,41.426017],[1.637446,41.426011],[1.637399,41.426013],[1.637354,41.426031],[1.637326,41.426052],[1.637308,41.426077],[1.637297,41.426114],[1.637306,41.426152],[1.637335,41.426185],[1.63737,41.426211],[1.637457,41.426261],[1.637522,41.426299],[1.637542,41.42631],[1.637569,41.426328],[1.63759,41.426347],[1.637592,41.426358],[1.637617,41.426374],[1.637723,41.426401],[1.637753,41.426409],[1.637772,41.426404],[1.637815,41.426391],[1.637842,41.426382],[1.637846,41.426381],[1.637871,41.426351],[1.637988,41.426195],[1.638007,41.426139],[1.63796,41.426086]]]]}},{"type":"Feature","id":"080850_080850 AP09 APE 3","properties":{"area_id":"080850_080850 AP09 APE 3","nom":"Sabanell","codi_icgc":"080850 AP09 APE 3","categoria":"Àrees de poblament","codi_municipi":"080850","municipi":"Font-rubí","codi_comarca":"03","comarca":"Alt Penedès","provincia":"Barcelona","font":"ICGC Àrees de poblament v3r1 202602"},"geometry":{"type":"MultiPolygon","coordinates":[[[[1.694197,41.415445],[1.6942,41.415455],[1.694317,41.415745],[1.694609,41.415779],[1.694734,41.415793],[1.695292,41.415793],[1.695601,41.415991],[1.695449,41.416123],[1.695909,41.416407],[1.696037,41.41618],[1.6958,41.415883],[1.695758,41.415685],[1.695731,41.41551],[1.695676,41.415244],[1.695587,41.415121],[1.695356,41.415103],[1.695308,41.415004],[1.695168,41.414878],[1.694197,41.415445]]]]}},{"type":"Feature","id":"080850_080850 AP11 APE 3","properties":{"area_id":"080850_080850 AP11 APE 3","nom":"Santa Maria de Bellver","codi_icgc":"080850 AP11 APE 3","categoria":"Àrees de poblament","codi_municipi":"080850","municipi":"Font-rubí","codi_comarca":"03","comarca":"Alt Penedès","provincia":"Barcelona","font":"ICGC Àrees de poblament v3r1 202602"},"geometry":{"type":"MultiPolygon","coordinates":[[[[1.661382,41.423274],[1.66138,41.423278],[1.66133,41.423374],[1.661332,41.423415],[1.661322,41.423441],[1.661286,41.423545],[1.661278,41.423563],[1.661267,41.423582],[1.661253,41.423594],[1.661235,41.423604],[1.661214,41.423613],[1.661191,41.423618],[1.661168,41.423619],[1.661146,41.423617],[1.661094,41.423603],[1.661092,41.423593],[1.661085,41.423594],[1.660779,41.423523],[1.660777,41.423431],[1.6608,41.423309],[1.660837,41.423196],[1.660298,41.423124],[1.660276,41.423164],[1.660273,41.423164],[1.660262,41.423192],[1.66022,41.423295],[1.660212,41.423319],[1.660185,41.423397],[1.660183,41.423402],[1.66018,41.423412],[1.660171,41.423438],[1.660204,41.423426],[1.660225,41.423458],[1.660254,41.423503],[1.660309,41.423585],[1.660369,41.423665],[1.660423,41.423728],[1.660486,41.423786],[1.660562,41.423839],[1.660643,41.423886],[1.660789,41.423961],[1.660934,41.424036],[1.661062,41.424103],[1.661184,41.424174],[1.661216,41.424196],[1.661259,41.424179],[1.66136,41.42414],[1.66143,41.424115],[1.661503,41.424091],[1.66156,41.42407],[1.661602,41.424054],[1.661602,41.424033],[1.661602,41.424004],[1.661601,41.423766],[1.661641,41.423746],[1.661841,41.423648],[1.661984,41.423608],[1.662043,41.423636],[1.662055,41.423637],[1.66209,41.423639],[1.662212,41.423694],[1.662335,41.423615],[1.66234,41.423612],[1.662408,41.423568],[1.662411,41.423566],[1.662024,41.423328],[1.662121,41.42324],[1.662134,41.423228],[1.662146,41.423216],[1.661937,41.422989],[1.661469,41.423099],[1.661382,41.423274]]]]}},{"type":"Feature","id":"080850_080850 AP19 APE 2","properties":{"area_id":"080850_080850 AP19 APE 2","nom":"el Carrer de Cal Muntanyès","codi_icgc":"080850 AP19 APE 2","categoria":"Àrees de poblament","codi_municipi":"080850","municipi":"Font-rubí","codi_comarca":"03","comarca":"Alt Penedès","provincia":"Barcelona","font":"ICGC Àrees de poblament v3r1 202602"},"geometry":{"type":"MultiPolygon","coordinates":[[[[1.687271,41.414392],[1.687558,41.414136],[1.687606,41.414089],[1.687808,41.414207],[1.687872,41.414153],[1.687756,41.414075],[1.687723,41.414052],[1.687687,41.414027],[1.687809,41.413903],[1.687722,41.41385],[1.687642,41.413921],[1.68746,41.413825],[1.687456,41.413826],[1.687389,41.413796],[1.687371,41.413824],[1.687342,41.413866],[1.687293,41.413916],[1.68724,41.413964],[1.687181,41.414017],[1.687122,41.41407],[1.687067,41.414118],[1.68701,41.414165],[1.686956,41.41421],[1.687001,41.414249],[1.687014,41.414248],[1.687034,41.414252],[1.687069,41.414267],[1.687122,41.414292],[1.687165,41.414315],[1.687214,41.41435],[1.687262,41.414387],[1.687271,41.414392]]]]}},{"type":"Feature","id":"080850_080850 AP21 APE 2","properties":{"area_id":"080850_080850 AP21 APE 2","nom":"el Clot","codi_icgc":"080850 AP21 APE 2","categoria":"Àrees de poblament","codi_municipi":"080850","municipi":"Font-rubí","codi_comarca":"03","comarca":"Alt Penedès","provincia":"Barcelona","font":"ICGC Àrees de poblament v3r1 202602"},"geometry":{"type":"MultiPolygon","coordinates":[[[[1.638287,41.428016],[1.63826,41.428207],[1.638061,41.428212],[1.637843,41.428257],[1.637429,41.428385],[1.637594,41.428604],[1.637736,41.428518],[1.637817,41.428474],[1.637975,41.428401],[1.638098,41.428358],[1.638266,41.428308],[1.638351,41.428363],[1.638541,41.428377],[1.638788,41.42832],[1.638892,41.428268],[1.639046,41.428061],[1.639082,41.428007],[1.639124,41.427903],[1.639173,41.427848],[1.639217,41.427811],[1.639301,41.427775],[1.639382,41.427739],[1.639411,41.427723],[1.639429,41.427685],[1.639427,41.427649],[1.639407,41.427612],[1.639344,41.427565],[1.639307,41.42755],[1.639245,41.427543],[1.639177,41.427538],[1.639116,41.427529],[1.639032,41.427492],[1.638991,41.427459],[1.63893,41.427412],[1.638885,41.427396],[1.638816,41.427388],[1.638756,41.427386],[1.638706,41.427386],[1.638623,41.427361],[1.638562,41.427364],[1.638287,41.428016]]]]}},{"type":"Feature","id":"080850_080850 AP20 APE 2","properties":{"area_id":"080850_080850 AP20 APE 2","nom":"el Parany","codi_icgc":"080850 AP20 APE 2","categoria":"Àrees de poblament","codi_municipi":"080850","municipi":"Font-rubí","codi_comarca":"03","comarca":"Alt Penedès","provincia":"Barcelona","font":"ICGC Àrees de poblament v3r1 202602"},"geometry":{"type":"MultiPolygon","coordinates":[[[[1.674799,41.411781],[1.674525,41.411871],[1.674314,41.41194],[1.674323,41.411981],[1.674314,41.412028],[1.674367,41.412131],[1.674383,41.412164],[1.674385,41.412181],[1.674378,41.412204],[1.674378,41.412217],[1.67438,41.412242],[1.674381,41.412286],[1.674032,41.412444],[1.674079,41.412497],[1.673704,41.412664],[1.673742,41.412767],[1.673754,41.412791],[1.673777,41.412834],[1.673786,41.412871],[1.673798,41.412912],[1.67382,41.412935],[1.673853,41.412952],[1.673868,41.412953],[1.673897,41.412957],[1.673938,41.412943],[1.673961,41.412922],[1.673977,41.412902],[1.673995,41.412874],[1.674011,41.412857],[1.674038,41.41284],[1.674105,41.412893],[1.674154,41.412865],[1.674559,41.41262],[1.674517,41.412566],[1.674501,41.412546],[1.674435,41.41246],[1.674504,41.412426],[1.67452,41.412399],[1.674514,41.412371],[1.674502,41.412322],[1.674497,41.412287],[1.674499,41.412256],[1.67452,41.412226],[1.674565,41.412175],[1.6746,41.412182],[1.674665,41.412198],[1.674734,41.41221],[1.674784,41.412211],[1.674832,41.412212],[1.674879,41.412218],[1.674928,41.412227],[1.674966,41.412237],[1.674997,41.412254],[1.675008,41.412265],[1.675048,41.412304],[1.675058,41.412314],[1.675101,41.41234],[1.675142,41.412365],[1.675182,41.412391],[1.675219,41.412419],[1.675245,41.412446],[1.675268,41.412477],[1.675287,41.412505],[1.675304,41.412535],[1.675324,41.412578],[1.67534,41.412623],[1.675355,41.412673],[1.675371,41.412724],[1.675385,41.412749],[1.675532,41.412691],[1.675931,41.412524],[1.676002,41.412634],[1.676213,41.412521],[1.676261,41.41249],[1.676253,41.412443],[1.676231,41.412397],[1.676311,41.412362],[1.676355,41.412351],[1.676393,41.412342],[1.676438,41.412331],[1.676481,41.412321],[1.676504,41.412316],[1.676685,41.41249],[1.676832,41.412647],[1.677257,41.412458],[1.677129,41.412292],[1.677043,41.412175],[1.677022,41.412142],[1.677022,41.412142],[1.677005,41.412116],[1.677001,41.412118],[1.676896,41.412161],[1.676789,41.412201],[1.676712,41.412227],[1.676633,41.412251],[1.676572,41.412268],[1.676511,41.412284],[1.676427,41.412304],[1.676343,41.412323],[1.676299,41.412335],[1.676254,41.412347],[1.676235,41.41235],[1.676216,41.412352],[1.676202,41.412353],[1.676188,41.412353],[1.676171,41.41235],[1.676154,41.412346],[1.676142,41.412342],[1.67613,41.412339],[1.67612,41.412334],[1.676111,41.412328],[1.676101,41.412318],[1.676091,41.412308],[1.676072,41.412297],[1.67605,41.412289],[1.675988,41.412277],[1.675958,41.412271],[1.675927,41.412266],[1.675889,41.41226],[1.67585,41.412254],[1.675774,41.412238],[1.675698,41.412221],[1.675647,41.41221],[1.675599,41.412204],[1.675581,41.412204],[1.675559,41.412208],[1.675491,41.412223],[1.67541,41.412071],[1.675345,41.412015],[1.675315,41.412012],[1.675285,41.41202],[1.675235,41.412037],[1.675182,41.412035],[1.675114,41.41202],[1.674972,41.411912],[1.674799,41.411781]]]]}},{"type":"Feature","id":"080850_080850 AP07 APE 3","properties":{"area_id":"080850_080850 AP07 APE 3","nom":"l'Alzinar","codi_icgc":"080850 AP07 APE 3","categoria":"Àrees de poblament","codi_municipi":"080850","municipi":"Font-rubí","codi_comarca":"03","comarca":"Alt Penedès","provincia":"Barcelona","font":"ICGC Àrees de poblament v3r1 202602"},"geometry":{"type":"MultiPolygon","coordinates":[[[[1.638336,41.432103],[1.63843,41.432075],[1.638876,41.432134],[1.638929,41.431976],[1.638941,41.431975],[1.638976,41.431894],[1.638981,41.431868],[1.638999,41.431775],[1.639005,41.431649],[1.638967,41.431503],[1.638911,41.431397],[1.6389,41.431376],[1.638844,41.431395],[1.638763,41.431419],[1.63868,41.431439],[1.638634,41.431448],[1.638587,41.431458],[1.638542,41.431354],[1.638491,41.43119],[1.638564,41.431185],[1.638632,41.431181],[1.638786,41.431062],[1.638694,41.430975],[1.638596,41.430882],[1.638455,41.430974],[1.638375,41.430995],[1.638357,41.431001],[1.638111,41.431083],[1.637844,41.431315],[1.637989,41.431598],[1.638012,41.431638],[1.638184,41.431941],[1.638306,41.432103],[1.638311,41.43211],[1.638336,41.432103]]]]}},{"type":"Feature","id":"080850_080850 AP05 APE 3","properties":{"area_id":"080850_080850 AP05 APE 3","nom":"l'Avellà","codi_icgc":"080850 AP05 APE 3","categoria":"Àrees de poblament","codi_municipi":"080850","municipi":"Font-rubí","codi_comarca":"03","comarca":"Alt Penedès","provincia":"Barcelona","font":"ICGC Àrees de poblament v3r1 202602"},"geometry":{"type":"MultiPolygon","coordinates":[[[[1.607459,41.442589],[1.60743,41.442602],[1.607343,41.442634],[1.607215,41.442729],[1.60708,41.442919],[1.607074,41.442925],[1.607042,41.443025],[1.607162,41.443261],[1.607185,41.443264],[1.607239,41.443318],[1.607276,41.443401],[1.60732,41.443517],[1.607433,41.443636],[1.607447,41.443768],[1.607529,41.443784],[1.607572,41.443792],[1.607546,41.443889],[1.607602,41.44391],[1.607582,41.443961],[1.607712,41.444025],[1.607862,41.444063],[1.607877,41.444141],[1.607895,41.444229],[1.608148,41.444283],[1.608424,41.444342],[1.608585,41.444377],[1.6088,41.444398],[1.608806,41.444408],[1.608841,41.44441],[1.60883,41.44439],[1.6088,41.444337],[1.608728,41.444214],[1.608653,41.444091],[1.608613,41.444035],[1.608576,41.443978],[1.60856,41.443942],[1.608537,41.443891],[1.608497,41.443804],[1.608458,41.44372],[1.608451,41.44369],[1.608444,41.443661],[1.608446,41.443658],[1.608456,41.443658],[1.608467,41.44366],[1.608506,41.443669],[1.608523,41.443677],[1.608536,41.443688],[1.608559,41.443729],[1.60858,41.443769],[1.608625,41.443859],[1.608671,41.443949],[1.60868,41.443962],[1.60871,41.443967],[1.608758,41.443975],[1.608801,41.443976],[1.608886,41.44399],[1.608891,41.443866],[1.608941,41.443854],[1.608996,41.443839],[1.60894,41.443721],[1.608885,41.443736],[1.608709,41.443604],[1.608535,41.443497],[1.608438,41.443381],[1.608394,41.443369],[1.608383,41.443397],[1.608383,41.443398],[1.608345,41.44336],[1.608307,41.443323],[1.60829,41.443307],[1.608283,41.443298],[1.60828,41.443289],[1.608282,41.443255],[1.608285,41.44322],[1.608287,41.443171],[1.608289,41.443121],[1.608289,41.443111],[1.608289,41.4431],[1.608288,41.443084],[1.608287,41.443068],[1.608365,41.443078],[1.608396,41.443063],[1.608435,41.442924],[1.608471,41.442943],[1.608511,41.442895],[1.608645,41.442737],[1.608588,41.442618],[1.608651,41.442517],[1.608657,41.442499],[1.608766,41.442531],[1.608867,41.442572],[1.608955,41.442607],[1.609045,41.442639],[1.609124,41.442664],[1.609162,41.442675],[1.609186,41.442563],[1.609157,41.442538],[1.609164,41.442538],[1.609184,41.44252],[1.609208,41.44249],[1.609225,41.442458],[1.609262,41.442376],[1.609299,41.442293],[1.609311,41.442273],[1.609318,41.442254],[1.609314,41.442247],[1.609297,41.44224],[1.609278,41.442234],[1.609169,41.442191],[1.609115,41.44217],[1.609061,41.442147],[1.609032,41.442131],[1.609021,41.442121],[1.609016,41.442109],[1.609015,41.442094],[1.609015,41.442079],[1.609064,41.441983],[1.608794,41.441907],[1.608695,41.441879],[1.608677,41.441872],[1.608657,41.441863],[1.608642,41.441857],[1.60864,41.441866],[1.60863,41.441909],[1.608614,41.441975],[1.608591,41.442076],[1.608579,41.442125],[1.608572,41.442147],[1.608564,41.442174],[1.608558,41.442193],[1.608544,41.442226],[1.608513,41.442227],[1.60848,41.442228],[1.6084,41.442229],[1.608306,41.442233],[1.608213,41.442238],[1.608153,41.442243],[1.608093,41.442253],[1.608054,41.442264],[1.60802,41.442277],[1.607989,41.442293],[1.60793,41.442327],[1.607881,41.442359],[1.607834,41.442393],[1.607741,41.44246],[1.607674,41.442503],[1.607651,41.442513],[1.607625,41.44252],[1.607604,41.442524],[1.607583,41.442525],[1.607569,41.442524],[1.607546,41.442519],[1.607545,41.442519],[1.607504,41.44251],[1.607473,41.442501],[1.607453,41.442482],[1.60745,41.442455],[1.607477,41.442393],[1.607627,41.4422],[1.607756,41.442077],[1.607854,41.441926],[1.607895,41.441822],[1.607877,41.441736],[1.607823,41.44161],[1.607746,41.441507],[1.607758,41.441404],[1.60779,41.441226],[1.607833,41.441179],[1.6079,41.441158],[1.607989,41.441112],[1.608107,41.440953],[1.607676,41.440812],[1.607644,41.440819],[1.607579,41.440885],[1.607456,41.441019],[1.60731,41.441168],[1.607064,41.441003],[1.606979,41.440985],[1.606557,41.440856],[1.606569,41.440904],[1.606639,41.441026],[1.606747,41.441125],[1.606793,41.441192],[1.606474,41.441284],[1.606187,41.441381],[1.606003,41.441477],[1.606151,41.44156],[1.606103,41.441628],[1.606089,41.44169],[1.605958,41.441742],[1.606344,41.442009],[1.606431,41.442065],[1.606541,41.441981],[1.606618,41.441939],[1.606687,41.441949],[1.606842,41.442094],[1.607027,41.44233],[1.607071,41.442369],[1.607153,41.44237],[1.607209,41.442413],[1.607245,41.442523],[1.607314,41.442548],[1.607365,41.442548],[1.607474,41.442577],[1.607459,41.442589]]]]}},{"type":"Feature","id":"080850_080850 AP02 APE 2","properties":{"area_id":"080850_080850 AP02 APE 2","nom":"la Fanga","codi_icgc":"080850 AP02 APE 2","categoria":"Àrees de poblament","codi_municipi":"080850","municipi":"Font-rubí","codi_comarca":"03","comarca":"Alt Penedès","provincia":"Barcelona","font":"ICGC Àrees de poblament v3r1 202602"},"geometry":{"type":"MultiPolygon","coordinates":[[[[1.679425,41.405335],[1.679773,41.405562],[1.679977,41.405388],[1.680246,41.405198],[1.68043,41.405042],[1.680509,41.405041],[1.680588,41.405035],[1.680724,41.405126],[1.681076,41.404831],[1.680774,41.404608],[1.680695,41.404617],[1.680631,41.404611],[1.680584,41.404601],[1.68055,41.404584],[1.680447,41.404495],[1.680417,41.404485],[1.680345,41.404541],[1.680237,41.404617],[1.680127,41.404694],[1.680023,41.404773],[1.679923,41.404855],[1.679778,41.404979],[1.679632,41.405102],[1.679524,41.405191],[1.679415,41.40528],[1.679389,41.405302],[1.679408,41.405319],[1.679425,41.405335]]]]}},{"type":"Feature","id":"080850_080850 AP03 APE 2","properties":{"area_id":"080850_080850 AP03 APE 2","nom":"la Font","codi_icgc":"080850 AP03 APE 2","categoria":"Àrees de poblament","codi_municipi":"080850","municipi":"Font-rubí","codi_comarca":"03","comarca":"Alt Penedès","provincia":"Barcelona","font":"ICGC Àrees de poblament v3r1 202602"},"geometry":{"type":"MultiPolygon","coordinates":[[[[1.673861,41.391035],[1.673868,41.390963],[1.673857,41.390964],[1.673831,41.390969],[1.673793,41.390975],[1.673751,41.390981],[1.673541,41.391014],[1.673259,41.391058],[1.673154,41.391075],[1.67252,41.391174],[1.672508,41.391176],[1.672769,41.391276],[1.672861,41.39142],[1.673058,41.391497],[1.67278,41.391873],[1.673375,41.392052],[1.673454,41.39211],[1.673511,41.392121],[1.673596,41.392126],[1.673864,41.392039],[1.673947,41.39194],[1.674163,41.391821],[1.67423,41.391765],[1.674227,41.391693],[1.6742,41.391618],[1.674019,41.391408],[1.673992,41.391337],[1.673974,41.391279],[1.673928,41.391218],[1.673892,41.391142],[1.673869,41.391088],[1.673861,41.391035]]],[[[1.670423,41.392275],[1.670447,41.392158],[1.670467,41.392092],[1.670485,41.391982],[1.670477,41.391927],[1.6709,41.391656],[1.671013,41.391552],[1.670702,41.391436],[1.670591,41.391483],[1.67052,41.391516],[1.670458,41.391539],[1.670361,41.391577],[1.670333,41.391605],[1.670303,41.391626],[1.670271,41.391643],[1.670108,41.391691],[1.669916,41.39175],[1.669753,41.391798],[1.669442,41.391882],[1.669256,41.391922],[1.669192,41.39196],[1.66921,41.391982],[1.669225,41.392039],[1.669236,41.392125],[1.669243,41.39222],[1.669411,41.392203],[1.669589,41.392186],[1.669738,41.392176],[1.66988,41.392175],[1.669966,41.392174],[1.67001,41.392189],[1.670238,41.392623],[1.670467,41.392556],[1.670452,41.39252],[1.670428,41.392461],[1.67042,41.392415],[1.670411,41.392351],[1.670423,41.392275]]],[[[1.666965,41.393463],[1.66695,41.393457],[1.666809,41.393642],[1.666686,41.393795],[1.666488,41.394014],[1.666292,41.394227],[1.666309,41.394234],[1.66723,41.394402],[1.667343,41.394291],[1.667305,41.394164],[1.667068,41.393954],[1.66693,41.393891],[1.667153,41.393528],[1.666965,41.393463]]]]}},{"type":"Feature","id":"080850_080850 AP13 APE 1","properties":{"area_id":"080850_080850 AP13 APE 1","nom":"la Maçana","codi_icgc":"080850 AP13 APE 1","categoria":"Àrees de poblament","codi_municipi":"080850","municipi":"Font-rubí","codi_comarca":"03","comarca":"Alt Penedès","provincia":"Barcelona","font":"ICGC Àrees de poblament v3r1 202602"},"geometry":{"type":"MultiPolygon","coordinates":[[[[1.637954,41.414037],[1.638427,41.413185],[1.638282,41.413154],[1.638125,41.413114],[1.638011,41.413084],[1.637919,41.412969],[1.637739,41.41311],[1.637518,41.413365],[1.637335,41.413663],[1.637338,41.413787],[1.637387,41.413868],[1.637531,41.41397],[1.637669,41.414024],[1.637954,41.414037]]]]}},{"type":"Feature","id":"080850_080850 AP18 APE 2","properties":{"area_id":"080850_080850 AP18 APE 2","nom":"la Rubiola","codi_icgc":"080850 AP18 APE 2","categoria":"Àrees de poblament","codi_municipi":"080850","municipi":"Font-rubí","codi_comarca":"03","comarca":"Alt Penedès","provincia":"Barcelona","font":"ICGC Àrees de poblament v3r1 202602"},"geometry":{"type":"MultiPolygon","coordinates":[[[[1.630658,41.439042],[1.630748,41.438855],[1.630705,41.438821],[1.630795,41.438636],[1.630588,41.438647],[1.630588,41.438647],[1.630652,41.438598],[1.630771,41.438506],[1.630785,41.438495],[1.631059,41.438283],[1.631261,41.43814],[1.631327,41.438107],[1.631559,41.438042],[1.631622,41.438026],[1.63186,41.43793],[1.631886,41.437917],[1.6319,41.437917],[1.631903,41.437914],[1.63195,41.43782],[1.631982,41.437799],[1.632004,41.437784],[1.632002,41.437778],[1.631995,41.437756],[1.63197,41.437689],[1.631941,41.437623],[1.631899,41.437525],[1.631885,41.437494],[1.631859,41.437498],[1.631852,41.437499],[1.63176,41.437514],[1.631565,41.437546],[1.631561,41.437467],[1.631554,41.437334],[1.631551,41.437251],[1.63137,41.437223],[1.631339,41.437413],[1.631315,41.437409],[1.631278,41.437401],[1.630828,41.437315],[1.630755,41.437301],[1.630731,41.437356],[1.630636,41.437573],[1.630634,41.437577],[1.63061,41.437613],[1.630447,41.437849],[1.630339,41.437986],[1.630278,41.438063],[1.630195,41.43817],[1.630184,41.438173],[1.630173,41.438176],[1.630129,41.438191],[1.63007,41.43821],[1.630012,41.438233],[1.62998,41.438256],[1.629952,41.438279],[1.629932,41.438296],[1.629914,41.438314],[1.629898,41.438336],[1.629896,41.438339],[1.629898,41.438346],[1.629883,41.438358],[1.629726,41.438267],[1.629351,41.438145],[1.629304,41.438261],[1.629309,41.438373],[1.629331,41.438512],[1.629506,41.438543],[1.629602,41.438734],[1.62987,41.438808],[1.629926,41.438788],[1.629938,41.43876],[1.630038,41.438541],[1.630083,41.438441],[1.630459,41.438672],[1.630415,41.43872],[1.63041,41.438726],[1.63018,41.438894],[1.630195,41.438911],[1.630218,41.438938],[1.630267,41.438993],[1.630276,41.439003],[1.630287,41.439017],[1.630349,41.439034],[1.630431,41.439028],[1.630506,41.439033],[1.630609,41.439039],[1.630658,41.439042]]]]}},{"type":"Feature","id":"080850_080850 AP10 APE 3","properties":{"area_id":"080850_080850 AP10 APE 3","nom":"les Cases Noves","codi_icgc":"080850 AP10 APE 3","categoria":"Àrees de poblament","codi_municipi":"080850","municipi":"Font-rubí","codi_comarca":"03","comarca":"Alt Penedès","provincia":"Barcelona","font":"ICGC Àrees de poblament v3r1 202602"},"geometry":{"type":"MultiPolygon","coordinates":[[[[1.687169,41.407232],[1.68718,41.407242],[1.687191,41.407377],[1.686647,41.407743],[1.686387,41.407911],[1.686142,41.408048],[1.685922,41.408138],[1.685663,41.40825],[1.685843,41.408513],[1.686058,41.408479],[1.686393,41.408333],[1.686408,41.408276],[1.68633,41.408175],[1.686288,41.408125],[1.686277,41.408014],[1.686938,41.407595],[1.687113,41.407734],[1.687227,41.407795],[1.687361,41.407818],[1.687472,41.407822],[1.687524,41.407799],[1.687565,41.407722],[1.687574,41.407659],[1.687495,41.407619],[1.687315,41.407531],[1.687257,41.407474],[1.687231,41.407414],[1.68764,41.407135],[1.687712,41.407091],[1.687937,41.406956],[1.688068,41.406878],[1.688172,41.406817],[1.688233,41.406777],[1.688367,41.406699],[1.688501,41.406619],[1.688635,41.406539],[1.688619,41.406519],[1.688609,41.406506],[1.688572,41.406514],[1.688531,41.406521],[1.688492,41.406521],[1.688424,41.406515],[1.688377,41.406516],[1.688338,41.406522],[1.688303,41.406533],[1.688257,41.406552],[1.688235,41.406531],[1.688235,41.406531],[1.688063,41.406357],[1.687883,41.406457],[1.687747,41.406532],[1.687208,41.406807],[1.686952,41.406994],[1.686958,41.407001],[1.687169,41.407232]]]]}},{"type":"Feature","id":"080850_080850 AP08 APE 3","properties":{"area_id":"080850_080850 AP08 APE 3","nom":"les Casetes d'en Raspall","codi_icgc":"080850 AP08 APE 3","categoria":"Àrees de poblament","codi_municipi":"080850","municipi":"Font-rubí","codi_comarca":"03","comarca":"Alt Penedès","provincia":"Barcelona","font":"ICGC Àrees de poblament v3r1 202602"},"geometry":{"type":"MultiPolygon","coordinates":[[[[1.677429,41.429956],[1.677842,41.429498],[1.677862,41.429479],[1.67814,41.429166],[1.678363,41.428934],[1.678592,41.428697],[1.678846,41.428305],[1.678781,41.428254],[1.678562,41.428223],[1.678408,41.4282],[1.678367,41.428203],[1.678332,41.428207],[1.678321,41.428208],[1.678276,41.428215],[1.678223,41.428232],[1.678172,41.428253],[1.678113,41.428284],[1.678054,41.428316],[1.677999,41.428337],[1.677982,41.428343],[1.677939,41.428353],[1.677895,41.428363],[1.677858,41.428373],[1.677822,41.428384],[1.677787,41.428397],[1.677753,41.428411],[1.677676,41.428444],[1.6776,41.428478],[1.677554,41.4285],[1.67751,41.428524],[1.677485,41.428539],[1.677463,41.428556],[1.677449,41.428571],[1.677435,41.428586],[1.677422,41.428591],[1.677399,41.428607],[1.677391,41.428616],[1.677381,41.428627],[1.677376,41.428633],[1.677116,41.428936],[1.677085,41.42892],[1.676889,41.429187],[1.676888,41.429189],[1.676765,41.429357],[1.676727,41.429409],[1.676696,41.429406],[1.676657,41.429402],[1.676654,41.429404],[1.676594,41.429439],[1.676512,41.429406],[1.676426,41.429366],[1.676332,41.429339],[1.676163,41.429262],[1.676113,41.429243],[1.676083,41.42923],[1.675983,41.429192],[1.675976,41.429161],[1.675982,41.429145],[1.675991,41.429123],[1.675985,41.429119],[1.675996,41.42911],[1.676033,41.429012],[1.676084,41.428895],[1.676119,41.428814],[1.676137,41.428773],[1.675832,41.428663],[1.675801,41.428661],[1.675687,41.428653],[1.675581,41.428612],[1.675434,41.428825],[1.675423,41.42882],[1.675388,41.428894],[1.67532,41.428906],[1.675288,41.428902],[1.675263,41.428902],[1.675239,41.428903],[1.675213,41.428909],[1.675192,41.428922],[1.675167,41.428946],[1.675142,41.428969],[1.6751,41.429013],[1.675051,41.429052],[1.675038,41.42905],[1.675024,41.429048],[1.675012,41.429043],[1.674999,41.429037],[1.674985,41.429036],[1.674971,41.429037],[1.674937,41.429043],[1.674904,41.429053],[1.674731,41.429148],[1.674645,41.429189],[1.674638,41.429193],[1.674597,41.429213],[1.67455,41.429238],[1.674538,41.429246],[1.674531,41.429257],[1.67453,41.429265],[1.674531,41.429274],[1.674534,41.429299],[1.67454,41.429324],[1.674544,41.429331],[1.674552,41.429336],[1.674565,41.429339],[1.674578,41.42934],[1.674602,41.429341],[1.674611,41.429363],[1.674638,41.429423],[1.674679,41.429436],[1.674679,41.429444],[1.674684,41.429459],[1.674693,41.429474],[1.674706,41.429486],[1.674721,41.429496],[1.674746,41.429507],[1.674773,41.429517],[1.67485,41.42954],[1.674929,41.42956],[1.675,41.429576],[1.675017,41.429578],[1.675018,41.429579],[1.675019,41.429579],[1.675043,41.429582],[1.675086,41.429588],[1.675121,41.429592],[1.675174,41.429594],[1.675227,41.429596],[1.6753,41.429601],[1.675391,41.429616],[1.675578,41.429644],[1.675801,41.42972],[1.676269,41.429952],[1.676235,41.429994],[1.676213,41.43002],[1.676065,41.430202],[1.676274,41.430297],[1.676901,41.430579],[1.677035,41.430395],[1.677051,41.430373],[1.677088,41.430322],[1.677188,41.430185],[1.677303,41.430076],[1.677429,41.429956]]]]}}]}