{"type":"FeatureCollection","name":"ICGC Àrees de poblament - Gavà","features":[{"type":"Feature","id":"080898_080898 SI10 BLL 2","properties":{"area_id":"080898_080898 SI10 BLL 2","nom":"Biogás Garraf","codi_icgc":"080898 SI10 BLL 2","categoria":"Sector industrial","codi_municipi":"080898","municipi":"Gavà","codi_comarca":"11","comarca":"Baix Llobregat","provincia":"Barcelona","font":"ICGC Àrees de poblament v3r1 202602"},"geometry":{"type":"MultiPolygon","coordinates":[[[[1.940131,41.294025],[1.940508,41.294168],[1.940558,41.294218],[1.940586,41.294238],[1.940998,41.29438],[1.941073,41.294385],[1.941114,41.294383],[1.941337,41.294297],[1.941967,41.294378],[1.942025,41.294232],[1.942107,41.294244],[1.942156,41.294252],[1.942156,41.294252],[1.942156,41.294252],[1.942156,41.294252],[1.942374,41.294285],[1.942679,41.294339],[1.942984,41.294395],[1.943295,41.294449],[1.943607,41.2945],[1.943714,41.294517],[1.943823,41.294533],[1.943917,41.294541],[1.944023,41.294552],[1.944062,41.294562],[1.944076,41.294566],[1.944086,41.294575],[1.94409,41.294587],[1.944086,41.294599],[1.94408,41.294613],[1.944069,41.294624],[1.944041,41.29464],[1.944012,41.294656],[1.943975,41.294677],[1.943938,41.294698],[1.94391,41.294717],[1.943885,41.294738],[1.943851,41.294767],[1.943823,41.294798],[1.943802,41.294832],[1.943783,41.294867],[1.943777,41.294879],[1.943731,41.294972],[1.943553,41.29493],[1.943554,41.294904],[1.943565,41.294818],[1.943524,41.29478],[1.943474,41.294772],[1.943329,41.294747],[1.94302,41.294713],[1.942662,41.29471],[1.942605,41.294867],[1.942598,41.294885],[1.942761,41.294907],[1.942835,41.294917],[1.942968,41.294934],[1.943047,41.294945],[1.943145,41.294958],[1.943152,41.294959],[1.943231,41.294969],[1.943264,41.294981],[1.943294,41.294997],[1.943321,41.295016],[1.943343,41.295038],[1.94336,41.295062],[1.943372,41.295089],[1.943377,41.295116],[1.943377,41.295144],[1.943371,41.295171],[1.943359,41.295197],[1.943358,41.295207],[1.943069,41.295255],[1.943098,41.295382],[1.943469,41.295356],[1.943526,41.295381],[1.943576,41.295407],[1.943596,41.295466],[1.9436,41.295479],[1.943607,41.295513],[1.943624,41.295559],[1.943649,41.295603],[1.943683,41.295644],[1.943725,41.29568],[1.943773,41.295712],[1.943826,41.295738],[1.943885,41.295757],[1.943946,41.29577],[1.944009,41.295776],[1.944073,41.295775],[1.944135,41.295767],[1.944196,41.295752],[1.944253,41.29573],[1.944305,41.295703],[1.944351,41.295669],[1.94439,41.295632],[1.944422,41.29559],[1.944494,41.295222],[1.944494,41.295215],[1.944495,41.295215],[1.944499,41.295185],[1.944505,41.295101],[1.944501,41.295018],[1.944492,41.294945],[1.944488,41.294909],[1.944475,41.294801],[1.944463,41.294645],[1.944461,41.294643],[1.944459,41.29461],[1.944366,41.294206],[1.944387,41.294078],[1.944453,41.294014],[1.944477,41.29399],[1.944519,41.293967],[1.944622,41.293929],[1.944673,41.293911],[1.944714,41.293904],[1.944755,41.293898],[1.944748,41.293834],[1.944746,41.293825],[1.944745,41.293822],[1.944727,41.293756],[1.944701,41.293724],[1.944665,41.293697],[1.9446,41.293668],[1.944512,41.293647],[1.944356,41.293648],[1.944219,41.29365],[1.944157,41.293651],[1.944097,41.293666],[1.944036,41.293681],[1.943831,41.293781],[1.943663,41.293862],[1.943532,41.29391],[1.943361,41.293942],[1.94311,41.293987],[1.943062,41.293997],[1.942739,41.293958],[1.942739,41.293958],[1.942408,41.293937],[1.942,41.293924],[1.941998,41.29379],[1.941895,41.293785],[1.941802,41.29378],[1.941816,41.293637],[1.941788,41.293611],[1.941719,41.293581],[1.941665,41.293569],[1.94153,41.293551],[1.941401,41.293612],[1.941227,41.293694],[1.941084,41.29373],[1.941002,41.293744],[1.940881,41.293774],[1.940794,41.293829],[1.940745,41.293897],[1.940653,41.293856],[1.940556,41.293814],[1.940553,41.293812],[1.940489,41.29379],[1.940452,41.293777],[1.940407,41.293767],[1.940338,41.293755],[1.940233,41.29374],[1.940131,41.294025]]]]}},{"type":"Feature","id":"080898_080898 AP02 BLL 2","properties":{"area_id":"080898_080898 AP02 BLL 2","nom":"Bruguers","codi_icgc":"080898 AP02 BLL 2","categoria":"Àrees de poblament","codi_municipi":"080898","municipi":"Gavà","codi_comarca":"11","comarca":"Baix Llobregat","provincia":"Barcelona","font":"ICGC Àrees de poblament v3r1 202602"},"geometry":{"type":"MultiPolygon","coordinates":[[[[1.961745,41.316853],[1.961742,41.31676],[1.961601,41.316598],[1.961292,41.316763],[1.961109,41.316625],[1.960959,41.316513],[1.960846,41.31643],[1.960767,41.316372],[1.96074,41.316264],[1.96069,41.316146],[1.96063,41.316052],[1.96054,41.315987],[1.960371,41.315896],[1.960197,41.315841],[1.96006,41.315783],[1.959862,41.315709],[1.95972,41.315726],[1.959591,41.315736],[1.959439,41.315766],[1.959339,41.31578],[1.959249,41.315768],[1.959083,41.315792],[1.95911,41.315892],[1.959209,41.315922],[1.959251,41.315997],[1.959302,41.316055],[1.959329,41.316152],[1.959285,41.316237],[1.959216,41.316379],[1.959464,41.316596],[1.959726,41.316802],[1.959848,41.316889],[1.959915,41.316883],[1.959986,41.316858],[1.960053,41.316816],[1.960068,41.31678],[1.960026,41.316758],[1.960033,41.316608],[1.960114,41.316559],[1.960246,41.316607],[1.960575,41.316799],[1.960682,41.31665],[1.96084,41.31653],[1.961019,41.316628],[1.961239,41.316787],[1.961318,41.316902],[1.961374,41.316935],[1.961492,41.316975],[1.961745,41.316853]]],[[[1.969505,41.317079],[1.96976,41.316968],[1.970019,41.31683],[1.970135,41.316748],[1.970104,41.316679],[1.970054,41.316637],[1.969976,41.316559],[1.969645,41.316526],[1.969323,41.316515],[1.96919,41.316516],[1.969049,41.316482],[1.968903,41.31643],[1.96886,41.3164],[1.968983,41.316156],[1.969011,41.316094],[1.968897,41.316054],[1.968847,41.316012],[1.968769,41.315907],[1.968727,41.315844],[1.968664,41.31579],[1.968594,41.315751],[1.96854,41.315661],[1.969085,41.315678],[1.969135,41.315499],[1.96906,41.315487],[1.968902,41.315488],[1.968586,41.315468],[1.968552,41.315423],[1.968569,41.315316],[1.968548,41.315174],[1.968525,41.315108],[1.968451,41.31506],[1.968361,41.314984],[1.968344,41.314788],[1.968308,41.314558],[1.967503,41.314494],[1.967417,41.314223],[1.967395,41.314107],[1.967818,41.314051],[1.967823,41.314015],[1.967832,41.313962],[1.967833,41.313914],[1.967818,41.313834],[1.967748,41.31377],[1.967412,41.313767],[1.967226,41.313769],[1.966973,41.313787],[1.966732,41.313806],[1.966569,41.313882],[1.966409,41.313976],[1.966235,41.314105],[1.965965,41.314181],[1.965861,41.314259],[1.965622,41.314406],[1.965402,41.314541],[1.965287,41.314611],[1.965188,41.314631],[1.965053,41.314645],[1.964919,41.314635],[1.964777,41.31461],[1.964639,41.314594],[1.96443,41.314595],[1.964176,41.314634],[1.963903,41.314694],[1.963602,41.314736],[1.963412,41.314758],[1.96325,41.314751],[1.963002,41.314698],[1.962972,41.314608],[1.962922,41.314542],[1.962835,41.314512],[1.962257,41.314388],[1.962262,41.314322],[1.962061,41.314276],[1.96188,41.314229],[1.961746,41.314198],[1.961585,41.314125],[1.961421,41.314028],[1.961338,41.314001],[1.961176,41.314011],[1.960966,41.31403],[1.960851,41.314077],[1.960853,41.314178],[1.960906,41.314307],[1.960977,41.314373],[1.961038,41.314499],[1.961016,41.31465],[1.960986,41.314772],[1.961027,41.314836],[1.961254,41.314819],[1.961387,41.31482],[1.961397,41.314973],[1.961446,41.315097],[1.961597,41.31517],[1.961779,41.31521],[1.961929,41.315311],[1.961865,41.315387],[1.961839,41.315439],[1.961838,41.315491],[1.961938,41.315564],[1.962078,41.315588],[1.962389,41.315438],[1.962513,41.315361],[1.96261,41.315452],[1.962704,41.315509],[1.962806,41.315558],[1.962869,41.315567],[1.962933,41.315565],[1.962992,41.315544],[1.963092,41.31548],[1.963195,41.315445],[1.963275,41.315371],[1.963367,41.315339],[1.96351,41.315305],[1.963676,41.315285],[1.963787,41.315266],[1.9639,41.315356],[1.96404,41.315464],[1.964205,41.315546],[1.964334,41.315619],[1.964385,41.315679],[1.964414,41.315828],[1.96444,41.315936],[1.964525,41.316053],[1.964704,41.316224],[1.964849,41.316327],[1.965008,41.316489],[1.965233,41.316732],[1.965319,41.316817],[1.96539,41.316841],[1.965441,41.316844],[1.965508,41.316839],[1.965588,41.316792],[1.965673,41.316677],[1.965712,41.316477],[1.965677,41.3164],[1.965693,41.316138],[1.965793,41.316061],[1.965941,41.315988],[1.966295,41.315845],[1.966402,41.315816],[1.966524,41.315817],[1.966733,41.315882],[1.966957,41.315958],[1.967205,41.315984],[1.967485,41.316011],[1.967694,41.316045],[1.968038,41.316161],[1.968271,41.316248],[1.968148,41.316433],[1.968059,41.316619],[1.968037,41.316717],[1.968039,41.316827],[1.968109,41.31692],[1.968081,41.316974],[1.968084,41.317012],[1.96815,41.317055],[1.968202,41.317055],[1.968384,41.317048],[1.968755,41.317072],[1.968999,41.317095],[1.969335,41.317113],[1.969505,41.317079]]]]}},{"type":"Feature","id":"080898_080898 SI11 BLL 2","properties":{"area_id":"080898_080898 SI11 BLL 2","nom":"Butsir SA","codi_icgc":"080898 SI11 BLL 2","categoria":"Sector industrial","codi_municipi":"080898","municipi":"Gavà","codi_comarca":"11","comarca":"Baix Llobregat","provincia":"Barcelona","font":"ICGC Àrees de poblament v3r1 202602"},"geometry":{"type":"MultiPolygon","coordinates":[[[[2.020639,41.2784],[2.020818,41.279201],[2.021573,41.279061],[2.021572,41.279051],[2.021307,41.277993],[2.020567,41.278077],[2.020459,41.2781],[2.020506,41.278164],[2.020558,41.278403],[2.020639,41.2784]]]]}},{"type":"Feature","id":"080898_080898 AP03 BLL 2","properties":{"area_id":"080898_080898 AP03 BLL 2","nom":"Ca n'Espinós","codi_icgc":"080898 AP03 BLL 2","categoria":"Àrees de poblament","codi_municipi":"080898","municipi":"Gavà","codi_comarca":"11","comarca":"Baix Llobregat","provincia":"Barcelona","font":"ICGC Àrees de poblament v3r1 202602"},"geometry":{"type":"MultiPolygon","coordinates":[[[[1.97697,41.307665],[1.977013,41.307701],[1.977186,41.307823],[1.977427,41.308026],[1.977474,41.308069],[1.977558,41.308016],[1.977646,41.30796],[1.977682,41.307927],[1.977722,41.307889],[1.977757,41.307895],[1.977817,41.307896],[1.977945,41.307775],[1.978164,41.307643],[1.978372,41.307487],[1.97854,41.30736],[1.978609,41.307281],[1.978592,41.307114],[1.978438,41.306838],[1.97854,41.306863],[1.978627,41.306879],[1.978687,41.306825],[1.978708,41.306745],[1.978709,41.306659],[1.978675,41.306575],[1.978598,41.306428],[1.978627,41.306348],[1.978899,41.306413],[1.979115,41.306466],[1.979091,41.306507],[1.979356,41.306525],[1.979365,41.306423],[1.979376,41.306239],[1.979374,41.306114],[1.979712,41.305944],[1.979947,41.305836],[1.980146,41.305733],[1.980258,41.305666],[1.980239,41.305612],[1.980223,41.30553],[1.980189,41.30552],[1.980035,41.305489],[1.979827,41.305443],[1.979934,41.305175],[1.979855,41.305151],[1.979765,41.305111],[1.979675,41.305063],[1.97962,41.304997],[1.979609,41.304943],[1.979602,41.304878],[1.979632,41.304768],[1.97966,41.304729],[1.979727,41.304718],[1.979826,41.304713],[1.979977,41.304702],[1.980068,41.304685],[1.980139,41.30465],[1.98016,41.304596],[1.980153,41.304546],[1.980102,41.30448],[1.980013,41.304402],[1.979946,41.304368],[1.979903,41.304344],[1.97986,41.304344],[1.979808,41.304364],[1.979787,41.304417],[1.979492,41.304468],[1.979352,41.3045],[1.979207,41.304518],[1.979106,41.304493],[1.978704,41.304351],[1.978352,41.304215],[1.977912,41.304058],[1.977503,41.303892],[1.977296,41.303843],[1.976792,41.303734],[1.976786,41.303695],[1.976591,41.303656],[1.976576,41.30376],[1.976446,41.304007],[1.976365,41.30433],[1.976364,41.304416],[1.976455,41.304617],[1.976706,41.305177],[1.976629,41.305219],[1.97659,41.305286],[1.976538,41.3054],[1.976505,41.305517],[1.976352,41.305587],[1.976212,41.305609],[1.97608,41.305608],[1.975946,41.30564],[1.975743,41.305705],[1.97565,41.305609],[1.975478,41.305674],[1.975142,41.305748],[1.974983,41.305794],[1.974913,41.305846],[1.974842,41.305926],[1.974892,41.305993],[1.975005,41.306023],[1.975113,41.305971],[1.975215,41.305939],[1.97529,41.305962],[1.975334,41.306015],[1.975588,41.306313],[1.975874,41.306625],[1.976141,41.306914],[1.976404,41.307083],[1.976541,41.307213],[1.97697,41.307665]]]]}},{"type":"Feature","id":"080898_080898 SI08 BLL 2","properties":{"area_id":"080898_080898 SI08 BLL 2","nom":"Compañia Roca Radiadores, SA","codi_icgc":"080898 SI08 BLL 2","categoria":"Sector industrial","codi_municipi":"080898","municipi":"Gavà","codi_comarca":"11","comarca":"Baix Llobregat","provincia":"Barcelona","font":"ICGC Àrees de poblament v3r1 202602"},"geometry":{"type":"MultiPolygon","coordinates":[[[[2.009776,41.304621],[2.009839,41.304679],[2.010399,41.30524],[2.010432,41.305271],[2.010703,41.305543],[2.010752,41.305569],[2.010808,41.305586],[2.01083,41.305586],[2.010871,41.305586],[2.011292,41.305465],[2.011492,41.305405],[2.011773,41.305372],[2.011835,41.305368],[2.011944,41.305362],[2.012171,41.305328],[2.012468,41.30531],[2.012606,41.3053],[2.012725,41.305269],[2.012758,41.305259],[2.012782,41.305237],[2.013182,41.304844],[2.013222,41.3048],[2.013317,41.30468],[2.013317,41.30468],[2.013313,41.304679],[2.013054,41.304613],[2.012985,41.304589],[2.012847,41.304537],[2.012543,41.304425],[2.012239,41.304313],[2.012151,41.304283],[2.012063,41.304253],[2.012022,41.304236],[2.011983,41.304217],[2.011706,41.304075],[2.011428,41.303932],[2.011249,41.303841],[2.010941,41.303685],[2.010814,41.303663],[2.010653,41.30358],[2.010522,41.30351],[2.010519,41.303512],[2.010406,41.303584],[2.010336,41.303594],[2.009669,41.304042],[2.009669,41.304043],[2.009917,41.304286],[2.009974,41.304336],[2.010024,41.304381],[2.010076,41.304446],[2.009776,41.304621]]]]}},{"type":"Feature","id":"080898_080898 AP01 BLL 3","properties":{"area_id":"080898_080898 AP01 BLL 3","nom":"Gavà","codi_icgc":"080898 AP01 BLL 3","categoria":"Àrees de poblament","codi_municipi":"080898","municipi":"Gavà","codi_comarca":"11","comarca":"Baix Llobregat","provincia":"Barcelona","font":"ICGC Àrees de poblament v3r1 202602"},"geometry":{"type":"MultiPolygon","coordinates":[[[[1.990059,41.313624],[1.990342,41.313462],[1.990616,41.313331],[1.990664,41.313296],[1.991053,41.313112],[1.99125,41.313],[1.991806,41.312851],[1.992001,41.312753],[1.992036,41.312735],[1.992171,41.312676],[1.992309,41.312623],[1.992451,41.312574],[1.992595,41.312531],[1.992646,41.312518],[1.992742,41.312494],[1.993393,41.312334],[1.993621,41.312279],[1.994204,41.312198],[1.99475,41.312128],[1.994941,41.312096],[1.995075,41.312094],[1.995206,41.312083],[1.995451,41.312059],[1.995536,41.312044],[1.996329,41.311946],[1.997132,41.311842],[1.997944,41.311745],[1.999254,41.311581],[2.000223,41.311458],[2.00113,41.311351],[2.001591,41.311291],[2.001726,41.311314],[2.001864,41.311382],[2.002192,41.311385],[2.002421,41.311339],[2.002713,41.311237],[2.003034,41.310925],[2.003358,41.310654],[2.004332,41.309535],[2.005362,41.308314],[2.006006,41.307538],[2.006224,41.307301],[2.006833,41.306836],[2.006878,41.306796],[2.007114,41.306656],[2.007607,41.30635],[2.007835,41.306314],[2.008555,41.30634],[2.011548,41.306504],[2.011555,41.306508],[2.011877,41.306324],[2.01203,41.306233],[2.012265,41.306025],[2.012276,41.306016],[2.012379,41.305892],[2.012376,41.305891],[2.012351,41.305879],[2.012477,41.305724],[2.012384,41.305686],[2.012569,41.305471],[2.012598,41.305419],[2.012613,41.305413],[2.012542,41.305381],[2.01237,41.305382],[2.012249,41.305369],[2.012206,41.30538],[2.012038,41.305378],[2.012003,41.305394],[2.011962,41.305442],[2.011609,41.305461],[2.011315,41.305541],[2.011002,41.305665],[2.010751,41.30578],[2.010711,41.305798],[2.010549,41.305642],[2.010252,41.305345],[2.009995,41.305099],[2.009826,41.304918],[2.009565,41.304694],[2.009764,41.304544],[2.009975,41.304355],[2.00954,41.303937],[2.009539,41.303915],[2.010188,41.303475],[2.010238,41.303462],[2.010476,41.303464],[2.01072,41.303543],[2.010742,41.303525],[2.010803,41.303546],[2.010841,41.303525],[2.011016,41.303607],[2.011112,41.303543],[2.010782,41.303384],[2.010207,41.303081],[2.009348,41.302616],[2.008738,41.302193],[2.007445,41.3013],[2.006818,41.300822],[2.005966,41.300144],[2.005014,41.299402],[2.004089,41.298639],[2.0037,41.298317],[2.003345,41.298499],[2.003328,41.298485],[2.003279,41.298445],[2.003091,41.298289],[2.002825,41.297996],[2.002623,41.297801],[2.002361,41.297577],[2.001973,41.297297],[2.001624,41.297568],[2.001977,41.29784],[2.002055,41.29791],[2.002393,41.298297],[2.002353,41.298318],[2.002078,41.298233],[2.002001,41.298227],[2.001991,41.298219],[2.001879,41.298234],[2.001686,41.298142],[2.00171,41.298089],[2.001624,41.298048],[2.001637,41.298016],[2.001597,41.297997],[2.001603,41.297888],[2.001605,41.29784],[2.001545,41.297823],[2.001517,41.297792],[2.001542,41.297779],[2.001574,41.297712],[2.001411,41.297732],[2.001246,41.297749],[2.001038,41.297776],[2.000848,41.297807],[2.000759,41.297804],[2.000684,41.297799],[2.000633,41.297814],[2.000505,41.297907],[2.000444,41.297944],[2.000363,41.297949],[2.000251,41.29796],[2.000147,41.29798],[1.999966,41.298061],[1.999869,41.298087],[1.999665,41.298192],[1.999582,41.298237],[1.999516,41.298261],[1.999468,41.298266],[1.999379,41.298276],[1.99931,41.298285],[1.99922,41.298307],[1.999089,41.298413],[1.999004,41.298456],[1.998873,41.298466],[1.998753,41.298454],[1.998669,41.298447],[1.99855,41.298452],[1.998499,41.298466],[1.99838,41.298501],[1.998202,41.298535],[1.998007,41.298575],[1.997864,41.298633],[1.997776,41.298731],[1.99761,41.298917],[1.997556,41.299027],[1.997326,41.299182],[1.99709,41.299299],[1.996804,41.299406],[1.996163,41.299601],[1.996324,41.300226],[1.996408,41.300547],[1.996429,41.300799],[1.996386,41.301137],[1.996354,41.301244],[1.996272,41.301223],[1.996096,41.301188],[1.995793,41.301157],[1.995708,41.301342],[1.995413,41.301616],[1.995414,41.301926],[1.995243,41.302414],[1.994783,41.302318],[1.994567,41.30228],[1.994519,41.302277],[1.994118,41.302251],[1.993875,41.302152],[1.993546,41.302109],[1.993522,41.302106],[1.99321,41.302065],[1.992879,41.302062],[1.99262,41.302026],[1.992476,41.302006],[1.991955,41.301987],[1.99171,41.301869],[1.991579,41.301806],[1.991555,41.301792],[1.991498,41.301752],[1.991446,41.301707],[1.9914,41.301659],[1.991361,41.301608],[1.991344,41.301579],[1.99131,41.301533],[1.99127,41.30149],[1.991224,41.30145],[1.991173,41.301414],[1.991117,41.301383],[1.991114,41.301381],[1.991085,41.301369],[1.991053,41.301362],[1.991021,41.30136],[1.990988,41.301364],[1.990966,41.301369],[1.990899,41.301389],[1.990835,41.301414],[1.990775,41.301444],[1.990719,41.301478],[1.990674,41.301518],[1.990661,41.301543],[1.990643,41.301593],[1.990635,41.301644],[1.990634,41.301696],[1.990642,41.301747],[1.990656,41.301797],[1.990678,41.301846],[1.990807,41.302115],[1.990775,41.302125],[1.990877,41.302353],[1.990829,41.302434],[1.99074,41.302462],[1.990516,41.302603],[1.990312,41.302725],[1.990153,41.302809],[1.990025,41.302923],[1.989921,41.30306],[1.989894,41.303169],[1.989918,41.30326],[1.990063,41.303338],[1.99022,41.303363],[1.990429,41.303365],[1.990638,41.303333],[1.990859,41.303321],[1.991163,41.303309],[1.991422,41.303271],[1.991579,41.303463],[1.991573,41.303465],[1.991573,41.303472],[1.991568,41.303478],[1.991565,41.30348],[1.991469,41.303507],[1.991364,41.303533],[1.991307,41.303546],[1.991254,41.303557],[1.991131,41.303584],[1.991019,41.303608],[1.99091,41.303627],[1.990801,41.303642],[1.990706,41.303653],[1.990613,41.303664],[1.990541,41.303675],[1.99047,41.303689],[1.990394,41.303705],[1.99032,41.303723],[1.990246,41.303743],[1.990175,41.303767],[1.990125,41.303787],[1.990066,41.303813],[1.98997,41.303858],[1.989909,41.303885],[1.9898,41.303936],[1.989757,41.303956],[1.989711,41.303978],[1.989577,41.30404],[1.989584,41.304074],[1.98962,41.304216],[1.989661,41.304357],[1.989705,41.304484],[1.989754,41.304611],[1.989803,41.304722],[1.989832,41.304777],[1.989866,41.304832],[1.989901,41.304879],[1.989957,41.304948],[1.990021,41.305013],[1.990113,41.305098],[1.990196,41.305181],[1.990213,41.305201],[1.990227,41.305212],[1.990227,41.30522],[1.990245,41.305251],[1.990262,41.305286],[1.990267,41.305302],[1.990267,41.305317],[1.990261,41.305336],[1.990247,41.305351],[1.990232,41.30536],[1.990233,41.305423],[1.990297,41.305439],[1.990351,41.305454],[1.990412,41.305471],[1.99046,41.305484],[1.990497,41.305494],[1.990514,41.3055],[1.990526,41.305506],[1.990541,41.305519],[1.990553,41.305533],[1.99056,41.305543],[1.990565,41.305553],[1.990573,41.30557],[1.990614,41.305673],[1.990655,41.305782],[1.990673,41.305838],[1.990687,41.305893],[1.990693,41.305918],[1.990704,41.305974],[1.99071,41.306001],[1.990727,41.306097],[1.99074,41.306193],[1.99075,41.306306],[1.99075,41.306419],[1.990741,41.306561],[1.99073,41.306702],[1.990707,41.306891],[1.990695,41.306985],[1.990687,41.307081],[1.990673,41.307212],[1.99066,41.307287],[1.990648,41.307347],[1.990631,41.307397],[1.990607,41.307445],[1.990576,41.307491],[1.990538,41.307534],[1.990494,41.307573],[1.990444,41.307609],[1.99039,41.30764],[1.990367,41.307651],[1.990353,41.307676],[1.99034,41.307709],[1.990332,41.307742],[1.99033,41.307776],[1.990334,41.30781],[1.990343,41.307844],[1.990358,41.307876],[1.990378,41.307907],[1.990403,41.307935],[1.990432,41.307961],[1.990466,41.307984],[1.990503,41.308003],[1.990526,41.308012],[1.990454,41.30799],[1.990374,41.30796],[1.990297,41.307924],[1.990271,41.307915],[1.990219,41.307903],[1.990165,41.307897],[1.990111,41.307896],[1.990057,41.307901],[1.990004,41.307912],[1.989538,41.308046],[1.989368,41.308092],[1.989232,41.308123],[1.989192,41.308122],[1.989153,41.308121],[1.989114,41.308117],[1.989078,41.308104],[1.989053,41.308092],[1.989027,41.30808],[1.988796,41.308152],[1.988741,41.308159],[1.988686,41.308166],[1.988603,41.308176],[1.988519,41.308186],[1.988515,41.308186],[1.988275,41.308255],[1.988245,41.308263],[1.988095,41.308309],[1.988025,41.308325],[1.987907,41.308361],[1.987805,41.308401],[1.987747,41.308424],[1.987787,41.308564],[1.987796,41.308593],[1.987789,41.308599],[1.98778,41.308605],[1.98777,41.30861],[1.987755,41.308616],[1.987744,41.308621],[1.987729,41.308625],[1.98771,41.308629],[1.987508,41.308671],[1.987319,41.308711],[1.987132,41.308751],[1.986987,41.308779],[1.98686,41.308807],[1.986727,41.308836],[1.986583,41.308871],[1.986564,41.308876],[1.98654,41.308887],[1.98652,41.308903],[1.986507,41.308922],[1.986503,41.308935],[1.986498,41.308936],[1.986461,41.308944],[1.986466,41.308958],[1.986501,41.308951],[1.986501,41.308965],[1.98651,41.308986],[1.986526,41.309004],[1.986547,41.309019],[1.986579,41.309033],[1.986627,41.309051],[1.986654,41.309061],[1.986694,41.309076],[1.986814,41.309113],[1.986937,41.309146],[1.987044,41.309168],[1.987154,41.309183],[1.987287,41.309191],[1.987355,41.309194],[1.987422,41.309193],[1.987564,41.309188],[1.987705,41.309183],[1.987825,41.309178],[1.987944,41.309173],[1.987986,41.309173],[1.988028,41.309175],[1.988073,41.309179],[1.988117,41.309185],[1.988169,41.309196],[1.988223,41.309207],[1.988446,41.309256],[1.98867,41.309306],[1.988882,41.309352],[1.989094,41.309398],[1.989217,41.309426],[1.989338,41.309456],[1.989422,41.309482],[1.989503,41.309512],[1.989564,41.309538],[1.989621,41.309567],[1.989723,41.309627],[1.989795,41.309654],[1.989826,41.30967],[1.990173,41.309882],[1.990271,41.309942],[1.990922,41.310216],[1.991056,41.31028],[1.991116,41.310311],[1.991166,41.310355],[1.991189,41.310375],[1.991221,41.310361],[1.991255,41.310381],[1.991291,41.310398],[1.991332,41.310415],[1.991395,41.31043],[1.991457,41.310435],[1.991555,41.310436],[1.991649,41.310436],[1.99174,41.310435],[1.99178,41.310434],[1.991837,41.310432],[1.991876,41.310427],[1.991918,41.310415],[1.991979,41.310395],[1.992036,41.310368],[1.992087,41.310335],[1.992126,41.310302],[1.992149,41.310279],[1.992158,41.310269],[1.992171,41.310248],[1.992179,41.310231],[1.992185,41.310211],[1.992188,41.31019],[1.992187,41.310176],[1.992183,41.31015],[1.992251,41.310131],[1.992443,41.310075],[1.99249,41.310059],[1.992522,41.310042],[1.992843,41.310237],[1.992931,41.310231],[1.993159,41.310271],[1.993258,41.310144],[1.993317,41.310089],[1.99333,41.310087],[1.993341,41.310087],[1.993355,41.310089],[1.993364,41.310091],[1.993426,41.310125],[1.993518,41.310176],[1.993642,41.310245],[1.993765,41.310315],[1.993861,41.310369],[1.993974,41.310433],[1.994048,41.310476],[1.994057,41.310483],[1.994062,41.310489],[1.994064,41.310495],[1.994064,41.3105],[1.994064,41.310508],[1.994058,41.310529],[1.994045,41.31055],[1.994037,41.310558],[1.994022,41.310573],[1.994012,41.31058],[1.993994,41.310587],[1.993883,41.310617],[1.99377,41.310648],[1.993571,41.310703],[1.99337,41.310758],[1.993272,41.310792],[1.993178,41.310833],[1.993132,41.310856],[1.993109,41.310869],[1.993087,41.310881],[1.993042,41.310911],[1.992998,41.310942],[1.992894,41.311016],[1.992793,41.311092],[1.992691,41.311171],[1.992589,41.31125],[1.992496,41.311321],[1.992456,41.311352],[1.992322,41.311454],[1.992172,41.311564],[1.992022,41.311675],[1.991867,41.311792],[1.991713,41.311908],[1.991521,41.312054],[1.991413,41.312135],[1.991405,41.312134],[1.991388,41.312147],[1.991081,41.312379],[1.990839,41.312539],[1.990584,41.312666],[1.990298,41.312748],[1.989634,41.312393],[1.9894,41.312268],[1.9891,41.312107],[1.988522,41.312568],[1.988486,41.312598],[1.988453,41.312624],[1.988432,41.312624],[1.988249,41.312629],[1.988114,41.312632],[1.987888,41.312662],[1.987807,41.312691],[1.987737,41.312709],[1.987664,41.312721],[1.987625,41.312725],[1.987588,41.312721],[1.98755,41.312711],[1.98751,41.312698],[1.987295,41.312627],[1.987078,41.312555],[1.987039,41.312546],[1.986998,41.312542],[1.98698,41.312541],[1.986959,41.312543],[1.986937,41.312548],[1.986918,41.312559],[1.986889,41.312592],[1.986873,41.312618],[1.986871,41.312622],[1.986861,41.312643],[1.986857,41.312654],[1.98681,41.312648],[1.986722,41.312602],[1.986646,41.312604],[1.986557,41.312637],[1.986458,41.312719],[1.986564,41.312883],[1.986568,41.312906],[1.98656,41.312919],[1.986548,41.312954],[1.986545,41.312986],[1.986532,41.313017],[1.986512,41.313035],[1.986466,41.313063],[1.986277,41.313159],[1.98622,41.313184],[1.986191,41.313222],[1.98619,41.313262],[1.986231,41.313308],[1.986287,41.313363],[1.986372,41.31339],[1.986483,41.313417],[1.986546,41.313468],[1.986752,41.313612],[1.986792,41.313637],[1.986866,41.313685],[1.986922,41.313741],[1.986962,41.313734],[1.986963,41.313699],[1.987051,41.313673],[1.98733,41.313573],[1.987413,41.313551],[1.98763,41.313532],[1.987872,41.313519],[1.987896,41.313517],[1.987966,41.313524],[1.988009,41.313537],[1.98802,41.313543],[1.988146,41.313593],[1.988216,41.313643],[1.98824,41.313715],[1.988195,41.313795],[1.988129,41.313899],[1.988218,41.313903],[1.988472,41.31391],[1.988632,41.313921],[1.98869,41.313929],[1.988788,41.313974],[1.988873,41.313991],[1.98896,41.313998],[1.98915,41.313988],[1.98945,41.313929],[1.989617,41.313851],[1.990059,41.313624]]]]}},{"type":"Feature","id":"080898_080898 AP05 BLL 2","properties":{"area_id":"080898_080898 AP05 BLL 2","nom":"Gavà Mar","codi_icgc":"080898 AP05 BLL 2","categoria":"Àrees de poblament","codi_municipi":"080898","municipi":"Gavà","codi_comarca":"11","comarca":"Baix Llobregat","provincia":"Barcelona","font":"ICGC Àrees de poblament v3r1 202602"},"geometry":{"type":"MultiPolygon","coordinates":[[[[2.001614,41.269512],[2.001564,41.269486],[2.00152,41.269464],[2.001319,41.269489],[2.001086,41.269517],[2.000934,41.269539],[2.000872,41.269571],[2.000919,41.269403],[2.000939,41.269377],[2.001055,41.269235],[2.001106,41.269221],[2.001637,41.269178],[2.002001,41.269145],[2.002064,41.269139],[2.002057,41.268923],[2.008764,41.268959],[2.009143,41.268951],[2.009146,41.26916],[2.009148,41.269268],[2.009149,41.269337],[2.009149,41.269359],[2.009151,41.269479],[2.009152,41.269553],[2.009158,41.269967],[2.009158,41.269979],[2.009159,41.269979],[2.00916,41.269989],[2.009171,41.270145],[2.009553,41.270088],[2.009689,41.270074],[2.009743,41.270076],[2.009825,41.270084],[2.009905,41.270098],[2.009969,41.270113],[2.009984,41.270117],[2.01006,41.270141],[2.010133,41.270171],[2.010188,41.270199],[2.0102,41.270205],[2.010392,41.270135],[2.010385,41.270039],[2.010864,41.270082],[2.01127,41.270111],[2.011244,41.270312],[2.011231,41.27045],[2.011184,41.27085],[2.011166,41.271012],[2.011178,41.27101],[2.011172,41.271071],[2.011266,41.271057],[2.011363,41.271045],[2.01141,41.271039],[2.011429,41.271038],[2.011452,41.27104],[2.011468,41.271044],[2.011479,41.271048],[2.011485,41.271052],[2.011492,41.271061],[2.011493,41.271071],[2.011489,41.271089],[2.011404,41.27166],[2.011429,41.271754],[2.01169,41.271761],[2.011893,41.271759],[2.012186,41.271762],[2.012353,41.271771],[2.012462,41.27178],[2.012461,41.271789],[2.012454,41.271836],[2.012428,41.27198],[2.012411,41.272082],[2.012362,41.272328],[2.012351,41.272378],[2.012308,41.272573],[2.012291,41.272642],[2.01226,41.272778],[2.012223,41.272939],[2.012181,41.273123],[2.012162,41.273216],[2.012152,41.273263],[2.01215,41.273274],[2.012339,41.273235],[2.012435,41.273232],[2.012462,41.273216],[2.01262,41.273195],[2.012683,41.273188],[2.012686,41.273154],[2.012692,41.273086],[2.012741,41.272832],[2.012921,41.272853],[2.012938,41.272768],[2.012957,41.272767],[2.013413,41.272757],[2.013389,41.272668],[2.013373,41.272578],[2.013364,41.272488],[2.013363,41.272398],[2.01337,41.272307],[2.013384,41.272218],[2.013405,41.272129],[2.013434,41.272041],[2.013471,41.271955],[2.013514,41.27187],[2.013565,41.271789],[2.013573,41.271776],[2.013577,41.271766],[2.013606,41.271719],[2.013547,41.271711],[2.013484,41.271703],[2.013377,41.271694],[2.013295,41.271692],[2.013174,41.271694],[2.013054,41.271698],[2.012859,41.271706],[2.012776,41.27171],[2.012774,41.27171],[2.01274,41.271709],[2.012707,41.271701],[2.012678,41.271689],[2.012676,41.271688],[2.012663,41.271678],[2.012652,41.271671],[2.012649,41.271667],[2.012634,41.271652],[2.012633,41.271651],[2.012633,41.271649],[2.012624,41.271628],[2.012621,41.271607],[2.012622,41.271589],[2.012626,41.27153],[2.012631,41.271491],[2.012633,41.271471],[2.012634,41.271469],[2.012637,41.271448],[2.012654,41.271352],[2.012672,41.271255],[2.012688,41.271175],[2.012692,41.271163],[2.012698,41.271153],[2.012707,41.271145],[2.012718,41.271138],[2.012733,41.271129],[2.012759,41.271114],[2.012768,41.271107],[2.012777,41.271098],[2.012783,41.27109],[2.012794,41.27107],[2.012801,41.271056],[2.012808,41.271039],[2.012811,41.271024],[2.012811,41.271024],[2.012813,41.271006],[2.012814,41.271001],[2.012814,41.270993],[2.012812,41.270978],[2.012812,41.270974],[2.012808,41.270958],[2.012802,41.270942],[2.012795,41.27093],[2.012782,41.270918],[2.012778,41.270914],[2.01276,41.270899],[2.012755,41.270892],[2.012751,41.270884],[2.012749,41.270875],[2.012748,41.270863],[2.01293,41.270877],[2.01356,41.270921],[2.013631,41.270926],[2.013631,41.270925],[2.013707,41.270081],[2.013676,41.270058],[2.013612,41.270008],[2.013589,41.269991],[2.013342,41.26999],[2.012689,41.269989],[2.012472,41.270007],[2.012114,41.270037],[2.011914,41.270054],[2.011864,41.270054],[2.011519,41.270056],[2.010977,41.27003],[2.010928,41.270022],[2.010733,41.269989],[2.010804,41.269573],[2.010811,41.26953],[2.010812,41.2695],[2.010813,41.269471],[2.010815,41.269404],[2.01087,41.269389],[2.010938,41.269341],[2.010965,41.269269],[2.011024,41.269274],[2.011078,41.269279],[2.011081,41.269324],[2.011081,41.269325],[2.011169,41.26933],[2.011379,41.269344],[2.011459,41.269],[2.011496,41.268777],[2.011523,41.268616],[2.011675,41.268632],[2.013212,41.268778],[2.013212,41.268778],[2.015158,41.268986],[2.015331,41.269005],[2.016653,41.269146],[2.024907,41.269954],[2.024658,41.27081],[2.020665,41.27055],[2.01695,41.270236],[2.01695,41.270262],[2.016933,41.270984],[2.016933,41.270994],[2.016675,41.270992],[2.016676,41.271027],[2.016714,41.272492],[2.016715,41.272554],[2.016897,41.272557],[2.017158,41.272563],[2.01732,41.272557],[2.019164,41.272496],[2.01916,41.272777],[2.019713,41.272782],[2.019686,41.272479],[2.020707,41.272445],[2.020709,41.273112],[2.021245,41.273164],[2.021346,41.272772],[2.02171,41.272751],[2.021488,41.273834],[2.022264,41.273697],[2.022597,41.273652],[2.022532,41.272663],[2.022551,41.272364],[2.023764,41.272286],[2.02921,41.272366],[2.030047,41.272504],[2.031586,41.272547],[2.031797,41.271625],[2.031748,41.2715],[2.030525,41.271384],[2.030531,41.271327],[2.030537,41.271268],[2.030544,41.271194],[2.030605,41.270612],[2.030617,41.270503],[2.032086,41.270619],[2.032322,41.270639],[2.033122,41.270709],[2.033865,41.270773],[2.034014,41.270776],[2.034099,41.270778],[2.034134,41.270779],[2.034239,41.270781],[2.034196,41.269637],[2.034166,41.269445],[2.034155,41.269379],[2.035197,41.269388],[2.035198,41.269388],[2.035197,41.26943],[2.035197,41.26943],[2.035197,41.269492],[2.035184,41.270742],[2.035222,41.270752],[2.035238,41.270765],[2.035263,41.270777],[2.035292,41.270784],[2.035306,41.270785],[2.036285,41.270749],[2.036546,41.27074],[2.037317,41.270718],[2.037344,41.270716],[2.037347,41.270715],[2.037627,41.270732],[2.037645,41.270737],[2.037682,41.270741],[2.037771,41.270744],[2.037972,41.270755],[2.037987,41.270756],[2.038094,41.270921],[2.038099,41.27094],[2.038109,41.27098],[2.038121,41.271028],[2.038028,41.271453],[2.03794,41.271861],[2.037922,41.271942],[2.03791,41.272001],[2.037895,41.272067],[2.037883,41.272125],[2.037876,41.272154],[2.037867,41.272198],[2.037726,41.272202],[2.037618,41.272204],[2.037605,41.272205],[2.037528,41.272195],[2.037223,41.272162],[2.037227,41.272141],[2.037029,41.27212],[2.036919,41.27211],[2.036866,41.272117],[2.036859,41.272156],[2.036859,41.272156],[2.036839,41.27226],[2.036778,41.272579],[2.0368,41.272622],[2.036797,41.272883],[2.036822,41.272937],[2.036887,41.272956],[2.036991,41.272953],[2.037028,41.272664],[2.037729,41.272794],[2.037829,41.272311],[2.037998,41.272315],[2.038043,41.27203],[2.038059,41.271926],[2.038068,41.271873],[2.038076,41.271824],[2.038078,41.271811],[2.038139,41.27182],[2.038378,41.271851],[2.03921,41.271968],[2.040923,41.27221],[2.041206,41.27225],[2.04152,41.271716],[2.041608,41.271566],[2.042417,41.270195],[2.042,41.270078],[2.040348,41.26974],[2.039844,41.269641],[2.039308,41.269533],[2.037401,41.269148],[2.037396,41.269147],[2.037378,41.269144],[2.033694,41.268471],[2.032518,41.268294],[2.029965,41.267844],[2.029976,41.267795],[2.029889,41.267784],[2.029402,41.267722],[2.028383,41.267525],[2.02826,41.267501],[2.027382,41.267328],[2.026585,41.267182],[2.026379,41.267144],[2.025849,41.267056],[2.025103,41.266931],[2.0251,41.266993],[2.025099,41.26701],[2.025056,41.267012],[2.024953,41.266997],[2.024764,41.266973],[2.02455,41.266954],[2.024313,41.266936],[2.024113,41.266934],[2.023877,41.266954],[2.023685,41.266985],[2.023611,41.266998],[2.023463,41.267023],[2.023449,41.267024],[2.023424,41.267029],[2.0234,41.267034],[2.023347,41.267043],[2.023293,41.267051],[2.023223,41.267062],[2.023153,41.267072],[2.023067,41.267085],[2.022981,41.267097],[2.022909,41.267108],[2.022836,41.267118],[2.022752,41.267127],[2.022666,41.267134],[2.022556,41.267141],[2.022445,41.267146],[2.022363,41.267149],[2.022281,41.267151],[2.022195,41.267151],[2.022109,41.26715],[2.022019,41.267147],[2.021928,41.267142],[2.021839,41.267137],[2.021749,41.267131],[2.02174,41.267131],[2.021605,41.267125],[2.021591,41.267116],[2.021581,41.267113],[2.021518,41.267106],[2.021354,41.26708],[2.021263,41.267065],[2.021173,41.267049],[2.021101,41.267034],[2.021029,41.267018],[2.020927,41.266994],[2.02092,41.266993],[2.020825,41.26697],[2.020687,41.266937],[2.02055,41.266903],[2.020443,41.266878],[2.020336,41.266854],[2.020258,41.266839],[2.02018,41.266823],[2.020179,41.266823],[2.020083,41.266806],[2.019986,41.266794],[2.019888,41.266789],[2.01986,41.266795],[2.01977,41.266816],[2.019771,41.266811],[2.019761,41.266795],[2.019745,41.266783],[2.019725,41.266776],[2.019703,41.266774],[2.019701,41.266774],[2.019619,41.266776],[2.019538,41.266779],[2.01937,41.266789],[2.019203,41.266803],[2.019082,41.266813],[2.018961,41.266822],[2.01887,41.266829],[2.01878,41.266834],[2.018681,41.266836],[2.018582,41.266834],[2.018463,41.26683],[2.018344,41.266824],[2.018264,41.266817],[2.018184,41.26681],[2.018153,41.266808],[2.018122,41.266805],[2.018099,41.266808],[2.017995,41.266818],[2.017839,41.266792],[2.017683,41.266765],[2.017579,41.266745],[2.017396,41.2667],[2.017289,41.266672],[2.017287,41.266668],[2.017097,41.266599],[2.016805,41.266472],[2.016803,41.266471],[2.016598,41.266375],[2.016597,41.266375],[2.016141,41.266154],[2.015828,41.266029],[2.015709,41.266],[2.015628,41.26598],[2.015622,41.265971],[2.01561,41.265965],[2.015598,41.265962],[2.015503,41.265942],[2.015408,41.265927],[2.015206,41.265906],[2.0152,41.265906],[2.015047,41.2659],[2.014894,41.265895],[2.014875,41.265894],[2.014717,41.265884],[2.014717,41.265881],[2.014645,41.265856],[2.014119,41.265811],[2.013846,41.265801],[2.013648,41.26579],[2.012821,41.265756],[2.012648,41.265717],[2.01263,41.265717],[2.0125,41.265707],[2.01237,41.265699],[2.012167,41.265688],[2.011964,41.265681],[2.011903,41.265676],[2.011841,41.265674],[2.011802,41.265679],[2.011781,41.265686],[2.011757,41.265697],[2.011752,41.2657],[2.011731,41.26569],[2.011733,41.265708],[2.011512,41.265697],[2.011373,41.26569],[2.011092,41.265652],[2.010773,41.265617],[2.010632,41.265671],[2.010551,41.265702],[2.010517,41.265703],[2.010515,41.265703],[2.010418,41.265727],[2.010324,41.265757],[2.010233,41.265792],[2.010146,41.265831],[2.010128,41.265841],[2.010029,41.265893],[2.009926,41.265939],[2.009819,41.265981],[2.009741,41.266007],[2.009735,41.266009],[2.009648,41.266027],[2.00956,41.26604],[2.009471,41.266047],[2.009419,41.266048],[2.00927,41.266045],[2.009232,41.266044],[2.009045,41.266034],[2.008858,41.266019],[2.008673,41.265997],[2.008665,41.265996],[2.008544,41.26597],[2.008425,41.265939],[2.008309,41.265902],[2.008292,41.265896],[2.00826,41.265887],[2.008119,41.26585],[2.008,41.265824],[2.007843,41.265802],[2.007701,41.265789],[2.007559,41.265781],[2.007416,41.265778],[2.007348,41.265779],[2.007172,41.265769],[2.006996,41.265754],[2.00694,41.265748],[2.006941,41.265759],[2.006886,41.265758],[2.006886,41.265742],[2.006718,41.265743],[2.006604,41.265737],[2.006595,41.265737],[2.006494,41.265742],[2.006393,41.265741],[2.006292,41.265734],[2.006192,41.265721],[2.006182,41.265719],[2.006029,41.265691],[2.005877,41.265658],[2.005691,41.265623],[2.005476,41.265616],[2.005376,41.265666],[2.005155,41.265666],[2.005024,41.26564],[2.004896,41.265585],[2.004788,41.265541],[2.004628,41.265537],[2.004575,41.265535],[2.004332,41.265528],[2.003559,41.265506],[2.003443,41.265502],[2.003443,41.265502],[2.00278,41.265482],[2.002621,41.265458],[2.002611,41.265476],[2.002237,41.266106],[2.001299,41.267689],[2.001011,41.268173],[2.000786,41.268554],[2.00041,41.269187],[2.000399,41.269206],[2.000402,41.269233],[2.000403,41.269254],[2.000423,41.26927],[2.000461,41.269265],[2.000574,41.269251],[2.000685,41.26924],[2.000694,41.269382],[2.000696,41.269407],[2.000703,41.269511],[2.000651,41.269529],[2.000532,41.269538],[2.000423,41.269556],[2.000297,41.269583],[2.000215,41.269615],[2.000152,41.269622],[1.999927,41.270002],[2.000004,41.270077],[1.999889,41.270465],[2.000043,41.270469],[2.000027,41.270538],[2.000022,41.2707],[2.000019,41.270726],[2.000044,41.270745],[2.000137,41.270763],[2.000274,41.270765],[2.000597,41.27076],[2.000831,41.270749],[2.000838,41.270755],[2.000868,41.270773],[2.000887,41.270784],[2.000903,41.270796],[2.000918,41.27081],[2.00093,41.270824],[2.000939,41.270839],[2.000946,41.270854],[2.00095,41.27087],[2.000952,41.270886],[2.000921,41.27095],[2.000881,41.271035],[2.00072,41.271404],[2.000719,41.271405],[2.000505,41.271352],[2.000481,41.271409],[1.999963,41.271292],[1.99977,41.272032],[1.999157,41.271848],[1.999054,41.272118],[1.998943,41.272396],[1.998934,41.272419],[1.998712,41.273031],[1.998644,41.27317],[1.998416,41.273112],[1.99818,41.273043],[1.9981,41.273083],[1.997342,41.274361],[1.997427,41.274385],[1.997468,41.274395],[1.997415,41.274503],[1.997146,41.275099],[1.99701,41.275408],[1.996845,41.275737],[1.997263,41.275878],[1.997328,41.275911],[1.997352,41.275953],[1.99743,41.275971],[1.997518,41.275998],[1.997627,41.276016],[1.997735,41.276038],[1.997803,41.276052],[1.997826,41.276016],[1.997922,41.27579],[1.998123,41.275344],[1.99829,41.274949],[1.9984,41.274727],[1.998068,41.274618],[1.998112,41.274514],[1.998337,41.273982],[1.998526,41.273523],[1.998644,41.273236],[1.998825,41.273278],[1.998946,41.273301],[1.999029,41.273335],[1.999112,41.273373],[1.999242,41.273428],[1.99935,41.273477],[1.999466,41.273529],[1.999565,41.273574],[1.999518,41.273686],[1.999365,41.274068],[1.999269,41.274256],[1.999473,41.274311],[1.999541,41.274323],[1.999694,41.274027],[2.000792,41.27407],[2.001289,41.272597],[2.001292,41.272586],[2.001709,41.272559],[2.002047,41.272533],[2.002221,41.272527],[2.002249,41.272451],[2.002379,41.271469],[2.002485,41.270748],[2.003222,41.270718],[2.004076,41.270672],[2.003943,41.271323],[2.003869,41.271417],[2.003832,41.271501],[2.003406,41.271476],[2.003002,41.271451],[2.00296,41.271512],[2.002844,41.27243],[2.003763,41.272398],[2.003811,41.272115],[2.003902,41.271583],[2.003916,41.271502],[2.003921,41.271476],[2.004502,41.271539],[2.004639,41.270851],[2.00468,41.270644],[2.005254,41.270565],[2.00544,41.270533],[2.005497,41.270484],[2.005497,41.270484],[2.0055,41.27044],[2.005502,41.270413],[2.005509,41.270331],[2.00548,41.26997],[2.005466,41.269479],[2.005467,41.269477],[2.005296,41.269416],[2.004361,41.269429],[2.003683,41.269444],[2.003105,41.269454],[2.002707,41.269465],[2.002389,41.269483],[2.00219,41.269492],[2.001858,41.269532],[2.001697,41.269532],[2.001614,41.269512]]]]}},{"type":"Feature","id":"080898_080898 SI03 BLL 2","properties":{"area_id":"080898_080898 SI03 BLL 2","nom":"Polígon industrial El Camí Ral","codi_icgc":"080898 SI03 BLL 2","categoria":"Sector industrial","codi_municipi":"080898","municipi":"Gavà","codi_comarca":"11","comarca":"Baix Llobregat","provincia":"Barcelona","font":"ICGC Àrees de poblament v3r1 202602"},"geometry":{"type":"MultiPolygon","coordinates":[[[[1.99298,41.282481],[1.992659,41.282256],[1.99253,41.282472],[1.992486,41.282548],[1.989907,41.286894],[1.989823,41.287036],[1.990067,41.287245],[1.99093,41.287936],[1.992476,41.289213],[1.993012,41.289627],[1.993524,41.290034],[1.99408,41.289612],[1.99432,41.289467],[1.994441,41.289324],[1.994463,41.289298],[1.995275,41.28836],[1.995867,41.287898],[1.996812,41.287159],[1.998117,41.28611],[1.998015,41.285975],[1.997795,41.285751],[1.997369,41.285452],[1.996982,41.285196],[1.996421,41.284806],[1.995766,41.284367],[1.994644,41.283611],[1.993634,41.282916],[1.99298,41.282481]]]]}},{"type":"Feature","id":"080898_080898 SI07 BLL 2","properties":{"area_id":"080898_080898 SI07 BLL 2","nom":"Polígon industrial El Camí de Regàs","codi_icgc":"080898 SI07 BLL 2","categoria":"Sector industrial","codi_municipi":"080898","municipi":"Gavà","codi_comarca":"11","comarca":"Baix Llobregat","provincia":"Barcelona","font":"ICGC Àrees de poblament v3r1 202602"},"geometry":{"type":"MultiPolygon","coordinates":[[[[2.021875,41.297176],[2.022529,41.29744],[2.023412,41.296397],[2.022522,41.296004],[2.02173,41.295669],[2.020707,41.29671],[2.021875,41.297176]]]]}},{"type":"Feature","id":"080898_080898 SI06 BLL 2","properties":{"area_id":"080898_080898 SI06 BLL 2","nom":"Polígon industrial El Regàs","codi_icgc":"080898 SI06 BLL 2","categoria":"Sector industrial","codi_municipi":"080898","municipi":"Gavà","codi_comarca":"11","comarca":"Baix Llobregat","provincia":"Barcelona","font":"ICGC Àrees de poblament v3r1 202602"},"geometry":{"type":"MultiPolygon","coordinates":[[[[2.01798,41.301548],[2.018021,41.301576],[2.018109,41.301539],[2.018912,41.300878],[2.019783,41.300168],[2.019489,41.299989],[2.018714,41.299441],[2.017661,41.298778],[2.016698,41.29818],[2.017525,41.297461],[2.017242,41.297283],[2.016643,41.296942],[2.016471,41.296832],[2.016245,41.297012],[2.01585,41.297309],[2.015428,41.297695],[2.015317,41.297729],[2.015086,41.297926],[2.014646,41.298311],[2.014534,41.298333],[2.014369,41.298456],[2.013954,41.298811],[2.014145,41.298934],[2.015211,41.299607],[2.015458,41.299752],[2.016012,41.300155],[2.016719,41.300659],[2.016986,41.300851],[2.017543,41.301247],[2.01798,41.301548]]]]}},{"type":"Feature","id":"080898_080898 SI09 BLL 2","properties":{"area_id":"080898_080898 SI09 BLL 2","nom":"Polígon industrial La Marina","codi_icgc":"080898 SI09 BLL 2","categoria":"Sector industrial","codi_municipi":"080898","municipi":"Gavà","codi_comarca":"11","comarca":"Baix Llobregat","provincia":"Barcelona","font":"ICGC Àrees de poblament v3r1 202602"},"geometry":{"type":"MultiPolygon","coordinates":[[[[2.018264,41.293472],[2.017778,41.293308],[2.017749,41.293303],[2.017733,41.293304],[2.017691,41.293301],[2.017673,41.293298],[2.01765,41.293294],[2.017611,41.293283],[2.017575,41.293267],[2.01754,41.293245],[2.017511,41.293219],[2.017487,41.293189],[2.01747,41.293158],[2.017433,41.29314],[2.017192,41.293029],[2.017034,41.292944],[2.016828,41.292822],[2.016304,41.292509],[2.0155,41.292033],[2.015425,41.291988],[2.01481,41.292655],[2.014749,41.292721],[2.014634,41.292837],[2.014313,41.293185],[2.014159,41.293349],[2.014113,41.293323],[2.014018,41.29343],[2.0138,41.293659],[2.013694,41.293768],[2.013328,41.294257],[2.013608,41.294442],[2.013849,41.294577],[2.01399,41.294695],[2.014178,41.294792],[2.014235,41.294884],[2.014196,41.294947],[2.014612,41.295207],[2.014676,41.295144],[2.014797,41.295165],[2.014849,41.295177],[2.014932,41.295106],[2.014959,41.295083],[2.014985,41.295079],[2.015158,41.295121],[2.015299,41.295187],[2.015405,41.295226],[2.015523,41.29528],[2.015545,41.295284],[2.015597,41.295232],[2.015667,41.295259],[2.015753,41.295292],[2.015828,41.295325],[2.015878,41.295356],[2.015862,41.29539],[2.015893,41.295415],[2.015927,41.295438],[2.015958,41.295457],[2.016058,41.295506],[2.016162,41.295547],[2.016264,41.295583],[2.016288,41.295591],[2.016347,41.295608],[2.016502,41.295656],[2.016515,41.295635],[2.016529,41.295615],[2.01654,41.295596],[2.016918,41.295144],[2.017072,41.294978],[2.017297,41.294735],[2.017334,41.294695],[2.017769,41.294205],[2.018111,41.293839],[2.018181,41.293768],[2.018195,41.293771],[2.018257,41.293706],[2.018354,41.293605],[2.018417,41.293536],[2.018458,41.29349],[2.018481,41.293464],[2.018746,41.293535],[2.019009,41.293608],[2.019279,41.293682],[2.019548,41.293755],[2.019566,41.29376],[2.019624,41.293776],[2.019856,41.293841],[2.020163,41.293928],[2.020357,41.293982],[2.020369,41.293985],[2.020382,41.293989],[2.020433,41.294003],[2.020702,41.294077],[2.020921,41.294139],[2.020931,41.294142],[2.021158,41.294208],[2.021256,41.294239],[2.021295,41.294197],[2.021798,41.293662],[2.021356,41.293424],[2.021164,41.29333],[2.021203,41.293284],[2.021384,41.29307],[2.021455,41.292995],[2.021166,41.292886],[2.020596,41.29264],[2.020657,41.292568],[2.020684,41.292537],[2.020702,41.292517],[2.01967,41.292092],[2.019583,41.292195],[2.018774,41.293085],[2.018556,41.293329],[2.018535,41.293345],[2.018334,41.293496],[2.018294,41.293482],[2.018264,41.293472]]]]}},{"type":"Feature","id":"080898_080898 SI01 BLL 2","properties":{"area_id":"080898_080898 SI01 BLL 2","nom":"Polígon industrial La Post","codi_icgc":"080898 SI01 BLL 2","categoria":"Sector industrial","codi_municipi":"080898","municipi":"Gavà","codi_comarca":"11","comarca":"Baix Llobregat","provincia":"Barcelona","font":"ICGC Àrees de poblament v3r1 202602"},"geometry":{"type":"MultiPolygon","coordinates":[[[[2.006275,41.296082],[2.006119,41.296009],[2.005924,41.296024],[2.005823,41.296071],[2.005563,41.296322],[2.004948,41.297041],[2.004657,41.29739],[2.004397,41.297704],[2.004158,41.297977],[2.004012,41.298191],[2.004018,41.298337],[2.00483,41.299024],[2.005215,41.299341],[2.00553,41.29959],[2.0058,41.299792],[2.005962,41.299913],[2.006256,41.300141],[2.006588,41.300384],[2.006949,41.300653],[2.007331,41.300931],[2.007584,41.301133],[2.007799,41.301315],[2.008377,41.30169],[2.008884,41.302017],[2.009162,41.302188],[2.009657,41.302496],[2.01001,41.302704],[2.010261,41.302817],[2.010515,41.30293],[2.01091,41.303155],[2.011401,41.303415],[2.011747,41.30358],[2.012214,41.303796],[2.012639,41.303996],[2.013152,41.304199],[2.013736,41.304432],[2.013767,41.304427],[2.0138,41.304402],[2.014231,41.304096],[2.014549,41.303884],[2.014873,41.303683],[2.015382,41.303416],[2.01569,41.303278],[2.01548,41.303104],[2.015405,41.303042],[2.015176,41.302831],[2.014738,41.302419],[2.014452,41.302149],[2.014191,41.301899],[2.013975,41.301698],[2.013773,41.301463],[2.013462,41.301096],[2.013216,41.300759],[2.013046,41.300514],[2.01287,41.300182],[2.012744,41.299987],[2.012586,41.299801],[2.012408,41.299653],[2.011968,41.299358],[2.011457,41.299057],[2.010914,41.298712],[2.010595,41.29852],[2.010294,41.298342],[2.009937,41.298121],[2.009559,41.297938],[2.009093,41.297686],[2.008332,41.297285],[2.007942,41.297068],[2.00782,41.296998],[2.007476,41.296802],[2.007086,41.29658],[2.006671,41.296338],[2.006275,41.296082]]]]}},{"type":"Feature","id":"080898_080898 SI04 BLL 2","properties":{"area_id":"080898_080898 SI04 BLL 2","nom":"Polígon industrial Les Massotes","codi_icgc":"080898 SI04 BLL 2","categoria":"Sector industrial","codi_municipi":"080898","municipi":"Gavà","codi_comarca":"11","comarca":"Baix Llobregat","provincia":"Barcelona","font":"ICGC Àrees de poblament v3r1 202602"},"geometry":{"type":"MultiPolygon","coordinates":[[[[2.015461,41.300821],[2.015972,41.300374],[2.015632,41.300152],[2.015168,41.299824],[2.014,41.299083],[2.014,41.299083],[2.013862,41.298996],[2.013696,41.298892],[2.013525,41.298785],[2.013774,41.298631],[2.01378,41.298627],[2.013915,41.298543],[2.015098,41.297622],[2.015489,41.297318],[2.016207,41.296777],[2.016305,41.296725],[2.015504,41.296211],[2.014689,41.295704],[2.014124,41.29537],[2.013125,41.294814],[2.013031,41.294764],[2.012819,41.29465],[2.012807,41.294652],[2.012788,41.294653],[2.012767,41.294652],[2.012749,41.29465],[2.012713,41.294643],[2.012691,41.294636],[2.012674,41.294629],[2.012493,41.294529],[2.012346,41.294447],[2.012075,41.2943],[2.011803,41.294153],[2.011643,41.294066],[2.011485,41.293978],[2.011418,41.293939],[2.011349,41.293898],[2.011322,41.293884],[2.011285,41.293868],[2.011218,41.293843],[2.011117,41.293809],[2.011016,41.293774],[2.01092,41.293742],[2.010919,41.293742],[2.010918,41.293741],[2.010875,41.293728],[2.010668,41.293749],[2.010671,41.293756],[2.010673,41.293764],[2.010675,41.293774],[2.010673,41.293785],[2.010667,41.293805],[2.010655,41.293823],[2.010618,41.293866],[2.010581,41.293908],[2.010563,41.293929],[2.010544,41.29395],[2.010505,41.293995],[2.010194,41.294351],[2.009583,41.29505],[2.009582,41.29505],[2.009582,41.29505],[2.009053,41.295661],[2.009053,41.295661],[2.00826,41.296584],[2.007984,41.296906],[2.008333,41.297128],[2.008612,41.297276],[2.009178,41.297577],[2.009244,41.297612],[2.009866,41.297943],[2.010432,41.298255],[2.01117,41.298719],[2.011955,41.299206],[2.012372,41.299465],[2.01241,41.299497],[2.012432,41.299501],[2.012447,41.299509],[2.012484,41.299521],[2.012524,41.299528],[2.012564,41.29953],[2.012604,41.299525],[2.012804,41.299825],[2.012805,41.299827],[2.012951,41.300071],[2.013015,41.30018],[2.013019,41.300186],[2.012997,41.300201],[2.013289,41.30068],[2.013317,41.300667],[2.013317,41.300667],[2.013381,41.300756],[2.013539,41.300963],[2.013546,41.300973],[2.013572,41.301001],[2.013603,41.301025],[2.013639,41.301044],[2.013642,41.301046],[2.013917,41.301426],[2.013934,41.301457],[2.013939,41.301464],[2.013988,41.301514],[2.014169,41.301698],[2.014888,41.302368],[2.015465,41.302915],[2.015674,41.303113],[2.01571,41.303132],[2.015732,41.303139],[2.015751,41.303146],[2.015793,41.303155],[2.015838,41.303158],[2.015882,41.303155],[2.015925,41.303147],[2.015965,41.303133],[2.016002,41.303114],[2.016007,41.303111],[2.016007,41.303111],[2.016026,41.303102],[2.016056,41.303088],[2.01639,41.302932],[2.016539,41.302794],[2.016594,41.302754],[2.016648,41.302713],[2.016745,41.302637],[2.016811,41.302585],[2.016912,41.302504],[2.016972,41.302455],[2.01717,41.302296],[2.017369,41.302137],[2.01747,41.302057],[2.017475,41.302056],[2.017473,41.302055],[2.01673,41.301622],[2.015461,41.300821]]]]}},{"type":"Feature","id":"080898_080898 SI05 BLL 2","properties":{"area_id":"080898_080898 SI05 BLL 2","nom":"Polígon industrial Les Parets","codi_icgc":"080898 SI05 BLL 2","categoria":"Sector industrial","codi_municipi":"080898","municipi":"Gavà","codi_comarca":"11","comarca":"Baix Llobregat","provincia":"Barcelona","font":"ICGC Àrees de poblament v3r1 202602"},"geometry":{"type":"MultiPolygon","coordinates":[[[[2.006196,41.295761],[2.006188,41.295801],[2.00619,41.295842],[2.006199,41.295882],[2.006218,41.295921],[2.006244,41.295956],[2.006278,41.295988],[2.006368,41.29604],[2.007458,41.296657],[2.007586,41.296732],[2.007608,41.296738],[2.007621,41.296739],[2.007636,41.29674],[2.007646,41.296739],[2.007818,41.296826],[2.00784,41.296801],[2.00795,41.296672],[2.00832,41.296242],[2.00832,41.296242],[2.00832,41.296242],[2.009474,41.294899],[2.010082,41.294192],[2.009916,41.294088],[2.009771,41.29402],[2.009623,41.293949],[2.009467,41.293873],[2.009328,41.293807],[2.009187,41.293743],[2.009061,41.293691],[2.008931,41.293643],[2.008873,41.293623],[2.008815,41.293604],[2.008723,41.293576],[2.008634,41.293553],[2.008578,41.29354],[2.008512,41.293529],[2.008457,41.293525],[2.008407,41.293524],[2.008351,41.293526],[2.008291,41.293531],[2.008245,41.293537],[2.008174,41.293554],[2.008135,41.293566],[2.008088,41.293584],[2.008054,41.2936],[2.007929,41.293675],[2.00757,41.294095],[2.007278,41.294404],[2.006992,41.29476],[2.006476,41.295436],[2.006196,41.295761]]]]}},{"type":"Feature","id":"080898_080898 SI02 BLL 2","properties":{"area_id":"080898_080898 SI02 BLL 2","nom":"Polígon industrial Pla del Carat","codi_icgc":"080898 SI02 BLL 2","categoria":"Sector industrial","codi_municipi":"080898","municipi":"Gavà","codi_comarca":"11","comarca":"Baix Llobregat","provincia":"Barcelona","font":"ICGC Àrees de poblament v3r1 202602"},"geometry":{"type":"MultiPolygon","coordinates":[[[[1.990876,41.289142],[1.990126,41.288582],[1.990117,41.288575],[1.989992,41.288671],[1.98984,41.28854],[1.989856,41.288532],[1.98988,41.288514],[1.989899,41.288492],[1.98991,41.288468],[1.989914,41.288443],[1.989914,41.288431],[1.989911,41.288417],[1.989899,41.288402],[1.989573,41.288166],[1.989547,41.288153],[1.98952,41.288139],[1.98949,41.288128],[1.989434,41.288112],[1.989375,41.288102],[1.989257,41.288098],[1.989196,41.288092],[1.989189,41.288105],[1.989171,41.288134],[1.989138,41.288189],[1.988371,41.289482],[1.988358,41.289505],[1.988323,41.289563],[1.988312,41.289582],[1.988368,41.289614],[1.989048,41.290097],[1.989187,41.290195],[1.989252,41.290241],[1.989301,41.290275],[1.989394,41.290344],[1.989489,41.290402],[1.9896,41.290419],[1.989726,41.290321],[1.990456,41.289749],[1.990714,41.289561],[1.990603,41.289474],[1.990529,41.289418],[1.990581,41.289378],[1.9907,41.289284],[1.990876,41.289142]]]]}},{"type":"Feature","id":"080898_080898 AP04 BLL 2","properties":{"area_id":"080898_080898 AP04 BLL 2","nom":"la Sentiu","codi_icgc":"080898 AP04 BLL 2","categoria":"Àrees de poblament","codi_municipi":"080898","municipi":"Gavà","codi_comarca":"11","comarca":"Baix Llobregat","provincia":"Barcelona","font":"ICGC Àrees de poblament v3r1 202602"},"geometry":{"type":"MultiPolygon","coordinates":[[[[1.970508,41.302606],[1.970888,41.30222],[1.97089,41.30222],[1.97094,41.302166],[1.971424,41.301647],[1.971874,41.3012],[1.971776,41.301125],[1.972015,41.300993],[1.971996,41.300963],[1.972287,41.300799],[1.972379,41.300722],[1.973328,41.300168],[1.973396,41.300124],[1.973214,41.29996],[1.973156,41.299876],[1.973157,41.299825],[1.97319,41.299757],[1.973369,41.299389],[1.973422,41.299289],[1.973466,41.299262],[1.973524,41.299264],[1.974573,41.299288],[1.97468,41.298936],[1.974799,41.298589],[1.974898,41.29828],[1.974856,41.298184],[1.974806,41.298136],[1.974718,41.298092],[1.974542,41.298058],[1.974309,41.298008],[1.973886,41.297928],[1.973414,41.297828],[1.972973,41.297762],[1.97265,41.297741],[1.97264,41.297847],[1.972247,41.297895],[1.972039,41.297879],[1.971959,41.297736],[1.97151,41.297751],[1.971346,41.297764],[1.971201,41.297748],[1.971157,41.297705],[1.971139,41.297652],[1.971211,41.297495],[1.971225,41.297395],[1.971093,41.297337],[1.970911,41.297278],[1.970651,41.2973],[1.970036,41.297442],[1.969452,41.297594],[1.968906,41.297737],[1.968824,41.29773],[1.968119,41.297948],[1.967573,41.298071],[1.967262,41.298164],[1.967276,41.298512],[1.967399,41.298713],[1.966536,41.29893],[1.96625,41.299013],[1.96628,41.299118],[1.9662,41.299375],[1.966121,41.299579],[1.966076,41.299662],[1.966141,41.299665],[1.966265,41.29967],[1.966483,41.299683],[1.966705,41.299688],[1.966682,41.299935],[1.966661,41.300067],[1.966674,41.300163],[1.966725,41.300239],[1.966776,41.300304],[1.966874,41.300401],[1.967,41.300513],[1.967159,41.300658],[1.967276,41.300741],[1.967371,41.300827],[1.967543,41.30095],[1.96764,41.301038],[1.96785,41.301251],[1.967931,41.301347],[1.967978,41.301395],[1.968037,41.301399],[1.968096,41.301382],[1.96844,41.301727],[1.968512,41.301807],[1.968521,41.301857],[1.968485,41.301908],[1.968292,41.302106],[1.968138,41.302243],[1.968093,41.302338],[1.968104,41.302453],[1.968205,41.302463],[1.968698,41.302448],[1.969026,41.302451],[1.969292,41.302449],[1.969551,41.302456],[1.969861,41.302459],[1.970126,41.302466],[1.970257,41.302464],[1.970262,41.302458],[1.970508,41.302606]]]]}}]}