{"type":"FeatureCollection","name":"ICGC Àrees de poblament - Granera","features":[{"type":"Feature","id":"080958_080958 AP01 MOI 3","properties":{"area_id":"080958_080958 AP01 MOI 3","nom":"Granera","codi_icgc":"080958 AP01 MOI 3","categoria":"Àrees de poblament","codi_municipi":"080958","municipi":"Granera","codi_comarca":"42","comarca":"Moianès","provincia":"Barcelona","font":"ICGC Àrees de poblament v3r1 202602"},"geometry":{"type":"MultiPolygon","coordinates":[[[[2.056906,41.725667],[2.0569,41.725573],[2.056984,41.725588],[2.057043,41.725597],[2.057087,41.725595],[2.057171,41.725583],[2.057342,41.725541],[2.057494,41.725501],[2.057497,41.725458],[2.057508,41.725312],[2.057467,41.725304],[2.057334,41.725272],[2.057242,41.725238],[2.057124,41.725176],[2.057046,41.725166],[2.056891,41.72516],[2.05679,41.72515],[2.056709,41.725254],[2.056705,41.725259],[2.056603,41.725293],[2.056395,41.725345],[2.056339,41.725404],[2.056296,41.725496],[2.056241,41.72552],[2.056146,41.725592],[2.056004,41.725702],[2.055873,41.725787],[2.055817,41.725819],[2.055833,41.725884],[2.055886,41.725976],[2.056793,41.725699],[2.056906,41.725667]]],[[[2.064706,41.726087],[2.064787,41.725889],[2.064829,41.725789],[2.064851,41.725733],[2.064906,41.725619],[2.064914,41.725592],[2.064916,41.725553],[2.064907,41.725528],[2.064891,41.725507],[2.064892,41.725498],[2.06489,41.725495],[2.06489,41.725483],[2.06489,41.725459],[2.064891,41.725444],[2.064891,41.725439],[2.065039,41.725423],[2.064863,41.725325],[2.064648,41.72503],[2.064511,41.724703],[2.064375,41.724656],[2.064257,41.724859],[2.064263,41.724908],[2.06427,41.724948],[2.064188,41.725193],[2.064181,41.725209],[2.064323,41.725309],[2.064393,41.725267],[2.064462,41.725334],[2.064525,41.725421],[2.064524,41.725497],[2.06451,41.725602],[2.06447,41.725697],[2.064133,41.725666],[2.063778,41.72562],[2.063648,41.725601],[2.063453,41.725411],[2.063272,41.72529],[2.063082,41.725217],[2.062979,41.725201],[2.062879,41.725209],[2.062808,41.725224],[2.062781,41.72527],[2.062798,41.725303],[2.062801,41.725311],[2.062805,41.725319],[2.062822,41.725332],[2.062879,41.72535],[2.062934,41.725365],[2.062998,41.725381],[2.06306,41.725397],[2.063098,41.725414],[2.063131,41.725437],[2.063151,41.725454],[2.063175,41.72548],[2.063202,41.72552],[2.063224,41.725562],[2.063233,41.725594],[2.063254,41.725674],[2.063282,41.725725],[2.063331,41.725782],[2.063418,41.725828],[2.063458,41.72585],[2.063506,41.725875],[2.063557,41.7259],[2.063637,41.725932],[2.063721,41.725959],[2.063768,41.725971],[2.063839,41.725983],[2.063911,41.725991],[2.063965,41.725995],[2.064047,41.725996],[2.064128,41.725995],[2.064163,41.725993],[2.06417,41.725993],[2.064232,41.725994],[2.064322,41.726029],[2.06441,41.726068],[2.064499,41.726114],[2.064571,41.726167],[2.064632,41.726141],[2.064706,41.726087]]],[[[2.057966,41.729639],[2.058002,41.729639],[2.058024,41.729646],[2.058035,41.729655],[2.058053,41.729676],[2.058167,41.729633],[2.058185,41.729641],[2.058345,41.729718],[2.058351,41.729715],[2.058402,41.729674],[2.058437,41.729646],[2.058504,41.729518],[2.058671,41.729577],[2.058683,41.729581],[2.0587,41.729587],[2.058746,41.729603],[2.058756,41.729594],[2.05878,41.72957],[2.058785,41.729534],[2.058796,41.729458],[2.058805,41.729394],[2.058682,41.729147],[2.05882,41.729084],[2.058845,41.72907],[2.058905,41.729037],[2.059112,41.728925],[2.059137,41.728909],[2.05926,41.728844],[2.059338,41.728742],[2.059464,41.728576],[2.059481,41.728575],[2.059583,41.728586],[2.059601,41.728574],[2.059627,41.72855],[2.05965,41.728525],[2.059671,41.728499],[2.05969,41.728473],[2.059703,41.728453],[2.059712,41.728441],[2.059725,41.728432],[2.059737,41.728427],[2.059748,41.728427],[2.059764,41.728435],[2.059821,41.728468],[2.059875,41.728503],[2.059912,41.728533],[2.059945,41.728567],[2.059971,41.728605],[2.059988,41.728644],[2.059998,41.728687],[2.059999,41.728696],[2.060003,41.728709],[2.060002,41.728732],[2.060002,41.72874],[2.059978,41.7289],[2.059955,41.72901],[2.05995,41.729057],[2.060097,41.729091],[2.060135,41.729089],[2.060194,41.729086],[2.060242,41.729084],[2.060249,41.729075],[2.060269,41.729051],[2.060292,41.729013],[2.060309,41.728973],[2.060314,41.728947],[2.06031,41.728921],[2.0603,41.728902],[2.060284,41.728887],[2.060267,41.728876],[2.060232,41.728859],[2.060181,41.728839],[2.060128,41.72882],[2.060079,41.728801],[2.060042,41.728787],[2.060043,41.728729],[2.060039,41.728684],[2.060028,41.728637],[2.060011,41.72859],[2.05998,41.728551],[2.059991,41.728546],[2.060123,41.728548],[2.060124,41.728516],[2.060162,41.728516],[2.060192,41.728498],[2.060189,41.728442],[2.060155,41.728443],[2.060146,41.728287],[2.060131,41.7282],[2.060124,41.728186],[2.060111,41.728173],[2.06008,41.728151],[2.060049,41.728128],[2.060017,41.728107],[2.059981,41.728084],[2.059944,41.72806],[2.059928,41.728042],[2.059921,41.728021],[2.059917,41.727983],[2.059916,41.727945],[2.059917,41.727902],[2.059923,41.727859],[2.059938,41.727824],[2.059957,41.72779],[2.059981,41.727758],[2.060005,41.727727],[2.060014,41.727704],[2.060018,41.727667],[2.060022,41.727629],[2.060023,41.727578],[2.060025,41.727419],[2.059995,41.727406],[2.059948,41.727386],[2.05987,41.727363],[2.059853,41.727352],[2.059792,41.72733],[2.059776,41.727346],[2.05976,41.727359],[2.059741,41.727369],[2.059655,41.727411],[2.059623,41.727427],[2.059609,41.727431],[2.059592,41.727435],[2.05957,41.727436],[2.059553,41.727435],[2.059536,41.727433],[2.059537,41.727385],[2.059538,41.727338],[2.059541,41.727269],[2.059546,41.727199],[2.059557,41.727136],[2.059575,41.727073],[2.059601,41.727002],[2.059625,41.72693],[2.059629,41.726897],[2.05963,41.726863],[2.059625,41.726795],[2.059615,41.726731],[2.0596,41.726667],[2.059585,41.726625],[2.059571,41.726603],[2.059554,41.726583],[2.059516,41.726544],[2.059496,41.726516],[2.059476,41.726472],[2.059462,41.726427],[2.059459,41.726396],[2.059459,41.726387],[2.059429,41.726363],[2.059319,41.726018],[2.059312,41.725737],[2.05926,41.725722],[2.059144,41.725689],[2.059102,41.725684],[2.058844,41.725647],[2.058797,41.725825],[2.058812,41.725936],[2.058835,41.726051],[2.058865,41.72614],[2.058905,41.726229],[2.058941,41.726294],[2.059001,41.726368],[2.058746,41.726373],[2.058721,41.726371],[2.058685,41.726367],[2.058676,41.726407],[2.058666,41.726448],[2.058665,41.726477],[2.058668,41.726506],[2.05868,41.726563],[2.058692,41.726601],[2.058711,41.726652],[2.05873,41.726703],[2.058763,41.726791],[2.058779,41.72682],[2.058808,41.726856],[2.058848,41.726888],[2.058854,41.72689],[2.058854,41.726893],[2.058859,41.726897],[2.058889,41.72692],[2.058906,41.726934],[2.058893,41.726939],[2.058863,41.72695],[2.058826,41.726961],[2.058819,41.726961],[2.058791,41.726963],[2.058771,41.726964],[2.058762,41.726965],[2.058747,41.726968],[2.05874,41.726971],[2.058733,41.726973],[2.058725,41.726977],[2.05871,41.726984],[2.058666,41.727007],[2.058634,41.727019],[2.05859,41.727047],[2.058554,41.727082],[2.058519,41.727116],[2.058489,41.727142],[2.058439,41.727179],[2.058413,41.727196],[2.058387,41.727214],[2.058363,41.727229],[2.058326,41.72725],[2.058288,41.727272],[2.058251,41.727302],[2.05822,41.727337],[2.058199,41.727368],[2.058193,41.727385],[2.058192,41.727391],[2.058196,41.727432],[2.058202,41.727458],[2.058208,41.727479],[2.058149,41.727691],[2.058337,41.727804],[2.058521,41.727942],[2.058545,41.727963],[2.058571,41.727986],[2.058483,41.728078],[2.058693,41.728233],[2.058673,41.728238],[2.058641,41.728252],[2.058574,41.72829],[2.058508,41.728327],[2.05841,41.728382],[2.058313,41.728436],[2.058266,41.728459],[2.058216,41.728478],[2.058111,41.728511],[2.058077,41.72852],[2.058093,41.728554],[2.058106,41.72858],[2.058106,41.728611],[2.058105,41.728654],[2.058149,41.728701],[2.058159,41.728723],[2.058193,41.728825],[2.058254,41.728819],[2.058305,41.728814],[2.058346,41.728868],[2.058314,41.728891],[2.058204,41.728966],[2.058228,41.728988],[2.058189,41.729007],[2.058212,41.729028],[2.058177,41.7291],[2.058117,41.729224],[2.058112,41.729236],[2.058076,41.729311],[2.058015,41.729315],[2.057964,41.729329],[2.057672,41.729405],[2.057587,41.729468],[2.057331,41.729649],[2.057365,41.72976],[2.057394,41.729779],[2.057411,41.72979],[2.057654,41.729707],[2.05775,41.729674],[2.057755,41.729672],[2.05782,41.729654],[2.057855,41.729646],[2.057966,41.729639]]]]}},{"type":"Feature","id":"080958_080958 AP02 MOI 2","properties":{"area_id":"080958_080958 AP02 MOI 2","nom":"el Barri de Baix","codi_icgc":"080958 AP02 MOI 2","categoria":"Àrees de poblament","codi_municipi":"080958","municipi":"Granera","codi_comarca":"42","comarca":"Moianès","provincia":"Barcelona","font":"ICGC Àrees de poblament v3r1 202602"},"geometry":{"type":"MultiPolygon","coordinates":[[[[2.06529,41.731709],[2.065189,41.731517],[2.065113,41.731237],[2.065116,41.731075],[2.065042,41.73098],[2.064767,41.731002],[2.064615,41.731024],[2.064559,41.731071],[2.064487,41.73113],[2.06448,41.731138],[2.064701,41.731192],[2.0647,41.731233],[2.064691,41.731293],[2.064658,41.731376],[2.064554,41.731399],[2.064201,41.731345],[2.063923,41.731354],[2.063901,41.731477],[2.063727,41.731446],[2.063597,41.731379],[2.063513,41.731349],[2.06319,41.73115],[2.06332,41.730856],[2.062874,41.730432],[2.063074,41.730237],[2.063099,41.730224],[2.063172,41.730184],[2.063744,41.730548],[2.06378,41.730499],[2.064136,41.730701],[2.064141,41.730691],[2.064181,41.730622],[2.064207,41.73056],[2.064216,41.730511],[2.064217,41.730505],[2.064228,41.730445],[2.064236,41.730368],[2.064235,41.730325],[2.064231,41.730199],[2.06417,41.730061],[2.064154,41.730025],[2.064085,41.729915],[2.064067,41.729888],[2.06371,41.729825],[2.063668,41.729899],[2.063517,41.730183],[2.06345,41.730304],[2.062929,41.72998],[2.062888,41.73001],[2.062759,41.730127],[2.062382,41.730013],[2.062186,41.730384],[2.062252,41.730405],[2.062273,41.730412],[2.06243,41.730474],[2.062538,41.730516],[2.062657,41.730587],[2.062688,41.73061],[2.062859,41.730855],[2.062957,41.73101],[2.063003,41.73108],[2.062741,41.731285],[2.062459,41.731521],[2.062692,41.731676],[2.062715,41.731691],[2.062753,41.731715],[2.06284,41.731771],[2.062887,41.731794],[2.062952,41.731817],[2.063024,41.731862],[2.063076,41.7319],[2.063333,41.731717],[2.063699,41.731702],[2.064017,41.731681],[2.0642,41.731688],[2.064454,41.731762],[2.064316,41.731841],[2.06434,41.731854],[2.064663,41.732176],[2.06478,41.732292],[2.064998,41.732253],[2.065025,41.732243],[2.06509,41.732161],[2.065123,41.732143],[2.065437,41.73193],[2.06529,41.731709]]],[[[2.068904,41.73302],[2.068841,41.732653],[2.068816,41.732647],[2.068436,41.732503],[2.068412,41.732549],[2.068346,41.732675],[2.068188,41.732584],[2.067958,41.732541],[2.067739,41.732807],[2.067319,41.732696],[2.067526,41.732458],[2.067045,41.732261],[2.066916,41.732258],[2.066788,41.732256],[2.066782,41.732277],[2.06671,41.732542],[2.066688,41.732615],[2.066682,41.732632],[2.066676,41.732654],[2.066675,41.732657],[2.06667,41.732673],[2.066906,41.732693],[2.067208,41.732719],[2.067453,41.732769],[2.067331,41.733016],[2.067533,41.733095],[2.067818,41.733214],[2.067986,41.733285],[2.068005,41.733294],[2.06802,41.7333],[2.068027,41.733303],[2.068036,41.733306],[2.068127,41.733345],[2.068292,41.733354],[2.068479,41.733123],[2.06849,41.73311],[2.068503,41.733093],[2.068535,41.733078],[2.068647,41.733053],[2.068904,41.73302]]]]}}]}