{"type":"FeatureCollection","name":"ICGC Àrees de poblament - l'Hospitalet de Llobregat","features":[{"type":"Feature","id":"081017_081017 SI02 BAR 2","properties":{"area_id":"081017_081017 SI02 BAR 2","nom":"Districte Econòmic","codi_icgc":"081017 SI02 BAR 2","categoria":"Sector industrial","codi_municipi":"081017","municipi":"l'Hospitalet de Llobregat","codi_comarca":"13","comarca":"Barcelonès","provincia":"Barcelona","font":"ICGC Àrees de poblament v3r1 202602"},"geometry":{"type":"MultiPolygon","coordinates":[[[[2.130379,41.357901],[2.130703,41.35737],[2.130867,41.357419],[2.132462,41.357984],[2.133108,41.358212],[2.133215,41.358269],[2.133214,41.35825],[2.133213,41.358023],[2.133194,41.357417],[2.133179,41.357329],[2.133119,41.356969],[2.133103,41.356876],[2.13298,41.356524],[2.13297,41.356497],[2.132788,41.355978],[2.132778,41.35595],[2.132711,41.355874],[2.132521,41.355777],[2.13233,41.355705],[2.132128,41.355648],[2.132077,41.355629],[2.132054,41.35562],[2.132062,41.355607],[2.132077,41.355583],[2.132373,41.355117],[2.13244,41.355028],[2.132836,41.354504],[2.132953,41.354365],[2.133064,41.354233],[2.133204,41.354078],[2.133377,41.353839],[2.133451,41.353681],[2.133505,41.353563],[2.133511,41.353548],[2.133532,41.353502],[2.133534,41.353497],[2.133408,41.353503],[2.133345,41.353477],[2.133348,41.353472],[2.133761,41.352836],[2.13389,41.352748],[2.134525,41.351919],[2.134688,41.351661],[2.135486,41.350647],[2.136356,41.349853],[2.13733,41.348867],[2.137252,41.348816],[2.13687,41.348443],[2.136872,41.348441],[2.134581,41.347624],[2.134508,41.347654],[2.134402,41.347697],[2.134387,41.347707],[2.133877,41.348379],[2.133125,41.349314],[2.132726,41.349826],[2.13169,41.350695],[2.131073,41.350398],[2.130963,41.350345],[2.130421,41.350057],[2.130271,41.349985],[2.130164,41.349934],[2.132185,41.346968],[2.132205,41.346941],[2.132301,41.346811],[2.126857,41.34487],[2.126859,41.344908],[2.126689,41.34493],[2.126275,41.344981],[2.126116,41.345001],[2.125627,41.34506],[2.125058,41.345141],[2.124616,41.345203],[2.124262,41.345253],[2.123904,41.345297],[2.12362,41.345318],[2.123397,41.345309],[2.123162,41.345294],[2.122948,41.345257],[2.122657,41.345175],[2.122413,41.345114],[2.122196,41.345067],[2.121983,41.345006],[2.121726,41.344941],[2.121487,41.344877],[2.121186,41.344809],[2.120569,41.344653],[2.120207,41.344578],[2.119789,41.344525],[2.119279,41.344469],[2.118882,41.344466],[2.11862,41.34446],[2.118389,41.344462],[2.11807,41.344473],[2.117702,41.344562],[2.117373,41.344675],[2.117158,41.344762],[2.116973,41.344892],[2.116682,41.34509],[2.116479,41.34525],[2.116327,41.345512],[2.116199,41.345639],[2.116061,41.345812],[2.115915,41.345989],[2.115765,41.34622],[2.115635,41.346398],[2.115542,41.346543],[2.11522,41.347208],[2.115111,41.34755],[2.115059,41.348143],[2.115226,41.349014],[2.11916,41.352047],[2.119646,41.35247],[2.120073,41.352789],[2.121471,41.353819],[2.122345,41.354403],[2.124097,41.355776],[2.124469,41.355985],[2.125498,41.356378],[2.125859,41.356894],[2.127884,41.358566],[2.130867,41.360833],[2.131084,41.360898],[2.13207,41.359167],[2.130379,41.357901]]]]}},{"type":"Feature","id":"081017_081017 SI01 BAR 2","properties":{"area_id":"081017_081017 SI01 BAR 2","nom":"Polígon industrial Carretera del Mig","codi_icgc":"081017 SI01 BAR 2","categoria":"Sector industrial","codi_municipi":"081017","municipi":"l'Hospitalet de Llobregat","codi_comarca":"13","comarca":"Barcelonès","provincia":"Barcelona","font":"ICGC Àrees de poblament v3r1 202602"},"geometry":{"type":"MultiPolygon","coordinates":[[[[2.110823,41.355987],[2.107461,41.353387],[2.107119,41.353442],[2.106929,41.353441],[2.10674,41.353382],[2.10661,41.353209],[2.106593,41.353038],[2.106539,41.352823],[2.106484,41.352693],[2.105187,41.351768],[2.10465,41.351351],[2.104074,41.350903],[2.103125,41.350203],[2.102402,41.349701],[2.100528,41.348656],[2.099728,41.34821],[2.097308,41.346935],[2.095488,41.349534],[2.095468,41.349649],[2.095459,41.349704],[2.095507,41.349777],[2.097327,41.350716],[2.098161,41.351074],[2.099923,41.351842],[2.100047,41.351903],[2.099687,41.352467],[2.098448,41.354319],[2.098384,41.35443],[2.097663,41.35548],[2.097707,41.355571],[2.097869,41.35564],[2.098545,41.355925],[2.098838,41.356088],[2.099268,41.356295],[2.099247,41.35635],[2.099378,41.356408],[2.099921,41.355398],[2.099972,41.35531],[2.100142,41.355375],[2.100456,41.355588],[2.100503,41.355605],[2.100614,41.355584],[2.100696,41.355613],[2.100679,41.355677],[2.100688,41.355709],[2.10075,41.355783],[2.101807,41.356189],[2.102201,41.355611],[2.102336,41.355674],[2.102405,41.355772],[2.102754,41.355906],[2.102859,41.355873],[2.1029,41.355857],[2.102923,41.355827],[2.10298,41.355753],[2.103736,41.354543],[2.103992,41.354235],[2.104107,41.354096],[2.104166,41.354037],[2.105512,41.354586],[2.105255,41.354898],[2.104175,41.356534],[2.10605,41.357262],[2.105706,41.357752],[2.1066,41.358107],[2.106017,41.359056],[2.107073,41.359424],[2.107194,41.359463],[2.107248,41.359483],[2.109257,41.360168],[2.109397,41.360215],[2.111516,41.360989],[2.112536,41.361362],[2.11311,41.361584],[2.113811,41.361818],[2.114232,41.361958],[2.114912,41.362215],[2.11543,41.362406],[2.115541,41.362433],[2.115667,41.362396],[2.115744,41.362319],[2.1155,41.359466],[2.114441,41.358804],[2.114057,41.358642],[2.113761,41.358516],[2.113405,41.358321],[2.113601,41.358095],[2.110823,41.355987]]],[[[2.121409,41.363292],[2.118067,41.361187],[2.117942,41.361091],[2.117727,41.361041],[2.117453,41.360772],[2.116406,41.360062],[2.116276,41.360065],[2.116197,41.360104],[2.116117,41.360205],[2.116153,41.360625],[2.116221,41.361392],[2.116277,41.361926],[2.116374,41.362029],[2.116563,41.362293],[2.116793,41.362672],[2.116879,41.362818],[2.116977,41.36294],[2.117231,41.363041],[2.117605,41.363142],[2.117678,41.363034],[2.118174,41.36231],[2.118842,41.362566],[2.118539,41.363023],[2.118949,41.363199],[2.119467,41.363391],[2.119752,41.363485],[2.119799,41.3635],[2.120447,41.36374],[2.121017,41.363963],[2.121409,41.363292]]]]}},{"type":"Feature","id":"081017_081017 SI03 BAR 2","properties":{"area_id":"081017_081017 SI03 BAR 2","nom":"Zona Franca-Port","codi_icgc":"081017 SI03 BAR 2","categoria":"Sector industrial","codi_municipi":"081017","municipi":"l'Hospitalet de Llobregat","codi_comarca":"13","comarca":"Barcelonès","provincia":"Barcelona","font":"ICGC Àrees de poblament v3r1 202602"},"geometry":{"type":"MultiPolygon","coordinates":[[[[2.106196,41.338136],[2.106624,41.338297],[2.107913,41.33872],[2.107838,41.338814],[2.107576,41.339068],[2.107446,41.33921],[2.107148,41.339494],[2.106594,41.340104],[2.106919,41.340253],[2.107226,41.340226],[2.108106,41.340155],[2.108619,41.34012],[2.109179,41.340085],[2.109293,41.340082],[2.109474,41.340076],[2.109666,41.34006],[2.110062,41.340027],[2.110475,41.34003],[2.110828,41.339966],[2.111042,41.339934],[2.11132,41.339832],[2.111399,41.339809],[2.111443,41.339786],[2.111552,41.33962],[2.111665,41.339449],[2.108392,41.338281],[2.108333,41.338323],[2.107948,41.338196],[2.10742,41.33801],[2.106203,41.337585],[2.104903,41.337131],[2.104188,41.336877],[2.103719,41.336711],[2.103258,41.33656],[2.103093,41.336499],[2.102971,41.336449],[2.101687,41.336357],[2.101651,41.336354],[2.101595,41.336421],[2.101809,41.336525],[2.10233,41.336778],[2.102575,41.336888],[2.102786,41.336952],[2.103171,41.337065],[2.103377,41.337104],[2.10351,41.337124],[2.103881,41.33726],[2.104284,41.337359],[2.104725,41.337534],[2.105769,41.337947],[2.106196,41.338136]]]]}},{"type":"Feature","id":"081017_081017 AP01 BAR 3","properties":{"area_id":"081017_081017 AP01 BAR 3","nom":"l'Hospitalet de Llobregat","codi_icgc":"081017 AP01 BAR 3","categoria":"Àrees de poblament","codi_municipi":"081017","municipi":"l'Hospitalet de Llobregat","codi_comarca":"13","comarca":"Barcelonès","provincia":"Barcelona","font":"ICGC Àrees de poblament v3r1 202602"},"geometry":{"type":"MultiPolygon","coordinates":[[[[2.132796,41.365521],[2.13283,41.365459],[2.132877,41.365218],[2.133028,41.36444],[2.133531,41.363942],[2.133981,41.363497],[2.134101,41.363277],[2.134419,41.363003],[2.134867,41.36258],[2.135087,41.362423],[2.135264,41.362281],[2.135285,41.362259],[2.135241,41.362172],[2.134882,41.361569],[2.134714,41.361348],[2.134582,41.361247],[2.134151,41.360858],[2.133762,41.360569],[2.13333,41.360242],[2.133316,41.359899],[2.133313,41.359873],[2.133299,41.359754],[2.133245,41.35929],[2.133219,41.358764],[2.133215,41.358367],[2.132935,41.358287],[2.132773,41.35824],[2.131005,41.357611],[2.130758,41.357523],[2.130711,41.357603],[2.130537,41.357906],[2.132254,41.359178],[2.1318,41.359879],[2.131254,41.360906],[2.131197,41.360905],[2.130782,41.361416],[2.127444,41.358997],[2.125742,41.357894],[2.124875,41.357525],[2.124411,41.356699],[2.123632,41.356114],[2.118504,41.352178],[2.117554,41.351528],[2.116742,41.351088],[2.116624,41.351004],[2.115344,41.350088],[2.114117,41.349139],[2.113066,41.348568],[2.112089,41.348197],[2.111939,41.347784],[2.112059,41.347656],[2.11234,41.347141],[2.112478,41.346931],[2.112648,41.346835],[2.112857,41.346816],[2.113001,41.346717],[2.113258,41.346373],[2.113538,41.346011],[2.113543,41.345996],[2.113829,41.34517],[2.113562,41.344453],[2.113276,41.344031],[2.113111,41.343842],[2.112997,41.343693],[2.112817,41.343374],[2.11266,41.343037],[2.112688,41.342727],[2.112837,41.341859],[2.112906,41.341363],[2.112874,41.341234],[2.112753,41.341093],[2.112621,41.34099],[2.112489,41.340927],[2.11231,41.340883],[2.111969,41.340915],[2.111521,41.340955],[2.111439,41.340885],[2.108903,41.34117],[2.108814,41.34119],[2.108208,41.341233],[2.10818,41.341208],[2.10781,41.341255],[2.107431,41.3414],[2.106878,41.341619],[2.106577,41.341746],[2.106198,41.341966],[2.106015,41.342081],[2.106365,41.342343],[2.106816,41.34271],[2.106731,41.342756],[2.106633,41.34295],[2.106453,41.343097],[2.106266,41.343179],[2.106069,41.343207],[2.105909,41.343138],[2.105722,41.343098],[2.105609,41.343076],[2.105438,41.343082],[2.105305,41.343092],[2.105213,41.343116],[2.105152,41.343165],[2.105068,41.343286],[2.104975,41.343414],[2.104889,41.343466],[2.104771,41.343493],[2.104638,41.343504],[2.104531,41.343487],[2.104446,41.343446],[2.104387,41.343398],[2.104318,41.343359],[2.104185,41.343327],[2.103978,41.343334],[2.103849,41.343364],[2.103873,41.343296],[2.103922,41.343275],[2.103967,41.343275],[2.104054,41.343194],[2.103939,41.343157],[2.103873,41.343145],[2.103747,41.343112],[2.10359,41.343082],[2.103464,41.343058],[2.103267,41.343056],[2.103067,41.343043],[2.102996,41.343106],[2.102958,41.343237],[2.102954,41.34334],[2.103011,41.343438],[2.103116,41.343515],[2.103238,41.34357],[2.103025,41.343697],[2.102796,41.343888],[2.102652,41.344092],[2.102616,41.344282],[2.102509,41.344493],[2.102202,41.344843],[2.101674,41.345408],[2.101512,41.345537],[2.101317,41.345789],[2.101203,41.346082],[2.101095,41.346309],[2.100956,41.34649],[2.099702,41.347977],[2.10006,41.348111],[2.101208,41.348745],[2.101616,41.348964],[2.102045,41.34923],[2.102484,41.349512],[2.103068,41.349913],[2.103759,41.35041],[2.104522,41.350993],[2.105002,41.351346],[2.105461,41.351687],[2.105941,41.352044],[2.10604,41.352119],[2.106184,41.352216],[2.10689,41.352753],[2.106905,41.352762],[2.107627,41.353314],[2.1087,41.354119],[2.109505,41.354722],[2.109685,41.354857],[2.109799,41.354944],[2.110975,41.355833],[2.113698,41.357884],[2.113719,41.3579],[2.11375,41.357924],[2.115514,41.359324],[2.116868,41.360232],[2.117276,41.360477],[2.118169,41.361104],[2.120763,41.362726],[2.121135,41.362976],[2.121455,41.363198],[2.12163,41.363373],[2.121246,41.364053],[2.119752,41.363485],[2.119467,41.363391],[2.118949,41.363199],[2.118539,41.363023],[2.118842,41.362566],[2.118174,41.36231],[2.117678,41.363034],[2.117525,41.363317],[2.111405,41.361177],[2.111336,41.361153],[2.107621,41.359804],[2.104907,41.358834],[2.104759,41.358798],[2.105877,41.357297],[2.103766,41.356458],[2.104332,41.355596],[2.104723,41.355029],[2.105008,41.354624],[2.104106,41.354303],[2.102952,41.356042],[2.102911,41.356027],[2.102884,41.356068],[2.102646,41.355961],[2.102267,41.35582],[2.102236,41.355824],[2.102157,41.355851],[2.101835,41.356316],[2.10133,41.356097],[2.10056,41.355759],[2.1003,41.355605],[2.099959,41.355446],[2.099435,41.356412],[2.099341,41.356568],[2.098568,41.35623],[2.097417,41.355732],[2.09728,41.355909],[2.096949,41.356365],[2.097038,41.356665],[2.097036,41.356777],[2.096875,41.357013],[2.096594,41.357466],[2.096231,41.358038],[2.096063,41.358299],[2.09591,41.358576],[2.09583,41.358735],[2.095705,41.358918],[2.095629,41.359045],[2.095568,41.35909],[2.095504,41.359128],[2.095082,41.359009],[2.093962,41.358681],[2.093721,41.358617],[2.09365,41.358619],[2.093614,41.358637],[2.09357,41.358732],[2.093271,41.359191],[2.093226,41.359301],[2.092801,41.359704],[2.092396,41.360106],[2.091926,41.360543],[2.091552,41.360915],[2.091339,41.361107],[2.090955,41.36146],[2.090902,41.361508],[2.090862,41.361545],[2.090834,41.361588],[2.090885,41.361602],[2.091653,41.361821],[2.091913,41.361895],[2.0919,41.361916],[2.091776,41.36212],[2.091787,41.362148],[2.091773,41.362144],[2.091779,41.362167],[2.091785,41.362214],[2.091791,41.362261],[2.091797,41.362302],[2.091803,41.362344],[2.091812,41.362369],[2.091811,41.362423],[2.09181,41.362525],[2.091838,41.362551],[2.091847,41.362559],[2.09186,41.362562],[2.091889,41.362563],[2.091911,41.362566],[2.091932,41.362574],[2.091939,41.362579],[2.091945,41.362585],[2.091955,41.362598],[2.091958,41.362602],[2.091958,41.362602],[2.091982,41.362599],[2.09241,41.362542],[2.092438,41.362564],[2.092864,41.362452],[2.09306,41.362372],[2.093739,41.362558],[2.093766,41.362649],[2.093526,41.362762],[2.093492,41.362777],[2.093234,41.362898],[2.093045,41.362864],[2.092878,41.362833],[2.09273,41.362828],[2.092681,41.362826],[2.092604,41.362823],[2.092569,41.362822],[2.092566,41.362826],[2.092759,41.363503],[2.092758,41.363581],[2.092705,41.363659],[2.092628,41.363698],[2.092294,41.363503],[2.09216,41.36342],[2.092116,41.363463],[2.092108,41.363458],[2.092014,41.363477],[2.091989,41.363509],[2.091929,41.363581],[2.091917,41.363595],[2.091739,41.363508],[2.091505,41.3634],[2.091459,41.36338],[2.091354,41.363337],[2.091316,41.363379],[2.091268,41.363433],[2.091258,41.363467],[2.091273,41.363543],[2.091198,41.363624],[2.091049,41.363774],[2.091006,41.363816],[2.090966,41.363856],[2.090952,41.363866],[2.090941,41.36386],[2.090924,41.363852],[2.090848,41.363812],[2.090755,41.363763],[2.090699,41.363735],[2.090644,41.363707],[2.09062,41.363697],[2.090594,41.363689],[2.090577,41.363688],[2.090559,41.363691],[2.090521,41.363699],[2.090482,41.363709],[2.090367,41.363741],[2.090314,41.363759],[2.090266,41.363771],[2.090253,41.363775],[2.090144,41.363802],[2.090132,41.363805],[2.090102,41.363746],[2.090088,41.363715],[2.090085,41.363709],[2.090077,41.363691],[2.089839,41.363743],[2.089825,41.363762],[2.089702,41.363921],[2.08972,41.363975],[2.089039,41.364388],[2.088911,41.364398],[2.088787,41.364378],[2.08851,41.364376],[2.088262,41.364373],[2.088158,41.36437],[2.08809,41.364371],[2.087893,41.364405],[2.087746,41.364454],[2.08763,41.364539],[2.087388,41.364603],[2.087292,41.364736],[2.087113,41.365072],[2.0871,41.365109],[2.087064,41.365444],[2.087032,41.36578],[2.087029,41.365956],[2.087019,41.366756],[2.087013,41.366863],[2.087235,41.366943],[2.087122,41.367217],[2.087058,41.367361],[2.087102,41.367453],[2.087347,41.367965],[2.087482,41.368249],[2.087503,41.368292],[2.087856,41.36903],[2.088752,41.369046],[2.088925,41.369049],[2.088925,41.369054],[2.090451,41.369089],[2.09044,41.368929],[2.090367,41.368736],[2.090308,41.368611],[2.090186,41.368539],[2.090072,41.368499],[2.089873,41.368473],[2.089579,41.368449],[2.089624,41.368105],[2.089616,41.367877],[2.089089,41.367865],[2.089085,41.367825],[2.089212,41.367625],[2.089444,41.36732],[2.089705,41.366964],[2.089831,41.366744],[2.089985,41.366595],[2.090158,41.366448],[2.090436,41.366257],[2.090916,41.366526],[2.091915,41.367063],[2.091942,41.36717],[2.092441,41.367417],[2.093047,41.366836],[2.09322,41.36668],[2.09346,41.366496],[2.093816,41.366177],[2.09418,41.365901],[2.094416,41.365996],[2.09449,41.366132],[2.094507,41.366297],[2.094487,41.366382],[2.094589,41.366548],[2.095422,41.36669],[2.09607,41.366802],[2.095828,41.367101],[2.095677,41.367287],[2.095604,41.367268],[2.095155,41.366995],[2.09488,41.367378],[2.096845,41.367951],[2.096862,41.367796],[2.096914,41.367707],[2.09763,41.367775],[2.097669,41.36778],[2.097644,41.368175],[2.097645,41.368184],[2.097705,41.368201],[2.098968,41.368569],[2.099281,41.36866],[2.098762,41.370145],[2.098821,41.370183],[2.098955,41.370442],[2.09943,41.371121],[2.099579,41.371326],[2.099784,41.371618],[2.09992,41.371839],[2.100218,41.37226],[2.100373,41.372486],[2.100534,41.372721],[2.101353,41.373023],[2.101508,41.373243],[2.101543,41.37343],[2.101435,41.37392],[2.10143,41.374301],[2.101391,41.374405],[2.101325,41.374562],[2.101006,41.374998],[2.100318,41.376308],[2.100261,41.376416],[2.100335,41.376547],[2.100381,41.376577],[2.101891,41.377572],[2.101908,41.377583],[2.102034,41.377568],[2.101877,41.376314],[2.102223,41.376292],[2.10288,41.376257],[2.104139,41.376178],[2.105002,41.376125],[2.105974,41.376046],[2.10669,41.375989],[2.107304,41.375951],[2.107792,41.375931],[2.10775,41.376081],[2.107693,41.376205],[2.108424,41.376592],[2.108502,41.376641],[2.10871,41.376446],[2.108509,41.37614],[2.108457,41.37589],[2.110354,41.375851],[2.113005,41.375794],[2.115291,41.375764],[2.11707,41.375736],[2.11779,41.375711],[2.117947,41.375772],[2.118089,41.375869],[2.119855,41.376877],[2.121275,41.377746],[2.121339,41.377711],[2.121396,41.377586],[2.121461,41.377256],[2.121448,41.376781],[2.121393,41.376319],[2.121448,41.376105],[2.121557,41.375775],[2.121712,41.375547],[2.122238,41.375226],[2.122983,41.374878],[2.123265,41.374737],[2.123568,41.374448],[2.123785,41.374207],[2.123985,41.373786],[2.124131,41.37353],[2.124347,41.373399],[2.124834,41.373149],[2.125379,41.372851],[2.126064,41.37237],[2.12662,41.371981],[2.127188,41.371573],[2.12757,41.371383],[2.128066,41.37115],[2.128706,41.370883],[2.129241,41.37063],[2.129576,41.370368],[2.130067,41.3699],[2.130674,41.36924],[2.131147,41.368571],[2.131371,41.368296],[2.131548,41.368038],[2.131708,41.367619],[2.131827,41.367269],[2.131893,41.367071],[2.131956,41.366824],[2.132129,41.366549],[2.132666,41.365784],[2.13274,41.365622],[2.132796,41.365521]]]]}}]}