{"type":"FeatureCollection","name":"ICGC Àrees de poblament - Monistrol de Montserrat","features":[{"type":"Feature","id":"081271_081271 AP02 BAG 2","properties":{"area_id":"081271_081271 AP02 BAG 2","nom":"Collcabiró","codi_icgc":"081271 AP02 BAG 2","categoria":"Àrees de poblament","codi_municipi":"081271","municipi":"Monistrol de Montserrat","codi_comarca":"07","comarca":"Bages","provincia":"Barcelona","font":"ICGC Àrees de poblament v3r1 202602"},"geometry":{"type":"MultiPolygon","coordinates":[[[[1.846873,41.608456],[1.847339,41.608658],[1.847399,41.608608],[1.847418,41.608592],[1.847513,41.608508],[1.847672,41.608352],[1.847785,41.608248],[1.847941,41.608358],[1.847912,41.608433],[1.847825,41.608537],[1.847965,41.608612],[1.847975,41.608607],[1.847978,41.608604],[1.848084,41.60855],[1.848116,41.608525],[1.848189,41.608459],[1.848289,41.608368],[1.848389,41.60828],[1.848578,41.608086],[1.84859,41.608074],[1.848668,41.608009],[1.848676,41.608002],[1.848793,41.607898],[1.848749,41.607867],[1.848973,41.607669],[1.849064,41.607551],[1.849116,41.607502],[1.849095,41.607489],[1.849078,41.607478],[1.849162,41.607404],[1.849184,41.607383],[1.849195,41.60739],[1.849356,41.607246],[1.849342,41.607238],[1.849267,41.60719],[1.849254,41.607183],[1.849274,41.607164],[1.849271,41.607162],[1.849274,41.607157],[1.849258,41.607147],[1.849361,41.607053],[1.849348,41.607045],[1.849329,41.607033],[1.849319,41.607024],[1.849241,41.606972],[1.849277,41.606951],[1.849284,41.606944],[1.849322,41.606907],[1.849351,41.606877],[1.849422,41.606805],[1.849482,41.606772],[1.849623,41.606618],[1.849665,41.606571],[1.849791,41.606519],[1.849885,41.606418],[1.849898,41.606345],[1.849966,41.606279],[1.849973,41.606238],[1.849978,41.606208],[1.850011,41.606131],[1.850027,41.606042],[1.849989,41.606027],[1.850042,41.605966],[1.850068,41.605937],[1.850046,41.605926],[1.849959,41.605883],[1.8499,41.60595],[1.849834,41.605918],[1.849893,41.60585],[1.849796,41.605803],[1.84988,41.605705],[1.849894,41.605688],[1.849911,41.605668],[1.849997,41.605566],[1.850247,41.605616],[1.850274,41.605594],[1.850294,41.60557],[1.850308,41.605542],[1.850314,41.605514],[1.850313,41.605484],[1.850311,41.605476],[1.850348,41.605485],[1.85037,41.605495],[1.850366,41.605529],[1.850355,41.605562],[1.850336,41.605593],[1.85031,41.605621],[1.850279,41.605646],[1.850242,41.605666],[1.85035,41.605719],[1.850379,41.605693],[1.850403,41.605664],[1.850419,41.605632],[1.850428,41.605599],[1.85043,41.605565],[1.850423,41.605531],[1.850435,41.605543],[1.850452,41.605569],[1.850462,41.605598],[1.850465,41.605627],[1.85046,41.605656],[1.850447,41.605684],[1.850427,41.60571],[1.850402,41.605733],[1.850371,41.605752],[1.850351,41.605761],[1.850439,41.605844],[1.850472,41.605814],[1.850498,41.605781],[1.850518,41.605745],[1.850531,41.605708],[1.850536,41.605669],[1.850534,41.605631],[1.850524,41.605593],[1.850521,41.605584],[1.850551,41.60557],[1.850576,41.605552],[1.850609,41.605527],[1.850642,41.605501],[1.850673,41.605472],[1.850704,41.605443],[1.850742,41.605418],[1.850784,41.605396],[1.850819,41.605381],[1.850863,41.605361],[1.850942,41.605326],[1.850979,41.60531],[1.850989,41.605305],[1.851036,41.605283],[1.851069,41.605265],[1.851097,41.605243],[1.851121,41.60522],[1.851142,41.605195],[1.851168,41.605157],[1.851195,41.60512],[1.851239,41.605067],[1.851252,41.605073],[1.851396,41.604902],[1.851384,41.604896],[1.851414,41.60486],[1.85146,41.604803],[1.85147,41.604808],[1.851616,41.604642],[1.851595,41.604632],[1.851639,41.604576],[1.851609,41.604561],[1.851652,41.60451],[1.85167,41.604519],[1.851817,41.604345],[1.851791,41.604331],[1.85181,41.604301],[1.851807,41.604272],[1.851842,41.604196],[1.851879,41.604116],[1.852031,41.603906],[1.852021,41.603794],[1.851735,41.60378],[1.851663,41.603759],[1.851542,41.603724],[1.851498,41.603833],[1.851441,41.603927],[1.851348,41.604052],[1.851233,41.604182],[1.85122,41.604196],[1.850947,41.604504],[1.850935,41.60452],[1.850725,41.604771],[1.850712,41.604765],[1.850662,41.604822],[1.850652,41.604817],[1.850574,41.604907],[1.850091,41.605213],[1.850038,41.605241],[1.849947,41.605204],[1.84998,41.605159],[1.849968,41.605138],[1.849964,41.605131],[1.849963,41.605126],[1.850113,41.604937],[1.850312,41.604686],[1.850321,41.604674],[1.850471,41.604425],[1.850576,41.604257],[1.850612,41.604213],[1.850608,41.604208],[1.850593,41.604191],[1.850572,41.604164],[1.850582,41.604111],[1.850631,41.604127],[1.850812,41.603809],[1.850766,41.603795],[1.850629,41.603751],[1.850471,41.60403],[1.85046,41.604015],[1.850419,41.604066],[1.850382,41.604112],[1.850373,41.604124],[1.85036,41.604141],[1.850315,41.604196],[1.850301,41.604212],[1.85024,41.604282],[1.850191,41.604334],[1.850142,41.604387],[1.850173,41.604314],[1.85018,41.604298],[1.850186,41.604283],[1.85019,41.604274],[1.850195,41.604264],[1.850203,41.60425],[1.850224,41.604215],[1.850234,41.604196],[1.850259,41.604152],[1.850272,41.604124],[1.850288,41.604088],[1.850309,41.604031],[1.850329,41.603975],[1.850335,41.603958],[1.850386,41.603829],[1.850391,41.603806],[1.850392,41.603782],[1.850388,41.603734],[1.850381,41.603702],[1.850373,41.603682],[1.850361,41.603664],[1.850332,41.603633],[1.850298,41.603606],[1.850264,41.603588],[1.850228,41.603575],[1.850203,41.603568],[1.850175,41.603562],[1.850147,41.60356],[1.850128,41.60356],[1.850069,41.603565],[1.850011,41.603571],[1.849921,41.603582],[1.849832,41.603595],[1.849783,41.603604],[1.84977,41.603608],[1.849703,41.603622],[1.849686,41.603628],[1.849645,41.603667],[1.849635,41.603676],[1.84963,41.603684],[1.849629,41.603692],[1.849634,41.603711],[1.849649,41.603744],[1.84978,41.603792],[1.849817,41.603804],[1.849856,41.603838],[1.84986,41.603852],[1.849858,41.603865],[1.849853,41.603877],[1.849844,41.603887],[1.849815,41.603912],[1.849785,41.603936],[1.849774,41.603946],[1.849761,41.603954],[1.849741,41.603959],[1.84972,41.603958],[1.849672,41.603953],[1.849625,41.603949],[1.849565,41.603943],[1.849504,41.603938],[1.849433,41.603935],[1.849312,41.603942],[1.849307,41.603943],[1.849279,41.603957],[1.849259,41.603976],[1.84925,41.603991],[1.849246,41.604006],[1.849247,41.604017],[1.84925,41.604036],[1.849251,41.604039],[1.849253,41.604054],[1.849264,41.604082],[1.849263,41.604092],[1.84926,41.604099],[1.849253,41.604105],[1.849234,41.604114],[1.849206,41.604126],[1.849177,41.604134],[1.849097,41.60415],[1.849018,41.604164],[1.849011,41.604165],[1.848965,41.604173],[1.848903,41.604183],[1.848841,41.604192],[1.848813,41.604196],[1.848798,41.604198],[1.84877,41.604146],[1.848759,41.604125],[1.848742,41.604094],[1.848719,41.60406],[1.848688,41.604029],[1.848658,41.604009],[1.84864,41.603997],[1.848588,41.603969],[1.848545,41.603947],[1.848502,41.603925],[1.848417,41.603963],[1.848379,41.603989],[1.848364,41.603999],[1.848294,41.604011],[1.848156,41.604008],[1.848051,41.604006],[1.84781,41.604005],[1.847773,41.604013],[1.847764,41.604015],[1.847726,41.604025],[1.847689,41.604036],[1.847605,41.604099],[1.8476,41.604099],[1.847577,41.604115],[1.847549,41.604128],[1.847496,41.604133],[1.847459,41.604121],[1.847411,41.604068],[1.847405,41.604061],[1.847319,41.603985],[1.847189,41.60392],[1.847068,41.60385],[1.847023,41.603756],[1.846992,41.603721],[1.846986,41.603674],[1.846963,41.603504],[1.846964,41.603357],[1.8471,41.603176],[1.847091,41.603172],[1.847046,41.603153],[1.846993,41.603129],[1.84695,41.603115],[1.846928,41.603106],[1.84691,41.603097],[1.84683,41.603044],[1.846749,41.602991],[1.846652,41.603038],[1.846509,41.603073],[1.846503,41.603067],[1.846462,41.603022],[1.846335,41.603021],[1.846321,41.603036],[1.846036,41.603075],[1.846085,41.603202],[1.846086,41.603205],[1.846093,41.603301],[1.846103,41.603342],[1.846114,41.603384],[1.846123,41.60341],[1.846126,41.603422],[1.846131,41.603436],[1.84619,41.603519],[1.846206,41.603551],[1.846258,41.603603],[1.846317,41.603664],[1.846531,41.603952],[1.846518,41.603966],[1.846535,41.603994],[1.846561,41.604038],[1.846581,41.604073],[1.846584,41.604086],[1.84658,41.604106],[1.846565,41.604087],[1.846518,41.604116],[1.846389,41.60406],[1.846376,41.604055],[1.846314,41.604025],[1.846192,41.603967],[1.846188,41.603981],[1.846171,41.604038],[1.846165,41.60404],[1.846153,41.604042],[1.846013,41.6044],[1.845919,41.604385],[1.845807,41.604367],[1.845748,41.604355],[1.845742,41.604354],[1.845691,41.60434],[1.845578,41.604307],[1.845486,41.604281],[1.845393,41.604256],[1.845307,41.604234],[1.84522,41.604214],[1.845175,41.604204],[1.845167,41.604203],[1.845132,41.604197],[1.845128,41.604196],[1.845096,41.604194],[1.845064,41.604194],[1.845,41.604193],[1.84493,41.604185],[1.844861,41.604176],[1.844811,41.604169],[1.844764,41.604157],[1.844666,41.604122],[1.844609,41.604101],[1.844569,41.604087],[1.844406,41.604027],[1.844363,41.604022],[1.84434,41.604017],[1.844311,41.604015],[1.844278,41.604015],[1.844251,41.604017],[1.844224,41.604025],[1.844203,41.604031],[1.844162,41.604051],[1.844145,41.604065],[1.84414,41.604073],[1.844133,41.604082],[1.84413,41.604091],[1.844129,41.604094],[1.844127,41.60411],[1.844126,41.604127],[1.844128,41.604159],[1.844132,41.604181],[1.844136,41.604197],[1.844142,41.604216],[1.844144,41.604238],[1.844158,41.604291],[1.844191,41.604351],[1.844217,41.604392],[1.844342,41.604559],[1.844328,41.60456],[1.844136,41.6046],[1.844222,41.604825],[1.844341,41.604772],[1.844462,41.604713],[1.844366,41.60459],[1.844405,41.604635],[1.844472,41.604715],[1.844483,41.604728],[1.844525,41.604777],[1.84484,41.605132],[1.844857,41.605154],[1.844679,41.605225],[1.844709,41.605321],[1.844802,41.605455],[1.844904,41.605461],[1.845033,41.605437],[1.845188,41.605593],[1.845318,41.605631],[1.845334,41.605636],[1.845372,41.605662],[1.845458,41.605697],[1.845526,41.605723],[1.845596,41.605734],[1.845768,41.605752],[1.84592,41.605797],[1.846026,41.605847],[1.846069,41.605871],[1.846072,41.605873],[1.846105,41.605891],[1.846239,41.606034],[1.846339,41.606138],[1.846218,41.606169],[1.846125,41.606187],[1.846084,41.606187],[1.846043,41.606187],[1.846027,41.606186],[1.845969,41.606183],[1.845896,41.606177],[1.845837,41.606172],[1.845817,41.60617],[1.845738,41.606163],[1.845669,41.606156],[1.845279,41.606135],[1.845095,41.60624],[1.845066,41.606257],[1.845169,41.60651],[1.845173,41.606508],[1.845178,41.606524],[1.845196,41.606556],[1.845215,41.606581],[1.845256,41.606629],[1.845263,41.606625],[1.845307,41.606696],[1.845329,41.606713],[1.845543,41.606633],[1.846087,41.606673],[1.84631,41.606684],[1.846517,41.606695],[1.846573,41.606697],[1.84651,41.606906],[1.846486,41.606953],[1.846451,41.606948],[1.846382,41.606945],[1.846348,41.606942],[1.846315,41.606936],[1.846218,41.606909],[1.846122,41.606881],[1.846047,41.606861],[1.845972,41.606842],[1.845948,41.606836],[1.845915,41.606906],[1.845894,41.606906],[1.845651,41.606901],[1.845636,41.606901],[1.845621,41.6069],[1.845612,41.606916],[1.845609,41.606921],[1.845606,41.606937],[1.845608,41.606953],[1.84561,41.606961],[1.845613,41.60697],[1.84562,41.606986],[1.845657,41.60704],[1.8457,41.607089],[1.845761,41.607151],[1.845826,41.60721],[1.845854,41.607235],[1.845896,41.607271],[1.845939,41.607308],[1.845975,41.607338],[1.846012,41.607369],[1.846045,41.607401],[1.846079,41.607433],[1.846092,41.607442],[1.846231,41.607574],[1.846387,41.607743],[1.846463,41.607739],[1.846626,41.607874],[1.846802,41.607976],[1.846972,41.608063],[1.846991,41.608161],[1.847012,41.608156],[1.847017,41.608212],[1.847004,41.608248],[1.846938,41.608391],[1.846917,41.608397],[1.846897,41.608408],[1.846873,41.608456]]]]}},{"type":"Feature","id":"081271_081271 AP04 BAG 1","properties":{"area_id":"081271_081271 AP04 BAG 1","nom":"Monestir de Montserrat","codi_icgc":"081271 AP04 BAG 1","categoria":"Àrees de poblament","codi_municipi":"081271","municipi":"Monistrol de Montserrat","codi_comarca":"07","comarca":"Bages","provincia":"Barcelona","font":"ICGC Àrees de poblament v3r1 202602"},"geometry":{"type":"MultiPolygon","coordinates":[[[[1.836906,41.592452],[1.836811,41.592433],[1.836475,41.592342],[1.836118,41.592244],[1.835661,41.592125],[1.835225,41.592063],[1.835,41.592034],[1.834806,41.592016],[1.834728,41.592023],[1.834717,41.592024],[1.83465,41.592151],[1.834664,41.592163],[1.834891,41.592264],[1.834977,41.592393],[1.835145,41.592567],[1.835144,41.592638],[1.83528,41.59283],[1.835425,41.592884],[1.835545,41.592957],[1.835747,41.593021],[1.835891,41.593118],[1.836354,41.593604],[1.836481,41.593737],[1.836558,41.593796],[1.836658,41.59381],[1.836777,41.59379],[1.83739,41.593625],[1.83814,41.593916],[1.838936,41.5942],[1.838962,41.594228],[1.839025,41.594298],[1.839145,41.594375],[1.839176,41.594414],[1.839137,41.594456],[1.838998,41.594573],[1.839064,41.594637],[1.839189,41.594729],[1.839189,41.594762],[1.839156,41.5948],[1.839129,41.594869],[1.83913,41.594871],[1.839186,41.594895],[1.839326,41.594916],[1.839347,41.594874],[1.839411,41.59475],[1.839493,41.59476],[1.839627,41.594743],[1.839703,41.594729],[1.839857,41.594692],[1.83987,41.59469],[1.83989,41.594597],[1.839897,41.59455],[1.839936,41.594507],[1.839937,41.594441],[1.839945,41.594388],[1.839945,41.594369],[1.839958,41.594341],[1.840022,41.594337],[1.840104,41.594352],[1.840262,41.594368],[1.840349,41.594396],[1.840389,41.594402],[1.840446,41.594369],[1.840466,41.594332],[1.840492,41.594303],[1.840549,41.594304],[1.840638,41.594309],[1.840739,41.594363],[1.840814,41.594407],[1.840823,41.59442],[1.840959,41.594441],[1.840993,41.59444],[1.84104,41.594411],[1.841168,41.594491],[1.841251,41.594492],[1.841302,41.594435],[1.841401,41.594269],[1.841408,41.594217],[1.841336,41.594128],[1.841168,41.594143],[1.841086,41.59409],[1.841036,41.59407],[1.840907,41.594179],[1.840688,41.594],[1.840155,41.593585],[1.839822,41.593806],[1.839726,41.593754],[1.838771,41.59329],[1.838658,41.593217],[1.838614,41.593145],[1.838603,41.59305],[1.838636,41.59297],[1.838629,41.592967],[1.838601,41.592811],[1.83838,41.592832],[1.838341,41.592835],[1.838099,41.592854],[1.837991,41.592853],[1.837625,41.592711],[1.837207,41.592497],[1.836962,41.592464],[1.836906,41.592452]]]]}},{"type":"Feature","id":"081271_081271 AP06 BAG 2","properties":{"area_id":"081271_081271 AP06 BAG 2","nom":"Monistrol Residencial","codi_icgc":"081271 AP06 BAG 2","categoria":"Àrees de poblament","codi_municipi":"081271","municipi":"Monistrol de Montserrat","codi_comarca":"07","comarca":"Bages","provincia":"Barcelona","font":"ICGC Àrees de poblament v3r1 202602"},"geometry":{"type":"MultiPolygon","coordinates":[[[[1.85073,41.61379],[1.851047,41.613895],[1.85138,41.613982],[1.851949,41.614121],[1.852065,41.613927],[1.852073,41.613909],[1.852087,41.613883],[1.852021,41.613865],[1.852138,41.613672],[1.852273,41.613709],[1.852274,41.613708],[1.852406,41.613749],[1.852442,41.613755],[1.852511,41.613708],[1.85253,41.613678],[1.852537,41.613655],[1.852534,41.613613],[1.852488,41.613563],[1.852433,41.613505],[1.852395,41.613457],[1.852346,41.613393],[1.852301,41.613334],[1.852229,41.613238],[1.851903,41.613106],[1.851752,41.613047],[1.85157,41.612962],[1.851514,41.612906],[1.851475,41.612737],[1.851486,41.612655],[1.851526,41.612541],[1.851598,41.612467],[1.85177,41.612386],[1.851737,41.612346],[1.8517,41.612281],[1.851622,41.612052],[1.851558,41.611899],[1.851493,41.611807],[1.851408,41.611735],[1.851238,41.611641],[1.851046,41.611562],[1.850884,41.611551],[1.850867,41.611622],[1.850719,41.611673],[1.850539,41.611741],[1.85035,41.611702],[1.850258,41.611652],[1.850108,41.611548],[1.850065,41.611424],[1.849968,41.61142],[1.849833,41.611413],[1.849243,41.611257],[1.849077,41.611537],[1.849,41.611516],[1.848968,41.611584],[1.849322,41.611712],[1.849231,41.611825],[1.848981,41.611864],[1.849137,41.612192],[1.849213,41.612355],[1.849147,41.612386],[1.848908,41.612499],[1.848927,41.612589],[1.849059,41.612721],[1.849106,41.612695],[1.849213,41.612811],[1.849253,41.612793],[1.849418,41.612704],[1.849517,41.61285],[1.849641,41.612994],[1.849806,41.613152],[1.850034,41.613349],[1.850276,41.613542],[1.850301,41.613555],[1.85035,41.613582],[1.850361,41.613589],[1.85067,41.613758],[1.85073,41.61379]]]]}},{"type":"Feature","id":"081271_081271 AP01 BAG 3","properties":{"area_id":"081271_081271 AP01 BAG 3","nom":"Monistrol de Montserrat","codi_icgc":"081271 AP01 BAG 3","categoria":"Àrees de poblament","codi_municipi":"081271","municipi":"Monistrol de Montserrat","codi_comarca":"07","comarca":"Bages","provincia":"Barcelona","font":"ICGC Àrees de poblament v3r1 202602"},"geometry":{"type":"MultiPolygon","coordinates":[[[[1.848306,41.611592],[1.848289,41.611494],[1.848404,41.611441],[1.848374,41.61137],[1.848468,41.611278],[1.848485,41.611248],[1.848504,41.611215],[1.848512,41.611166],[1.848533,41.611104],[1.848632,41.61097],[1.848738,41.610845],[1.848792,41.610817],[1.848874,41.610778],[1.848939,41.610723],[1.848965,41.610666],[1.84899,41.610617],[1.84911,41.610426],[1.849519,41.609926],[1.849533,41.6099],[1.849862,41.609491],[1.850021,41.60928],[1.85014,41.609118],[1.850603,41.609287],[1.850703,41.609133],[1.850721,41.609105],[1.850729,41.608993],[1.850722,41.608923],[1.850709,41.608896],[1.850683,41.608855],[1.850634,41.608816],[1.850561,41.608774],[1.850496,41.608748],[1.850434,41.60873],[1.850535,41.608586],[1.850619,41.608497],[1.850776,41.608305],[1.850776,41.608304],[1.85109,41.607941],[1.851109,41.607923],[1.851288,41.607782],[1.851443,41.607655],[1.851449,41.607627],[1.851429,41.607608],[1.851422,41.607602],[1.851348,41.607623],[1.851224,41.607658],[1.851214,41.607657],[1.85119,41.607656],[1.851091,41.607694],[1.851079,41.6077],[1.851047,41.607715],[1.851041,41.607718],[1.851003,41.607713],[1.850957,41.607708],[1.850879,41.607698],[1.850866,41.607697],[1.850829,41.607675],[1.850822,41.607674],[1.850769,41.607676],[1.85073,41.607668],[1.850717,41.607665],[1.850694,41.607656],[1.850667,41.607645],[1.850509,41.607587],[1.850429,41.607557],[1.850401,41.607544],[1.850327,41.607561],[1.850291,41.607602],[1.850256,41.607664],[1.850205,41.60775],[1.85015,41.607828],[1.850127,41.607955],[1.850091,41.608012],[1.850033,41.608131],[1.849991,41.608218],[1.849956,41.608277],[1.849855,41.608394],[1.849803,41.608468],[1.849763,41.608573],[1.849741,41.60864],[1.849718,41.608655],[1.849633,41.608755],[1.849601,41.608902],[1.849601,41.608907],[1.849597,41.608906],[1.849504,41.608884],[1.849465,41.608875],[1.849392,41.608933],[1.849305,41.609002],[1.849191,41.609092],[1.849177,41.609084],[1.849165,41.609093],[1.849178,41.609104],[1.84916,41.609118],[1.849031,41.609207],[1.849035,41.609228],[1.849036,41.609234],[1.849038,41.609244],[1.849038,41.609247],[1.849039,41.609253],[1.849041,41.609261],[1.849049,41.609308],[1.848862,41.609495],[1.848549,41.609345],[1.84848,41.609446],[1.848413,41.609519],[1.84827,41.609627],[1.848067,41.609788],[1.847576,41.610196],[1.847419,41.610315],[1.847361,41.610369],[1.847315,41.610475],[1.847237,41.61069],[1.847198,41.610801],[1.847105,41.6111],[1.847059,41.611294],[1.847167,41.611346],[1.847296,41.611425],[1.847317,41.611451],[1.847324,41.611459],[1.847342,41.611481],[1.847435,41.611527],[1.847453,41.611523],[1.847659,41.611598],[1.847809,41.611628],[1.848068,41.611725],[1.848178,41.611738],[1.848284,41.611705],[1.848302,41.611661],[1.848306,41.611592]]],[[[1.847687,41.613837],[1.847876,41.613805],[1.848103,41.613813],[1.848209,41.613832],[1.848213,41.613818],[1.848249,41.613711],[1.847992,41.613612],[1.847808,41.613526],[1.847651,41.613435],[1.847564,41.613374],[1.84751,41.6133],[1.847481,41.61322],[1.847473,41.613178],[1.847483,41.613171],[1.8474,41.613043],[1.847348,41.612957],[1.847339,41.61294],[1.847263,41.612817],[1.847208,41.612697],[1.847186,41.612595],[1.847163,41.612504],[1.847157,41.61248],[1.84713,41.612377],[1.847108,41.61226],[1.847094,41.612108],[1.846789,41.612155],[1.84665,41.612182],[1.846565,41.612197],[1.846553,41.612199],[1.846521,41.612205],[1.846421,41.612524],[1.846387,41.612635],[1.846374,41.612652],[1.846354,41.612677],[1.846306,41.612748],[1.846262,41.612822],[1.846238,41.612846],[1.846158,41.612866],[1.846117,41.612863],[1.846033,41.612854],[1.845962,41.612854],[1.845918,41.612867],[1.84587,41.612912],[1.845853,41.613105],[1.845848,41.61318],[1.845985,41.613431],[1.846084,41.613602],[1.846105,41.613643],[1.846142,41.613691],[1.846205,41.613718],[1.846374,41.613731],[1.846593,41.613738],[1.8467,41.613739],[1.846795,41.613764],[1.846884,41.613782],[1.846934,41.613804],[1.847004,41.6138],[1.847073,41.613788],[1.847085,41.613779],[1.847111,41.613787],[1.847206,41.613821],[1.847235,41.613914],[1.847268,41.613915],[1.847488,41.613867],[1.847687,41.613837]]],[[[1.844022,41.614448],[1.844094,41.614431],[1.844098,41.61444],[1.844262,41.614397],[1.844273,41.614394],[1.844291,41.614353],[1.844287,41.614305],[1.84427,41.614238],[1.844195,41.614167],[1.844055,41.614076],[1.844078,41.614065],[1.844187,41.614054],[1.84432,41.614028],[1.844143,41.613695],[1.844124,41.613601],[1.844072,41.613492],[1.844005,41.613334],[1.843977,41.613239],[1.843962,41.613063],[1.843964,41.612834],[1.843991,41.612575],[1.844006,41.612492],[1.844034,41.612412],[1.844073,41.612314],[1.844121,41.612222],[1.844175,41.612128],[1.844207,41.612076],[1.844277,41.611965],[1.844291,41.611945],[1.844332,41.611885],[1.844406,41.611804],[1.844477,41.611735],[1.844608,41.611612],[1.844697,41.611536],[1.844784,41.611464],[1.844923,41.611364],[1.844951,41.611344],[1.845006,41.611308],[1.845084,41.611257],[1.845089,41.611254],[1.845176,41.611194],[1.845286,41.611119],[1.845525,41.610957],[1.845586,41.610915],[1.845704,41.610831],[1.845728,41.61081],[1.845773,41.610773],[1.845828,41.610716],[1.845852,41.610682],[1.845884,41.610639],[1.845923,41.610572],[1.845953,41.610491],[1.845984,41.610405],[1.846029,41.61026],[1.846059,41.610174],[1.846079,41.61012],[1.846148,41.609959],[1.846254,41.610009],[1.846377,41.610068],[1.846394,41.610076],[1.846507,41.609954],[1.84651,41.60995],[1.846535,41.609919],[1.846607,41.60979],[1.846668,41.609679],[1.846702,41.609679],[1.846982,41.609213],[1.846961,41.609197],[1.846783,41.609138],[1.846725,41.609147],[1.846625,41.609171],[1.846505,41.609368],[1.846244,41.609276],[1.84605,41.60921],[1.846027,41.609226],[1.845701,41.609542],[1.845567,41.609667],[1.845427,41.609755],[1.845235,41.609873],[1.845117,41.609793],[1.845046,41.609766],[1.844922,41.60971],[1.844721,41.609615],[1.844654,41.609548],[1.844624,41.609503],[1.844576,41.609422],[1.84454,41.609364],[1.844504,41.609318],[1.844451,41.609276],[1.844388,41.609238],[1.844289,41.6092],[1.844244,41.609189],[1.844176,41.60918],[1.844066,41.60918],[1.843974,41.609197],[1.843909,41.609215],[1.843858,41.609213],[1.843817,41.609198],[1.843738,41.609147],[1.843611,41.609082],[1.843545,41.609061],[1.84347,41.609059],[1.843371,41.609072],[1.84321,41.609118],[1.843191,41.60913],[1.843127,41.609195],[1.843049,41.609254],[1.84296,41.609296],[1.842894,41.609305],[1.842778,41.609282],[1.842708,41.609253],[1.842657,41.609202],[1.842614,41.609133],[1.842557,41.609034],[1.842531,41.60901],[1.842506,41.608987],[1.842503,41.608984],[1.842497,41.608978],[1.842493,41.608974],[1.842473,41.608953],[1.842465,41.608946],[1.842497,41.608953],[1.842587,41.608958],[1.842593,41.608957],[1.842618,41.608954],[1.842639,41.608951],[1.842661,41.608957],[1.842676,41.608967],[1.842715,41.608995],[1.842718,41.608996],[1.842752,41.608984],[1.842771,41.608983],[1.842806,41.608975],[1.842838,41.608962],[1.842861,41.60895],[1.842898,41.60893],[1.842902,41.608928],[1.842935,41.60891],[1.842986,41.608885],[1.842972,41.608866],[1.842956,41.608843],[1.84296,41.608841],[1.842981,41.60882],[1.843014,41.608786],[1.84303,41.608774],[1.843037,41.608777],[1.843046,41.608767],[1.843008,41.608741],[1.842972,41.608716],[1.842924,41.608674],[1.842859,41.608608],[1.842824,41.608614],[1.842541,41.608661],[1.842528,41.608512],[1.842434,41.608512],[1.842329,41.608513],[1.84234,41.608207],[1.842001,41.608168],[1.841932,41.608167],[1.841902,41.608207],[1.841872,41.608274],[1.841827,41.60833],[1.841781,41.608404],[1.841712,41.608389],[1.841545,41.608468],[1.84135,41.608531],[1.841304,41.60848],[1.841186,41.608496],[1.841101,41.608466],[1.841,41.608422],[1.840993,41.608432],[1.840911,41.608409],[1.84087,41.608404],[1.840794,41.608394],[1.840724,41.608396],[1.84066,41.608416],[1.840631,41.608461],[1.840633,41.608519],[1.840651,41.608571],[1.840682,41.60861],[1.840731,41.608691],[1.840755,41.608762],[1.840731,41.608782],[1.840719,41.608796],[1.840712,41.608804],[1.840702,41.60882],[1.840687,41.608861],[1.840675,41.608904],[1.840662,41.608965],[1.840661,41.60897],[1.84065,41.609026],[1.840629,41.609083],[1.8406,41.609137],[1.840598,41.60914],[1.840569,41.609176],[1.840566,41.609179],[1.84053,41.609213],[1.8405,41.609234],[1.840455,41.609256],[1.840451,41.609257],[1.840405,41.609276],[1.840372,41.609285],[1.840302,41.609298],[1.840231,41.609304],[1.840135,41.609306],[1.840039,41.609302],[1.840012,41.609297],[1.839959,41.609291],[1.83988,41.609276],[1.839829,41.609263],[1.839783,41.609248],[1.839743,41.609229],[1.839739,41.609227],[1.839716,41.609213],[1.839633,41.609152],[1.83955,41.609092],[1.839414,41.608993],[1.839278,41.608895],[1.839114,41.608776],[1.83895,41.608658],[1.838896,41.608623],[1.83884,41.60859],[1.838724,41.608528],[1.838514,41.608411],[1.838341,41.608318],[1.838269,41.608398],[1.8381,41.608588],[1.837947,41.60852],[1.837685,41.608864],[1.83762,41.608942],[1.837609,41.609089],[1.837631,41.609114],[1.837627,41.609119],[1.837692,41.609185],[1.837916,41.6093],[1.838361,41.609515],[1.838527,41.6096],[1.838472,41.609645],[1.838326,41.609772],[1.838564,41.609912],[1.838404,41.610145],[1.838366,41.610241],[1.83837,41.610261],[1.838388,41.610272],[1.838408,41.610277],[1.838419,41.610277],[1.838495,41.61026],[1.838574,41.610259],[1.838604,41.610337],[1.838784,41.610301],[1.838842,41.61028],[1.839122,41.610359],[1.839145,41.610376],[1.839206,41.61041],[1.839238,41.610426],[1.839477,41.61045],[1.839545,41.610341],[1.839638,41.610193],[1.839856,41.61023],[1.839867,41.610477],[1.839711,41.610704],[1.83973,41.610861],[1.839724,41.611048],[1.839733,41.611157],[1.839767,41.611239],[1.839809,41.611287],[1.839923,41.611334],[1.839983,41.611352],[1.8401,41.611355],[1.840211,41.61136],[1.840288,41.611363],[1.840323,41.611387],[1.840391,41.611451],[1.840456,41.611504],[1.840529,41.611579],[1.840285,41.61182],[1.84029,41.611826],[1.840405,41.611866],[1.840489,41.611896],[1.840593,41.611918],[1.840771,41.611949],[1.840805,41.611944],[1.84107,41.61184],[1.841308,41.61175],[1.841349,41.611773],[1.841415,41.611819],[1.841453,41.611857],[1.84149,41.61191],[1.841482,41.611969],[1.841466,41.612012],[1.841407,41.612029],[1.841284,41.61208],[1.841356,41.612175],[1.841357,41.612174],[1.841364,41.612181],[1.841612,41.612094],[1.841654,41.612063],[1.841666,41.612053],[1.841744,41.611976],[1.841755,41.611964],[1.841868,41.612017],[1.842163,41.6118],[1.842269,41.611735],[1.842519,41.611947],[1.842627,41.611995],[1.842604,41.612037],[1.842543,41.612133],[1.842512,41.612182],[1.842798,41.612316],[1.842653,41.612436],[1.842482,41.612564],[1.842473,41.612599],[1.842504,41.612669],[1.842672,41.612828],[1.842789,41.61287],[1.84279,41.612871],[1.842831,41.612917],[1.842884,41.612931],[1.842931,41.612954],[1.842963,41.613008],[1.843059,41.61307],[1.843089,41.6131],[1.843121,41.613231],[1.843162,41.613375],[1.843254,41.613533],[1.843358,41.613687],[1.843464,41.613866],[1.843651,41.614178],[1.843701,41.614286],[1.84373,41.61436],[1.843773,41.614427],[1.843819,41.614493],[1.843825,41.614498],[1.844022,41.614448]]],[[[1.846422,41.616004],[1.846574,41.615894],[1.84668,41.615858],[1.8468,41.615916],[1.846929,41.615979],[1.847002,41.616033],[1.847118,41.615944],[1.847204,41.615856],[1.847324,41.615693],[1.847435,41.615534],[1.84758,41.615309],[1.84751,41.615229],[1.847466,41.615217],[1.847102,41.615187],[1.847078,41.615236],[1.846836,41.61517],[1.846869,41.615105],[1.846823,41.615075],[1.84668,41.615034],[1.846642,41.615114],[1.846378,41.615044],[1.846304,41.615023],[1.846243,41.614999],[1.846248,41.614942],[1.84626,41.614921],[1.846326,41.614872],[1.846335,41.614854],[1.846327,41.614826],[1.846297,41.614807],[1.846192,41.614782],[1.846105,41.614752],[1.84606,41.614736],[1.846042,41.614747],[1.846032,41.614771],[1.846005,41.614834],[1.845973,41.614897],[1.845946,41.614911],[1.84592,41.614909],[1.84588,41.614887],[1.84582,41.614837],[1.845763,41.614812],[1.845662,41.614796],[1.845568,41.614774],[1.845482,41.614744],[1.845427,41.614742],[1.845391,41.614755],[1.845346,41.614799],[1.845294,41.614841],[1.845252,41.614865],[1.845169,41.614883],[1.845104,41.614888],[1.845028,41.61492],[1.845159,41.61516],[1.845377,41.615493],[1.845403,41.615559],[1.845574,41.615778],[1.845684,41.615908],[1.845722,41.615901],[1.845752,41.61594],[1.846008,41.616148],[1.846032,41.616156],[1.846086,41.616162],[1.846145,41.61615],[1.84622,41.61611],[1.846422,41.616004]]]]}},{"type":"Feature","id":"081271_081271 SI03 BAG 2","properties":{"area_id":"081271_081271 SI03 BAG 2","nom":"Peixos Povill","codi_icgc":"081271 SI03 BAG 2","categoria":"Sector industrial","codi_municipi":"081271","municipi":"Monistrol de Montserrat","codi_comarca":"07","comarca":"Bages","provincia":"Barcelona","font":"ICGC Àrees de poblament v3r1 202602"},"geometry":{"type":"MultiPolygon","coordinates":[[[[1.854858,41.621773],[1.854752,41.621816],[1.854707,41.62185],[1.854681,41.621927],[1.854679,41.621985],[1.8547,41.622033],[1.854794,41.622187],[1.854896,41.622329],[1.855079,41.62226],[1.855133,41.62224],[1.855208,41.622239],[1.855274,41.622239],[1.855375,41.622074],[1.855456,41.622001],[1.855468,41.621991],[1.85547,41.621988],[1.855512,41.621923],[1.85557,41.621901],[1.855657,41.621866],[1.855828,41.62182],[1.855845,41.621776],[1.855762,41.621596],[1.855715,41.621504],[1.855563,41.621565],[1.855486,41.621615],[1.855215,41.6216],[1.855149,41.621613],[1.85509,41.621633],[1.854943,41.621723],[1.854858,41.621773]]]]}},{"type":"Feature","id":"081271_081271 SI01 BAG 2","properties":{"area_id":"081271_081271 SI01 BAG 2","nom":"Polígon industrial El Mas","codi_icgc":"081271 SI01 BAG 2","categoria":"Sector industrial","codi_municipi":"081271","municipi":"Monistrol de Montserrat","codi_comarca":"07","comarca":"Bages","provincia":"Barcelona","font":"ICGC Àrees de poblament v3r1 202602"},"geometry":{"type":"MultiPolygon","coordinates":[[[[1.850349,41.61901],[1.850359,41.619006],[1.850422,41.619071],[1.850539,41.619129],[1.850615,41.619099],[1.8509,41.619275],[1.850968,41.619324],[1.851007,41.619356],[1.851046,41.619388],[1.851079,41.619381],[1.851271,41.619322],[1.851374,41.61929],[1.851358,41.619237],[1.851286,41.619033],[1.851221,41.618842],[1.851164,41.618809],[1.851006,41.618726],[1.850927,41.618688],[1.850907,41.618666],[1.85078,41.618535],[1.850794,41.618503],[1.850805,41.618465],[1.850817,41.618434],[1.850821,41.618401],[1.850823,41.618334],[1.850828,41.618247],[1.850829,41.618159],[1.850821,41.618102],[1.850747,41.617861],[1.850556,41.617239],[1.85055,41.616883],[1.850572,41.616844],[1.850501,41.616723],[1.850398,41.616748],[1.850325,41.616765],[1.850296,41.61675],[1.850216,41.616712],[1.850137,41.616674],[1.850054,41.616634],[1.850138,41.616516],[1.850306,41.616435],[1.850325,41.616388],[1.850332,41.616338],[1.850303,41.616278],[1.850259,41.616225],[1.850213,41.616184],[1.850165,41.616153],[1.850116,41.616126],[1.850073,41.616116],[1.850023,41.616111],[1.849977,41.616112],[1.849903,41.616116],[1.849814,41.616111],[1.849736,41.616081],[1.849353,41.615929],[1.849104,41.615877],[1.847999,41.616142],[1.847841,41.616186],[1.84778,41.616203],[1.847593,41.616255],[1.847639,41.616283],[1.847815,41.616389],[1.847867,41.616402],[1.847865,41.61641],[1.847861,41.616432],[1.847856,41.616457],[1.84774,41.616543],[1.847412,41.616756],[1.847366,41.616774],[1.847281,41.616807],[1.847276,41.616856],[1.847321,41.616905],[1.847362,41.616918],[1.847362,41.616918],[1.847377,41.616922],[1.847425,41.616943],[1.847472,41.616967],[1.847512,41.616991],[1.84755,41.617019],[1.847626,41.617082],[1.847702,41.617145],[1.847799,41.617233],[1.847916,41.617337],[1.848034,41.617442],[1.848142,41.61754],[1.848176,41.617572],[1.848248,41.617639],[1.848324,41.617711],[1.8484,41.617784],[1.848464,41.617839],[1.848535,41.61789],[1.848611,41.617934],[1.84869,41.617974],[1.848803,41.618024],[1.848916,41.618075],[1.849002,41.618115],[1.849086,41.618156],[1.849143,41.618189],[1.849194,41.618226],[1.849249,41.61828],[1.849296,41.618338],[1.849354,41.618424],[1.849406,41.618512],[1.849431,41.618564],[1.84944,41.618613],[1.849445,41.61864],[1.84943,41.618695],[1.849415,41.61875],[1.849401,41.618806],[1.849389,41.618863],[1.849374,41.61896],[1.849358,41.619057],[1.849254,41.619575],[1.849252,41.619621],[1.849252,41.619634],[1.849255,41.619646],[1.849262,41.619653],[1.849272,41.619656],[1.849283,41.619656],[1.849303,41.619652],[1.849364,41.619647],[1.849425,41.61964],[1.849458,41.619633],[1.849488,41.619621],[1.849507,41.619611],[1.849548,41.619581],[1.849588,41.61955],[1.849666,41.619497],[1.849747,41.619446],[1.849797,41.61942],[1.849849,41.619396],[1.849931,41.619358],[1.850016,41.619321],[1.850082,41.619294],[1.850151,41.61927],[1.850198,41.619261],[1.850226,41.619258],[1.850279,41.619256],[1.850331,41.619251],[1.850354,41.619249],[1.850351,41.619196],[1.850352,41.619157],[1.850353,41.619118],[1.850352,41.619067],[1.850349,41.619017],[1.850349,41.61901]]]]}},{"type":"Feature","id":"081271_081271 SI02 BAG 2","properties":{"area_id":"081271_081271 SI02 BAG 2","nom":"Polígon industrial El Tortuguer-Can Prat","codi_icgc":"081271 SI02 BAG 2","categoria":"Sector industrial","codi_municipi":"081271","municipi":"Monistrol de Montserrat","codi_comarca":"07","comarca":"Bages","provincia":"Barcelona","font":"ICGC Àrees de poblament v3r1 202602"},"geometry":{"type":"MultiPolygon","coordinates":[[[[1.844748,41.618981],[1.845583,41.618951],[1.845804,41.619014],[1.845855,41.619018],[1.845912,41.619018],[1.845983,41.619014],[1.846053,41.619006],[1.846125,41.618992],[1.846136,41.618989],[1.846194,41.618973],[1.846254,41.618948],[1.846309,41.618919],[1.846311,41.618918],[1.846361,41.618871],[1.846433,41.618776],[1.846474,41.618656],[1.846475,41.618617],[1.846443,41.618352],[1.84652,41.618346],[1.846685,41.618333],[1.846755,41.618325],[1.846887,41.618309],[1.846974,41.618308],[1.847099,41.618339],[1.847153,41.618352],[1.847178,41.618373],[1.847187,41.61838],[1.847186,41.618381],[1.847205,41.6184],[1.847257,41.61845],[1.847261,41.618454],[1.847262,41.618458],[1.847267,41.618474],[1.847308,41.618831],[1.847309,41.618873],[1.847332,41.618893],[1.847357,41.618915],[1.847541,41.618987],[1.847602,41.619012],[1.847736,41.619035],[1.847964,41.61909],[1.848132,41.619084],[1.848142,41.619084],[1.848174,41.619067],[1.848178,41.619059],[1.848357,41.61876],[1.84818,41.618646],[1.848146,41.61863],[1.848115,41.618605],[1.848091,41.618589],[1.847875,41.618422],[1.847763,41.618321],[1.847574,41.618169],[1.847551,41.618096],[1.847537,41.618054],[1.847533,41.618028],[1.847269,41.617838],[1.84712,41.617745],[1.847028,41.617694],[1.846947,41.617635],[1.84682,41.617568],[1.846727,41.61751],[1.846495,41.617404],[1.846473,41.617398],[1.846344,41.617397],[1.84625,41.617392],[1.846145,41.617503],[1.846093,41.617555],[1.846044,41.617603],[1.846002,41.617645],[1.845516,41.617508],[1.845315,41.617447],[1.845221,41.617426],[1.845151,41.617416],[1.845089,41.617407],[1.844894,41.617382],[1.844804,41.617365],[1.844752,41.617351],[1.844706,41.617321],[1.844647,41.617266],[1.84463,41.617246],[1.844589,41.617199],[1.844557,41.617175],[1.8445,41.61717],[1.844453,41.617181],[1.844399,41.617198],[1.843547,41.617533],[1.843372,41.617609],[1.843311,41.617639],[1.843267,41.617676],[1.843238,41.617703],[1.843228,41.617731],[1.843232,41.617781],[1.843279,41.61794],[1.843307,41.618118],[1.843331,41.618154],[1.843369,41.618172],[1.843385,41.618179],[1.843387,41.618186],[1.843445,41.618205],[1.843447,41.618206],[1.843463,41.618211],[1.843465,41.618212],[1.843568,41.618223],[1.843625,41.618228],[1.843658,41.618231],[1.843672,41.618283],[1.843743,41.618562],[1.843779,41.619051],[1.843875,41.619162],[1.843917,41.61921],[1.844043,41.619302],[1.844079,41.619322],[1.844138,41.619329],[1.844199,41.619329],[1.844298,41.619319],[1.844434,41.619278],[1.844583,41.619205],[1.844589,41.619202],[1.844681,41.619157],[1.844719,41.619125],[1.844739,41.619098],[1.844739,41.619083],[1.844751,41.619074],[1.844762,41.619065],[1.844761,41.619058],[1.84475,41.618994],[1.844748,41.618981]]]]}},{"type":"Feature","id":"081271_081271 AP03 BAG 1","properties":{"area_id":"081271_081271 AP03 BAG 1","nom":"els Bacus","codi_icgc":"081271 AP03 BAG 1","categoria":"Àrees de poblament","codi_municipi":"081271","municipi":"Monistrol de Montserrat","codi_comarca":"07","comarca":"Bages","provincia":"Barcelona","font":"ICGC Àrees de poblament v3r1 202602"},"geometry":{"type":"MultiPolygon","coordinates":[[[[1.855975,41.61804],[1.856107,41.617961],[1.856124,41.617933],[1.856101,41.617891],[1.856078,41.617786],[1.855984,41.617718],[1.8558,41.617678],[1.855737,41.617678],[1.85556,41.617633],[1.855484,41.617575],[1.855435,41.617495],[1.855278,41.617403],[1.855138,41.617426],[1.854983,41.617522],[1.854966,41.617586],[1.855059,41.617674],[1.855101,41.617714],[1.855215,41.617739],[1.855398,41.617813],[1.855498,41.61788],[1.855573,41.617957],[1.855667,41.618018],[1.855787,41.618064],[1.855939,41.618061],[1.855975,41.61804]]]]}},{"type":"Feature","id":"081271_081271 AP05 BAG 3","properties":{"area_id":"081271_081271 AP05 BAG 3","nom":"la Colònia Gomis","codi_icgc":"081271 AP05 BAG 3","categoria":"Àrees de poblament","codi_municipi":"081271","municipi":"Monistrol de Montserrat","codi_comarca":"07","comarca":"Bages","provincia":"Barcelona","font":"ICGC Àrees de poblament v3r1 202602"},"geometry":{"type":"MultiPolygon","coordinates":[[[[1.853818,41.595163],[1.85385,41.59522],[1.853917,41.595473],[1.853919,41.595488],[1.853928,41.595467],[1.853999,41.595315],[1.854015,41.595141],[1.854042,41.595025],[1.853999,41.594943],[1.854,41.594885],[1.853994,41.594856],[1.85419,41.594723],[1.853948,41.594527],[1.853362,41.594207],[1.853254,41.594119],[1.853146,41.594036],[1.85316,41.593959],[1.853225,41.59387],[1.853237,41.593876],[1.853297,41.593903],[1.853382,41.59394],[1.853467,41.593976],[1.853538,41.594006],[1.853608,41.594035],[1.853669,41.594058],[1.853731,41.594078],[1.853788,41.594094],[1.853843,41.59411],[1.853878,41.594123],[1.853886,41.594127],[1.853907,41.594109],[1.853955,41.594067],[1.854041,41.593993],[1.854115,41.59393],[1.854063,41.593876],[1.853878,41.593768],[1.853957,41.593701],[1.853517,41.59346],[1.853519,41.593455],[1.853449,41.59343],[1.853382,41.593389],[1.853315,41.593349],[1.8533,41.593346],[1.853282,41.593348],[1.853274,41.593353],[1.85324,41.593388],[1.853205,41.593422],[1.853185,41.593432],[1.853146,41.593451],[1.853099,41.593476],[1.853078,41.593489],[1.853056,41.593495],[1.853026,41.593503],[1.853002,41.593454],[1.852946,41.593372],[1.852634,41.593224],[1.852539,41.593309],[1.852462,41.593425],[1.85284,41.593599],[1.85291,41.59362],[1.852928,41.593637],[1.852925,41.593649],[1.852923,41.593667],[1.852928,41.593702],[1.852935,41.593723],[1.85273,41.594074],[1.852689,41.594122],[1.852629,41.594151],[1.852521,41.594078],[1.852435,41.594001],[1.852409,41.593977],[1.852388,41.593958],[1.852324,41.593899],[1.852295,41.593872],[1.852283,41.593861],[1.852264,41.593843],[1.852245,41.593825],[1.852222,41.593803],[1.852214,41.593795],[1.852192,41.593795],[1.852107,41.593847],[1.852036,41.593875],[1.851939,41.593893],[1.851822,41.593874],[1.851796,41.593945],[1.851841,41.593979],[1.851857,41.594029],[1.852031,41.594126],[1.852062,41.594179],[1.852126,41.594199],[1.852179,41.594235],[1.852201,41.594249],[1.852237,41.594241],[1.852273,41.594231],[1.852309,41.594216],[1.852321,41.594203],[1.852321,41.594187],[1.85231,41.594158],[1.852307,41.594142],[1.852309,41.594136],[1.852324,41.59412],[1.852339,41.594109],[1.852343,41.594106],[1.852351,41.594104],[1.852362,41.594103],[1.852389,41.594102],[1.852408,41.594096],[1.852424,41.594082],[1.852512,41.59411],[1.852521,41.594121],[1.852569,41.594173],[1.852592,41.594198],[1.852648,41.594253],[1.852654,41.594264],[1.852666,41.594292],[1.852674,41.594321],[1.852671,41.594348],[1.852663,41.594376],[1.852649,41.594412],[1.852629,41.594448],[1.85261,41.594472],[1.852585,41.594492],[1.852554,41.594508],[1.852521,41.594523],[1.85245,41.594553],[1.852378,41.594583],[1.852344,41.594604],[1.85233,41.594617],[1.852317,41.594632],[1.852308,41.594647],[1.8523,41.594668],[1.852303,41.594718],[1.852155,41.594741],[1.852085,41.594836],[1.852347,41.595002],[1.852371,41.595017],[1.852386,41.594994],[1.85241,41.59496],[1.852434,41.594929],[1.852452,41.594916],[1.852461,41.594912],[1.852474,41.594911],[1.852473,41.594933],[1.852479,41.594959],[1.852491,41.594985],[1.852508,41.595009],[1.852533,41.595029],[1.852569,41.595051],[1.852609,41.595069],[1.85271,41.595106],[1.852864,41.595158],[1.853016,41.595214],[1.853144,41.595268],[1.853264,41.595322],[1.853365,41.595311],[1.853654,41.595025],[1.853721,41.594982],[1.853738,41.59497],[1.853809,41.595139],[1.853818,41.595163]]]]}}]}