{"type":"FeatureCollection","name":"ICGC Àrees de poblament - Montmajor","features":[{"type":"Feature","id":"081326_081326 SI01 BER 2","properties":{"area_id":"081326_081326 SI01 BER 2","nom":"Cooperativa del Berguedà","codi_icgc":"081326 SI01 BER 2","categoria":"Sector industrial","codi_municipi":"081326","municipi":"Montmajor","codi_comarca":"14","comarca":"Berguedà","provincia":"Barcelona","font":"ICGC Àrees de poblament v3r1 202602"},"geometry":{"type":"MultiPolygon","coordinates":[[[[1.702568,41.970132],[1.702709,41.970743],[1.702886,41.970726],[1.702957,41.970726],[1.703168,41.970728],[1.703303,41.970743],[1.703525,41.970764],[1.703758,41.970788],[1.704049,41.970811],[1.704227,41.970826],[1.70435,41.970835],[1.704434,41.970841],[1.704483,41.970843],[1.704522,41.970839],[1.704555,41.97083],[1.704578,41.970814],[1.704599,41.970792],[1.704601,41.970767],[1.704365,41.970536],[1.704204,41.970378],[1.704067,41.970224],[1.704048,41.970202],[1.703976,41.970096],[1.703912,41.969975],[1.70377,41.969999],[1.702568,41.970132]]]]}},{"type":"Feature","id":"081326_081326 AP04 BER 3","properties":{"area_id":"081326_081326 AP04 BER 3","nom":"Gargallà","codi_icgc":"081326 AP04 BER 3","categoria":"Àrees de poblament","codi_municipi":"081326","municipi":"Montmajor","codi_comarca":"14","comarca":"Berguedà","provincia":"Barcelona","font":"ICGC Àrees de poblament v3r1 202602"},"geometry":{"type":"MultiPolygon","coordinates":[[[[1.699644,41.970861],[1.69969,41.970854],[1.699722,41.970858],[1.699763,41.970864],[1.699785,41.970867],[1.699807,41.97087],[1.699814,41.97087],[1.699823,41.970865],[1.699829,41.970857],[1.699834,41.970837],[1.69983,41.970806],[1.699828,41.97079],[1.69983,41.970776],[1.699839,41.970747],[1.699849,41.970719],[1.699853,41.970707],[1.699859,41.970719],[1.699867,41.970618],[1.699875,41.970535],[1.699882,41.970467],[1.699896,41.970349],[1.699894,41.970288],[1.699887,41.970208],[1.699881,41.970129],[1.699881,41.970041],[1.699884,41.969953],[1.699893,41.969824],[1.699895,41.969812],[1.699905,41.969696],[1.699908,41.969632],[1.699904,41.969569],[1.699899,41.96956],[1.69989,41.969555],[1.699854,41.969558],[1.699832,41.96956],[1.699814,41.96949],[1.69982,41.96949],[1.699838,41.969487],[1.699947,41.969488],[1.699988,41.969483],[1.700056,41.969483],[1.700057,41.969065],[1.69999,41.969065],[1.699989,41.969073],[1.699771,41.969077],[1.699755,41.969078],[1.699727,41.969077],[1.699699,41.969078],[1.699517,41.96908],[1.699512,41.969061],[1.699507,41.969039],[1.699503,41.969018],[1.699501,41.968979],[1.699506,41.968939],[1.699513,41.968912],[1.699528,41.968878],[1.699546,41.968843],[1.699568,41.968799],[1.699714,41.968792],[1.699771,41.968776],[1.69979,41.96875],[1.699827,41.968691],[1.69984,41.968664],[1.699849,41.968636],[1.699851,41.968622],[1.699849,41.968607],[1.699834,41.968579],[1.699812,41.968554],[1.699797,41.968541],[1.699786,41.968535],[1.699766,41.968524],[1.699715,41.968501],[1.699696,41.96849],[1.699516,41.968506],[1.69953,41.968575],[1.699489,41.96858],[1.699401,41.968589],[1.699271,41.968605],[1.69927,41.968644],[1.699255,41.968687],[1.699254,41.968729],[1.699282,41.968862],[1.69931,41.968907],[1.699317,41.968918],[1.699326,41.968934],[1.699324,41.96895],[1.699316,41.968959],[1.699264,41.969014],[1.699193,41.96908],[1.69918,41.96909],[1.699152,41.969113],[1.699119,41.96914],[1.699089,41.96917],[1.69905,41.969221],[1.699017,41.969275],[1.698992,41.969311],[1.698984,41.969329],[1.698984,41.969348],[1.698985,41.969363],[1.698986,41.969388],[1.698992,41.969439],[1.699115,41.969612],[1.699128,41.969583],[1.699226,41.969631],[1.699261,41.969648],[1.699277,41.969656],[1.699261,41.96968],[1.699236,41.969716],[1.699217,41.969745],[1.699189,41.969737],[1.699157,41.969731],[1.6991,41.969723],[1.699043,41.969716],[1.698972,41.969703],[1.698942,41.969694],[1.698918,41.969712],[1.698846,41.969731],[1.698709,41.969762],[1.698627,41.969788],[1.698574,41.969804],[1.698446,41.969843],[1.698339,41.969844],[1.698302,41.969865],[1.697833,41.969988],[1.697782,41.970001],[1.697834,41.970112],[1.697863,41.970104],[1.697885,41.970152],[1.69807,41.970103],[1.698272,41.970051],[1.698369,41.970025],[1.698406,41.970093],[1.698594,41.970047],[1.698691,41.970232],[1.698788,41.970408],[1.698877,41.970571],[1.698946,41.970551],[1.699078,41.970513],[1.699158,41.970499],[1.699244,41.970548],[1.699285,41.970614],[1.699327,41.970683],[1.699337,41.970683],[1.699377,41.970684],[1.699455,41.970684],[1.699453,41.970771],[1.699479,41.970802],[1.699563,41.970905],[1.69964,41.97087],[1.699644,41.970861]]]]}},{"type":"Feature","id":"081326_081326 AP01 BER 3","properties":{"area_id":"081326_081326 AP01 BER 3","nom":"Montmajor","codi_icgc":"081326 AP01 BER 3","categoria":"Àrees de poblament","codi_municipi":"081326","municipi":"Montmajor","codi_comarca":"14","comarca":"Berguedà","provincia":"Barcelona","font":"ICGC Àrees de poblament v3r1 202602"},"geometry":{"type":"MultiPolygon","coordinates":[[[[1.733553,42.013721],[1.733624,42.013677],[1.733677,42.013667],[1.733727,42.01366],[1.733769,42.013652],[1.733838,42.013653],[1.733859,42.013644],[1.733882,42.013628],[1.733895,42.013599],[1.733902,42.013554],[1.733906,42.013523],[1.73391,42.01349],[1.733901,42.013433],[1.73389,42.013408],[1.733439,42.013407],[1.733428,42.013434],[1.733412,42.013465],[1.733411,42.013494],[1.733401,42.013532],[1.733381,42.013558],[1.733368,42.013572],[1.73332,42.013574],[1.733276,42.013566],[1.732949,42.013484],[1.732888,42.01364],[1.732889,42.013641],[1.733227,42.013732],[1.733306,42.013715],[1.733399,42.013712],[1.733519,42.013741],[1.733553,42.013721]]],[[[1.735038,42.014728],[1.735,42.014712],[1.734954,42.014708],[1.734842,42.014705],[1.734754,42.014717],[1.734761,42.014708],[1.734759,42.014643],[1.734763,42.014603],[1.73506,42.014453],[1.735153,42.014548],[1.735217,42.014612],[1.735382,42.014528],[1.735327,42.014479],[1.735108,42.014282],[1.734976,42.014348],[1.73495,42.014357],[1.734701,42.014093],[1.734367,42.014238],[1.734272,42.014302],[1.734481,42.014521],[1.734455,42.01454],[1.734413,42.014563],[1.734317,42.014567],[1.734029,42.014563],[1.734009,42.014773],[1.734103,42.014826],[1.734241,42.01492],[1.734293,42.014966],[1.734091,42.014978],[1.733803,42.014997],[1.733821,42.015393],[1.73383,42.015418],[1.733898,42.015422],[1.734293,42.015446],[1.734311,42.015415],[1.734329,42.015385],[1.734377,42.015239],[1.734406,42.015199],[1.734493,42.015174],[1.734615,42.015156],[1.734822,42.015135],[1.734822,42.015051],[1.73493,42.014897],[1.735038,42.014771],[1.735043,42.014757],[1.735038,42.014728]]],[[[1.736672,42.015458],[1.736705,42.015409],[1.73693,42.015473],[1.737011,42.015498],[1.737104,42.015327],[1.73711,42.015292],[1.737177,42.015138],[1.737108,42.015072],[1.736911,42.014989],[1.736873,42.014972],[1.736874,42.014939],[1.736877,42.01492],[1.736859,42.014903],[1.736805,42.014888],[1.736316,42.014769],[1.736203,42.015022],[1.736346,42.015128],[1.736386,42.015183],[1.736113,42.015413],[1.736106,42.015426],[1.736487,42.015723],[1.736628,42.015575],[1.736672,42.015458]]],[[[1.739546,42.021439],[1.739618,42.021297],[1.739672,42.021331],[1.739845,42.021211],[1.739914,42.021163],[1.740094,42.021033],[1.740088,42.021025],[1.73995,42.020873],[1.739846,42.02076],[1.739822,42.020731],[1.739742,42.02064],[1.739808,42.020583],[1.739929,42.020545],[1.73999,42.020504],[1.740047,42.020406],[1.73995,42.020372],[1.739978,42.020342],[1.740028,42.020278],[1.740046,42.020241],[1.740057,42.020204],[1.740059,42.020178],[1.740054,42.020145],[1.740045,42.020112],[1.740036,42.020081],[1.740036,42.020038],[1.740044,42.019995],[1.740057,42.019966],[1.740076,42.01994],[1.740092,42.019924],[1.740151,42.019884],[1.740213,42.01985],[1.740256,42.01983],[1.740317,42.019805],[1.74038,42.019783],[1.740442,42.019758],[1.740463,42.019748],[1.74057,42.019693],[1.740614,42.019672],[1.740698,42.019629],[1.740764,42.0196],[1.740833,42.019575],[1.740879,42.019562],[1.740956,42.019546],[1.741034,42.019533],[1.741082,42.019525],[1.741132,42.019517],[1.741164,42.019508],[1.741188,42.019497],[1.741179,42.019474],[1.741188,42.019468],[1.741198,42.019455],[1.741205,42.019442],[1.741213,42.019413],[1.741214,42.019394],[1.741212,42.019367],[1.74121,42.019342],[1.741209,42.019316],[1.741202,42.019302],[1.741193,42.019288],[1.741172,42.019269],[1.741149,42.019251],[1.741108,42.019224],[1.741082,42.019202],[1.741075,42.019201],[1.740956,42.019177],[1.740835,42.019149],[1.740814,42.019214],[1.74074,42.019324],[1.740691,42.019377],[1.74063,42.019427],[1.740573,42.01948],[1.740496,42.019518],[1.740372,42.019573],[1.740257,42.0195],[1.740116,42.019592],[1.740349,42.019769],[1.740303,42.019785],[1.740295,42.019789],[1.740178,42.019841],[1.74009,42.019895],[1.740069,42.019909],[1.740033,42.019936],[1.73992,42.019839],[1.739896,42.019844],[1.73971,42.01992],[1.739441,42.020185],[1.739464,42.020197],[1.739488,42.020222],[1.739622,42.020292],[1.739665,42.020334],[1.739387,42.020664],[1.739347,42.020655],[1.739221,42.020609],[1.739128,42.020623],[1.739035,42.020696],[1.738377,42.020507],[1.7383,42.020648],[1.738476,42.020876],[1.738613,42.020931],[1.738733,42.020977],[1.738795,42.021019],[1.738812,42.021054],[1.738827,42.021121],[1.738838,42.021148],[1.738866,42.021183],[1.73887,42.021187],[1.739124,42.021303],[1.73952,42.021491],[1.739546,42.021439]]],[[[1.735074,42.021764],[1.73511,42.021743],[1.735168,42.021706],[1.735207,42.02168],[1.735271,42.021654],[1.735316,42.021638],[1.735356,42.021586],[1.735396,42.021513],[1.735435,42.02147],[1.735474,42.021447],[1.735651,42.021377],[1.735818,42.02143],[1.735916,42.021258],[1.735875,42.021189],[1.735876,42.021183],[1.735878,42.021151],[1.735874,42.02111],[1.73587,42.021069],[1.735882,42.02103],[1.735903,42.020992],[1.735922,42.020968],[1.735966,42.020917],[1.736015,42.02089],[1.736049,42.020883],[1.736115,42.020985],[1.736269,42.020929],[1.736262,42.020918],[1.736233,42.020873],[1.73646,42.020745],[1.736465,42.020742],[1.736526,42.020713],[1.736593,42.020682],[1.736653,42.020651],[1.736669,42.020639],[1.736684,42.02062],[1.736689,42.020608],[1.736695,42.020582],[1.736695,42.020556],[1.736692,42.020549],[1.736705,42.020553],[1.736767,42.020534],[1.736818,42.020499],[1.736943,42.020258],[1.736835,42.020038],[1.736808,42.019984],[1.73674,42.019845],[1.736905,42.019742],[1.73692,42.019733],[1.736988,42.019691],[1.737014,42.019676],[1.736825,42.019498],[1.736844,42.019492],[1.736776,42.01943],[1.736692,42.019356],[1.736647,42.01932],[1.736563,42.019239],[1.736552,42.019215],[1.736548,42.019191],[1.736552,42.019166],[1.736564,42.019143],[1.736583,42.019123],[1.736607,42.019106],[1.736634,42.019094],[1.736713,42.019074],[1.73721,42.018921],[1.737226,42.018935],[1.737258,42.018991],[1.737331,42.019134],[1.737409,42.019283],[1.737447,42.01929],[1.737522,42.019304],[1.737579,42.019254],[1.737622,42.019216],[1.737822,42.019041],[1.737871,42.019011],[1.738017,42.018923],[1.737982,42.018867],[1.737938,42.018791],[1.738184,42.018712],[1.738386,42.01865],[1.738372,42.018625],[1.738435,42.018561],[1.738421,42.01853],[1.738416,42.01852],[1.738481,42.018496],[1.738593,42.018431],[1.739044,42.01805],[1.739035,42.01804],[1.739252,42.017858],[1.739244,42.017851],[1.739208,42.01782],[1.739238,42.017792],[1.739168,42.017749],[1.73915,42.017766],[1.739109,42.017754],[1.738647,42.017834],[1.738591,42.017881],[1.738375,42.018119],[1.738297,42.018188],[1.738326,42.018207],[1.738281,42.018243],[1.73826,42.018214],[1.73819,42.018278],[1.738008,42.018441],[1.737875,42.01853],[1.737883,42.018556],[1.737918,42.018618],[1.737619,42.018718],[1.737596,42.018701],[1.737577,42.018667],[1.737553,42.018624],[1.737467,42.01847],[1.737454,42.018447],[1.737013,42.018587],[1.736919,42.018617],[1.73647,42.018759],[1.736489,42.018805],[1.736591,42.018984],[1.736626,42.018997],[1.736609,42.019018],[1.736575,42.019021],[1.736541,42.019026],[1.73651,42.019024],[1.736444,42.019023],[1.736378,42.019029],[1.736313,42.019039],[1.736308,42.01904],[1.736281,42.019039],[1.736256,42.019032],[1.736233,42.019021],[1.736201,42.019007],[1.736164,42.018996],[1.736144,42.018994],[1.736129,42.018992],[1.736125,42.018991],[1.736114,42.018991],[1.736096,42.018991],[1.736085,42.018991],[1.736126,42.018877],[1.736092,42.018828],[1.736095,42.018795],[1.736195,42.01871],[1.736191,42.0187],[1.736184,42.018684],[1.736154,42.01862],[1.73608,42.018458],[1.736029,42.018355],[1.736028,42.018351],[1.736092,42.018329],[1.736118,42.018294],[1.736145,42.018236],[1.736141,42.018178],[1.736122,42.018094],[1.736101,42.018016],[1.736102,42.017949],[1.736121,42.01789],[1.736086,42.017726],[1.735979,42.017588],[1.735903,42.017543],[1.735895,42.017537],[1.735927,42.0175],[1.735922,42.017498],[1.736151,42.017221],[1.736328,42.017017],[1.736341,42.017003],[1.736531,42.016788],[1.736637,42.016674],[1.736658,42.016669],[1.736761,42.01655],[1.736608,42.016433],[1.736453,42.016362],[1.736447,42.01632],[1.736447,42.016308],[1.736447,42.016301],[1.73645,42.016288],[1.736455,42.016277],[1.736487,42.01624],[1.73645,42.016222],[1.736388,42.016193],[1.736246,42.016126],[1.736179,42.016193],[1.736206,42.016205],[1.736121,42.016302],[1.736082,42.016399],[1.736056,42.016446],[1.73596,42.016573],[1.735849,42.016661],[1.735832,42.016671],[1.735694,42.016757],[1.735668,42.016778],[1.735642,42.016799],[1.735579,42.016872],[1.735541,42.016919],[1.735499,42.016983],[1.735404,42.017089],[1.735308,42.017041],[1.735232,42.016989],[1.735176,42.017],[1.735072,42.017019],[1.735058,42.017022],[1.735036,42.01696],[1.735008,42.0169],[1.734993,42.016867],[1.734991,42.016862],[1.734769,42.016889],[1.734593,42.016917],[1.734609,42.016972],[1.734655,42.017114],[1.734575,42.017128],[1.734664,42.017348],[1.734623,42.01735],[1.734521,42.017584],[1.734583,42.017714],[1.734495,42.017739],[1.734397,42.017782],[1.734343,42.0178],[1.734141,42.017848],[1.733786,42.017935],[1.73377,42.017939],[1.733771,42.017943],[1.733796,42.017991],[1.733831,42.018061],[1.733835,42.018064],[1.733847,42.018079],[1.733858,42.018093],[1.733867,42.018107],[1.73387,42.018123],[1.733869,42.018134],[1.733879,42.018154],[1.733866,42.018157],[1.733861,42.018158],[1.733736,42.018185],[1.733789,42.018309],[1.733913,42.018278],[1.733919,42.018277],[1.733933,42.018287],[1.73396,42.018303],[1.734,42.018318],[1.734065,42.018334],[1.73413,42.01835],[1.734206,42.018377],[1.734216,42.018383],[1.734227,42.018396],[1.734241,42.018406],[1.734254,42.018409],[1.734267,42.018408],[1.73437,42.01838],[1.734473,42.018352],[1.734542,42.018337],[1.73461,42.018325],[1.734629,42.018324],[1.734658,42.018328],[1.734686,42.018334],[1.734707,42.018341],[1.734736,42.018355],[1.734751,42.01836],[1.734766,42.018363],[1.734812,42.01836],[1.734858,42.018351],[1.734997,42.018317],[1.735112,42.01829],[1.735181,42.018436],[1.735396,42.018905],[1.735751,42.018823],[1.735755,42.018831],[1.735806,42.01893],[1.735778,42.018976],[1.735582,42.019039],[1.735439,42.019097],[1.735307,42.019158],[1.735112,42.019226],[1.735014,42.019254],[1.734837,42.019303],[1.734762,42.019324],[1.734564,42.019376],[1.734599,42.019452],[1.734632,42.019523],[1.734513,42.019559],[1.734393,42.019565],[1.734277,42.019571],[1.734168,42.019551],[1.733984,42.019517],[1.733861,42.019537],[1.733842,42.019551],[1.733832,42.019569],[1.733864,42.019616],[1.733882,42.019751],[1.733876,42.019766],[1.733846,42.01982],[1.733816,42.019851],[1.733649,42.019854],[1.733596,42.019855],[1.733548,42.019852],[1.733513,42.019941],[1.733527,42.019966],[1.733604,42.020004],[1.733702,42.020051],[1.733731,42.020065],[1.733814,42.020018],[1.733905,42.019964],[1.733997,42.019911],[1.734044,42.019887],[1.734093,42.019868],[1.734126,42.019859],[1.734153,42.019858],[1.73418,42.01986],[1.73424,42.019869],[1.734282,42.019871],[1.73432,42.01987],[1.734336,42.019869],[1.73439,42.019864],[1.734427,42.019855],[1.734433,42.019852],[1.734487,42.01983],[1.734539,42.019804],[1.734635,42.019746],[1.734734,42.019683],[1.734811,42.01964],[1.734834,42.019631],[1.734897,42.019605],[1.734959,42.019581],[1.735022,42.019559],[1.7351,42.019536],[1.735121,42.01953],[1.735222,42.019503],[1.735333,42.019475],[1.735445,42.019446],[1.735494,42.019432],[1.73591,42.019338],[1.735963,42.019333],[1.735971,42.019336],[1.735992,42.019356],[1.736027,42.019429],[1.736178,42.019746],[1.736259,42.019913],[1.736232,42.01993],[1.735989,42.019997],[1.735866,42.020031],[1.735882,42.020065],[1.735923,42.020153],[1.736126,42.020099],[1.736127,42.020102],[1.736294,42.020058],[1.736316,42.020052],[1.736333,42.020088],[1.736352,42.020141],[1.736335,42.020145],[1.736176,42.020186],[1.736178,42.02019],[1.735961,42.020248],[1.735991,42.020313],[1.735746,42.020433],[1.735558,42.020563],[1.73574,42.020634],[1.735994,42.020783],[1.735976,42.020826],[1.735999,42.020842],[1.735991,42.020851],[1.735945,42.020873],[1.73593,42.02088],[1.735872,42.020912],[1.735818,42.020948],[1.735785,42.020975],[1.735759,42.021003],[1.735736,42.021032],[1.735694,42.02109],[1.735663,42.021126],[1.735618,42.02117],[1.735571,42.021212],[1.735535,42.021237],[1.735479,42.021272],[1.735431,42.021302],[1.735422,42.021307],[1.735369,42.021346],[1.735366,42.021347],[1.735308,42.021426],[1.735159,42.021508],[1.735035,42.021506],[1.734958,42.021503],[1.734743,42.021396],[1.73463,42.02133],[1.734611,42.02133],[1.734447,42.021469],[1.734501,42.021522],[1.7345,42.02157],[1.734397,42.021611],[1.734239,42.021641],[1.734197,42.021666],[1.734199,42.021733],[1.734726,42.021763],[1.734764,42.021758],[1.734819,42.021745],[1.734902,42.021762],[1.734971,42.021794],[1.735032,42.02179],[1.735074,42.021764]]],[[[1.731789,42.021361],[1.731821,42.021349],[1.732009,42.021354],[1.732077,42.02134],[1.732157,42.021335],[1.732268,42.021354],[1.732384,42.021385],[1.732475,42.021407],[1.732906,42.02154],[1.732937,42.021477],[1.732922,42.021423],[1.732863,42.021375],[1.732782,42.0213],[1.7327,42.021235],[1.732653,42.021124],[1.732617,42.02109],[1.732561,42.021065],[1.732549,42.021059],[1.732512,42.021019],[1.732492,42.020981],[1.73247,42.020935],[1.732398,42.020916],[1.732261,42.020864],[1.732215,42.020822],[1.732199,42.020745],[1.732195,42.020673],[1.732173,42.020634],[1.732084,42.020597],[1.732041,42.020595],[1.731997,42.020621],[1.731939,42.020716],[1.731881,42.02081],[1.731823,42.020884],[1.731809,42.020932],[1.731816,42.020976],[1.73182,42.021018],[1.731774,42.021092],[1.731672,42.02123],[1.731639,42.021281],[1.731469,42.021229],[1.731428,42.021246],[1.731191,42.021288],[1.730678,42.021429],[1.730738,42.021569],[1.730778,42.021585],[1.730813,42.021606],[1.730809,42.02163],[1.730793,42.021644],[1.730692,42.021685],[1.73062,42.021693],[1.730514,42.021745],[1.730728,42.021788],[1.731302,42.021591],[1.731361,42.021568],[1.731712,42.021427],[1.731789,42.021361]]]]}},{"type":"Feature","id":"081326_081326 AP03 BER 3","properties":{"area_id":"081326_081326 AP03 BER 3","nom":"Sant Feliu de Lluelles","codi_icgc":"081326 AP03 BER 3","categoria":"Àrees de poblament","codi_municipi":"081326","municipi":"Montmajor","codi_comarca":"14","comarca":"Berguedà","provincia":"Barcelona","font":"ICGC Àrees de poblament v3r1 202602"},"geometry":{"type":"MultiPolygon","coordinates":[[[[1.67559,42.007271],[1.675494,42.007294],[1.67543,42.007312],[1.67534,42.007345],[1.67537,42.007523],[1.675414,42.007778],[1.675521,42.007915],[1.675884,42.007797],[1.676283,42.007801],[1.676605,42.007686],[1.676717,42.007564],[1.676675,42.007434],[1.676597,42.007431],[1.676431,42.007414],[1.67626,42.007394],[1.676107,42.007367],[1.675998,42.007347],[1.675902,42.007346],[1.675723,42.007359],[1.675717,42.007301],[1.675634,42.0073],[1.675604,42.007264],[1.67559,42.007271]]]]}},{"type":"Feature","id":"081326_081326 AP06 BER 3","properties":{"area_id":"081326_081326 AP06 BER 3","nom":"Sorba","codi_icgc":"081326 AP06 BER 3","categoria":"Àrees de poblament","codi_municipi":"081326","municipi":"Montmajor","codi_comarca":"14","comarca":"Berguedà","provincia":"Barcelona","font":"ICGC Àrees de poblament v3r1 202602"},"geometry":{"type":"MultiPolygon","coordinates":[[[[1.66868,41.968087],[1.668683,41.968258],[1.6689,41.968286],[1.668978,41.968416],[1.669209,41.968391],[1.669127,41.968116],[1.669106,41.96796],[1.669133,41.967812],[1.669175,41.967711],[1.669224,41.967658],[1.669304,41.967653],[1.669431,41.967672],[1.669538,41.967648],[1.669462,41.967407],[1.669206,41.967372],[1.669023,41.967334],[1.669008,41.967286],[1.669078,41.96719],[1.668613,41.96701],[1.668565,41.967078],[1.668089,41.966936],[1.667902,41.966852],[1.667895,41.96685],[1.667732,41.967004],[1.66795,41.967125],[1.667939,41.96716],[1.66793,41.967187],[1.667857,41.967356],[1.668207,41.967813],[1.668373,41.96788],[1.668572,41.967924],[1.668611,41.967943],[1.66868,41.968087]]]]}},{"type":"Feature","id":"081326_081326 AP05 BER 3","properties":{"area_id":"081326_081326 AP05 BER 3","nom":"el Pujol de Planès","codi_icgc":"081326 AP05 BER 3","categoria":"Àrees de poblament","codi_municipi":"081326","municipi":"Montmajor","codi_comarca":"14","comarca":"Berguedà","provincia":"Barcelona","font":"ICGC Àrees de poblament v3r1 202602"},"geometry":{"type":"MultiPolygon","coordinates":[[[[1.743362,41.966385],[1.743614,41.966264],[1.743511,41.966055],[1.74338,41.966093],[1.743367,41.966088],[1.743329,41.966078],[1.743069,41.965985],[1.743005,41.96598],[1.742901,41.965964],[1.742933,41.965921],[1.742675,41.965871],[1.742655,41.965909],[1.742623,41.965937],[1.742521,41.965927],[1.742352,41.966038],[1.742521,41.966182],[1.742585,41.966223],[1.742532,41.966337],[1.742532,41.966356],[1.742595,41.966399],[1.742633,41.966409],[1.742558,41.966655],[1.742608,41.966671],[1.742933,41.966713],[1.742947,41.966665],[1.74296,41.966646],[1.743024,41.966647],[1.74325,41.96667],[1.743308,41.966512],[1.743321,41.96646],[1.743329,41.966407],[1.743362,41.966385]]]]}},{"type":"Feature","id":"081326_081326 AP02 BER 2","properties":{"area_id":"081326_081326 AP02 BER 2","nom":"la Torreta","codi_icgc":"081326 AP02 BER 2","categoria":"Àrees de poblament","codi_municipi":"081326","municipi":"Montmajor","codi_comarca":"14","comarca":"Berguedà","provincia":"Barcelona","font":"ICGC Àrees de poblament v3r1 202602"},"geometry":{"type":"MultiPolygon","coordinates":[[[[1.693522,41.996352],[1.693577,41.996801],[1.693785,41.997232],[1.693836,41.997233],[1.693913,41.997234],[1.694402,41.997049],[1.694129,41.996683],[1.694349,41.996524],[1.694364,41.99641],[1.69443,41.996306],[1.694523,41.996145],[1.694565,41.995945],[1.694556,41.995802],[1.694506,41.995725],[1.694507,41.995696],[1.694213,41.995703],[1.694046,41.995748],[1.69408,41.995958],[1.694078,41.996054],[1.694076,41.99613],[1.694075,41.996168],[1.693522,41.996352]]]]}},{"type":"Feature","id":"081326_081326 AP07 BER 2","properties":{"area_id":"081326_081326 AP07 BER 2","nom":"les Alzines","codi_icgc":"081326 AP07 BER 2","categoria":"Àrees de poblament","codi_municipi":"081326","municipi":"Montmajor","codi_comarca":"14","comarca":"Berguedà","provincia":"Barcelona","font":"ICGC Àrees de poblament v3r1 202602"},"geometry":{"type":"MultiPolygon","coordinates":[[[[1.737526,42.024266],[1.737538,42.02426],[1.737682,42.024263],[1.737707,42.024196],[1.737763,42.024054],[1.737797,42.023985],[1.737839,42.023919],[1.738004,42.023709],[1.738037,42.023668],[1.738088,42.023605],[1.738126,42.023559],[1.738175,42.023501],[1.738317,42.023341],[1.738345,42.023309],[1.738631,42.022984],[1.738811,42.022605],[1.738885,42.022519],[1.738253,42.022169],[1.738187,42.022162],[1.737869,42.022126],[1.737862,42.022126],[1.737438,42.022139],[1.737354,42.022137],[1.737256,42.022156],[1.737074,42.022191],[1.737006,42.022205],[1.737008,42.022221],[1.737044,42.022515],[1.737067,42.02269],[1.737089,42.022851],[1.737108,42.022998],[1.737109,42.023009],[1.737132,42.02318],[1.73715,42.023333],[1.737168,42.023494],[1.737185,42.023661],[1.737213,42.023869],[1.737222,42.023994],[1.737228,42.024069],[1.737176,42.024073],[1.737172,42.024074],[1.73719,42.024193],[1.737267,42.024205],[1.73733,42.024421],[1.737445,42.024466],[1.737503,42.024322],[1.737526,42.024266]]]]}}]}