{"type":"FeatureCollection","name":"ICGC Àrees de poblament - el Papiol","features":[{"type":"Feature","id":"081580_081580 AP06 BLL 2","properties":{"area_id":"081580_081580 AP06 BLL 2","nom":"Bleda","codi_icgc":"081580 AP06 BLL 2","categoria":"Àrees de poblament","codi_municipi":"081580","municipi":"el Papiol","codi_comarca":"11","comarca":"Baix Llobregat","provincia":"Barcelona","font":"ICGC Àrees de poblament v3r1 202602"},"geometry":{"type":"MultiPolygon","coordinates":[[[[2.025995,41.439002],[2.025994,41.439037],[2.026034,41.439071],[2.026046,41.439081],[2.026107,41.439092],[2.026123,41.439097],[2.026199,41.439092],[2.026257,41.439073],[2.026321,41.439038],[2.026426,41.438979],[2.026448,41.438956],[2.026474,41.438937],[2.026504,41.438921],[2.026538,41.438909],[2.026566,41.438902],[2.026594,41.438899],[2.026617,41.438898],[2.02664,41.438899],[2.026676,41.438896],[2.026711,41.438889],[2.026741,41.438879],[2.026769,41.438866],[2.026793,41.438849],[2.026813,41.43883],[2.026829,41.438809],[2.026769,41.438725],[2.026717,41.438684],[2.026712,41.438684],[2.026675,41.438679],[2.026637,41.438679],[2.0266,41.438684],[2.026565,41.438693],[2.026531,41.438707],[2.026501,41.438724],[2.026476,41.438745],[2.026458,41.438781],[2.026432,41.438815],[2.026399,41.438845],[2.026359,41.438872],[2.026312,41.438894],[2.026262,41.438909],[2.026208,41.438917],[2.026166,41.438919],[2.026123,41.438916],[2.026105,41.43892],[2.026078,41.438929],[2.026053,41.438942],[2.026031,41.438957],[2.026016,41.438971],[2.026004,41.438986],[2.025995,41.439002]]]]}},{"type":"Feature","id":"081580_081580 SI04 BLL 2","properties":{"area_id":"081580_081580 SI04 BLL 2","nom":"Bòbila Aguilar","codi_icgc":"081580 SI04 BLL 2","categoria":"Sector industrial","codi_municipi":"081580","municipi":"el Papiol","codi_comarca":"11","comarca":"Baix Llobregat","provincia":"Barcelona","font":"ICGC Àrees de poblament v3r1 202602"},"geometry":{"type":"MultiPolygon","coordinates":[[[[2.02051,41.438636],[2.020162,41.438338],[2.020025,41.438335],[2.01998,41.438342],[2.019389,41.438698],[2.019385,41.438742],[2.019378,41.438785],[2.019361,41.438848],[2.019339,41.438909],[2.019304,41.438981],[2.019261,41.439051],[2.019209,41.439117],[2.01915,41.439179],[2.019083,41.439237],[2.019009,41.43929],[2.01893,41.439338],[2.018845,41.43938],[2.018755,41.439417],[2.018661,41.439447],[2.018673,41.439529],[2.018756,41.439629],[2.019166,41.439636],[2.019275,41.439585],[2.019782,41.440061],[2.020108,41.439875],[2.020264,41.439733],[2.020342,41.439659],[2.02045,41.439552],[2.020632,41.439393],[2.020737,41.439304],[2.020733,41.439226],[2.020788,41.439163],[2.020814,41.439122],[2.020814,41.439085],[2.020784,41.439053],[2.02089,41.438894],[2.020805,41.438777],[2.020595,41.438591],[2.02051,41.438636]]]]}},{"type":"Feature","id":"081580_081580 SI01 BLL 2","properties":{"area_id":"081580_081580 SI01 BLL 2","nom":"Polígon industrial El Canyet","codi_icgc":"081580 SI01 BLL 2","categoria":"Sector industrial","codi_municipi":"081580","municipi":"el Papiol","codi_comarca":"11","comarca":"Baix Llobregat","provincia":"Barcelona","font":"ICGC Àrees de poblament v3r1 202602"},"geometry":{"type":"MultiPolygon","coordinates":[[[[1.996404,41.451169],[1.996425,41.451207],[1.996474,41.451313],[1.99652,41.451416],[1.996594,41.45157],[1.996675,41.451724],[1.996732,41.451819],[1.996792,41.451914],[1.99692,41.4521],[1.997011,41.452223],[1.997107,41.452344],[1.997175,41.452424],[1.997312,41.452568],[1.997455,41.452708],[1.997535,41.452781],[1.997619,41.452852],[1.997679,41.452896],[1.997769,41.452958],[1.997859,41.453016],[1.99795,41.453074],[1.99803,41.453123],[1.998113,41.453171],[1.998281,41.453264],[1.998455,41.453362],[1.998527,41.453401],[1.998591,41.453436],[1.998648,41.453468],[1.998696,41.45351],[1.99875,41.453548],[1.998809,41.453581],[1.998873,41.453609],[1.99894,41.453632],[1.999011,41.453649],[1.999083,41.45366],[1.999147,41.453591],[1.999054,41.453522],[1.99906,41.45343],[1.999077,41.453402],[1.999126,41.453344],[1.999174,41.453287],[1.999202,41.453247],[1.999225,41.453205],[1.999243,41.453161],[1.999253,41.453117],[1.999258,41.453066],[1.999254,41.453016],[1.999246,41.452963],[1.999237,41.452937],[1.999224,41.452913],[1.999177,41.452847],[1.99913,41.45278],[1.999068,41.452703],[1.999006,41.452626],[1.998918,41.452518],[1.998823,41.452413],[1.998701,41.452295],[1.998577,41.452179],[1.998523,41.45213],[1.998477,41.452088],[1.998374,41.451998],[1.998284,41.451929],[1.998193,41.451863],[1.998013,41.451731],[1.997924,41.451664],[1.998104,41.451539],[1.997447,41.451094],[1.997419,41.451072],[1.997388,41.451053],[1.997346,41.451034],[1.9973,41.451019],[1.997253,41.451009],[1.997204,41.451005],[1.997165,41.451005],[1.997126,41.451008],[1.997087,41.451015],[1.997071,41.451019],[1.997003,41.450968],[1.99697,41.450949],[1.996933,41.450935],[1.996857,41.450915],[1.996801,41.450908],[1.996744,41.450909],[1.996695,41.450917],[1.996694,41.450917],[1.996649,41.450923],[1.996521,41.45097],[1.99646,41.45101],[1.996434,41.451067],[1.996411,41.451107],[1.996404,41.451169]]]]}},{"type":"Feature","id":"081580_081580 SI02 BLL 2","properties":{"area_id":"081580_081580 SI02 BLL 2","nom":"Polígon industrial Les Torrenteres","codi_icgc":"081580 SI02 BLL 2","categoria":"Sector industrial","codi_municipi":"081580","municipi":"el Papiol","codi_comarca":"11","comarca":"Baix Llobregat","provincia":"Barcelona","font":"ICGC Àrees de poblament v3r1 202602"},"geometry":{"type":"MultiPolygon","coordinates":[[[[2.014217,41.432273],[2.014,41.432028],[2.013629,41.431599],[2.01366,41.43159],[2.013473,41.431362],[2.013323,41.43117],[2.013301,41.431168],[2.013268,41.431165],[2.013252,41.431161],[2.013236,41.431154],[2.013215,41.431139],[2.013203,41.431119],[2.013196,41.431093],[2.013192,41.431065],[2.013186,41.430962],[2.01318,41.430859],[2.013175,41.43075],[2.013166,41.430546],[2.013156,41.430342],[2.013155,41.430251],[2.013156,41.43016],[2.013159,41.429978],[2.013156,41.429843],[2.013144,41.429709],[2.013138,41.429676],[2.013129,41.429643],[2.013104,41.429579],[2.013086,41.429541],[2.013064,41.429504],[2.013017,41.429441],[2.012973,41.429383],[2.01284,41.429466],[2.012249,41.429835],[2.011354,41.4304],[2.011177,41.430439],[2.010386,41.430956],[2.010268,41.43103],[2.010294,41.431053],[2.010473,41.43121],[2.010574,41.431269],[2.011139,41.431417],[2.011157,41.431437],[2.011648,41.431543],[2.012129,41.4315],[2.012145,41.431499],[2.012389,41.431462],[2.012444,41.431445],[2.0125,41.431429],[2.012599,41.4314],[2.012592,41.431552],[2.01259,41.431597],[2.012597,41.431713],[2.012621,41.431883],[2.012684,41.432073],[2.012762,41.432194],[2.012766,41.432199],[2.012852,41.432311],[2.012971,41.432466],[2.013258,41.432828],[2.013428,41.433],[2.013465,41.433052],[2.013662,41.433322],[2.013922,41.433684],[2.014055,41.433884],[2.014115,41.433975],[2.014119,41.433974],[2.014242,41.433939],[2.014364,41.433901],[2.01441,41.433884],[2.014475,41.433852],[2.014536,41.433816],[2.014608,41.433772],[2.014675,41.433724],[2.014822,41.433597],[2.014882,41.433534],[2.014908,41.433506],[2.014909,41.433506],[2.014916,41.433498],[2.014921,41.433492],[2.014926,41.433487],[2.014927,41.433486],[2.014941,41.43347],[2.014944,41.433468],[2.014944,41.433467],[2.015,41.433407],[2.01503,41.43337],[2.014983,41.433308],[2.01494,41.433252],[2.014742,41.432992],[2.014808,41.432956],[2.014328,41.4324],[2.014217,41.432273]]]]}},{"type":"Feature","id":"081580_081580 SI03 BLL 2","properties":{"area_id":"081580_081580 SI03 BLL 2","nom":"Polígon industrial Sud-les Argiles","codi_icgc":"081580 SI03 BLL 2","categoria":"Sector industrial","codi_municipi":"081580","municipi":"el Papiol","codi_comarca":"11","comarca":"Baix Llobregat","provincia":"Barcelona","font":"ICGC Àrees de poblament v3r1 202602"},"geometry":{"type":"MultiPolygon","coordinates":[[[[2.006666,41.434408],[2.007239,41.434366],[2.007238,41.434355],[2.007269,41.434326],[2.007754,41.434296],[2.007891,41.434259],[2.00799,41.434164],[2.008117,41.434103],[2.008194,41.434061],[2.008251,41.434023],[2.008333,41.434057],[2.008379,41.434104],[2.00827,41.434321],[2.008262,41.434336],[2.008296,41.434396],[2.008318,41.434395],[2.008481,41.434383],[2.009122,41.434329],[2.009165,41.434315],[2.009201,41.434312],[2.009202,41.434308],[2.009189,41.434138],[2.009196,41.433919],[2.009295,41.433911],[2.009264,41.433798],[2.009256,41.433768],[2.00918,41.433776],[2.009031,41.433792],[2.008951,41.433804],[2.008872,41.433822],[2.008718,41.433862],[2.008616,41.433885],[2.008558,41.433895],[2.008491,41.433903],[2.008378,41.433907],[2.008264,41.433908],[2.008133,41.433909],[2.008003,41.433909],[2.007935,41.433904],[2.007912,41.433899],[2.00787,41.433891],[2.007828,41.433878],[2.00775,41.433847],[2.007674,41.433815],[2.007524,41.433746],[2.007402,41.433687],[2.007299,41.433636],[2.007169,41.433561],[2.007041,41.433576],[2.006915,41.433779],[2.006668,41.433704],[2.006647,41.433713],[2.006536,41.433681],[2.006491,41.43367],[2.006476,41.43368],[2.006239,41.433693],[2.006161,41.433694],[2.006109,41.433707],[2.006104,41.433708],[2.006176,41.433867],[2.006306,41.43404],[2.006497,41.434403],[2.006501,41.434402],[2.006515,41.434431],[2.006611,41.434439],[2.006611,41.434442],[2.006666,41.434442],[2.006666,41.434408]]],[[[2.006095,41.43311],[2.006255,41.433079],[2.006699,41.433203],[2.006904,41.433216],[2.006923,41.433213],[2.006953,41.433205],[2.00697,41.433198],[2.006986,41.433192],[2.007052,41.433148],[2.007119,41.433103],[2.00719,41.433049],[2.007262,41.432994],[2.007379,41.4329],[2.007496,41.432806],[2.007552,41.432765],[2.007611,41.432726],[2.007653,41.432703],[2.007751,41.432656],[2.007849,41.43261],[2.007946,41.432566],[2.008044,41.432522],[2.008127,41.432488],[2.008211,41.432457],[2.008268,41.432438],[2.008346,41.432413],[2.008468,41.432376],[2.008543,41.432356],[2.008665,41.432328],[2.008837,41.432293],[2.00901,41.432258],[2.009165,41.432227],[2.009321,41.432195],[2.009452,41.432166],[2.009583,41.432134],[2.009673,41.432108],[2.00976,41.432079],[2.009848,41.432047],[2.009935,41.432013],[2.010015,41.43198],[2.010019,41.431978],[2.010274,41.431868],[2.010473,41.431785],[2.010614,41.431731],[2.010755,41.431688],[2.010842,41.431669],[2.010928,41.431664],[2.011014,41.431664],[2.0111,41.431671],[2.011184,41.431683],[2.011267,41.431701],[2.011292,41.431708],[2.011308,41.43171],[2.011331,41.431719],[2.011378,41.431737],[2.01143,41.431757],[2.011454,41.431769],[2.011497,41.431799],[2.011556,41.431846],[2.011608,41.431896],[2.011655,41.431951],[2.011695,41.432008],[2.011728,41.432067],[2.011754,41.432129],[2.011757,41.432136],[2.011765,41.432212],[2.011766,41.432287],[2.011759,41.432363],[2.011755,41.432385],[2.01172,41.432483],[2.011684,41.43258],[2.011651,41.432656],[2.011598,41.432761],[2.01145,41.433014],[2.011329,41.43322],[2.011278,41.433329],[2.011251,41.433383],[2.011233,41.433413],[2.011195,41.433509],[2.011165,41.433606],[2.01116,41.433623],[2.011136,41.43368],[2.01113,41.433695],[2.011128,41.433711],[2.01113,41.433719],[2.011132,41.433725],[2.011139,41.433737],[2.01115,41.433755],[2.011162,41.43377],[2.011178,41.433785],[2.011195,41.433799],[2.011213,41.433813],[2.011232,41.433827],[2.011279,41.433868],[2.011326,41.433909],[2.011194,41.433859],[2.010706,41.433865],[2.010435,41.433899],[2.010315,41.434047],[2.010297,41.434177],[2.01044,41.434316],[2.01051,41.434388],[2.010736,41.434466],[2.011005,41.434565],[2.011014,41.434569],[2.011103,41.434627],[2.011111,41.434634],[2.011112,41.434652],[2.011069,41.43468],[2.011135,41.434714],[2.011184,41.434736],[2.011236,41.434754],[2.011291,41.434765],[2.011339,41.434771],[2.011353,41.434775],[2.011384,41.434772],[2.011576,41.434754],[2.011639,41.43474],[2.01171,41.434719],[2.011729,41.434712],[2.011827,41.43468],[2.011921,41.434643],[2.012012,41.4346],[2.012055,41.434577],[2.012065,41.434561],[2.01207,41.434525],[2.012078,41.434473],[2.012091,41.434452],[2.012123,41.4344],[2.012183,41.434231],[2.012319,41.434252],[2.012454,41.434268],[2.01259,41.434277],[2.012597,41.434277],[2.013102,41.434058],[2.013787,41.433713],[2.013305,41.433132],[2.013465,41.433052],[2.013428,41.433],[2.013258,41.432828],[2.012971,41.432466],[2.012852,41.432311],[2.012766,41.432199],[2.012762,41.432194],[2.012684,41.432073],[2.012621,41.431883],[2.012597,41.431713],[2.01259,41.431597],[2.012587,41.431552],[2.012408,41.431595],[2.012189,41.431633],[2.011704,41.431676],[2.011419,41.431634],[2.011084,41.43156],[2.011026,41.431547],[2.010912,41.43152],[2.010775,41.431484],[2.010449,41.4314],[2.010153,41.431142],[2.010196,41.431076],[2.010268,41.43103],[2.010386,41.430956],[2.011177,41.430439],[2.011354,41.4304],[2.012249,41.429835],[2.01284,41.429466],[2.012973,41.429383],[2.012969,41.429378],[2.012619,41.42907],[2.012614,41.429065],[2.012594,41.429042],[2.01258,41.429016],[2.012574,41.428989],[2.012575,41.428961],[2.012583,41.428934],[2.012591,41.428923],[2.012609,41.42889],[2.012619,41.428855],[2.012623,41.428819],[2.012618,41.428783],[2.012606,41.428748],[2.012587,41.428716],[2.012561,41.428685],[2.012529,41.428659],[2.012491,41.428636],[2.01245,41.428618],[2.012405,41.428606],[2.012358,41.428599],[2.012289,41.428484],[2.012054,41.42826],[2.011837,41.428109],[2.012004,41.427939],[2.012299,41.427737],[2.012328,41.427694],[2.012348,41.427649],[2.012361,41.427603],[2.012364,41.427555],[2.012359,41.427508],[2.012345,41.427462],[2.012323,41.427417],[2.012293,41.427376],[2.012255,41.427337],[2.012211,41.427304],[2.012161,41.427275],[2.012106,41.427251],[2.012048,41.427234],[2.011986,41.427223],[2.011923,41.427218],[2.01186,41.42722],[2.011798,41.427228],[2.011738,41.427243],[2.011682,41.427264],[2.01163,41.427291],[2.011585,41.427321],[2.011547,41.427355],[2.011515,41.427391],[2.01149,41.427431],[2.011471,41.427472],[2.01146,41.427515],[2.011456,41.427559],[2.01146,41.427602],[2.011471,41.427645],[2.011489,41.427687],[2.011767,41.428142],[2.011754,41.428206],[2.011422,41.428428],[2.011099,41.428642],[2.01018,41.429231],[2.01012,41.429174],[2.010101,41.429157],[2.010093,41.429149],[2.010079,41.429136],[2.010067,41.429124],[2.010047,41.429106],[2.009582,41.429384],[2.009566,41.429386],[2.009424,41.429263],[2.00937,41.429287],[2.009051,41.429431],[2.008361,41.429731],[2.008286,41.429766],[2.008436,41.429875],[2.008305,41.429951],[2.008265,41.429949],[2.008112,41.429948],[2.007996,41.429947],[2.00744,41.429947],[2.006724,41.429945],[2.006364,41.429915],[2.006307,41.429923],[2.006167,41.429944],[2.006052,41.429984],[2.006015,41.430035],[2.00597,41.430113],[2.005867,41.430826],[2.005827,41.430885],[2.005805,41.430917],[2.005737,41.430981],[2.00572,41.431026],[2.005412,41.431843],[2.005375,41.43193],[2.00534,41.432014],[2.005145,41.432477],[2.00513,41.432515],[2.005126,41.432528],[2.005117,41.432559],[2.005109,41.432602],[2.005108,41.43261],[2.005096,41.43269],[2.005082,41.432748],[2.005063,41.432805],[2.005045,41.432842],[2.005035,41.432855],[2.005022,41.432866],[2.004991,41.432886],[2.004966,41.432901],[2.004941,41.432912],[2.004921,41.432917],[2.004902,41.432918],[2.004895,41.432917],[2.004818,41.433053],[2.004527,41.433695],[2.004077,41.43459],[2.004073,41.434597],[2.004571,41.434727],[2.004621,41.43474],[2.004768,41.434774],[2.004829,41.434788],[2.004965,41.434646],[2.005092,41.434385],[2.005351,41.433835],[2.005426,41.43373],[2.005495,41.433602],[2.005547,41.4334],[2.005592,41.433393],[2.005646,41.433384],[2.005774,41.433365],[2.005828,41.433335],[2.005872,41.43331],[2.00594,41.43325],[2.006095,41.43311]]]]}},{"type":"Feature","id":"081580_081580 AP02 BLL 2","properties":{"area_id":"081580_081580 AP02 BLL 2","nom":"Puigmadrona","codi_icgc":"081580 AP02 BLL 2","categoria":"Àrees de poblament","codi_municipi":"081580","municipi":"el Papiol","codi_comarca":"11","comarca":"Baix Llobregat","provincia":"Barcelona","font":"ICGC Àrees de poblament v3r1 202602"},"geometry":{"type":"MultiPolygon","coordinates":[[[[2.010509,41.446781],[2.010534,41.446792],[2.010592,41.446832],[2.010746,41.446919],[2.010778,41.446894],[2.01078,41.446895],[2.010881,41.446811],[2.011045,41.446807],[2.011375,41.446817],[2.011543,41.446778],[2.011546,41.44679],[2.011543,41.446818],[2.011533,41.446924],[2.012008,41.447043],[2.012158,41.447062],[2.012381,41.447074],[2.012498,41.447072],[2.012601,41.44706],[2.012651,41.447026],[2.012714,41.446942],[2.012751,41.44691],[2.012806,41.4469],[2.012895,41.446896],[2.012944,41.446882],[2.012991,41.446841],[2.013003,41.446816],[2.013212,41.44678],[2.013234,41.44682],[2.013366,41.446843],[2.01346,41.446853],[2.013562,41.446846],[2.013595,41.446838],[2.013595,41.446796],[2.013511,41.446784],[2.013481,41.446759],[2.013472,41.446749],[2.013467,41.446741],[2.013641,41.446743],[2.013643,41.446616],[2.013653,41.446431],[2.013734,41.446403],[2.013802,41.44638],[2.013804,41.446379],[2.013838,41.446324],[2.01386,41.446288],[2.013753,41.446109],[2.013284,41.446209],[2.01253,41.446375],[2.012499,41.446318],[2.01192,41.446427],[2.011917,41.446428],[2.01169,41.446486],[2.011495,41.446535],[2.011266,41.446589],[2.011167,41.446598],[2.011159,41.446585],[2.010472,41.446683],[2.010509,41.446781]]]]}},{"type":"Feature","id":"081580_081580 SI05 BLL 2","properties":{"area_id":"081580_081580 SI05 BLL 2","nom":"Tallers Befon-Iveco","codi_icgc":"081580 SI05 BLL 2","categoria":"Sector industrial","codi_municipi":"081580","municipi":"el Papiol","codi_comarca":"11","comarca":"Baix Llobregat","provincia":"Barcelona","font":"ICGC Àrees de poblament v3r1 202602"},"geometry":{"type":"MultiPolygon","coordinates":[[[[2.004613,41.428707],[2.004583,41.428704],[2.004553,41.428706],[2.004524,41.428714],[2.004499,41.428727],[2.004451,41.428931],[2.00444,41.42899],[2.004428,41.42906],[2.004397,41.42924],[2.004361,41.429414],[2.004321,41.429588],[2.004309,41.429641],[2.004289,41.429729],[2.004259,41.429871],[2.004241,41.429967],[2.004223,41.430064],[2.004307,41.430058],[2.004387,41.430035],[2.004505,41.430002],[2.004756,41.429941],[2.004785,41.429934],[2.004796,41.429882],[2.004871,41.429524],[2.00494,41.429192],[2.004986,41.42897],[2.005008,41.428867],[2.005017,41.428833],[2.004794,41.428793],[2.004699,41.428774],[2.004696,41.428768],[2.004684,41.428748],[2.004665,41.42873],[2.004641,41.428716],[2.004613,41.428707]]]]}},{"type":"Feature","id":"081580_081580 AP01 BLL 3","properties":{"area_id":"081580_081580 AP01 BLL 3","nom":"el Papiol","codi_icgc":"081580 AP01 BLL 3","categoria":"Àrees de poblament","codi_municipi":"081580","municipi":"el Papiol","codi_comarca":"11","comarca":"Baix Llobregat","provincia":"Barcelona","font":"ICGC Àrees de poblament v3r1 202602"},"geometry":{"type":"MultiPolygon","coordinates":[[[[2.006719,41.440556],[2.006288,41.440108],[2.005942,41.439845],[2.005817,41.439743],[2.005752,41.439723],[2.005684,41.43976],[2.005534,41.439844],[2.005523,41.439955],[2.005598,41.440129],[2.005628,41.440198],[2.005631,41.440204],[2.005791,41.440473],[2.005811,41.440495],[2.006046,41.440604],[2.006147,41.440651],[2.006398,41.440546],[2.0065,41.440664],[2.006533,41.440665],[2.006612,41.440619],[2.006719,41.440556]]],[[[2.008987,41.442289],[2.009089,41.442233],[2.009464,41.442376],[2.009649,41.442124],[2.00982,41.442175],[2.010148,41.441726],[2.010194,41.441616],[2.010267,41.441527],[2.010375,41.441438],[2.010438,41.44143],[2.010788,41.441408],[2.011049,41.441406],[2.011047,41.441105],[2.011276,41.440945],[2.011389,41.440926],[2.011382,41.440897],[2.011564,41.440857],[2.011787,41.440811],[2.011875,41.441109],[2.012605,41.440994],[2.012629,41.440743],[2.012634,41.44066],[2.012636,41.440538],[2.012713,41.440546],[2.013142,41.440578],[2.013343,41.440598],[2.013391,41.440574],[2.013448,41.440509],[2.013557,41.44045],[2.013769,41.440377],[2.014121,41.440255],[2.014141,41.440214],[2.014234,41.440162],[2.014255,41.440103],[2.014329,41.439851],[2.014358,41.439762],[2.014687,41.43966],[2.014644,41.439587],[2.014798,41.439567],[2.015025,41.439538],[2.015029,41.439558],[2.015061,41.439694],[2.015091,41.439958],[2.015406,41.439903],[2.015422,41.4399],[2.015931,41.43981],[2.015931,41.439418],[2.015945,41.439367],[2.016104,41.43942],[2.016141,41.439477],[2.016251,41.439564],[2.016433,41.439637],[2.016578,41.439669],[2.016695,41.439685],[2.016807,41.439638],[2.016828,41.439517],[2.016867,41.439455],[2.016976,41.439325],[2.017101,41.439233],[2.017325,41.439172],[2.017527,41.439148],[2.017584,41.439164],[2.017593,41.439056],[2.017567,41.439005],[2.017585,41.438986],[2.017399,41.438873],[2.017353,41.438794],[2.017,41.438548],[2.016997,41.438527],[2.016981,41.438451],[2.016972,41.438408],[2.01697,41.438401],[2.016997,41.438363],[2.017002,41.438356],[2.017321,41.43798],[2.017332,41.437971],[2.017469,41.437856],[2.017579,41.437764],[2.017639,41.437713],[2.017805,41.437585],[2.017854,41.43757],[2.017926,41.437536],[2.017964,41.437522],[2.017997,41.437509],[2.018071,41.437483],[2.01813,41.437465],[2.01812,41.437397],[2.018166,41.436801],[2.018208,41.436345],[2.018221,41.436275],[2.018186,41.436269],[2.018091,41.436252],[2.018095,41.4362],[2.017694,41.436182],[2.017449,41.43622],[2.017172,41.436338],[2.017049,41.43639],[2.016929,41.436441],[2.01691,41.436449],[2.01686,41.43647],[2.016851,41.436486],[2.016843,41.436492],[2.016823,41.436508],[2.016803,41.436527],[2.016786,41.436547],[2.016768,41.436574],[2.016755,41.436602],[2.016737,41.436652],[2.016721,41.436703],[2.016709,41.436745],[2.016698,41.436782],[2.01669,41.436803],[2.016684,41.436818],[2.016682,41.436824],[2.016671,41.43684],[2.016654,41.436854],[2.016638,41.436862],[2.016621,41.436866],[2.016608,41.436868],[2.016595,41.436867],[2.016563,41.436857],[2.01655,41.436852],[2.016521,41.436839],[2.016499,41.436829],[2.016489,41.436821],[2.016488,41.436818],[2.016487,41.436806],[2.016488,41.436786],[2.016508,41.436702],[2.01656,41.436365],[2.016642,41.435986],[2.016661,41.435883],[2.016733,41.435707],[2.016804,41.435727],[2.016997,41.43577],[2.017007,41.435756],[2.01706,41.435676],[2.017085,41.435634],[2.017158,41.435518],[2.016936,41.435442],[2.016862,41.435416],[2.017055,41.435068],[2.017083,41.434979],[2.017139,41.434865],[2.017185,41.434769],[2.017272,41.434587],[2.01731,41.434506],[2.017342,41.43442],[2.017367,41.434332],[2.017385,41.434243],[2.017396,41.434153],[2.017398,41.434079],[2.017413,41.433978],[2.017429,41.433874],[2.017469,41.433679],[2.017498,41.433544],[2.0175,41.433532],[2.017517,41.433477],[2.017534,41.433421],[2.017552,41.433376],[2.017577,41.433332],[2.017597,41.433303],[2.01762,41.433275],[2.017669,41.433222],[2.017717,41.433169],[2.017753,41.433126],[2.017814,41.433047],[2.017872,41.432966],[2.0179,41.432917],[2.01792,41.432867],[2.01793,41.432833],[2.017931,41.432577],[2.01783,41.432273],[2.017665,41.432018],[2.017614,41.431965],[2.017535,41.431884],[2.017914,41.431701],[2.017906,41.43169],[2.017855,41.431631],[2.017821,41.431598],[2.017785,41.431566],[2.017706,41.431507],[2.01767,41.431485],[2.017632,41.431465],[2.017582,41.43144],[2.017532,41.431373],[2.017478,41.431333],[2.017428,41.431286],[2.017401,41.431255],[2.017379,41.431223],[2.017368,41.431202],[2.01734,41.431111],[2.017319,41.431021],[2.017299,41.430931],[2.017285,41.430868],[2.017272,41.430805],[2.017265,41.430773],[2.017258,41.430759],[2.017245,41.430747],[2.017223,41.430737],[2.017199,41.430729],[2.017129,41.430703],[2.017059,41.430678],[2.017023,41.430661],[2.01702,41.430659],[2.016978,41.430674],[2.016933,41.430501],[2.016899,41.429984],[2.016891,41.429978],[2.016784,41.429892],[2.016772,41.429893],[2.016721,41.4299],[2.01667,41.42991],[2.016476,41.429963],[2.016287,41.430017],[2.016163,41.430058],[2.015973,41.430125],[2.015785,41.430194],[2.01566,41.430241],[2.015427,41.430331],[2.015197,41.430423],[2.014983,41.430513],[2.01477,41.430604],[2.014632,41.430662],[2.01458,41.430683],[2.014576,41.430689],[2.014549,41.430696],[2.014494,41.43072],[2.014217,41.430835],[2.014071,41.430894],[2.014161,41.431002],[2.01525,41.432303],[2.015423,41.432428],[2.015512,41.432493],[2.015515,41.432509],[2.015573,41.432537],[2.01562,41.432559],[2.015698,41.432583],[2.015814,41.43263],[2.015912,41.432705],[2.016183,41.432957],[2.016213,41.432995],[2.016278,41.433062],[2.016344,41.433129],[2.016371,41.433153],[2.01642,41.433183],[2.016473,41.433209],[2.016513,41.433228],[2.016553,41.433247],[2.016572,41.433232],[2.016717,41.433334],[2.016827,41.433267],[2.016955,41.433149],[2.016963,41.433152],[2.017007,41.433169],[2.017112,41.433208],[2.017165,41.433226],[2.017217,41.433247],[2.017238,41.433257],[2.017266,41.433277],[2.017291,41.433299],[2.017319,41.433331],[2.017339,41.433366],[2.01735,41.433401],[2.017352,41.433419],[2.017351,41.433437],[2.017344,41.433475],[2.017337,41.433512],[2.017306,41.43366],[2.017288,41.433747],[2.017256,41.433918],[2.016907,41.433912],[2.016888,41.434091],[2.016838,41.434233],[2.016747,41.434418],[2.016613,41.434515],[2.016514,41.434616],[2.016442,41.434737],[2.016966,41.434903],[2.016926,41.434985],[2.016844,41.435144],[2.016837,41.435158],[2.016749,41.43533],[2.016717,41.435392],[2.016663,41.435498],[2.016662,41.4355],[2.016257,41.435398],[2.016198,41.435569],[2.016182,41.435691],[2.016122,41.435769],[2.016055,41.435793],[2.016007,41.435823],[2.015977,41.435846],[2.015938,41.435881],[2.015901,41.435919],[2.015744,41.436081],[2.015589,41.436244],[2.015423,41.436424],[2.015262,41.436606],[2.015215,41.436665],[2.015172,41.436725],[2.015151,41.436758],[2.015127,41.436794],[2.015113,41.436797],[2.014988,41.436817],[2.014597,41.436907],[2.013847,41.437087],[2.013842,41.437049],[2.013837,41.436996],[2.013828,41.436934],[2.013819,41.436874],[2.013811,41.436799],[2.013803,41.436722],[2.013789,41.436658],[2.013768,41.436594],[2.013735,41.436525],[2.013709,41.436459],[2.013708,41.436453],[2.013628,41.43646],[2.013625,41.436466],[2.013278,41.43661],[2.013435,41.436705],[2.013489,41.436727],[2.013455,41.436791],[2.013386,41.436871],[2.013315,41.43695],[2.013251,41.437008],[2.013183,41.437064],[2.013109,41.437134],[2.01308,41.437175],[2.013071,41.437186],[2.013043,41.437221],[2.012959,41.43731],[2.012848,41.437399],[2.012808,41.437422],[2.012768,41.437458],[2.012719,41.437594],[2.012642,41.437788],[2.012629,41.437876],[2.01262,41.437943],[2.012613,41.43801],[2.012608,41.438085],[2.012602,41.438157],[2.012597,41.438192],[2.012592,41.438241],[2.012445,41.438209],[2.012353,41.438185],[2.012209,41.438148],[2.012094,41.438282],[2.011973,41.438238],[2.011967,41.438226],[2.011912,41.438125],[2.011885,41.438082],[2.01187,41.438038],[2.011755,41.437715],[2.011753,41.437709],[2.011751,41.437705],[2.011737,41.437681],[2.011717,41.43766],[2.011629,41.437625],[2.011325,41.437548],[2.011314,41.437522],[2.011238,41.437353],[2.011216,41.437294],[2.011203,41.437257],[2.011185,41.437211],[2.011166,41.437165],[2.011151,41.437125],[2.011135,41.437086],[2.011128,41.437069],[2.011125,41.437047],[2.011067,41.4369],[2.010719,41.43659],[2.010653,41.436586],[2.010648,41.43657],[2.010642,41.436551],[2.010638,41.436536],[2.010639,41.436523],[2.010645,41.436517],[2.010666,41.436506],[2.010687,41.436495],[2.010756,41.436482],[2.010805,41.436469],[2.010916,41.43644],[2.010929,41.436434],[2.010998,41.436328],[2.011014,41.436304],[2.011023,41.436284],[2.011031,41.436256],[2.011035,41.436228],[2.011037,41.436174],[2.011034,41.436121],[2.011033,41.436073],[2.011028,41.436024],[2.011017,41.435995],[2.011005,41.435981],[2.010975,41.435951],[2.010945,41.43592],[2.01089,41.435894],[2.010641,41.435839],[2.01045,41.435939],[2.010408,41.435962],[2.010337,41.436003],[2.010266,41.435968],[2.010131,41.43591],[2.010082,41.435891],[2.010037,41.435874],[2.010008,41.435911],[2.009946,41.435897],[2.009899,41.435886],[2.009771,41.435735],[2.009712,41.435667],[2.009571,41.435559],[2.009463,41.435524],[2.00935,41.43549],[2.009198,41.435447],[2.009138,41.435445],[2.009079,41.435446],[2.008888,41.435503],[2.008676,41.435598],[2.008398,41.435749],[2.008365,41.435752],[2.008284,41.435395],[2.00825,41.435284],[2.008173,41.435242],[2.007542,41.435179],[2.00719,41.435127],[2.007107,41.435085],[2.007049,41.435074],[2.006957,41.435168],[2.006954,41.435171],[2.006873,41.435254],[2.006797,41.43534],[2.006728,41.435371],[2.006702,41.43538],[2.006669,41.435389],[2.006624,41.435401],[2.006572,41.435413],[2.006539,41.43542],[2.006514,41.435421],[2.006489,41.435419],[2.00645,41.435411],[2.006434,41.435406],[2.006423,41.4354],[2.006415,41.435396],[2.006415,41.435393],[2.006419,41.435387],[2.006426,41.435384],[2.006456,41.435384],[2.006468,41.435384],[2.006496,41.43538],[2.006527,41.435371],[2.006557,41.435359],[2.006581,41.435343],[2.006609,41.435321],[2.006629,41.4353],[2.006651,41.435267],[2.006665,41.435243],[2.006674,41.435226],[2.006686,41.435193],[2.006698,41.435141],[2.0067,41.435128],[2.006331,41.434317],[2.006203,41.434077],[2.005994,41.433749],[2.006062,41.433718],[2.006104,41.433708],[2.006109,41.433707],[2.006161,41.433694],[2.006239,41.433693],[2.006476,41.43368],[2.006491,41.43367],[2.006536,41.433681],[2.006647,41.433713],[2.006668,41.433704],[2.006915,41.433779],[2.007041,41.433576],[2.007052,41.433526],[2.00705,41.433487],[2.006996,41.433452],[2.006889,41.433388],[2.00672,41.43334],[2.006446,41.433275],[2.006254,41.433236],[2.005938,41.433396],[2.005913,41.433574],[2.0059,41.433657],[2.005898,41.433771],[2.005592,41.433873],[2.00559,41.433878],[2.005498,41.434013],[2.005406,41.434148],[2.005341,41.434245],[2.005279,41.434341],[2.005157,41.434535],[2.005075,41.434665],[2.004945,41.434867],[2.004819,41.435063],[2.004769,41.435146],[2.004775,41.435289],[2.004858,41.435296],[2.004962,41.435735],[2.004842,41.43579],[2.004671,41.435875],[2.004379,41.436016],[2.004092,41.436165],[2.003921,41.436256],[2.003776,41.436392],[2.003701,41.436373],[2.003586,41.436405],[2.003454,41.436467],[2.003369,41.436576],[2.003316,41.436677],[2.003307,41.436762],[2.003337,41.436878],[2.003315,41.437],[2.003258,41.437128],[2.003273,41.43719],[2.003311,41.437289],[2.003194,41.437338],[2.002874,41.437464],[2.003081,41.437758],[2.003512,41.437628],[2.003586,41.437575],[2.003611,41.437578],[2.003712,41.437609],[2.00393,41.437652],[2.004113,41.437687],[2.004084,41.43775],[2.003931,41.438014],[2.003986,41.438031],[2.003977,41.438057],[2.004009,41.43806],[2.00424,41.438173],[2.00427,41.438177],[2.004427,41.438201],[2.004805,41.438211],[2.004802,41.43783],[2.004796,41.437752],[2.004933,41.437725],[2.00508,41.437643],[2.005306,41.43738],[2.005544,41.437137],[2.005611,41.437056],[2.005744,41.437082],[2.005784,41.437091],[2.005824,41.4371],[2.005933,41.437124],[2.005933,41.437124],[2.006097,41.437171],[2.006209,41.437229],[2.006219,41.437227],[2.006227,41.437225],[2.006444,41.437101],[2.006531,41.437049],[2.006692,41.436952],[2.006489,41.436728],[2.00644,41.436627],[2.006703,41.436596],[2.007113,41.436554],[2.00749,41.436517],[2.007693,41.436497],[2.007713,41.436603],[2.007727,41.436602],[2.007783,41.43694],[2.007598,41.437211],[2.007374,41.437631],[2.007032,41.438271],[2.006385,41.43824],[2.006348,41.438238],[2.006345,41.438265],[2.006313,41.438394],[2.006294,41.438455],[2.006265,41.438513],[2.006244,41.438536],[2.006178,41.438574],[2.006122,41.438572],[2.005724,41.438448],[2.005636,41.438495],[2.005631,41.438507],[2.005629,41.438514],[2.005622,41.438531],[2.005643,41.438548],[2.005644,41.43855],[2.005704,41.438625],[2.005721,41.438622],[2.005741,41.438629],[2.005774,41.43864],[2.005908,41.438664],[2.005933,41.438668],[2.005902,41.438694],[2.006019,41.438795],[2.006039,41.438807],[2.006065,41.438824],[2.006111,41.438852],[2.00619,41.438902],[2.006269,41.438952],[2.00635,41.439002],[2.006433,41.43905],[2.006514,41.439095],[2.006476,41.439089],[2.006555,41.439118],[2.006674,41.43918],[2.006724,41.439203],[2.006764,41.439216],[2.006827,41.439226],[2.00689,41.439224],[2.00698,41.439204],[2.007067,41.43918],[2.0072,41.439135],[2.007213,41.439135],[2.007225,41.439138],[2.007232,41.439145],[2.007231,41.439153],[2.007231,41.439154],[2.007215,41.43919],[2.007211,41.439201],[2.007202,41.439226],[2.007199,41.43925],[2.007199,41.439269],[2.007201,41.439303],[2.007208,41.439329],[2.007223,41.439354],[2.007261,41.439392],[2.007261,41.439392],[2.00728,41.439411],[2.00734,41.439467],[2.007341,41.439468],[2.007422,41.439545],[2.007512,41.439617],[2.007572,41.439656],[2.007629,41.439694],[2.007669,41.439715],[2.007706,41.439736],[2.007744,41.439764],[2.007787,41.439791],[2.00779,41.439792],[2.007911,41.439835],[2.007986,41.439847],[2.008062,41.43988],[2.008073,41.439883],[2.008177,41.439914],[2.008234,41.43994],[2.008294,41.439969],[2.008346,41.43999],[2.008373,41.44],[2.008399,41.440009],[2.008472,41.440037],[2.008545,41.440063],[2.008629,41.4401],[2.008707,41.440144],[2.008776,41.440189],[2.008841,41.440237],[2.008843,41.440239],[2.008887,41.440276],[2.00891,41.440297],[2.008933,41.440316],[2.008975,41.440358],[2.009017,41.4404],[2.009075,41.440449],[2.00914,41.440494],[2.009219,41.440536],[2.009304,41.440572],[2.009349,41.440589],[2.009395,41.440606],[2.009411,41.440615],[2.00942,41.440623],[2.009434,41.440641],[2.009447,41.440662],[2.009048,41.440823],[2.009178,41.44101],[2.009178,41.441012],[2.009176,41.441023],[2.009127,41.441321],[2.008968,41.44145],[2.008799,41.441857],[2.00869,41.441777],[2.008627,41.441744],[2.008548,41.441737],[2.008488,41.441763],[2.008348,41.441872],[2.008216,41.441984],[2.008215,41.442062],[2.00826,41.44219],[2.008448,41.442347],[2.008558,41.442416],[2.008685,41.442379],[2.008804,41.442362],[2.008891,41.44236],[2.008987,41.442289]]]]}},{"type":"Feature","id":"081580_081580 AP04 BLL 2","properties":{"area_id":"081580_081580 AP04 BLL 2","nom":"el Papiol de Baix","codi_icgc":"081580 AP04 BLL 2","categoria":"Àrees de poblament","codi_municipi":"081580","municipi":"el Papiol","codi_comarca":"11","comarca":"Baix Llobregat","provincia":"Barcelona","font":"ICGC Àrees de poblament v3r1 202602"},"geometry":{"type":"MultiPolygon","coordinates":[[[[2.005198,41.428018],[2.00529,41.427571],[2.005296,41.427452],[2.005309,41.427263],[2.005383,41.42716],[2.005305,41.427128],[2.005198,41.427084],[2.005187,41.427099],[2.004987,41.427376],[2.004943,41.427431],[2.004779,41.427692],[2.00476,41.427684],[2.00467,41.427841],[2.004617,41.427942],[2.004601,41.428023],[2.004626,41.428025],[2.004603,41.428161],[2.004528,41.428602],[2.004716,41.428709],[2.004848,41.428753],[2.004877,41.428762],[2.004992,41.428736],[2.005001,41.428712],[2.005065,41.428706],[2.005115,41.428513],[2.005144,41.428313],[2.005154,41.428252],[2.005159,41.428223],[2.005198,41.428018]]]]}},{"type":"Feature","id":"081580_081580 AP03 BLL 2","properties":{"area_id":"081580_081580 AP03 BLL 2","nom":"el Pi del Balç","codi_icgc":"081580 AP03 BLL 2","categoria":"Àrees de poblament","codi_municipi":"081580","municipi":"el Papiol","codi_comarca":"11","comarca":"Baix Llobregat","provincia":"Barcelona","font":"ICGC Àrees de poblament v3r1 202602"},"geometry":{"type":"MultiPolygon","coordinates":[[[[2.008898,41.425807],[2.009061,41.42574],[2.009086,41.425723],[2.009069,41.425683],[2.009062,41.425634],[2.009065,41.425581],[2.009094,41.425533],[2.009113,41.425472],[2.009131,41.425411],[2.009155,41.425322],[2.009175,41.425233],[2.009117,41.425214],[2.008467,41.424957],[2.008037,41.424759],[2.008007,41.42475],[2.008052,41.424654],[2.008113,41.424621],[2.008117,41.424613],[2.008072,41.424593],[2.008088,41.424517],[2.008111,41.424373],[2.008147,41.424272],[2.008179,41.424188],[2.008201,41.424185],[2.008207,41.424171],[2.008251,41.424178],[2.0083,41.424054],[2.00831,41.42402],[2.008049,41.42395],[2.007986,41.424011],[2.007931,41.424082],[2.007906,41.424144],[2.007884,41.424209],[2.007885,41.424271],[2.007539,41.424093],[2.007524,41.424136],[2.007517,41.42418],[2.007518,41.424211],[2.007521,41.424257],[2.007523,41.42428],[2.007525,41.424304],[2.007526,41.424317],[2.007527,41.424331],[2.007494,41.424373],[2.00746,41.424414],[2.007357,41.424485],[2.007292,41.424508],[2.007288,41.424511],[2.007193,41.424606],[2.007164,41.424645],[2.007137,41.424682],[2.00712,41.424735],[2.007152,41.42474],[2.007329,41.424766],[2.007311,41.424827],[2.007293,41.424888],[2.00729,41.424906],[2.007291,41.424934],[2.007295,41.424962],[2.007303,41.424992],[2.007333,41.425046],[2.007277,41.425108],[2.00724,41.425149],[2.007171,41.425235],[2.007128,41.425264],[2.007093,41.425302],[2.007084,41.425312],[2.007034,41.425369],[2.007005,41.425402],[2.00702,41.425425],[2.007049,41.425468],[2.00711,41.425469],[2.007127,41.42547],[2.00715,41.425472],[2.007212,41.425482],[2.007275,41.425492],[2.007313,41.425498],[2.007351,41.425506],[2.007379,41.425513],[2.007405,41.425521],[2.00743,41.425533],[2.007454,41.425546],[2.00746,41.42555],[2.007475,41.425562],[2.007482,41.42557],[2.007486,41.425578],[2.007493,41.425634],[2.007497,41.425669],[2.007505,41.425685],[2.007505,41.425685],[2.007513,41.425681],[2.007526,41.425678],[2.007539,41.42568],[2.007571,41.425694],[2.007603,41.425709],[2.007655,41.425736],[2.007707,41.425763],[2.007767,41.425797],[2.007824,41.425837],[2.007828,41.42584],[2.007812,41.425836],[2.007889,41.425941],[2.007879,41.42597],[2.007884,41.425984],[2.007893,41.426],[2.007906,41.426015],[2.007938,41.426041],[2.007969,41.426058],[2.008001,41.426072],[2.008014,41.426082],[2.00802,41.426088],[2.008027,41.426099],[2.008038,41.426116],[2.00805,41.426136],[2.008083,41.426191],[2.008115,41.426246],[2.008123,41.426255],[2.008137,41.426266],[2.008155,41.426273],[2.008185,41.426281],[2.008201,41.426287],[2.008186,41.42629],[2.008209,41.426334],[2.008132,41.426353],[2.008136,41.426361],[2.008156,41.42641],[2.008438,41.426344],[2.008482,41.426317],[2.008506,41.42628],[2.008558,41.426255],[2.008532,41.426223],[2.008512,41.426156],[2.008404,41.426026],[2.00859,41.425938],[2.008779,41.425859],[2.008894,41.425809],[2.008898,41.425807]]]]}},{"type":"Feature","id":"081580_081580 AP05 BLL 2","properties":{"area_id":"081580_081580 AP05 BLL 2","nom":"les Cases del Puig","codi_icgc":"081580 AP05 BLL 2","categoria":"Àrees de poblament","codi_municipi":"081580","municipi":"el Papiol","codi_comarca":"11","comarca":"Baix Llobregat","provincia":"Barcelona","font":"ICGC Àrees de poblament v3r1 202602"},"geometry":{"type":"MultiPolygon","coordinates":[[[[2.020259,41.436321],[2.020305,41.436358],[2.020548,41.436355],[2.020756,41.43629],[2.020872,41.436082],[2.020909,41.436017],[2.020905,41.43593],[2.020902,41.435828],[2.020902,41.435773],[2.020998,41.435778],[2.02103,41.435801],[2.021056,41.435755],[2.021121,41.435288],[2.021126,41.435251],[2.021172,41.435003],[2.021273,41.435018],[2.021265,41.435056],[2.021261,41.435078],[2.02131,41.435085],[2.021343,41.435089],[2.021386,41.435095],[2.02148,41.435107],[2.021485,41.435108],[2.021519,41.435052],[2.021511,41.435022],[2.021504,41.434993],[2.021453,41.434968],[2.021464,41.434921],[2.021402,41.434916],[2.021419,41.434832],[2.021417,41.434804],[2.021353,41.434753],[2.021311,41.434739],[2.021244,41.434603],[2.021214,41.434528],[2.021172,41.434421],[2.021174,41.434317],[2.021151,41.434242],[2.021093,41.434155],[2.020993,41.433949],[2.020906,41.433797],[2.020747,41.433832],[2.020715,41.433813],[2.020682,41.433798],[2.020613,41.433776],[2.020565,41.433764],[2.020532,41.433758],[2.020497,41.433755],[2.020474,41.433757],[2.020441,41.433765],[2.020411,41.433779],[2.020393,41.433791],[2.020377,41.43381],[2.020374,41.433823],[2.020372,41.433857],[2.020371,41.433886],[2.020373,41.433915],[2.020378,41.433937],[2.020398,41.433991],[2.020417,41.434044],[2.02043,41.434087],[2.020441,41.434132],[2.020452,41.434156],[2.020463,41.434181],[2.020478,41.434211],[2.020497,41.434239],[2.020547,41.434297],[2.020554,41.434305],[2.020597,41.434377],[2.020611,41.434399],[2.020543,41.434403],[2.020488,41.434407],[2.020416,41.434412],[2.020346,41.434415],[2.020315,41.434414],[2.020269,41.434407],[2.020222,41.434398],[2.020175,41.434386],[2.020131,41.43437],[2.020115,41.434361],[2.020094,41.434342],[2.020078,41.43432],[2.02006,41.434282],[2.020054,41.434264],[2.020051,41.434244],[2.020051,41.434237],[2.020051,41.434228],[2.020048,41.434187],[2.020045,41.434146],[2.020044,41.43412],[2.020044,41.434092],[2.020039,41.434061],[2.020034,41.434049],[2.019987,41.43406],[2.019956,41.434072],[2.019948,41.434076],[2.019941,41.43408],[2.019897,41.434106],[2.019876,41.434122],[2.01979,41.434204],[2.019725,41.434204],[2.019682,41.434211],[2.019478,41.434183],[2.019428,41.434297],[2.01949,41.434312],[2.020065,41.434388],[2.020085,41.434394],[2.020127,41.434408],[2.020173,41.434424],[2.020195,41.43443],[2.020257,41.43444],[2.020319,41.434446],[2.020383,41.434447],[2.020447,41.434446],[2.020508,41.43444],[2.020553,41.434435],[2.020602,41.434433],[2.020609,41.434433],[2.020629,41.434435],[2.02065,41.434437],[2.020659,41.434462],[2.020633,41.43447],[2.020596,41.434489],[2.020545,41.434521],[2.020496,41.434554],[2.020465,41.434575],[2.020419,41.434607],[2.020395,41.434622],[2.020373,41.434637],[2.020347,41.43465],[2.020326,41.434657],[2.020291,41.434663],[2.020256,41.434664],[2.020206,41.43466],[2.020129,41.434649],[2.020052,41.43464],[2.020015,41.434639],[2.019962,41.434642],[2.019937,41.434642],[2.019913,41.43464],[2.019867,41.434632],[2.019798,41.434617],[2.019766,41.43461],[2.019639,41.434589],[2.019606,41.434588],[2.019578,41.434596],[2.019518,41.434576],[2.01948,41.434563],[2.019434,41.43455],[2.01941,41.43458],[2.019389,41.434612],[2.019365,41.434659],[2.019347,41.434709],[2.019336,41.434759],[2.019333,41.434811],[2.019336,41.434853],[2.019367,41.434927],[2.019376,41.434938],[2.019388,41.434949],[2.019402,41.434958],[2.019417,41.434967],[2.019434,41.434974],[2.019454,41.434979],[2.019475,41.434982],[2.019497,41.434983],[2.019519,41.434981],[2.01954,41.434977],[2.019559,41.434971],[2.019586,41.434949],[2.019608,41.434932],[2.019622,41.434909],[2.019631,41.434883],[2.019636,41.434838],[2.019636,41.434804],[2.019636,41.434772],[2.01964,41.434741],[2.019651,41.434712],[2.019679,41.434666],[2.019693,41.434654],[2.019709,41.434647],[2.019726,41.43464],[2.019744,41.434634],[2.019757,41.43463],[2.019764,41.434631],[2.01977,41.434632],[2.019795,41.434638],[2.019813,41.434642],[2.01986,41.434652],[2.019908,41.434661],[2.019919,41.434662],[2.019972,41.434662],[2.020066,41.434663],[2.02013,41.43467],[2.020255,41.434684],[2.020295,41.434683],[2.020334,41.434677],[2.02036,41.434669],[2.02039,41.434654],[2.020398,41.434648],[2.020451,41.434659],[2.020512,41.434673],[2.020545,41.434684],[2.020578,41.434696],[2.020592,41.434702],[2.020582,41.434725],[2.02043,41.43469],[2.020375,41.434709],[2.020085,41.435177],[2.020105,41.435199],[2.020172,41.435216],[2.020291,41.435238],[2.020291,41.435238],[2.020292,41.435238],[2.02033,41.435231],[2.020326,41.435237],[2.020238,41.43543],[2.020208,41.435497],[2.0202,41.435583],[2.020221,41.435636],[2.020253,41.435715],[2.020222,41.435823],[2.020222,41.435827],[2.020259,41.436321]]]]}}]}