{"type":"FeatureCollection","name":"ICGC Àrees de poblament - la Quar","features":[{"type":"Feature","id":"081770_081770 AP02 BER 2","properties":{"area_id":"081770_081770 AP02 BER 2","nom":"la Portella","codi_icgc":"081770 AP02 BER 2","categoria":"Àrees de poblament","codi_municipi":"081770","municipi":"la Quar","codi_comarca":"14","comarca":"Berguedà","provincia":"Barcelona","font":"ICGC Àrees de poblament v3r1 202602"},"geometry":{"type":"MultiPolygon","coordinates":[[[[1.950585,42.104053],[1.950616,42.103896],[1.951105,42.10395],[1.951164,42.103872],[1.951242,42.103758],[1.951272,42.103687],[1.951264,42.103616],[1.951236,42.103594],[1.951227,42.103544],[1.950671,42.10351],[1.950599,42.103781],[1.950167,42.103791],[1.950154,42.103999],[1.950585,42.104053]]],[[[1.951585,42.106299],[1.951639,42.106146],[1.951648,42.10612],[1.951655,42.1061],[1.951588,42.106069],[1.951511,42.106032],[1.951484,42.10602],[1.951481,42.105964],[1.951476,42.105884],[1.951477,42.105834],[1.95142,42.10579],[1.951326,42.105794],[1.951289,42.105796],[1.951209,42.105799],[1.951142,42.105802],[1.951132,42.105849],[1.951121,42.105902],[1.95112,42.105902],[1.950767,42.105834],[1.950432,42.105781],[1.95039,42.105945],[1.950735,42.106013],[1.950771,42.106128],[1.950875,42.10619],[1.950905,42.106207],[1.950906,42.106208],[1.950905,42.106209],[1.950905,42.106212],[1.950924,42.106224],[1.950962,42.106248],[1.950976,42.106255],[1.951002,42.106262],[1.951031,42.106268],[1.951065,42.106272],[1.9511,42.106273],[1.9511,42.106273],[1.951124,42.106281],[1.951164,42.106287],[1.95122,42.106296],[1.951307,42.106261],[1.951479,42.10632],[1.951585,42.106299]]]]}},{"type":"Feature","id":"081770_081770 AP01 BER 3","properties":{"area_id":"081770_081770 AP01 BER 3","nom":"la Quar","codi_icgc":"081770 AP01 BER 3","categoria":"Àrees de poblament","codi_municipi":"081770","municipi":"la Quar","codi_comarca":"14","comarca":"Berguedà","provincia":"Barcelona","font":"ICGC Àrees de poblament v3r1 202602"},"geometry":{"type":"MultiPolygon","coordinates":[[[[1.961733,42.080441],[1.961683,42.080504],[1.961596,42.080532],[1.961505,42.080542],[1.961414,42.080552],[1.96126,42.080565],[1.961214,42.08067],[1.961063,42.080679],[1.960917,42.081181],[1.961104,42.081268],[1.961716,42.081296],[1.9618,42.081294],[1.961789,42.080994],[1.961889,42.080813],[1.962063,42.080601],[1.961753,42.080432],[1.961733,42.080441]]]]}},{"type":"Feature","id":"081770_081770 AP03 BER 2","properties":{"area_id":"081770_081770 AP03 BER 2","nom":"les Heures","codi_icgc":"081770 AP03 BER 2","categoria":"Àrees de poblament","codi_municipi":"081770","municipi":"la Quar","codi_comarca":"14","comarca":"Berguedà","provincia":"Barcelona","font":"ICGC Àrees de poblament v3r1 202602"},"geometry":{"type":"MultiPolygon","coordinates":[[[[2.004558,42.076949],[2.004813,42.077094],[2.004965,42.077651],[2.004996,42.077658],[2.005036,42.077668],[2.005237,42.077669],[2.005156,42.077173],[2.005364,42.076946],[2.005696,42.076997],[2.005963,42.077066],[2.006055,42.076933],[2.006045,42.076742],[2.005933,42.07657],[2.005613,42.076538],[2.005423,42.076441],[2.005179,42.076506],[2.005077,42.076486],[2.00504,42.0764],[2.004925,42.07637],[2.004694,42.076387],[2.004629,42.076501],[2.004756,42.07655],[2.004972,42.076647],[2.004558,42.076949]]]]}}]}