{"type":"FeatureCollection","name":"ICGC Àrees de poblament - els Prats de Rei","features":[{"type":"Feature","id":"081705_081705 SI01 ANO 2","properties":{"area_id":"081705_081705 SI01 ANO 2","nom":"Polígon industrial de Les Garrigues","codi_icgc":"081705 SI01 ANO 2","categoria":"Sector industrial","codi_municipi":"081705","municipi":"els Prats de Rei","codi_comarca":"06","comarca":"Anoia","provincia":"Barcelona","font":"ICGC Àrees de poblament v3r1 202602"},"geometry":{"type":"MultiPolygon","coordinates":[[[[1.534686,41.723279],[1.534612,41.723222],[1.53451,41.723096],[1.534344,41.723077],[1.534205,41.723083],[1.534085,41.723062],[1.533951,41.723013],[1.53386,41.722916],[1.53383,41.722883],[1.533779,41.72282],[1.53358,41.722576],[1.533521,41.722504],[1.533368,41.72223],[1.53334,41.722176],[1.533196,41.722087],[1.533143,41.722052],[1.532344,41.722089],[1.532328,41.72215],[1.532263,41.722389],[1.532261,41.722442],[1.532253,41.722494],[1.532239,41.722545],[1.532219,41.722596],[1.532194,41.722645],[1.532188,41.722653],[1.532175,41.722673],[1.532133,41.722727],[1.532084,41.722777],[1.532028,41.722823],[1.531965,41.722865],[1.531897,41.722901],[1.531825,41.722932],[1.531758,41.722954],[1.531688,41.722971],[1.531617,41.722984],[1.531437,41.723023],[1.531413,41.723038],[1.531156,41.723226],[1.531112,41.72321],[1.530829,41.723038],[1.530831,41.722977],[1.530581,41.722746],[1.530453,41.722804],[1.529813,41.723143],[1.529678,41.723237],[1.529549,41.723334],[1.529488,41.723384],[1.529307,41.7236],[1.529199,41.723737],[1.529181,41.723762],[1.52909,41.72389],[1.528983,41.724043],[1.528944,41.724101],[1.528849,41.724234],[1.530965,41.725047],[1.534261,41.725796],[1.534264,41.725802],[1.534288,41.7258],[1.534288,41.725792],[1.534287,41.725725],[1.534278,41.725546],[1.534278,41.725463],[1.534277,41.725434],[1.534276,41.725343],[1.534272,41.725282],[1.534269,41.725222],[1.534274,41.725179],[1.534283,41.725136],[1.534299,41.725081],[1.534321,41.725029],[1.534352,41.72498],[1.53439,41.724932],[1.53442,41.724899],[1.534453,41.724868],[1.534478,41.72485],[1.534556,41.7248],[1.534636,41.724749],[1.5348,41.724613],[1.534918,41.724429],[1.534968,41.724292],[1.534975,41.72426],[1.535021,41.724054],[1.534985,41.72384],[1.534859,41.723492],[1.534714,41.723325],[1.534688,41.723285],[1.534686,41.723279]]]]}},{"type":"Feature","id":"081705_081705 AP04 ANO 3","properties":{"area_id":"081705_081705 AP04 ANO 3","nom":"Seguers","codi_icgc":"081705 AP04 ANO 3","categoria":"Àrees de poblament","codi_municipi":"081705","municipi":"els Prats de Rei","codi_comarca":"06","comarca":"Anoia","provincia":"Barcelona","font":"ICGC Àrees de poblament v3r1 202602"},"geometry":{"type":"MultiPolygon","coordinates":[[[[1.584931,41.724945],[1.584982,41.725046],[1.584998,41.725044],[1.585137,41.724994],[1.585182,41.72497],[1.585243,41.724919],[1.585252,41.724933],[1.585264,41.724954],[1.58545,41.725279],[1.585501,41.725422],[1.585489,41.725517],[1.585417,41.725565],[1.58539,41.725583],[1.585314,41.725609],[1.585258,41.725633],[1.585204,41.725658],[1.585149,41.725687],[1.585097,41.72572],[1.585085,41.725729],[1.585072,41.725738],[1.585057,41.725752],[1.585042,41.725765],[1.584998,41.725803],[1.58496,41.725845],[1.58492,41.725899],[1.584881,41.725953],[1.584853,41.725993],[1.584825,41.726033],[1.584815,41.726048],[1.5848,41.726022],[1.584778,41.726001],[1.584754,41.725987],[1.58473,41.725976],[1.584695,41.725965],[1.58468,41.72596],[1.584645,41.725952],[1.584622,41.725947],[1.584581,41.725938],[1.584576,41.725938],[1.584476,41.725886],[1.584467,41.725869],[1.584447,41.725829],[1.584435,41.725802],[1.584422,41.725774],[1.584413,41.725763],[1.584397,41.725753],[1.584304,41.725799],[1.584145,41.725949],[1.584254,41.726072],[1.584515,41.726204],[1.584554,41.726208],[1.584619,41.726213],[1.584623,41.726213],[1.584776,41.726161],[1.584808,41.726117],[1.584999,41.725852],[1.585285,41.72584],[1.58547,41.725833],[1.58546,41.725655],[1.585458,41.725623],[1.585456,41.725584],[1.585508,41.725542],[1.585561,41.725498],[1.585619,41.725499],[1.585791,41.725465],[1.585897,41.725423],[1.586117,41.725383],[1.586131,41.725361],[1.585969,41.725124],[1.586293,41.724917],[1.586372,41.724956],[1.586386,41.724948],[1.586421,41.724965],[1.586485,41.724869],[1.586481,41.724852],[1.586486,41.72483],[1.586481,41.724823],[1.586462,41.724803],[1.586451,41.72479],[1.586376,41.724767],[1.58628,41.724849],[1.586186,41.724791],[1.586149,41.724754],[1.586154,41.724688],[1.586108,41.724675],[1.585963,41.724673],[1.585911,41.724782],[1.58584,41.724737],[1.585767,41.724717],[1.585681,41.724718],[1.58555,41.724719],[1.585102,41.72489],[1.584931,41.724945]]]]}},{"type":"Feature","id":"081705_081705 AP02 ANO 3","properties":{"area_id":"081705_081705 AP02 ANO 3","nom":"Solanelles","codi_icgc":"081705 AP02 ANO 3","categoria":"Àrees de poblament","codi_municipi":"081705","municipi":"els Prats de Rei","codi_comarca":"06","comarca":"Anoia","provincia":"Barcelona","font":"ICGC Àrees de poblament v3r1 202602"},"geometry":{"type":"MultiPolygon","coordinates":[[[[1.535869,41.719759],[1.536019,41.71982],[1.536112,41.719848],[1.536173,41.719821],[1.536232,41.719813],[1.536313,41.720111],[1.536308,41.720169],[1.536308,41.720294],[1.536304,41.720303],[1.536307,41.720325],[1.536307,41.720366],[1.536344,41.720594],[1.536368,41.720621],[1.536372,41.720621],[1.536553,41.720761],[1.53659,41.720742],[1.536776,41.720648],[1.536783,41.720651],[1.536802,41.720661],[1.536844,41.720683],[1.536903,41.720618],[1.536905,41.720618],[1.536907,41.720614],[1.536956,41.72056],[1.536926,41.720542],[1.537029,41.720344],[1.537078,41.720352],[1.537126,41.720347],[1.537174,41.720341],[1.53719,41.720341],[1.537198,41.72034],[1.537202,41.720337],[1.537205,41.720329],[1.537208,41.720322],[1.53721,41.72031],[1.537197,41.720128],[1.537188,41.720104],[1.537191,41.720093],[1.537191,41.720049],[1.537187,41.720048],[1.537121,41.720038],[1.537075,41.720034],[1.537048,41.720032],[1.537028,41.720029],[1.537013,41.720022],[1.537001,41.720011],[1.536991,41.719994],[1.536954,41.719898],[1.536972,41.719891],[1.536992,41.71992],[1.53702,41.719909],[1.537017,41.719905],[1.537007,41.71989],[1.537019,41.719886],[1.536983,41.719834],[1.537134,41.719786],[1.537202,41.719764],[1.537208,41.71976],[1.537208,41.719741],[1.537186,41.719719],[1.537044,41.719598],[1.536861,41.719439],[1.536841,41.719418],[1.536823,41.719416],[1.53681,41.719416],[1.536806,41.719416],[1.536752,41.719433],[1.536717,41.719393],[1.536667,41.719342],[1.536623,41.719306],[1.53659,41.719288],[1.536556,41.71928],[1.536469,41.71927],[1.536466,41.71927],[1.536466,41.71927],[1.536457,41.719234],[1.536284,41.719259],[1.536279,41.719283],[1.536269,41.719328],[1.536216,41.719323],[1.535843,41.719288],[1.535673,41.719237],[1.53566,41.719238],[1.535629,41.719274],[1.535561,41.719386],[1.535528,41.719416],[1.535497,41.719461],[1.53549,41.719472],[1.535474,41.719496],[1.535454,41.719525],[1.535495,41.719554],[1.535578,41.719613],[1.53563,41.719647],[1.535701,41.719686],[1.535716,41.719694],[1.535802,41.719732],[1.535811,41.719739],[1.535869,41.719759]]]]}},{"type":"Feature","id":"081705_081705 AP01 ANO 3","properties":{"area_id":"081705_081705 AP01 ANO 3","nom":"els Prats de Rei","codi_icgc":"081705 AP01 ANO 3","categoria":"Àrees de poblament","codi_municipi":"081705","municipi":"els Prats de Rei","codi_comarca":"06","comarca":"Anoia","provincia":"Barcelona","font":"ICGC Àrees de poblament v3r1 202602"},"geometry":{"type":"MultiPolygon","coordinates":[[[[1.546671,41.707597],[1.546684,41.707589],[1.54669,41.707576],[1.546952,41.707041],[1.54697,41.706933],[1.546974,41.706908],[1.546979,41.706877],[1.546981,41.706861],[1.546977,41.706854],[1.546971,41.706844],[1.546917,41.706755],[1.546852,41.706691],[1.546829,41.706679],[1.546783,41.706659],[1.54675,41.706649],[1.546572,41.7066],[1.546393,41.706552],[1.546015,41.706454],[1.545635,41.706357],[1.545551,41.706337],[1.545464,41.70632],[1.545385,41.706309],[1.545306,41.706304],[1.545197,41.706301],[1.545158,41.706297],[1.54513,41.706288],[1.545094,41.706272],[1.545102,41.706263],[1.545234,41.706105],[1.545238,41.706106],[1.545224,41.706036],[1.544931,41.705859],[1.544763,41.705671],[1.544697,41.705593],[1.544501,41.705512],[1.544387,41.705429],[1.544335,41.705478],[1.54429,41.705463],[1.544212,41.705424],[1.544149,41.705385],[1.54403,41.705303],[1.543926,41.705246],[1.543947,41.7052],[1.543808,41.705148],[1.543753,41.705176],[1.543486,41.705042],[1.543512,41.704997],[1.543361,41.704923],[1.543313,41.704951],[1.543235,41.704893],[1.543125,41.704835],[1.543148,41.704797],[1.542925,41.70467],[1.542812,41.704592],[1.542771,41.704606],[1.542678,41.7045],[1.542646,41.704495],[1.54251,41.704326],[1.542663,41.704176],[1.542671,41.704168],[1.542748,41.704086],[1.542759,41.704076],[1.542875,41.703974],[1.543038,41.703818],[1.543209,41.70366],[1.543805,41.703995],[1.544549,41.704425],[1.544552,41.704422],[1.544668,41.704206],[1.544778,41.7039],[1.54486,41.703618],[1.545007,41.703435],[1.545134,41.70329],[1.545277,41.703125],[1.54533,41.703034],[1.545207,41.703038],[1.545087,41.703036],[1.545061,41.703034],[1.544989,41.703025],[1.544912,41.702994],[1.544817,41.702942],[1.544699,41.70285],[1.544555,41.702748],[1.544276,41.702594],[1.544279,41.702583],[1.544284,41.702571],[1.544322,41.702513],[1.544345,41.70248],[1.54437,41.702441],[1.544378,41.702429],[1.544323,41.702401],[1.543992,41.70223],[1.543905,41.702318],[1.543837,41.702386],[1.54373,41.70243],[1.543674,41.702453],[1.543434,41.70256],[1.543052,41.702634],[1.542845,41.702642],[1.54285,41.70275],[1.542858,41.702857],[1.542873,41.702961],[1.542891,41.703063],[1.542901,41.703091],[1.542921,41.703131],[1.542938,41.703172],[1.542947,41.703209],[1.542952,41.703265],[1.542949,41.703321],[1.542939,41.703362],[1.542922,41.703401],[1.542922,41.703402],[1.542907,41.703427],[1.542897,41.703438],[1.542883,41.703448],[1.542856,41.703461],[1.542827,41.703466],[1.542738,41.703472],[1.542649,41.703477],[1.54256,41.703496],[1.54247,41.703541],[1.542447,41.70357],[1.542375,41.703668],[1.542424,41.703787],[1.542425,41.703788],[1.542461,41.70382],[1.54259,41.703941],[1.542614,41.703963],[1.54268,41.704022],[1.542558,41.704124],[1.542501,41.704191],[1.542267,41.70432],[1.542171,41.704374],[1.541925,41.704461],[1.541789,41.704378],[1.541775,41.704391],[1.541797,41.704416],[1.541694,41.704449],[1.541607,41.704388],[1.541522,41.704373],[1.541322,41.70437],[1.541216,41.704299],[1.541214,41.704278],[1.541126,41.704257],[1.541066,41.704243],[1.541094,41.704123],[1.541065,41.704111],[1.541033,41.704105],[1.541082,41.703981],[1.540892,41.703943],[1.540833,41.70407],[1.540597,41.704028],[1.54052,41.704153],[1.540504,41.70418],[1.540397,41.704124],[1.540385,41.704126],[1.540355,41.704125],[1.540268,41.7044],[1.540244,41.704585],[1.540191,41.704835],[1.540118,41.704913],[1.539982,41.705007],[1.539852,41.705063],[1.539679,41.705129],[1.539,41.704763],[1.538902,41.704686],[1.539101,41.704528],[1.539489,41.704243],[1.539554,41.704173],[1.539627,41.704088],[1.539699,41.703967],[1.539755,41.70385],[1.539868,41.70347],[1.539769,41.703431],[1.539612,41.703406],[1.539449,41.7034],[1.539416,41.703516],[1.539402,41.703565],[1.539371,41.703586],[1.539305,41.703583],[1.539107,41.703576],[1.538921,41.703584],[1.538847,41.703596],[1.538794,41.703656],[1.538724,41.703816],[1.538247,41.703717],[1.538018,41.704397],[1.537938,41.704409],[1.537602,41.704469],[1.537741,41.704697],[1.537828,41.704677],[1.537911,41.704669],[1.538013,41.704674],[1.537944,41.704951],[1.537752,41.704883],[1.537517,41.705086],[1.537699,41.705238],[1.53753,41.705394],[1.537646,41.705469],[1.5377,41.705505],[1.537821,41.705581],[1.537886,41.705623],[1.537935,41.705583],[1.538118,41.705438],[1.538131,41.705429],[1.538144,41.705422],[1.538156,41.705417],[1.538167,41.705412],[1.538549,41.705673],[1.538889,41.705518],[1.53901,41.705444],[1.539291,41.705581],[1.53937,41.7057],[1.539324,41.705696],[1.53928,41.705733],[1.539235,41.70577],[1.539328,41.705832],[1.539353,41.705811],[1.539374,41.705826],[1.539411,41.705854],[1.539416,41.705861],[1.539417,41.705875],[1.539415,41.705889],[1.539409,41.705917],[1.539403,41.705946],[1.539216,41.706072],[1.539242,41.706095],[1.539334,41.706166],[1.539453,41.7061],[1.539528,41.706138],[1.539781,41.706267],[1.53971,41.7064],[1.539767,41.706425],[1.540366,41.706515],[1.540403,41.706479],[1.540434,41.706327],[1.540494,41.706325],[1.540549,41.706326],[1.54061,41.706297],[1.540676,41.70619],[1.540713,41.706102],[1.540794,41.70604],[1.540867,41.705993],[1.540953,41.706039],[1.541074,41.706166],[1.541399,41.70653],[1.541482,41.706579],[1.541582,41.706551],[1.541746,41.706502],[1.542629,41.706832],[1.542651,41.706904],[1.542652,41.707032],[1.542645,41.707147],[1.542643,41.707181],[1.542621,41.707431],[1.542625,41.707531],[1.542655,41.707536],[1.54266,41.707537],[1.543659,41.707609],[1.54369,41.707458],[1.543702,41.707409],[1.543774,41.707418],[1.543943,41.707432],[1.543954,41.707433],[1.544149,41.707544],[1.544245,41.707137],[1.544303,41.706891],[1.544312,41.706886],[1.544319,41.706884],[1.544328,41.706884],[1.544436,41.706894],[1.544545,41.706903],[1.544701,41.706917],[1.544856,41.706932],[1.544879,41.706936],[1.544901,41.706943],[1.544919,41.70695],[1.544935,41.706958],[1.544943,41.706966],[1.544958,41.706992],[1.544967,41.707019],[1.544979,41.707072],[1.544996,41.707163],[1.545012,41.707254],[1.545015,41.707274],[1.54502,41.707293],[1.545028,41.707304],[1.545062,41.707339],[1.545093,41.707371],[1.54506,41.707373],[1.545027,41.707376],[1.545009,41.707379],[1.544992,41.707388],[1.544976,41.707405],[1.544971,41.707424],[1.544973,41.707449],[1.544978,41.707472],[1.544988,41.707503],[1.544997,41.707534],[1.545042,41.707615],[1.545102,41.707699],[1.545333,41.707581],[1.545336,41.707579],[1.545365,41.707582],[1.545494,41.707596],[1.545583,41.707606],[1.545886,41.70767],[1.545917,41.707677],[1.546156,41.707727],[1.546386,41.707756],[1.546431,41.70775],[1.546468,41.707726],[1.54654,41.70768],[1.546571,41.707661],[1.546671,41.707597]]]]}},{"type":"Feature","id":"081705_081705 AP03 ANO 3","properties":{"area_id":"081705_081705 AP03 ANO 3","nom":"la Manresana","codi_icgc":"081705 AP03 ANO 3","categoria":"Àrees de poblament","codi_municipi":"081705","municipi":"els Prats de Rei","codi_comarca":"06","comarca":"Anoia","provincia":"Barcelona","font":"ICGC Àrees de poblament v3r1 202602"},"geometry":{"type":"MultiPolygon","coordinates":[[[[1.551907,41.696214],[1.552089,41.696276],[1.552263,41.696322],[1.552312,41.696476],[1.552441,41.696624],[1.55244,41.696671],[1.552384,41.696809],[1.55247,41.697014],[1.552582,41.697099],[1.552733,41.697199],[1.553021,41.697325],[1.553174,41.697423],[1.553332,41.697306],[1.553302,41.697215],[1.553196,41.697094],[1.553045,41.697016],[1.552931,41.696983],[1.552933,41.696971],[1.552935,41.696958],[1.552873,41.696957],[1.552886,41.696686],[1.552656,41.696602],[1.552625,41.696498],[1.552685,41.696152],[1.552895,41.695926],[1.552455,41.695783],[1.552354,41.695852],[1.552182,41.69597],[1.552073,41.695978],[1.551907,41.696214]]]]}}]}