{"type":"FeatureCollection","name":"ICGC Àrees de poblament - Sant Adrià de Besòs","features":[{"type":"Feature","id":"081944_081944 SI03 BAR 2","properties":{"area_id":"081944_081944 SI03 BAR 2","nom":"Polígon industrial El Sot","codi_icgc":"081944 SI03 BAR 2","categoria":"Sector industrial","codi_municipi":"081944","municipi":"Sant Adrià de Besòs","codi_comarca":"13","comarca":"Barcelonès","provincia":"Barcelona","font":"ICGC Àrees de poblament v3r1 202602"},"geometry":{"type":"MultiPolygon","coordinates":[[[[2.231456,41.430956],[2.231456,41.430955],[2.231943,41.430547],[2.232339,41.430211],[2.232348,41.430204],[2.232446,41.430121],[2.232558,41.430026],[2.23382,41.428977],[2.233891,41.428918],[2.234022,41.428788],[2.234061,41.42875],[2.234123,41.428688],[2.234137,41.428674],[2.234243,41.428577],[2.234264,41.428557],[2.234359,41.428462],[2.234374,41.42845],[2.234513,41.428336],[2.235248,41.427806],[2.236192,41.427017],[2.236492,41.42675],[2.236698,41.42662],[2.23663,41.426298],[2.236532,41.425806],[2.236282,41.425503],[2.235701,41.424795],[2.232671,41.42627],[2.2326,41.426304],[2.232431,41.426386],[2.232204,41.426497],[2.230885,41.424896],[2.230636,41.425011],[2.23053,41.425059],[2.228119,41.426167],[2.224421,41.427939],[2.226163,41.429526],[2.226605,41.42969],[2.22681,41.429763],[2.227967,41.430164],[2.228529,41.430278],[2.228549,41.43028],[2.22906,41.430315],[2.229117,41.430319],[2.229613,41.430353],[2.229795,41.430403],[2.229983,41.430454],[2.23093,41.430712],[2.231427,41.430943],[2.231455,41.430956],[2.231456,41.430956]]]]}},{"type":"Feature","id":"081944_081944 SI02 BAR 2","properties":{"area_id":"081944_081944 SI02 BAR 2","nom":"Polígon industrial La Verneda","codi_icgc":"081944 SI02 BAR 2","categoria":"Sector industrial","codi_municipi":"081944","municipi":"Sant Adrià de Besòs","codi_comarca":"13","comarca":"Barcelonès","provincia":"Barcelona","font":"ICGC Àrees de poblament v3r1 202602"},"geometry":{"type":"MultiPolygon","coordinates":[[[[2.208569,41.42522],[2.208569,41.42522],[2.20777,41.425013],[2.207545,41.42503],[2.207514,41.425053],[2.207294,41.425214],[2.207217,41.425288],[2.207115,41.425337],[2.20703,41.425364],[2.206663,41.425487],[2.206436,41.425559],[2.206318,41.425584],[2.206229,41.425617],[2.206192,41.425651],[2.206172,41.425668],[2.206132,41.425732],[2.20614,41.425766],[2.206151,41.425812],[2.206264,41.42593],[2.206352,41.426011],[2.206412,41.426093],[2.206459,41.426183],[2.206465,41.426251],[2.206468,41.426289],[2.20647,41.426345],[2.206575,41.426457],[2.206636,41.426524],[2.20674,41.426638],[2.2068,41.426709],[2.207128,41.426556],[2.208523,41.425886],[2.208603,41.425855],[2.208907,41.425745],[2.209155,41.425642],[2.208569,41.42522]]]]}},{"type":"Feature","id":"081944_081944 SI01 BAR 2","properties":{"area_id":"081944_081944 SI01 BAR 2","nom":"Polígon industrial de Montsolís","codi_icgc":"081944 SI01 BAR 2","categoria":"Sector industrial","codi_municipi":"081944","municipi":"Sant Adrià de Besòs","codi_comarca":"13","comarca":"Barcelonès","provincia":"Barcelona","font":"ICGC Àrees de poblament v3r1 202602"},"geometry":{"type":"MultiPolygon","coordinates":[[[[2.210203,41.426671],[2.210195,41.426663],[2.209827,41.426823],[2.209454,41.426986],[2.209081,41.427157],[2.208184,41.427596],[2.207746,41.427789],[2.207352,41.427977],[2.207344,41.428111],[2.207329,41.428238],[2.20729,41.428436],[2.207274,41.428655],[2.207276,41.428876],[2.207275,41.428888],[2.207258,41.429066],[2.207246,41.429105],[2.207158,41.429372],[2.20701,41.429679],[2.206894,41.429983],[2.206816,41.430187],[2.206808,41.430209],[2.206746,41.430354],[2.206718,41.430418],[2.206678,41.430519],[2.206618,41.430669],[2.206501,41.430984],[2.206366,41.431527],[2.206291,41.431825],[2.206291,41.431829],[2.20622,41.432109],[2.20616,41.432401],[2.206149,41.432448],[2.206132,41.432523],[2.206125,41.432541],[2.206256,41.432583],[2.206456,41.432649],[2.206664,41.43271],[2.206801,41.432753],[2.206854,41.43277],[2.206902,41.432787],[2.206976,41.432812],[2.207043,41.432831],[2.207091,41.432845],[2.207194,41.432875],[2.207572,41.433006],[2.207801,41.433084],[2.207917,41.433128],[2.207951,41.433135],[2.207993,41.433143],[2.208024,41.43315],[2.208044,41.433154],[2.208172,41.433178],[2.208314,41.433194],[2.208553,41.433203],[2.208755,41.433213],[2.208924,41.433249],[2.209787,41.433336],[2.209889,41.433346],[2.209903,41.433347],[2.210155,41.432983],[2.210335,41.432761],[2.210591,41.432392],[2.21086,41.432026],[2.210884,41.431995],[2.210911,41.431957],[2.211005,41.431829],[2.211072,41.431734],[2.211107,41.431685],[2.211316,41.431628],[2.211504,41.431221],[2.21158,41.431056],[2.211785,41.430566],[2.211803,41.43045],[2.211845,41.430177],[2.211824,41.430078],[2.211814,41.430026],[2.211827,41.429854],[2.211811,41.429221],[2.211788,41.428749],[2.211678,41.428456],[2.211722,41.428435],[2.211709,41.428359],[2.211666,41.428315],[2.211594,41.42823],[2.211502,41.42812],[2.211213,41.427787],[2.210869,41.427374],[2.210203,41.426671]]]]}},{"type":"Feature","id":"081944_081944 AP01 BAR 3","properties":{"area_id":"081944_081944 AP01 BAR 3","nom":"Sant Adrià de Besòs","codi_icgc":"081944 AP01 BAR 3","categoria":"Àrees de poblament","codi_municipi":"081944","municipi":"Sant Adrià de Besòs","codi_comarca":"13","comarca":"Barcelonès","provincia":"Barcelona","font":"ICGC Àrees de poblament v3r1 202602"},"geometry":{"type":"MultiPolygon","coordinates":[[[[2.214626,41.434868],[2.214692,41.434524],[2.21502,41.43415],[2.215357,41.433773],[2.215665,41.433691],[2.216221,41.43359],[2.216324,41.433525],[2.21668,41.433302],[2.216543,41.433069],[2.216928,41.432687],[2.217499,41.432224],[2.219566,41.432958],[2.220599,41.431721],[2.220654,41.431655],[2.220678,41.431627],[2.220705,41.431594],[2.220729,41.431567],[2.220875,41.431639],[2.221271,41.431851],[2.222097,41.432185],[2.222481,41.432334],[2.222803,41.431895],[2.223657,41.430639],[2.223919,41.430253],[2.224045,41.430096],[2.22444,41.429504],[2.224686,41.42904],[2.224966,41.428628],[2.224398,41.428127],[2.224281,41.427942],[2.224296,41.42788],[2.224702,41.427691],[2.225677,41.427223],[2.226284,41.426922],[2.226964,41.426573],[2.227733,41.426186],[2.228791,41.42566],[2.229649,41.425228],[2.230474,41.424816],[2.231375,41.424395],[2.232872,41.423666],[2.234033,41.423071],[2.233233,41.422174],[2.233071,41.421958],[2.232766,41.421532],[2.232792,41.421442],[2.232368,41.420924],[2.232091,41.420984],[2.232072,41.420994],[2.232059,41.421001],[2.232026,41.421018],[2.231999,41.421029],[2.23138,41.421297],[2.230846,41.421531],[2.230518,41.421673],[2.230188,41.421813],[2.22953,41.422094],[2.229339,41.422177],[2.22929,41.422179],[2.229176,41.422044],[2.228427,41.421183],[2.229717,41.420541],[2.23097,41.41982],[2.23237,41.418997],[2.231661,41.417724],[2.231599,41.41762],[2.230525,41.415968],[2.230233,41.415523],[2.229822,41.41547],[2.229671,41.415452],[2.229608,41.415447],[2.229567,41.415456],[2.229542,41.415469],[2.229516,41.415493],[2.229377,41.415684],[2.229319,41.415773],[2.229319,41.415815],[2.229341,41.41588],[2.22874,41.416119],[2.22867,41.416054],[2.228465,41.416124],[2.228255,41.416216],[2.228007,41.416293],[2.227797,41.416297],[2.227479,41.41626],[2.227235,41.416251],[2.227374,41.41605],[2.227365,41.416007],[2.227204,41.415857],[2.2269,41.41556],[2.22639,41.415064],[2.226124,41.41481],[2.225745,41.414447],[2.225717,41.414459],[2.225501,41.414257],[2.225418,41.414312],[2.225223,41.414461],[2.225366,41.41469],[2.225543,41.414994],[2.22567,41.415251],[2.225789,41.415546],[2.225897,41.415843],[2.225983,41.416216],[2.226012,41.416579],[2.226033,41.417076],[2.225907,41.41798],[2.225892,41.418067],[2.225827,41.418438],[2.225439,41.418025],[2.225115,41.417622],[2.225165,41.417329],[2.225157,41.417308],[2.225187,41.416841],[2.225084,41.415983],[2.224813,41.415285],[2.224352,41.414643],[2.223553,41.413751],[2.222721,41.413021],[2.222622,41.41302],[2.222508,41.413048],[2.221666,41.413504],[2.221659,41.413576],[2.221803,41.413724],[2.221497,41.413894],[2.220328,41.414763],[2.219895,41.415146],[2.219708,41.415356],[2.219019,41.415941],[2.218576,41.416632],[2.218539,41.416612],[2.218436,41.416524],[2.218413,41.416545],[2.218235,41.416424],[2.218218,41.416435],[2.218145,41.41648],[2.218134,41.416487],[2.218089,41.416511],[2.218066,41.416536],[2.218058,41.416544],[2.217934,41.416686],[2.217927,41.416695],[2.217776,41.416849],[2.217768,41.416858],[2.21754,41.417127],[2.217533,41.417136],[2.217134,41.417633],[2.217127,41.417642],[2.216938,41.417875],[2.216931,41.417884],[2.216793,41.41805],[2.216785,41.418059],[2.21673,41.418117],[2.216669,41.418172],[2.216577,41.418249],[2.216496,41.41831],[2.21641,41.418366],[2.216263,41.41845],[2.216163,41.418528],[2.21604,41.418635],[2.215876,41.418781],[2.215784,41.418853],[2.215639,41.418962],[2.215436,41.419119],[2.215165,41.419319],[2.215059,41.419387],[2.214833,41.419561],[2.214567,41.419763],[2.214394,41.419893],[2.214278,41.419961],[2.214242,41.419986],[2.214153,41.42005],[2.214029,41.420122],[2.213866,41.420223],[2.213716,41.420312],[2.213481,41.420416],[2.213284,41.420502],[2.213178,41.420559],[2.213094,41.420601],[2.213037,41.420635],[2.212954,41.420692],[2.21288,41.420744],[2.212829,41.420777],[2.212768,41.420808],[2.212658,41.420854],[2.212508,41.420907],[2.212358,41.420966],[2.212241,41.421007],[2.212135,41.421046],[2.212073,41.421071],[2.212018,41.421101],[2.211967,41.421134],[2.211946,41.421152],[2.211934,41.421166],[2.211927,41.421175],[2.21192,41.421184],[2.211919,41.421186],[2.211914,41.421194],[2.211905,41.421211],[2.2119,41.421221],[2.211891,41.421239],[2.211885,41.421249],[2.21176,41.42147],[2.211732,41.421519],[2.211726,41.421529],[2.211558,41.421805],[2.211422,41.42225],[2.211418,41.422252],[2.211415,41.42226],[2.211152,41.422356],[2.210358,41.423649],[2.209942,41.424326],[2.209942,41.424326],[2.209936,41.424337],[2.20993,41.424346],[2.209953,41.424592],[2.209954,41.424598],[2.209852,41.424643],[2.209715,41.424703],[2.209713,41.424766],[2.209719,41.424874],[2.209719,41.424927],[2.209719,41.425429],[2.209694,41.425516],[2.209046,41.425773],[2.208691,41.425881],[2.208351,41.426034],[2.207816,41.426294],[2.207121,41.426616],[2.207078,41.42664],[2.207071,41.426669],[2.207079,41.426686],[2.207601,41.427311],[2.21001,41.426188],[2.210085,41.426149],[2.210459,41.426466],[2.210624,41.426642],[2.210678,41.426693],[2.210819,41.42685],[2.211036,41.427083],[2.211149,41.427219],[2.211152,41.427222],[2.211577,41.42773],[2.21159,41.427748],[2.211599,41.42776],[2.21161,41.427775],[2.211844,41.428086],[2.212092,41.428438],[2.212176,41.428581],[2.212246,41.42866],[2.21247,41.428715],[2.212591,41.42873],[2.21271,41.428754],[2.212915,41.428818],[2.213152,41.428873],[2.213262,41.428895],[2.213384,41.428941],[2.213542,41.429016],[2.213656,41.4291],[2.213773,41.429226],[2.213835,41.429343],[2.213888,41.429519],[2.213883,41.429582],[2.214054,41.429553],[2.214178,41.429447],[2.214341,41.429349],[2.214581,41.429202],[2.21519,41.428744],[2.215618,41.428411],[2.215698,41.42834],[2.215682,41.428307],[2.215632,41.428247],[2.215358,41.428299],[2.215184,41.428292],[2.214998,41.428263],[2.214833,41.428206],[2.214711,41.428148],[2.214383,41.428036],[2.213974,41.427858],[2.214237,41.427623],[2.214394,41.427377],[2.214578,41.427043],[2.214635,41.426801],[2.214704,41.426514],[2.214723,41.425961],[2.214683,41.42563],[2.214483,41.425096],[2.214402,41.424955],[2.214366,41.424902],[2.214127,41.424548],[2.213433,41.423693],[2.212621,41.422815],[2.212774,41.422654],[2.213132,41.422832],[2.213393,41.422962],[2.213586,41.423078],[2.213998,41.423286],[2.215074,41.423788],[2.215419,41.423651],[2.216208,41.42327],[2.217521,41.422654],[2.217794,41.422526],[2.217892,41.422613],[2.218,41.422706],[2.218005,41.422704],[2.219612,41.423859],[2.219501,41.423946],[2.218265,41.424919],[2.218457,41.425185],[2.218568,41.425343],[2.218724,41.425564],[2.218813,41.425692],[2.21887,41.425773],[2.218891,41.425804],[2.2189,41.425816],[2.218943,41.425789],[2.219368,41.425535],[2.219417,41.425506],[2.220359,41.424941],[2.222857,41.423623],[2.223659,41.424551],[2.223758,41.424687],[2.22379,41.424733],[2.223499,41.424869],[2.221856,41.425752],[2.219878,41.42703],[2.218906,41.427805],[2.218745,41.427927],[2.215381,41.430473],[2.214648,41.431027],[2.214435,41.431375],[2.214352,41.431509],[2.21342,41.432681],[2.21307,41.432452],[2.213058,41.432481],[2.212804,41.432834],[2.212623,41.433122],[2.212429,41.433466],[2.212293,41.433718],[2.212178,41.433932],[2.21216,41.433964],[2.212311,41.434022],[2.212436,41.434069],[2.212556,41.434115],[2.213036,41.434298],[2.21326,41.434352],[2.213372,41.434377],[2.213634,41.434385],[2.214182,41.434626],[2.214231,41.434666],[2.214363,41.43473],[2.214565,41.434879],[2.214612,41.434898],[2.214626,41.434868]],[[2.223484,41.423897],[2.223225,41.423602],[2.223762,41.423305],[2.226923,41.421889],[2.227926,41.42146],[2.227952,41.42149],[2.2287,41.422366],[2.228756,41.422431],[2.224074,41.424588],[2.223682,41.424123],[2.223484,41.423897]]]]}}]}