{"type":"FeatureCollection","name":"ICGC Àrees de poblament - Sant Cugat Sesgarrigues","features":[{"type":"Feature","id":"082068_082068 SI03 APE 2","properties":{"area_id":"082068_082068 SI03 APE 2","nom":"Caves Elyssia","codi_icgc":"082068 SI03 APE 2","categoria":"Sector industrial","codi_municipi":"082068","municipi":"Sant Cugat Sesgarrigues","codi_comarca":"03","comarca":"Alt Penedès","provincia":"Barcelona","font":"ICGC Àrees de poblament v3r1 202602"},"geometry":{"type":"MultiPolygon","coordinates":[[[[1.748568,41.36955],[1.748575,41.369532],[1.748636,41.369545],[1.74942,41.369717],[1.749448,41.369723],[1.749479,41.369633],[1.749504,41.369558],[1.749615,41.369231],[1.749562,41.369016],[1.74956,41.368882],[1.749063,41.36878],[1.749045,41.368828],[1.748888,41.368793],[1.748821,41.36878],[1.748828,41.368724],[1.748827,41.368697],[1.748808,41.368634],[1.748759,41.368566],[1.748689,41.368524],[1.74866,41.368506],[1.74849,41.368465],[1.74846,41.368467],[1.748433,41.36847],[1.748402,41.368474],[1.748356,41.368486],[1.748312,41.368503],[1.748312,41.368503],[1.748273,41.368526],[1.748238,41.368552],[1.748232,41.368559],[1.748209,41.368583],[1.748187,41.368616],[1.748174,41.368646],[1.747709,41.368558],[1.747567,41.368531],[1.747453,41.368501],[1.747403,41.36851],[1.747339,41.368581],[1.747384,41.368626],[1.747491,41.368755],[1.747564,41.368866],[1.747594,41.36892],[1.74755,41.369074],[1.747533,41.369143],[1.747632,41.369163],[1.747601,41.369259],[1.747888,41.369331],[1.747712,41.369818],[1.74774,41.369825],[1.7484,41.369986],[1.748568,41.36955]]]]}},{"type":"Feature","id":"082068_082068 SI06 APE 2","properties":{"area_id":"082068_082068 SI06 APE 2","nom":"Covides","codi_icgc":"082068 SI06 APE 2","categoria":"Sector industrial","codi_municipi":"082068","municipi":"Sant Cugat Sesgarrigues","codi_comarca":"03","comarca":"Alt Penedès","provincia":"Barcelona","font":"ICGC Àrees de poblament v3r1 202602"},"geometry":{"type":"MultiPolygon","coordinates":[[[[1.760693,41.358067],[1.762427,41.357902],[1.762223,41.35699],[1.761187,41.356989],[1.761185,41.357018],[1.760774,41.357867],[1.760693,41.358067]]]]}},{"type":"Feature","id":"082068_082068 SI05 APE 2","properties":{"area_id":"082068_082068 SI05 APE 2","nom":"Decalinox SA","codi_icgc":"082068 SI05 APE 2","categoria":"Sector industrial","codi_municipi":"082068","municipi":"Sant Cugat Sesgarrigues","codi_comarca":"03","comarca":"Alt Penedès","provincia":"Barcelona","font":"ICGC Àrees de poblament v3r1 202602"},"geometry":{"type":"MultiPolygon","coordinates":[[[[1.766759,41.360424],[1.766729,41.360053],[1.766715,41.359736],[1.766707,41.35954],[1.766415,41.359559],[1.766311,41.359565],[1.766361,41.359883],[1.765774,41.359916],[1.765791,41.360392],[1.766023,41.360446],[1.766033,41.360387],[1.766044,41.36032],[1.766204,41.360361],[1.766204,41.360384],[1.766207,41.36045],[1.766451,41.360449],[1.766759,41.360424]]]]}},{"type":"Feature","id":"082068_082068 AP02 APE 2","properties":{"area_id":"082068_082068 AP02 APE 2","nom":"Massalliga","codi_icgc":"082068 AP02 APE 2","categoria":"Àrees de poblament","codi_municipi":"082068","municipi":"Sant Cugat Sesgarrigues","codi_comarca":"03","comarca":"Alt Penedès","provincia":"Barcelona","font":"ICGC Àrees de poblament v3r1 202602"},"geometry":{"type":"MultiPolygon","coordinates":[[[[1.747487,41.357944],[1.74769,41.357939],[1.748016,41.357961],[1.748023,41.358038],[1.748038,41.358028],[1.748058,41.358077],[1.748472,41.357953],[1.748545,41.357936],[1.748515,41.357881],[1.748483,41.357831],[1.748479,41.357825],[1.748472,41.357819],[1.748392,41.357728],[1.748307,41.357701],[1.748247,41.35768],[1.748193,41.35768],[1.748089,41.357678],[1.747842,41.357672],[1.747775,41.357671],[1.747352,41.357251],[1.746685,41.357401],[1.746479,41.357442],[1.746366,41.357464],[1.746322,41.357469],[1.745862,41.357582],[1.745451,41.357719],[1.745416,41.357724],[1.745387,41.357728],[1.745353,41.357732],[1.745311,41.357752],[1.745284,41.357766],[1.745258,41.357789],[1.745234,41.357818],[1.745218,41.357846],[1.745216,41.357893],[1.745251,41.357963],[1.74532,41.358125],[1.745393,41.358376],[1.745437,41.358379],[1.745479,41.358381],[1.746248,41.35834],[1.746342,41.358335],[1.746444,41.35833],[1.746672,41.35832],[1.746754,41.358316],[1.746765,41.358315],[1.746775,41.358311],[1.746783,41.358307],[1.74679,41.358301],[1.746795,41.358295],[1.746798,41.358289],[1.746799,41.358282],[1.746799,41.358275],[1.746797,41.358271],[1.746795,41.358263],[1.74665,41.357969],[1.747438,41.357944],[1.747487,41.357944]]]]}},{"type":"Feature","id":"082068_082068 SI01 APE 2","properties":{"area_id":"082068_082068 SI01 APE 2","nom":"Polígon industrial Hostal Nou","codi_icgc":"082068 SI01 APE 2","categoria":"Sector industrial","codi_municipi":"082068","municipi":"Sant Cugat Sesgarrigues","codi_comarca":"03","comarca":"Alt Penedès","provincia":"Barcelona","font":"ICGC Àrees de poblament v3r1 202602"},"geometry":{"type":"MultiPolygon","coordinates":[[[[1.736321,41.359168],[1.736362,41.359166],[1.736426,41.359172],[1.73649,41.359181],[1.736573,41.359194],[1.736656,41.359206],[1.736676,41.359208],[1.736707,41.359206],[1.736738,41.359199],[1.736766,41.359191],[1.736801,41.359173],[1.736816,41.359161],[1.73683,41.359147],[1.736851,41.359116],[1.736862,41.359092],[1.736874,41.359056],[1.736881,41.359019],[1.736886,41.358962],[1.736888,41.358928],[1.736888,41.358905],[1.736882,41.358712],[1.736873,41.358617],[1.736859,41.358545],[1.736855,41.358521],[1.736839,41.358462],[1.736802,41.358363],[1.736739,41.358216],[1.736709,41.358142],[1.736685,41.358067],[1.736678,41.35804],[1.736673,41.358026],[1.736658,41.357971],[1.736655,41.357947],[1.736646,41.357884],[1.736637,41.357834],[1.736612,41.357817],[1.736181,41.357715],[1.736175,41.35766],[1.735915,41.357597],[1.735582,41.357515],[1.735316,41.357472],[1.734933,41.35741],[1.734589,41.357373],[1.734149,41.357331],[1.733907,41.357317],[1.733779,41.357317],[1.733766,41.35733],[1.73292,41.359187],[1.733144,41.359245],[1.733141,41.35925],[1.733233,41.359268],[1.733473,41.359311],[1.733716,41.359348],[1.733851,41.359364],[1.734053,41.359381],[1.734257,41.359391],[1.734377,41.359395],[1.734557,41.359396],[1.734738,41.35939],[1.734881,41.35938],[1.735094,41.359361],[1.7352,41.359348],[1.735306,41.359333],[1.735597,41.359286],[1.735888,41.359239],[1.736083,41.359207],[1.736279,41.359174],[1.736321,41.359168]]]]}},{"type":"Feature","id":"082068_082068 SI02 APE 2","properties":{"area_id":"082068_082068 SI02 APE 2","nom":"Polígon industrial La Masia","codi_icgc":"082068 SI02 APE 2","categoria":"Sector industrial","codi_municipi":"082068","municipi":"Sant Cugat Sesgarrigues","codi_comarca":"03","comarca":"Alt Penedès","provincia":"Barcelona","font":"ICGC Àrees de poblament v3r1 202602"},"geometry":{"type":"MultiPolygon","coordinates":[[[[1.766882,41.361664],[1.766757,41.361635],[1.766581,41.361598],[1.766427,41.361546],[1.766377,41.361515],[1.766349,41.361462],[1.766338,41.361402],[1.766344,41.36124],[1.767532,41.361487],[1.767806,41.361393],[1.767804,41.361391],[1.767685,41.361208],[1.767646,41.361147],[1.767637,41.361135],[1.767551,41.361],[1.767532,41.36097],[1.766228,41.360714],[1.764948,41.360436],[1.764948,41.360436],[1.762827,41.359968],[1.762657,41.359957],[1.762493,41.359944],[1.762345,41.359922],[1.762174,41.359886],[1.761746,41.359786],[1.761372,41.359705],[1.761349,41.3597],[1.761291,41.35969],[1.76123,41.359684],[1.761169,41.359683],[1.761107,41.359688],[1.761102,41.359689],[1.761031,41.359705],[1.760964,41.359726],[1.7609,41.359752],[1.76084,41.359784],[1.760784,41.359819],[1.760734,41.359859],[1.760689,41.359903],[1.760648,41.359948],[1.760622,41.359989],[1.760598,41.360031],[1.760582,41.360071],[1.760569,41.360119],[1.760563,41.360168],[1.760566,41.360217],[1.760575,41.360266],[1.760593,41.360313],[1.760617,41.360359],[1.760649,41.360401],[1.760687,41.360441],[1.760731,41.360478],[1.76078,41.36051],[1.760834,41.360537],[1.760892,41.36056],[1.760953,41.360578],[1.761024,41.360594],[1.762402,41.360901],[1.762504,41.360933],[1.762554,41.360946],[1.762581,41.360958],[1.762592,41.360972],[1.762604,41.360988],[1.76262,41.361006],[1.762635,41.361037],[1.762649,41.361069],[1.762688,41.361158],[1.762687,41.361232],[1.761771,41.361284],[1.761414,41.361299],[1.761414,41.361304],[1.761412,41.361323],[1.76141,41.361376],[1.761435,41.361405],[1.76145,41.361421],[1.761485,41.361461],[1.761514,41.361522],[1.761917,41.362352],[1.761982,41.362487],[1.762003,41.362599],[1.762014,41.36266],[1.762103,41.362979],[1.762105,41.36298],[1.762229,41.362999],[1.762265,41.363005],[1.762302,41.363009],[1.762638,41.363048],[1.762809,41.363067],[1.76282,41.363066],[1.76282,41.363066],[1.762837,41.363065],[1.762856,41.363065],[1.762883,41.363068],[1.762931,41.363075],[1.762973,41.363084],[1.763089,41.363108],[1.763205,41.363132],[1.763347,41.363162],[1.763488,41.363192],[1.763634,41.363221],[1.76378,41.36325],[1.763858,41.363266],[1.763936,41.363281],[1.763991,41.363292],[1.764044,41.363303],[1.764073,41.363311],[1.764097,41.363322],[1.76412,41.36334],[1.764257,41.363335],[1.765091,41.363393],[1.765329,41.364258],[1.76536,41.364394],[1.765647,41.36464],[1.766167,41.364339],[1.766503,41.364153],[1.767082,41.363902],[1.767293,41.363773],[1.767119,41.363084],[1.767053,41.362902],[1.766882,41.361664]]]]}},{"type":"Feature","id":"082068_082068 SI04 APE 2","properties":{"area_id":"082068_082068 SI04 APE 2","nom":"Polígon industrial Les Cases Roges","codi_icgc":"082068 SI04 APE 2","categoria":"Sector industrial","codi_municipi":"082068","municipi":"Sant Cugat Sesgarrigues","codi_comarca":"03","comarca":"Alt Penedès","provincia":"Barcelona","font":"ICGC Àrees de poblament v3r1 202602"},"geometry":{"type":"MultiPolygon","coordinates":[[[[1.752743,41.356637],[1.752893,41.356559],[1.752721,41.356379],[1.752464,41.35611],[1.752362,41.356002],[1.751718,41.3554],[1.751619,41.355307],[1.751503,41.355402],[1.751487,41.355416],[1.751426,41.355466],[1.751278,41.355581],[1.751129,41.355696],[1.751035,41.355765],[1.750937,41.355829],[1.75083,41.355892],[1.750723,41.355953],[1.750548,41.356051],[1.750376,41.356151],[1.750288,41.356207],[1.750201,41.356261],[1.750132,41.356298],[1.750064,41.356336],[1.749974,41.356402],[1.749888,41.356469],[1.749843,41.356505],[1.749801,41.356544],[1.749789,41.356556],[1.749778,41.356568],[1.749742,41.356546],[1.749756,41.356537],[1.749289,41.356379],[1.748846,41.356256],[1.748782,41.356238],[1.748717,41.356501],[1.749462,41.356674],[1.749926,41.356797],[1.750476,41.356925],[1.751621,41.357182],[1.751659,41.357183],[1.751757,41.357183],[1.751836,41.357143],[1.75184,41.357125],[1.751849,41.35711],[1.751874,41.357082],[1.751918,41.357045],[1.751959,41.357022],[1.751999,41.356999],[1.752066,41.356961],[1.752132,41.356923],[1.752202,41.356889],[1.75231,41.356841],[1.752418,41.356792],[1.752545,41.356732],[1.75267,41.356671],[1.752743,41.356637]]]]}},{"type":"Feature","id":"082068_082068 AP01 APE 3","properties":{"area_id":"082068_082068 AP01 APE 3","nom":"Sant Cugat Sesgarrigues","codi_icgc":"082068 AP01 APE 3","categoria":"Àrees de poblament","codi_municipi":"082068","municipi":"Sant Cugat Sesgarrigues","codi_comarca":"03","comarca":"Alt Penedès","provincia":"Barcelona","font":"ICGC Àrees de poblament v3r1 202602"},"geometry":{"type":"MultiPolygon","coordinates":[[[[1.756937,41.366916],[1.756911,41.366794],[1.756975,41.366772],[1.757238,41.366694],[1.757352,41.366656],[1.757356,41.366654],[1.757378,41.366642],[1.757399,41.366623],[1.757413,41.366601],[1.757421,41.366578],[1.757421,41.366553],[1.757413,41.366529],[1.757401,41.366511],[1.75734,41.366366],[1.757231,41.366392],[1.757213,41.366396],[1.757199,41.366361],[1.756828,41.366388],[1.756991,41.366267],[1.757069,41.366211],[1.757066,41.36621],[1.757096,41.366188],[1.756959,41.366085],[1.756836,41.365994],[1.756788,41.365959],[1.756689,41.365968],[1.756674,41.36595],[1.756648,41.365923],[1.756568,41.365928],[1.7564,41.365938],[1.75637,41.365939],[1.756185,41.36595],[1.756176,41.365898],[1.756174,41.365673],[1.75616,41.365647],[1.756139,41.365607],[1.756144,41.365605],[1.756068,41.365514],[1.756107,41.365413],[1.756119,41.365398],[1.756107,41.365391],[1.756092,41.365352],[1.755818,41.365387],[1.755759,41.365398],[1.755721,41.365387],[1.755733,41.365051],[1.755118,41.364837],[1.755223,41.364782],[1.755136,41.364781],[1.755252,41.364711],[1.755346,41.364629],[1.75537,41.364567],[1.755385,41.364532],[1.755408,41.364467],[1.755426,41.364402],[1.755441,41.364359],[1.755467,41.364295],[1.755478,41.364271],[1.755497,41.364273],[1.755554,41.364277],[1.755671,41.364283],[1.755803,41.364289],[1.755951,41.364296],[1.756289,41.364312],[1.756433,41.364317],[1.756523,41.364319],[1.7566,41.36432],[1.756657,41.364319],[1.756693,41.364317],[1.75673,41.364315],[1.756848,41.36431],[1.756879,41.364309],[1.757029,41.364304],[1.757161,41.3643],[1.757294,41.364295],[1.757382,41.364288],[1.757469,41.364278],[1.757641,41.364253],[1.757795,41.364232],[1.75795,41.36421],[1.758038,41.364198],[1.758126,41.364186],[1.758126,41.364149],[1.758126,41.364138],[1.758111,41.364094],[1.758094,41.364041],[1.758073,41.363986],[1.758049,41.363932],[1.758042,41.363919],[1.758016,41.363868],[1.757982,41.363805],[1.757907,41.36368],[1.757864,41.363614],[1.757817,41.36355],[1.757781,41.36351],[1.757724,41.36345],[1.757718,41.363444],[1.757668,41.363391],[1.75763,41.363346],[1.757593,41.3633],[1.757568,41.363264],[1.757548,41.363227],[1.757539,41.363202],[1.757519,41.363114],[1.757501,41.363025],[1.757477,41.362906],[1.757471,41.362876],[1.757145,41.36273],[1.756976,41.362648],[1.756381,41.362379],[1.756223,41.362299],[1.75621,41.362293],[1.756155,41.362265],[1.755605,41.362005],[1.755591,41.361998],[1.755151,41.361792],[1.754927,41.361687],[1.754183,41.361338],[1.754158,41.361326],[1.754157,41.361326],[1.753836,41.361181],[1.753577,41.361477],[1.75353,41.361455],[1.753296,41.361345],[1.753353,41.361269],[1.753317,41.36124],[1.753233,41.361172],[1.753136,41.36111],[1.753007,41.361047],[1.753028,41.361023],[1.753031,41.361019],[1.752948,41.360974],[1.752873,41.360934],[1.752854,41.360924],[1.752946,41.360822],[1.752442,41.360628],[1.75152,41.360282],[1.751452,41.36026],[1.751445,41.360268],[1.751444,41.360268],[1.751367,41.36036],[1.751363,41.360441],[1.751343,41.360434],[1.751329,41.360432],[1.751315,41.360432],[1.751287,41.360438],[1.751243,41.360446],[1.751199,41.360454],[1.751162,41.360463],[1.751126,41.360472],[1.751117,41.360474],[1.75111,41.360478],[1.751105,41.360483],[1.75073,41.360924],[1.750722,41.360932],[1.750712,41.360941],[1.750698,41.36095],[1.750679,41.360959],[1.750657,41.360967],[1.750637,41.360972],[1.750615,41.360977],[1.750613,41.360977],[1.750552,41.361044],[1.750412,41.36116],[1.750479,41.361244],[1.750556,41.361342],[1.750652,41.361471],[1.750747,41.361601],[1.75083,41.361705],[1.750912,41.361809],[1.750982,41.361902],[1.751043,41.361998],[1.751079,41.36206],[1.751114,41.362124],[1.751168,41.362223],[1.751218,41.362322],[1.751269,41.362431],[1.75132,41.36254],[1.751407,41.362725],[1.751455,41.362827],[1.751494,41.362911],[1.751574,41.363075],[1.751653,41.363238],[1.751758,41.363466],[1.751862,41.363695],[1.751994,41.363976],[1.752127,41.364256],[1.752136,41.364274],[1.752137,41.364279],[1.752137,41.364288],[1.752136,41.364293],[1.752132,41.364299],[1.752127,41.364306],[1.752121,41.364311],[1.752112,41.364316],[1.752106,41.364318],[1.752094,41.36432],[1.752033,41.364331],[1.751919,41.364347],[1.751755,41.364367],[1.751586,41.364383],[1.751424,41.364396],[1.751261,41.36441],[1.751147,41.364423],[1.751033,41.364437],[1.750843,41.364455],[1.750653,41.364471],[1.750348,41.364501],[1.750043,41.364533],[1.749889,41.364551],[1.749735,41.364569],[1.749617,41.364577],[1.749488,41.364585],[1.749359,41.364685],[1.749465,41.364856],[1.749465,41.364856],[1.749465,41.364856],[1.749526,41.364958],[1.749621,41.365126],[1.749743,41.365347],[1.749777,41.365408],[1.749865,41.365568],[1.749944,41.365709],[1.750022,41.36585],[1.750074,41.365943],[1.750152,41.366083],[1.750153,41.366116],[1.750155,41.366187],[1.750143,41.36618],[1.750137,41.366176],[1.74991,41.366109],[1.749678,41.36604],[1.749692,41.365994],[1.749545,41.365961],[1.749455,41.36594],[1.749284,41.365905],[1.749178,41.365891],[1.749159,41.365895],[1.748976,41.365931],[1.748916,41.365959],[1.748918,41.365962],[1.748995,41.366133],[1.749005,41.366155],[1.749024,41.366409],[1.749026,41.366585],[1.749126,41.366593],[1.749068,41.366822],[1.749091,41.366833],[1.749165,41.366868],[1.749261,41.36689],[1.749359,41.366905],[1.749573,41.366722],[1.75009,41.366335],[1.750165,41.366291],[1.750392,41.366647],[1.750402,41.366645],[1.750438,41.366638],[1.75055,41.366616],[1.750677,41.366591],[1.750675,41.366586],[1.750758,41.366556],[1.750953,41.366556],[1.750958,41.366556],[1.750972,41.366556],[1.751608,41.366556],[1.751591,41.366527],[1.751508,41.366418],[1.751519,41.366413],[1.751453,41.366335],[1.751409,41.366287],[1.751351,41.36621],[1.751351,41.366184],[1.751364,41.366171],[1.75139,41.366144],[1.75143,41.366129],[1.751475,41.366113],[1.751936,41.365944],[1.75184,41.36575],[1.751835,41.365744],[1.751687,41.365541],[1.751694,41.365539],[1.75164,41.365461],[1.751867,41.365345],[1.751958,41.365298],[1.752018,41.365272],[1.752083,41.365238],[1.752173,41.365196],[1.752351,41.365145],[1.752474,41.36511],[1.752567,41.365126],[1.752581,41.365198],[1.752627,41.365312],[1.752636,41.3654],[1.752649,41.365561],[1.752652,41.365589],[1.752968,41.365457],[1.753047,41.365424],[1.75312,41.365405],[1.753119,41.365403],[1.753388,41.365324],[1.753691,41.365193],[1.753933,41.365077],[1.753993,41.365045],[1.754048,41.365076],[1.754102,41.365108],[1.754223,41.365171],[1.754337,41.365234],[1.754417,41.365154],[1.754479,41.365082],[1.754509,41.3651],[1.754489,41.365122],[1.754548,41.365152],[1.754569,41.365129],[1.754688,41.365171],[1.754944,41.365262],[1.755176,41.365336],[1.755388,41.365408],[1.755438,41.365425],[1.755538,41.365464],[1.755543,41.365587],[1.755538,41.365786],[1.755538,41.365855],[1.755558,41.366089],[1.755231,41.36611],[1.755214,41.366111],[1.755193,41.366112],[1.754334,41.366179],[1.754397,41.366614],[1.754584,41.366601],[1.754622,41.366947],[1.755126,41.366908],[1.75505,41.366464],[1.755243,41.36645],[1.755285,41.366448],[1.755439,41.366441],[1.755638,41.366424],[1.755842,41.366406],[1.755957,41.366494],[1.756047,41.366563],[1.756243,41.366713],[1.756246,41.366715],[1.756258,41.366729],[1.756271,41.366743],[1.756405,41.366719],[1.75646,41.366863],[1.75655,41.366848],[1.756601,41.367004],[1.756726,41.366985],[1.75677,41.366979],[1.756836,41.366954],[1.756937,41.366916]]]]}},{"type":"Feature","id":"082068_082068 AP03 APE 2","properties":{"area_id":"082068_082068 AP03 APE 2","nom":"les Cases Roges","codi_icgc":"082068 AP03 APE 2","categoria":"Àrees de poblament","codi_municipi":"082068","municipi":"Sant Cugat Sesgarrigues","codi_comarca":"03","comarca":"Alt Penedès","provincia":"Barcelona","font":"ICGC Àrees de poblament v3r1 202602"},"geometry":{"type":"MultiPolygon","coordinates":[[[[1.746494,41.35674],[1.746508,41.35674],[1.746629,41.356775],[1.746807,41.356827],[1.747345,41.356998],[1.747383,41.357012],[1.74745,41.357034],[1.747571,41.357069],[1.747692,41.357105],[1.747781,41.357133],[1.747795,41.357139],[1.747816,41.357147],[1.747828,41.357153],[1.747846,41.357163],[1.747867,41.357174],[1.747905,41.357159],[1.747937,41.357136],[1.747968,41.357101],[1.747965,41.357093],[1.747964,41.357089],[1.747965,41.357083],[1.747977,41.357053],[1.747991,41.357018],[1.748005,41.356984],[1.748053,41.356875],[1.748102,41.356765],[1.748132,41.356693],[1.748141,41.356671],[1.748152,41.356644],[1.748162,41.35662],[1.748171,41.356592],[1.748173,41.356575],[1.74817,41.356557],[1.748152,41.356535],[1.748126,41.356522],[1.748083,41.356512],[1.747991,41.35649],[1.747858,41.356458],[1.747677,41.356416],[1.747481,41.35637],[1.747193,41.356304],[1.746952,41.356248],[1.746694,41.356185],[1.74662,41.356179],[1.746594,41.356221],[1.746581,41.356268],[1.746568,41.356314],[1.746547,41.356362],[1.746532,41.356397],[1.746523,41.356421],[1.74651,41.356453],[1.746483,41.356511],[1.74647,41.356557],[1.746414,41.356664],[1.746425,41.356702],[1.746494,41.35674]]]]}}]}