{"type":"FeatureCollection","name":"ICGC Àrees de poblament - Sant Climent de Llobregat","features":[{"type":"Feature","id":"082042_082042 SI03 BLL 2","properties":{"area_id":"082042_082042 SI03 BLL 2","nom":"Avinguda Victòria Circunvalació","codi_icgc":"082042 SI03 BLL 2","categoria":"Sector industrial","codi_municipi":"082042","municipi":"Sant Climent de Llobregat","codi_comarca":"11","comarca":"Baix Llobregat","provincia":"Barcelona","font":"ICGC Àrees de poblament v3r1 202602"},"geometry":{"type":"MultiPolygon","coordinates":[[[[2.001556,41.331726],[2.001564,41.331767],[2.001587,41.331873],[2.001579,41.331894],[2.001605,41.332014],[2.001611,41.332036],[2.0016,41.332039],[2.001604,41.332048],[2.001737,41.332395],[2.001833,41.332375],[2.001839,41.332374],[2.00188,41.332439],[2.001913,41.332493],[2.001982,41.332603],[2.001965,41.332618],[2.002189,41.332891],[2.002212,41.332919],[2.002187,41.332935],[2.002074,41.333011],[2.00203,41.333041],[2.002003,41.333059],[2.002203,41.333252],[2.002063,41.333426],[2.001987,41.333521],[2.002133,41.333627],[2.002229,41.333543],[2.002421,41.333381],[2.002717,41.333129],[2.002765,41.333097],[2.002793,41.333065],[2.002812,41.333027],[2.002823,41.332978],[2.002822,41.332968],[2.002699,41.332703],[2.003159,41.332511],[2.003067,41.332271],[2.003041,41.332279],[2.003014,41.332227],[2.003064,41.332218],[2.002988,41.332048],[2.002933,41.331766],[2.002921,41.33169],[2.0029,41.331572],[2.002886,41.331489],[2.002889,41.331407],[2.002908,41.331296],[2.002918,41.331241],[2.002903,41.33122],[2.002899,41.331218],[2.00288,41.33121],[2.002793,41.331175],[2.002655,41.331149],[2.002645,41.331149],[2.002645,41.331158],[2.002479,41.331307],[2.002271,41.331501],[2.002235,41.331543],[2.002221,41.331566],[2.002208,41.331591],[2.002198,41.331619],[2.002195,41.331638],[2.002194,41.331656],[2.001788,41.331706],[2.001556,41.331726]]]]}},{"type":"Feature","id":"082042_082042 SI01 BLL 2","properties":{"area_id":"082042_082042 SI01 BLL 2","nom":"Can Molins","codi_icgc":"082042 SI01 BLL 2","categoria":"Sector industrial","codi_municipi":"082042","municipi":"Sant Climent de Llobregat","codi_comarca":"11","comarca":"Baix Llobregat","provincia":"Barcelona","font":"ICGC Àrees de poblament v3r1 202602"},"geometry":{"type":"MultiPolygon","coordinates":[[[[1.999927,41.335456],[2.000371,41.335781],[2.000489,41.335851],[2.000552,41.335797],[2.000908,41.335486],[2.000989,41.335414],[2.001027,41.335381],[2.001062,41.335351],[2.001214,41.335219],[2.001289,41.33514],[2.001367,41.335059],[2.001362,41.335044],[2.001376,41.334942],[2.001394,41.334678],[2.001301,41.334635],[2.001281,41.334627],[2.00116,41.334582],[2.000926,41.334886],[2.000801,41.335058],[2.000691,41.335257],[2.000367,41.335062],[1.999927,41.335456]]]]}},{"type":"Feature","id":"082042_082042 SI02 BLL 2","properties":{"area_id":"082042_082042 SI02 BLL 2","nom":"Ctra. Sant Climent de Llobregat","codi_icgc":"082042 SI02 BLL 2","categoria":"Sector industrial","codi_municipi":"082042","municipi":"Sant Climent de Llobregat","codi_comarca":"11","comarca":"Baix Llobregat","provincia":"Barcelona","font":"ICGC Àrees de poblament v3r1 202602"},"geometry":{"type":"MultiPolygon","coordinates":[[[[2.0018,41.331697],[2.00182,41.331696],[2.002037,41.331669],[2.002067,41.331537],[2.002125,41.331424],[2.002456,41.331115],[2.00251,41.331087],[2.002464,41.33105],[2.00219,41.330849],[2.002087,41.330791],[2.001908,41.330772],[2.001687,41.33077],[2.001502,41.330763],[2.00133,41.33074],[2.001235,41.330719],[2.001147,41.330711],[2.001144,41.330711],[2.001165,41.33079],[2.001175,41.330801],[2.001213,41.330847],[2.001248,41.330894],[2.001285,41.330953],[2.001304,41.330983],[2.001328,41.331011],[2.00137,41.331052],[2.001412,41.331092],[2.001458,41.331137],[2.001504,41.331182],[2.001529,41.331202],[2.001558,41.331219],[2.001599,41.33124],[2.001617,41.33125],[2.001619,41.33125],[2.001649,41.331266],[2.001507,41.331314],[2.001409,41.3313],[2.001391,41.331331],[2.001445,41.331514],[2.001483,41.331664],[2.00151,41.331698],[2.001518,41.331714],[2.001536,41.331725],[2.0018,41.331697]]]]}},{"type":"Feature","id":"082042_082042 SI04 BLL 2","properties":{"area_id":"082042_082042 SI04 BLL 2","nom":"Polígon industrial El Salom","codi_icgc":"082042 SI04 BLL 2","categoria":"Sector industrial","codi_municipi":"082042","municipi":"Sant Climent de Llobregat","codi_comarca":"11","comarca":"Baix Llobregat","provincia":"Barcelona","font":"ICGC Àrees de poblament v3r1 202602"},"geometry":{"type":"MultiPolygon","coordinates":[[[[2.007394,41.329394],[2.007149,41.329459],[2.006904,41.329529],[2.006879,41.329542],[2.006859,41.329553],[2.006721,41.329625],[2.006491,41.329695],[2.006261,41.329761],[2.006224,41.329768],[2.005784,41.329849],[2.005711,41.329867],[2.005689,41.329951],[2.005399,41.330034],[2.005413,41.330061],[2.005215,41.330118],[2.005217,41.330134],[2.005077,41.330161],[2.005057,41.330138],[2.004493,41.330301],[2.004491,41.330348],[2.004509,41.330421],[2.004483,41.330633],[2.004477,41.330685],[2.004457,41.330783],[2.004493,41.330784],[2.005084,41.330757],[2.005137,41.330756],[2.005872,41.330724],[2.006049,41.330709],[2.00611,41.330702],[2.00617,41.330694],[2.006277,41.33068],[2.006383,41.330663],[2.006498,41.33064],[2.006576,41.330625],[2.007052,41.330528],[2.007075,41.330524],[2.007075,41.330522],[2.007103,41.330514],[2.007144,41.330488],[2.007148,41.330481],[2.007292,41.330401],[2.007474,41.330301],[2.007552,41.330254],[2.007883,41.330018],[2.007543,41.329435],[2.007411,41.329389],[2.007394,41.329394]]]]}},{"type":"Feature","id":"082042_082042 AP01 BLL 3","properties":{"area_id":"082042_082042 AP01 BLL 3","nom":"Sant Climent de Llobregat","codi_icgc":"082042 AP01 BLL 3","categoria":"Àrees de poblament","codi_municipi":"082042","municipi":"Sant Climent de Llobregat","codi_comarca":"11","comarca":"Baix Llobregat","provincia":"Barcelona","font":"ICGC Àrees de poblament v3r1 202602"},"geometry":{"type":"MultiPolygon","coordinates":[[[[2.001878,41.334084],[2.002435,41.333807],[2.003355,41.333332],[2.003372,41.333324],[2.003372,41.333324],[2.003371,41.333261],[2.00337,41.333206],[2.003303,41.332921],[2.003218,41.332677],[2.002925,41.332775],[2.002924,41.332776],[2.003008,41.332953],[2.002999,41.333029],[2.002994,41.333054],[2.002984,41.333107],[2.00288,41.333207],[2.00283,41.333255],[2.002711,41.333352],[2.002642,41.333409],[2.002237,41.333749],[2.001957,41.333983],[2.001842,41.334066],[2.001849,41.334071],[2.001853,41.334068],[2.001878,41.334084]]],[[[1.995053,41.34181],[1.995229,41.34161],[1.99524,41.341597],[1.995273,41.341563],[1.995313,41.341525],[1.995355,41.341488],[1.995402,41.341453],[1.995451,41.341419],[1.995497,41.341389],[1.995544,41.341362],[1.995582,41.341342],[1.995624,41.341325],[1.995659,41.341309],[1.995699,41.341291],[1.995731,41.341271],[1.995763,41.34125],[1.995789,41.341232],[1.995903,41.341092],[1.995919,41.341073],[1.995977,41.341086],[1.996118,41.341163],[1.996136,41.341176],[1.996181,41.341206],[1.996217,41.34124],[1.99623,41.34124],[1.996298,41.341286],[1.996426,41.341375],[1.996499,41.341364],[1.996511,41.34141],[1.996597,41.341397],[1.996593,41.341382],[1.996623,41.341377],[1.996626,41.341377],[1.996623,41.341364],[1.99681,41.341337],[1.996813,41.341348],[1.996841,41.341346],[1.996884,41.341343],[1.996883,41.341331],[1.996917,41.341332],[1.996948,41.34133],[1.996944,41.341282],[1.99693,41.341282],[1.996925,41.341224],[1.996935,41.341224],[1.99697,41.341219],[1.996971,41.341197],[1.996976,41.341131],[1.996967,41.34104],[1.996976,41.340997],[1.997005,41.340994],[1.997006,41.340845],[1.997052,41.340812],[1.997074,41.340794],[1.99709,41.340775],[1.997102,41.34075],[1.997127,41.34066],[1.997125,41.340562],[1.99706,41.340469],[1.99707,41.340465],[1.997047,41.340419],[1.997006,41.340374],[1.996987,41.340325],[1.996892,41.340256],[1.996742,41.340186],[1.996617,41.34012],[1.996603,41.340107],[1.996559,41.340064],[1.996628,41.340014],[1.996492,41.339934],[1.996464,41.339953],[1.996114,41.339785],[1.996096,41.339777],[1.996065,41.339762],[1.996036,41.339737],[1.996006,41.339711],[1.996006,41.339711],[1.996006,41.339711],[1.995975,41.339691],[1.995945,41.339669],[1.99594,41.339659],[1.995941,41.339649],[1.995957,41.339618],[1.995972,41.339586],[1.995984,41.339546],[1.995996,41.339506],[1.996277,41.339502],[1.996273,41.339463],[1.996276,41.339423],[1.996287,41.339385],[1.996305,41.339347],[1.99633,41.339313],[1.99636,41.339281],[1.996397,41.339253],[1.996397,41.339253],[1.996578,41.339181],[1.99656,41.33921],[1.996551,41.339228],[1.996535,41.339253],[1.996532,41.339261],[1.996521,41.339286],[1.996515,41.33932],[1.996516,41.339336],[1.996517,41.339345],[1.996532,41.339392],[1.996553,41.339437],[1.996574,41.33947],[1.996601,41.339504],[1.996641,41.339533],[1.996684,41.339554],[1.996705,41.339561],[1.996813,41.339622],[1.996841,41.339637],[1.996998,41.339702],[1.997164,41.33977],[1.99723,41.339779],[1.997256,41.339782],[1.997261,41.33978],[1.99745,41.339865],[1.997478,41.339875],[1.99752,41.339856],[1.997586,41.339825],[1.997649,41.339797],[1.997713,41.339774],[1.997686,41.339673],[1.997699,41.339618],[1.997744,41.339559],[1.997815,41.339519],[1.997875,41.339507],[1.998014,41.339499],[1.998141,41.339493],[1.998227,41.339463],[1.998265,41.339439],[1.998278,41.339406],[1.998272,41.33937],[1.99825,41.339349],[1.99821,41.339334],[1.997936,41.339224],[1.997807,41.339168],[1.997713,41.339163],[1.997614,41.339186],[1.997593,41.339091],[1.997642,41.339021],[1.997777,41.338825],[1.997836,41.338824],[1.997854,41.338797],[1.997878,41.338756],[1.997895,41.338718],[1.997906,41.338679],[1.997915,41.338637],[1.997924,41.338595],[1.997931,41.338548],[1.997937,41.338501],[1.997937,41.338463],[1.997934,41.338424],[1.997928,41.338388],[1.997919,41.338356],[1.997877,41.338297],[1.997919,41.337976],[1.997953,41.337838],[1.997989,41.337773],[1.998016,41.337767],[1.998064,41.337757],[1.998064,41.337751],[1.998073,41.33773],[1.998085,41.33771],[1.998109,41.337687],[1.998192,41.337729],[1.998212,41.337739],[1.998556,41.33779],[1.998711,41.337944],[1.998804,41.337931],[1.999004,41.337791],[1.999106,41.337752],[1.999367,41.337612],[1.999528,41.337623],[1.999532,41.33759],[1.999561,41.337567],[1.999755,41.337624],[1.999878,41.33766],[1.999862,41.33769],[1.999943,41.337714],[1.999947,41.337706],[2.000017,41.337727],[2.000013,41.337733],[2.00009,41.337756],[2.000131,41.337781],[2.000173,41.337591],[2.000175,41.33751],[2.000257,41.337371],[2.000218,41.337352],[2.000214,41.33735],[1.999645,41.337173],[1.999714,41.337026],[1.999718,41.337018],[1.999991,41.337115],[2.000049,41.337127],[2.000108,41.337135],[2.00016,41.337137],[2.000213,41.337134],[2.000269,41.337125],[2.000323,41.337112],[2.00033,41.337109],[2.000331,41.337109],[2.000332,41.337109],[2.000383,41.337092],[2.00044,41.337066],[2.000505,41.337027],[2.000535,41.337006],[2.000563,41.336983],[2.000637,41.336917],[2.000711,41.33685],[2.000786,41.336782],[2.00086,41.336713],[2.000903,41.33667],[2.00096,41.336601],[2.001014,41.336531],[2.001098,41.336425],[2.001182,41.33632],[2.001247,41.336234],[2.001276,41.33619],[2.001303,41.336145],[2.001351,41.336041],[2.001396,41.335936],[2.001427,41.335858],[2.001457,41.335778],[2.001473,41.335711],[2.001477,41.335677],[2.00154,41.335674],[2.001591,41.335643],[2.00161,41.335579],[2.001617,41.335481],[2.001595,41.335412],[2.001604,41.335364],[2.001605,41.335274],[2.001605,41.335253],[2.001707,41.335237],[2.002024,41.335362],[2.002033,41.335351],[2.002067,41.335311],[2.002104,41.335273],[2.002143,41.335237],[2.002186,41.335205],[2.002228,41.335175],[2.002271,41.335145],[2.002312,41.335116],[2.002354,41.335087],[2.00239,41.335061],[2.002425,41.335035],[2.002455,41.335012],[2.002442,41.335],[2.002289,41.334853],[2.002066,41.334919],[2.001933,41.334952],[2.001768,41.335037],[2.001681,41.335074],[2.001632,41.335127],[2.001545,41.335203],[2.001502,41.335216],[2.001408,41.335234],[2.001334,41.335254],[2.00127,41.335281],[2.000998,41.335503],[2.0007,41.33577],[2.000577,41.33588],[2.000575,41.335879],[2.000528,41.335922],[2.000391,41.33582],[2.000343,41.335806],[2.000255,41.335771],[2.000199,41.335865],[2.000316,41.335913],[2.000335,41.335974],[2.000241,41.33603],[2.000118,41.336096],[1.999958,41.336167],[1.999753,41.335994],[1.99954,41.335862],[1.99942,41.335764],[1.999199,41.335612],[1.999063,41.335483],[1.999109,41.335445],[1.999445,41.335189],[1.999613,41.335271],[1.99968,41.335284],[2.000001,41.334988],[1.999801,41.334888],[1.999914,41.334752],[2.000023,41.334613],[2.000191,41.334389],[2.000349,41.334191],[2.000259,41.334119],[2.000257,41.334118],[2.000149,41.334052],[2.000084,41.334006],[2.0,41.333947],[1.999905,41.333939],[1.999793,41.333886],[1.999739,41.333869],[1.999714,41.333861],[1.999672,41.333848],[1.999656,41.333843],[1.999448,41.333787],[1.999365,41.333765],[1.999361,41.333764],[1.999294,41.333746],[1.999235,41.333726],[1.999302,41.333663],[1.999371,41.333597],[1.999399,41.33357],[1.999507,41.333473],[1.999536,41.333448],[1.999553,41.333433],[1.999649,41.333352],[1.999731,41.333283],[1.999821,41.333168],[1.999828,41.333159],[1.999875,41.333077],[1.999789,41.333044],[1.999715,41.333021],[1.999429,41.332928],[1.999168,41.332938],[1.999129,41.332931],[1.998437,41.332819],[1.99838,41.33281],[1.99828,41.332799],[1.998246,41.332709],[1.998228,41.332708],[1.998135,41.332707],[1.998098,41.332706],[1.998071,41.332705],[1.997979,41.332863],[1.998093,41.332901],[1.998176,41.332928],[1.998011,41.333163],[1.997688,41.333515],[1.997735,41.333564],[1.99759,41.3337],[1.997536,41.333699],[1.997457,41.333699],[1.997391,41.333698],[1.997399,41.333793],[1.997404,41.33386],[1.997404,41.333861],[1.997404,41.333863],[1.997409,41.333926],[1.997411,41.333964],[1.997419,41.334076],[1.997423,41.334129],[1.997359,41.334134],[1.997306,41.334103],[1.997256,41.334096],[1.997195,41.334105],[1.997172,41.334132],[1.997162,41.334267],[1.997304,41.33428],[1.997297,41.334571],[1.997298,41.334572],[1.997332,41.334717],[1.997476,41.334715],[1.997478,41.334742],[1.997463,41.334985],[1.997455,41.335114],[1.997397,41.335115],[1.9973,41.335125],[1.997051,41.335168],[1.996787,41.335185],[1.996796,41.335288],[1.996952,41.33528],[1.996973,41.335393],[1.996855,41.33542],[1.9968,41.335402],[1.996757,41.335395],[1.996667,41.335397],[1.996611,41.335408],[1.996534,41.335424],[1.996444,41.335425],[1.9964,41.335426],[1.996339,41.335407],[1.996319,41.335444],[1.996314,41.335442],[1.99631,41.335448],[1.996286,41.335443],[1.99626,41.335443],[1.996214,41.335442],[1.996195,41.335435],[1.996062,41.335383],[1.995943,41.335331],[1.99594,41.335335],[1.995885,41.335313],[1.995903,41.335297],[1.995873,41.335286],[1.995802,41.33526],[1.995773,41.335248],[1.995757,41.335241],[1.995767,41.33523],[1.995711,41.335204],[1.995721,41.335193],[1.995504,41.335098],[1.995365,41.335013],[1.995317,41.335081],[1.995308,41.335076],[1.995274,41.335068],[1.995201,41.335048],[1.995082,41.335014],[1.99502,41.334996],[1.994976,41.334984],[1.994895,41.334874],[1.99487,41.334846],[1.994862,41.334847],[1.994844,41.334817],[1.99484,41.33481],[1.994778,41.334727],[1.994742,41.334688],[1.994427,41.334506],[1.994376,41.334481],[1.994315,41.334451],[1.994254,41.334421],[1.994196,41.334391],[1.994137,41.334359],[1.994076,41.334329],[1.993972,41.334291],[1.993915,41.33427],[1.993877,41.334313],[1.993468,41.334784],[1.993702,41.334883],[1.993802,41.334953],[1.993858,41.335006],[1.993885,41.335104],[1.993908,41.335216],[1.993919,41.335307],[1.993931,41.335437],[1.994069,41.335577],[1.994146,41.335656],[1.994211,41.335723],[1.994327,41.335844],[1.994352,41.33587],[1.99443,41.335956],[1.994505,41.336044],[1.994534,41.336081],[1.994572,41.336139],[1.99459,41.336172],[1.994605,41.336199],[1.994626,41.336249],[1.994653,41.336326],[1.994671,41.336391],[1.994674,41.336404],[1.994693,41.336495],[1.994705,41.336587],[1.994707,41.336667],[1.994702,41.336747],[1.994692,41.336815],[1.994673,41.336881],[1.994651,41.33693],[1.994624,41.336977],[1.994576,41.337052],[1.994535,41.337116],[1.994488,41.337196],[1.994458,41.337252],[1.994453,41.337283],[1.994457,41.337322],[1.994477,41.337365],[1.994518,41.33738],[1.99453,41.337384],[1.994547,41.337391],[1.994634,41.337419],[1.994723,41.337441],[1.994775,41.337452],[1.99529,41.33753],[1.995432,41.337561],[1.995399,41.337663],[1.995376,41.337668],[1.995316,41.337679],[1.995231,41.337691],[1.995145,41.337702],[1.995066,41.33771],[1.994987,41.337714],[1.994938,41.337712],[1.994889,41.337708],[1.994779,41.337697],[1.994669,41.337686],[1.994479,41.337664],[1.994289,41.337641],[1.994241,41.337636],[1.994192,41.337634],[1.994182,41.337637],[1.994174,41.337643],[1.994163,41.337654],[1.994155,41.337666],[1.994136,41.337696],[1.994117,41.337726],[1.994097,41.337755],[1.994075,41.337784],[1.994054,41.337805],[1.994029,41.337825],[1.993994,41.337851],[1.993957,41.337875],[1.993914,41.337896],[1.993871,41.337915],[1.993825,41.337935],[1.993779,41.337955],[1.993731,41.337971],[1.993668,41.337994],[1.993666,41.337955],[1.993665,41.337932],[1.993664,41.337916],[1.993397,41.337843],[1.993339,41.337827],[1.993193,41.337781],[1.993158,41.337777],[1.993086,41.337767],[1.992851,41.337683],[1.992823,41.337673],[1.992515,41.337562],[1.992572,41.337468],[1.992581,41.337453],[1.992601,41.337419],[1.992506,41.337413],[1.992335,41.3374],[1.992162,41.337388],[1.991989,41.337376],[1.99195,41.337376],[1.99189,41.337381],[1.991832,41.337392],[1.991804,41.3374],[1.9918,41.337402],[1.991724,41.33743],[1.991551,41.337549],[1.991451,41.337656],[1.991379,41.337761],[1.991334,41.337814],[1.991334,41.337814],[1.991334,41.337814],[1.991295,41.337853],[1.991181,41.338035],[1.991114,41.338137],[1.991212,41.338128],[1.991344,41.338115],[1.991418,41.338115],[1.991429,41.338128],[1.991556,41.338153],[1.991734,41.338215],[1.991982,41.338303],[1.992005,41.338316],[1.992013,41.33832],[1.992356,41.338263],[1.992358,41.338273],[1.992426,41.338249],[1.992633,41.338303],[1.992702,41.338399],[1.992392,41.338593],[1.992474,41.338651],[1.992521,41.338684],[1.992537,41.338723],[1.992543,41.338797],[1.992549,41.338867],[1.99267,41.338949],[1.992768,41.338966],[1.99296,41.338992],[1.993084,41.339018],[1.993076,41.339029],[1.993043,41.339071],[1.993035,41.339082],[1.992996,41.339131],[1.993251,41.33919],[1.993255,41.339192],[1.993355,41.339232],[1.993468,41.339277],[1.993509,41.339335],[1.993516,41.339345],[1.993559,41.339407],[1.993618,41.33949],[1.993675,41.339575],[1.993706,41.339621],[1.99373,41.339659],[1.99374,41.33967],[1.99375,41.339681],[1.993776,41.339706],[1.993801,41.339731],[1.993837,41.339756],[1.993874,41.339782],[1.993914,41.339806],[1.993961,41.339829],[1.994009,41.339849],[1.994071,41.339865],[1.994129,41.339877],[1.994199,41.33989],[1.994189,41.33993],[1.994161,41.340045],[1.994157,41.340064],[1.994148,41.3401],[1.993948,41.340065],[1.993925,41.340159],[1.993894,41.340283],[1.993974,41.340294],[1.994109,41.340312],[1.994372,41.340347],[1.99438,41.340383],[1.994439,41.340674],[1.994614,41.340732],[1.994701,41.340729],[1.994815,41.340719],[1.994884,41.340719],[1.994928,41.340737],[1.995015,41.340783],[1.995067,41.340757],[1.995197,41.340859],[1.994896,41.341002],[1.994904,41.341008],[1.994963,41.341065],[1.994996,41.341092],[1.994996,41.341125],[1.994953,41.341196],[1.994863,41.341313],[1.994691,41.341567],[1.994849,41.341662],[1.994854,41.341666],[1.994942,41.341737],[1.994979,41.34173],[1.994993,41.341763],[1.995001,41.34177],[1.995047,41.341811],[1.995048,41.341811],[1.995053,41.34181]]]]}}]}