{"type":"FeatureCollection","name":"ICGC Àrees de poblament - Sant Boi de Lluçanès","features":[{"type":"Feature","id":"082016_082016 AP02 OSO 3","properties":{"area_id":"082016_082016 AP02 OSO 3","nom":"Gallifa","codi_icgc":"082016 AP02 OSO 3","categoria":"Àrees de poblament","codi_municipi":"082016","municipi":"Sant Boi de Lluçanès","codi_comarca":"24","comarca":"Osona","provincia":"Barcelona","font":"ICGC Àrees de poblament v3r1 202602"},"geometry":{"type":"MultiPolygon","coordinates":[[[[2.182249,42.075524],[2.182236,42.07556],[2.182232,42.075617],[2.182243,42.075644],[2.182311,42.075653],[2.182363,42.075662],[2.182356,42.075725],[2.182586,42.075727],[2.182655,42.07546],[2.182667,42.075414],[2.182617,42.075205],[2.182723,42.075063],[2.182775,42.074909],[2.182721,42.074884],[2.182731,42.074756],[2.182735,42.07465],[2.182736,42.074616],[2.18267,42.074521],[2.182582,42.074463],[2.182632,42.07443],[2.182508,42.074313],[2.182418,42.074355],[2.182386,42.07437],[2.182346,42.074372],[2.182314,42.074357],[2.182255,42.074285],[2.182224,42.074235],[2.182208,42.074184],[2.182221,42.073993],[2.182221,42.07396],[2.182123,42.073965],[2.182119,42.073983],[2.182106,42.074049],[2.182089,42.074048],[2.18197,42.074045],[2.181968,42.074045],[2.181955,42.074295],[2.181976,42.074331],[2.182008,42.074364],[2.182004,42.074382],[2.181953,42.0744],[2.181913,42.074414],[2.181895,42.07442],[2.181645,42.074449],[2.181735,42.074776],[2.181387,42.074768],[2.18112,42.074726],[2.181094,42.074722],[2.181016,42.074711],[2.180876,42.074684],[2.180757,42.074662],[2.180656,42.074685],[2.180468,42.074764],[2.180029,42.074943],[2.179894,42.074909],[2.179766,42.074881],[2.179627,42.074871],[2.17947,42.074891],[2.179277,42.074906],[2.179272,42.074884],[2.179259,42.074851],[2.17924,42.074821],[2.179222,42.074801],[2.179175,42.074766],[2.179151,42.074751],[2.179086,42.074738],[2.179042,42.074729],[2.178834,42.074728],[2.178794,42.074767],[2.178786,42.074803],[2.178773,42.07485],[2.178777,42.074874],[2.1788,42.074928],[2.178824,42.074958],[2.178883,42.074994],[2.17889,42.075003],[2.178931,42.075018],[2.178999,42.075025],[2.179035,42.075046],[2.179066,42.075079],[2.179094,42.075101],[2.179087,42.075105],[2.179033,42.075139],[2.179006,42.075155],[2.178976,42.075167],[2.178927,42.075183],[2.178913,42.075187],[2.178875,42.0752],[2.178765,42.075211],[2.178603,42.075229],[2.178608,42.075245],[2.178616,42.075591],[2.178698,42.075776],[2.178841,42.075901],[2.179186,42.075752],[2.179194,42.075741],[2.179223,42.075681],[2.17907,42.075519],[2.179243,42.075445],[2.179259,42.075438],[2.179309,42.075416],[2.179503,42.075333],[2.179497,42.075326],[2.179522,42.075318],[2.179585,42.0753],[2.179808,42.075236],[2.179907,42.075222],[2.179937,42.075219],[2.179989,42.075214],[2.180043,42.075208],[2.180168,42.075191],[2.180294,42.075175],[2.180352,42.075171],[2.180407,42.075166],[2.180428,42.075161],[2.180447,42.075153],[2.180484,42.075129],[2.180508,42.075107],[2.180526,42.075082],[2.180553,42.075036],[2.180582,42.074988],[2.180601,42.074967],[2.18059,42.074958],[2.180621,42.074948],[2.180634,42.074936],[2.180657,42.074922],[2.180716,42.074894],[2.180776,42.074867],[2.180849,42.074834],[2.180925,42.074802],[2.180953,42.074794],[2.180981,42.07479],[2.181034,42.074789],[2.181076,42.074792],[2.181117,42.074798],[2.181145,42.074804],[2.181218,42.074827],[2.181287,42.074849],[2.181386,42.074872],[2.181486,42.074894],[2.181608,42.074919],[2.18173,42.074942],[2.181787,42.074949],[2.181844,42.07495],[2.181877,42.074948],[2.18191,42.074943],[2.181962,42.074932],[2.181973,42.074963],[2.182006,42.075056],[2.182012,42.075097],[2.182239,42.075209],[2.182426,42.075287],[2.182364,42.075403],[2.182308,42.075388],[2.182276,42.075449],[2.182249,42.075524]]]]}},{"type":"Feature","id":"082016_082016 AP01 OSO 3","properties":{"area_id":"082016_082016 AP01 OSO 3","nom":"Sant Boi de Lluçanès","codi_icgc":"082016 AP01 OSO 3","categoria":"Àrees de poblament","codi_municipi":"082016","municipi":"Sant Boi de Lluçanès","codi_comarca":"24","comarca":"Osona","provincia":"Barcelona","font":"ICGC Àrees de poblament v3r1 202602"},"geometry":{"type":"MultiPolygon","coordinates":[[[[2.14705,42.059751],[2.14709,42.059816],[2.147072,42.059972],[2.147115,42.060125],[2.147183,42.060273],[2.147232,42.060421],[2.147281,42.060608],[2.147329,42.060827],[2.147454,42.061062],[2.147557,42.061205],[2.147529,42.061218],[2.147474,42.061242],[2.147723,42.061635],[2.147318,42.061587],[2.147277,42.062101],[2.147214,42.062178],[2.147122,42.062317],[2.147039,42.062403],[2.146971,42.062481],[2.146946,42.062541],[2.146931,42.062616],[2.147211,42.062836],[2.147588,42.062593],[2.147646,42.062625],[2.147693,42.062668],[2.147716,42.062729],[2.147691,42.062829],[2.147651,42.062961],[2.14761,42.063136],[2.147619,42.063204],[2.14766,42.063372],[2.147706,42.063512],[2.147766,42.063677],[2.147813,42.063763],[2.147888,42.063842],[2.147969,42.063886],[2.148146,42.063955],[2.148356,42.064007],[2.148638,42.064102],[2.14881,42.064128],[2.148959,42.064118],[2.149084,42.064083],[2.149379,42.063939],[2.14949,42.063861],[2.149598,42.063719],[2.149672,42.063559],[2.149685,42.063319],[2.149706,42.06318],[2.149775,42.062995],[2.149868,42.062845],[2.149981,42.062703],[2.150064,42.062557],[2.15013,42.062427],[2.15018,42.06243],[2.150272,42.062434],[2.150449,42.062427],[2.150624,42.062424],[2.151119,42.06238],[2.151456,42.062259],[2.151642,42.062177],[2.15142,42.0619],[2.151156,42.062004],[2.151005,42.062063],[2.15082,42.062078],[2.150723,42.062088],[2.150702,42.062089],[2.150721,42.061998],[2.15071,42.061999],[2.150625,42.061798],[2.150294,42.061885],[2.15029,42.061838],[2.150279,42.061788],[2.150262,42.061739],[2.15024,42.061691],[2.150211,42.061644],[2.1502,42.061625],[2.150192,42.061604],[2.150189,42.061589],[2.150189,42.061574],[2.15019,42.06156],[2.150194,42.061545],[2.150201,42.061535],[2.150214,42.061523],[2.150231,42.061514],[2.150538,42.061394],[2.15095,42.061227],[2.15113,42.061154],[2.151151,42.061149],[2.151172,42.06115],[2.151185,42.061152],[2.151197,42.061157],[2.151208,42.061163],[2.151216,42.061171],[2.151229,42.061189],[2.151355,42.061079],[2.151386,42.061053],[2.151401,42.061048],[2.151577,42.060978],[2.151735,42.060909],[2.151813,42.060869],[2.151889,42.060826],[2.151905,42.060816],[2.152136,42.061203],[2.152333,42.061536],[2.152461,42.061499],[2.152681,42.061815],[2.152777,42.061797],[2.152982,42.06176],[2.153097,42.061742],[2.152834,42.061325],[2.152668,42.061068],[2.153147,42.060894],[2.153372,42.060817],[2.153539,42.060744],[2.15381,42.060565],[2.154088,42.060362],[2.154417,42.060093],[2.154632,42.059923],[2.154631,42.05991],[2.154622,42.059876],[2.154605,42.059843],[2.154583,42.059814],[2.154391,42.059673],[2.154195,42.059536],[2.154174,42.059519],[2.153957,42.059331],[2.15388,42.059381],[2.153783,42.059448],[2.153692,42.059519],[2.15362,42.059581],[2.153605,42.059594],[2.153568,42.059629],[2.153529,42.059599],[2.153526,42.059597],[2.153396,42.059511],[2.15333,42.059468],[2.153265,42.059425],[2.15325,42.059414],[2.153234,42.059404],[2.153226,42.059402],[2.153217,42.059404],[2.153203,42.059417],[2.153188,42.05943],[2.153069,42.059528],[2.15295,42.059626],[2.152937,42.059636],[2.152931,42.059641],[2.152924,42.059646],[2.152918,42.059649],[2.152909,42.059649],[2.1529,42.059646],[2.152878,42.059627],[2.152868,42.059616],[2.152859,42.059604],[2.152825,42.059556],[2.152791,42.059509],[2.152754,42.059467],[2.152733,42.059428],[2.152567,42.059449],[2.152453,42.059465],[2.152393,42.059479],[2.152389,42.059473],[2.152381,42.05945],[2.152382,42.059426],[2.152389,42.059403],[2.152395,42.059402],[2.152405,42.059397],[2.152411,42.05939],[2.152412,42.059383],[2.152407,42.059379],[2.152349,42.059322],[2.152328,42.059305],[2.152265,42.059249],[2.152208,42.05919],[2.152077,42.059036],[2.152049,42.05892],[2.152024,42.058893],[2.152009,42.058878],[2.152083,42.058677],[2.15211,42.058701],[2.152111,42.058699],[2.152246,42.058354],[2.152248,42.058351],[2.152312,42.058182],[2.152384,42.058174],[2.152468,42.057913],[2.152426,42.057866],[2.152635,42.057825],[2.152666,42.057822],[2.152702,42.057817],[2.152827,42.057818],[2.152954,42.057819],[2.153062,42.057816],[2.153169,42.057808],[2.153282,42.057793],[2.153337,42.057781],[2.153391,42.057766],[2.153487,42.05773],[2.153566,42.057695],[2.153592,42.057684],[2.153654,42.057792],[2.153685,42.057905],[2.153753,42.05791],[2.153888,42.057878],[2.154157,42.057763],[2.154356,42.057698],[2.154543,42.057687],[2.154584,42.057639],[2.154588,42.057643],[2.154588,42.057637],[2.15459,42.057619],[2.154695,42.057562],[2.154741,42.057537],[2.154721,42.057516],[2.154643,42.057436],[2.154617,42.057414],[2.154586,42.057394],[2.154523,42.057365],[2.154505,42.057359],[2.154476,42.057348],[2.154428,42.057336],[2.154415,42.057333],[2.154404,42.057329],[2.154388,42.057323],[2.154382,42.057319],[2.154368,42.05731],[2.154352,42.057295],[2.154335,42.057272],[2.154295,42.057215],[2.154275,42.057189],[2.154263,42.057176],[2.154252,42.057164],[2.15424,42.05715],[2.154231,42.057138],[2.154229,42.057133],[2.154276,42.057045],[2.154378,42.056936],[2.154282,42.056899],[2.154207,42.05686],[2.15412,42.056812],[2.154111,42.056807],[2.154071,42.056769],[2.153905,42.056725],[2.153839,42.05666],[2.153834,42.056388],[2.153944,42.056346],[2.154049,42.056194],[2.154005,42.056145],[2.154146,42.056091],[2.154239,42.056032],[2.154187,42.055986],[2.15433,42.05588],[2.154363,42.055783],[2.154359,42.055772],[2.154324,42.055693],[2.154264,42.055555],[2.154249,42.055472],[2.15423,42.05543],[2.15419,42.055457],[2.15415,42.055484],[2.154135,42.055497],[2.154113,42.055522],[2.154088,42.055564],[2.154061,42.055605],[2.154016,42.055657],[2.153968,42.055709],[2.153916,42.055759],[2.15386,42.055807],[2.153794,42.055855],[2.153777,42.055867],[2.153761,42.055879],[2.153731,42.055905],[2.153682,42.055953],[2.153637,42.055998],[2.153604,42.055967],[2.153634,42.055941],[2.153517,42.055842],[2.153319,42.055654],[2.153272,42.055682],[2.153253,42.055694],[2.153126,42.055608],[2.152819,42.055345],[2.15273,42.055268],[2.152219,42.054744],[2.15198,42.054845],[2.151901,42.054878],[2.151892,42.054954],[2.151888,42.05497],[2.151886,42.054975],[2.151883,42.054979],[2.151869,42.055022],[2.151843,42.055096],[2.15189,42.055128],[2.152269,42.055459],[2.152501,42.055684],[2.152521,42.055726],[2.152521,42.055744],[2.152499,42.055774],[2.152504,42.055778],[2.152482,42.055797],[2.152469,42.055816],[2.152338,42.055968],[2.152179,42.056064],[2.151952,42.056147],[2.151858,42.056162],[2.151788,42.056158],[2.151611,42.056085],[2.151409,42.05601],[2.151184,42.055989],[2.150793,42.055994],[2.150782,42.055994],[2.150743,42.055937],[2.150713,42.055806],[2.15073,42.055735],[2.150635,42.055656],[2.150376,42.055794],[2.15035,42.05582],[2.150307,42.05586],[2.150262,42.055829],[2.150245,42.055817],[2.150174,42.055767],[2.150118,42.055727],[2.150096,42.055712],[2.149993,42.055612],[2.149913,42.055534],[2.149782,42.055407],[2.149775,42.055394],[2.149735,42.055327],[2.149732,42.055323],[2.149476,42.054918],[2.149367,42.054633],[2.149358,42.054609],[2.14935,42.054589],[2.149299,42.054405],[2.149184,42.054391],[2.148823,42.05441],[2.148677,42.054433],[2.148238,42.054572],[2.148098,42.0546],[2.147885,42.05464],[2.14815,42.054856],[2.148165,42.054868],[2.148404,42.055052],[2.148433,42.055078],[2.149145,42.055636],[2.149148,42.05566],[2.149492,42.055933],[2.149562,42.055988],[2.14961,42.05603],[2.149623,42.056041],[2.149684,42.056094],[2.149706,42.056115],[2.149727,42.056135],[2.149766,42.056178],[2.149798,42.056214],[2.149831,42.056251],[2.149865,42.056284],[2.149901,42.056316],[2.149974,42.05638],[2.149997,42.056403],[2.150016,42.056426],[2.150024,42.056444],[2.150029,42.056464],[2.150024,42.056507],[2.150021,42.056528],[2.14999,42.056533],[2.149991,42.05654],[2.149987,42.056563],[2.14998,42.056587],[2.14994,42.056612],[2.149834,42.056666],[2.149727,42.056721],[2.149612,42.056779],[2.149497,42.056838],[2.149354,42.05691],[2.149166,42.057006],[2.149057,42.057061],[2.148952,42.057114],[2.148793,42.057194],[2.14876,42.05721],[2.148634,42.057273],[2.148598,42.05729],[2.148614,42.057314],[2.148655,42.057375],[2.148658,42.057378],[2.148902,42.057554],[2.148922,42.05757],[2.149027,42.05752],[2.14906,42.057504],[2.150207,42.056902],[2.150218,42.056912],[2.150266,42.056874],[2.15042,42.057019],[2.150431,42.057033],[2.150445,42.05706],[2.15045,42.057088],[2.150448,42.057116],[2.150438,42.057144],[2.150106,42.05749],[2.149984,42.057617],[2.149916,42.057688],[2.149828,42.05778],[2.149902,42.057844],[2.149901,42.057901],[2.149891,42.057944],[2.149808,42.058026],[2.149711,42.058097],[2.149782,42.058194],[2.149704,42.058261],[2.149719,42.058272],[2.149757,42.058315],[2.149774,42.058345],[2.149889,42.058441],[2.149884,42.058462],[2.149864,42.058505],[2.14995,42.058563],[2.150055,42.058617],[2.150136,42.058647],[2.150296,42.058653],[2.150099,42.058777],[2.150049,42.058809],[2.149713,42.059006],[2.14967,42.059031],[2.149418,42.059175],[2.148971,42.059447],[2.148916,42.05947],[2.148469,42.059664],[2.148394,42.059577],[2.148246,42.059406],[2.148099,42.059234],[2.148003,42.059122],[2.147998,42.059128],[2.147975,42.059136],[2.147042,42.059475],[2.147009,42.059533],[2.146965,42.059617],[2.14705,42.059751]]]]}},{"type":"Feature","id":"082016_082016 AP04 OSO 3","properties":{"area_id":"082016_082016 AP04 OSO 3","nom":"Vila-rasa","codi_icgc":"082016 AP04 OSO 3","categoria":"Àrees de poblament","codi_municipi":"082016","municipi":"Sant Boi de Lluçanès","codi_comarca":"24","comarca":"Osona","provincia":"Barcelona","font":"ICGC Àrees de poblament v3r1 202602"},"geometry":{"type":"MultiPolygon","coordinates":[[[[2.131236,42.047433],[2.13089,42.047241],[2.130841,42.047253],[2.130795,42.047261],[2.130783,42.047264],[2.130726,42.047272],[2.130693,42.04728],[2.130668,42.047294],[2.130649,42.047313],[2.13064,42.047327],[2.13063,42.04736],[2.130629,42.047369],[2.130626,42.047394],[2.130626,42.047452],[2.130624,42.047511],[2.130621,42.047559],[2.130614,42.047607],[2.130605,42.047639],[2.13058,42.047702],[2.130555,42.047764],[2.130552,42.047774],[2.130527,42.047957],[2.130526,42.047964],[2.130562,42.048],[2.130567,42.048006],[2.130691,42.048132],[2.13026,42.048671],[2.130271,42.048677],[2.130641,42.048882],[2.13107,42.048504],[2.130984,42.048397],[2.131108,42.0481],[2.13132,42.047762],[2.131236,42.047433]]]]}},{"type":"Feature","id":"082016_082016 AP03 OSO 3","properties":{"area_id":"082016_082016 AP03 OSO 3","nom":"Viladecans","codi_icgc":"082016 AP03 OSO 3","categoria":"Àrees de poblament","codi_municipi":"082016","municipi":"Sant Boi de Lluçanès","codi_comarca":"24","comarca":"Osona","provincia":"Barcelona","font":"ICGC Àrees de poblament v3r1 202602"},"geometry":{"type":"MultiPolygon","coordinates":[[[[2.165833,42.047106],[2.165848,42.047077],[2.16592,42.046993],[2.165989,42.046903],[2.165999,42.046889],[2.166273,42.046867],[2.166558,42.046736],[2.166586,42.046739],[2.166602,42.046745],[2.166622,42.046761],[2.166632,42.046768],[2.166643,42.046773],[2.166655,42.046774],[2.166675,42.046772],[2.166694,42.046765],[2.166711,42.046754],[2.166724,42.046741],[2.166724,42.046729],[2.166723,42.046723],[2.166726,42.046719],[2.166739,42.046712],[2.16675,42.04671],[2.166757,42.046709],[2.166775,42.046713],[2.166834,42.046734],[2.166879,42.046751],[2.166922,42.046743],[2.166975,42.046734],[2.16699,42.04671],[2.167029,42.046649],[2.166888,42.046612],[2.166779,42.046637],[2.166763,42.046617],[2.166745,42.046597],[2.166737,42.04659],[2.166727,42.046584],[2.166701,42.046578],[2.166683,42.046577],[2.166661,42.04658],[2.166626,42.046594],[2.166615,42.046598],[2.166555,42.046618],[2.16655,42.046619],[2.166497,42.046507],[2.166423,42.046522],[2.166189,42.046569],[2.166187,42.046648],[2.166088,42.0467],[2.166061,42.046715],[2.166053,42.046738],[2.166025,42.046746],[2.165975,42.046766],[2.165883,42.04682],[2.165793,42.046873],[2.165703,42.046923],[2.165612,42.046971],[2.165579,42.046984],[2.165525,42.047],[2.165499,42.047012],[2.165477,42.047031],[2.165466,42.047064],[2.165462,42.047089],[2.1654,42.047081],[2.165326,42.047071],[2.165305,42.047071],[2.165283,42.047075],[2.165244,42.047088],[2.165212,42.047103],[2.165186,42.047122],[2.165143,42.047161],[2.165101,42.047201],[2.165024,42.04727],[2.165012,42.047281],[2.164946,42.047341],[2.164938,42.047353],[2.164935,42.047367],[2.164934,42.047375],[2.164933,42.047391],[2.164932,42.04741],[2.164934,42.04743],[2.164949,42.047457],[2.164967,42.047481],[2.165009,42.047527],[2.16504,42.047555],[2.165069,42.04758],[2.165096,42.047603],[2.165122,42.047621],[2.165145,42.047633],[2.165182,42.047646],[2.165221,42.047653],[2.165297,42.047659],[2.165324,42.047661],[2.165532,42.047632],[2.165659,42.047613],[2.165668,42.047603],[2.165801,42.047451],[2.165798,42.047387],[2.165798,42.047367],[2.165795,42.047305],[2.165804,42.047299],[2.165814,42.047249],[2.165828,42.047203],[2.165831,42.04719],[2.165834,42.047177],[2.165832,42.047163],[2.16583,42.04715],[2.165829,42.047122],[2.165833,42.047106]]]]}}]}