{"type":"FeatureCollection","name":"ICGC Àrees de poblament - Sant Feliu Sasserra","features":[{"type":"Feature","id":"082129_082129 SI04 BAG 2","properties":{"area_id":"082129_082129 SI04 BAG 2","nom":"Fàbrica Riera Ordeix","codi_icgc":"082129 SI04 BAG 2","categoria":"Sector industrial","codi_municipi":"082129","municipi":"Sant Feliu Sasserra","codi_comarca":"07","comarca":"Bages","provincia":"Barcelona","font":"ICGC Àrees de poblament v3r1 202602"},"geometry":{"type":"MultiPolygon","coordinates":[[[[2.015722,41.958858],[2.015722,41.9588],[2.015714,41.9588],[2.015717,41.958777],[2.015722,41.958719],[2.015722,41.958682],[2.015609,41.958407],[2.01555,41.958285],[2.01547,41.958162],[2.015258,41.957869],[2.015195,41.957883],[2.015087,41.957907],[2.015049,41.957916],[2.014975,41.957932],[2.014739,41.957987],[2.014578,41.95802],[2.014433,41.958055],[2.014317,41.958076],[2.014295,41.958079],[2.01428,41.958334],[2.014294,41.958401],[2.014314,41.958437],[2.014331,41.958464],[2.014372,41.958481],[2.014541,41.958533],[2.014584,41.958563],[2.014701,41.958664],[2.014809,41.958789],[2.01519,41.95882],[2.015485,41.958862],[2.015576,41.958882],[2.015722,41.958858]]]]}},{"type":"Feature","id":"082129_082129 SI02 BAG 2","properties":{"area_id":"082129_082129 SI02 BAG 2","nom":"Intercot, SA","codi_icgc":"082129 SI02 BAG 2","categoria":"Sector industrial","codi_municipi":"082129","municipi":"Sant Feliu Sasserra","codi_comarca":"07","comarca":"Bages","provincia":"Barcelona","font":"ICGC Àrees de poblament v3r1 202602"},"geometry":{"type":"MultiPolygon","coordinates":[[[[2.021203,41.942722],[2.02121,41.942712],[2.021244,41.942721],[2.021267,41.9427],[2.021511,41.942359],[2.021606,41.942261],[2.021535,41.94225],[2.021467,41.942219],[2.021429,41.942202],[2.021411,41.942223],[2.021289,41.942209],[2.021233,41.942208],[2.021159,41.942187],[2.021038,41.942157],[2.020942,41.942115],[2.020764,41.942036],[2.020647,41.941996],[2.020639,41.941993],[2.020475,41.941926],[2.020473,41.941925],[2.020412,41.941901],[2.020356,41.941888],[2.020257,41.941997],[2.020138,41.942076],[2.020048,41.942139],[2.020014,41.942184],[2.019998,41.942218],[2.019997,41.942274],[2.020047,41.942396],[2.02008,41.94252],[2.020079,41.942613],[2.02,41.942845],[2.019995,41.94292],[2.02002,41.942981],[2.020047,41.943015],[2.020084,41.943094],[2.020073,41.943143],[2.020049,41.943221],[2.020631,41.9434],[2.020987,41.943007],[2.021203,41.942722]]]]}},{"type":"Feature","id":"082129_082129 SI03 BAG 2","properties":{"area_id":"082129_082129 SI03 BAG 2","nom":"Polígon industrial Camí Comes","codi_icgc":"082129 SI03 BAG 2","categoria":"Sector industrial","codi_municipi":"082129","municipi":"Sant Feliu Sasserra","codi_comarca":"07","comarca":"Bages","provincia":"Barcelona","font":"ICGC Àrees de poblament v3r1 202602"},"geometry":{"type":"MultiPolygon","coordinates":[[[[2.018692,41.945104],[2.018806,41.945119],[2.018928,41.945169],[2.018967,41.945193],[2.019077,41.945139],[2.019155,41.945101],[2.019295,41.945014],[2.019438,41.944926],[2.019407,41.944901],[2.019411,41.944896],[2.019391,41.944878],[2.019404,41.944792],[2.019409,41.944765],[2.019409,41.944741],[2.019131,41.944729],[2.01882,41.944644],[2.01837,41.944363],[2.018335,41.944383],[2.018299,41.944404],[2.017984,41.944682],[2.018272,41.94493],[2.018504,41.945025],[2.018692,41.945104]]]]}},{"type":"Feature","id":"082129_082129 SI01 BAG 2","properties":{"area_id":"082129_082129 SI01 BAG 2","nom":"Polígon industrial de Sant Feliu Sasserra","codi_icgc":"082129 SI01 BAG 2","categoria":"Sector industrial","codi_municipi":"082129","municipi":"Sant Feliu Sasserra","codi_comarca":"07","comarca":"Bages","provincia":"Barcelona","font":"ICGC Àrees de poblament v3r1 202602"},"geometry":{"type":"MultiPolygon","coordinates":[[[[2.025257,41.942703],[2.025293,41.942605],[2.02529,41.942606],[2.025294,41.94259],[2.0253,41.942565],[2.025282,41.942547],[2.025261,41.942532],[2.025065,41.942419],[2.025021,41.942393],[2.02487,41.942305],[2.024712,41.942209],[2.024555,41.942112],[2.024513,41.942083],[2.024445,41.942031],[2.024347,41.941948],[2.024293,41.941906],[2.024233,41.941867],[2.024195,41.941847],[2.024176,41.941841],[2.024157,41.941839],[2.024139,41.941842],[2.024114,41.941848],[2.024088,41.941858],[2.024003,41.941892],[2.023937,41.94192],[2.023902,41.94193],[2.023858,41.941954],[2.023759,41.941999],[2.02369,41.942033],[2.023624,41.942071],[2.023615,41.942077],[2.02361,41.942084],[2.023613,41.942128],[2.023615,41.942147],[2.02361,41.942164],[2.023619,41.942287],[2.023614,41.942338],[2.023597,41.942411],[2.023574,41.942501],[2.023548,41.942591],[2.023532,41.942641],[2.023516,41.942691],[2.023515,41.942704],[2.023516,41.942717],[2.023524,41.942728],[2.023525,41.942729],[2.023536,41.942741],[2.023676,41.942763],[2.023815,41.942786],[2.023938,41.942808],[2.024123,41.942846],[2.024307,41.942883],[2.024324,41.942886],[2.02433,41.942893],[2.024441,41.942914],[2.024475,41.942898],[2.024529,41.942872],[2.024603,41.942843],[2.024627,41.942835],[2.024641,41.94283],[2.024648,41.942829],[2.024672,41.942823],[2.024699,41.942818],[2.024816,41.942798],[2.025249,41.942705],[2.025256,41.942704],[2.025257,41.942703]]],[[[2.027475,41.942476],[2.027378,41.942423],[2.0273,41.942381],[2.0272,41.942368],[2.026994,41.942432],[2.026926,41.942378],[2.026853,41.942318],[2.026617,41.942151],[2.02669,41.942069],[2.026471,41.941946],[2.026317,41.941848],[2.026193,41.941768],[2.026119,41.941795],[2.026102,41.941847],[2.026145,41.941966],[2.026433,41.942143],[2.026433,41.942143],[2.026492,41.94218],[2.026495,41.942181],[2.026529,41.942198],[2.026702,41.94228],[2.026806,41.942378],[2.026819,41.94239],[2.026969,41.942569],[2.026858,41.942608],[2.026821,41.942634],[2.026655,41.942765],[2.026636,41.942781],[2.026563,41.942841],[2.026532,41.942866],[2.027105,41.943675],[2.027109,41.943681],[2.02759,41.943631],[2.027666,41.943603],[2.027721,41.943588],[2.027895,41.943541],[2.028104,41.943472],[2.028135,41.943462],[2.028188,41.943387],[2.028081,41.943141],[2.028072,41.943123],[2.027993,41.942891],[2.027951,41.942833],[2.027902,41.942777],[2.027848,41.942724],[2.027785,41.94267],[2.027715,41.94262],[2.027641,41.942575],[2.027562,41.942534],[2.027475,41.942476]]]]}},{"type":"Feature","id":"082129_082129 AP01 BAG 3","properties":{"area_id":"082129_082129 AP01 BAG 3","nom":"Sant Feliu Sasserra","codi_icgc":"082129 AP01 BAG 3","categoria":"Àrees de poblament","codi_municipi":"082129","municipi":"Sant Feliu Sasserra","codi_comarca":"07","comarca":"Bages","provincia":"Barcelona","font":"ICGC Àrees de poblament v3r1 202602"},"geometry":{"type":"MultiPolygon","coordinates":[[[[2.016942,41.948044],[2.016975,41.948057],[2.017431,41.948121],[2.017445,41.948068],[2.017492,41.948071],[2.017738,41.948087],[2.017738,41.94808],[2.017747,41.948011],[2.017785,41.947843],[2.017827,41.947675],[2.017849,41.947611],[2.017878,41.947548],[2.017899,41.947514],[2.017924,41.947483],[2.017944,41.947465],[2.017974,41.947443],[2.017996,41.947429],[2.018016,41.947419],[2.018031,41.947408],[2.018055,41.947393],[2.01808,41.947375],[2.018103,41.947359],[2.018117,41.94735],[2.018131,41.947341],[2.018142,41.947334],[2.018152,41.947327],[2.018161,41.947322],[2.018167,41.947318],[2.018178,41.947312],[2.018198,41.947301],[2.018212,41.947294],[2.018218,41.947291],[2.018229,41.947287],[2.018242,41.947281],[2.018248,41.947279],[2.018257,41.947275],[2.018263,41.947272],[2.018273,41.947268],[2.018283,41.947267],[2.018298,41.947265],[2.018315,41.947263],[2.018328,41.947263],[2.018338,41.947264],[2.018351,41.947265],[2.018364,41.947267],[2.018428,41.947289],[2.01846,41.9473],[2.018475,41.947306],[2.018489,41.947311],[2.0185,41.947315],[2.018511,41.947319],[2.018522,41.947323],[2.018547,41.947331],[2.018555,41.947333],[2.018579,41.947338],[2.018591,41.947341],[2.018602,41.947343],[2.01861,41.947344],[2.018632,41.947347],[2.018655,41.947351],[2.018658,41.947351],[2.018669,41.947352],[2.018677,41.947352],[2.018691,41.947352],[2.018712,41.947351],[2.018719,41.947351],[2.018738,41.947349],[2.018757,41.947346],[2.018776,41.947341],[2.01879,41.947338],[2.018803,41.947334],[2.018834,41.947324],[2.019049,41.947212],[2.019093,41.947186],[2.019096,41.947185],[2.01923,41.947092],[2.0193,41.947043],[2.019833,41.947311],[2.020393,41.947631],[2.0206,41.947652],[2.020753,41.947711],[2.020912,41.947785],[2.021079,41.94784],[2.021179,41.947894],[2.021306,41.948013],[2.021377,41.948042],[2.021454,41.948043],[2.021561,41.947947],[2.021672,41.947845],[2.02176,41.947727],[2.021815,41.947599],[2.021826,41.947506],[2.021798,41.947478],[2.021674,41.947426],[2.021555,41.94739],[2.021469,41.947382],[2.021353,41.947413],[2.021281,41.94743],[2.021133,41.947408],[2.020957,41.947365],[2.020928,41.947359],[2.020807,41.947333],[2.020753,41.947325],[2.020727,41.947319],[2.020704,41.947308],[2.020672,41.947287],[2.020639,41.947265],[2.02053,41.947183],[2.020416,41.947105],[2.020333,41.946985],[2.020507,41.946896],[2.020594,41.946871],[2.020714,41.946801],[2.02072,41.946798],[2.020781,41.946762],[2.020928,41.946653],[2.021096,41.946542],[2.021131,41.946564],[2.021164,41.946555],[2.021281,41.946503],[2.021547,41.946611],[2.021565,41.946618],[2.021868,41.946776],[2.021889,41.946778],[2.021905,41.946778],[2.021981,41.946812],[2.02196,41.946972],[2.022,41.94698],[2.022037,41.946987],[2.022094,41.946997],[2.022081,41.947038],[2.022257,41.947069],[2.022269,41.947026],[2.022385,41.947051],[2.022622,41.947092],[2.022874,41.947134],[2.022866,41.947153],[2.022942,41.947171],[2.023125,41.947215],[2.023137,41.947216],[2.023142,41.947215],[2.02318,41.947216],[2.0232,41.947216],[2.023205,41.947216],[2.023237,41.947216],[2.023255,41.947191],[2.023288,41.947146],[2.023297,41.947119],[2.023317,41.947059],[2.023319,41.947053],[2.023371,41.94704],[2.023471,41.947055],[2.023688,41.947086],[2.023702,41.94703],[2.023701,41.946996],[2.023721,41.946918],[2.023759,41.946712],[2.023759,41.946676],[2.023679,41.946657],[2.023696,41.946596],[2.023672,41.946587],[2.023462,41.946586],[2.023298,41.946599],[2.023214,41.94658],[2.023075,41.946515],[2.022939,41.946504],[2.022939,41.946466],[2.022332,41.946389],[2.022324,41.946419],[2.02232,41.946419],[2.022259,41.946412],[2.022276,41.946321],[2.022332,41.946181],[2.022336,41.946176],[2.0224,41.946073],[2.022404,41.946066],[2.022452,41.945985],[2.022522,41.945866],[2.022533,41.945859],[2.022548,41.945849],[2.022575,41.945833],[2.022594,41.945823],[2.022617,41.945814],[2.022639,41.945807],[2.022762,41.945774],[2.022845,41.945752],[2.022927,41.945732],[2.022936,41.945729],[2.022941,41.945725],[2.022942,41.94572],[2.022941,41.945714],[2.023217,41.945741],[2.023255,41.945738],[2.023083,41.945412],[2.022811,41.945481],[2.022797,41.945459],[2.022777,41.945423],[2.022734,41.945344],[2.02273,41.945338],[2.022717,41.945321],[2.022705,41.94531],[2.022689,41.945299],[2.022675,41.945292],[2.022661,41.945284],[2.022673,41.945115],[2.022673,41.945109],[2.022708,41.945001],[2.022821,41.944699],[2.022827,41.944696],[2.022838,41.94469],[2.022998,41.944644],[2.023328,41.944581],[2.023348,41.944577],[2.023368,41.944576],[2.023392,41.944577],[2.023413,41.944583],[2.023421,41.944587],[2.023439,41.944595],[2.023509,41.944635],[2.023564,41.944672],[2.023615,41.944713],[2.023645,41.944737],[2.02385,41.94492],[2.023947,41.944983],[2.023976,41.944962],[2.02399,41.944952],[2.024024,41.944902],[2.024107,41.944778],[2.024146,41.944585],[2.02413,41.94454],[2.024087,41.944495],[2.024177,41.944365],[2.024215,41.944337],[2.0242,41.944327],[2.024181,41.944309],[2.024085,41.944205],[2.023994,41.944099],[2.023902,41.943994],[2.023813,41.943886],[2.023778,41.943837],[2.023748,41.943786],[2.023691,41.943682],[2.023668,41.943627],[2.023645,41.943572],[2.023621,41.943539],[2.023559,41.943473],[2.023497,41.943408],[2.023457,41.943366],[2.023416,41.943323],[2.023411,41.943314],[2.023408,41.943304],[2.023408,41.943284],[2.023413,41.943174],[2.023417,41.943065],[2.023422,41.942953],[2.023426,41.942842],[2.023429,41.94283],[2.023438,41.942821],[2.023406,41.942657],[2.023431,41.942604],[2.023457,41.942541],[2.023483,41.942478],[2.023511,41.942408],[2.023517,41.942391],[2.023162,41.9423],[2.023179,41.942239],[2.022834,41.942047],[2.022946,41.941862],[2.022816,41.941814],[2.023,41.941584],[2.022977,41.941571],[2.022884,41.941502],[2.022793,41.941433],[2.022777,41.941408],[2.022766,41.941405],[2.022724,41.941352],[2.022622,41.941329],[2.022506,41.941593],[2.022249,41.941539],[2.022234,41.941539],[2.022093,41.941611],[2.022076,41.941634],[2.022034,41.941689],[2.02191,41.941846],[2.02183,41.941891],[2.021798,41.941972],[2.021785,41.942106],[2.02176,41.942149],[2.021659,41.942239],[2.021532,41.9424],[2.021529,41.942402],[2.021537,41.942417],[2.020982,41.943068],[2.020929,41.94314],[2.020889,41.943193],[2.020829,41.943274],[2.02074,41.943394],[2.020716,41.943426],[2.020696,41.943421],[2.020675,41.943416],[2.020664,41.943414],[2.020655,41.943418],[2.020635,41.943439],[2.020612,41.943472],[2.020587,41.943506],[2.020415,41.943715],[2.020243,41.943924],[2.019795,41.944473],[2.019675,41.944666],[2.019742,41.944717],[2.019784,41.944759],[2.019697,41.944808],[2.019499,41.944917],[2.019146,41.945157],[2.019194,41.945192],[2.01921,41.945224],[2.019117,41.945303],[2.019037,41.94531],[2.018953,41.945347],[2.019013,41.945424],[2.01908,41.945425],[2.019138,41.945574],[2.018981,41.945914],[2.018726,41.94655],[2.018637,41.946686],[2.018566,41.946751],[2.018453,41.946823],[2.018289,41.946899],[2.017448,41.946646],[2.017442,41.946392],[2.017361,41.946318],[2.017619,41.94609],[2.017597,41.946079],[2.017542,41.946067],[2.01749,41.946048],[2.017444,41.946023],[2.017403,41.945992],[2.01737,41.945957],[2.017345,41.945919],[2.017329,41.945877],[2.017326,41.945864],[2.017323,41.945834],[2.017324,41.945804],[2.017332,41.945768],[2.017346,41.945734],[2.017366,41.945701],[2.017353,41.945654],[2.017332,41.945609],[2.017304,41.945566],[2.01727,41.945525],[2.01723,41.945488],[2.017185,41.945454],[2.017134,41.945425],[2.016917,41.945328],[2.01662,41.945278],[2.016638,41.945187],[2.016873,41.945104],[2.016898,41.945095],[2.017033,41.945055],[2.017073,41.945047],[2.017132,41.94504],[2.017181,41.945044],[2.017233,41.944964],[2.017274,41.944595],[2.016889,41.944679],[2.016826,41.94451],[2.017248,41.944419],[2.017186,41.944102],[2.017092,41.94399],[2.017055,41.943971],[2.017037,41.943961],[2.016992,41.943926],[2.016989,41.943923],[2.016958,41.943885],[2.016946,41.943865],[2.016939,41.943844],[2.016936,41.943821],[2.016932,41.943796],[2.016929,41.943749],[2.016929,41.9437],[2.016929,41.94365],[2.016924,41.943609],[2.016913,41.943569],[2.016896,41.943523],[2.016884,41.943501],[2.016867,41.943483],[2.016825,41.943446],[2.016783,41.94341],[2.016663,41.943395],[2.016654,41.943432],[2.016642,41.943432],[2.016604,41.943409],[2.016555,41.94338],[2.016525,41.943362],[2.016494,41.943344],[2.016489,41.943343],[2.016479,41.943346],[2.016471,41.943352],[2.016451,41.943365],[2.016434,41.943379],[2.016376,41.943434],[2.016352,41.943463],[2.016338,41.943494],[2.016331,41.943525],[2.016324,41.943571],[2.016316,41.943618],[2.016306,41.943672],[2.016293,41.943726],[2.016274,41.94378],[2.016253,41.943834],[2.016228,41.943897],[2.016223,41.943909],[2.016203,41.94396],[2.016162,41.943974],[2.016114,41.943987],[2.016081,41.943993],[2.015994,41.943999],[2.015906,41.943999],[2.015834,41.943996],[2.015764,41.943988],[2.015733,41.943979],[2.015703,41.943966],[2.015643,41.943938],[2.015599,41.943922],[2.015537,41.943909],[2.015474,41.943902],[2.015399,41.943898],[2.015324,41.943895],[2.015275,41.943893],[2.015226,41.94389],[2.015187,41.943887],[2.015129,41.943883],[2.014807,41.943746],[2.014793,41.943767],[2.014727,41.943709],[2.014654,41.943648],[2.014611,41.943613],[2.014591,41.943582],[2.014581,41.943561],[2.014566,41.943544],[2.014547,41.943524],[2.014505,41.943489],[2.014489,41.943499],[2.014454,41.943522],[2.01441,41.943519],[2.014222,41.943408],[2.014162,41.943424],[2.014082,41.943448],[2.014053,41.943456],[2.014211,41.943778],[2.014215,41.943776],[2.014219,41.943773],[2.01431,41.943719],[2.014338,41.943704],[2.014372,41.943877],[2.014465,41.943989],[2.014489,41.944019],[2.01453,41.944075],[2.014607,41.944041],[2.01468,41.944008],[2.014695,41.944009],[2.014712,41.944012],[2.014727,41.944019],[2.014747,41.944029],[2.014784,41.944051],[2.014864,41.9441],[2.014981,41.944178],[2.015097,41.944257],[2.015171,41.944309],[2.015243,41.944363],[2.015265,41.944382],[2.015292,41.944414],[2.015302,41.94443],[2.015309,41.944446],[2.015317,41.944484],[2.015323,41.944523],[2.01533,41.944596],[2.015333,41.94467],[2.015329,41.944917],[2.0153,41.944922],[2.015144,41.94494],[2.015097,41.944946],[2.014989,41.944947],[2.015006,41.945018],[2.015028,41.945086],[2.015035,41.945106],[2.015025,41.945149],[2.015023,41.94516],[2.01502,41.94517],[2.015018,41.94518],[2.015019,41.945189],[2.015017,41.945197],[2.015013,41.945203],[2.015011,41.945212],[2.015004,41.945245],[2.014988,41.945292],[2.015153,41.945301],[2.015153,41.945341],[2.015385,41.945367],[2.015423,41.945371],[2.015547,41.945385],[2.015547,41.945419],[2.015548,41.945484],[2.015778,41.945499],[2.01578,41.945457],[2.015788,41.945352],[2.015799,41.945194],[2.016246,41.945202],[2.016287,41.945203],[2.016302,41.945204],[2.016369,41.945207],[2.016399,41.945211],[2.016424,41.945217],[2.016433,41.94522],[2.016449,41.945232],[2.016467,41.945248],[2.016493,41.945276],[2.016513,41.945305],[2.016544,41.945372],[2.016573,41.945442],[2.016627,41.945577],[2.016681,41.945711],[2.016716,41.945799],[2.016754,41.945889],[2.016773,41.94592],[2.016805,41.945961],[2.016837,41.945999],[2.016888,41.946062],[2.016944,41.946129],[2.016998,41.94617],[2.017052,41.946205],[2.017153,41.946272],[2.017252,41.94634],[2.017296,41.946371],[2.017334,41.946402],[2.017345,41.946419],[2.01735,41.946438],[2.017351,41.94651],[2.017348,41.946583],[2.017345,41.946608],[2.01734,41.946639],[2.017335,41.946678],[2.017334,41.946687],[2.017332,41.946697],[2.017331,41.946703],[2.017251,41.946724],[2.017217,41.946744],[2.017185,41.946782],[2.017171,41.946844],[2.017136,41.946975],[2.017008,41.947512],[2.016969,41.947633],[2.0169,41.947798],[2.016885,41.947889],[2.016877,41.948047],[2.016942,41.948044]]]]}},{"type":"Feature","id":"082129_082129 AP03 BAG 2","properties":{"area_id":"082129_082129 AP03 BAG 2","nom":"el Carrer de Gafarró","codi_icgc":"082129 AP03 BAG 2","categoria":"Àrees de poblament","codi_municipi":"082129","municipi":"Sant Feliu Sasserra","codi_comarca":"07","comarca":"Bages","provincia":"Barcelona","font":"ICGC Àrees de poblament v3r1 202602"},"geometry":{"type":"MultiPolygon","coordinates":[[[[2.028525,41.945157],[2.028412,41.944045],[2.028367,41.944046],[2.028228,41.943976],[2.028053,41.944009],[2.027786,41.944067],[2.027737,41.9441],[2.027708,41.944172],[2.027703,41.944503],[2.027769,41.944563],[2.027893,41.944574],[2.028188,41.944555],[2.028224,41.944731],[2.028279,41.944918],[2.028292,41.945132],[2.028312,41.94516],[2.028525,41.945157]]]]}},{"type":"Feature","id":"082129_082129 AP02 BAG 2","properties":{"area_id":"082129_082129 AP02 BAG 2","nom":"el Carrer de la Mongia","codi_icgc":"082129 AP02 BAG 2","categoria":"Àrees de poblament","codi_municipi":"082129","municipi":"Sant Feliu Sasserra","codi_comarca":"07","comarca":"Bages","provincia":"Barcelona","font":"ICGC Àrees de poblament v3r1 202602"},"geometry":{"type":"MultiPolygon","coordinates":[[[[2.017732,41.933248],[2.017728,41.933245],[2.017527,41.933452],[2.01742,41.933595],[2.017324,41.933662],[2.017419,41.933737],[2.017486,41.933807],[2.017465,41.933861],[2.017463,41.933881],[2.017468,41.933909],[2.01748,41.933936],[2.017493,41.933954],[2.017516,41.933979],[2.017541,41.934001],[2.017586,41.934044],[2.017621,41.934086],[2.017653,41.93413],[2.017669,41.934163],[2.017676,41.934196],[2.017674,41.934218],[2.017664,41.934258],[2.017653,41.934298],[2.017645,41.934329],[2.017603,41.934316],[2.01722,41.934373],[2.016903,41.934232],[2.01668,41.934202],[2.016572,41.93421],[2.016488,41.934257],[2.016389,41.934437],[2.016414,41.934523],[2.0167,41.934583],[2.016864,41.934713],[2.017494,41.934843],[2.017586,41.934754],[2.017652,41.934709],[2.017762,41.934634],[2.018029,41.934487],[2.018192,41.934438],[2.018248,41.934518],[2.018327,41.934593],[2.018435,41.934631],[2.018515,41.934646],[2.018607,41.934678],[2.018693,41.934712],[2.018824,41.934697],[2.018953,41.934593],[2.019055,41.934593],[2.019145,41.934566],[2.019235,41.934542],[2.019554,41.934546],[2.019848,41.934515],[2.020055,41.934521],[2.020176,41.934539],[2.020298,41.934495],[2.020356,41.934448],[2.02036,41.934412],[2.020212,41.934191],[2.020184,41.934198],[2.020137,41.9342],[2.020037,41.934209],[2.019979,41.934251],[2.01991,41.934275],[2.01987,41.934281],[2.019702,41.934263],[2.019477,41.934226],[2.019258,41.934271],[2.019298,41.934388],[2.019222,41.934401],[2.019142,41.934409],[2.019061,41.934402],[2.01901,41.934386],[2.018983,41.934367],[2.018907,41.934249],[2.018819,41.934118],[2.018749,41.934027],[2.018605,41.933871],[2.018479,41.933751],[2.018321,41.933619],[2.018091,41.933431],[2.017902,41.933274],[2.017795,41.933192],[2.017757,41.933219],[2.017732,41.933248]]]]}}]}