{"type":"FeatureCollection","name":"ICGC Àrees de poblament - Sant Martí Sarroca","features":[{"type":"Feature","id":"082270_082270 AP10 APE 3","properties":{"area_id":"082270_082270 AP10 APE 3","nom":"Brugueres","codi_icgc":"082270 AP10 APE 3","categoria":"Àrees de poblament","codi_municipi":"082270","municipi":"Sant Martí Sarroca","codi_comarca":"03","comarca":"Alt Penedès","provincia":"Barcelona","font":"ICGC Àrees de poblament v3r1 202602"},"geometry":{"type":"MultiPolygon","coordinates":[[[[1.635448,41.390615],[1.63515,41.390572],[1.634913,41.390805],[1.634976,41.391009],[1.635151,41.391276],[1.635526,41.391358],[1.635997,41.391364],[1.636011,41.391361],[1.636276,41.391186],[1.636974,41.391099],[1.637457,41.391],[1.637526,41.391354],[1.638006,41.391397],[1.638286,41.391324],[1.638342,41.391068],[1.63836,41.390811],[1.638377,41.390611],[1.638711,41.390376],[1.638352,41.389981],[1.637838,41.389765],[1.637883,41.389423],[1.637947,41.389366],[1.63839,41.389391],[1.638519,41.389259],[1.638384,41.389066],[1.637492,41.388732],[1.637438,41.388903],[1.637352,41.389969],[1.637321,41.389985],[1.637367,41.390438],[1.636811,41.390439],[1.636352,41.390615],[1.636264,41.390673],[1.636186,41.39068],[1.635792,41.390687],[1.635448,41.390615]]]]}},{"type":"Feature","id":"082270_082270 AP07 APE 3","properties":{"area_id":"082270_082270 AP07 APE 3","nom":"Cal Miret","codi_icgc":"082270 AP07 APE 3","categoria":"Àrees de poblament","codi_municipi":"082270","municipi":"Sant Martí Sarroca","codi_comarca":"03","comarca":"Alt Penedès","provincia":"Barcelona","font":"ICGC Àrees de poblament v3r1 202602"},"geometry":{"type":"MultiPolygon","coordinates":[[[[1.620038,41.398066],[1.619834,41.397923],[1.620659,41.39746],[1.621272,41.397117],[1.622349,41.396627],[1.622126,41.396446],[1.621879,41.396246],[1.62172,41.396299],[1.62121,41.396449],[1.62075,41.396663],[1.620116,41.39614],[1.620026,41.396187],[1.619587,41.396582],[1.619107,41.396528],[1.618457,41.397922],[1.61891,41.398161],[1.619116,41.398011],[1.619587,41.398462],[1.620038,41.398066]]]]}},{"type":"Feature","id":"082270_082270 AP08 APE 3","properties":{"area_id":"082270_082270 AP08 APE 3","nom":"Cal Sisplau","codi_icgc":"082270 AP08 APE 3","categoria":"Àrees de poblament","codi_municipi":"082270","municipi":"Sant Martí Sarroca","codi_comarca":"03","comarca":"Alt Penedès","provincia":"Barcelona","font":"ICGC Àrees de poblament v3r1 202602"},"geometry":{"type":"MultiPolygon","coordinates":[[[[1.601528,41.391913],[1.601736,41.391827],[1.601885,41.391602],[1.601942,41.391525],[1.601951,41.391484],[1.601952,41.39143],[1.601929,41.391388],[1.601914,41.391376],[1.60175,41.391216],[1.60163,41.391133],[1.601586,41.391166],[1.601532,41.391207],[1.601478,41.391247],[1.600888,41.39192],[1.600301,41.392333],[1.60008,41.392402],[1.599808,41.392166],[1.599689,41.392171],[1.599376,41.392143],[1.599384,41.391953],[1.599418,41.390851],[1.599976,41.39119],[1.600003,41.391188],[1.600409,41.390702],[1.600072,41.390549],[1.600033,41.390519],[1.600002,41.390489],[1.600097,41.390304],[1.600533,41.389892],[1.600112,41.389667],[1.600048,41.389632],[1.600733,41.389442],[1.601592,41.389162],[1.602852,41.388752],[1.602511,41.388438],[1.603041,41.388075],[1.602777,41.387846],[1.602449,41.388049],[1.602446,41.388051],[1.602321,41.388145],[1.602151,41.388266],[1.601976,41.388383],[1.60185,41.388462],[1.601751,41.388522],[1.601474,41.388762],[1.60109,41.389094],[1.601056,41.389124],[1.601039,41.389131],[1.601028,41.389139],[1.601,41.38916],[1.600999,41.389161],[1.600954,41.389197],[1.600908,41.389234],[1.600863,41.389264],[1.600814,41.38929],[1.600768,41.389308],[1.600721,41.389321],[1.600543,41.389365],[1.600475,41.389382],[1.600398,41.389416],[1.600371,41.389423],[1.600253,41.389453],[1.60011,41.38949],[1.599969,41.389529],[1.599811,41.389579],[1.599658,41.389637],[1.599557,41.389678],[1.599438,41.389729],[1.599413,41.389735],[1.599366,41.389751],[1.599065,41.389911],[1.59893,41.389975],[1.598534,41.390314],[1.598356,41.390478],[1.598609,41.390655],[1.598711,41.39058],[1.599147,41.390901],[1.598321,41.391825],[1.598977,41.39218],[1.598974,41.392311],[1.59874,41.392559],[1.598515,41.392723],[1.598123,41.392897],[1.597985,41.392772],[1.597969,41.392717],[1.597922,41.392689],[1.597869,41.392698],[1.597655,41.392593],[1.597382,41.392405],[1.597217,41.392368],[1.59711,41.392344],[1.597087,41.392345],[1.597075,41.392354],[1.596999,41.392413],[1.596982,41.392426],[1.596968,41.392437],[1.596914,41.392478],[1.59709,41.392579],[1.596399,41.393047],[1.596789,41.393314],[1.597174,41.39308],[1.597487,41.393251],[1.59779,41.393112],[1.598086,41.393342],[1.597278,41.39413],[1.597337,41.394148],[1.597374,41.394159],[1.598017,41.394354],[1.598087,41.394219],[1.598087,41.394189],[1.598086,41.394122],[1.598071,41.39409],[1.59805,41.394063],[1.598012,41.394012],[1.597989,41.39397],[1.59797,41.393928],[1.597965,41.3939],[1.597959,41.393809],[1.597955,41.393717],[1.597948,41.393663],[1.597944,41.393634],[1.597954,41.393623],[1.59798,41.393583],[1.598004,41.393545],[1.598037,41.393497],[1.59807,41.393451],[1.598096,41.393424],[1.598127,41.393402],[1.598174,41.393378],[1.598224,41.393357],[1.598308,41.393324],[1.598393,41.393294],[1.598573,41.393235],[1.598755,41.393179],[1.598914,41.393133],[1.599074,41.393089],[1.599144,41.393073],[1.599216,41.393056],[1.59926,41.393043],[1.599301,41.393025],[1.599345,41.393],[1.599386,41.392975],[1.599429,41.392948],[1.599471,41.392919],[1.599495,41.392915],[1.599519,41.392917],[1.599541,41.392925],[1.599548,41.392929],[1.59955,41.392931],[1.599732,41.393203],[1.599749,41.393229],[1.599926,41.393497],[1.599941,41.393519],[1.599903,41.393535],[1.599842,41.393562],[1.599817,41.393575],[1.599795,41.393592],[1.599757,41.393628],[1.59973,41.393649],[1.599635,41.393714],[1.599539,41.393779],[1.599476,41.393822],[1.599411,41.393863],[1.599351,41.393897],[1.599291,41.393932],[1.599206,41.393988],[1.599182,41.394005],[1.599123,41.394045],[1.59901,41.394133],[1.598866,41.394317],[1.598823,41.394373],[1.59873,41.394501],[1.59891,41.394557],[1.598981,41.394417],[1.599015,41.394427],[1.599082,41.39432],[1.599239,41.39437],[1.599499,41.394028],[1.599753,41.394025],[1.59996,41.393956],[1.600039,41.393933],[1.600078,41.393946],[1.60013,41.393964],[1.600183,41.393982],[1.600202,41.393982],[1.60024,41.393981],[1.60049,41.393964],[1.600752,41.393933],[1.600961,41.394247],[1.60097,41.394261],[1.600999,41.394305],[1.601435,41.394359],[1.601703,41.394353],[1.601731,41.394352],[1.601767,41.394352],[1.602009,41.394299],[1.602183,41.394027],[1.602203,41.393928],[1.601993,41.393865],[1.601647,41.393869],[1.601623,41.393754],[1.601622,41.393754],[1.601546,41.393598],[1.60115,41.393593],[1.600751,41.393274],[1.600732,41.393258],[1.600715,41.39326],[1.600662,41.393264],[1.600603,41.393267],[1.600548,41.393267],[1.600526,41.393273],[1.600515,41.393276],[1.600438,41.393308],[1.600366,41.393343],[1.600294,41.393383],[1.600223,41.393422],[1.600155,41.393456],[1.600085,41.393486],[1.600026,41.393508],[1.600002,41.393518],[1.599997,41.39351],[1.59999,41.3935],[1.599799,41.393211],[1.599785,41.393189],[1.5996,41.392913],[1.599596,41.392907],[1.599557,41.392846],[1.599581,41.392826],[1.599629,41.392786],[1.599791,41.392666],[1.599927,41.392572],[1.599959,41.392551],[1.600039,41.392496],[1.600119,41.392443],[1.600214,41.392394],[1.600313,41.392345],[1.600481,41.392254],[1.600639,41.392151],[1.600661,41.392133],[1.600793,41.392029],[1.600903,41.392019],[1.601086,41.391997],[1.601317,41.391929],[1.601528,41.391913]]]]}},{"type":"Feature","id":"082270_082270 AP09 APE 3","properties":{"area_id":"082270_082270 AP09 APE 3","nom":"Can Cruset de la Carrera","codi_icgc":"082270 AP09 APE 3","categoria":"Àrees de poblament","codi_municipi":"082270","municipi":"Sant Martí Sarroca","codi_comarca":"03","comarca":"Alt Penedès","provincia":"Barcelona","font":"ICGC Àrees de poblament v3r1 202602"},"geometry":{"type":"MultiPolygon","coordinates":[[[[1.584321,41.382755],[1.583522,41.382835],[1.58354,41.382856],[1.583545,41.382861],[1.583793,41.38315],[1.583798,41.383155],[1.583808,41.383164],[1.583832,41.383184],[1.584027,41.383158],[1.584244,41.383129],[1.584406,41.383118],[1.58457,41.383107],[1.584695,41.383091],[1.584715,41.383089],[1.584858,41.383067],[1.58505,41.383044],[1.585276,41.383033],[1.58529,41.383088],[1.585259,41.383093],[1.585304,41.383276],[1.585353,41.383656],[1.585393,41.383652],[1.585446,41.383972],[1.584853,41.384086],[1.585153,41.384351],[1.585155,41.384352],[1.585298,41.384418],[1.585398,41.384464],[1.58549,41.384506],[1.585906,41.384697],[1.585964,41.384724],[1.58597,41.384726],[1.585964,41.3847],[1.585964,41.384699],[1.585964,41.384698],[1.585993,41.384426],[1.586257,41.384394],[1.58638,41.384385],[1.586673,41.384369],[1.586839,41.384356],[1.586977,41.384343],[1.587315,41.384286],[1.58731,41.384266],[1.587373,41.384258],[1.587308,41.384003],[1.587308,41.384001],[1.587237,41.383976],[1.587228,41.383962],[1.587142,41.383976],[1.587127,41.383945],[1.587102,41.383887],[1.587065,41.383801],[1.58703,41.383714],[1.58702,41.383674],[1.587022,41.383642],[1.587039,41.383596],[1.587044,41.38359],[1.587048,41.383569],[1.58722,41.383417],[1.587234,41.383404],[1.587266,41.383357],[1.587267,41.383329],[1.587268,41.383292],[1.587142,41.383236],[1.586733,41.38316],[1.58673,41.383149],[1.586481,41.382288],[1.586475,41.382269],[1.586272,41.382303],[1.586034,41.382344],[1.58551,41.382433],[1.585514,41.382445],[1.585414,41.382464],[1.585247,41.382499],[1.58508,41.382533],[1.58493,41.382564],[1.584781,41.382595],[1.584351,41.382746],[1.584321,41.382755]]]]}},{"type":"Feature","id":"082270_082270 AP15 APE 3","properties":{"area_id":"082270_082270 AP15 APE 3","nom":"Can Lleó","codi_icgc":"082270 AP15 APE 3","categoria":"Àrees de poblament","codi_municipi":"082270","municipi":"Sant Martí Sarroca","codi_comarca":"03","comarca":"Alt Penedès","provincia":"Barcelona","font":"ICGC Àrees de poblament v3r1 202602"},"geometry":{"type":"MultiPolygon","coordinates":[[[[1.651244,41.368462],[1.650872,41.368275],[1.650109,41.368749],[1.650479,41.369071],[1.650836,41.368941],[1.651128,41.368728],[1.651244,41.368462]]],[[[1.649137,41.368605],[1.648745,41.368283],[1.64827,41.368811],[1.64791,41.369057],[1.647861,41.369274],[1.64768,41.369488],[1.648492,41.369815],[1.649127,41.369122],[1.649086,41.368938],[1.649155,41.368805],[1.649137,41.368605]]],[[[1.648407,41.370731],[1.647879,41.370542],[1.646898,41.370897],[1.646692,41.371195],[1.647351,41.371436],[1.647889,41.371126],[1.648157,41.371029],[1.648269,41.37098],[1.648407,41.370731]]],[[[1.648455,41.3727],[1.647971,41.372511],[1.647609,41.372891],[1.648114,41.373113],[1.648358,41.373116],[1.648606,41.372869],[1.648455,41.3727]]],[[[1.65347,41.374344],[1.652969,41.373954],[1.652834,41.374053],[1.652831,41.374186],[1.652806,41.374336],[1.652717,41.374352],[1.652606,41.374384],[1.652492,41.374516],[1.652377,41.374715],[1.652101,41.375229],[1.652254,41.375314],[1.652704,41.374986],[1.652974,41.374772],[1.65347,41.374344]]]]}},{"type":"Feature","id":"082270_082270 AP19 APE 3","properties":{"area_id":"082270_082270 AP19 APE 3","nom":"Can Rigol","codi_icgc":"082270 AP19 APE 3","categoria":"Àrees de poblament","codi_municipi":"082270","municipi":"Sant Martí Sarroca","codi_comarca":"03","comarca":"Alt Penedès","provincia":"Barcelona","font":"ICGC Àrees de poblament v3r1 202602"},"geometry":{"type":"MultiPolygon","coordinates":[[[[1.63479,41.346111],[1.634803,41.346038],[1.634813,41.345981],[1.634862,41.345874],[1.634864,41.345778],[1.63471,41.345749],[1.634608,41.345742],[1.634695,41.345586],[1.634773,41.345447],[1.634413,41.34534],[1.63437,41.345384],[1.634081,41.345683],[1.63403,41.345669],[1.633945,41.345632],[1.633862,41.345571],[1.634276,41.345153],[1.634261,41.345116],[1.633834,41.344896],[1.633617,41.345125],[1.633508,41.345175],[1.633414,41.345055],[1.633318,41.344935],[1.633275,41.344886],[1.633225,41.34484],[1.633192,41.344819],[1.633189,41.344817],[1.633194,41.344816],[1.633233,41.344805],[1.633255,41.344797],[1.633276,41.344787],[1.633313,41.344765],[1.633326,41.344757],[1.633339,41.34475],[1.633346,41.344745],[1.633402,41.344704],[1.633466,41.344653],[1.633529,41.344599],[1.633582,41.34454],[1.634031,41.344418],[1.634139,41.344275],[1.634141,41.344269],[1.633976,41.344182],[1.634196,41.343921],[1.634163,41.343904],[1.634267,41.343759],[1.634099,41.343603],[1.634009,41.343569],[1.63382,41.343701],[1.633788,41.34371],[1.633385,41.343832],[1.632498,41.344448],[1.632355,41.344524],[1.632323,41.344541],[1.6323,41.344553],[1.632253,41.344578],[1.632192,41.34461],[1.632092,41.34486],[1.632082,41.344922],[1.632379,41.344925],[1.632519,41.344884],[1.63264,41.344693],[1.632653,41.344672],[1.632928,41.344755],[1.632928,41.344755],[1.63302,41.344783],[1.633068,41.344798],[1.633138,41.344825],[1.633169,41.344842],[1.633198,41.34486],[1.633245,41.344903],[1.633286,41.34495],[1.633381,41.345069],[1.633475,41.345189],[1.633517,41.345245],[1.63354,41.345272],[1.633695,41.345461],[1.633416,41.345786],[1.633284,41.345908],[1.633288,41.345909],[1.633719,41.346074],[1.633774,41.346095],[1.633938,41.346109],[1.63397,41.346112],[1.633991,41.346097],[1.634658,41.346187],[1.63479,41.346111]]],[[[1.636804,41.345739],[1.63675,41.345737],[1.63675,41.345739],[1.636731,41.34578],[1.636713,41.345804],[1.636692,41.345823],[1.636674,41.345836],[1.63667,41.345839],[1.636619,41.345867],[1.636582,41.345883],[1.636479,41.345921],[1.636375,41.345957],[1.636323,41.345972],[1.636222,41.345997],[1.636214,41.345999],[1.636217,41.346028],[1.636247,41.346377],[1.636336,41.346455],[1.636381,41.346561],[1.636389,41.346579],[1.636526,41.34657],[1.6367,41.346559],[1.636764,41.346457],[1.636801,41.346397],[1.636837,41.346339],[1.636859,41.346295],[1.636877,41.346247],[1.636896,41.346174],[1.636906,41.346101],[1.636908,41.34606],[1.636905,41.345999],[1.636899,41.345968],[1.63689,41.345937],[1.636876,41.345899],[1.636859,41.345862],[1.63684,41.345823],[1.636822,41.345783],[1.636806,41.345743],[1.636804,41.345739]]]]}},{"type":"Feature","id":"082270_082270 AP16 APE 3","properties":{"area_id":"082270_082270 AP16 APE 3","nom":"Can Sogues","codi_icgc":"082270 AP16 APE 3","categoria":"Àrees de poblament","codi_municipi":"082270","municipi":"Sant Martí Sarroca","codi_comarca":"03","comarca":"Alt Penedès","provincia":"Barcelona","font":"ICGC Àrees de poblament v3r1 202602"},"geometry":{"type":"MultiPolygon","coordinates":[[[[1.639276,41.382075],[1.638772,41.382002],[1.638652,41.382286],[1.639118,41.382368],[1.639234,41.382293],[1.639275,41.38216],[1.639276,41.382075]]],[[[1.637876,41.383069],[1.638022,41.382737],[1.638065,41.382489],[1.638158,41.382319],[1.637805,41.382219],[1.637582,41.382627],[1.637303,41.382642],[1.636849,41.382542],[1.636635,41.382472],[1.636359,41.382383],[1.635658,41.382604],[1.635942,41.382969],[1.636539,41.382833],[1.637232,41.383004],[1.637876,41.383069]]]]}},{"type":"Feature","id":"082270_082270 SI03 APE 2","properties":{"area_id":"082270_082270 SI03 APE 2","nom":"Caves Parés Baltà","codi_icgc":"082270 SI03 APE 2","categoria":"Sector industrial","codi_municipi":"082270","municipi":"Sant Martí Sarroca","codi_comarca":"03","comarca":"Alt Penedès","provincia":"Barcelona","font":"ICGC Àrees de poblament v3r1 202602"},"geometry":{"type":"MultiPolygon","coordinates":[[[[1.657183,41.369858],[1.657233,41.369844],[1.657281,41.369828],[1.657327,41.369809],[1.657337,41.369805],[1.657347,41.3698],[1.657368,41.36978],[1.657336,41.369774],[1.655344,41.369444],[1.655315,41.369439],[1.655296,41.369436],[1.65544,41.369518],[1.655616,41.369624],[1.655714,41.369667],[1.655818,41.369708],[1.655899,41.369732],[1.656028,41.369745],[1.656238,41.369769],[1.656439,41.369788],[1.656543,41.369812],[1.656637,41.369842],[1.656742,41.369842],[1.656815,41.369861],[1.656885,41.369873],[1.657183,41.369858]]]]}},{"type":"Feature","id":"082270_082270 SI05 APE 2","properties":{"area_id":"082270_082270 SI05 APE 2","nom":"Celler del Foix","codi_icgc":"082270 SI05 APE 2","categoria":"Sector industrial","codi_municipi":"082270","municipi":"Sant Martí Sarroca","codi_comarca":"03","comarca":"Alt Penedès","provincia":"Barcelona","font":"ICGC Àrees de poblament v3r1 202602"},"geometry":{"type":"MultiPolygon","coordinates":[[[[1.658808,41.337747],[1.659716,41.338098],[1.659867,41.337971],[1.66007,41.33781],[1.660038,41.337787],[1.660216,41.337604],[1.660359,41.337459],[1.660496,41.337351],[1.660541,41.337304],[1.6597,41.336879],[1.659667,41.336921],[1.659602,41.336994],[1.659533,41.337065],[1.659492,41.337105],[1.659476,41.33712],[1.659461,41.337134],[1.659405,41.337183],[1.659347,41.337229],[1.659296,41.33727],[1.659245,41.337311],[1.659183,41.337358],[1.65912,41.337407],[1.659089,41.337435],[1.659046,41.337481],[1.659003,41.337524],[1.658994,41.337532],[1.658808,41.337747]]]]}},{"type":"Feature","id":"082270_082270 SI04 APE 2","properties":{"area_id":"082270_082270 SI04 APE 2","nom":"Cellers Torres","codi_icgc":"082270 SI04 APE 2","categoria":"Sector industrial","codi_municipi":"082270","municipi":"Sant Martí Sarroca","codi_comarca":"03","comarca":"Alt Penedès","provincia":"Barcelona","font":"ICGC Àrees de poblament v3r1 202602"},"geometry":{"type":"MultiPolygon","coordinates":[[[[1.628345,41.375083],[1.629076,41.374428],[1.629127,41.374384],[1.629125,41.374382],[1.62912,41.374377],[1.629137,41.374361],[1.629144,41.374369],[1.629344,41.374199],[1.629149,41.374151],[1.6291,41.374059],[1.629146,41.373933],[1.628191,41.373806],[1.628104,41.3741],[1.627997,41.374461],[1.627165,41.374355],[1.62676,41.374304],[1.626753,41.374435],[1.626771,41.374491],[1.626797,41.374572],[1.626868,41.374679],[1.626937,41.374833],[1.627011,41.375],[1.62741,41.375014],[1.627471,41.37501],[1.627542,41.374998],[1.627587,41.375003],[1.628253,41.375104],[1.628345,41.375083]]]]}},{"type":"Feature","id":"082270_082270 SI02 APE 2","properties":{"area_id":"082270_082270 SI02 APE 2","nom":"Polígon industrial Serra de Baix","codi_icgc":"082270 SI02 APE 2","categoria":"Sector industrial","codi_municipi":"082270","municipi":"Sant Martí Sarroca","codi_comarca":"03","comarca":"Alt Penedès","provincia":"Barcelona","font":"ICGC Àrees de poblament v3r1 202602"},"geometry":{"type":"MultiPolygon","coordinates":[[[[1.630374,41.380066],[1.630511,41.379842],[1.630016,41.379683],[1.630004,41.379628],[1.630029,41.379578],[1.630073,41.379509],[1.629864,41.378939],[1.629802,41.378975],[1.629753,41.379004],[1.629718,41.379025],[1.629638,41.379102],[1.629492,41.379288],[1.629377,41.379408],[1.629123,41.379633],[1.629113,41.379642],[1.629075,41.379628],[1.628944,41.379469],[1.62886,41.379358],[1.628342,41.379474],[1.627645,41.37963],[1.627841,41.379954],[1.627899,41.38005],[1.628078,41.380329],[1.628115,41.380346],[1.628165,41.380358],[1.628218,41.380364],[1.629277,41.37987],[1.629375,41.379929],[1.630095,41.380452],[1.630191,41.3804],[1.630249,41.380361],[1.630295,41.380211],[1.630374,41.380066]]],[[[1.625875,41.381485],[1.62523,41.381026],[1.625028,41.381061],[1.624936,41.381077],[1.624815,41.38112],[1.624757,41.381153],[1.624674,41.381223],[1.624628,41.381259],[1.624741,41.381334],[1.625261,41.381695],[1.625373,41.381771],[1.625411,41.381809],[1.625694,41.381621],[1.625883,41.381489],[1.625875,41.381485]]],[[[1.624817,41.382231],[1.625124,41.382048],[1.624929,41.381921],[1.624593,41.381705],[1.624424,41.38158],[1.624329,41.38151],[1.623961,41.381616],[1.623698,41.381699],[1.62353,41.381779],[1.62308,41.381995],[1.622839,41.382092],[1.62272,41.381973],[1.622475,41.381986],[1.622224,41.381987],[1.622155,41.381989],[1.622044,41.382054],[1.621913,41.382132],[1.621817,41.382187],[1.621534,41.382261],[1.621504,41.382273],[1.621714,41.382472],[1.62183,41.382557],[1.621986,41.382684],[1.622173,41.382806],[1.622345,41.382915],[1.622477,41.38303],[1.622661,41.3832],[1.622853,41.383367],[1.622985,41.383375],[1.623206,41.383256],[1.623465,41.383116],[1.623735,41.382941],[1.624326,41.382562],[1.624817,41.382231]]]]}},{"type":"Feature","id":"082270_082270 SI01 APE 2","properties":{"area_id":"082270_082270 SI01 APE 2","nom":"Polígon industrial Serra de Dalt","codi_icgc":"082270 SI01 APE 2","categoria":"Sector industrial","codi_municipi":"082270","municipi":"Sant Martí Sarroca","codi_comarca":"03","comarca":"Alt Penedès","provincia":"Barcelona","font":"ICGC Àrees de poblament v3r1 202602"},"geometry":{"type":"MultiPolygon","coordinates":[[[[1.625071,41.384197],[1.624723,41.38417],[1.624226,41.384101],[1.624226,41.384101],[1.623556,41.383996],[1.623492,41.383975],[1.62289,41.383865],[1.622851,41.383858],[1.62279,41.383851],[1.62278,41.38385],[1.622571,41.383815],[1.622526,41.383857],[1.622351,41.384227],[1.622219,41.384613],[1.622214,41.384671],[1.622213,41.384674],[1.6223,41.385026],[1.623181,41.384824],[1.623194,41.384819],[1.623201,41.384835],[1.623204,41.384834],[1.623266,41.384988],[1.623321,41.385123],[1.623327,41.385129],[1.623333,41.385135],[1.623339,41.385141],[1.623376,41.38514],[1.623409,41.385139],[1.62349,41.385135],[1.623885,41.385116],[1.624209,41.385133],[1.624509,41.385086],[1.624511,41.385088],[1.624538,41.385105],[1.624561,41.385115],[1.624599,41.385126],[1.624636,41.385134],[1.624655,41.385154],[1.62534,41.385811],[1.625356,41.385827],[1.625513,41.385806],[1.625834,41.385741],[1.625835,41.385735],[1.625842,41.385701],[1.625914,41.385344],[1.625966,41.385356],[1.626015,41.385374],[1.626061,41.385397],[1.626101,41.385424],[1.626136,41.385456],[1.626143,41.385468],[1.626164,41.385495],[1.626192,41.38552],[1.626225,41.38554],[1.626263,41.385556],[1.626303,41.385566],[1.626346,41.38557],[1.626388,41.385569],[1.62643,41.385563],[1.62647,41.38555],[1.626506,41.385533],[1.626537,41.385511],[1.626563,41.385486],[1.626582,41.385457],[1.626594,41.385426],[1.626598,41.385394],[1.626597,41.385376],[1.626588,41.385343],[1.626572,41.385313],[1.626549,41.385285],[1.62652,41.38526],[1.626486,41.38524],[1.626448,41.385224],[1.626406,41.385214],[1.626363,41.385209],[1.626319,41.38521],[1.626276,41.385216],[1.626236,41.385229],[1.626186,41.385242],[1.626134,41.38525],[1.626081,41.385253],[1.626028,41.385249],[1.625976,41.38524],[1.625766,41.385207],[1.625777,41.385141],[1.625983,41.384393],[1.625997,41.38434],[1.62563,41.384277],[1.625411,41.384242],[1.625396,41.38424],[1.625071,41.384197]]]]}},{"type":"Feature","id":"082270_082270 AP01 APE 3","properties":{"area_id":"082270_082270 AP01 APE 3","nom":"Sant Martí Sarroca","codi_icgc":"082270 AP01 APE 3","categoria":"Àrees de poblament","codi_municipi":"082270","municipi":"Sant Martí Sarroca","codi_comarca":"03","comarca":"Alt Penedès","provincia":"Barcelona","font":"ICGC Àrees de poblament v3r1 202602"},"geometry":{"type":"MultiPolygon","coordinates":[[[[1.605356,41.386054],[1.605793,41.386355],[1.605877,41.38641],[1.60631,41.386703],[1.605775,41.387145],[1.605779,41.38715],[1.605823,41.387208],[1.605842,41.387225],[1.606169,41.387625],[1.606577,41.387508],[1.606305,41.387323],[1.606616,41.387066],[1.607108,41.387447],[1.607124,41.387449],[1.607227,41.38742],[1.60725,41.387414],[1.607263,41.38739],[1.607269,41.387365],[1.607267,41.387339],[1.607257,41.387314],[1.60724,41.387291],[1.60732,41.387159],[1.607146,41.38704],[1.607054,41.386975],[1.606886,41.386863],[1.607345,41.386473],[1.607513,41.386585],[1.607616,41.386648],[1.60779,41.386766],[1.608304,41.38711],[1.608445,41.387184],[1.608511,41.387219],[1.608283,41.387286],[1.608921,41.387935],[1.609085,41.38787],[1.6091,41.387817],[1.609162,41.38787],[1.609179,41.387888],[1.609203,41.387901],[1.609229,41.387909],[1.609233,41.387909],[1.609254,41.387933],[1.609269,41.387965],[1.609297,41.388023],[1.60932,41.388072],[1.609368,41.388181],[1.609375,41.388197],[1.609836,41.388064],[1.6097,41.387796],[1.609679,41.387738],[1.610818,41.387297],[1.6111,41.387577],[1.611176,41.387549],[1.611338,41.387689],[1.610959,41.387865],[1.611115,41.388049],[1.611733,41.387799],[1.611882,41.388024],[1.612143,41.387904],[1.612198,41.387975],[1.612247,41.387955],[1.612384,41.388155],[1.612408,41.388148],[1.612454,41.388129],[1.612567,41.388106],[1.612748,41.388045],[1.612972,41.387963],[1.613074,41.387993],[1.613196,41.388037],[1.61332,41.388067],[1.613385,41.388083],[1.613546,41.388109],[1.613552,41.388076],[1.613484,41.387979],[1.613455,41.387859],[1.613098,41.387632],[1.613008,41.387622],[1.612899,41.387562],[1.612928,41.387497],[1.613057,41.387458],[1.61313,41.387465],[1.613948,41.387102],[1.61402,41.38707],[1.614157,41.387008],[1.614285,41.386944],[1.614289,41.386942],[1.614264,41.38691],[1.614236,41.386866],[1.614176,41.38677],[1.614141,41.386714],[1.614141,41.386651],[1.614384,41.386588],[1.614665,41.38653],[1.614927,41.386476],[1.615104,41.386418],[1.615603,41.386215],[1.615757,41.386422],[1.615945,41.386365],[1.616066,41.386314],[1.616131,41.386267],[1.616151,41.386224],[1.616186,41.386141],[1.616373,41.38608],[1.616339,41.386027],[1.616268,41.385893],[1.616198,41.385789],[1.61613,41.385798],[1.615994,41.385859],[1.615747,41.385972],[1.615624,41.386],[1.615551,41.385995],[1.615549,41.385985],[1.615543,41.385974],[1.615511,41.385907],[1.615257,41.385402],[1.615147,41.385182],[1.615144,41.385175],[1.615159,41.385157],[1.615168,41.385154],[1.614842,41.384742],[1.61482,41.384715],[1.614779,41.384679],[1.614664,41.384578],[1.614622,41.384541],[1.614501,41.384428],[1.614453,41.38439],[1.614428,41.384371],[1.614432,41.384363],[1.614454,41.384323],[1.614477,41.38428],[1.614494,41.384224],[1.614497,41.384167],[1.614448,41.384086],[1.614298,41.384012],[1.614259,41.384023],[1.614238,41.38402],[1.614191,41.384019],[1.614144,41.384023],[1.614098,41.384033],[1.614059,41.383989],[1.614016,41.383947],[1.613862,41.383814],[1.61388,41.383739],[1.614164,41.383562],[1.614169,41.383559],[1.614104,41.383493],[1.613659,41.383041],[1.613611,41.382991],[1.613467,41.382991],[1.6134,41.382873],[1.613193,41.382911],[1.613133,41.382894],[1.612919,41.383006],[1.61316,41.383276],[1.613163,41.38328],[1.612743,41.383459],[1.612651,41.383498],[1.612558,41.383428],[1.612464,41.383485],[1.612271,41.383466],[1.612263,41.383312],[1.612262,41.383291],[1.612262,41.383255],[1.612256,41.383264],[1.61223,41.383196],[1.612196,41.383127],[1.612148,41.383025],[1.612103,41.382923],[1.612054,41.382802],[1.61203,41.382741],[1.612023,41.382727],[1.612016,41.382718],[1.612008,41.382711],[1.611999,41.382705],[1.611988,41.3827],[1.611976,41.382697],[1.611964,41.382695],[1.611951,41.382695],[1.611935,41.382697],[1.611366,41.382777],[1.611221,41.382799],[1.61056,41.382843],[1.610547,41.382848],[1.610538,41.382851],[1.610528,41.382853],[1.610517,41.382855],[1.610463,41.38286],[1.610446,41.382862],[1.610373,41.38287],[1.610267,41.382886],[1.61011,41.382913],[1.609954,41.38294],[1.6098,41.382964],[1.609645,41.382986],[1.609454,41.383007],[1.609262,41.383024],[1.609039,41.383038],[1.608816,41.383046],[1.608608,41.383047],[1.608544,41.383046],[1.608282,41.383037],[1.608021,41.383022],[1.60776,41.383001],[1.607698,41.382995],[1.607438,41.383016],[1.607382,41.383021],[1.607279,41.382983],[1.607186,41.382988],[1.607097,41.382992],[1.606978,41.382992],[1.606915,41.382986],[1.60692,41.383009],[1.606929,41.38306],[1.606923,41.383061],[1.60698,41.383433],[1.606998,41.383431],[1.607052,41.383427],[1.607112,41.383624],[1.607119,41.383655],[1.607189,41.383646],[1.607483,41.383602],[1.607487,41.383593],[1.607498,41.383583],[1.607514,41.383578],[1.607531,41.383579],[1.607546,41.383585],[1.607556,41.383595],[1.607604,41.383719],[1.607651,41.383827],[1.607543,41.383853],[1.607349,41.383904],[1.607304,41.383912],[1.607347,41.384016],[1.607701,41.383934],[1.607733,41.384002],[1.60781,41.384155],[1.607884,41.384309],[1.607918,41.38439],[1.607925,41.384406],[1.607938,41.384435],[1.60795,41.384461],[1.607954,41.384471],[1.607962,41.384485],[1.607964,41.384494],[1.607963,41.384498],[1.60796,41.384503],[1.607955,41.384507],[1.607948,41.38451],[1.607941,41.384512],[1.607926,41.384514],[1.607886,41.38452],[1.607798,41.384532],[1.607697,41.384547],[1.607607,41.384557],[1.607531,41.384563],[1.60746,41.384565],[1.607178,41.38457],[1.606809,41.38458],[1.606766,41.384565],[1.606704,41.38455],[1.606681,41.384546],[1.60664,41.38454],[1.606574,41.384535],[1.606509,41.384536],[1.606489,41.384537],[1.606441,41.384544],[1.606396,41.384556],[1.606276,41.384628],[1.606271,41.384632],[1.606266,41.384636],[1.606072,41.384801],[1.605949,41.384903],[1.60594,41.384911],[1.60593,41.384919],[1.605851,41.384985],[1.60563,41.38517],[1.605591,41.385203],[1.605557,41.385231],[1.60553,41.385253],[1.605112,41.3856],[1.604941,41.385738],[1.604662,41.385977],[1.604612,41.386024],[1.604604,41.386043],[1.604606,41.386093],[1.60462,41.386121],[1.604841,41.386359],[1.604881,41.386367],[1.604927,41.386371],[1.604988,41.386357],[1.605356,41.386054]]]]}},{"type":"Feature","id":"082270_082270 AP12 APE 1","properties":{"area_id":"082270_082270 AP12 APE 1","nom":"el Garrofer","codi_icgc":"082270 AP12 APE 1","categoria":"Àrees de poblament","codi_municipi":"082270","municipi":"Sant Martí Sarroca","codi_comarca":"03","comarca":"Alt Penedès","provincia":"Barcelona","font":"ICGC Àrees de poblament v3r1 202602"},"geometry":{"type":"MultiPolygon","coordinates":[[[[1.644629,41.345041],[1.644631,41.344966],[1.644625,41.344916],[1.644618,41.344877],[1.644615,41.344863],[1.644611,41.344843],[1.644611,41.344842],[1.644624,41.344808],[1.64463,41.344774],[1.644638,41.344705],[1.64465,41.344663],[1.644662,41.344641],[1.644674,41.344628],[1.644688,41.344616],[1.644722,41.344596],[1.644745,41.344587],[1.644769,41.344581],[1.644866,41.344565],[1.644876,41.344564],[1.64507,41.344529],[1.64498,41.344256],[1.644682,41.344252],[1.644682,41.344253],[1.644664,41.34434],[1.64465,41.344407],[1.644637,41.344474],[1.644628,41.344502],[1.644624,41.344532],[1.644629,41.34459],[1.644633,41.344643],[1.644625,41.344657],[1.644612,41.344702],[1.644604,41.344771],[1.644598,41.344804],[1.644586,41.344836],[1.644575,41.344859],[1.644552,41.344892],[1.644538,41.344906],[1.64452,41.34492],[1.644497,41.344933],[1.644459,41.344948],[1.644418,41.344956],[1.644265,41.344972],[1.644112,41.344983],[1.643885,41.344994],[1.643657,41.345],[1.643482,41.345],[1.643307,41.344997],[1.64323,41.344995],[1.643193,41.344992],[1.643157,41.344985],[1.643104,41.344971],[1.643069,41.344962],[1.643072,41.344957],[1.643073,41.34492],[1.643073,41.344899],[1.643075,41.344845],[1.643089,41.344618],[1.643106,41.344392],[1.643115,41.344204],[1.643125,41.344017],[1.643127,41.343972],[1.64377,41.343936],[1.644143,41.343934],[1.644163,41.343889],[1.644372,41.343877],[1.644097,41.343395],[1.643395,41.343372],[1.64328,41.342555],[1.643359,41.341949],[1.643184,41.341879],[1.643161,41.341869],[1.643066,41.341947],[1.642936,41.342053],[1.642278,41.342587],[1.642296,41.342598],[1.642497,41.34272],[1.642955,41.3424],[1.642973,41.342477],[1.642994,41.342547],[1.643035,41.34266],[1.643075,41.342774],[1.643104,41.342861],[1.643132,41.342949],[1.643147,41.343019],[1.643154,41.34309],[1.643154,41.343138],[1.64315,41.343201],[1.643131,41.343417],[1.643113,41.343633],[1.643099,41.343824],[1.643087,41.344016],[1.643077,41.344203],[1.643075,41.344245],[1.643062,41.344249],[1.643036,41.344257],[1.643026,41.344259],[1.643016,41.344261],[1.643001,41.344263],[1.642916,41.344275],[1.642756,41.34429],[1.642596,41.344304],[1.642441,41.344329],[1.64244,41.34435],[1.642425,41.344685],[1.642413,41.344953],[1.642279,41.344965],[1.642254,41.345013],[1.642243,41.345187],[1.642285,41.345232],[1.642579,41.345236],[1.64288,41.345339],[1.642914,41.34554],[1.643369,41.345552],[1.644552,41.345503],[1.644566,41.345444],[1.644597,41.34528],[1.644621,41.345115],[1.644629,41.345041]]]]}},{"type":"Feature","id":"082270_082270 AP13 APE 3","properties":{"area_id":"082270_082270 AP13 APE 3","nom":"el Romaní","codi_icgc":"082270 AP13 APE 3","categoria":"Àrees de poblament","codi_municipi":"082270","municipi":"Sant Martí Sarroca","codi_comarca":"03","comarca":"Alt Penedès","provincia":"Barcelona","font":"ICGC Àrees de poblament v3r1 202602"},"geometry":{"type":"MultiPolygon","coordinates":[[[[1.623674,41.365127],[1.623064,41.364925],[1.62278,41.364948],[1.622608,41.364967],[1.622664,41.365601],[1.62341,41.365639],[1.623674,41.365127]]],[[[1.628357,41.366861],[1.628661,41.366235],[1.629247,41.366376],[1.629673,41.365675],[1.629987,41.365145],[1.630365,41.364635],[1.629648,41.364455],[1.629486,41.364818],[1.629152,41.36553],[1.62881,41.365496],[1.628365,41.36586],[1.628225,41.36605],[1.627736,41.36632],[1.627366,41.36648],[1.627035,41.366706],[1.626828,41.366757],[1.626769,41.366556],[1.626483,41.366295],[1.626504,41.365914],[1.62557,41.365817],[1.625453,41.366235],[1.626267,41.366359],[1.626128,41.366968],[1.626076,41.367098],[1.627335,41.367325],[1.62799,41.367476],[1.628087,41.367291],[1.628357,41.366861]]],[[[1.627801,41.368618],[1.627436,41.368528],[1.627213,41.368935],[1.627538,41.369131],[1.627801,41.368618]]]]}},{"type":"Feature","id":"082270_082270 AP20 APE 3","properties":{"area_id":"082270_082270 AP20 APE 3","nom":"els Hostalets","codi_icgc":"082270 AP20 APE 3","categoria":"Àrees de poblament","codi_municipi":"082270","municipi":"Sant Martí Sarroca","codi_comarca":"03","comarca":"Alt Penedès","provincia":"Barcelona","font":"ICGC Àrees de poblament v3r1 202602"},"geometry":{"type":"MultiPolygon","coordinates":[[[[1.637487,41.366599],[1.637926,41.36624],[1.638207,41.366193],[1.638504,41.366272],[1.638845,41.366326],[1.638922,41.366375],[1.639226,41.366238],[1.639465,41.366003],[1.63919,41.365823],[1.639455,41.365569],[1.639688,41.365591],[1.63981,41.365544],[1.639913,41.365436],[1.639917,41.365236],[1.63999,41.365094],[1.640073,41.365053],[1.641206,41.364486],[1.641235,41.364365],[1.64086,41.364004],[1.641835,41.363401],[1.643598,41.362996],[1.642562,41.362313],[1.642528,41.362291],[1.641439,41.363234],[1.641287,41.363247],[1.641117,41.363238],[1.64102,41.363301],[1.640835,41.363389],[1.640702,41.363407],[1.640568,41.363415],[1.640512,41.363419],[1.640299,41.363642],[1.640028,41.36389],[1.639338,41.363581],[1.639764,41.363118],[1.639697,41.362939],[1.639305,41.362754],[1.639233,41.362755],[1.638815,41.363184],[1.638315,41.362887],[1.638131,41.363079],[1.638245,41.363158],[1.638877,41.363523],[1.638673,41.36375],[1.638651,41.363778],[1.63892,41.363924],[1.638824,41.36398],[1.638351,41.364213],[1.638828,41.364457],[1.639052,41.364264],[1.639465,41.364344],[1.639532,41.364356],[1.639908,41.364587],[1.639939,41.364606],[1.639967,41.364624],[1.639935,41.364641],[1.639899,41.36466],[1.639681,41.364774],[1.639046,41.365108],[1.639014,41.365137],[1.638808,41.365326],[1.638747,41.365392],[1.638696,41.365448],[1.638672,41.365477],[1.638651,41.365508],[1.638619,41.36557],[1.638588,41.365633],[1.638559,41.365696],[1.638529,41.365759],[1.638506,41.365792],[1.638483,41.365814],[1.638403,41.365879],[1.638335,41.365935],[1.638301,41.365961],[1.638264,41.365986],[1.638158,41.366041],[1.638097,41.366073],[1.63784,41.366209],[1.63784,41.366209],[1.637703,41.366223],[1.637608,41.366261],[1.637517,41.36626],[1.637271,41.366236],[1.637113,41.366311],[1.637079,41.366402],[1.637104,41.366426],[1.637289,41.366592],[1.637292,41.366598],[1.637301,41.366616],[1.637318,41.366637],[1.637342,41.366654],[1.63736,41.366663],[1.637396,41.366678],[1.63743,41.366693],[1.637445,41.3667],[1.637523,41.366733],[1.637369,41.367062],[1.63737,41.367255],[1.637531,41.367301],[1.637853,41.367187],[1.637884,41.367176],[1.638206,41.367062],[1.638223,41.367019],[1.638093,41.366882],[1.637487,41.366599]]],[[[1.635405,41.367923],[1.635239,41.36764],[1.635189,41.367649],[1.635141,41.367654],[1.635068,41.367657],[1.634952,41.367672],[1.634842,41.367516],[1.63466,41.367606],[1.634759,41.367717],[1.634692,41.367737],[1.634644,41.367762],[1.634762,41.367954],[1.634797,41.367971],[1.634909,41.368006],[1.634961,41.368023],[1.634778,41.368421],[1.635318,41.368561],[1.635531,41.368182],[1.635566,41.368057],[1.635419,41.367947],[1.635396,41.36793],[1.635405,41.367923]]],[[[1.632534,41.37296],[1.632541,41.37294],[1.632565,41.37295],[1.632615,41.372965],[1.632664,41.37298],[1.632681,41.372988],[1.632696,41.373],[1.632723,41.373031],[1.632729,41.373038],[1.632742,41.373019],[1.632775,41.37297],[1.632963,41.372689],[1.632713,41.372536],[1.632756,41.372445],[1.632885,41.372178],[1.632933,41.372066],[1.633076,41.371739],[1.633085,41.371571],[1.633166,41.371561],[1.633208,41.371565],[1.633248,41.371265],[1.633141,41.371162],[1.633061,41.371084],[1.6329,41.37097],[1.632873,41.370952],[1.632799,41.370971],[1.632634,41.370936],[1.632582,41.370857],[1.632597,41.370756],[1.632523,41.370454],[1.632511,41.370371],[1.632482,41.370164],[1.63248,41.37013],[1.632478,41.370101],[1.63247,41.369963],[1.632402,41.369786],[1.632348,41.369715],[1.632311,41.369483],[1.632165,41.369513],[1.631928,41.369566],[1.631426,41.369636],[1.63157,41.370017],[1.632207,41.369917],[1.632109,41.370154],[1.631999,41.370424],[1.63171,41.371021],[1.631708,41.37109],[1.631734,41.371038],[1.63174,41.371024],[1.631795,41.371043],[1.631864,41.371066],[1.631907,41.371084],[1.631946,41.371107],[1.632026,41.371156],[1.632158,41.371226],[1.632288,41.371298],[1.632379,41.371353],[1.632472,41.371406],[1.632566,41.371454],[1.632654,41.371499],[1.632674,41.371564],[1.632686,41.371614],[1.632694,41.371665],[1.632691,41.371702],[1.632679,41.371759],[1.632662,41.371817],[1.632622,41.371942],[1.63258,41.372067],[1.632547,41.372149],[1.632518,41.372209],[1.632468,41.372297],[1.632413,41.372384],[1.632358,41.372455],[1.632299,41.372526],[1.632256,41.372583],[1.632238,41.372613],[1.632232,41.372628],[1.632214,41.372635],[1.63219,41.372644],[1.632138,41.372661],[1.632086,41.372676],[1.632043,41.37269],[1.632012,41.372703],[1.631968,41.372726],[1.631946,41.372741],[1.631925,41.372758],[1.631906,41.372779],[1.631885,41.372813],[1.631875,41.372848],[1.631876,41.372866],[1.631884,41.372891],[1.631902,41.372916],[1.631925,41.372933],[1.631799,41.372975],[1.631818,41.37299],[1.631945,41.372948],[1.631948,41.372951],[1.631995,41.372982],[1.632034,41.373002],[1.632053,41.373012],[1.632068,41.373023],[1.632073,41.37303],[1.632076,41.373038],[1.632078,41.373056],[1.63208,41.373066],[1.632087,41.373078],[1.632108,41.37309],[1.632137,41.373102],[1.632167,41.373112],[1.632257,41.373141],[1.632347,41.373168],[1.63238,41.373175],[1.632399,41.373174],[1.632416,41.373166],[1.632443,41.373131],[1.632464,41.373098],[1.632494,41.373049],[1.632508,41.373024],[1.63252,41.372998],[1.632534,41.37296]]],[[[1.638744,41.372394],[1.638793,41.372342],[1.638851,41.372373],[1.638918,41.37239],[1.638937,41.372378],[1.63899,41.372425],[1.639122,41.372495],[1.639156,41.372498],[1.639292,41.372449],[1.639471,41.372269],[1.639675,41.372078],[1.639943,41.372154],[1.640031,41.372184],[1.640067,41.372196],[1.640145,41.372226],[1.640164,41.372203],[1.640233,41.372032],[1.640245,41.372001],[1.640451,41.372073],[1.640686,41.372135],[1.640687,41.372135],[1.640758,41.371977],[1.640795,41.371899],[1.640833,41.37182],[1.64084,41.371813],[1.640845,41.37181],[1.640851,41.37181],[1.640892,41.37182],[1.640932,41.371829],[1.641068,41.371889],[1.641125,41.371912],[1.641119,41.371921],[1.641201,41.37195],[1.641222,41.371917],[1.641467,41.372006],[1.641571,41.371901],[1.641602,41.371875],[1.641641,41.371845],[1.64171,41.371794],[1.64171,41.371794],[1.641987,41.37156],[1.642002,41.371548],[1.642018,41.371537],[1.642024,41.371534],[1.642034,41.371529],[1.642063,41.371459],[1.642116,41.371322],[1.642157,41.371185],[1.642189,41.37119],[1.642224,41.371195],[1.642522,41.371314],[1.642645,41.371358],[1.642734,41.371206],[1.642865,41.370887],[1.642917,41.370887],[1.642959,41.370875],[1.643033,41.37089],[1.643259,41.370698],[1.643307,41.370556],[1.643119,41.370502],[1.64315,41.370404],[1.643044,41.370314],[1.642923,41.370273],[1.642735,41.370247],[1.642594,41.370208],[1.642365,41.370093],[1.642733,41.369752],[1.642413,41.369589],[1.642986,41.369159],[1.64554,41.365933],[1.645559,41.36591],[1.645322,41.365626],[1.645238,41.365525],[1.644959,41.36556],[1.644686,41.36527],[1.644125,41.365493],[1.644293,41.365952],[1.644669,41.366128],[1.644766,41.366301],[1.644724,41.366618],[1.644717,41.366673],[1.644706,41.366758],[1.644613,41.366789],[1.644551,41.366809],[1.644508,41.366823],[1.644469,41.366836],[1.644436,41.366847],[1.644312,41.366888],[1.644095,41.36696],[1.643535,41.367106],[1.643033,41.366871],[1.642701,41.367058],[1.642965,41.367748],[1.643365,41.367943],[1.642969,41.368439],[1.642954,41.368458],[1.642958,41.36846],[1.643089,41.368516],[1.643104,41.36852],[1.643126,41.36852],[1.643148,41.368516],[1.643177,41.368505],[1.643203,41.368491],[1.643226,41.368471],[1.64325,41.368438],[1.643263,41.368423],[1.64328,41.36841],[1.643294,41.368404],[1.643298,41.368403],[1.643301,41.368403],[1.643334,41.368415],[1.643352,41.368421],[1.64333,41.368451],[1.643154,41.368684],[1.642953,41.368938],[1.642883,41.369021],[1.642783,41.369128],[1.642723,41.369188],[1.64264,41.369265],[1.642591,41.36931],[1.642549,41.369298],[1.642465,41.369273],[1.642381,41.369248],[1.642333,41.369235],[1.642318,41.369254],[1.642194,41.36921],[1.642185,41.369218],[1.641953,41.369434],[1.642223,41.369605],[1.642226,41.369687],[1.642013,41.36995],[1.641884,41.370083],[1.641807,41.370162],[1.641766,41.370178],[1.641756,41.370187],[1.641724,41.370216],[1.64146,41.370349],[1.640934,41.370083],[1.640892,41.370062],[1.640619,41.370413],[1.639989,41.370133],[1.639932,41.370213],[1.639882,41.370282],[1.639881,41.370282],[1.639857,41.370286],[1.639856,41.370284],[1.639734,41.370036],[1.639368,41.370455],[1.63892,41.370078],[1.638964,41.369779],[1.639688,41.369768],[1.639706,41.36973],[1.640204,41.369493],[1.640509,41.369411],[1.641202,41.368961],[1.641212,41.36894],[1.641222,41.36892],[1.64148,41.368393],[1.640614,41.368138],[1.640296,41.368044],[1.640268,41.368035],[1.640178,41.368009],[1.640177,41.368009],[1.640089,41.368212],[1.639218,41.367999],[1.639134,41.367993],[1.638992,41.368307],[1.638985,41.368321],[1.638358,41.3697],[1.638793,41.369791],[1.638734,41.370081],[1.638729,41.370108],[1.638518,41.371146],[1.638551,41.37119],[1.638576,41.371223],[1.638901,41.371655],[1.638909,41.371665],[1.639006,41.371795],[1.63912,41.371881],[1.639082,41.371908],[1.639159,41.371971],[1.63919,41.37195],[1.639236,41.371988],[1.639209,41.372009],[1.639166,41.372033],[1.63913,41.37205],[1.639031,41.372085],[1.638835,41.372154],[1.638713,41.3722],[1.638604,41.372247],[1.638606,41.372276],[1.638482,41.372318],[1.638232,41.372465],[1.637663,41.37288],[1.637201,41.373211],[1.636975,41.373276],[1.636895,41.3733],[1.6369,41.373304],[1.636932,41.373327],[1.637437,41.373702],[1.637579,41.373807],[1.637579,41.373809],[1.637579,41.373809],[1.638319,41.373346],[1.638432,41.373239],[1.638506,41.373181],[1.638682,41.373043],[1.638731,41.373019],[1.638858,41.372957],[1.638962,41.372889],[1.638684,41.372762],[1.638928,41.372577],[1.638676,41.372459],[1.638744,41.372394]]],[[[1.638219,41.375169],[1.638112,41.375089],[1.637893,41.375153],[1.637814,41.375155],[1.637782,41.375143],[1.637772,41.375123],[1.637747,41.375048],[1.637576,41.375214],[1.637577,41.375236],[1.637706,41.375338],[1.637861,41.375432],[1.638219,41.375169]]],[[[1.638456,41.376303],[1.638712,41.376296],[1.638739,41.376299],[1.639027,41.376257],[1.639249,41.376173],[1.639466,41.37622],[1.639648,41.376286],[1.63984,41.376015],[1.639661,41.375942],[1.639511,41.375843],[1.639068,41.375902],[1.639026,41.375884],[1.639027,41.375856],[1.639048,41.375727],[1.639064,41.375678],[1.639086,41.375611],[1.639089,41.375602],[1.639104,41.375519],[1.638942,41.375427],[1.638932,41.375422],[1.638907,41.375421],[1.638897,41.375426],[1.638757,41.375491],[1.638653,41.375537],[1.638546,41.375579],[1.638519,41.375585],[1.63849,41.375588],[1.63843,41.375591],[1.63839,41.375596],[1.638368,41.3756],[1.638345,41.375605],[1.638334,41.37561],[1.638299,41.375642],[1.638312,41.375668],[1.638325,41.375692],[1.638405,41.375848],[1.638443,41.376085],[1.638445,41.376231],[1.638434,41.376304],[1.638456,41.376303]]]]}},{"type":"Feature","id":"082270_082270 AP18 APE 3","properties":{"area_id":"082270_082270 AP18 APE 3","nom":"la Bleda","codi_icgc":"082270 AP18 APE 3","categoria":"Àrees de poblament","codi_municipi":"082270","municipi":"Sant Martí Sarroca","codi_comarca":"03","comarca":"Alt Penedès","provincia":"Barcelona","font":"ICGC Àrees de poblament v3r1 202602"},"geometry":{"type":"MultiPolygon","coordinates":[[[[1.65727,41.337979],[1.657546,41.337487],[1.658046,41.337652],[1.658189,41.33759],[1.658284,41.337276],[1.658258,41.337273],[1.658233,41.33727],[1.657829,41.337223],[1.657948,41.336967],[1.657932,41.336548],[1.657644,41.336401],[1.657262,41.335911],[1.656789,41.336003],[1.656761,41.336008],[1.656754,41.33601],[1.656751,41.336153],[1.656873,41.336383],[1.656895,41.336536],[1.656762,41.336906],[1.656694,41.337096],[1.656404,41.337016],[1.656402,41.337021],[1.656374,41.337066],[1.656352,41.337101],[1.656201,41.337662],[1.656615,41.337848],[1.65727,41.337979]]],[[[1.655714,41.34009],[1.655928,41.339226],[1.655931,41.339117],[1.655931,41.339087],[1.655742,41.339106],[1.654676,41.339255],[1.654364,41.338842],[1.654316,41.33886],[1.653998,41.338448],[1.653945,41.338371],[1.653909,41.338242],[1.654075,41.338159],[1.654128,41.338158],[1.654168,41.338192],[1.654214,41.3382],[1.654254,41.338175],[1.654245,41.338127],[1.654228,41.338069],[1.654239,41.338056],[1.65434,41.338032],[1.654401,41.337909],[1.654352,41.337809],[1.65434,41.337783],[1.65426,41.337772],[1.654159,41.337737],[1.654122,41.337683],[1.653866,41.337747],[1.65375,41.3378],[1.653752,41.337824],[1.653787,41.33789],[1.653791,41.337942],[1.653764,41.337973],[1.653766,41.337999],[1.653913,41.33838],[1.653847,41.338386],[1.653819,41.338388],[1.653493,41.338661],[1.653319,41.338545],[1.653156,41.33865],[1.653275,41.338798],[1.653478,41.338716],[1.653753,41.33909],[1.65383,41.339169],[1.653876,41.339169],[1.65432,41.338941],[1.654362,41.338919],[1.654491,41.339123],[1.654661,41.339396],[1.654671,41.339414],[1.654706,41.339505],[1.654741,41.339595],[1.654783,41.33971],[1.654824,41.339827],[1.654882,41.339991],[1.654969,41.339998],[1.655033,41.340006],[1.655137,41.340019],[1.655414,41.340061],[1.655413,41.340086],[1.65556,41.340095],[1.655526,41.340188],[1.655515,41.34022],[1.655533,41.340263],[1.655585,41.340264],[1.655633,41.340253],[1.655668,41.340211],[1.655697,41.340135],[1.655714,41.34009]]],[[[1.659552,41.346656],[1.659564,41.346608],[1.659567,41.346575],[1.659567,41.346508],[1.659543,41.346454],[1.65953,41.346443],[1.659491,41.346419],[1.659449,41.346399],[1.659338,41.346349],[1.659265,41.34632],[1.659251,41.346343],[1.659249,41.34635],[1.659247,41.346357],[1.65916,41.346503],[1.659079,41.346639],[1.659076,41.346638],[1.659067,41.346635],[1.659027,41.346621],[1.658953,41.346723],[1.659015,41.346741],[1.659103,41.346766],[1.659248,41.346808],[1.659267,41.346785],[1.659311,41.346731],[1.659509,41.346665],[1.659552,41.346656]]],[[[1.659722,41.348021],[1.659778,41.347764],[1.659729,41.347697],[1.659672,41.347696],[1.659531,41.34778],[1.659436,41.347765],[1.659379,41.347778],[1.659346,41.347835],[1.659243,41.347934],[1.659165,41.348052],[1.659579,41.348224],[1.659722,41.348021]]],[[[1.653365,41.348303],[1.653604,41.348114],[1.653661,41.348138],[1.65372,41.348157],[1.65376,41.348166],[1.653861,41.348186],[1.653962,41.348205],[1.653969,41.348206],[1.653974,41.348196],[1.653977,41.348188],[1.654014,41.3481],[1.654081,41.34791],[1.654149,41.347718],[1.65423,41.347489],[1.654948,41.347627],[1.654826,41.348064],[1.655044,41.348081],[1.655044,41.348171],[1.655068,41.348172],[1.655342,41.348173],[1.65544,41.34817],[1.655661,41.347974],[1.655688,41.347944],[1.655714,41.347914],[1.655758,41.347915],[1.655797,41.347879],[1.65583,41.347838],[1.655858,41.347789],[1.655868,41.347771],[1.655903,41.347685],[1.655969,41.347472],[1.655997,41.347389],[1.656041,41.347393],[1.656219,41.34741],[1.656608,41.347449],[1.656767,41.347455],[1.656778,41.347456],[1.656804,41.347363],[1.656868,41.347001],[1.656868,41.347001],[1.656817,41.346731],[1.656919,41.346724],[1.657319,41.346697],[1.657699,41.346671],[1.657805,41.346539],[1.657857,41.346474],[1.658002,41.34626],[1.658032,41.346216],[1.658032,41.346216],[1.658136,41.346205],[1.658204,41.346198],[1.658332,41.346188],[1.658381,41.346188],[1.658429,41.346193],[1.65853,41.346209],[1.658546,41.34621],[1.65864,41.346217],[1.658547,41.346102],[1.658375,41.34593],[1.658245,41.34583],[1.658121,41.345735],[1.658042,41.345728],[1.658028,41.34572],[1.657506,41.345749],[1.657443,41.345619],[1.656876,41.345101],[1.65673,41.345183],[1.656675,41.345165],[1.656609,41.345144],[1.656482,41.345243],[1.656444,41.345273],[1.656424,41.345289],[1.65646,41.345338],[1.656573,41.345494],[1.656499,41.345507],[1.656469,41.345512],[1.656474,41.345544],[1.656536,41.345902],[1.656089,41.345995],[1.65566,41.346008],[1.655676,41.346311],[1.655535,41.346322],[1.654948,41.34581],[1.654829,41.345707],[1.654702,41.345616],[1.65467,41.345597],[1.654636,41.345579],[1.654605,41.345566],[1.654567,41.345559],[1.65454,41.345563],[1.6545,41.345579],[1.654466,41.345596],[1.654424,41.345618],[1.654383,41.345642],[1.654351,41.345663],[1.65432,41.345684],[1.654317,41.345686],[1.654017,41.345494],[1.653733,41.345385],[1.653978,41.345071],[1.653707,41.344939],[1.653975,41.344669],[1.654036,41.344695],[1.654142,41.344739],[1.654286,41.344523],[1.654294,41.344511],[1.654289,41.344499],[1.654246,41.344481],[1.654002,41.344381],[1.654331,41.344097],[1.654372,41.344063],[1.654421,41.344017],[1.654447,41.344001],[1.654526,41.343953],[1.654671,41.343864],[1.655027,41.344007],[1.655488,41.344193],[1.655489,41.344193],[1.655498,41.344183],[1.655625,41.34404],[1.655638,41.344048],[1.656134,41.34439],[1.656159,41.344402],[1.656378,41.344363],[1.656414,41.34435],[1.656448,41.344339],[1.656469,41.344331],[1.656453,41.344229],[1.656445,41.344199],[1.656422,41.344115],[1.656368,41.343948],[1.656318,41.343805],[1.65631,41.34378],[1.656309,41.343777],[1.656288,41.343761],[1.656623,41.343738],[1.656685,41.343674],[1.656668,41.343538],[1.656667,41.34353],[1.656664,41.34351],[1.656664,41.343509],[1.656786,41.343492],[1.656841,41.343217],[1.656245,41.343183],[1.656261,41.343017],[1.656276,41.342871],[1.656342,41.342624],[1.656361,41.342625],[1.656389,41.342626],[1.656395,41.34263],[1.656706,41.342714],[1.656729,41.342637],[1.656755,41.342638],[1.656802,41.342359],[1.656811,41.342308],[1.656458,41.34227],[1.65649,41.342089],[1.657205,41.342124],[1.657392,41.34224],[1.65745,41.342136],[1.657488,41.342138],[1.65754,41.342082],[1.657486,41.341624],[1.657555,41.341338],[1.65788,41.340932],[1.65817,41.340326],[1.658388,41.339585],[1.6579,41.339321],[1.658126,41.338995],[1.658138,41.338979],[1.658485,41.338478],[1.658349,41.338412],[1.658328,41.338402],[1.65791,41.338206],[1.657656,41.338299],[1.657398,41.338515],[1.657377,41.338564],[1.657383,41.338737],[1.657409,41.338978],[1.657628,41.338957],[1.657663,41.338953],[1.657741,41.338945],[1.657817,41.33894],[1.657867,41.338942],[1.657935,41.338952],[1.657968,41.338957],[1.657979,41.338958],[1.657977,41.338961],[1.657944,41.338998],[1.657901,41.339046],[1.657873,41.33908],[1.657847,41.339115],[1.65782,41.339153],[1.657794,41.339192],[1.657745,41.339275],[1.657699,41.339358],[1.657609,41.339529],[1.657523,41.339701],[1.657416,41.339928],[1.657312,41.340154],[1.65722,41.340359],[1.657129,41.340564],[1.657061,41.34073],[1.656992,41.340896],[1.656982,41.340917],[1.656961,41.340949],[1.656935,41.340978],[1.656893,41.341021],[1.65685,41.341064],[1.656761,41.341157],[1.656702,41.34122],[1.656291,41.34114],[1.655882,41.341054],[1.655877,41.341066],[1.6558,41.341435],[1.656038,41.341481],[1.656311,41.341537],[1.656535,41.341583],[1.656535,41.341583],[1.656449,41.341964],[1.65638,41.34227],[1.656184,41.342233],[1.655912,41.342196],[1.655002,41.342067],[1.655035,41.341906],[1.655068,41.341745],[1.654697,41.341681],[1.654434,41.341895],[1.654395,41.341995],[1.654385,41.34202],[1.654202,41.342496],[1.654056,41.343109],[1.654147,41.343131],[1.65454,41.343225],[1.654506,41.343251],[1.654492,41.343262],[1.654467,41.343281],[1.654305,41.343406],[1.653895,41.343826],[1.653892,41.343824],[1.653875,41.343816],[1.653866,41.343811],[1.65381,41.343876],[1.653797,41.343898],[1.653789,41.343923],[1.653788,41.343936],[1.653784,41.343977],[1.653783,41.343977],[1.653591,41.344164],[1.653386,41.344397],[1.653383,41.3444],[1.65329,41.344551],[1.653271,41.344584],[1.65307,41.344496],[1.652972,41.34462],[1.652547,41.344431],[1.652375,41.344674],[1.652313,41.344763],[1.652216,41.344903],[1.652203,41.344922],[1.652062,41.345111],[1.652081,41.345119],[1.65275,41.345409],[1.652464,41.345644],[1.652372,41.345716],[1.652365,41.345721],[1.652361,41.345723],[1.652354,41.345726],[1.652344,41.345727],[1.652337,41.345728],[1.65233,41.345726],[1.652321,41.345723],[1.652065,41.3456],[1.652043,41.345643],[1.652035,41.345659],[1.651665,41.346376],[1.651656,41.346393],[1.651374,41.346366],[1.651356,41.346385],[1.651118,41.346631],[1.651118,41.346632],[1.651306,41.346741],[1.65149,41.346804],[1.651528,41.346765],[1.65181,41.346891],[1.651836,41.346902],[1.651951,41.346771],[1.652087,41.346617],[1.652087,41.346616],[1.652386,41.346719],[1.652336,41.346815],[1.652485,41.346861],[1.652738,41.346942],[1.652765,41.346952],[1.652763,41.346962],[1.652761,41.346969],[1.652757,41.346981],[1.652751,41.346992],[1.652659,41.34711],[1.652516,41.347284],[1.652372,41.347457],[1.652183,41.347688],[1.652112,41.347775],[1.652007,41.347913],[1.651988,41.347925],[1.651843,41.348022],[1.651638,41.348159],[1.651318,41.348376],[1.651108,41.348178],[1.651056,41.348212],[1.650781,41.348394],[1.65098,41.348573],[1.650988,41.34858],[1.651014,41.348603],[1.651199,41.348489],[1.651534,41.34828],[1.651558,41.348265],[1.65159,41.348246],[1.651646,41.348284],[1.651657,41.348291],[1.651966,41.348568],[1.651983,41.348557],[1.652337,41.34833],[1.652285,41.348287],[1.652306,41.34828],[1.652327,41.348274],[1.65234,41.348274],[1.652352,41.348279],[1.65237,41.34829],[1.652389,41.3483],[1.652457,41.348359],[1.652526,41.348417],[1.652626,41.348507],[1.652774,41.348643],[1.652921,41.34878],[1.653072,41.348915],[1.653147,41.348982],[1.653152,41.348987],[1.653172,41.348974],[1.653662,41.348663],[1.653714,41.34863],[1.653686,41.348598],[1.653365,41.348303]]],[[[1.652834,41.350707],[1.652741,41.350668],[1.652728,41.350684],[1.652532,41.350908],[1.652531,41.350961],[1.652554,41.350997],[1.652648,41.351046],[1.65275,41.351065],[1.652829,41.351096],[1.652938,41.351129],[1.653188,41.350927],[1.653208,41.350914],[1.653203,41.350911],[1.653048,41.350825],[1.652894,41.350738],[1.652834,41.350707]]],[[[1.650712,41.351615],[1.651099,41.351381],[1.651277,41.351226],[1.651418,41.351258],[1.651504,41.351289],[1.651582,41.351346],[1.651632,41.351346],[1.651713,41.35129],[1.651703,41.351238],[1.651567,41.351127],[1.651543,41.351111],[1.651414,41.35117],[1.651248,41.351095],[1.651185,41.351071],[1.65105,41.351093],[1.650876,41.351085],[1.650703,41.351053],[1.650445,41.351052],[1.650222,41.350918],[1.650117,41.350991],[1.650113,41.350991],[1.650105,41.350991],[1.650095,41.35099],[1.650088,41.350987],[1.65008,41.350983],[1.650059,41.350964],[1.650041,41.350977],[1.649869,41.351104],[1.649837,41.351159],[1.650401,41.351572],[1.650548,41.351491],[1.650712,41.351615]]],[[[1.655148,41.351304],[1.655874,41.350574],[1.656394,41.350699],[1.656181,41.350884],[1.657072,41.351339],[1.657219,41.351224],[1.657129,41.351127],[1.657203,41.351028],[1.657215,41.351016],[1.65723,41.351007],[1.657264,41.350993],[1.65728,41.350993],[1.657296,41.350993],[1.657305,41.350989],[1.657312,41.350983],[1.657311,41.350973],[1.657302,41.350964],[1.657269,41.350941],[1.657235,41.350919],[1.657199,41.350897],[1.657163,41.350875],[1.657113,41.350851],[1.657063,41.350829],[1.65696,41.350792],[1.656859,41.350758],[1.656756,41.350727],[1.656685,41.35071],[1.656524,41.350675],[1.656362,41.350641],[1.656259,41.350616],[1.656362,41.350451],[1.656415,41.350368],[1.656782,41.349969],[1.656595,41.349898],[1.656931,41.349625],[1.65739,41.349138],[1.657656,41.349296],[1.657988,41.349074],[1.658006,41.349061],[1.658041,41.349038],[1.65814,41.348813],[1.657854,41.348612],[1.657755,41.348567],[1.657675,41.348619],[1.657554,41.348696],[1.657549,41.348731],[1.656867,41.349113],[1.656709,41.349201],[1.656631,41.349253],[1.656226,41.349518],[1.656125,41.349584],[1.656084,41.349611],[1.655443,41.350009],[1.655402,41.350046],[1.65539,41.350057],[1.655147,41.350211],[1.655074,41.350264],[1.655099,41.350275],[1.655134,41.350291],[1.655491,41.350454],[1.654981,41.350918],[1.65483,41.350875],[1.65481,41.350875],[1.65479,41.350878],[1.654756,41.350895],[1.654672,41.350936],[1.654587,41.350948],[1.654553,41.350989],[1.654509,41.351042],[1.65452,41.351045],[1.65457,41.351061],[1.654618,41.351082],[1.654656,41.351106],[1.654688,41.351134],[1.65472,41.351166],[1.654808,41.351307],[1.654703,41.351418],[1.654682,41.351459],[1.654717,41.351565],[1.654745,41.351662],[1.654996,41.351743],[1.655154,41.351793],[1.655312,41.351759],[1.655458,41.351582],[1.655382,41.351426],[1.655148,41.351304]]],[[[1.651871,41.355415],[1.651776,41.354972],[1.651823,41.354866],[1.65183,41.354809],[1.651833,41.35478],[1.651802,41.354735],[1.651785,41.354714],[1.651759,41.354712],[1.651749,41.354724],[1.651734,41.354744],[1.651632,41.354869],[1.651527,41.354992],[1.651284,41.354965],[1.65116,41.355044],[1.651192,41.355203],[1.651284,41.355335],[1.651361,41.355407],[1.651424,41.355432],[1.651471,41.355468],[1.65159,41.355469],[1.651732,41.355441],[1.651871,41.355415]]],[[[1.642407,41.35482],[1.642378,41.354786],[1.642236,41.354854],[1.642009,41.354966],[1.641876,41.355035],[1.641746,41.355106],[1.641661,41.355156],[1.641336,41.355357],[1.641203,41.355439],[1.641228,41.355477],[1.641507,41.3559],[1.641735,41.35598],[1.642123,41.356711],[1.64229,41.356671],[1.642633,41.356509],[1.64277,41.356397],[1.642962,41.356268],[1.643059,41.356174],[1.643118,41.356002],[1.643112,41.355913],[1.643057,41.355882],[1.642915,41.355875],[1.642407,41.35482]]],[[[1.650133,41.355524],[1.650112,41.35541],[1.650018,41.355308],[1.650015,41.355241],[1.64949,41.35526],[1.64929,41.354691],[1.648771,41.354477],[1.648686,41.354381],[1.648555,41.354206],[1.648566,41.354081],[1.648647,41.353987],[1.648731,41.353965],[1.648878,41.353883],[1.648974,41.353872],[1.649203,41.353874],[1.649267,41.353839],[1.649418,41.3538],[1.649742,41.353791],[1.649868,41.353829],[1.650025,41.353878],[1.650222,41.35391],[1.650435,41.353931],[1.650505,41.353985],[1.650536,41.354033],[1.650543,41.354087],[1.650533,41.354111],[1.650493,41.354205],[1.650984,41.354302],[1.651084,41.354074],[1.651094,41.354054],[1.651091,41.354053],[1.651042,41.354042],[1.650994,41.35403],[1.650971,41.354022],[1.65095,41.354012],[1.65091,41.353987],[1.650883,41.353961],[1.650865,41.353932],[1.650851,41.353892],[1.650841,41.353851],[1.650831,41.353793],[1.650824,41.353736],[1.650819,41.353679],[1.650818,41.353622],[1.650823,41.353535],[1.650832,41.353447],[1.65084,41.353392],[1.651069,41.353473],[1.651258,41.353511],[1.651652,41.353222],[1.651337,41.35296],[1.651808,41.352717],[1.651866,41.352779],[1.651913,41.35283],[1.652009,41.352933],[1.652404,41.352968],[1.652474,41.352973],[1.652476,41.352974],[1.652599,41.352587],[1.6526,41.352503],[1.6526,41.352467],[1.652578,41.352394],[1.652514,41.352181],[1.652513,41.352167],[1.652487,41.352158],[1.652485,41.35216],[1.652374,41.352277],[1.652259,41.352393],[1.652202,41.352446],[1.652172,41.35247],[1.65214,41.352492],[1.652069,41.352532],[1.652007,41.352567],[1.651998,41.352572],[1.651839,41.352657],[1.651681,41.352742],[1.651444,41.352864],[1.651207,41.352986],[1.651168,41.353007],[1.651033,41.353081],[1.650779,41.353228],[1.650525,41.353375],[1.650286,41.353508],[1.650042,41.353635],[1.650009,41.353649],[1.649958,41.353667],[1.649903,41.35368],[1.649845,41.353688],[1.649788,41.353689],[1.649619,41.353678],[1.649449,41.353667],[1.649278,41.353659],[1.649106,41.353653],[1.649024,41.353648],[1.648901,41.353638],[1.64878,41.353623],[1.648721,41.353605],[1.648631,41.353433],[1.648398,41.353488],[1.64831,41.353503],[1.648186,41.353524],[1.647781,41.353589],[1.64754,41.353638],[1.647355,41.353671],[1.647176,41.353703],[1.647029,41.353743],[1.646883,41.353786],[1.64678,41.35382],[1.646628,41.353875],[1.646622,41.353877],[1.646474,41.353927],[1.646415,41.353944],[1.646391,41.353949],[1.646392,41.353979],[1.646399,41.354046],[1.646495,41.354146],[1.646925,41.354277],[1.647278,41.354442],[1.647801,41.35474],[1.647973,41.354861],[1.648192,41.354941],[1.648367,41.354931],[1.648541,41.354909],[1.648706,41.354965],[1.648734,41.355144],[1.648724,41.355233],[1.648643,41.35532],[1.648546,41.355424],[1.648098,41.355415],[1.647645,41.355419],[1.64743,41.355438],[1.647362,41.355444],[1.647343,41.355441],[1.647323,41.355433],[1.647294,41.355419],[1.647242,41.355361],[1.647187,41.355303],[1.647166,41.355283],[1.647138,41.355262],[1.647088,41.355232],[1.647028,41.355172],[1.647029,41.355045],[1.647016,41.355035],[1.646583,41.354913],[1.646446,41.354874],[1.64639,41.354926],[1.646263,41.35496],[1.64619,41.355019],[1.646152,41.355096],[1.646069,41.355169],[1.645905,41.355316],[1.645804,41.355458],[1.645325,41.355834],[1.645248,41.355838],[1.645183,41.355919],[1.645186,41.355924],[1.645234,41.355969],[1.645408,41.356132],[1.645511,41.356211],[1.645531,41.356227],[1.645575,41.356187],[1.645642,41.356127],[1.645685,41.356086],[1.645748,41.356016],[1.645808,41.355946],[1.645853,41.355902],[1.645888,41.355871],[1.645905,41.355857],[1.645922,41.355841],[1.646022,41.355771],[1.646121,41.355702],[1.646187,41.355657],[1.646257,41.355614],[1.646402,41.355535],[1.646502,41.355485],[1.64668,41.355399],[1.646858,41.355314],[1.646927,41.355281],[1.646995,41.355249],[1.647016,41.355243],[1.64704,41.355243],[1.647055,41.355245],[1.647074,41.355251],[1.647111,41.355273],[1.647145,41.355298],[1.647164,41.355316],[1.647218,41.355374],[1.647271,41.355432],[1.647313,41.355469],[1.647372,41.355513],[1.647431,41.355558],[1.647494,41.355612],[1.647555,41.355669],[1.647592,41.355708],[1.647676,41.355805],[1.647758,41.355904],[1.647816,41.355969],[1.647938,41.356093],[1.648063,41.356216],[1.648105,41.356256],[1.648145,41.356296],[1.648165,41.356324],[1.648174,41.356343],[1.648178,41.356353],[1.648157,41.356368],[1.648138,41.356385],[1.648165,41.356404],[1.648254,41.356468],[1.648315,41.356576],[1.648385,41.356666],[1.648383,41.356749],[1.648461,41.356798],[1.648587,41.356841],[1.648775,41.356897],[1.648981,41.356899],[1.649235,41.357022],[1.649739,41.356675],[1.649793,41.356353],[1.649308,41.356121],[1.649713,41.355626],[1.64975,41.355588],[1.650101,41.355571],[1.650133,41.355524]]]]}},{"type":"Feature","id":"082270_082270 AP11 APE 3","properties":{"area_id":"082270_082270 AP11 APE 3","nom":"la Fassina","codi_icgc":"082270 AP11 APE 3","categoria":"Àrees de poblament","codi_municipi":"082270","municipi":"Sant Martí Sarroca","codi_comarca":"03","comarca":"Alt Penedès","provincia":"Barcelona","font":"ICGC Àrees de poblament v3r1 202602"},"geometry":{"type":"MultiPolygon","coordinates":[[[[1.617296,41.379941],[1.617545,41.380062],[1.6176,41.380137],[1.6176,41.380151],[1.617625,41.380355],[1.617654,41.380425],[1.617629,41.380479],[1.617566,41.380557],[1.617569,41.380611],[1.617592,41.380632],[1.617635,41.380673],[1.617661,41.380697],[1.61771,41.380712],[1.617784,41.380734],[1.617858,41.380753],[1.617909,41.380758],[1.618023,41.380756],[1.618137,41.380753],[1.618255,41.380761],[1.618373,41.380765],[1.618398,41.380756],[1.61842,41.380744],[1.618464,41.380718],[1.618505,41.380702],[1.618547,41.380692],[1.618564,41.380698],[1.618579,41.380708],[1.6186,41.380735],[1.618608,41.380757],[1.618614,41.380772],[1.618611,41.380776],[1.618593,41.3808],[1.618571,41.380846],[1.618562,41.380864],[1.618561,41.380866],[1.618548,41.380873],[1.618464,41.381001],[1.618571,41.381157],[1.618723,41.381159],[1.619211,41.380972],[1.619268,41.380872],[1.619284,41.380845],[1.619329,41.380766],[1.619332,41.380637],[1.619333,41.380573],[1.618733,41.38051],[1.618725,41.380478],[1.618713,41.380479],[1.618471,41.380477],[1.61832,41.380446],[1.618067,41.380315],[1.618052,41.380121],[1.61814,41.379987],[1.61844,41.379914],[1.618428,41.379826],[1.618432,41.379668],[1.618433,41.379618],[1.618122,41.379493],[1.617958,41.379473],[1.617177,41.379603],[1.616622,41.379781],[1.616623,41.379846],[1.616658,41.37996],[1.617012,41.379923],[1.617296,41.379941]]]]}},{"type":"Feature","id":"082270_082270 AP04 APE 3","properties":{"area_id":"082270_082270 AP04 APE 3","nom":"la Roca","codi_icgc":"082270 AP04 APE 3","categoria":"Àrees de poblament","codi_municipi":"082270","municipi":"Sant Martí Sarroca","codi_comarca":"03","comarca":"Alt Penedès","provincia":"Barcelona","font":"ICGC Àrees de poblament v3r1 202602"},"geometry":{"type":"MultiPolygon","coordinates":[[[[1.608416,41.382036],[1.608571,41.382005],[1.608659,41.382108],[1.608816,41.382155],[1.609349,41.382184],[1.60955,41.382161],[1.609563,41.382142],[1.609617,41.382063],[1.609673,41.381985],[1.609878,41.381761],[1.609996,41.381688],[1.61029,41.381588],[1.610796,41.38141],[1.610907,41.381381],[1.610935,41.381369],[1.611038,41.381311],[1.611171,41.381226],[1.611192,41.381214],[1.611252,41.38129],[1.611275,41.381306],[1.611311,41.381329],[1.611429,41.381288],[1.611575,41.381237],[1.611787,41.381159],[1.61176,41.38113],[1.611684,41.381046],[1.611906,41.380929],[1.612148,41.3808],[1.61216,41.380793],[1.612288,41.38073],[1.61228,41.380746],[1.612278,41.380764],[1.612285,41.38078],[1.612298,41.380795],[1.612302,41.380798],[1.612333,41.380838],[1.612362,41.380884],[1.612373,41.380908],[1.612378,41.380932],[1.612367,41.381023],[1.612342,41.381115],[1.612321,41.381176],[1.612342,41.381177],[1.612354,41.381177],[1.612374,41.381161],[1.61236,41.381203],[1.612681,41.381075],[1.613302,41.380821],[1.613473,41.380789],[1.613779,41.380709],[1.613949,41.380665],[1.614297,41.380574],[1.61432,41.38057],[1.614416,41.380556],[1.614493,41.380525],[1.614537,41.380487],[1.61454,41.38045],[1.614503,41.380412],[1.614291,41.380277],[1.614109,41.380264],[1.613858,41.380239],[1.613392,41.380203],[1.613327,41.380179],[1.6133,41.380177],[1.613239,41.380173],[1.613209,41.380172],[1.613163,41.380166],[1.613163,41.380166],[1.612984,41.380107],[1.612978,41.380123],[1.612912,41.380109],[1.612708,41.380082],[1.612572,41.380053],[1.612533,41.380068],[1.612326,41.380117],[1.612284,41.380148],[1.612167,41.380232],[1.611793,41.380163],[1.611675,41.380046],[1.611685,41.38003],[1.611607,41.380004],[1.611515,41.379971],[1.611333,41.379932],[1.611102,41.380044],[1.610949,41.380118],[1.610731,41.380258],[1.610602,41.380362],[1.610374,41.380388],[1.610071,41.380327],[1.609982,41.380414],[1.609806,41.380518],[1.609505,41.380516],[1.60932,41.380626],[1.609286,41.380637],[1.609251,41.380649],[1.609211,41.380672],[1.609179,41.380702],[1.609161,41.380719],[1.609149,41.380737],[1.609143,41.380764],[1.609137,41.380791],[1.60905,41.380749],[1.60894,41.380685],[1.608934,41.380682],[1.608813,41.380583],[1.60879,41.380582],[1.608712,41.38058],[1.608687,41.380604],[1.608696,41.380632],[1.60868,41.380663],[1.608544,41.380934],[1.608499,41.380974],[1.608397,41.38103],[1.608441,41.381089],[1.608388,41.381092],[1.60838,41.381093],[1.608337,41.381095],[1.608296,41.381138],[1.608232,41.381184],[1.60807,41.381262],[1.608069,41.381263],[1.608018,41.381287],[1.607856,41.381317],[1.607739,41.381315],[1.607619,41.381253],[1.60742,41.381273],[1.607331,41.381258],[1.607207,41.381232],[1.607085,41.381201],[1.60706,41.381194],[1.606941,41.381161],[1.60682,41.381134],[1.606323,41.381028],[1.606143,41.380962],[1.606021,41.380963],[1.605966,41.380963],[1.605766,41.381238],[1.605765,41.381239],[1.605686,41.381209],[1.60562,41.381212],[1.605261,41.381289],[1.605204,41.381301],[1.605176,41.381347],[1.605177,41.381411],[1.605113,41.381503],[1.6051,41.381519],[1.60486,41.381831],[1.604845,41.381843],[1.604854,41.381851],[1.604844,41.381882],[1.60508,41.381913],[1.605113,41.381908],[1.605144,41.381898],[1.605171,41.381883],[1.605188,41.381869],[1.605357,41.381672],[1.6054,41.381632],[1.60554,41.381689],[1.60556,41.3817],[1.605649,41.381751],[1.605762,41.381808],[1.605795,41.381823],[1.605879,41.381861],[1.605995,41.381906],[1.606049,41.381935],[1.606098,41.381969],[1.606139,41.382002],[1.606195,41.381993],[1.606251,41.381989],[1.606309,41.381992],[1.606365,41.381999],[1.606419,41.382012],[1.606468,41.382029],[1.606533,41.382051],[1.606601,41.382067],[1.606671,41.382078],[1.606742,41.382083],[1.606814,41.382083],[1.606844,41.382077],[1.606904,41.382065],[1.606992,41.382041],[1.607077,41.382012],[1.607079,41.382011],[1.607118,41.382052],[1.607204,41.382147],[1.60722,41.382171],[1.607315,41.382309],[1.607581,41.382212],[1.607594,41.382209],[1.607782,41.382164],[1.607854,41.382146],[1.607939,41.38213],[1.607948,41.382128],[1.608113,41.382096],[1.608138,41.382091],[1.608309,41.382058],[1.608317,41.382056],[1.608416,41.382036]]]]}},{"type":"Feature","id":"082270_082270 AP03 APE 3","properties":{"area_id":"082270_082270 AP03 APE 3","nom":"la Rovira Roja","codi_icgc":"082270 AP03 APE 3","categoria":"Àrees de poblament","codi_municipi":"082270","municipi":"Sant Martí Sarroca","codi_comarca":"03","comarca":"Alt Penedès","provincia":"Barcelona","font":"ICGC Àrees de poblament v3r1 202602"},"geometry":{"type":"MultiPolygon","coordinates":[[[[1.640172,41.406068],[1.640484,41.406049],[1.640715,41.406084],[1.640916,41.406114],[1.640975,41.406368],[1.640994,41.406389],[1.641616,41.406369],[1.641564,41.405928],[1.641816,41.405903],[1.641816,41.405476],[1.641042,41.405524],[1.640995,41.405371],[1.640125,41.405407],[1.640119,41.405728],[1.640079,41.405865],[1.639582,41.40574],[1.639328,41.405663],[1.639323,41.405315],[1.63931,41.405127],[1.638282,41.40491],[1.638211,41.404662],[1.638491,41.404589],[1.638547,41.404571],[1.638672,41.404399],[1.638835,41.404199],[1.638767,41.403951],[1.638134,41.403906],[1.638135,41.403273],[1.638185,41.402659],[1.63855,41.402682],[1.638573,41.402168],[1.638085,41.402199],[1.637985,41.402251],[1.637933,41.402218],[1.637743,41.402216],[1.63759,41.402271],[1.637551,41.402318],[1.637522,41.402499],[1.637591,41.402909],[1.637494,41.403064],[1.637203,41.403186],[1.637387,41.403508],[1.637445,41.40366],[1.637478,41.403833],[1.637474,41.404018],[1.637489,41.404107],[1.637996,41.404077],[1.637994,41.404154],[1.638037,41.404536],[1.638089,41.404647],[1.638103,41.404678],[1.638151,41.404833],[1.638338,41.405212],[1.63814,41.405375],[1.638014,41.405584],[1.637211,41.405578],[1.637289,41.406076],[1.637893,41.406217],[1.637973,41.405802],[1.638443,41.40603],[1.638414,41.406259],[1.638499,41.406277],[1.639059,41.406284],[1.639086,41.406752],[1.639245,41.406736],[1.639261,41.407112],[1.639593,41.407146],[1.639678,41.407163],[1.639893,41.407208],[1.640095,41.407651],[1.640625,41.407689],[1.640623,41.407426],[1.640116,41.40742],[1.640033,41.407277],[1.639919,41.407084],[1.639873,41.407],[1.639804,41.406797],[1.639811,41.40644],[1.64008,41.406415],[1.640172,41.406068]]]]}},{"type":"Feature","id":"082270_082270 AP06 APE 3","properties":{"area_id":"082270_082270 AP06 APE 3","nom":"la Serra de Baix","codi_icgc":"082270 AP06 APE 3","categoria":"Àrees de poblament","codi_municipi":"082270","municipi":"Sant Martí Sarroca","codi_comarca":"03","comarca":"Alt Penedès","provincia":"Barcelona","font":"ICGC Àrees de poblament v3r1 202602"},"geometry":{"type":"MultiPolygon","coordinates":[[[[1.625218,41.382114],[1.62538,41.382211],[1.625871,41.382555],[1.62613,41.38273],[1.625891,41.382822],[1.625966,41.383244],[1.625966,41.383245],[1.625271,41.383497],[1.62541,41.383771],[1.625647,41.383769],[1.625706,41.383747],[1.625835,41.383699],[1.626031,41.383669],[1.62607,41.383928],[1.626304,41.383907],[1.62637,41.383907],[1.627127,41.383879],[1.627132,41.383879],[1.627141,41.383919],[1.62734,41.383896],[1.627359,41.383829],[1.627417,41.383809],[1.627443,41.383851],[1.627567,41.383807],[1.627613,41.383789],[1.627669,41.383768],[1.627651,41.383734],[1.627595,41.383631],[1.627569,41.383592],[1.627659,41.383563],[1.627566,41.383391],[1.627403,41.383429],[1.627242,41.383348],[1.627202,41.383259],[1.627015,41.383326],[1.627009,41.383279],[1.628724,41.382744],[1.628773,41.382728],[1.628959,41.382484],[1.628982,41.382461],[1.628971,41.382456],[1.628973,41.382452],[1.628977,41.382432],[1.628974,41.382411],[1.628949,41.382357],[1.628921,41.382304],[1.628888,41.382246],[1.628854,41.382187],[1.628796,41.382075],[1.62874,41.381962],[1.628732,41.381948],[1.62873,41.381944],[1.628679,41.381845],[1.6287,41.38181],[1.628702,41.381807],[1.628593,41.38156],[1.628587,41.381551],[1.628301,41.381051],[1.628125,41.380743],[1.628065,41.380636],[1.628039,41.380604],[1.628011,41.38057],[1.627999,41.38059],[1.627974,41.380587],[1.627945,41.38059],[1.627919,41.380598],[1.627908,41.380603],[1.627444,41.380817],[1.627147,41.380955],[1.626741,41.381144],[1.626355,41.381345],[1.626194,41.381447],[1.626113,41.381498],[1.625968,41.38159],[1.625742,41.381748],[1.625455,41.38194],[1.625218,41.382114]]]]}},{"type":"Feature","id":"082270_082270 AP17 APE 3","properties":{"area_id":"082270_082270 AP17 APE 3","nom":"la Serra de Dalt","codi_icgc":"082270 AP17 APE 3","categoria":"Àrees de poblament","codi_municipi":"082270","municipi":"Sant Martí Sarroca","codi_comarca":"03","comarca":"Alt Penedès","provincia":"Barcelona","font":"ICGC Àrees de poblament v3r1 202602"},"geometry":{"type":"MultiPolygon","coordinates":[[[[1.616166,41.387243],[1.616173,41.387173],[1.616172,41.387159],[1.616161,41.387146],[1.616136,41.387138],[1.616098,41.38714],[1.616059,41.387146],[1.615931,41.38716],[1.615802,41.387172],[1.615719,41.387172],[1.615636,41.387164],[1.615591,41.387149],[1.615546,41.387134],[1.615487,41.387128],[1.615477,41.387128],[1.615427,41.387129],[1.61535,41.38714],[1.615272,41.387154],[1.615248,41.387157],[1.615238,41.38716],[1.615184,41.387038],[1.615119,41.386889],[1.615083,41.386806],[1.614899,41.38687],[1.614688,41.386935],[1.614585,41.386971],[1.614431,41.387015],[1.614207,41.387092],[1.613649,41.387341],[1.613603,41.387362],[1.613227,41.387529],[1.613212,41.387589],[1.613553,41.387803],[1.61367,41.388023],[1.613692,41.388054],[1.613651,41.388128],[1.613683,41.38817],[1.613683,41.388184],[1.613708,41.388206],[1.61373,41.388237],[1.613756,41.388277],[1.613999,41.388643],[1.614005,41.38865],[1.614011,41.388658],[1.614016,41.388663],[1.614021,41.388667],[1.614027,41.388672],[1.614034,41.388678],[1.614041,41.388682],[1.614048,41.388687],[1.614061,41.388693],[1.614067,41.388695],[1.614082,41.3887],[1.6141,41.388704],[1.614109,41.388706],[1.614117,41.388707],[1.614126,41.388708],[1.61414,41.388708],[1.614155,41.388707],[1.614172,41.388705],[1.614199,41.388701],[1.614305,41.388683],[1.614335,41.388678],[1.614344,41.388677],[1.614671,41.388624],[1.614739,41.388602],[1.614981,41.388528],[1.615224,41.388453],[1.615407,41.388393],[1.615589,41.388329],[1.615704,41.388289],[1.615817,41.388244],[1.615891,41.388208],[1.615969,41.388161],[1.616044,41.388113],[1.616185,41.388022],[1.616191,41.387962],[1.616197,41.387899],[1.616192,41.387856],[1.616186,41.387808],[1.61618,41.387738],[1.616172,41.387622],[1.616163,41.387506],[1.616163,41.3875],[1.61616,41.38741],[1.61616,41.387314],[1.616166,41.387243]]]]}},{"type":"Feature","id":"082270_082270 AP14 APE 3","properties":{"area_id":"082270_082270 AP14 APE 3","nom":"la Torre","codi_icgc":"082270 AP14 APE 3","categoria":"Àrees de poblament","codi_municipi":"082270","municipi":"Sant Martí Sarroca","codi_comarca":"03","comarca":"Alt Penedès","provincia":"Barcelona","font":"ICGC Àrees de poblament v3r1 202602"},"geometry":{"type":"MultiPolygon","coordinates":[[[[1.634208,41.356953],[1.634007,41.3566],[1.633577,41.356724],[1.633901,41.357099],[1.634208,41.356953]]],[[[1.636375,41.357236],[1.636182,41.356933],[1.635838,41.357072],[1.635465,41.357204],[1.63496,41.357312],[1.634511,41.357435],[1.634441,41.357635],[1.634672,41.357909],[1.634414,41.358006],[1.634708,41.358474],[1.635295,41.358067],[1.635149,41.357779],[1.635675,41.357571],[1.636375,41.357236]]],[[[1.633831,41.358207],[1.633656,41.357926],[1.633399,41.357958],[1.632902,41.358145],[1.633094,41.358491],[1.633831,41.358207]]],[[[1.626887,41.358896],[1.626824,41.358731],[1.62637,41.35869],[1.626183,41.358544],[1.625956,41.358492],[1.62565,41.358595],[1.625459,41.358672],[1.62568,41.358975],[1.626148,41.358859],[1.626271,41.35886],[1.626495,41.359027],[1.62678,41.359031],[1.626887,41.358896]]],[[[1.630274,41.358446],[1.630303,41.358418],[1.630317,41.358423],[1.630425,41.358337],[1.630546,41.35824],[1.630669,41.358254],[1.630721,41.35826],[1.630744,41.358263],[1.630815,41.35827],[1.630915,41.358288],[1.631015,41.358308],[1.631096,41.358324],[1.631179,41.35834],[1.631189,41.358338],[1.631186,41.358319],[1.631136,41.358059],[1.631102,41.357971],[1.631086,41.357965],[1.631025,41.35794],[1.63094,41.357932],[1.630845,41.357919],[1.630631,41.357795],[1.630372,41.357887],[1.630265,41.357783],[1.630173,41.357615],[1.630168,41.357566],[1.630089,41.357404],[1.630071,41.357319],[1.630169,41.357243],[1.630254,41.357225],[1.630325,41.357191],[1.630377,41.357184],[1.630616,41.357106],[1.63042,41.356761],[1.630225,41.3568],[1.630196,41.356807],[1.630101,41.356826],[1.630063,41.356843],[1.629993,41.356887],[1.629989,41.356908],[1.62998,41.356967],[1.629994,41.357015],[1.630135,41.357192],[1.630092,41.357198],[1.630055,41.35721],[1.630021,41.357229],[1.629998,41.357248],[1.629983,41.35727],[1.629977,41.357297],[1.629977,41.357353],[1.629978,41.3574],[1.629985,41.357445],[1.629996,41.357489],[1.630009,41.357553],[1.630023,41.357617],[1.630042,41.357698],[1.63006,41.357777],[1.630068,41.357826],[1.630077,41.357876],[1.630097,41.357949],[1.630116,41.358022],[1.630131,41.358082],[1.630146,41.358142],[1.630155,41.358221],[1.630173,41.358282],[1.630171,41.35837],[1.630178,41.358412],[1.630191,41.358483],[1.630144,41.358522],[1.630046,41.358602],[1.629949,41.358683],[1.629928,41.358701],[1.629919,41.358705],[1.629931,41.358761],[1.629925,41.358805],[1.629899,41.35898],[1.629988,41.359184],[1.629955,41.359317],[1.630592,41.359422],[1.630696,41.359273],[1.630743,41.359154],[1.630625,41.359016],[1.630587,41.358971],[1.63054,41.358916],[1.630503,41.358637],[1.630274,41.358446],[1.630274,41.358446]]],[[[1.626105,41.359961],[1.62605,41.359887],[1.625812,41.359956],[1.62591,41.360221],[1.626176,41.360162],[1.626105,41.359961]]],[[[1.637897,41.360271],[1.63766,41.360106],[1.637574,41.36001],[1.63746,41.359999],[1.636977,41.360117],[1.63592,41.360438],[1.635906,41.360486],[1.636117,41.360717],[1.636804,41.360525],[1.637176,41.360272],[1.637316,41.360245],[1.637428,41.360303],[1.637385,41.36056],[1.637634,41.360735],[1.637991,41.360644],[1.638196,41.360522],[1.638236,41.360427],[1.637897,41.360271]]]]}},{"type":"Feature","id":"082270_082270 AP02 APE 2","properties":{"area_id":"082270_082270 AP02 APE 2","nom":"la Torre de Vernet","codi_icgc":"082270 AP02 APE 2","categoria":"Àrees de poblament","codi_municipi":"082270","municipi":"Sant Martí Sarroca","codi_comarca":"03","comarca":"Alt Penedès","provincia":"Barcelona","font":"ICGC Àrees de poblament v3r1 202602"},"geometry":{"type":"MultiPolygon","coordinates":[[[[1.624247,41.353345],[1.624276,41.353345],[1.62429,41.353347],[1.624303,41.353352],[1.624361,41.353382],[1.624419,41.353412],[1.624445,41.353429],[1.624485,41.353454],[1.624526,41.353477],[1.62455,41.353489],[1.624561,41.353496],[1.624568,41.353499],[1.624574,41.353501],[1.624587,41.3535],[1.624607,41.353496],[1.624644,41.353477],[1.624681,41.353458],[1.624711,41.353443],[1.624724,41.353434],[1.624733,41.353423],[1.624748,41.353391],[1.624764,41.353359],[1.624765,41.353389],[1.624807,41.353406],[1.624839,41.353395],[1.624864,41.353405],[1.624886,41.353373],[1.624906,41.353368],[1.624926,41.353363],[1.624949,41.353357],[1.624972,41.353351],[1.624999,41.353347],[1.625026,41.353344],[1.62508,41.353342],[1.625174,41.353338],[1.625269,41.353333],[1.625284,41.353329],[1.625297,41.353322],[1.625301,41.353316],[1.625299,41.353302],[1.625293,41.353288],[1.62528,41.353259],[1.625257,41.353146],[1.625234,41.353032],[1.625228,41.353007],[1.625216,41.352957],[1.625213,41.352947],[1.625208,41.352939],[1.625202,41.352935],[1.625188,41.352934],[1.625173,41.352935],[1.625151,41.352934],[1.625129,41.352932],[1.625109,41.352925],[1.625093,41.352913],[1.625053,41.352875],[1.625014,41.352835],[1.624994,41.352812],[1.624971,41.352789],[1.624952,41.352776],[1.62493,41.352768],[1.624915,41.352767],[1.624887,41.352772],[1.624859,41.352781],[1.624835,41.352788],[1.624813,41.352797],[1.624799,41.352806],[1.624787,41.352818],[1.624784,41.352829],[1.624724,41.352792],[1.624663,41.352754],[1.624643,41.352741],[1.624624,41.352725],[1.624599,41.352711],[1.624574,41.352699],[1.624531,41.35269],[1.624514,41.35269],[1.624497,41.35269],[1.624414,41.352683],[1.624332,41.352676],[1.624243,41.352666],[1.624155,41.352654],[1.624103,41.352643],[1.624051,41.352632],[1.624032,41.352629],[1.624001,41.35263],[1.623985,41.352634],[1.623973,41.352642],[1.623964,41.352651],[1.623948,41.352666],[1.623907,41.352651],[1.623909,41.352621],[1.623882,41.35262],[1.623879,41.352649],[1.623799,41.35264],[1.623661,41.352647],[1.623372,41.352644],[1.62354,41.352893],[1.623614,41.353002],[1.623655,41.353018],[1.62353,41.353071],[1.623476,41.353095],[1.623459,41.353104],[1.623473,41.353139],[1.623986,41.353517],[1.624012,41.353527],[1.624065,41.353469],[1.624125,41.353405],[1.624146,41.353387],[1.624185,41.353366],[1.624228,41.353349],[1.624247,41.353345]]]]}},{"type":"Feature","id":"082270_082270 AP05 APE 1","properties":{"area_id":"082270_082270 AP05 APE 1","nom":"les Cabrunes","codi_icgc":"082270 AP05 APE 1","categoria":"Àrees de poblament","codi_municipi":"082270","municipi":"Sant Martí Sarroca","codi_comarca":"03","comarca":"Alt Penedès","provincia":"Barcelona","font":"ICGC Àrees de poblament v3r1 202602"},"geometry":{"type":"MultiPolygon","coordinates":[[[[1.62395,41.406873],[1.624139,41.406774],[1.624258,41.406682],[1.624343,41.406639],[1.624527,41.406546],[1.624687,41.406459],[1.624766,41.406406],[1.624984,41.40626],[1.625102,41.406144],[1.624892,41.405788],[1.62438,41.406014],[1.624253,41.406037],[1.624118,41.406035],[1.624026,41.406038],[1.624003,41.406038],[1.62391,41.405981],[1.623872,41.405975],[1.623867,41.405977],[1.623773,41.406],[1.623721,41.406014],[1.623701,41.406028],[1.623634,41.406079],[1.623568,41.406129],[1.623511,41.406167],[1.623451,41.406202],[1.623396,41.406229],[1.623363,41.406246],[1.623294,41.406329],[1.623306,41.406369],[1.623323,41.406389],[1.623366,41.406451],[1.623435,41.406527],[1.623154,41.406716],[1.623034,41.407071],[1.623235,41.407199],[1.623253,41.407211],[1.623287,41.407232],[1.623727,41.406942],[1.62395,41.406873]]]]}}]}