{"type":"FeatureCollection","name":"ICGC Àrees de poblament - Sant Martí de Centelles","features":[{"type":"Feature","id":"082248_082248 SI01 OSO 2","properties":{"area_id":"082248_082248 SI01 OSO 2","nom":"Polígon del Carrer de la Indústria","codi_icgc":"082248 SI01 OSO 2","categoria":"Sector industrial","codi_municipi":"082248","municipi":"Sant Martí de Centelles","codi_comarca":"24","comarca":"Osona","provincia":"Barcelona","font":"ICGC Àrees de poblament v3r1 202602"},"geometry":{"type":"MultiPolygon","coordinates":[[[[2.247481,41.769061],[2.247523,41.768997],[2.24754,41.768972],[2.247584,41.768906],[2.247639,41.768823],[2.247667,41.768786],[2.247698,41.768752],[2.247779,41.768677],[2.247863,41.768601],[2.248001,41.768479],[2.248127,41.768367],[2.248139,41.768356],[2.248283,41.768227],[2.248322,41.768192],[2.248505,41.768028],[2.248671,41.767879],[2.248746,41.767812],[2.248765,41.767795],[2.249061,41.767532],[2.249194,41.767613],[2.249358,41.767486],[2.249526,41.767357],[2.249713,41.767429],[2.249728,41.767435],[2.249877,41.767348],[2.250036,41.767256],[2.250079,41.767254],[2.250273,41.767047],[2.250321,41.76699],[2.250425,41.766911],[2.25088,41.766302],[2.250864,41.766293],[2.250611,41.766145],[2.250744,41.765978],[2.250803,41.765887],[2.250849,41.765802],[2.250992,41.765508],[2.251385,41.765662],[2.251386,41.765662],[2.251386,41.765661],[2.251427,41.76562],[2.251458,41.76559],[2.251498,41.765557],[2.251541,41.765526],[2.251577,41.765502],[2.251614,41.765478],[2.251731,41.765393],[2.25178,41.765355],[2.251804,41.765336],[2.251826,41.765315],[2.25184,41.765294],[2.251852,41.765273],[2.251876,41.7649],[2.251844,41.764822],[2.251826,41.764784],[2.251803,41.764747],[2.251787,41.764731],[2.251788,41.764728],[2.251769,41.764703],[2.251726,41.764645],[2.251697,41.764658],[2.251618,41.764693],[2.251346,41.764813],[2.251143,41.764972],[2.251142,41.764973],[2.251143,41.764977],[2.251134,41.765003],[2.251098,41.765075],[2.251062,41.765148],[2.251,41.765261],[2.250985,41.765282],[2.25097,41.765297],[2.250952,41.765313],[2.250952,41.765313],[2.250952,41.765313],[2.25079,41.765637],[2.250776,41.76563],[2.250547,41.765547],[2.250458,41.765591],[2.250311,41.765675],[2.250296,41.76567],[2.250216,41.765647],[2.250175,41.765622],[2.249921,41.765799],[2.250005,41.765848],[2.249901,41.765999],[2.249847,41.76608],[2.249869,41.766093],[2.249556,41.766391],[2.249541,41.766406],[2.24949,41.766363],[2.249465,41.766368],[2.249422,41.766377],[2.24927,41.766533],[2.249218,41.766577],[2.249189,41.766602],[2.249179,41.766609],[2.248609,41.767016],[2.248589,41.767009],[2.24841,41.767208],[2.248396,41.767223],[2.247808,41.767955],[2.247797,41.767971],[2.247794,41.767972],[2.247786,41.767982],[2.247605,41.768068],[2.247561,41.768155],[2.247525,41.768145],[2.247338,41.768467],[2.247333,41.768477],[2.247413,41.768504],[2.247406,41.768516],[2.247302,41.768676],[2.24721,41.768801],[2.247148,41.768874],[2.247108,41.768921],[2.247123,41.768928],[2.247158,41.768945],[2.247353,41.769044],[2.247308,41.769042],[2.247263,41.769044],[2.247219,41.769051],[2.247177,41.769061],[2.24713,41.769079],[2.247087,41.769101],[2.247048,41.769128],[2.247016,41.769159],[2.246991,41.769191],[2.246972,41.769225],[2.246966,41.769239],[2.246962,41.769253],[2.24696,41.769273],[2.246961,41.769293],[2.246966,41.769313],[2.246975,41.769331],[2.246987,41.769349],[2.247004,41.769366],[2.247024,41.769381],[2.247046,41.769394],[2.247071,41.769404],[2.247098,41.769411],[2.247154,41.769407],[2.247209,41.769398],[2.247481,41.769061]]]]}},{"type":"Feature","id":"082248_082248 AP01 OSO 3","properties":{"area_id":"082248_082248 AP01 OSO 3","nom":"Sant Martí de Centelles","codi_icgc":"082248 AP01 OSO 3","categoria":"Àrees de poblament","codi_municipi":"082248","municipi":"Sant Martí de Centelles","codi_comarca":"24","comarca":"Osona","provincia":"Barcelona","font":"ICGC Àrees de poblament v3r1 202602"},"geometry":{"type":"MultiPolygon","coordinates":[[[[2.204002,41.76515],[2.203922,41.765143],[2.203832,41.765124],[2.20365,41.76516],[2.203635,41.765354],[2.203735,41.765416],[2.203848,41.765422],[2.204084,41.765441],[2.204103,41.765457],[2.204145,41.765483],[2.204189,41.765507],[2.204202,41.765514],[2.204243,41.765543],[2.204272,41.765562],[2.204334,41.765605],[2.204396,41.765648],[2.204421,41.765664],[2.204523,41.765732],[2.204612,41.765785],[2.204638,41.7658],[2.20466,41.765812],[2.204669,41.765821],[2.204813,41.765758],[2.204876,41.76583],[2.204914,41.765956],[2.205057,41.766123],[2.205514,41.765954],[2.205544,41.765941],[2.205557,41.765899],[2.205487,41.765797],[2.205399,41.765677],[2.205382,41.765646],[2.205372,41.765581],[2.205396,41.765503],[2.20544,41.765441],[2.205462,41.765365],[2.205448,41.765212],[2.205411,41.765126],[2.205366,41.765057],[2.205311,41.76502],[2.205255,41.764999],[2.205181,41.764991],[2.205089,41.764986],[2.204965,41.764984],[2.205015,41.765112],[2.205061,41.765206],[2.205025,41.765296],[2.204953,41.765331],[2.204761,41.765383],[2.20472,41.765266],[2.204707,41.765228],[2.204464,41.765314],[2.204184,41.765081],[2.204078,41.76513],[2.204002,41.76515]]]]}},{"type":"Feature","id":"082248_082248 AP05 OSO 3","properties":{"area_id":"082248_082248 AP05 OSO 3","nom":"Sant Miquel Sesperxes","codi_icgc":"082248 AP05 OSO 3","categoria":"Àrees de poblament","codi_municipi":"082248","municipi":"Sant Martí de Centelles","codi_comarca":"24","comarca":"Osona","provincia":"Barcelona","font":"ICGC Àrees de poblament v3r1 202602"},"geometry":{"type":"MultiPolygon","coordinates":[[[[2.223803,41.745972],[2.223866,41.745994],[2.223884,41.746],[2.223936,41.746002],[2.224104,41.74604],[2.224116,41.746007],[2.224209,41.746008],[2.224217,41.745936],[2.224256,41.745875],[2.22429,41.745868],[2.224225,41.745683],[2.223748,41.745668],[2.223746,41.745835],[2.223803,41.745972]]]]}},{"type":"Feature","id":"082248_082248 AP03 OSO 1","properties":{"area_id":"082248_082248 AP03 OSO 1","nom":"Valldaneu","codi_icgc":"082248 AP03 OSO 1","categoria":"Àrees de poblament","codi_municipi":"082248","municipi":"Sant Martí de Centelles","codi_comarca":"24","comarca":"Osona","provincia":"Barcelona","font":"ICGC Àrees de poblament v3r1 202602"},"geometry":{"type":"MultiPolygon","coordinates":[[[[2.242091,41.743947],[2.242066,41.743979],[2.242063,41.744189],[2.242126,41.744436],[2.242255,41.744682],[2.242281,41.744731],[2.242567,41.744672],[2.242533,41.744395],[2.242536,41.744263],[2.242512,41.744204],[2.242458,41.744148],[2.24244,41.744086],[2.242438,41.743991],[2.242433,41.743955],[2.242442,41.743823],[2.242431,41.743788],[2.242315,41.743788],[2.242215,41.743788],[2.242187,41.743825],[2.242091,41.743947]]]]}},{"type":"Feature","id":"082248_082248 AP06 OSO 2","properties":{"area_id":"082248_082248 AP06 OSO 2","nom":"el Pla de Sant Miquel","codi_icgc":"082248 AP06 OSO 2","categoria":"Àrees de poblament","codi_municipi":"082248","municipi":"Sant Martí de Centelles","codi_comarca":"24","comarca":"Osona","provincia":"Barcelona","font":"ICGC Àrees de poblament v3r1 202602"},"geometry":{"type":"MultiPolygon","coordinates":[[[[2.228121,41.743344],[2.228137,41.743312],[2.228182,41.743222],[2.227972,41.743149],[2.22795,41.743215],[2.227849,41.743182],[2.227822,41.743224],[2.227725,41.743317],[2.227688,41.743319],[2.227652,41.743321],[2.227622,41.743322],[2.227592,41.743317],[2.227576,41.743308],[2.227556,41.743293],[2.227544,41.743274],[2.227531,41.743242],[2.22753,41.743236],[2.227515,41.743188],[2.227612,41.743122],[2.227844,41.742962],[2.227986,41.742864],[2.227862,41.742789],[2.227766,41.742848],[2.227575,41.742737],[2.227395,41.742858],[2.227384,41.742889],[2.227539,41.742999],[2.227488,41.743042],[2.227469,41.743061],[2.227461,41.743076],[2.22746,41.743091],[2.227466,41.74312],[2.227472,41.743147],[2.227481,41.743181],[2.227491,41.743215],[2.227501,41.743248],[2.227515,41.743283],[2.22753,41.743306],[2.227556,41.743326],[2.22758,41.743338],[2.227619,41.743345],[2.227654,41.743345],[2.227691,41.743342],[2.227727,41.74334],[2.227757,41.743339],[2.227786,41.743341],[2.22782,41.743347],[2.227857,41.743354],[2.227904,41.743365],[2.227952,41.743376],[2.227986,41.743383],[2.228012,41.743387],[2.228041,41.743385],[2.228062,41.743378],[2.228092,41.743361],[2.228115,41.743346],[2.228121,41.743344]]],[[[2.229939,41.743431],[2.229926,41.74337],[2.229987,41.743108],[2.229781,41.743048],[2.229733,41.743044],[2.22964,41.743296],[2.229622,41.743317],[2.22959,41.74333],[2.229548,41.743307],[2.229501,41.743266],[2.229423,41.743217],[2.229385,41.743184],[2.229257,41.743182],[2.229235,41.743089],[2.229068,41.743086],[2.228823,41.743131],[2.22882,41.743132],[2.228874,41.74344],[2.229253,41.743419],[2.229316,41.743677],[2.229291,41.743813],[2.229534,41.74385],[2.229787,41.743834],[2.229833,41.743783],[2.229871,41.743729],[2.229902,41.743672],[2.229924,41.743613],[2.229938,41.743553],[2.229942,41.743492],[2.229939,41.743431]]]]}},{"type":"Feature","id":"082248_082248 AP07 OSO 3","properties":{"area_id":"082248_082248 AP07 OSO 3","nom":"l'Abella","codi_icgc":"082248 AP07 OSO 3","categoria":"Àrees de poblament","codi_municipi":"082248","municipi":"Sant Martí de Centelles","codi_comarca":"24","comarca":"Osona","provincia":"Barcelona","font":"ICGC Àrees de poblament v3r1 202602"},"geometry":{"type":"MultiPolygon","coordinates":[[[[2.251559,41.762497],[2.251416,41.762181],[2.251459,41.76217],[2.251334,41.761938],[2.251179,41.761716],[2.251014,41.761479],[2.250804,41.761226],[2.250736,41.761144],[2.250715,41.761112],[2.25054,41.760858],[2.250512,41.760813],[2.250178,41.760312],[2.25002,41.760079],[2.249719,41.759636],[2.249515,41.759693],[2.24951,41.759686],[2.24946,41.7596],[2.249405,41.759495],[2.249349,41.759391],[2.249258,41.759177],[2.249226,41.759138],[2.249195,41.759083],[2.24917,41.759039],[2.249125,41.759052],[2.24913,41.759064],[2.249139,41.759087],[2.249045,41.759128],[2.249075,41.759224],[2.249107,41.7593],[2.249112,41.759429],[2.249129,41.759515],[2.249221,41.75976],[2.249257,41.759757],[2.249298,41.759844],[2.249313,41.759874],[2.24928,41.759884],[2.249315,41.75995],[2.249329,41.759946],[2.24939,41.760073],[2.249496,41.760289],[2.249501,41.760295],[2.249536,41.760361],[2.249729,41.760659],[2.2495,41.760754],[2.249498,41.760686],[2.24946,41.760625],[2.249424,41.760606],[2.249388,41.760598],[2.249353,41.760604],[2.249302,41.760625],[2.249237,41.76063],[2.249195,41.760609],[2.249154,41.760521],[2.2491,41.760392],[2.24897,41.760411],[2.248908,41.760427],[2.248749,41.760052],[2.248683,41.76002],[2.24866,41.75998],[2.248563,41.759994],[2.248546,41.759953],[2.248416,41.759524],[2.248566,41.7593],[2.248569,41.759066],[2.248559,41.758992],[2.248553,41.758837],[2.24854,41.758474],[2.248542,41.758115],[2.248556,41.757998],[2.248576,41.757836],[2.248656,41.75727],[2.248657,41.757261],[2.24867,41.757176],[2.248678,41.757122],[2.248667,41.757121],[2.248693,41.756929],[2.248702,41.756883],[2.248707,41.756839],[2.248709,41.75682],[2.248725,41.756702],[2.248729,41.756671],[2.248745,41.75651],[2.248749,41.756474],[2.248762,41.756347],[2.248608,41.756149],[2.248597,41.756123],[2.248601,41.755896],[2.24807,41.755888],[2.248068,41.756056],[2.248067,41.756114],[2.248048,41.756205],[2.248045,41.756219],[2.248042,41.756243],[2.248068,41.756293],[2.248092,41.756343],[2.248118,41.756404],[2.248158,41.75651],[2.24819,41.75662],[2.248208,41.756716],[2.248222,41.756812],[2.248228,41.756881],[2.248232,41.75695],[2.248226,41.75704],[2.248221,41.75713],[2.248221,41.757202],[2.24823,41.757273],[2.248246,41.757378],[2.248262,41.757482],[2.248279,41.757596],[2.248297,41.75771],[2.248312,41.757796],[2.248324,41.757906],[2.248307,41.757906],[2.247971,41.757907],[2.247948,41.75791],[2.247895,41.757913],[2.247842,41.757915],[2.247846,41.757928],[2.247848,41.757935],[2.247791,41.757942],[2.247708,41.757952],[2.247609,41.75796],[2.247509,41.757964],[2.247353,41.757969],[2.247198,41.757972],[2.247029,41.757973],[2.24686,41.757975],[2.246719,41.75798],[2.246577,41.757988],[2.24654,41.757991],[2.246534,41.757957],[2.246527,41.7579],[2.246517,41.75778],[2.246508,41.757685],[2.246492,41.757599],[2.246461,41.757601],[2.24613,41.757626],[2.246256,41.758045],[2.246225,41.758054],[2.246206,41.758059],[2.246132,41.758075],[2.246057,41.75809],[2.246013,41.758098],[2.246032,41.758124],[2.246038,41.75815],[2.246051,41.758206],[2.24606,41.758261],[2.246067,41.758344],[2.24607,41.758427],[2.24607,41.758491],[2.246066,41.758554],[2.246058,41.758596],[2.246037,41.758659],[2.246026,41.758683],[2.24601,41.7587],[2.245923,41.758864],[2.24589,41.758927],[2.245877,41.758959],[2.245867,41.758991],[2.245861,41.759033],[2.245861,41.759075],[2.245865,41.759146],[2.245866,41.759195],[2.245876,41.759234],[2.245887,41.75926],[2.245892,41.759274],[2.24592,41.759305],[2.245926,41.759322],[2.246142,41.759541],[2.246235,41.75964],[2.246339,41.75976],[2.246128,41.75989],[2.246041,41.759945],[2.245936,41.759847],[2.245635,41.759568],[2.245578,41.759604],[2.245465,41.759675],[2.245643,41.759849],[2.245527,41.759934],[2.24565,41.760056],[2.245621,41.760081],[2.245591,41.760106],[2.245616,41.760124],[2.245627,41.760133],[2.245752,41.760227],[2.245877,41.760321],[2.245998,41.76041],[2.24612,41.760498],[2.246185,41.760542],[2.246252,41.760584],[2.246296,41.760603],[2.246343,41.760617],[2.24638,41.760623],[2.246418,41.760623],[2.246468,41.760617],[2.24649,41.760609],[2.246503,41.760601],[2.246491,41.760619],[2.246468,41.760646],[2.246446,41.760665],[2.246427,41.760677],[2.246396,41.760691],[2.246363,41.760699],[2.24629,41.760707],[2.246217,41.760715],[2.246348,41.761237],[2.246415,41.761421],[2.247048,41.761388],[2.247123,41.761845],[2.247807,41.761793],[2.24781,41.761808],[2.24786,41.762247],[2.247858,41.762304],[2.247858,41.762439],[2.247858,41.762514],[2.247915,41.762542],[2.247915,41.762859],[2.24791,41.763051],[2.247909,41.76308],[2.247855,41.763073],[2.247762,41.76306],[2.24768,41.763047],[2.247538,41.763021],[2.247328,41.762981],[2.247223,41.762961],[2.247118,41.762945],[2.247088,41.76294],[2.247008,41.762929],[2.246913,41.762915],[2.246934,41.762692],[2.24693,41.762692],[2.246915,41.762691],[2.246366,41.762665],[2.24644,41.762975],[2.246582,41.762972],[2.246637,41.762976],[2.246734,41.762986],[2.247026,41.763017],[2.247079,41.763022],[2.247181,41.763034],[2.247213,41.763043],[2.247176,41.763195],[2.247166,41.763262],[2.247401,41.763296],[2.247407,41.763297],[2.247385,41.763375],[2.247601,41.763444],[2.247632,41.763329],[2.247975,41.763403],[2.248,41.763349],[2.248509,41.763435],[2.248466,41.763679],[2.248703,41.763727],[2.248867,41.763751],[2.248939,41.76376],[2.249073,41.76376],[2.249134,41.763755],[2.249379,41.763814],[2.249384,41.763783],[2.249465,41.763366],[2.249559,41.763284],[2.249559,41.763113],[2.249579,41.76309],[2.249607,41.76306],[2.2496,41.762749],[2.249547,41.761979],[2.249543,41.761919],[2.249518,41.761853],[2.249505,41.761801],[2.249459,41.761654],[2.249428,41.761566],[2.249627,41.761522],[2.249641,41.761475],[2.249658,41.761513],[2.249684,41.761577],[2.249698,41.761614],[2.249713,41.761671],[2.249723,41.761729],[2.249733,41.761849],[2.249743,41.76197],[2.249761,41.762126],[2.249781,41.762283],[2.24979,41.762341],[2.249799,41.762399],[2.2498,41.76241],[2.249803,41.762424],[2.249804,41.762438],[2.249804,41.762481],[2.249766,41.76248],[2.249767,41.76263],[2.249768,41.762739],[2.2498,41.762743],[2.249784,41.76289],[2.249783,41.763013],[2.249774,41.763155],[2.249773,41.76317],[2.249762,41.763248],[2.249756,41.763291],[2.249748,41.763343],[2.249726,41.763435],[2.24972,41.763457],[2.249705,41.763553],[2.249702,41.763572],[2.249702,41.763654],[2.249704,41.763678],[2.249735,41.763693],[2.24976,41.763799],[2.249799,41.763852],[2.249815,41.763854],[2.249804,41.763992],[2.249803,41.764074],[2.249824,41.764117],[2.249832,41.764227],[2.249843,41.764357],[2.249853,41.764405],[2.249897,41.764501],[2.249904,41.764512],[2.249934,41.764544],[2.249956,41.764562],[2.249991,41.764587],[2.250018,41.764604],[2.250045,41.76462],[2.250103,41.764648],[2.250142,41.764662],[2.250214,41.764684],[2.250271,41.764698],[2.250287,41.764702],[2.2504,41.764731],[2.250418,41.764739],[2.250445,41.764744],[2.250617,41.764754],[2.250935,41.764772],[2.251013,41.764778],[2.251064,41.764739],[2.251121,41.76469],[2.251151,41.764664],[2.25125,41.764572],[2.251344,41.764478],[2.251428,41.764383],[2.251507,41.764285],[2.251522,41.764266],[2.251545,41.764222],[2.251589,41.764139],[2.251609,41.764102],[2.25162,41.764092],[2.251625,41.764083],[2.25163,41.764074],[2.251633,41.764069],[2.251642,41.764051],[2.25167,41.763993],[2.251705,41.763917],[2.25172,41.763882],[2.251729,41.763781],[2.251722,41.763664],[2.25172,41.763638],[2.251661,41.763355],[2.251659,41.763346],[2.251639,41.763219],[2.251639,41.763208],[2.251641,41.763179],[2.251646,41.763105],[2.251664,41.76301],[2.251667,41.762992],[2.251664,41.76296],[2.251661,41.762923],[2.251649,41.762875],[2.251627,41.762816],[2.251608,41.762767],[2.251582,41.762571],[2.251559,41.762497]]]]}},{"type":"Feature","id":"082248_082248 AP04 OSO 3","properties":{"area_id":"082248_082248 AP04 OSO 3","nom":"la Colònia Oller","codi_icgc":"082248 AP04 OSO 3","categoria":"Àrees de poblament","codi_municipi":"082248","municipi":"Sant Martí de Centelles","codi_comarca":"24","comarca":"Osona","provincia":"Barcelona","font":"ICGC Àrees de poblament v3r1 202602"},"geometry":{"type":"MultiPolygon","coordinates":[[[[2.247814,41.756468],[2.247897,41.756355],[2.247904,41.756253],[2.247901,41.756121],[2.247908,41.75591],[2.247896,41.75567],[2.248055,41.755575],[2.248284,41.755548],[2.248476,41.755535],[2.248695,41.755548],[2.248714,41.755476],[2.248747,41.755316],[2.248777,41.755156],[2.248804,41.755015],[2.248831,41.754873],[2.248811,41.754864],[2.248731,41.754824],[2.24868,41.754799],[2.248628,41.754776],[2.248618,41.754772],[2.248556,41.754747],[2.248444,41.754705],[2.248332,41.754665],[2.248226,41.75463],[2.24815,41.754604],[2.248182,41.754497],[2.248209,41.754407],[2.247867,41.754371],[2.24776,41.754359],[2.24764,41.754319],[2.247553,41.754284],[2.247431,41.754451],[2.247518,41.754486],[2.247522,41.754549],[2.247526,41.754613],[2.247526,41.754637],[2.247522,41.75468],[2.247504,41.754742],[2.247498,41.754758],[2.247497,41.754761],[2.24748,41.754803],[2.24745,41.754872],[2.24742,41.754941],[2.247461,41.754963],[2.247441,41.755071],[2.247436,41.755097],[2.246137,41.755968],[2.245789,41.75574],[2.245701,41.755683],[2.245686,41.755694],[2.245308,41.755463],[2.245133,41.755584],[2.245098,41.755601],[2.245085,41.755607],[2.245034,41.75557],[2.244927,41.755492],[2.244806,41.755402],[2.244822,41.755392],[2.244742,41.75533],[2.244685,41.755373],[2.244609,41.755406],[2.244586,41.75539],[2.244575,41.755399],[2.244564,41.755408],[2.244557,41.755419],[2.244556,41.755429],[2.244556,41.755438],[2.244554,41.755447],[2.24455,41.755456],[2.244509,41.755498],[2.244486,41.755517],[2.24446,41.755533],[2.244375,41.755577],[2.244292,41.755619],[2.244193,41.755674],[2.244046,41.755757],[2.243898,41.755846],[2.243779,41.755905],[2.243707,41.755993],[2.243652,41.755976],[2.243613,41.756046],[2.243569,41.756032],[2.243521,41.756056],[2.243493,41.756033],[2.243472,41.756016],[2.24346,41.756008],[2.243447,41.756003],[2.243438,41.756003],[2.24343,41.756007],[2.243419,41.756014],[2.243413,41.756022],[2.243409,41.756039],[2.243405,41.756084],[2.243406,41.756102],[2.243416,41.756142],[2.243129,41.756498],[2.242926,41.756426],[2.242825,41.756583],[2.242824,41.756669],[2.243137,41.756777],[2.243397,41.756443],[2.243514,41.756248],[2.243664,41.75636],[2.243726,41.756406],[2.243824,41.756537],[2.243867,41.756489],[2.243924,41.756459],[2.243983,41.756428],[2.244094,41.75652],[2.244107,41.756567],[2.244119,41.75658],[2.244186,41.756656],[2.244299,41.756783],[2.244403,41.756901],[2.244806,41.757028],[2.245452,41.757261],[2.245482,41.757255],[2.245507,41.757255],[2.245543,41.757253],[2.24558,41.757246],[2.245651,41.757227],[2.245677,41.757218],[2.245835,41.757187],[2.245843,41.757205],[2.245885,41.757183],[2.2459,41.757188],[2.245975,41.757153],[2.24603,41.757132],[2.246087,41.757113],[2.246112,41.757108],[2.246137,41.757105],[2.246186,41.757106],[2.246246,41.757114],[2.246304,41.757126],[2.246352,41.757141],[2.246396,41.757162],[2.246418,41.757176],[2.246437,41.757192],[2.246446,41.757203],[2.246447,41.757207],[2.246523,41.757231],[2.246538,41.75722],[2.246543,41.757218],[2.246556,41.757213],[2.24659,41.757208],[2.246623,41.757203],[2.246673,41.757196],[2.246723,41.757188],[2.246773,41.757179],[2.246823,41.757167],[2.24692,41.757139],[2.246983,41.757118],[2.24705,41.757096],[2.247258,41.757052],[2.247278,41.75705],[2.247297,41.757048],[2.247438,41.756974],[2.247547,41.756828],[2.247658,41.756681],[2.247814,41.756468]]]]}},{"type":"Feature","id":"082248_082248 AP02 OSO 1","properties":{"area_id":"082248_082248 AP02 OSO 1","nom":"les Comes","codi_icgc":"082248 AP02 OSO 1","categoria":"Àrees de poblament","codi_municipi":"082248","municipi":"Sant Martí de Centelles","codi_comarca":"24","comarca":"Osona","provincia":"Barcelona","font":"ICGC Àrees de poblament v3r1 202602"},"geometry":{"type":"MultiPolygon","coordinates":[[[[2.205009,41.766167],[2.204922,41.766049],[2.204894,41.766012],[2.204808,41.766048],[2.2048,41.766052],[2.204778,41.766061],[2.20476,41.766069],[2.204756,41.766065],[2.204758,41.766073],[2.204757,41.7661],[2.204752,41.766115],[2.204739,41.76612],[2.204741,41.766137],[2.204744,41.766191],[2.204745,41.766207],[2.204708,41.766209],[2.204642,41.766213],[2.204466,41.766335],[2.204173,41.766274],[2.204047,41.766247],[2.203945,41.766509],[2.203959,41.766633],[2.203985,41.766866],[2.204002,41.766968],[2.204189,41.767],[2.204195,41.767041],[2.204205,41.767074],[2.20421,41.767086],[2.204219,41.767102],[2.204239,41.76713],[2.204287,41.767178],[2.204356,41.767247],[2.204394,41.767284],[2.204426,41.767316],[2.204507,41.767392],[2.204592,41.767467],[2.204648,41.767511],[2.204672,41.767528],[2.204707,41.767552],[2.204751,41.76758],[2.204798,41.767605],[2.204828,41.767618],[2.204854,41.767631],[2.204883,41.767607],[2.20489,41.767601],[2.205034,41.767619],[2.205341,41.767643],[2.205443,41.767652],[2.205762,41.76772],[2.205792,41.767727],[2.206417,41.767795],[2.206664,41.767822],[2.206979,41.767905],[2.207043,41.76777],[2.207072,41.767763],[2.207098,41.767762],[2.207143,41.76777],[2.207492,41.767885],[2.207699,41.76795],[2.207905,41.768013],[2.208043,41.768055],[2.208134,41.768082],[2.208224,41.768108],[2.208283,41.768126],[2.208362,41.768152],[2.208438,41.76818],[2.208473,41.768194],[2.208077,41.768387],[2.208101,41.768425],[2.208139,41.768483],[2.208191,41.768536],[2.208271,41.768615],[2.208311,41.768655],[2.208352,41.768695],[2.20848,41.768821],[2.208581,41.76892],[2.208956,41.768735],[2.208878,41.768532],[2.208938,41.76858],[2.208962,41.7686],[2.209013,41.76865],[2.209085,41.76872],[2.209157,41.76879],[2.209213,41.76884],[2.209275,41.768886],[2.20932,41.768914],[2.209381,41.76895],[2.20943,41.768973],[2.20948,41.768993],[2.209579,41.769027],[2.209629,41.76904],[2.209722,41.769063],[2.209742,41.76907],[2.209765,41.769067],[2.209867,41.769054],[2.209988,41.769045],[2.210048,41.769017],[2.210053,41.769014],[2.21006,41.769004],[2.210072,41.768979],[2.210094,41.768939],[2.210081,41.768889],[2.210106,41.768888],[2.210114,41.768879],[2.210116,41.768876],[2.21018,41.768805],[2.210291,41.768684],[2.210335,41.768647],[2.210384,41.768614],[2.210483,41.76856],[2.210542,41.768531],[2.210605,41.768504],[2.210651,41.76849],[2.210694,41.768481],[2.21071,41.768473],[2.21072,41.76847],[2.210454,41.768302],[2.210131,41.768135],[2.209981,41.768012],[2.209713,41.768129],[2.209703,41.768124],[2.209694,41.768117],[2.209685,41.768106],[2.209671,41.768086],[2.209618,41.767971],[2.209565,41.767857],[2.209549,41.76782],[2.209543,41.767799],[2.209543,41.767782],[2.209541,41.767754],[2.20954,41.767708],[2.209536,41.767687],[2.209527,41.767663],[2.209521,41.767652],[2.209509,41.767639],[2.209485,41.767629],[2.209458,41.767625],[2.20943,41.767626],[2.209404,41.767633],[2.209382,41.767645],[2.209365,41.767661],[2.209354,41.76768],[2.209354,41.767674],[2.209351,41.767668],[2.209336,41.767628],[2.209321,41.767586],[2.209309,41.767553],[2.209302,41.767537],[2.209296,41.767522],[2.209287,41.767512],[2.209275,41.767502],[2.209221,41.767453],[2.209166,41.767405],[2.209179,41.76739],[2.209185,41.767373],[2.209184,41.767359],[2.209175,41.76734],[2.20916,41.767325],[2.209139,41.767313],[2.209135,41.767312],[2.209114,41.767306],[2.209088,41.767305],[2.209063,41.76731],[2.209041,41.76732],[2.209036,41.767323],[2.209024,41.767342],[2.20902,41.767363],[2.209023,41.767384],[2.209033,41.767404],[2.209035,41.767406],[2.208835,41.767327],[2.208762,41.767459],[2.208735,41.767535],[2.208761,41.767546],[2.208749,41.76757],[2.208717,41.767624],[2.208662,41.767711],[2.208459,41.767935],[2.208436,41.767954],[2.208392,41.767983],[2.208343,41.768007],[2.208299,41.768021],[2.208267,41.768041],[2.208238,41.768045],[2.208221,41.768047],[2.208198,41.768045],[2.208159,41.768035],[2.208068,41.768008],[2.207931,41.767967],[2.207725,41.767903],[2.207666,41.767882],[2.207624,41.767853],[2.207626,41.767698],[2.20741,41.767621],[2.207426,41.767583],[2.20702,41.767456],[2.206934,41.767321],[2.206874,41.76715],[2.206854,41.767093],[2.206823,41.766924],[2.206517,41.766839],[2.20637,41.766782],[2.206125,41.766802],[2.206084,41.766805],[2.205873,41.766822],[2.205842,41.766827],[2.205631,41.766861],[2.205553,41.766892],[2.205536,41.766899],[2.205478,41.766881],[2.2054,41.766944],[2.205312,41.767015],[2.205241,41.767073],[2.205171,41.767131],[2.205144,41.767152],[2.205117,41.767172],[2.204976,41.767141],[2.204882,41.767121],[2.204789,41.767098],[2.204769,41.76709],[2.204741,41.767076],[2.204716,41.767058],[2.204662,41.767017],[2.204614,41.766973],[2.204568,41.766917],[2.204526,41.766859],[2.204497,41.766816],[2.204471,41.766771],[2.204465,41.766753],[2.204465,41.766734],[2.204487,41.766683],[2.204519,41.766633],[2.204586,41.76655],[2.204622,41.766511],[2.204662,41.766472],[2.204694,41.766446],[2.204745,41.76641],[2.204801,41.766377],[2.204898,41.76633],[2.204948,41.766309],[2.204999,41.76629],[2.205066,41.766268],[2.205085,41.766261],[2.205088,41.76626],[2.205219,41.766207],[2.205378,41.766309],[2.205465,41.766342],[2.205616,41.766361],[2.205787,41.766362],[2.20599,41.766349],[2.206039,41.766269],[2.206051,41.766236],[2.206056,41.7662],[2.205989,41.766146],[2.205966,41.766154],[2.205905,41.766187],[2.205857,41.766175],[2.205809,41.766163],[2.205774,41.766142],[2.20573,41.766115],[2.205699,41.766105],[2.205667,41.76607],[2.205632,41.766016],[2.205557,41.765984],[2.205039,41.766208],[2.205009,41.766167]]]]}}]}