{"type":"FeatureCollection","name":"ICGC Àrees de poblament - Sant Pere de Riudebitlles","features":[{"type":"Feature","id":"082325_082325 SI07 APE 2","properties":{"area_id":"082325_082325 SI07 APE 2","nom":"Fàbrica del Valls","codi_icgc":"082325 SI07 APE 2","categoria":"Sector industrial","codi_municipi":"082325","municipi":"Sant Pere de Riudebitlles","codi_comarca":"03","comarca":"Alt Penedès","provincia":"Barcelona","font":"ICGC Àrees de poblament v3r1 202602"},"geometry":{"type":"MultiPolygon","coordinates":[[[[1.694843,41.452239],[1.694895,41.452683],[1.695266,41.452708],[1.695272,41.45262],[1.69534,41.452195],[1.695325,41.45219],[1.695074,41.452124],[1.694922,41.452127],[1.694926,41.452231],[1.694843,41.452239]]]]}},{"type":"Feature","id":"082325_082325 SI05 APE 2","properties":{"area_id":"082325_082325 SI05 APE 2","nom":"Polígon industrial Cal Jan","codi_icgc":"082325 SI05 APE 2","categoria":"Sector industrial","codi_municipi":"082325","municipi":"Sant Pere de Riudebitlles","codi_comarca":"03","comarca":"Alt Penedès","provincia":"Barcelona","font":"ICGC Àrees de poblament v3r1 202602"},"geometry":{"type":"MultiPolygon","coordinates":[[[[1.697087,41.451012],[1.697166,41.451059],[1.69697,41.451168],[1.696804,41.451524],[1.697826,41.451914],[1.69809,41.452008],[1.698095,41.452061],[1.698095,41.452061],[1.698098,41.452087],[1.698118,41.452253],[1.698138,41.452305],[1.698158,41.452354],[1.698181,41.45241],[1.698202,41.452466],[1.698209,41.452494],[1.698214,41.452539],[1.698216,41.452584],[1.698216,41.452585],[1.698222,41.452652],[1.698492,41.452795],[1.698518,41.452812],[1.698659,41.452899],[1.698672,41.452905],[1.698653,41.452892],[1.698602,41.452859],[1.698632,41.452876],[1.698654,41.452888],[1.698667,41.452894],[1.698681,41.452901],[1.698698,41.452907],[1.698716,41.452913],[1.698725,41.452916],[1.698733,41.452918],[1.698741,41.452919],[1.698764,41.452922],[1.698809,41.452925],[1.698967,41.452935],[1.699379,41.452961],[1.699655,41.452971],[1.699662,41.452978],[1.699669,41.452984],[1.699675,41.452986],[1.699679,41.452988],[1.69969,41.45299],[1.699702,41.452992],[1.699714,41.452995],[1.699756,41.452999],[1.699798,41.452999],[1.699838,41.452999],[1.699877,41.452998],[1.699885,41.452997],[1.699893,41.452996],[1.699904,41.452993],[1.699909,41.452991],[1.699914,41.452988],[1.699925,41.452983],[1.69993,41.452977],[1.699938,41.452964],[1.700001,41.452793],[1.700035,41.452609],[1.700063,41.452029],[1.700081,41.451679],[1.69986,41.451749],[1.699751,41.451783],[1.699639,41.451812],[1.699526,41.451836],[1.699447,41.451849],[1.699358,41.451863],[1.699332,41.451865],[1.699346,41.451773],[1.699365,41.45177],[1.699377,41.451751],[1.699572,41.451451],[1.699699,41.451356],[1.699604,41.451167],[1.699455,41.450918],[1.699471,41.450912],[1.699444,41.450838],[1.699419,41.450785],[1.699403,41.450776],[1.699385,41.450754],[1.699375,41.45073],[1.699372,41.450704],[1.699366,41.450698],[1.699332,41.450674],[1.699317,41.450662],[1.699301,41.450652],[1.699284,41.450643],[1.69927,41.45064],[1.699254,41.450641],[1.699239,41.450642],[1.699224,41.450645],[1.699204,41.450649],[1.699184,41.450656],[1.699175,41.450661],[1.699168,41.450667],[1.699168,41.450678],[1.699166,41.450688],[1.699164,41.450697],[1.699155,41.450704],[1.699143,41.45071],[1.699131,41.450714],[1.69909,41.450727],[1.699048,41.450739],[1.698983,41.450756],[1.698918,41.450773],[1.6989,41.450735],[1.698669,41.450791],[1.698618,41.450567],[1.698575,41.45054],[1.698408,41.450497],[1.698318,41.450474],[1.698199,41.450443],[1.698079,41.450468],[1.69798,41.450511],[1.698017,41.450646],[1.69797,41.450654],[1.697525,41.450719],[1.697521,41.45073],[1.697513,41.450752],[1.6975,41.450784],[1.697489,41.45081],[1.697476,41.450835],[1.697457,41.450859],[1.697432,41.45088],[1.697404,41.450897],[1.697359,41.450918],[1.69731,41.450934],[1.697272,41.450943],[1.697265,41.450944],[1.697251,41.450946],[1.697239,41.450945],[1.697228,41.450943],[1.69722,41.450941],[1.697212,41.450939],[1.697207,41.450936],[1.697194,41.450928],[1.697185,41.450918],[1.697179,41.4509],[1.697181,41.450869],[1.697184,41.450839],[1.697132,41.450833],[1.697028,41.450815],[1.697036,41.450789],[1.696803,41.45075],[1.696753,41.450919],[1.697003,41.450961],[1.696968,41.45096],[1.696927,41.450958],[1.696886,41.450956],[1.696837,41.450955],[1.696801,41.450958],[1.696893,41.45096],[1.696965,41.450968],[1.697087,41.451012]]]]}},{"type":"Feature","id":"082325_082325 SI03 APE 2","properties":{"area_id":"082325_082325 SI03 APE 2","nom":"Polígon industrial Els Vinyets","codi_icgc":"082325 SI03 APE 2","categoria":"Sector industrial","codi_municipi":"082325","municipi":"Sant Pere de Riudebitlles","codi_comarca":"03","comarca":"Alt Penedès","provincia":"Barcelona","font":"ICGC Àrees de poblament v3r1 202602"},"geometry":{"type":"MultiPolygon","coordinates":[[[[1.684086,41.453627],[1.68414,41.4536],[1.68422,41.453543],[1.684251,41.453512],[1.684378,41.453386],[1.684543,41.453243],[1.684571,41.453221],[1.684628,41.453178],[1.684766,41.453082],[1.684443,41.45287],[1.684366,41.45283],[1.683998,41.452678],[1.68395,41.452662],[1.683933,41.452657],[1.683838,41.452625],[1.683753,41.452607],[1.683668,41.452594],[1.683581,41.452587],[1.683531,41.452587],[1.683521,41.45259],[1.683511,41.452587],[1.683493,41.452586],[1.683405,41.452591],[1.682906,41.452647],[1.68286,41.45265],[1.682811,41.452648],[1.682764,41.45264],[1.682717,41.452685],[1.682649,41.452749],[1.682581,41.452827],[1.682436,41.452944],[1.682352,41.453089],[1.682321,41.453239],[1.682326,41.453443],[1.682791,41.453741],[1.682907,41.453634],[1.682941,41.453604],[1.683015,41.453685],[1.683445,41.453986],[1.683677,41.453841],[1.683854,41.453742],[1.684011,41.453654],[1.684073,41.453632],[1.684086,41.453627]]],[[[1.682571,41.457417],[1.683169,41.45731],[1.683469,41.457334],[1.683477,41.457015],[1.683502,41.456727],[1.683564,41.456462],[1.683462,41.456492],[1.683276,41.456518],[1.683231,41.456512],[1.683206,41.456491],[1.682975,41.455758],[1.682487,41.455728],[1.681965,41.455692],[1.681858,41.455688],[1.681829,41.455786],[1.681813,41.455933],[1.68181,41.456084],[1.681813,41.456211],[1.68184,41.456237],[1.682309,41.456715],[1.682571,41.457417]]]]}},{"type":"Feature","id":"082325_082325 SI06 APE 2","properties":{"area_id":"082325_082325 SI06 APE 2","nom":"Polígon industrial La Plana d'en Soler","codi_icgc":"082325 SI06 APE 2","categoria":"Sector industrial","codi_municipi":"082325","municipi":"Sant Pere de Riudebitlles","codi_comarca":"03","comarca":"Alt Penedès","provincia":"Barcelona","font":"ICGC Àrees de poblament v3r1 202602"},"geometry":{"type":"MultiPolygon","coordinates":[[[[1.699951,41.454575],[1.70035,41.454376],[1.70035,41.454376],[1.700263,41.454269],[1.699995,41.45395],[1.699945,41.453889],[1.699895,41.453827],[1.699875,41.453796],[1.699861,41.453763],[1.699852,41.453738],[1.699846,41.453723],[1.699842,41.453714],[1.699876,41.453337],[1.699921,41.453054],[1.699421,41.45304],[1.699353,41.453037],[1.69918,41.453029],[1.699068,41.453022],[1.699036,41.453022],[1.698855,41.453014],[1.698658,41.452986],[1.698616,41.452983],[1.698525,41.452922],[1.698271,41.452788],[1.698268,41.452787],[1.698217,41.45276],[1.698043,41.452957],[1.697917,41.453116],[1.698321,41.45332],[1.698618,41.453549],[1.698644,41.453676],[1.698655,41.453716],[1.698662,41.453737],[1.698686,41.453783],[1.698716,41.453827],[1.698728,41.453841],[1.699489,41.45456],[1.699527,41.45456],[1.699573,41.454609],[1.699656,41.454707],[1.699917,41.454592],[1.699951,41.454575]]]]}},{"type":"Feature","id":"082325_082325 SI04 APE 2","properties":{"area_id":"082325_082325 SI04 APE 2","nom":"Polígon industrial Les Toeses","codi_icgc":"082325 SI04 APE 2","categoria":"Sector industrial","codi_municipi":"082325","municipi":"Sant Pere de Riudebitlles","codi_comarca":"03","comarca":"Alt Penedès","provincia":"Barcelona","font":"ICGC Àrees de poblament v3r1 202602"},"geometry":{"type":"MultiPolygon","coordinates":[[[[1.687248,41.451344],[1.687278,41.451366],[1.687663,41.451693],[1.687703,41.451658],[1.687765,41.451605],[1.687788,41.451584],[1.688871,41.451081],[1.689137,41.450958],[1.689061,41.450885],[1.689068,41.450831],[1.688917,41.450726],[1.688481,41.450423],[1.688375,41.450349],[1.688168,41.450205],[1.688093,41.450163],[1.687945,41.450081],[1.687889,41.450128],[1.687735,41.450044],[1.687693,41.450031],[1.68761,41.450019],[1.687576,41.450014],[1.687575,41.450014],[1.687498,41.450078],[1.68747,41.4501],[1.687308,41.45028],[1.687136,41.450477],[1.687108,41.450521],[1.68711,41.450576],[1.687129,41.450675],[1.687149,41.450775],[1.687149,41.450793],[1.687143,41.450811],[1.687126,41.45084],[1.687109,41.45087],[1.687074,41.450931],[1.68704,41.450992],[1.687037,41.451003],[1.687036,41.451015],[1.687037,41.451039],[1.687033,41.451054],[1.687014,41.451088],[1.686995,41.451123],[1.686969,41.451172],[1.686944,41.451221],[1.686937,41.451246],[1.686936,41.451271],[1.686936,41.451287],[1.686941,41.451303],[1.686948,41.451314],[1.686964,41.451326],[1.686984,41.451333],[1.686997,41.451336],[1.686985,41.451349],[1.686989,41.451351],[1.687017,41.451374],[1.687025,41.45138],[1.687049,41.451399],[1.687095,41.451366],[1.687185,41.451353],[1.687247,41.451344],[1.687248,41.451344]]]]}},{"type":"Feature","id":"082325_082325 SI01 APE 2","properties":{"area_id":"082325_082325 SI01 APE 2","nom":"Polígon industrial Plana Mas d'en Soler","codi_icgc":"082325 SI01 APE 2","categoria":"Sector industrial","codi_municipi":"082325","municipi":"Sant Pere de Riudebitlles","codi_comarca":"03","comarca":"Alt Penedès","provincia":"Barcelona","font":"ICGC Àrees de poblament v3r1 202602"},"geometry":{"type":"MultiPolygon","coordinates":[[[[1.689962,41.451172],[1.690037,41.451156],[1.690063,41.451159],[1.69017,41.451165],[1.690189,41.451165],[1.690205,41.451165],[1.690248,41.451163],[1.690291,41.451161],[1.690357,41.451155],[1.690424,41.451148],[1.690606,41.45113],[1.690788,41.451108],[1.690807,41.451102],[1.690822,41.451092],[1.690847,41.451066],[1.690899,41.451003],[1.69095,41.45094],[1.691012,41.450866],[1.691075,41.450793],[1.691084,41.450778],[1.691087,41.450762],[1.691084,41.450751],[1.691078,41.45074],[1.691058,41.45072],[1.691031,41.450704],[1.691003,41.450688],[1.690928,41.450648],[1.690923,41.450645],[1.690904,41.450627],[1.690899,41.450614],[1.690896,41.450603],[1.690897,41.450597],[1.690902,41.45058],[1.690912,41.450559],[1.690931,41.450516],[1.690969,41.450438],[1.691022,41.450322],[1.691073,41.45021],[1.690982,41.450158],[1.690977,41.450154],[1.68984,41.450677],[1.689533,41.450818],[1.68943,41.450802],[1.689408,41.450791],[1.689376,41.450771],[1.689343,41.450751],[1.68929,41.450723],[1.689237,41.450696],[1.689171,41.45066],[1.689107,41.450623],[1.689067,41.450592],[1.689032,41.450558],[1.68901,41.450531],[1.68899,41.450502],[1.688976,41.450477],[1.688967,41.450452],[1.688969,41.450436],[1.688977,41.450422],[1.688986,41.450411],[1.688994,41.450401],[1.688957,41.450364],[1.68916,41.450289],[1.689196,41.450276],[1.689297,41.450244],[1.689334,41.45023],[1.689401,41.450203],[1.689384,41.450179],[1.689209,41.44994],[1.689286,41.449873],[1.689384,41.44978],[1.689462,41.449719],[1.689556,41.449655],[1.689749,41.44954],[1.68979,41.449514],[1.689864,41.449468],[1.689909,41.449432],[1.68996,41.449376],[1.690025,41.449311],[1.690163,41.449189],[1.690169,41.449168],[1.690159,41.449141],[1.69014,41.449122],[1.689994,41.449006],[1.689855,41.448897],[1.689827,41.448875],[1.689697,41.448785],[1.689607,41.448736],[1.689492,41.448686],[1.689323,41.448637],[1.689323,41.448637],[1.689323,41.448637],[1.689311,41.448634],[1.689108,41.448584],[1.689099,41.448585],[1.689051,41.448586],[1.688994,41.448599],[1.688882,41.448619],[1.688819,41.448625],[1.688695,41.448635],[1.688602,41.448634],[1.688476,41.448623],[1.688477,41.448486],[1.688473,41.448432],[1.688463,41.448309],[1.688452,41.448298],[1.688448,41.448293],[1.688305,41.448198],[1.688245,41.448164],[1.688163,41.448141],[1.687979,41.44809],[1.687899,41.447979],[1.687747,41.447954],[1.687585,41.447849],[1.687579,41.447832],[1.687576,41.447826],[1.687575,41.447824],[1.68756,41.4478],[1.687535,41.447771],[1.687503,41.447746],[1.687479,41.447732],[1.687418,41.4477],[1.687362,41.447664],[1.687311,41.447624],[1.687281,41.447595],[1.68727,41.44759],[1.687158,41.447448],[1.687082,41.447394],[1.687078,41.447392],[1.686999,41.447346],[1.686925,41.447295],[1.686856,41.447241],[1.686793,41.447183],[1.686791,41.44718],[1.68676,41.447155],[1.686724,41.447133],[1.686684,41.447116],[1.686641,41.447105],[1.686596,41.447099],[1.68655,41.447099],[1.686519,41.447103],[1.686483,41.447112],[1.686406,41.447147],[1.686362,41.447166],[1.68628,41.447202],[1.686276,41.447204],[1.686259,41.447209],[1.686227,41.447218],[1.686178,41.447233],[1.686128,41.447247],[1.686085,41.447252],[1.686043,41.447251],[1.685961,41.447246],[1.685878,41.44724],[1.685853,41.44724],[1.685828,41.44724],[1.685777,41.447244],[1.685731,41.447251],[1.685687,41.447265],[1.685642,41.447288],[1.685598,41.447311],[1.685584,41.447317],[1.685577,41.447319],[1.685428,41.44736],[1.685361,41.447368],[1.685312,41.447374],[1.68521,41.447369],[1.685163,41.447364],[1.685155,41.447364],[1.685092,41.447359],[1.68505,41.447352],[1.685009,41.447342],[1.684959,41.447328],[1.684912,41.447309],[1.684874,41.447283],[1.684841,41.447253],[1.684815,41.447223],[1.684805,41.447216],[1.684785,41.44719],[1.684769,41.447184],[1.68476,41.447184],[1.684752,41.447186],[1.684737,41.447195],[1.684724,41.447204],[1.684692,41.447223],[1.684664,41.447245],[1.684637,41.447275],[1.68461,41.447305],[1.684579,41.44734],[1.684547,41.447374],[1.68453,41.447386],[1.684496,41.447396],[1.68446,41.447404],[1.684365,41.447424],[1.68432,41.447432],[1.684297,41.447435],[1.68429,41.447436],[1.684282,41.447436],[1.684264,41.447437],[1.684202,41.447436],[1.684195,41.447436],[1.684177,41.447436],[1.68415,41.447437],[1.684134,41.447438],[1.684127,41.44744],[1.684119,41.447441],[1.684101,41.447444],[1.684075,41.447451],[1.68406,41.447454],[1.683992,41.447474],[1.683978,41.447463],[1.683955,41.447442],[1.683944,41.447426],[1.683935,41.4474],[1.683933,41.447373],[1.683937,41.447341],[1.683949,41.447309],[1.683973,41.447272],[1.683988,41.447256],[1.684006,41.44724],[1.684042,41.447218],[1.684083,41.447202],[1.684102,41.447199],[1.684132,41.447197],[1.684161,41.447194],[1.684188,41.447186],[1.6842,41.44718],[1.68421,41.447172],[1.684216,41.447161],[1.684214,41.447144],[1.684208,41.447127],[1.684191,41.44709],[1.684173,41.447052],[1.684165,41.447023],[1.684166,41.447009],[1.684173,41.446998],[1.684204,41.446975],[1.684235,41.446953],[1.684288,41.446915],[1.684368,41.446857],[1.684448,41.4468],[1.684466,41.446784],[1.684488,41.446756],[1.684505,41.446728],[1.68451,41.446714],[1.684509,41.446707],[1.684504,41.446701],[1.684495,41.446697],[1.684477,41.446694],[1.684448,41.4467],[1.68442,41.44671],[1.684342,41.446745],[1.684227,41.446801],[1.684168,41.446827],[1.684107,41.446851],[1.684033,41.446876],[1.684009,41.446884],[1.68391,41.446916],[1.683826,41.44694],[1.683787,41.446951],[1.683664,41.446984],[1.683527,41.447017],[1.683389,41.44705],[1.683348,41.447063],[1.68329,41.447087],[1.683236,41.447117],[1.683204,41.44714],[1.683163,41.447178],[1.683125,41.447218],[1.683061,41.447293],[1.683055,41.447299],[1.683026,41.447342],[1.683004,41.447387],[1.682992,41.447423],[1.682983,41.447477],[1.682982,41.44753],[1.682986,41.447602],[1.682991,41.447674],[1.683002,41.447767],[1.683018,41.447859],[1.683027,41.447896],[1.683049,41.447951],[1.683079,41.448003],[1.683139,41.448088],[1.683199,41.448173],[1.683289,41.448307],[1.68338,41.448441],[1.683426,41.448509],[1.683452,41.448542],[1.683484,41.448573],[1.683499,41.448583],[1.683524,41.448594],[1.683552,41.448604],[1.683589,41.448617],[1.683627,41.44863],[1.683711,41.448721],[1.683773,41.448824],[1.683908,41.449059],[1.683999,41.449255],[1.684051,41.449343],[1.684081,41.449396],[1.684106,41.449445],[1.684143,41.449486],[1.684212,41.449544],[1.684264,41.449579],[1.684311,41.449605],[1.684371,41.44963],[1.684479,41.449669],[1.684583,41.449704],[1.684547,41.449743],[1.684686,41.449817],[1.684759,41.449815],[1.684833,41.449813],[1.684881,41.449813],[1.684953,41.449818],[1.685024,41.449828],[1.685069,41.449841],[1.68511,41.44986],[1.685136,41.449874],[1.685174,41.449896],[1.685213,41.449918],[1.685276,41.449953],[1.685339,41.449989],[1.685365,41.450001],[1.685407,41.450013],[1.685451,41.450022],[1.685512,41.450031],[1.685574,41.450033],[1.685641,41.450031],[1.685675,41.450027],[1.685708,41.45002],[1.685745,41.450009],[1.685797,41.449988],[1.68585,41.449968],[1.685911,41.449952],[1.685972,41.44994],[1.685994,41.44994],[1.686027,41.449946],[1.686039,41.449948],[1.68604,41.449951],[1.686047,41.449948],[1.68606,41.449947],[1.686097,41.44994],[1.686134,41.449931],[1.686179,41.449918],[1.686224,41.449905],[1.686301,41.449877],[1.686416,41.449831],[1.686531,41.449788],[1.686607,41.449762],[1.686685,41.449741],[1.686768,41.449723],[1.686853,41.449708],[1.68691,41.449699],[1.686911,41.449699],[1.686961,41.449703],[1.687071,41.449692],[1.687117,41.449702],[1.687794,41.449913],[1.687867,41.449936],[1.688121,41.450107],[1.688622,41.450443],[1.689295,41.450909],[1.689304,41.450905],[1.689308,41.450903],[1.689324,41.450897],[1.689497,41.45102],[1.689669,41.451107],[1.689804,41.451148],[1.689906,41.451167],[1.689962,41.451172]]]]}},{"type":"Feature","id":"082325_082325 SI02 APE 2","properties":{"area_id":"082325_082325 SI02 APE 2","nom":"Polígon industrial Sector Maset","codi_icgc":"082325 SI02 APE 2","categoria":"Sector industrial","codi_municipi":"082325","municipi":"Sant Pere de Riudebitlles","codi_comarca":"03","comarca":"Alt Penedès","provincia":"Barcelona","font":"ICGC Àrees de poblament v3r1 202602"},"geometry":{"type":"MultiPolygon","coordinates":[[[[1.706073,41.449786],[1.706027,41.449731],[1.705829,41.449858],[1.705633,41.449982],[1.705544,41.450024],[1.705492,41.450048],[1.705426,41.450079],[1.705456,41.450127],[1.705489,41.450157],[1.705653,41.450246],[1.705665,41.450253],[1.705777,41.45032],[1.705817,41.45038],[1.705818,41.450401],[1.705828,41.450476],[1.705841,41.450525],[1.70582,41.450653],[1.705807,41.450708],[1.705822,41.450734],[1.705842,41.450757],[1.705955,41.450866],[1.70606,41.450967],[1.706138,41.451062],[1.706199,41.451129],[1.706411,41.451099],[1.706668,41.451064],[1.706745,41.451049],[1.706722,41.450957],[1.706689,41.450839],[1.706644,41.450676],[1.706613,41.450565],[1.706601,41.450527],[1.706582,41.450509],[1.706546,41.450496],[1.706513,41.450497],[1.706473,41.45051],[1.706375,41.450562],[1.706265,41.450395],[1.706197,41.450207],[1.706104,41.44993],[1.706073,41.449786]]]]}},{"type":"Feature","id":"082325_082325 AP01 APE 3","properties":{"area_id":"082325_082325 AP01 APE 3","nom":"Sant Pere de Riudebitlles","codi_icgc":"082325 AP01 APE 3","categoria":"Àrees de poblament","codi_municipi":"082325","municipi":"Sant Pere de Riudebitlles","codi_comarca":"03","comarca":"Alt Penedès","provincia":"Barcelona","font":"ICGC Àrees de poblament v3r1 202602"},"geometry":{"type":"MultiPolygon","coordinates":[[[[1.707091,41.449746],[1.70721,41.449696],[1.707341,41.44966],[1.707499,41.449507],[1.707596,41.449377],[1.707423,41.44914],[1.707441,41.449132],[1.707595,41.449076],[1.707685,41.449193],[1.707901,41.449043],[1.707755,41.44885],[1.70819,41.44851],[1.708383,41.448377],[1.708108,41.448163],[1.708038,41.448121],[1.708071,41.44809],[1.707853,41.447942],[1.708014,41.447784],[1.707667,41.447559],[1.707509,41.447702],[1.707402,41.447666],[1.707404,41.447655],[1.707402,41.447613],[1.707397,41.447574],[1.707389,41.447535],[1.707375,41.447495],[1.707356,41.447456],[1.707335,41.44743],[1.707329,41.447423],[1.707302,41.447391],[1.707283,41.447356],[1.707267,41.44732],[1.707257,41.447289],[1.707578,41.447237],[1.707411,41.446604],[1.707386,41.446608],[1.707134,41.446591],[1.707104,41.446428],[1.706994,41.446044],[1.706982,41.446047],[1.706917,41.446059],[1.706395,41.446164],[1.706284,41.446186],[1.705964,41.446255],[1.705978,41.44636],[1.706036,41.446826],[1.706042,41.446884],[1.705752,41.446938],[1.70561,41.446938],[1.705495,41.446938],[1.70542,41.446925],[1.705424,41.447116],[1.705347,41.447115],[1.705337,41.447191],[1.705321,41.447382],[1.705317,41.447428],[1.705275,41.447733],[1.705338,41.447733],[1.705379,41.447846],[1.705369,41.448028],[1.705389,41.448127],[1.705392,41.448143],[1.705398,41.448196],[1.705391,41.448239],[1.705369,41.448292],[1.705391,41.448367],[1.705356,41.448372],[1.705316,41.448535],[1.705346,41.448565],[1.705391,41.448606],[1.705409,41.448628],[1.705486,41.448665],[1.705529,41.448716],[1.705571,41.448773],[1.705628,41.448878],[1.705345,41.448953],[1.705379,41.449004],[1.705384,41.449062],[1.705383,41.449075],[1.705368,41.449133],[1.705382,41.449129],[1.705379,41.44917],[1.705362,41.449193],[1.705291,41.449215],[1.705276,41.449208],[1.705276,41.449216],[1.705189,41.449243],[1.705148,41.44922],[1.705166,41.449191],[1.705156,41.449056],[1.705216,41.448967],[1.705215,41.448936],[1.70512,41.448845],[1.70512,41.448837],[1.70509,41.448795],[1.705085,41.448786],[1.705078,41.448774],[1.705075,41.448768],[1.705065,41.448753],[1.705063,41.44875],[1.705052,41.448728],[1.705043,41.44871],[1.705039,41.448702],[1.70505,41.448654],[1.705055,41.448626],[1.70506,41.4486],[1.705068,41.448558],[1.705068,41.448553],[1.705069,41.448536],[1.70508,41.448461],[1.705072,41.448461],[1.705073,41.448436],[1.705082,41.448385],[1.705004,41.448376],[1.704971,41.448338],[1.704963,41.448317],[1.704965,41.448272],[1.704986,41.448239],[1.705009,41.4482],[1.705015,41.448164],[1.705015,41.448136],[1.705042,41.448109],[1.705043,41.448023],[1.704919,41.447923],[1.704867,41.447916],[1.704795,41.447888],[1.704735,41.447832],[1.704734,41.447829],[1.704722,41.447805],[1.704703,41.447764],[1.704702,41.447761],[1.704658,41.447634],[1.704621,41.447551],[1.704728,41.447525],[1.704902,41.447482],[1.704883,41.447434],[1.704816,41.447267],[1.704828,41.447258],[1.70484,41.447252],[1.704862,41.447244],[1.704894,41.447235],[1.704929,41.447227],[1.704977,41.447218],[1.70494,41.447142],[1.704938,41.447138],[1.704853,41.446963],[1.704234,41.447134],[1.704203,41.447142],[1.704172,41.447151],[1.704152,41.447156],[1.704159,41.447189],[1.70416,41.447202],[1.704157,41.447207],[1.704149,41.447215],[1.704141,41.44722],[1.704109,41.447227],[1.703867,41.447282],[1.703899,41.447397],[1.703899,41.447412],[1.703899,41.447518],[1.703931,41.447612],[1.703976,41.447599],[1.703993,41.447634],[1.70401,41.447694],[1.704046,41.447772],[1.703685,41.447853],[1.703695,41.447882],[1.703712,41.447919],[1.70381,41.448122],[1.703989,41.448319],[1.704304,41.448219],[1.704346,41.448206],[1.704453,41.448303],[1.704461,41.448306],[1.704526,41.448292],[1.704581,41.44829],[1.704583,41.4483],[1.7046,41.448381],[1.704612,41.448481],[1.704624,41.448573],[1.704631,41.44863],[1.704627,41.448674],[1.704623,41.44871],[1.704591,41.448724],[1.704582,41.448728],[1.704578,41.44873],[1.704572,41.448766],[1.704573,41.448769],[1.704591,41.448771],[1.704586,41.448813],[1.704596,41.448814],[1.704588,41.448891],[1.70458,41.448967],[1.704535,41.448963],[1.704527,41.449005],[1.704522,41.449028],[1.704537,41.449055],[1.704567,41.449112],[1.704554,41.44914],[1.704546,41.449147],[1.70454,41.449155],[1.704527,41.449169],[1.704496,41.44922],[1.704478,41.44924],[1.704307,41.449465],[1.704296,41.44948],[1.704294,41.449483],[1.704273,41.44951],[1.704271,41.449513],[1.704138,41.449425],[1.704045,41.449505],[1.704072,41.449522],[1.704251,41.449641],[1.704158,41.449777],[1.704166,41.449782],[1.70404,41.449972],[1.704027,41.449992],[1.704002,41.45003],[1.703844,41.450097],[1.70373,41.450146],[1.703676,41.450193],[1.703674,41.450196],[1.703645,41.450252],[1.703907,41.450405],[1.703918,41.450412],[1.703328,41.450593],[1.703323,41.450585],[1.703268,41.450488],[1.703215,41.450397],[1.703226,41.450372],[1.703253,41.450287],[1.703257,41.450281],[1.703258,41.450273],[1.703096,41.450194],[1.70323,41.449968],[1.703213,41.449956],[1.703205,41.449955],[1.703154,41.449946],[1.703166,41.449925],[1.702944,41.450035],[1.702835,41.450057],[1.702746,41.449974],[1.702655,41.450025],[1.702603,41.450055],[1.702522,41.4501],[1.702503,41.450112],[1.702492,41.450117],[1.702432,41.450151],[1.702353,41.450195],[1.702272,41.450233],[1.702169,41.450279],[1.70202,41.450341],[1.70187,41.4504],[1.70178,41.450433],[1.701789,41.450446],[1.701685,41.450484],[1.701659,41.450473],[1.701635,41.450451],[1.701593,41.450399],[1.701541,41.450326],[1.701495,41.45026],[1.701436,41.450177],[1.701405,41.450138],[1.701373,41.450097],[1.701334,41.450052],[1.701297,41.450008],[1.701288,41.449979],[1.701291,41.449948],[1.701297,41.449917],[1.701306,41.449886],[1.701273,41.449906],[1.701135,41.449992],[1.700838,41.449831],[1.700778,41.449774],[1.700611,41.449913],[1.700252,41.450168],[1.700147,41.450082],[1.70004,41.449994],[1.699957,41.449932],[1.69987,41.449875],[1.699796,41.449829],[1.699728,41.449791],[1.699636,41.449744],[1.699715,41.449705],[1.699741,41.449681],[1.699789,41.449613],[1.700047,41.449273],[1.699991,41.449201],[1.699932,41.44915],[1.69983,41.449109],[1.699787,41.44906],[1.699772,41.449034],[1.699765,41.449006],[1.699761,41.448974],[1.699776,41.448947],[1.699735,41.448929],[1.69973,41.448927],[1.698435,41.448345],[1.698423,41.448339],[1.698406,41.448464],[1.698335,41.448712],[1.69826,41.448904],[1.698221,41.448881],[1.698181,41.448859],[1.698161,41.44885],[1.698136,41.448843],[1.6981,41.448835],[1.698071,41.44883],[1.697977,41.448815],[1.697802,41.448793],[1.697798,41.448853],[1.697779,41.449164],[1.697962,41.449175],[1.697988,41.449176],[1.698005,41.449177],[1.698076,41.449232],[1.698122,41.449286],[1.698152,41.449337],[1.69816,41.449352],[1.698153,41.449374],[1.698154,41.449386],[1.698165,41.449423],[1.698179,41.449459],[1.698199,41.449494],[1.69824,41.449542],[1.698282,41.44959],[1.698345,41.449659],[1.698376,41.449693],[1.698405,41.449729],[1.69845,41.449791],[1.698495,41.449853],[1.698512,41.449839],[1.698533,41.449881],[1.698565,41.449929],[1.698598,41.449977],[1.69861,41.449999],[1.698621,41.450021],[1.698628,41.450046],[1.69863,41.450072],[1.698628,41.450088],[1.698623,41.450103],[1.698616,41.450113],[1.698597,41.450128],[1.698578,41.450141],[1.698563,41.450149],[1.698549,41.450159],[1.69854,41.450174],[1.698533,41.450191],[1.698518,41.450228],[1.698503,41.450266],[1.698477,41.450332],[1.698468,41.450356],[1.698633,41.45043],[1.698672,41.450433],[1.698723,41.450432],[1.698729,41.450431],[1.698862,41.450496],[1.698806,41.450608],[1.699015,41.450686],[1.699034,41.45067],[1.699042,41.450672],[1.699099,41.450562],[1.699095,41.450561],[1.69912,41.450514],[1.699149,41.450521],[1.699162,41.450491],[1.699227,41.450507],[1.699248,41.450458],[1.699151,41.450434],[1.699172,41.450384],[1.699134,41.450374],[1.699076,41.450324],[1.699095,41.450305],[1.699103,41.450297],[1.699129,41.45027],[1.69917,41.450227],[1.69921,41.450182],[1.699244,41.450144],[1.699278,41.450106],[1.699308,41.450075],[1.699339,41.450044],[1.699365,41.450019],[1.699394,41.449995],[1.699436,41.449966],[1.69948,41.449938],[1.699545,41.4499],[1.69961,41.449862],[1.699621,41.449856],[1.69963,41.449849],[1.699634,41.449843],[1.699634,41.449837],[1.69963,41.449831],[1.699646,41.449834],[1.69967,41.449844],[1.699699,41.449857],[1.699748,41.449884],[1.699815,41.449924],[1.699899,41.449979],[1.699978,41.450038],[1.700084,41.450125],[1.70019,41.450213],[1.700313,41.450316],[1.700416,41.4504],[1.700423,41.45041],[1.700427,41.450418],[1.700509,41.450484],[1.700523,41.450492],[1.700545,41.450505],[1.700565,41.450518],[1.700569,41.450519],[1.700629,41.450549],[1.700692,41.450577],[1.700802,41.450625],[1.700913,41.450672],[1.701037,41.450723],[1.701146,41.450769],[1.701238,41.450813],[1.701284,41.450835],[1.701314,41.450851],[1.701336,41.450863],[1.701372,41.450886],[1.701135,41.450918],[1.700795,41.450967],[1.700736,41.450984],[1.700439,41.451053],[1.700184,41.451112],[1.700339,41.451491],[1.700219,41.451686],[1.700216,41.451899],[1.700241,41.451899],[1.700239,41.451985],[1.700195,41.451984],[1.700188,41.452358],[1.700167,41.452678],[1.700177,41.452799],[1.700134,41.452823],[1.7001,41.45293],[1.700103,41.452984],[1.700105,41.452993],[1.700104,41.452997],[1.700087,41.453037],[1.700057,41.453078],[1.700039,41.453098],[1.700037,41.453193],[1.69997,41.453608],[1.699968,41.453679],[1.699966,41.45373],[1.699988,41.453765],[1.699984,41.453778],[1.699986,41.453792],[1.699993,41.453801],[1.700382,41.454276],[1.70044,41.454334],[1.700445,41.454339],[1.700559,41.45428],[1.700675,41.454469],[1.70078,41.454433],[1.700804,41.454476],[1.700825,41.454529],[1.700849,41.454582],[1.700862,41.454606],[1.70087,41.45462],[1.700882,41.454622],[1.700906,41.454615],[1.700946,41.4546],[1.701021,41.454568],[1.70107,41.45455],[1.701097,41.45454],[1.701127,41.45453],[1.701134,41.454526],[1.701138,41.454523],[1.701127,41.45449],[1.701119,41.454471],[1.701112,41.45445],[1.701103,41.454425],[1.701094,41.454402],[1.701081,41.454379],[1.701075,41.454374],[1.70108,41.454363],[1.701084,41.454352],[1.701089,41.454346],[1.701091,41.454343],[1.701102,41.454336],[1.701423,41.454197],[1.701657,41.454087],[1.701706,41.454065],[1.702018,41.453899],[1.702023,41.453903],[1.702066,41.453946],[1.702246,41.454107],[1.702244,41.454118],[1.702236,41.454174],[1.702258,41.454192],[1.702247,41.454198],[1.702206,41.454223],[1.702161,41.454248],[1.702377,41.45449],[1.702468,41.45445],[1.702479,41.454435],[1.702492,41.454426],[1.702521,41.454404],[1.702524,41.454402],[1.702531,41.454419],[1.702566,41.454438],[1.702637,41.454476],[1.702658,41.454487],[1.70269,41.454504],[1.702728,41.454524],[1.702734,41.454529],[1.702768,41.454579],[1.702784,41.454624],[1.702795,41.454653],[1.702804,41.454659],[1.70282,41.454669],[1.702891,41.454714],[1.702978,41.454699],[1.703091,41.454664],[1.70315,41.454633],[1.703273,41.454569],[1.70328,41.454575],[1.703308,41.454555],[1.703333,41.454537],[1.70341,41.454483],[1.703502,41.454443],[1.703563,41.454506],[1.703607,41.454552],[1.703628,41.454574],[1.703764,41.454523],[1.703966,41.454449],[1.703964,41.454445],[1.703903,41.454351],[1.703853,41.454315],[1.703872,41.454296],[1.703879,41.45429],[1.703993,41.454314],[1.704004,41.454287],[1.704098,41.454307],[1.704116,41.45431],[1.704218,41.454325],[1.704362,41.454351],[1.704407,41.45436],[1.704485,41.45436],[1.70455,41.454374],[1.704562,41.454383],[1.704577,41.454447],[1.704629,41.45464],[1.704675,41.454816],[1.704397,41.454902],[1.70435,41.454914],[1.70442,41.455018],[1.704358,41.455034],[1.704219,41.455076],[1.704118,41.455097],[1.704073,41.455107],[1.704012,41.455121],[1.703965,41.455131],[1.703914,41.455144],[1.703862,41.455157],[1.703817,41.45517],[1.703764,41.455184],[1.703728,41.455196],[1.703573,41.455243],[1.703526,41.455257],[1.703478,41.455266],[1.703475,41.455262],[1.703434,41.455274],[1.703423,41.455278],[1.703414,41.455258],[1.703409,41.455259],[1.703388,41.455265],[1.703369,41.455269],[1.70337,41.45527],[1.703364,41.455271],[1.703373,41.45529],[1.703323,41.455303],[1.703272,41.455316],[1.703218,41.45533],[1.703164,41.455345],[1.703115,41.455357],[1.703064,41.455368],[1.702978,41.455379],[1.702941,41.455383],[1.702895,41.45538],[1.702822,41.455384],[1.702786,41.455386],[1.702742,41.455387],[1.702717,41.455388],[1.702715,41.455389],[1.702689,41.455392],[1.702676,41.455395],[1.702642,41.455405],[1.702585,41.455419],[1.702558,41.455426],[1.702558,41.455426],[1.702556,41.455423],[1.702507,41.455441],[1.702432,41.455464],[1.702338,41.455494],[1.702274,41.455514],[1.702204,41.455517],[1.702151,41.455518],[1.702144,41.455518],[1.702131,41.455518],[1.702128,41.455518],[1.702083,41.455535],[1.702031,41.455554],[1.701983,41.455566],[1.701691,41.455576],[1.701638,41.45558],[1.701598,41.455582],[1.701536,41.4556],[1.701477,41.455619],[1.701459,41.455624],[1.701412,41.455636],[1.70138,41.455645],[1.701355,41.455655],[1.701292,41.455675],[1.701277,41.455679],[1.701261,41.455685],[1.70123,41.455699],[1.701162,41.45573],[1.70114,41.455746],[1.701098,41.455788],[1.701085,41.455853],[1.701093,41.455875],[1.701094,41.455877],[1.701093,41.455878],[1.701081,41.455914],[1.701072,41.455938],[1.701116,41.45599],[1.701127,41.456003],[1.701175,41.456061],[1.701214,41.456108],[1.702266,41.455906],[1.702359,41.456084],[1.702413,41.456053],[1.70246,41.456026],[1.702493,41.455974],[1.702496,41.455968],[1.70279,41.455957],[1.702831,41.455956],[1.703017,41.455949],[1.703021,41.455949],[1.703158,41.455944],[1.703245,41.45593],[1.703261,41.455928],[1.703275,41.455925],[1.703318,41.455917],[1.703391,41.455902],[1.703458,41.455889],[1.703528,41.455875],[1.703549,41.455871],[1.703618,41.455856],[1.70368,41.455932],[1.703942,41.455899],[1.704141,41.455848],[1.704261,41.455778],[1.70449,41.45569],[1.704499,41.455708],[1.704876,41.45606],[1.704908,41.456056],[1.704937,41.456083],[1.704939,41.456084],[1.705188,41.45606],[1.705209,41.456053],[1.705269,41.456032],[1.705364,41.455998],[1.705381,41.455992],[1.705386,41.45599],[1.70541,41.455982],[1.705567,41.455928],[1.705631,41.455996],[1.705711,41.455977],[1.705769,41.456039],[1.705905,41.456175],[1.705904,41.456176],[1.705986,41.456262],[1.705993,41.456259],[1.70612,41.45638],[1.706232,41.456486],[1.70626,41.456473],[1.706317,41.456445],[1.706366,41.456422],[1.70643,41.456392],[1.70644,41.456387],[1.706486,41.456365],[1.70645,41.456325],[1.706459,41.45632],[1.706612,41.456249],[1.706657,41.456229],[1.706601,41.456172],[1.706551,41.456122],[1.706494,41.456064],[1.706424,41.455993],[1.706381,41.45595],[1.706356,41.455925],[1.706322,41.45589],[1.706294,41.455863],[1.706253,41.455824],[1.706223,41.455794],[1.706187,41.455759],[1.706154,41.455727],[1.706116,41.455694],[1.706084,41.455663],[1.706063,41.455643],[1.706039,41.455619],[1.706019,41.4556],[1.705965,41.455546],[1.705948,41.455529],[1.705931,41.455513],[1.70588,41.455458],[1.705829,41.455404],[1.705732,41.455331],[1.705664,41.455246],[1.705658,41.455239],[1.705645,41.455223],[1.705643,41.455221],[1.705637,41.455224],[1.705622,41.455228],[1.705583,41.455239],[1.705581,41.455236],[1.705567,41.455218],[1.705559,41.455208],[1.705505,41.455143],[1.705488,41.455123],[1.705553,41.455101],[1.705616,41.455078],[1.705622,41.455088],[1.705674,41.455073],[1.705777,41.455044],[1.705782,41.455059],[1.705835,41.455053],[1.705831,41.455038],[1.705953,41.455024],[1.70602,41.455021],[1.706049,41.455023],[1.706109,41.455032],[1.706152,41.455039],[1.706165,41.455081],[1.706165,41.455083],[1.706171,41.455083],[1.706195,41.455081],[1.706309,41.455069],[1.706312,41.455069],[1.706323,41.455067],[1.70634,41.455063],[1.70634,41.455063],[1.706345,41.455062],[1.70633,41.455004],[1.706315,41.454942],[1.70633,41.45494],[1.706332,41.45494],[1.706424,41.454928],[1.706452,41.454924],[1.70649,41.454919],[1.706476,41.454861],[1.706504,41.454856],[1.706595,41.454839],[1.706655,41.454828],[1.70667,41.454825],[1.706766,41.454808],[1.706791,41.454803],[1.706858,41.454791],[1.70686,41.454791],[1.706913,41.45501],[1.706798,41.455045],[1.706838,41.455121],[1.706838,41.455121],[1.706848,41.455141],[1.706848,41.455141],[1.706879,41.455199],[1.706968,41.455173],[1.707018,41.455158],[1.70707,41.455142],[1.707086,41.455138],[1.707136,41.455123],[1.707145,41.45514],[1.70716,41.455169],[1.707194,41.455158],[1.707273,41.455134],[1.707322,41.455119],[1.707346,41.45511],[1.707483,41.455063],[1.707319,41.454936],[1.707256,41.454906],[1.707172,41.45478],[1.707149,41.454745],[1.707126,41.454725],[1.707094,41.454701],[1.707063,41.454682],[1.707034,41.454665],[1.707012,41.454654],[1.707008,41.454653],[1.707006,41.454651],[1.706971,41.454638],[1.706943,41.454629],[1.706925,41.454624],[1.706918,41.454622],[1.706853,41.454623],[1.706825,41.45457],[1.706811,41.454545],[1.706802,41.454527],[1.706419,41.454632],[1.706375,41.454645],[1.705867,41.454785],[1.705781,41.454809],[1.705747,41.454818],[1.705299,41.454942],[1.705287,41.454928],[1.705257,41.454888],[1.705237,41.454848],[1.705223,41.454812],[1.705196,41.454815],[1.70517,41.454818],[1.705147,41.454824],[1.7051,41.454802],[1.705025,41.454823],[1.704989,41.454782],[1.704934,41.454751],[1.704851,41.45471],[1.704755,41.454678],[1.704709,41.45466],[1.70469,41.454641],[1.704649,41.454505],[1.704619,41.45439],[1.704622,41.454371],[1.704637,41.454368],[1.704689,41.454372],[1.704697,41.454373],[1.704888,41.454435],[1.705042,41.454497],[1.705201,41.454562],[1.705246,41.454576],[1.705292,41.454591],[1.705318,41.454595],[1.705359,41.454593],[1.705401,41.454588],[1.705446,41.454584],[1.705491,41.454577],[1.705521,41.45457],[1.705549,41.454563],[1.705594,41.454553],[1.705637,41.454539],[1.705678,41.454522],[1.705711,41.454506],[1.705743,41.454487],[1.705774,41.454464],[1.705787,41.45445],[1.705797,41.454436],[1.705806,41.454419],[1.70581,41.454412],[1.705824,41.454388],[1.705828,41.454387],[1.705938,41.454208],[1.705896,41.454128],[1.705929,41.454122],[1.70596,41.454163],[1.706011,41.454141],[1.705981,41.4541],[1.706046,41.454073],[1.706028,41.454043],[1.705972,41.453937],[1.705862,41.453717],[1.705743,41.453713],[1.705726,41.453614],[1.705662,41.453625],[1.705619,41.45363],[1.705583,41.453635],[1.70558,41.453608],[1.70552,41.453611],[1.70552,41.453604],[1.7055,41.453603],[1.7055,41.453612],[1.705431,41.453616],[1.705434,41.453651],[1.705394,41.453651],[1.705284,41.453651],[1.705109,41.453652],[1.705012,41.453654],[1.705012,41.453644],[1.705013,41.453574],[1.705013,41.453516],[1.705016,41.453457],[1.705002,41.453418],[1.70499,41.453407],[1.704973,41.453403],[1.704867,41.453397],[1.704761,41.453395],[1.704738,41.453396],[1.704715,41.453396],[1.70454,41.453385],[1.704366,41.453369],[1.704209,41.453354],[1.704154,41.453348],[1.704099,41.45334],[1.704013,41.453328],[1.704009,41.453326],[1.704003,41.453316],[1.704004,41.453305],[1.704011,41.453234],[1.704022,41.453162],[1.704022,41.453143],[1.704025,41.453128],[1.704035,41.453094],[1.704036,41.453091],[1.704052,41.453093],[1.704068,41.453091],[1.704105,41.453088],[1.704146,41.453087],[1.704188,41.453091],[1.704273,41.453103],[1.70433,41.453109],[1.704387,41.453112],[1.704445,41.453115],[1.70447,41.453118],[1.704495,41.453122],[1.704653,41.453135],[1.704672,41.453136],[1.705233,41.45315],[1.705359,41.453152],[1.705427,41.453153],[1.705435,41.453123],[1.705435,41.45312],[1.705506,41.452803],[1.705667,41.4522],[1.705678,41.452149],[1.705681,41.452116],[1.705687,41.452083],[1.705677,41.452069],[1.705659,41.45205],[1.70564,41.452035],[1.705633,41.452031],[1.705623,41.452028],[1.705637,41.451892],[1.705637,41.451881],[1.705657,41.451671],[1.705659,41.45165],[1.705511,41.451661],[1.705511,41.451667],[1.705497,41.451666],[1.705422,41.451674],[1.705416,41.451673],[1.705305,41.451685],[1.705307,41.451693],[1.705256,41.451699],[1.705148,41.451405],[1.705163,41.451404],[1.705178,41.451402],[1.705254,41.451395],[1.705448,41.451368],[1.705458,41.451279],[1.705462,41.451194],[1.705163,41.451234],[1.705096,41.451242],[1.705029,41.45125],[1.705002,41.451251],[1.70498,41.45133],[1.704855,41.451666],[1.704616,41.451623],[1.70457,41.451769],[1.704219,41.451757],[1.704228,41.451724],[1.704316,41.451451],[1.704373,41.451273],[1.704441,41.451052],[1.704484,41.450912],[1.704536,41.450752],[1.704543,41.450744],[1.704547,41.450737],[1.704559,41.450731],[1.704637,41.450708],[1.704687,41.450694],[1.704854,41.450651],[1.704907,41.450628],[1.704815,41.450429],[1.704744,41.45028],[1.704714,41.450171],[1.704851,41.450126],[1.705237,41.449998],[1.705514,41.449905],[1.705677,41.449811],[1.705713,41.449783],[1.706015,41.449611],[1.706111,41.449686],[1.706138,41.44983],[1.706153,41.449891],[1.70618,41.449932],[1.706242,41.450121],[1.706286,41.450137],[1.706643,41.45002],[1.706635,41.450005],[1.706814,41.449946],[1.706892,41.449919],[1.706962,41.449898],[1.707001,41.44989],[1.707148,41.44984],[1.707091,41.449746]]]]}}]}