{"type":"FeatureCollection","name":"ICGC Àrees de poblament - Santa Eugènia de Berga","features":[{"type":"Feature","id":"082460_082460 SI02 OSO 2","properties":{"area_id":"082460_082460 SI02 OSO 2","nom":"Polígon Explasa Industrial","codi_icgc":"082460 SI02 OSO 2","categoria":"Sector industrial","codi_municipi":"082460","municipi":"Santa Eugènia de Berga","codi_comarca":"24","comarca":"Osona","provincia":"Barcelona","font":"ICGC Àrees de poblament v3r1 202602"},"geometry":{"type":"MultiPolygon","coordinates":[[[[2.278243,41.906503],[2.27829,41.906509],[2.278868,41.906482],[2.279094,41.906429],[2.279036,41.906163],[2.279411,41.906228],[2.279534,41.906247],[2.279562,41.906251],[2.279671,41.906264],[2.279673,41.906257],[2.279708,41.906136],[2.279524,41.905198],[2.279187,41.903663],[2.278571,41.903405],[2.27813,41.903526],[2.276485,41.904002],[2.275781,41.904212],[2.274827,41.904501],[2.274586,41.904602],[2.274582,41.904744],[2.274581,41.904772],[2.274577,41.904943],[2.274577,41.905152],[2.274581,41.905278],[2.274589,41.905367],[2.274608,41.905456],[2.274618,41.905487],[2.274639,41.905532],[2.274664,41.905577],[2.274709,41.905646],[2.274761,41.905712],[2.274792,41.905745],[2.274842,41.90579],[2.274897,41.905833],[2.274932,41.905857],[2.274986,41.905891],[2.274938,41.906218],[2.275057,41.906592],[2.275323,41.906484],[2.275654,41.906477],[2.275715,41.90647],[2.276214,41.906499],[2.276294,41.906509],[2.276545,41.906539],[2.276818,41.906529],[2.27698,41.906609],[2.27729,41.906648],[2.277295,41.90667],[2.277315,41.906678],[2.277335,41.906686],[2.277356,41.906693],[2.277374,41.906696],[2.27738,41.906697],[2.277427,41.906699],[2.277447,41.906699],[2.277466,41.906693],[2.277517,41.906669],[2.277563,41.906644],[2.277623,41.90661],[2.277684,41.906577],[2.277728,41.906556],[2.277731,41.906555],[2.277837,41.906523],[2.27789,41.906513],[2.277963,41.906508],[2.278024,41.906507],[2.278085,41.906506],[2.278208,41.906504],[2.278243,41.906503]]]]}},{"type":"Feature","id":"082460_082460 SI01 OSO 2","properties":{"area_id":"082460_082460 SI01 OSO 2","nom":"Polígon industrial El Bulló","codi_icgc":"082460 SI01 OSO 2","categoria":"Sector industrial","codi_municipi":"082460","municipi":"Santa Eugènia de Berga","codi_comarca":"24","comarca":"Osona","provincia":"Barcelona","font":"ICGC Àrees de poblament v3r1 202602"},"geometry":{"type":"MultiPolygon","coordinates":[[[[2.275987,41.902864],[2.275986,41.902871],[2.275944,41.902905],[2.275887,41.902943],[2.275825,41.902976],[2.27576,41.903004],[2.27569,41.903028],[2.275618,41.903046],[2.275597,41.90305],[2.275691,41.903364],[2.275685,41.903366],[2.275536,41.903402],[2.275446,41.903429],[2.275155,41.903515],[2.275,41.903561],[2.274893,41.903572],[2.274695,41.903651],[2.274657,41.903667],[2.274096,41.903835],[2.274211,41.904207],[2.27393,41.904316],[2.273913,41.904323],[2.273888,41.904444],[2.273876,41.904498],[2.273862,41.904545],[2.273815,41.904697],[2.273766,41.904849],[2.27372,41.904977],[2.273678,41.905095],[2.273745,41.905078],[2.273746,41.905078],[2.273814,41.90506],[2.273858,41.905046],[2.273919,41.905018],[2.273977,41.904985],[2.274035,41.904948],[2.274062,41.904927],[2.274085,41.904905],[2.274155,41.904833],[2.274224,41.90476],[2.274273,41.904709],[2.274322,41.904659],[2.274344,41.904638],[2.274384,41.904612],[2.27443,41.904591],[2.274505,41.904563],[2.27458,41.904535],[2.274515,41.904408],[2.274393,41.90417],[2.274645,41.904091],[2.274707,41.904072],[2.275117,41.903953],[2.275167,41.904041],[2.275273,41.904229],[2.275758,41.904084],[2.275775,41.904079],[2.275834,41.904058],[2.276625,41.903814],[2.27799,41.903396],[2.277998,41.903316],[2.276894,41.902809],[2.276597,41.902678],[2.276487,41.902629],[2.27639,41.902585],[2.276349,41.902566],[2.276314,41.90255],[2.276142,41.902719],[2.276022,41.902836],[2.275987,41.902864]]]]}},{"type":"Feature","id":"082460_082460 AP01 OSO 3","properties":{"area_id":"082460_082460 AP01 OSO 3","nom":"Santa Eugènia de Berga","codi_icgc":"082460 AP01 OSO 3","categoria":"Àrees de poblament","codi_municipi":"082460","municipi":"Santa Eugènia de Berga","codi_comarca":"24","comarca":"Osona","provincia":"Barcelona","font":"ICGC Àrees de poblament v3r1 202602"},"geometry":{"type":"MultiPolygon","coordinates":[[[[2.282619,41.907001],[2.282686,41.90707],[2.28378,41.905959],[2.283996,41.905882],[2.284009,41.905814],[2.284042,41.905637],[2.284073,41.905461],[2.284104,41.90531],[2.284111,41.905265],[2.284114,41.905249],[2.284121,41.905204],[2.284122,41.905198],[2.284125,41.90516],[2.284126,41.905138],[2.284128,41.905117],[2.28414,41.905044],[2.284149,41.905018],[2.284171,41.904979],[2.284195,41.904939],[2.284215,41.904906],[2.284236,41.904871],[2.284248,41.904839],[2.284256,41.904792],[2.284258,41.904782],[2.284262,41.904755],[2.284268,41.904723],[2.284293,41.904616],[2.284329,41.904503],[2.284345,41.904396],[2.284362,41.90429],[2.284389,41.904113],[2.284418,41.903936],[2.284426,41.903851],[2.284427,41.903766],[2.284423,41.903708],[2.28441,41.903623],[2.284389,41.903538],[2.284368,41.903476],[2.284338,41.903386],[2.284288,41.903234],[2.284262,41.903172],[2.284267,41.903171],[2.284573,41.903116],[2.284575,41.903091],[2.284564,41.903007],[2.284585,41.903004],[2.284655,41.902994],[2.284872,41.90297],[2.284948,41.902962],[2.285055,41.90295],[2.285237,41.90293],[2.285251,41.902928],[2.28526,41.902926],[2.285269,41.902924],[2.285319,41.902897],[2.285333,41.90287],[2.285338,41.902848],[2.285331,41.902803],[2.285318,41.90272],[2.285296,41.902556],[2.285294,41.902546],[2.2858,41.902512],[2.285995,41.902447],[2.285999,41.902441],[2.286214,41.902157],[2.286052,41.901922],[2.285868,41.90158],[2.285635,41.90118],[2.285638,41.901172],[2.285663,41.901128],[2.285657,41.901126],[2.285671,41.901091],[2.285688,41.901075],[2.285694,41.901071],[2.285699,41.901067],[2.285774,41.901073],[2.285789,41.901075],[2.285869,41.901083],[2.285942,41.901091],[2.286081,41.901107],[2.286209,41.901121],[2.286221,41.901122],[2.286297,41.901125],[2.286351,41.901122],[2.28637,41.901121],[2.286408,41.901117],[2.286471,41.901108],[2.286584,41.901087],[2.286595,41.901165],[2.286638,41.901405],[2.286111,41.901474],[2.28617,41.901563],[2.286291,41.90174],[2.28639,41.90188],[2.286417,41.901961],[2.286479,41.90206],[2.286756,41.902009],[2.286771,41.90208],[2.286788,41.90216],[2.286812,41.902175],[2.286838,41.902196],[2.286847,41.902207],[2.286856,41.902219],[2.286873,41.902277],[2.286878,41.902301],[2.286883,41.902325],[2.286883,41.902343],[2.28688,41.902362],[2.286878,41.902375],[2.286873,41.902388],[2.286863,41.902396],[2.286849,41.9024],[2.286832,41.902402],[2.286814,41.9024],[2.286791,41.902396],[2.286768,41.90239],[2.286749,41.902385],[2.28673,41.902379],[2.286721,41.902377],[2.286668,41.90237],[2.286648,41.902371],[2.286628,41.902374],[2.286593,41.902388],[2.286564,41.902411],[2.286542,41.902432],[2.28648,41.902497],[2.28642,41.902564],[2.286383,41.90261],[2.286357,41.902647],[2.286334,41.902686],[2.28632,41.90277],[2.286297,41.902765],[2.286094,41.902718],[2.285968,41.902803],[2.285919,41.902967],[2.285879,41.903067],[2.285898,41.90311],[2.286032,41.90314],[2.286194,41.903219],[2.286203,41.903255],[2.286192,41.903326],[2.28605,41.903465],[2.285955,41.903557],[2.285986,41.903568],[2.286561,41.903782],[2.286628,41.903763],[2.286658,41.903718],[2.286665,41.903675],[2.286718,41.903604],[2.286738,41.903567],[2.286763,41.903423],[2.286802,41.903328],[2.286822,41.903295],[2.286932,41.903181],[2.287084,41.903068],[2.287151,41.902982],[2.287217,41.902895],[2.287312,41.902864],[2.287344,41.902836],[2.287381,41.902793],[2.287421,41.902747],[2.287446,41.902693],[2.28747,41.902656],[2.287758,41.902703],[2.287992,41.902754],[2.288063,41.902764],[2.288099,41.902745],[2.288139,41.902687],[2.288154,41.90263],[2.288182,41.902524],[2.288229,41.902356],[2.288345,41.902285],[2.288576,41.902165],[2.288835,41.902085],[2.288775,41.901895],[2.288605,41.901488],[2.288484,41.901302],[2.288311,41.901054],[2.288322,41.90081],[2.288402,41.900813],[2.288593,41.9008],[2.288988,41.900778],[2.289132,41.900755],[2.289312,41.900712],[2.289544,41.900615],[2.289707,41.900518],[2.289632,41.900389],[2.289625,41.900377],[2.289167,41.899592],[2.289166,41.899589],[2.289144,41.899596],[2.289117,41.899585],[2.289095,41.899594],[2.289024,41.899616],[2.288965,41.899631],[2.288906,41.899646],[2.288892,41.89965],[2.288809,41.899665],[2.288726,41.899676],[2.288709,41.899678],[2.28867,41.899681],[2.288554,41.899686],[2.288438,41.899692],[2.288383,41.899694],[2.288327,41.899699],[2.288317,41.899701],[2.288289,41.899706],[2.28826,41.899715],[2.288202,41.899734],[2.288119,41.899763],[2.288016,41.899796],[2.287912,41.899828],[2.287865,41.899841],[2.287817,41.899851],[2.287717,41.899866],[2.287564,41.899884],[2.287411,41.899897],[2.287269,41.899906],[2.287127,41.899914],[2.287077,41.899919],[2.287046,41.899926],[2.286952,41.899963],[2.286945,41.899963],[2.286918,41.899964],[2.286909,41.899965],[2.286888,41.899957],[2.286862,41.899955],[2.286823,41.899962],[2.286791,41.899968],[2.286769,41.899972],[2.286647,41.899992],[2.286503,41.900015],[2.286403,41.900031],[2.286352,41.900041],[2.286301,41.900053],[2.286291,41.900055],[2.286271,41.900077],[2.286271,41.900096],[2.285957,41.90015],[2.285896,41.900135],[2.285836,41.900119],[2.285809,41.900112],[2.285783,41.900104],[2.285767,41.900103],[2.285751,41.900109],[2.285741,41.900116],[2.285732,41.900127],[2.285732,41.900138],[2.285737,41.90016],[2.285737,41.900199],[2.28574,41.900237],[2.28575,41.90028],[2.285763,41.900323],[2.285775,41.900357],[2.285794,41.900388],[2.285814,41.900408],[2.285838,41.900425],[2.285886,41.90046],[2.285949,41.900515],[2.285967,41.900535],[2.285983,41.900564],[2.28599,41.900589],[2.285992,41.900614],[2.285992,41.900663],[2.285994,41.900692],[2.285994,41.90072],[2.28599,41.900739],[2.28596,41.900818],[2.285927,41.900898],[2.2859,41.90096],[2.285874,41.901021],[2.285804,41.901014],[2.285785,41.901012],[2.285705,41.901004],[2.285531,41.900987],[2.285358,41.900961],[2.284998,41.900932],[2.284727,41.900897],[2.284711,41.900894],[2.284694,41.900888],[2.284683,41.900883],[2.284671,41.900876],[2.284664,41.900871],[2.284731,41.900612],[2.28473,41.900558],[2.28473,41.900536],[2.284711,41.900517],[2.284685,41.900503],[2.284375,41.900467],[2.284383,41.900366],[2.284324,41.900244],[2.284321,41.900243],[2.28432,41.900239],[2.284313,41.90024],[2.284153,41.90018],[2.284149,41.89998],[2.284146,41.899813],[2.28411,41.899821],[2.284107,41.899748],[2.284105,41.899716],[2.283917,41.899559],[2.283958,41.89947],[2.283982,41.899414],[2.284102,41.899103],[2.284058,41.899095],[2.283865,41.899049],[2.283867,41.899038],[2.283777,41.899018],[2.283774,41.899028],[2.283758,41.899076],[2.283601,41.899463],[2.283407,41.899482],[2.283114,41.89879],[2.283085,41.898716],[2.283082,41.898623],[2.283089,41.898595],[2.283078,41.898524],[2.282936,41.898475],[2.282837,41.898472],[2.282773,41.898481],[2.28274,41.898502],[2.282624,41.898575],[2.2825,41.898637],[2.28241,41.898675],[2.282234,41.89866],[2.282033,41.898647],[2.281941,41.898632],[2.281785,41.898607],[2.281556,41.89857],[2.281437,41.898501],[2.281491,41.89873],[2.281402,41.89876],[2.281388,41.898763],[2.281346,41.898783],[2.281216,41.898844],[2.281199,41.898828],[2.281135,41.898767],[2.281069,41.898706],[2.280959,41.89856],[2.280703,41.898669],[2.280752,41.898754],[2.28075,41.89881],[2.280749,41.898839],[2.280755,41.898856],[2.28077,41.898878],[2.280795,41.898898],[2.280823,41.898911],[2.280866,41.898924],[2.28091,41.898932],[2.280946,41.898941],[2.280977,41.898948],[2.280825,41.898969],[2.280759,41.899],[2.280691,41.899069],[2.280641,41.899191],[2.280544,41.89923],[2.280547,41.899368],[2.280552,41.899416],[2.28061,41.899459],[2.280673,41.899468],[2.280722,41.89946],[2.280734,41.899474],[2.280713,41.899482],[2.280684,41.899502],[2.28066,41.899527],[2.280643,41.899554],[2.280633,41.899583],[2.280631,41.899613],[2.280634,41.899635],[2.280644,41.899661],[2.280662,41.899685],[2.280686,41.899706],[2.280716,41.899723],[2.280749,41.899735],[2.280766,41.899739],[2.280778,41.899741],[2.280853,41.899746],[2.280864,41.8998],[2.280571,41.899828],[2.280478,41.899874],[2.280645,41.900151],[2.280655,41.900168],[2.280555,41.900171],[2.280528,41.900169],[2.28049,41.900165],[2.280442,41.90016],[2.280425,41.900158],[2.280395,41.900155],[2.280345,41.900146],[2.280309,41.900136],[2.280247,41.900119],[2.280189,41.900096],[2.280134,41.900069],[2.280084,41.900037],[2.280069,41.900026],[2.280021,41.899995],[2.279969,41.899966],[2.279951,41.899958],[2.279836,41.899888],[2.279844,41.899886],[2.279804,41.89983],[2.27974,41.899755],[2.279692,41.899717],[2.279648,41.899688],[2.279516,41.899656],[2.279465,41.899638],[2.279294,41.899552],[2.279146,41.899484],[2.279094,41.899454],[2.278961,41.899354],[2.278951,41.899332],[2.278739,41.899237],[2.278584,41.899189],[2.278493,41.899166],[2.278433,41.89916],[2.278406,41.899164],[2.277571,41.899147],[2.277556,41.899135],[2.277541,41.899123],[2.277524,41.899115],[2.277508,41.899113],[2.277482,41.899114],[2.277458,41.899118],[2.27741,41.899129],[2.277389,41.899138],[2.277369,41.899153],[2.277357,41.899168],[2.277349,41.899191],[2.277348,41.899214],[2.277354,41.89925],[2.277359,41.899285],[2.277349,41.89933],[2.277343,41.899352],[2.277341,41.899363],[2.277338,41.899418],[2.277334,41.899474],[2.277336,41.899495],[2.277347,41.899525],[2.27736,41.899555],[2.277382,41.899598],[2.27742,41.899662],[2.277437,41.899694],[2.277448,41.899728],[2.277457,41.899791],[2.277466,41.899854],[2.277482,41.899942],[2.2775,41.900029],[2.277511,41.900063],[2.277533,41.900112],[2.277553,41.900162],[2.277561,41.90017],[2.277568,41.900179],[2.277575,41.900184],[2.27759,41.900188],[2.277606,41.900189],[2.277691,41.900189],[2.277733,41.900187],[2.277775,41.900182],[2.277797,41.900179],[2.27784,41.900173],[2.277904,41.900164],[2.277938,41.900159],[2.277894,41.901425],[2.277894,41.90144],[2.277816,41.901421],[2.277694,41.901416],[2.277675,41.901435],[2.277373,41.901737],[2.277247,41.901862],[2.277043,41.90207],[2.277367,41.902229],[2.277367,41.902274],[2.278385,41.90275],[2.279099,41.903076],[2.279083,41.903209],[2.279082,41.903219],[2.279106,41.90325],[2.27916,41.903274],[2.279195,41.90328],[2.279244,41.903293],[2.27929,41.90331],[2.279367,41.903346],[2.279442,41.903383],[2.279655,41.903491],[2.279745,41.903536],[2.279874,41.903594],[2.279867,41.903652],[2.279842,41.904595],[2.280695,41.904658],[2.280735,41.904661],[2.281268,41.904689],[2.281217,41.904814],[2.281135,41.905048],[2.281105,41.905128],[2.281089,41.90517],[2.281064,41.905219],[2.281032,41.905265],[2.281026,41.905279],[2.281024,41.905282],[2.280724,41.906098],[2.280694,41.90618],[2.280685,41.906195],[2.280675,41.906209],[2.280666,41.906291],[2.280634,41.906372],[2.280765,41.9064],[2.280787,41.906396],[2.280816,41.906397],[2.280824,41.906399],[2.28177,41.906605],[2.281831,41.906611],[2.281893,41.906612],[2.281955,41.906607],[2.282015,41.906597],[2.282073,41.90658],[2.282128,41.906559],[2.282179,41.906533],[2.282225,41.906502],[2.282228,41.906499],[2.28227,41.90646],[2.28239,41.906345],[2.282509,41.90623],[2.282615,41.906125],[2.282719,41.906022],[2.282735,41.906008],[2.282754,41.905995],[2.282789,41.905974],[2.28288,41.905921],[2.283008,41.905847],[2.283094,41.905798],[2.283165,41.905759],[2.283232,41.905724],[2.283236,41.905723],[2.283256,41.905723],[2.283273,41.905724],[2.283325,41.905734],[2.283356,41.905739],[2.283411,41.905752],[2.283418,41.905764],[2.28342,41.905768],[2.283428,41.905783],[2.283447,41.905808],[2.283437,41.905823],[2.283422,41.905838],[2.283314,41.905948],[2.283205,41.906059],[2.282988,41.906281],[2.282758,41.906518],[2.282528,41.906756],[2.282509,41.906776],[2.282488,41.906797],[2.282486,41.9068],[2.28248,41.906809],[2.282478,41.906825],[2.282485,41.906848],[2.282512,41.906883],[2.282543,41.906921],[2.282575,41.906958],[2.282598,41.906981],[2.282619,41.907001]]]]}}]}