{"type":"FeatureCollection","name":"ICGC Àrees de poblament - Santa Margarida de Montbui","features":[{"type":"Feature","id":"082508_082508 SI01 ANO 2","properties":{"area_id":"082508_082508 SI01 ANO 2","nom":"Cal Jepet","codi_icgc":"082508 SI01 ANO 2","categoria":"Sector industrial","codi_municipi":"082508","municipi":"Santa Margarida de Montbui","codi_comarca":"06","comarca":"Anoia","provincia":"Barcelona","font":"ICGC Àrees de poblament v3r1 202602"},"geometry":{"type":"MultiPolygon","coordinates":[[[[1.553724,41.580747],[1.554076,41.580676],[1.554151,41.580707],[1.554531,41.580684],[1.554559,41.580674],[1.554559,41.580657],[1.554557,41.580638],[1.554387,41.58045],[1.554384,41.580439],[1.554381,41.580414],[1.55438,41.580389],[1.554381,41.580364],[1.554384,41.580339],[1.55439,41.580314],[1.554397,41.58029],[1.554415,41.580247],[1.554439,41.580207],[1.554469,41.580168],[1.554504,41.580132],[1.554523,41.580122],[1.554538,41.580109],[1.55455,41.580096],[1.554559,41.580082],[1.554564,41.580067],[1.554567,41.580052],[1.554583,41.58003],[1.554605,41.580011],[1.554631,41.579996],[1.55466,41.579986],[1.554679,41.579986],[1.554845,41.579987],[1.554876,41.579915],[1.554861,41.579875],[1.55473,41.579865],[1.554699,41.579863],[1.554691,41.579813],[1.554662,41.579794],[1.554649,41.579737],[1.554623,41.57962],[1.554822,41.57941],[1.554946,41.57925],[1.554771,41.579004],[1.554682,41.578971],[1.55458,41.578922],[1.554551,41.578897],[1.554515,41.57885],[1.554503,41.578815],[1.55449,41.578661],[1.553999,41.578573],[1.553548,41.57849],[1.553324,41.578523],[1.553141,41.578591],[1.552928,41.578701],[1.55286,41.578734],[1.55267,41.578789],[1.552587,41.578802],[1.552299,41.578853],[1.552277,41.579085],[1.552164,41.579356],[1.55207,41.579588],[1.551997,41.579768],[1.55199,41.579819],[1.55198,41.57984],[1.551963,41.579859],[1.551944,41.57987],[1.551922,41.579877],[1.551898,41.579882],[1.551873,41.579885],[1.551817,41.579889],[1.55176,41.579892],[1.551635,41.579902],[1.55151,41.579911],[1.551392,41.57992],[1.551275,41.57993],[1.551208,41.579939],[1.551143,41.579952],[1.551068,41.579974],[1.550997,41.580002],[1.550939,41.580028],[1.550884,41.580059],[1.550854,41.580083],[1.55083,41.58011],[1.550809,41.580139],[1.550793,41.580169],[1.550775,41.580215],[1.550759,41.58026],[1.550734,41.580336],[1.55071,41.580412],[1.550689,41.580475],[1.550668,41.580538],[1.550646,41.580601],[1.550622,41.580664],[1.550605,41.580704],[1.550638,41.580716],[1.550669,41.580729],[1.550617,41.580853],[1.550849,41.580914],[1.550832,41.580957],[1.550829,41.580991],[1.550832,41.581001],[1.550836,41.581016],[1.551161,41.581122],[1.551176,41.581127],[1.55158,41.581265],[1.551734,41.5813],[1.551775,41.581302],[1.551871,41.581307],[1.551938,41.581311],[1.552255,41.581198],[1.552264,41.581195],[1.552794,41.580963],[1.553045,41.58087],[1.55336,41.580833],[1.553724,41.580747]]]]}},{"type":"Feature","id":"082508_082508 SI02 ANO 2","properties":{"area_id":"082508_082508 SI02 ANO 2","nom":"Polígon industrial Plans de la Tossa","codi_icgc":"082508 SI02 ANO 2","categoria":"Sector industrial","codi_municipi":"082508","municipi":"Santa Margarida de Montbui","codi_comarca":"06","comarca":"Anoia","provincia":"Barcelona","font":"ICGC Àrees de poblament v3r1 202602"},"geometry":{"type":"MultiPolygon","coordinates":[[[[1.60971,41.56595],[1.609635,41.565911],[1.609579,41.565839],[1.609491,41.56581],[1.60939,41.565799],[1.609301,41.565807],[1.609198,41.565835],[1.609097,41.565872],[1.609103,41.565781],[1.609056,41.565768],[1.6085,41.565655],[1.608467,41.565654],[1.608443,41.565652],[1.608442,41.565657],[1.608439,41.565657],[1.6081,41.5657],[1.607695,41.565673],[1.607301,41.565467],[1.607174,41.565401],[1.607086,41.565355],[1.606707,41.56578],[1.606707,41.56578],[1.606192,41.565494],[1.606128,41.565566],[1.60542,41.566346],[1.605403,41.566364],[1.605232,41.566274],[1.604573,41.565896],[1.604119,41.565653],[1.604064,41.565629],[1.604091,41.565598],[1.604608,41.565013],[1.604764,41.564837],[1.604851,41.56475],[1.604772,41.564708],[1.604659,41.564647],[1.604171,41.564384],[1.604014,41.564507],[1.6039,41.5646],[1.60371,41.56466],[1.60317,41.565379],[1.603136,41.565371],[1.603064,41.565406],[1.603044,41.565467],[1.603047,41.565549],[1.603054,41.565635],[1.603019,41.565749],[1.602933,41.565955],[1.602764,41.566278],[1.602641,41.566487],[1.602639,41.566499],[1.602636,41.566519],[1.602632,41.566546],[1.602883,41.566644],[1.603253,41.566786],[1.603536,41.566903],[1.603683,41.567026],[1.603723,41.56706],[1.603803,41.567162],[1.603855,41.567218],[1.603955,41.567326],[1.604071,41.567455],[1.604186,41.567585],[1.604243,41.56765],[1.604315,41.567732],[1.604389,41.567816],[1.604418,41.567815],[1.605336,41.567787],[1.606092,41.566833],[1.60616,41.566871],[1.60639,41.566996],[1.606549,41.567073],[1.606711,41.567146],[1.606878,41.567213],[1.607048,41.567275],[1.607146,41.567308],[1.607434,41.567391],[1.60759,41.56743],[1.607749,41.567464],[1.60791,41.567492],[1.608072,41.567515],[1.60811,41.56752],[1.608168,41.567527],[1.608224,41.567539],[1.608277,41.567557],[1.608327,41.567579],[1.608373,41.567607],[1.608413,41.567638],[1.608437,41.567662],[1.608573,41.567815],[1.608583,41.567843],[1.608583,41.567843],[1.608605,41.567856],[1.608629,41.567866],[1.608655,41.567874],[1.608683,41.567877],[1.608707,41.567878],[1.60873,41.567876],[1.608754,41.567871],[1.608775,41.567864],[1.609095,41.567817],[1.609138,41.567802],[1.609179,41.567784],[1.609227,41.567757],[1.60927,41.567726],[1.610238,41.567888],[1.610302,41.567857],[1.610302,41.567857],[1.610709,41.567727],[1.611103,41.567602],[1.611441,41.567494],[1.611442,41.567493],[1.611505,41.567436],[1.611519,41.567329],[1.611509,41.567228],[1.611435,41.56697],[1.611351,41.566844],[1.611181,41.566631],[1.610984,41.566467],[1.611381,41.566251],[1.611382,41.566185],[1.611857,41.565875],[1.611693,41.565748],[1.611402,41.565637],[1.611229,41.565546],[1.610986,41.565394],[1.610751,41.565296],[1.610529,41.565257],[1.610163,41.565688],[1.609906,41.565972],[1.60971,41.56595]]]]}},{"type":"Feature","id":"082508_082508 AP01 ANO 3","properties":{"area_id":"082508_082508 AP01 ANO 3","nom":"Santa Margarida de Montbui","codi_icgc":"082508 AP01 ANO 3","categoria":"Àrees de poblament","codi_municipi":"082508","municipi":"Santa Margarida de Montbui","codi_comarca":"06","comarca":"Anoia","provincia":"Barcelona","font":"ICGC Àrees de poblament v3r1 202602"},"geometry":{"type":"MultiPolygon","coordinates":[[[[1.607798,41.578119],[1.607814,41.578113],[1.608027,41.578039],[1.608325,41.577921],[1.60846,41.577844],[1.608566,41.57776],[1.608639,41.577652],[1.608667,41.577659],[1.608699,41.577657],[1.608711,41.577657],[1.608754,41.577651],[1.608775,41.577643],[1.608789,41.577634],[1.608808,41.577624],[1.608831,41.577601],[1.608854,41.577578],[1.608874,41.577559],[1.608896,41.577539],[1.608934,41.577504],[1.608971,41.577469],[1.608997,41.577445],[1.609026,41.577419],[1.609046,41.577399],[1.609061,41.577374],[1.609071,41.577343],[1.609079,41.577317],[1.609087,41.577293],[1.609095,41.577271],[1.609106,41.577249],[1.609131,41.577228],[1.609294,41.57726],[1.609304,41.577255],[1.609311,41.577237],[1.609331,41.577212],[1.609368,41.577187],[1.609427,41.577166],[1.609495,41.577103],[1.609566,41.577084],[1.609715,41.57703],[1.60975,41.577054],[1.609794,41.577045],[1.609822,41.577039],[1.609999,41.577019],[1.610136,41.57699],[1.610205,41.576953],[1.610235,41.576903],[1.610248,41.576857],[1.610357,41.576804],[1.610357,41.576783],[1.610291,41.576647],[1.6104,41.57661],[1.610412,41.576636],[1.61055,41.576601],[1.610546,41.576593],[1.610621,41.576574],[1.610606,41.57654],[1.610616,41.576536],[1.610764,41.576541],[1.610818,41.57653],[1.610832,41.576528],[1.610825,41.576517],[1.610933,41.576483],[1.610937,41.576481],[1.611126,41.576408],[1.611339,41.576285],[1.611482,41.576194],[1.611521,41.576158],[1.611536,41.576143],[1.611585,41.576098],[1.61163,41.5761],[1.611972,41.575851],[1.612326,41.575586],[1.612355,41.575577],[1.612447,41.575586],[1.612514,41.57556],[1.612621,41.575554],[1.61264,41.57555],[1.612665,41.57551],[1.612681,41.575485],[1.61284,41.575391],[1.612888,41.575433],[1.612971,41.575434],[1.613035,41.575432],[1.613116,41.575402],[1.613212,41.575353],[1.613267,41.575333],[1.613374,41.575323],[1.613396,41.575312],[1.613481,41.575274],[1.613517,41.575304],[1.613527,41.575312],[1.61357,41.575286],[1.613678,41.57524],[1.613749,41.575236],[1.61378,41.575217],[1.613951,41.575211],[1.613995,41.575187],[1.613925,41.575127],[1.613964,41.575103],[1.613683,41.57483],[1.613608,41.574763],[1.613515,41.574684],[1.613444,41.574619],[1.613372,41.574555],[1.613348,41.574532],[1.613333,41.574521],[1.613315,41.574512],[1.613267,41.574491],[1.613219,41.574472],[1.61308,41.574426],[1.612971,41.574391],[1.612877,41.57436],[1.612783,41.57433],[1.612596,41.574269],[1.612469,41.574225],[1.612378,41.574189],[1.612343,41.574177],[1.612308,41.574172],[1.612278,41.574171],[1.612154,41.57418],[1.612033,41.57419],[1.611861,41.574203],[1.611688,41.574218],[1.611601,41.57423],[1.611515,41.574247],[1.611419,41.574267],[1.611324,41.574291],[1.611262,41.574311],[1.611169,41.574347],[1.611078,41.574384],[1.611005,41.574415],[1.610934,41.574445],[1.610916,41.57445],[1.610897,41.574451],[1.610853,41.574449],[1.610807,41.574442],[1.610763,41.57443],[1.610749,41.574423],[1.610739,41.574419],[1.610719,41.574405],[1.610709,41.574396],[1.610687,41.574353],[1.610684,41.574348],[1.610654,41.574289],[1.610622,41.574224],[1.6106,41.574171],[1.610582,41.574117],[1.610564,41.574058],[1.610556,41.57403],[1.610547,41.574001],[1.610542,41.573981],[1.610536,41.573961],[1.610558,41.573965],[1.610571,41.573966],[1.610605,41.573983],[1.610631,41.574005],[1.610709,41.574073],[1.610776,41.574108],[1.610833,41.574128],[1.610895,41.574135],[1.610962,41.574135],[1.611039,41.574127],[1.611044,41.574078],[1.611049,41.57402],[1.611084,41.574021],[1.611116,41.574015],[1.611147,41.574003],[1.611164,41.573988],[1.611169,41.573964],[1.611165,41.573944],[1.611138,41.573911],[1.61113,41.573888],[1.611133,41.573853],[1.611152,41.573788],[1.611156,41.573759],[1.611173,41.57376],[1.611244,41.573764],[1.611263,41.573758],[1.611271,41.573744],[1.611271,41.573705],[1.611281,41.573669],[1.611297,41.573634],[1.611306,41.573616],[1.611321,41.573589],[1.611359,41.573542],[1.611389,41.5735],[1.611422,41.573444],[1.61144,41.573412],[1.611468,41.57339],[1.611474,41.573388],[1.611536,41.573375],[1.611558,41.573366],[1.611588,41.573354],[1.611679,41.572956],[1.611643,41.572943],[1.611673,41.572812],[1.611461,41.572732],[1.611235,41.5727],[1.61121,41.572562],[1.611324,41.572582],[1.611334,41.572554],[1.611348,41.572524],[1.611415,41.572552],[1.611487,41.57256],[1.611667,41.572569],[1.611673,41.572539],[1.61178,41.572549],[1.611806,41.572447],[1.611855,41.572316],[1.611864,41.572306],[1.611849,41.572133],[1.61185,41.572113],[1.611847,41.57205],[1.611755,41.572012],[1.611748,41.572009],[1.611661,41.571983],[1.611582,41.571947],[1.611591,41.571935],[1.611518,41.571901],[1.611444,41.571835],[1.611434,41.571826],[1.611419,41.571819],[1.611252,41.571736],[1.611219,41.571705],[1.611176,41.571684],[1.610989,41.571579],[1.610907,41.571539],[1.610841,41.571501],[1.610755,41.571457],[1.610555,41.571363],[1.610518,41.571347],[1.610462,41.571298],[1.610432,41.571277],[1.610372,41.571236],[1.610349,41.571231],[1.610344,41.57123],[1.610278,41.57122],[1.610241,41.57123],[1.61018,41.571227],[1.61009,41.571195],[1.609994,41.571171],[1.609748,41.571126],[1.609655,41.571108],[1.609623,41.571079],[1.609476,41.571051],[1.609459,41.571018],[1.609396,41.570985],[1.609268,41.570961],[1.609243,41.570956],[1.609218,41.570952],[1.609147,41.570942],[1.609076,41.570931],[1.60885,41.570896],[1.608624,41.57086],[1.608455,41.570833],[1.608286,41.570805],[1.60824,41.570798],[1.608194,41.57079],[1.608189,41.570789],[1.608165,41.570786],[1.607997,41.570766],[1.607949,41.570766],[1.607904,41.570779],[1.607885,41.570791],[1.607872,41.570805],[1.607829,41.570915],[1.607794,41.571064],[1.60779,41.571076],[1.607788,41.571082],[1.607781,41.571112],[1.607773,41.57111],[1.607675,41.571096],[1.607602,41.571088],[1.607523,41.57108],[1.607521,41.571094],[1.607507,41.571167],[1.607283,41.571119],[1.607244,41.571236],[1.607173,41.571225],[1.607075,41.571206],[1.607013,41.57119],[1.607013,41.571187],[1.60696,41.571183],[1.606934,41.571177],[1.606935,41.571174],[1.606921,41.571173],[1.606907,41.571169],[1.606854,41.571167],[1.606818,41.571174],[1.606765,41.571179],[1.606674,41.571178],[1.606473,41.571202],[1.606366,41.57122],[1.606371,41.571257],[1.606249,41.571239],[1.606167,41.571223],[1.606154,41.571221],[1.606121,41.571214],[1.606136,41.571178],[1.606189,41.571042],[1.606089,41.571029],[1.606054,41.571024],[1.606016,41.571001],[1.605991,41.570979],[1.605951,41.570935],[1.605881,41.570907],[1.605802,41.570889],[1.60573,41.570881],[1.605656,41.570879],[1.605568,41.570881],[1.605568,41.570882],[1.605516,41.570879],[1.605436,41.571203],[1.605377,41.571274],[1.605371,41.571307],[1.605349,41.571398],[1.605327,41.57149],[1.605308,41.571562],[1.60529,41.571636],[1.605269,41.571704],[1.605248,41.571708],[1.60521,41.571703],[1.605106,41.57169],[1.604888,41.571657],[1.60467,41.571625],[1.604591,41.571615],[1.604512,41.571606],[1.604414,41.571596],[1.604199,41.571561],[1.604195,41.57156],[1.604195,41.571559],[1.604147,41.571554],[1.604146,41.57155],[1.60417,41.571502],[1.604203,41.571427],[1.604215,41.571383],[1.604231,41.571313],[1.604247,41.571227],[1.604263,41.571141],[1.60428,41.571083],[1.604291,41.571048],[1.604312,41.571012],[1.604332,41.570984],[1.604354,41.570959],[1.60433,41.57094],[1.60433,41.57094],[1.60433,41.57094],[1.604233,41.570936],[1.604146,41.570926],[1.603973,41.570899],[1.603817,41.570874],[1.603786,41.570839],[1.603838,41.570621],[1.603772,41.570584],[1.603581,41.570553],[1.603614,41.570408],[1.60307,41.569909],[1.602666,41.569856],[1.602397,41.56982],[1.602083,41.569781],[1.601912,41.57064],[1.601923,41.570678],[1.601925,41.570689],[1.601924,41.570695],[1.601923,41.570702],[1.601919,41.570714],[1.601915,41.570733],[1.601911,41.570746],[1.601906,41.570758],[1.601902,41.570762],[1.601896,41.570767],[1.601883,41.570774],[1.601877,41.570777],[1.60187,41.57078],[1.601856,41.570784],[1.601855,41.570784],[1.601848,41.570825],[1.601875,41.570837],[1.601892,41.570848],[1.601911,41.570871],[1.601924,41.570898],[1.601934,41.570936],[1.601936,41.570955],[1.601935,41.570974],[1.601923,41.57105],[1.601906,41.571126],[1.601867,41.571293],[1.601823,41.571459],[1.601778,41.571609],[1.601762,41.571659],[1.601745,41.571722],[1.601734,41.571762],[1.601686,41.571874],[1.601679,41.571895],[1.601669,41.571942],[1.601539,41.572549],[1.601667,41.572559],[1.601695,41.572571],[1.601752,41.572594],[1.601715,41.572744],[1.60172,41.572761],[1.601729,41.572779],[1.601753,41.5728],[1.601787,41.572811],[1.601803,41.572814],[1.601814,41.572815],[1.601913,41.572827],[1.602011,41.572839],[1.602373,41.57289],[1.602736,41.572941],[1.602844,41.572954],[1.602951,41.572966],[1.603072,41.572981],[1.603033,41.573169],[1.603061,41.573186],[1.603342,41.573218],[1.603326,41.573322],[1.603471,41.573346],[1.603526,41.573412],[1.603544,41.573432],[1.603577,41.573492],[1.603736,41.573537],[1.603834,41.573555],[1.604045,41.573579],[1.604102,41.57359],[1.604083,41.57365],[1.604154,41.573662],[1.604244,41.573666],[1.604265,41.573667],[1.604322,41.573685],[1.604336,41.573659],[1.604402,41.573683],[1.604453,41.57369],[1.604512,41.573684],[1.604592,41.573628],[1.604615,41.573543],[1.604622,41.573517],[1.604645,41.573517],[1.604668,41.573518],[1.604701,41.573517],[1.604734,41.573516],[1.604793,41.573521],[1.604851,41.573526],[1.604869,41.573528],[1.604888,41.57353],[1.604898,41.573536],[1.604918,41.573548],[1.604937,41.573562],[1.604951,41.573575],[1.604957,41.573585],[1.605033,41.573594],[1.605065,41.573254],[1.60558,41.573301],[1.605661,41.573407],[1.605701,41.573526],[1.605728,41.573608],[1.605766,41.57363],[1.605871,41.573742],[1.605834,41.573838],[1.605821,41.573873],[1.60598,41.574038],[1.60614,41.57407],[1.606206,41.574164],[1.606247,41.574222],[1.606356,41.574725],[1.606236,41.574778],[1.60598,41.574858],[1.605815,41.57491],[1.605453,41.574899],[1.605453,41.574893],[1.605457,41.574584],[1.605215,41.574582],[1.605151,41.574582],[1.605126,41.574583],[1.604914,41.574596],[1.604586,41.574602],[1.604575,41.574603],[1.604531,41.574603],[1.604295,41.574608],[1.604244,41.574609],[1.604213,41.574609],[1.604169,41.574642],[1.604158,41.574642],[1.604145,41.574642],[1.604054,41.574692],[1.604062,41.5747],[1.604007,41.574712],[1.603438,41.574712],[1.603413,41.574731],[1.603413,41.574722],[1.603394,41.574722],[1.603278,41.574795],[1.603133,41.574885],[1.603023,41.574926],[1.603026,41.575024],[1.602936,41.575057],[1.602743,41.575096],[1.602491,41.575206],[1.60242,41.575251],[1.602348,41.575311],[1.602327,41.57536],[1.602332,41.575482],[1.602332,41.575483],[1.602344,41.575528],[1.602355,41.575573],[1.602361,41.575587],[1.602375,41.575605],[1.602396,41.575622],[1.60242,41.575634],[1.602458,41.575647],[1.602499,41.575654],[1.602523,41.575657],[1.602547,41.575659],[1.602624,41.575661],[1.602701,41.575663],[1.602727,41.575668],[1.602751,41.575678],[1.602773,41.575691],[1.6028,41.575714],[1.602815,41.575725],[1.602832,41.575733],[1.602869,41.575747],[1.602906,41.575762],[1.602973,41.575782],[1.60304,41.575802],[1.603084,41.57581],[1.603106,41.575814],[1.603126,41.575821],[1.603179,41.575848],[1.603229,41.575876],[1.603262,41.575895],[1.603295,41.575914],[1.603301,41.575916],[1.603303,41.575916],[1.603321,41.575916],[1.603348,41.575911],[1.60336,41.575912],[1.60337,41.575918],[1.60338,41.575937],[1.603382,41.575956],[1.603385,41.57602],[1.603387,41.576084],[1.603392,41.576145],[1.603398,41.576206],[1.603406,41.57625],[1.603424,41.576294],[1.603438,41.576314],[1.603468,41.57634],[1.603506,41.576361],[1.603513,41.576364],[1.603541,41.576374],[1.603545,41.576375],[1.603654,41.576388],[1.603665,41.576392],[1.603754,41.576389],[1.604042,41.576394],[1.604132,41.576393],[1.604244,41.576395],[1.604254,41.576395],[1.604552,41.5764],[1.604559,41.57649],[1.604565,41.576578],[1.604566,41.576606],[1.604909,41.576606],[1.604909,41.576704],[1.604909,41.576843],[1.604908,41.57706],[1.604908,41.577224],[1.604907,41.577807],[1.604906,41.578454],[1.604026,41.57846],[1.604045,41.577896],[1.604038,41.577585],[1.603245,41.577575],[1.602959,41.577572],[1.60297,41.577608],[1.603097,41.577794],[1.603189,41.577954],[1.603224,41.578047],[1.603226,41.578264],[1.603215,41.578478],[1.60319,41.578725],[1.603188,41.578744],[1.603177,41.578761],[1.60316,41.578776],[1.603138,41.578782],[1.603116,41.578783],[1.603065,41.578783],[1.603014,41.578783],[1.602937,41.578782],[1.602872,41.578781],[1.60286,41.578781],[1.602856,41.578781],[1.602839,41.57878],[1.602839,41.57878],[1.602767,41.578778],[1.602651,41.578772],[1.602638,41.578771],[1.602509,41.578768],[1.60238,41.578766],[1.602076,41.578765],[1.601771,41.578763],[1.601547,41.578758],[1.601323,41.57875],[1.601254,41.578747],[1.601185,41.578744],[1.601154,41.578743],[1.601133,41.578746],[1.601076,41.578766],[1.601075,41.578795],[1.601061,41.57902],[1.601063,41.579053],[1.601065,41.579097],[1.601069,41.579151],[1.601072,41.579206],[1.601081,41.579222],[1.601085,41.579227],[1.601142,41.579229],[1.60125,41.579386],[1.601304,41.579539],[1.601672,41.579671],[1.601672,41.579758],[1.602067,41.579787],[1.602064,41.579898],[1.602113,41.579899],[1.602357,41.579903],[1.602352,41.579932],[1.602406,41.57994],[1.602397,41.580026],[1.602397,41.580033],[1.602531,41.58006],[1.602715,41.580105],[1.602735,41.580109],[1.602825,41.580128],[1.603061,41.58018],[1.603079,41.580062],[1.603109,41.580063],[1.603233,41.580061],[1.603369,41.580062],[1.603639,41.580065],[1.60391,41.580069],[1.604242,41.580073],[1.604244,41.580073],[1.604318,41.580076],[1.604393,41.580079],[1.604473,41.580083],[1.604553,41.580087],[1.604581,41.58009],[1.604602,41.580094],[1.60463,41.580104],[1.604643,41.580104],[1.604649,41.580119],[1.604666,41.580161],[1.604724,41.580243],[1.604741,41.580249],[1.604767,41.580264],[1.604782,41.580271],[1.604798,41.580279],[1.604864,41.580311],[1.605009,41.580296],[1.605021,41.580279],[1.605048,41.580255],[1.605059,41.580247],[1.605085,41.580228],[1.605106,41.580205],[1.60512,41.58018],[1.605125,41.580164],[1.605143,41.580129],[1.60515,41.580112],[1.605161,41.580094],[1.605183,41.580075],[1.605293,41.580004],[1.605976,41.579592],[1.605977,41.579559],[1.605983,41.579329],[1.60599,41.579066],[1.60599,41.579058],[1.605992,41.579033],[1.605998,41.578906],[1.605998,41.578864],[1.605991,41.578803],[1.605984,41.578743],[1.605984,41.578714],[1.60599,41.578671],[1.606002,41.578636],[1.606004,41.578628],[1.606016,41.578611],[1.606026,41.578599],[1.606045,41.578584],[1.606068,41.578573],[1.606077,41.578571],[1.606097,41.578566],[1.606144,41.578559],[1.606191,41.578557],[1.606354,41.578559],[1.606364,41.578559],[1.606518,41.578561],[1.606633,41.578563],[1.606732,41.578566],[1.606792,41.578568],[1.606839,41.578568],[1.606885,41.578563],[1.606929,41.578552],[1.60694,41.578549],[1.606993,41.57854],[1.607048,41.578537],[1.607103,41.57854],[1.607111,41.578541],[1.607289,41.578462],[1.607294,41.578444],[1.607304,41.578421],[1.607307,41.578404],[1.607307,41.578389],[1.607308,41.57838],[1.607311,41.578372],[1.607317,41.578364],[1.607332,41.578356],[1.60736,41.578342],[1.607484,41.578275],[1.607607,41.578209],[1.60769,41.578167],[1.607751,41.57814],[1.607798,41.578119]]]]}},{"type":"Feature","id":"082508_082508 AP02 ANO 3","properties":{"area_id":"082508_082508 AP02 ANO 3","nom":"Santa Margarida de Montbui-nucli antic","codi_icgc":"082508 AP02 ANO 3","categoria":"Àrees de poblament","codi_municipi":"082508","municipi":"Santa Margarida de Montbui","codi_comarca":"06","comarca":"Anoia","provincia":"Barcelona","font":"ICGC Àrees de poblament v3r1 202602"},"geometry":{"type":"MultiPolygon","coordinates":[[[[1.604756,41.554899],[1.604661,41.554921],[1.604654,41.554923],[1.604634,41.554927],[1.604558,41.554945],[1.604547,41.554952],[1.604506,41.554969],[1.604473,41.554982],[1.604452,41.554994],[1.604432,41.555009],[1.604424,41.555019],[1.604416,41.555037],[1.604411,41.555046],[1.604403,41.555053],[1.604378,41.555069],[1.604352,41.555082],[1.604331,41.555092],[1.604311,41.555101],[1.604319,41.555077],[1.604313,41.555075],[1.604243,41.555053],[1.604212,41.555044],[1.604111,41.555],[1.603995,41.554949],[1.604132,41.554844],[1.604151,41.55483],[1.603938,41.55471],[1.603632,41.554538],[1.603434,41.554413],[1.603371,41.554373],[1.603368,41.554374],[1.603367,41.554374],[1.603365,41.554374],[1.603143,41.554366],[1.603056,41.554242],[1.603011,41.554202],[1.602933,41.554177],[1.60288,41.554159],[1.602831,41.554169],[1.60281,41.554173],[1.602741,41.55417],[1.60262,41.554164],[1.602428,41.554112],[1.602264,41.554048],[1.602197,41.554022],[1.602197,41.554015],[1.602166,41.553947],[1.602117,41.553872],[1.602053,41.553799],[1.602033,41.553779],[1.60199,41.553733],[1.601921,41.553676],[1.601842,41.553638],[1.601795,41.553614],[1.601709,41.553582],[1.601708,41.553582],[1.601674,41.553676],[1.601585,41.553662],[1.601547,41.553721],[1.60149,41.553703],[1.601438,41.553675],[1.601412,41.55366],[1.601418,41.553651],[1.601431,41.553585],[1.601426,41.553521],[1.601393,41.553476],[1.601331,41.553452],[1.601289,41.553452],[1.60121,41.553484],[1.601136,41.553545],[1.601046,41.553594],[1.601037,41.553606],[1.601006,41.553675],[1.600994,41.553702],[1.601075,41.553752],[1.601118,41.553768],[1.601152,41.553783],[1.601181,41.5538],[1.601184,41.553802],[1.601215,41.55382],[1.601246,41.55384],[1.601263,41.553851],[1.601316,41.553884],[1.601392,41.553929],[1.601468,41.553974],[1.601535,41.554014],[1.601603,41.554054],[1.601654,41.55408],[1.60168,41.554091],[1.601707,41.554103],[1.601811,41.554146],[1.601953,41.554211],[1.602094,41.554276],[1.602222,41.55434],[1.602222,41.55434],[1.602348,41.554407],[1.60238,41.554426],[1.602406,41.554447],[1.60242,41.554463],[1.602437,41.554486],[1.602455,41.554511],[1.602505,41.554571],[1.602557,41.554629],[1.602603,41.554684],[1.602647,41.554754],[1.602639,41.554758],[1.602574,41.554798],[1.602458,41.554857],[1.602406,41.554883],[1.602021,41.554731],[1.601895,41.554733],[1.601703,41.554718],[1.60164,41.554719],[1.601614,41.554728],[1.60156,41.554798],[1.60155,41.554813],[1.601495,41.55492],[1.601476,41.554918],[1.60146,41.554941],[1.601388,41.554978],[1.601372,41.554986],[1.601359,41.554993],[1.601244,41.555135],[1.601245,41.555148],[1.601178,41.555206],[1.601152,41.55523],[1.601149,41.555232],[1.601277,41.555364],[1.601255,41.555406],[1.601225,41.555461],[1.600946,41.55598],[1.600725,41.55622],[1.600869,41.556379],[1.600883,41.556394],[1.600882,41.556396],[1.60088,41.5564],[1.600876,41.556406],[1.600869,41.556422],[1.600866,41.55644],[1.60087,41.556459],[1.600879,41.556474],[1.600896,41.556485],[1.600912,41.556491],[1.600939,41.556498],[1.600967,41.556503],[1.600991,41.556509],[1.60104,41.556528],[1.601087,41.55655],[1.60118,41.556595],[1.601207,41.556609],[1.60127,41.556641],[1.601272,41.556642],[1.60135,41.556685],[1.601426,41.556731],[1.601451,41.556752],[1.601474,41.556775],[1.601494,41.556796],[1.601513,41.556817],[1.601532,41.556837],[1.601588,41.5569],[1.601634,41.556955],[1.601663,41.556988],[1.601676,41.557003],[1.601682,41.55701],[1.601693,41.55702],[1.60171,41.557035],[1.601741,41.557056],[1.601805,41.557093],[1.601862,41.557124],[1.601918,41.557155],[1.601923,41.557158],[1.601942,41.557179],[1.601968,41.557207],[1.60198,41.557251],[1.60205,41.557284],[1.602064,41.557291],[1.602066,41.557292],[1.602074,41.557301],[1.602102,41.557308],[1.602216,41.55734],[1.602397,41.55739],[1.602395,41.557397],[1.602361,41.557588],[1.602629,41.557628],[1.602688,41.557637],[1.60269,41.557632],[1.602707,41.557589],[1.602714,41.557589],[1.602717,41.557589],[1.602724,41.557566],[1.602732,41.557565],[1.602769,41.557563],[1.602805,41.557559],[1.602842,41.557551],[1.602859,41.557545],[1.602874,41.557537],[1.602885,41.557531],[1.602925,41.557535],[1.602945,41.557523],[1.602954,41.557517],[1.602978,41.557502],[1.60303,41.557518],[1.603244,41.557579],[1.603614,41.557683],[1.603691,41.557705],[1.604138,41.557831],[1.604243,41.557862],[1.604243,41.557862],[1.604523,41.557942],[1.604908,41.558053],[1.605046,41.558093],[1.605186,41.558134],[1.605217,41.558141],[1.605282,41.558162],[1.605298,41.55818],[1.605474,41.558389],[1.605622,41.55874],[1.605657,41.558778],[1.60607,41.55956],[1.6061,41.559636],[1.606149,41.559728],[1.606173,41.559804],[1.606268,41.559805],[1.606425,41.559807],[1.606433,41.559807],[1.606464,41.559795],[1.606486,41.559722],[1.606474,41.559579],[1.606485,41.559543],[1.606536,41.559496],[1.606651,41.55939],[1.606282,41.558862],[1.606149,41.558925],[1.606149,41.558924],[1.606091,41.558835],[1.60606,41.558789],[1.606031,41.558746],[1.605991,41.558687],[1.606002,41.558672],[1.606013,41.558656],[1.606018,41.558653],[1.606025,41.558653],[1.606025,41.558653],[1.606041,41.558662],[1.60605,41.558667],[1.60609,41.558724],[1.606422,41.558594],[1.606253,41.558396],[1.606349,41.558285],[1.606387,41.558214],[1.606419,41.558159],[1.606056,41.557804],[1.606475,41.557499],[1.60647,41.557482],[1.60647,41.557468],[1.606472,41.557464],[1.606484,41.557453],[1.606503,41.557436],[1.606558,41.557384],[1.606558,41.557382],[1.606562,41.556479],[1.606562,41.556478],[1.60657,41.556417],[1.60648,41.556412],[1.606328,41.556386],[1.606142,41.55634],[1.60636,41.55634],[1.60636,41.5563],[1.606049,41.556162],[1.605959,41.556134],[1.605907,41.556097],[1.605826,41.556037],[1.605932,41.556052],[1.606095,41.556076],[1.60614,41.556079],[1.606471,41.556099],[1.606532,41.556115],[1.606609,41.556136],[1.60661,41.556129],[1.606618,41.556071],[1.606603,41.556054],[1.606553,41.556025],[1.606494,41.555997],[1.606435,41.555969],[1.606382,41.555947],[1.606328,41.555929],[1.606221,41.555893],[1.606204,41.555885],[1.606203,41.555884],[1.60619,41.555873],[1.606189,41.55587],[1.606191,41.555864],[1.606201,41.555844],[1.606213,41.555824],[1.606237,41.555786],[1.606261,41.555726],[1.606277,41.555689],[1.606261,41.555677],[1.606277,41.555655],[1.606177,41.555612],[1.606069,41.55553],[1.605953,41.555502],[1.605664,41.555365],[1.605483,41.555244],[1.605225,41.555136],[1.60479,41.554913],[1.604756,41.554899]],[[1.602742,41.557513],[1.602738,41.55752],[1.602741,41.557513],[1.602742,41.557513]]]]}},{"type":"Feature","id":"082508_082508 AP07 ANO 1","properties":{"area_id":"082508_082508 AP07 ANO 1","nom":"Santa Maria de la Tossa","codi_icgc":"082508 AP07 ANO 1","categoria":"Àrees de poblament","codi_municipi":"082508","municipi":"Santa Margarida de Montbui","codi_comarca":"06","comarca":"Anoia","provincia":"Barcelona","font":"ICGC Àrees de poblament v3r1 202602"},"geometry":{"type":"MultiPolygon","coordinates":[[[[1.580667,41.554981],[1.580193,41.554882],[1.579941,41.555058],[1.579741,41.555084],[1.579746,41.555277],[1.580097,41.555353],[1.580393,41.555299],[1.580427,41.555471],[1.580512,41.555501],[1.580713,41.555468],[1.580764,41.555311],[1.580776,41.55519],[1.580778,41.555104],[1.580733,41.554989],[1.580667,41.554981]]]]}},{"type":"Feature","id":"082508_082508 AP06 ANO 3","properties":{"area_id":"082508_082508 AP06 ANO 3","nom":"el Coll del Guix","codi_icgc":"082508 AP06 ANO 3","categoria":"Àrees de poblament","codi_municipi":"082508","municipi":"Santa Margarida de Montbui","codi_comarca":"06","comarca":"Anoia","provincia":"Barcelona","font":"ICGC Àrees de poblament v3r1 202602"},"geometry":{"type":"MultiPolygon","coordinates":[[[[1.56233,41.565234],[1.562371,41.565177],[1.562379,41.565167],[1.562442,41.565094],[1.562464,41.565071],[1.562596,41.565052],[1.562673,41.565246],[1.562703,41.565321],[1.562723,41.565387],[1.562742,41.565428],[1.56304,41.565427],[1.563297,41.565445],[1.563338,41.565342],[1.564004,41.565342],[1.564001,41.565248],[1.564231,41.565244],[1.564239,41.564882],[1.564038,41.564567],[1.563798,41.564584],[1.563334,41.564632],[1.563299,41.564636],[1.563108,41.564485],[1.563045,41.564541],[1.563027,41.564557],[1.563005,41.564576],[1.562981,41.564597],[1.562965,41.564612],[1.56296,41.564617],[1.562952,41.564624],[1.562866,41.5647],[1.562541,41.564997],[1.562539,41.564997],[1.562463,41.56499],[1.562413,41.564986],[1.562255,41.564973],[1.562232,41.564955],[1.56196,41.56478],[1.561836,41.564785],[1.56163,41.564618],[1.56145,41.564595],[1.561391,41.564658],[1.561277,41.56465],[1.560702,41.564392],[1.560451,41.564554],[1.560468,41.564675],[1.560474,41.564721],[1.560478,41.56475],[1.560484,41.56479],[1.560778,41.564865],[1.560735,41.565079],[1.560706,41.565317],[1.560765,41.565345],[1.560908,41.565341],[1.561075,41.565331],[1.561147,41.565326],[1.561272,41.565399],[1.561399,41.565401],[1.561566,41.565385],[1.561609,41.565207],[1.561713,41.565257],[1.561734,41.565267],[1.561792,41.565299],[1.561844,41.565327],[1.561894,41.565357],[1.56195,41.565393],[1.562004,41.565429],[1.56203,41.565448],[1.562149,41.565445],[1.562219,41.565444],[1.562266,41.565346],[1.562296,41.565289],[1.562328,41.565237],[1.56233,41.565234]]]]}},{"type":"Feature","id":"082508_082508 AP04 ANO 3","properties":{"area_id":"082508_082508 AP04 ANO 3","nom":"el Saió","codi_icgc":"082508 AP04 ANO 3","categoria":"Àrees de poblament","codi_municipi":"082508","municipi":"Santa Margarida de Montbui","codi_comarca":"06","comarca":"Anoia","provincia":"Barcelona","font":"ICGC Àrees de poblament v3r1 202602"},"geometry":{"type":"MultiPolygon","coordinates":[[[[1.562436,41.577155],[1.562402,41.577244],[1.562285,41.577399],[1.562631,41.577523],[1.562724,41.577637],[1.562836,41.577654],[1.563042,41.577453],[1.563201,41.577355],[1.563183,41.577323],[1.563185,41.577322],[1.563219,41.577215],[1.563333,41.577121],[1.563361,41.577015],[1.563416,41.576904],[1.563378,41.576892],[1.56323,41.576847],[1.563065,41.576877],[1.562458,41.577044],[1.562436,41.577155]]]]}},{"type":"Feature","id":"082508_082508 AP05 ANO 1","properties":{"area_id":"082508_082508 AP05 ANO 1","nom":"la Censada","codi_icgc":"082508 AP05 ANO 1","categoria":"Àrees de poblament","codi_municipi":"082508","municipi":"Santa Margarida de Montbui","codi_comarca":"06","comarca":"Anoia","provincia":"Barcelona","font":"ICGC Àrees de poblament v3r1 202602"},"geometry":{"type":"MultiPolygon","coordinates":[[[[1.5407,41.532117],[1.540572,41.532239],[1.540134,41.532555],[1.540236,41.532589],[1.540269,41.5326],[1.540742,41.532707],[1.541001,41.532753],[1.541065,41.532754],[1.541205,41.532432],[1.541207,41.532346],[1.541188,41.532331],[1.541064,41.532239],[1.540901,41.532151],[1.540807,41.532117],[1.54075,41.532096],[1.5407,41.532117]]]]}},{"type":"Feature","id":"082508_082508 AP03 ANO 3","properties":{"area_id":"082508_082508 AP03 ANO 3","nom":"la Mallola","codi_icgc":"082508 AP03 ANO 3","categoria":"Àrees de poblament","codi_municipi":"082508","municipi":"Santa Margarida de Montbui","codi_comarca":"06","comarca":"Anoia","provincia":"Barcelona","font":"ICGC Àrees de poblament v3r1 202602"},"geometry":{"type":"MultiPolygon","coordinates":[[[[1.56568,41.582804],[1.565729,41.582804],[1.565865,41.582704],[1.565873,41.582686],[1.565873,41.582667],[1.565866,41.582648],[1.565848,41.582631],[1.565813,41.582617],[1.565698,41.582577],[1.56551,41.58253],[1.565316,41.582479],[1.565024,41.582419],[1.56473,41.582359],[1.564728,41.582358],[1.564465,41.582283],[1.56424,41.582219],[1.564238,41.582219],[1.564039,41.58215],[1.563921,41.58211],[1.563498,41.581944],[1.563493,41.581942],[1.562925,41.581724],[1.56292,41.581722],[1.562616,41.581624],[1.562576,41.581611],[1.56239,41.581551],[1.562379,41.581549],[1.562183,41.581511],[1.561926,41.581525],[1.56192,41.581639],[1.56192,41.581639],[1.561636,41.581664],[1.561663,41.581728],[1.561661,41.581802],[1.561648,41.581889],[1.561625,41.581955],[1.561579,41.582037],[1.561578,41.582042],[1.561531,41.582135],[1.561502,41.582172],[1.561474,41.582209],[1.561452,41.582241],[1.561432,41.582274],[1.561417,41.582305],[1.561404,41.582337],[1.561394,41.582367],[1.561387,41.582397],[1.561384,41.582421],[1.561383,41.582445],[1.561383,41.582463],[1.561386,41.582482],[1.561398,41.582515],[1.561413,41.58254],[1.561417,41.582547],[1.561395,41.582553],[1.561373,41.582558],[1.561336,41.582568],[1.561318,41.582576],[1.561307,41.58259],[1.561304,41.582616],[1.561302,41.58264],[1.561297,41.582704],[1.561292,41.582767],[1.561283,41.582843],[1.561269,41.582918],[1.56126,41.582957],[1.561247,41.582995],[1.561234,41.583023],[1.561216,41.583051],[1.561187,41.583085],[1.561155,41.583118],[1.561135,41.583142],[1.561124,41.583152],[1.561124,41.583152],[1.56112,41.583183],[1.561118,41.5832],[1.561125,41.583198],[1.561125,41.583198],[1.561127,41.583205],[1.561332,41.583191],[1.561382,41.583187],[1.561535,41.583173],[1.561652,41.583162],[1.56174,41.583156],[1.561954,41.583146],[1.561968,41.583146],[1.562189,41.583146],[1.562362,41.583161],[1.562374,41.583162],[1.562576,41.58317],[1.562592,41.583171],[1.562593,41.583171],[1.562597,41.583171],[1.562645,41.583172],[1.56284,41.583174],[1.562841,41.583174],[1.563144,41.583112],[1.563559,41.583026],[1.563572,41.582955],[1.563737,41.58294],[1.563817,41.582925],[1.563794,41.582852],[1.563875,41.582843],[1.563977,41.582833],[1.564079,41.582821],[1.564243,41.58282],[1.564411,41.58282],[1.564601,41.582818],[1.564791,41.582816],[1.564993,41.582815],[1.565195,41.582814],[1.565247,41.582813],[1.565468,41.582806],[1.56561,41.582804],[1.56568,41.582804]]]]}}]}