{"type":"FeatureCollection","name":"ICGC Àrees de poblament - Santa Maria de Besora","features":[{"type":"Feature","id":"082536_082536 AP01 OSO 3","properties":{"area_id":"082536_082536 AP01 OSO 3","nom":"Santa Maria de Besora","codi_icgc":"082536 AP01 OSO 3","categoria":"Àrees de poblament","codi_municipi":"082536","municipi":"Santa Maria de Besora","codi_comarca":"24","comarca":"Osona","provincia":"Barcelona","font":"ICGC Àrees de poblament v3r1 202602"},"geometry":{"type":"MultiPolygon","coordinates":[[[[2.257625,42.126034],[2.257369,42.126101],[2.257081,42.126148],[2.256809,42.126196],[2.256867,42.126407],[2.256874,42.126431],[2.256915,42.12657],[2.256949,42.126563],[2.256969,42.126561],[2.256979,42.12656],[2.257,42.126695],[2.25702,42.126938],[2.257016,42.126939],[2.256996,42.126941],[2.256952,42.126947],[2.256869,42.126958],[2.256821,42.126966],[2.256787,42.126971],[2.256707,42.126987],[2.256549,42.127021],[2.256515,42.127026],[2.256238,42.127051],[2.256128,42.127059],[2.256101,42.127069],[2.256092,42.127075],[2.256056,42.12709],[2.256032,42.1271],[2.256,42.127101],[2.255904,42.127095],[2.255887,42.127093],[2.255665,42.127052],[2.255646,42.127184],[2.25562,42.127303],[2.255795,42.127324],[2.255793,42.127333],[2.25587,42.127343],[2.255869,42.127352],[2.25587,42.12738],[2.255876,42.127395],[2.255887,42.12741],[2.255943,42.127457],[2.255998,42.127502],[2.256042,42.127541],[2.256103,42.127602],[2.256163,42.127664],[2.256212,42.127716],[2.256232,42.127741],[2.256246,42.127769],[2.256252,42.127787],[2.256281,42.127805],[2.25629,42.127808],[2.256369,42.127947],[2.256372,42.127954],[2.256379,42.127966],[2.256411,42.128022],[2.256702,42.128021],[2.256778,42.12802],[2.25678,42.128141],[2.256781,42.128149],[2.256785,42.128171],[2.257081,42.12817],[2.25708,42.128155],[2.257078,42.128126],[2.257086,42.128123],[2.257146,42.128121],[2.257223,42.128119],[2.25729,42.128114],[2.257356,42.128109],[2.257449,42.128105],[2.257535,42.128101],[2.257642,42.128098],[2.257694,42.128097],[2.257724,42.128096],[2.257752,42.128097],[2.257741,42.128128],[2.25772,42.128125],[2.257713,42.128161],[2.257711,42.128169],[2.257728,42.128171],[2.257832,42.128183],[2.257824,42.128225],[2.258105,42.128258],[2.258166,42.128239],[2.258224,42.128206],[2.258507,42.128015],[2.258575,42.127984],[2.258645,42.127952],[2.25867,42.127938],[2.258703,42.127913],[2.258738,42.127889],[2.258798,42.127851],[2.258872,42.127815],[2.258969,42.127768],[2.258984,42.127759],[2.25906,42.127737],[2.259135,42.12773],[2.259288,42.127736],[2.25929,42.127726],[2.259312,42.127627],[2.259313,42.127619],[2.259346,42.127463],[2.259381,42.127466],[2.259824,42.127505],[2.259832,42.127506],[2.259813,42.127724],[2.259806,42.127775],[2.259805,42.12778],[2.259952,42.127779],[2.259971,42.127764],[2.260005,42.127759],[2.26017,42.127737],[2.26027,42.127723],[2.26041,42.127704],[2.260429,42.127702],[2.26063,42.127658],[2.260737,42.127644],[2.260783,42.127644],[2.260858,42.127646],[2.260854,42.127708],[2.260863,42.127708],[2.260949,42.127712],[2.261061,42.127752],[2.261066,42.127737],[2.26108,42.127686],[2.261111,42.127705],[2.261144,42.127703],[2.261152,42.127665],[2.261164,42.127677],[2.261166,42.12768],[2.261216,42.127677],[2.26156,42.127653],[2.261597,42.127651],[2.261597,42.127634],[2.26158,42.127593],[2.26156,42.127555],[2.261555,42.12754],[2.261554,42.127521],[2.261563,42.127505],[2.261575,42.127489],[2.261593,42.127474],[2.261613,42.127533],[2.261842,42.127505],[2.261782,42.127293],[2.261562,42.127337],[2.261546,42.127268],[2.261567,42.127227],[2.261574,42.127214],[2.26157,42.127162],[2.261414,42.127175],[2.261347,42.127185],[2.261264,42.127196],[2.261249,42.127197],[2.261247,42.127166],[2.261238,42.127101],[2.261314,42.126592],[2.26139,42.12612],[2.2614,42.126067],[2.261446,42.126015],[2.261491,42.125979],[2.261546,42.125903],[2.261572,42.125856],[2.261576,42.125815],[2.261603,42.125742],[2.261439,42.125509],[2.261291,42.125568],[2.261264,42.12553],[2.260525,42.12582],[2.260491,42.125893],[2.260538,42.125994],[2.260609,42.12614],[2.260672,42.126347],[2.260668,42.126373],[2.260603,42.126365],[2.260338,42.126482],[2.260319,42.12648],[2.260308,42.126479],[2.260261,42.126492],[2.260219,42.126508],[2.260186,42.126522],[2.26015,42.12654],[2.260125,42.126549],[2.260064,42.126559],[2.260002,42.126566],[2.25994,42.126572],[2.259878,42.126577],[2.259847,42.126579],[2.259842,42.126578],[2.259773,42.12657],[2.259624,42.12651],[2.259534,42.126511],[2.259385,42.126566],[2.259245,42.126657],[2.259106,42.126749],[2.259074,42.126765],[2.259037,42.126775],[2.258958,42.126787],[2.258878,42.126799],[2.258797,42.12681],[2.258663,42.126793],[2.258545,42.126779],[2.258511,42.126769],[2.258499,42.126753],[2.258495,42.126752],[2.25849,42.126752],[2.258487,42.126737],[2.258477,42.126687],[2.258475,42.126663],[2.258457,42.126651],[2.258443,42.12664],[2.258453,42.126533],[2.258448,42.126483],[2.258428,42.12642],[2.258407,42.126387],[2.258367,42.126352],[2.258301,42.126292],[2.25824,42.126241],[2.258192,42.126214],[2.258145,42.126181],[2.258108,42.126155],[2.258024,42.126127],[2.257784,42.126061],[2.257758,42.126053],[2.257714,42.126035],[2.257655,42.126026],[2.257625,42.126034]]]]}},{"type":"Feature","id":"082536_082536 AP02 OSO 2","properties":{"area_id":"082536_082536 AP02 OSO 2","nom":"el Mir","codi_icgc":"082536 AP02 OSO 2","categoria":"Àrees de poblament","codi_municipi":"082536","municipi":"Santa Maria de Besora","codi_comarca":"24","comarca":"Osona","provincia":"Barcelona","font":"ICGC Àrees de poblament v3r1 202602"},"geometry":{"type":"MultiPolygon","coordinates":[[[[2.270553,42.117082],[2.270594,42.11708],[2.27063,42.117091],[2.270857,42.11716],[2.271344,42.117232],[2.271399,42.117055],[2.271334,42.117036],[2.271271,42.117014],[2.271239,42.117],[2.271225,42.116992],[2.271214,42.116983],[2.271187,42.116944],[2.271167,42.116902],[2.271145,42.11685],[2.271128,42.116798],[2.271124,42.116771],[2.271124,42.116744],[2.271126,42.116717],[2.271134,42.116675],[2.271137,42.116633],[2.271133,42.116617],[2.271116,42.116596],[2.27109,42.11658],[2.271069,42.116577],[2.271038,42.116578],[2.27101,42.116585],[2.270972,42.116598],[2.270935,42.116614],[2.270934,42.116614],[2.270919,42.11662],[2.270865,42.11664],[2.270823,42.116651],[2.270759,42.116662],[2.270695,42.116668],[2.270657,42.116669],[2.270601,42.116666],[2.270545,42.116659],[2.270482,42.116642],[2.270423,42.116618],[2.270349,42.116575],[2.270274,42.116531],[2.270229,42.116507],[2.270159,42.116477],[2.270089,42.116446],[2.270067,42.116433],[2.270038,42.116411],[2.270011,42.116386],[2.27,42.116373],[2.269993,42.116359],[2.269989,42.116347],[2.26998,42.116321],[2.269928,42.116317],[2.269877,42.116314],[2.269854,42.116172],[2.269778,42.116069],[2.269738,42.116026],[2.269647,42.115984],[2.269605,42.115959],[2.269571,42.115923],[2.269563,42.1159],[2.269571,42.11586],[2.26957,42.115844],[2.269516,42.1158],[2.26944,42.115771],[2.269384,42.115743],[2.269298,42.115715],[2.2691,42.115687],[2.269094,42.115647],[2.269104,42.115621],[2.269132,42.115575],[2.268943,42.115495],[2.26887,42.115584],[2.268753,42.115696],[2.268693,42.115801],[2.268921,42.115907],[2.268917,42.11592],[2.268913,42.115939],[2.268914,42.115969],[2.268884,42.11601],[2.268891,42.116047],[2.268897,42.116073],[2.268911,42.116116],[2.268924,42.116145],[2.268937,42.116162],[2.268952,42.116177],[2.268966,42.116187],[2.268987,42.116201],[2.269015,42.116214],[2.269042,42.116223],[2.26907,42.116228],[2.26912,42.116236],[2.269149,42.116245],[2.269183,42.116263],[2.269215,42.116284],[2.269231,42.116299],[2.269275,42.116354],[2.269315,42.116409],[2.269349,42.11646],[2.269381,42.116512],[2.269399,42.116547],[2.269428,42.11662],[2.269455,42.116695],[2.269477,42.116755],[2.269499,42.116815],[2.269511,42.116838],[2.269531,42.116859],[2.269548,42.11687],[2.269557,42.116874],[2.26957,42.11688],[2.26971,42.116947],[2.269764,42.116945],[2.269804,42.116936],[2.269841,42.116941],[2.269897,42.116956],[2.269942,42.116971],[2.269977,42.116983],[2.270031,42.117006],[2.270084,42.117028],[2.270143,42.117053],[2.270202,42.117078],[2.270241,42.117092],[2.270283,42.117102],[2.270313,42.117106],[2.270374,42.117105],[2.270433,42.117098],[2.270504,42.117088],[2.270553,42.117082]]]]}}]}