{"type":"FeatureCollection","name":"ICGC Àrees de poblament - Santa Maria de Miralles","features":[{"type":"Feature","id":"082573_082573 AP02 ANO 2","properties":{"area_id":"082573_082573 AP02 ANO 2","nom":"Sant Romà","codi_icgc":"082573 AP02 ANO 2","categoria":"Àrees de poblament","codi_municipi":"082573","municipi":"Santa Maria de Miralles","codi_comarca":"06","comarca":"Anoia","provincia":"Barcelona","font":"ICGC Àrees de poblament v3r1 202602"},"geometry":{"type":"MultiPolygon","coordinates":[[[[1.53017,41.499368],[1.530148,41.499311],[1.530126,41.499232],[1.530123,41.499167],[1.530073,41.499042],[1.530031,41.499016],[1.529965,41.498972],[1.52988,41.498946],[1.529771,41.498927],[1.529615,41.498921],[1.529473,41.498884],[1.529379,41.498836],[1.529257,41.49877],[1.52923,41.498709],[1.529165,41.498623],[1.52911,41.498543],[1.529078,41.498482],[1.52896,41.498423],[1.528845,41.498382],[1.528773,41.498382],[1.528696,41.498424],[1.528625,41.498471],[1.528549,41.498531],[1.528477,41.498593],[1.528438,41.49863],[1.528403,41.498668],[1.528381,41.498698],[1.528373,41.498722],[1.528371,41.498746],[1.528375,41.498791],[1.528384,41.498853],[1.528394,41.498915],[1.5284,41.498944],[1.528406,41.498974],[1.528418,41.499052],[1.528425,41.499131],[1.528423,41.499163],[1.528419,41.499194],[1.528405,41.499259],[1.528397,41.499288],[1.528385,41.499316],[1.528373,41.499332],[1.528428,41.49935],[1.528462,41.499338],[1.5285,41.499331],[1.528557,41.499324],[1.528584,41.499323],[1.528612,41.499324],[1.528725,41.499339],[1.528837,41.499358],[1.528975,41.499388],[1.529045,41.499403],[1.529116,41.499415],[1.529153,41.499421],[1.529191,41.499426],[1.529364,41.499483],[1.52953,41.499532],[1.529719,41.499566],[1.529842,41.499579],[1.529999,41.499581],[1.530076,41.499564],[1.530133,41.499539],[1.530177,41.49949],[1.530193,41.499433],[1.53017,41.499368]]]]}},{"type":"Feature","id":"082573_082573 AP01 ANO 3","properties":{"area_id":"082573_082573 AP01 ANO 3","nom":"Santa Maria de Miralles","codi_icgc":"082573 AP01 ANO 3","categoria":"Àrees de poblament","codi_municipi":"082573","municipi":"Santa Maria de Miralles","codi_comarca":"06","comarca":"Anoia","provincia":"Barcelona","font":"ICGC Àrees de poblament v3r1 202602"},"geometry":{"type":"MultiPolygon","coordinates":[[[[1.524718,41.518465],[1.524829,41.518476],[1.524939,41.518476],[1.524996,41.51847],[1.525042,41.518454],[1.525075,41.51842],[1.525131,41.518381],[1.525143,41.518293],[1.525161,41.518243],[1.525194,41.51818],[1.52525,41.518127],[1.5253,41.518074],[1.525349,41.518012],[1.525378,41.51797],[1.525388,41.517944],[1.525391,41.517919],[1.525161,41.517686],[1.525066,41.517692],[1.524916,41.517723],[1.524862,41.517954],[1.524773,41.51822],[1.52474,41.518357],[1.524718,41.518465]]]]}},{"type":"Feature","id":"082573_082573 AP03 ANO 2","properties":{"area_id":"082573_082573 AP03 ANO 2","nom":"el Mas Retou","codi_icgc":"082573 AP03 ANO 2","categoria":"Àrees de poblament","codi_municipi":"082573","municipi":"Santa Maria de Miralles","codi_comarca":"06","comarca":"Anoia","provincia":"Barcelona","font":"ICGC Àrees de poblament v3r1 202602"},"geometry":{"type":"MultiPolygon","coordinates":[[[[1.51118,41.500966],[1.511147,41.500933],[1.511231,41.500919],[1.511231,41.500919],[1.511312,41.500905],[1.511342,41.500902],[1.511394,41.500905],[1.511434,41.500907],[1.511468,41.500957],[1.511523,41.500987],[1.511591,41.500986],[1.51179,41.500942],[1.511879,41.500925],[1.511897,41.500918],[1.511899,41.500918],[1.511878,41.50088],[1.511919,41.500873],[1.511968,41.500839],[1.511961,41.500805],[1.511935,41.500793],[1.51242,41.500687],[1.512792,41.500638],[1.513231,41.500659],[1.513182,41.500684],[1.513101,41.500725],[1.512982,41.500784],[1.512863,41.500843],[1.512807,41.500871],[1.51275,41.500899],[1.512712,41.500918],[1.512666,41.500937],[1.512598,41.500967],[1.51253,41.500996],[1.512459,41.501026],[1.512388,41.501057],[1.512344,41.501078],[1.512302,41.501101],[1.512279,41.50112],[1.512262,41.501143],[1.512257,41.501159],[1.512257,41.501161],[1.512258,41.501172],[1.51229,41.501214],[1.512471,41.501262],[1.512568,41.50128],[1.512658,41.501298],[1.51274,41.501274],[1.51282,41.501275],[1.512906,41.501273],[1.513296,41.501211],[1.513429,41.501181],[1.513476,41.501169],[1.513604,41.501135],[1.513835,41.501195],[1.513977,41.501215],[1.514253,41.501201],[1.514368,41.501181],[1.514408,41.501099],[1.514404,41.501042],[1.514401,41.501006],[1.51433,41.500976],[1.514192,41.500971],[1.514077,41.500995],[1.514047,41.501084],[1.514003,41.501119],[1.513922,41.501132],[1.513823,41.501106],[1.513505,41.501059],[1.513397,41.501032],[1.513172,41.50106],[1.512995,41.50105],[1.512805,41.501043],[1.512541,41.501009],[1.512608,41.50098],[1.512676,41.500951],[1.512723,41.500931],[1.512762,41.500912],[1.512819,41.500884],[1.512875,41.500856],[1.512994,41.500797],[1.513113,41.500738],[1.513193,41.500697],[1.513273,41.500657],[1.513328,41.500633],[1.513385,41.50061],[1.513473,41.500581],[1.513564,41.500553],[1.513609,41.500534],[1.51365,41.50051],[1.513659,41.500503],[1.513665,41.500495],[1.513668,41.500486],[1.513845,41.500496],[1.514077,41.500507],[1.51426,41.500506],[1.514442,41.500502],[1.514457,41.500503],[1.514535,41.50051],[1.514615,41.500525],[1.514627,41.500527],[1.51477,41.500563],[1.514913,41.500601],[1.515086,41.500647],[1.515186,41.500674],[1.515259,41.500694],[1.515351,41.500721],[1.51544,41.500752],[1.515479,41.500772],[1.515512,41.500797],[1.515526,41.500812],[1.515544,41.500789],[1.515547,41.500785],[1.51556,41.500768],[1.51556,41.500768],[1.515571,41.500752],[1.515795,41.500354],[1.515793,41.500353],[1.515777,41.500346],[1.515756,41.500336],[1.51568,41.500304],[1.515601,41.500296],[1.515208,41.500276],[1.515164,41.500252],[1.515009,41.500225],[1.514791,41.500199],[1.514671,41.500179],[1.514587,41.500157],[1.51442,41.499994],[1.514445,41.499958],[1.514533,41.499831],[1.514655,41.499737],[1.514824,41.499792],[1.51498,41.499646],[1.514592,41.499441],[1.514225,41.499834],[1.514211,41.499849],[1.514117,41.49995],[1.513785,41.499916],[1.513255,41.499846],[1.513248,41.499863],[1.513294,41.499887],[1.513341,41.49991],[1.513409,41.499938],[1.513481,41.499963],[1.513516,41.499974],[1.513634,41.500013],[1.513675,41.500025],[1.513681,41.500027],[1.513719,41.500036],[1.513756,41.500045],[1.513773,41.500049],[1.513792,41.500052],[1.513837,41.500053],[1.513882,41.500053],[1.513897,41.500053],[1.513904,41.500053],[1.513913,41.500048],[1.513944,41.500048],[1.514437,41.500249],[1.514449,41.500338],[1.514454,41.500437],[1.514454,41.500449],[1.514454,41.500449],[1.514454,41.500463],[1.514453,41.500479],[1.514443,41.500478],[1.51426,41.500482],[1.514078,41.500483],[1.513848,41.500472],[1.513617,41.500459],[1.513375,41.500447],[1.513351,41.500446],[1.513253,41.500439],[1.513116,41.500439],[1.512979,41.500442],[1.512842,41.500448],[1.512704,41.500456],[1.512597,41.500465],[1.512563,41.500469],[1.512563,41.500471],[1.512271,41.500521],[1.511995,41.500593],[1.511308,41.500767],[1.511283,41.500774],[1.511195,41.500798],[1.510811,41.500904],[1.51071,41.500931],[1.510715,41.50085],[1.510719,41.500785],[1.510669,41.500739],[1.510583,41.500713],[1.510517,41.500712],[1.510459,41.500721],[1.510423,41.50073],[1.51038,41.500744],[1.510336,41.500776],[1.510303,41.500862],[1.510368,41.500961],[1.510392,41.501017],[1.509949,41.501141],[1.50967,41.501212],[1.509609,41.501246],[1.509584,41.50126],[1.5095,41.501332],[1.509491,41.501353],[1.50948,41.501368],[1.509451,41.501388],[1.509422,41.50141],[1.509406,41.501424],[1.509394,41.50144],[1.509388,41.501449],[1.509383,41.501459],[1.509382,41.501472],[1.509384,41.501483],[1.50939,41.501494],[1.509396,41.501504],[1.509407,41.501513],[1.509426,41.501522],[1.509444,41.501529],[1.509496,41.501551],[1.509546,41.501573],[1.509591,41.501594],[1.509635,41.501616],[1.509661,41.501628],[1.509686,41.501639],[1.509705,41.501646],[1.509725,41.501652],[1.509734,41.501653],[1.509743,41.501654],[1.509786,41.501759],[1.509843,41.501774],[1.51002,41.501776],[1.510058,41.501762],[1.510072,41.501715],[1.510074,41.501624],[1.510128,41.501501],[1.510149,41.501401],[1.510175,41.501378],[1.510308,41.501365],[1.510481,41.501315],[1.510723,41.501261],[1.510908,41.50122],[1.511073,41.501189],[1.511183,41.501109],[1.511196,41.501067],[1.51118,41.500966]]],[[[1.511934,41.505041],[1.511883,41.504983],[1.511869,41.505008],[1.511643,41.505023],[1.511589,41.504989],[1.511588,41.50494],[1.511588,41.50489],[1.511585,41.504803],[1.511581,41.504716],[1.511577,41.504636],[1.511573,41.504557],[1.511573,41.504542],[1.511573,41.504526],[1.511583,41.504504],[1.5116,41.504483],[1.511622,41.504467],[1.511636,41.504459],[1.51167,41.504459],[1.511903,41.504464],[1.512137,41.504468],[1.512316,41.504472],[1.512496,41.504475],[1.512574,41.504473],[1.512654,41.504467],[1.512678,41.504462],[1.51271,41.504449],[1.51274,41.504433],[1.512768,41.504412],[1.512793,41.504388],[1.51282,41.50435],[1.512841,41.50431],[1.512852,41.504272],[1.512863,41.504235],[1.51288,41.504196],[1.5129,41.504155],[1.512933,41.504068],[1.512964,41.503981],[1.513006,41.503884],[1.513022,41.503853],[1.51303,41.50383],[1.513041,41.503806],[1.51305,41.503765],[1.513054,41.503739],[1.513057,41.503712],[1.513059,41.503688],[1.51306,41.503662],[1.513057,41.503628],[1.513051,41.503595],[1.51304,41.503561],[1.513024,41.503527],[1.513006,41.503504],[1.512985,41.503484],[1.512954,41.503459],[1.512919,41.503436],[1.512867,41.503412],[1.512813,41.503392],[1.512758,41.503374],[1.512702,41.503359],[1.51253,41.503322],[1.512365,41.503294],[1.512368,41.503274],[1.512368,41.503273],[1.512346,41.503272],[1.511848,41.503235],[1.511706,41.503239],[1.511711,41.503007],[1.511593,41.502975],[1.51153,41.502968],[1.511377,41.502984],[1.510468,41.502984],[1.509779,41.503033],[1.509759,41.503034],[1.509462,41.503056],[1.509546,41.503176],[1.509689,41.503391],[1.508617,41.503455],[1.508562,41.503458],[1.508562,41.502783],[1.508558,41.502768],[1.50855,41.502733],[1.508529,41.502734],[1.508472,41.502734],[1.508376,41.502727],[1.508279,41.502719],[1.508171,41.502711],[1.508063,41.502703],[1.50796,41.502696],[1.507857,41.502688],[1.507799,41.502685],[1.507712,41.502686],[1.507626,41.502694],[1.507522,41.50271],[1.507482,41.502716],[1.50742,41.502727],[1.507341,41.502739],[1.507341,41.502739],[1.507287,41.502733],[1.507188,41.502718],[1.507166,41.502715],[1.507144,41.502712],[1.507115,41.50271],[1.507085,41.502712],[1.507027,41.502718],[1.506996,41.502723],[1.506983,41.502727],[1.50698,41.502727],[1.50694,41.502728],[1.5069,41.502729],[1.506832,41.502736],[1.506799,41.50274],[1.506767,41.502742],[1.506685,41.502736],[1.506603,41.502728],[1.506497,41.502714],[1.50639,41.502701],[1.506346,41.502698],[1.506281,41.502697],[1.506251,41.502694],[1.506169,41.502667],[1.505987,41.502724],[1.50592,41.502884],[1.506198,41.502903],[1.506209,41.502863],[1.506284,41.502874],[1.506314,41.502878],[1.506384,41.502884],[1.506454,41.502887],[1.506531,41.50289],[1.506609,41.502892],[1.506644,41.50289],[1.506693,41.502882],[1.506742,41.502871],[1.506792,41.502856],[1.50684,41.502838],[1.506891,41.502811],[1.506938,41.50278],[1.506959,41.502762],[1.506968,41.502753],[1.506978,41.502747],[1.507003,41.502739],[1.507031,41.502735],[1.507087,41.502728],[1.507115,41.502727],[1.507142,41.502729],[1.507162,41.502732],[1.507174,41.502734],[1.50718,41.502738],[1.507185,41.502745],[1.507187,41.50275],[1.507186,41.502758],[1.507182,41.502765],[1.507178,41.502771],[1.50717,41.502778],[1.507161,41.502784],[1.507148,41.502788],[1.507086,41.50281],[1.506972,41.502849],[1.50686,41.502888],[1.506752,41.502924],[1.506644,41.502959],[1.506607,41.502973],[1.506524,41.503021],[1.506465,41.503054],[1.506471,41.503058],[1.506394,41.503133],[1.506375,41.503153],[1.506349,41.50319],[1.506318,41.503246],[1.506293,41.503306],[1.506277,41.503362],[1.506271,41.503419],[1.506276,41.503476],[1.506291,41.503532],[1.506296,41.503628],[1.506547,41.504302],[1.506547,41.504302],[1.506587,41.504405],[1.506124,41.504441],[1.506132,41.504366],[1.506138,41.504323],[1.505965,41.504313],[1.50591,41.50431],[1.505785,41.5043],[1.505751,41.50431],[1.505746,41.504321],[1.505722,41.504353],[1.505689,41.504369],[1.505446,41.504317],[1.505408,41.504494],[1.50595,41.50459],[1.506008,41.5046],[1.506069,41.504593],[1.5062,41.504576],[1.506341,41.504554],[1.506482,41.50453],[1.506552,41.504518],[1.506622,41.504503],[1.506649,41.504496],[1.506675,41.504488],[1.506732,41.504475],[1.506791,41.504467],[1.506811,41.504465],[1.506811,41.504465],[1.506817,41.504466],[1.506887,41.504476],[1.506957,41.504484],[1.507157,41.504502],[1.507358,41.504517],[1.507545,41.504528],[1.507639,41.504531],[1.507713,41.504532],[1.50772,41.504541],[1.507734,41.504559],[1.507753,41.504581],[1.507777,41.5046],[1.507824,41.504624],[1.507871,41.504646],[1.50791,41.504669],[1.507946,41.504695],[1.508016,41.50475],[1.508086,41.504805],[1.508113,41.504823],[1.508158,41.504846],[1.508208,41.504867],[1.508272,41.504886],[1.508337,41.504898],[1.508366,41.504899],[1.508382,41.504895],[1.508398,41.504887],[1.508408,41.504875],[1.508416,41.504858],[1.508418,41.50484],[1.508417,41.504821],[1.508412,41.504801],[1.508399,41.504775],[1.508386,41.504749],[1.508377,41.504721],[1.508373,41.504706],[1.508364,41.50469],[1.508347,41.504678],[1.508319,41.504666],[1.508289,41.50466],[1.508222,41.504654],[1.508155,41.50465],[1.508077,41.50465],[1.507999,41.504648],[1.507975,41.504646],[1.507951,41.504641],[1.507897,41.504631],[1.507846,41.504621],[1.507832,41.504614],[1.507787,41.504592],[1.507765,41.504574],[1.507747,41.504554],[1.507733,41.504535],[1.50773,41.504532],[1.507734,41.504532],[1.50792,41.504527],[1.508107,41.504522],[1.508315,41.504519],[1.508435,41.504517],[1.508653,41.504513],[1.508653,41.504513],[1.510143,41.504487],[1.510299,41.504485],[1.510319,41.504588],[1.510299,41.504724],[1.51033,41.50477],[1.510357,41.504812],[1.510738,41.5048],[1.510737,41.504933],[1.510763,41.505042],[1.511141,41.505049],[1.511477,41.505267],[1.511745,41.505336],[1.511814,41.505421],[1.511886,41.50538],[1.511935,41.505339],[1.51196,41.505262],[1.511985,41.50522],[1.512002,41.505191],[1.511995,41.505119],[1.511934,41.505041]]]]}}]}