{"type":"FeatureCollection","name":"ICGC Àrees de poblament - Santa Maria de Palautordera","features":[{"type":"Feature","id":"082592_082592 AP07 VOR 2","properties":{"area_id":"082592_082592 AP07 VOR 2","nom":"Can Barceló","codi_icgc":"082592 AP07 VOR 2","categoria":"Àrees de poblament","codi_municipi":"082592","municipi":"Santa Maria de Palautordera","codi_comarca":"41","comarca":"Vallès Oriental","provincia":"Barcelona","font":"ICGC Àrees de poblament v3r1 202602"},"geometry":{"type":"MultiPolygon","coordinates":[[[[2.433828,41.697041],[2.433711,41.697215],[2.433683,41.6972],[2.433519,41.697189],[2.433516,41.697209],[2.433363,41.697202],[2.433244,41.697207],[2.433043,41.69724],[2.4326,41.697315],[2.432599,41.697315],[2.43211,41.697405],[2.431706,41.697477],[2.43153,41.697508],[2.431515,41.69751],[2.431497,41.697511],[2.431474,41.697512],[2.431461,41.697512],[2.431449,41.697511],[2.431444,41.697509],[2.431436,41.697502],[2.431428,41.697493],[2.431419,41.697481],[2.431413,41.697471],[2.431405,41.697453],[2.431385,41.6974],[2.431369,41.697347],[2.431353,41.697224],[2.431305,41.697253],[2.43046,41.697775],[2.431124,41.698175],[2.431264,41.69826],[2.431456,41.698377],[2.431486,41.698392],[2.43152,41.698401],[2.431556,41.698405],[2.431592,41.698404],[2.431627,41.698396],[2.431658,41.698384],[2.431686,41.698366],[2.431708,41.698345],[2.431723,41.69832],[2.431731,41.698294],[2.431732,41.698267],[2.431745,41.698272],[2.43176,41.698281],[2.431769,41.698291],[2.431774,41.698327],[2.431774,41.698363],[2.431774,41.698401],[2.431781,41.698432],[2.431782,41.698439],[2.43183,41.698434],[2.431883,41.698428],[2.431907,41.698448],[2.431938,41.698465],[2.431973,41.698477],[2.43201,41.698484],[2.432049,41.698485],[2.432087,41.698481],[2.432116,41.698473],[2.432261,41.698429],[2.432404,41.698391],[2.432748,41.698301],[2.432835,41.698279],[2.433007,41.698215],[2.433073,41.698191],[2.433102,41.69818],[2.433124,41.698193],[2.433117,41.698198],[2.433096,41.698236],[2.433113,41.698268],[2.433253,41.698335],[2.433278,41.698325],[2.433297,41.698298],[2.433335,41.698245],[2.433385,41.698189],[2.433559,41.698081],[2.433589,41.698052],[2.433632,41.697925],[2.433717,41.697847],[2.433799,41.697898],[2.433898,41.697959],[2.434004,41.698033],[2.434231,41.698191],[2.434328,41.698263],[2.434562,41.698442],[2.434745,41.698542],[2.434941,41.698649],[2.434977,41.698665],[2.435258,41.698792],[2.435261,41.698793],[2.435278,41.698799],[2.435297,41.6988],[2.435315,41.698796],[2.435319,41.698793],[2.435392,41.69882],[2.435464,41.698847],[2.43547,41.698848],[2.435731,41.698649],[2.435702,41.698628],[2.434122,41.697498],[2.43429,41.697347],[2.434249,41.697319],[2.434117,41.69723],[2.433828,41.697041]]]]}},{"type":"Feature","id":"082592_082592 AP03 VOR 2","properties":{"area_id":"082592_082592 AP03 VOR 2","nom":"Can Bosc","codi_icgc":"082592 AP03 VOR 2","categoria":"Àrees de poblament","codi_municipi":"082592","municipi":"Santa Maria de Palautordera","codi_comarca":"41","comarca":"Vallès Oriental","provincia":"Barcelona","font":"ICGC Àrees de poblament v3r1 202602"},"geometry":{"type":"MultiPolygon","coordinates":[[[[2.45118,41.665226],[2.451352,41.665134],[2.45139,41.665113],[2.451456,41.66511],[2.451705,41.665099],[2.451876,41.664794],[2.451877,41.664793],[2.451937,41.6648],[2.452062,41.664802],[2.452205,41.664772],[2.452401,41.664693],[2.452457,41.664737],[2.452616,41.664841],[2.452953,41.664665],[2.453186,41.664525],[2.45331,41.664556],[2.453509,41.664416],[2.453186,41.664149],[2.453317,41.66405],[2.453435,41.663929],[2.45353,41.663832],[2.453573,41.66379],[2.453627,41.663768],[2.453703,41.663757],[2.453769,41.663776],[2.453893,41.663838],[2.454131,41.663953],[2.454263,41.663998],[2.454411,41.664025],[2.454412,41.664025],[2.454475,41.664031],[2.454583,41.664031],[2.454688,41.664023],[2.454791,41.664009],[2.454793,41.664009],[2.454982,41.664185],[2.455012,41.664211],[2.455153,41.664338],[2.455369,41.664274],[2.455216,41.664111],[2.455085,41.663971],[2.455056,41.663954],[2.4551,41.663937],[2.455128,41.663925],[2.455296,41.663848],[2.455526,41.663752],[2.45562,41.66372],[2.455791,41.663686],[2.456193,41.66361],[2.456356,41.663553],[2.456843,41.66338],[2.456953,41.663326],[2.457226,41.663161],[2.457542,41.662958],[2.457603,41.662934],[2.457771,41.662923],[2.458094,41.662959],[2.45834,41.662983],[2.458566,41.662991],[2.458688,41.662962],[2.458925,41.66285],[2.45899,41.662816],[2.459018,41.662815],[2.459274,41.662802],[2.459312,41.6628],[2.459505,41.662776],[2.459721,41.662748],[2.459939,41.662703],[2.460128,41.662682],[2.460496,41.662597],[2.460751,41.662502],[2.460802,41.662488],[2.460919,41.662441],[2.461055,41.662391],[2.461222,41.66235],[2.461271,41.662363],[2.461276,41.662367],[2.461306,41.662389],[2.461338,41.66241],[2.461368,41.662428],[2.461396,41.66244],[2.461411,41.662442],[2.461432,41.662444],[2.461478,41.662448],[2.461525,41.662452],[2.461593,41.662457],[2.461594,41.662457],[2.461664,41.662463],[2.461698,41.662467],[2.461748,41.662478],[2.461796,41.662495],[2.461856,41.662522],[2.461913,41.66255],[2.462025,41.662608],[2.462109,41.662651],[2.462205,41.662705],[2.462216,41.662712],[2.462298,41.662761],[2.462409,41.662833],[2.462475,41.662876],[2.462582,41.662946],[2.462649,41.662991],[2.462754,41.66306],[2.462793,41.663086],[2.462936,41.663181],[2.463096,41.663154],[2.463309,41.663083],[2.463683,41.663005],[2.463416,41.662847],[2.463329,41.662803],[2.463171,41.662721],[2.463036,41.662649],[2.462972,41.662615],[2.462822,41.662545],[2.462798,41.662528],[2.462734,41.662501],[2.462643,41.662464],[2.462604,41.662442],[2.462551,41.662412],[2.462411,41.662331],[2.462403,41.662326],[2.462166,41.662209],[2.461902,41.662089],[2.461897,41.662087],[2.461655,41.661983],[2.461458,41.661907],[2.461431,41.661894],[2.461426,41.661892],[2.461168,41.661824],[2.461148,41.661819],[2.460916,41.661753],[2.460894,41.661746],[2.460562,41.661656],[2.460552,41.661653],[2.459951,41.661458],[2.459875,41.661435],[2.459867,41.661432],[2.459805,41.661413],[2.459799,41.661412],[2.459726,41.661387],[2.459655,41.66136],[2.459569,41.661324],[2.459483,41.661287],[2.459403,41.661254],[2.459321,41.661223],[2.459273,41.66121],[2.459259,41.661208],[2.459223,41.661202],[2.459116,41.661187],[2.459009,41.661172],[2.45893,41.661162],[2.458865,41.661153],[2.458852,41.661151],[2.458816,41.661144],[2.458782,41.661135],[2.458712,41.661117],[2.458618,41.661097],[2.458523,41.661078],[2.458459,41.661066],[2.458336,41.661045],[2.458232,41.661031],[2.458225,41.661031],[2.458125,41.661025],[2.458007,41.66102],[2.457651,41.661005],[2.457497,41.661],[2.457384,41.660997],[2.456993,41.660977],[2.456938,41.660975],[2.456626,41.660962],[2.456609,41.660963],[2.456577,41.660965],[2.456534,41.660973],[2.456388,41.660957],[2.456355,41.660954],[2.45594,41.660911],[2.455933,41.660888],[2.455918,41.660867],[2.455897,41.66085],[2.455872,41.660836],[2.455842,41.660828],[2.45584,41.660828],[2.455722,41.660807],[2.455606,41.660782],[2.455535,41.660764],[2.455511,41.660756],[2.455489,41.660748],[2.455448,41.660728],[2.45544,41.660723],[2.455387,41.660696],[2.45533,41.660674],[2.455325,41.660672],[2.455201,41.660629],[2.45516,41.660613],[2.45508,41.660581],[2.454963,41.660528],[2.45485,41.66047],[2.454818,41.660451],[2.454741,41.660407],[2.454736,41.660404],[2.454544,41.660278],[2.454476,41.660231],[2.454356,41.660149],[2.454249,41.660071],[2.454164,41.660011],[2.454106,41.659971],[2.454106,41.659971],[2.454091,41.659959],[2.453836,41.659754],[2.453721,41.659678],[2.453567,41.659575],[2.453299,41.659397],[2.453298,41.659396],[2.452892,41.659114],[2.45276,41.659034],[2.452803,41.658984],[2.452573,41.658823],[2.452527,41.658797],[2.452382,41.658715],[2.451738,41.658296],[2.450348,41.657555],[2.450312,41.657561],[2.449663,41.657382],[2.449139,41.65789],[2.448835,41.657767],[2.448721,41.657767],[2.448482,41.657794],[2.44831,41.657872],[2.448032,41.657737],[2.447942,41.657692],[2.447894,41.657669],[2.447797,41.65765],[2.447581,41.657636],[2.447444,41.657624],[2.447289,41.6576],[2.447266,41.657587],[2.447243,41.657574],[2.447233,41.657567],[2.447221,41.657559],[2.447198,41.657541],[2.447172,41.657525],[2.447144,41.657511],[2.447123,41.657506],[2.447098,41.657506],[2.447072,41.657511],[2.44702,41.657525],[2.446969,41.657541],[2.446918,41.657556],[2.446878,41.65756],[2.446837,41.657561],[2.44681,41.657561],[2.446758,41.657556],[2.446706,41.65755],[2.446679,41.657548],[2.446652,41.657551],[2.44664,41.657558],[2.446628,41.657573],[2.446624,41.657577],[2.446507,41.657564],[2.446464,41.657665],[2.446456,41.657683],[2.446338,41.657655],[2.446237,41.657633],[2.446099,41.657601],[2.446014,41.657586],[2.445955,41.657631],[2.44589,41.657737],[2.44588,41.657764],[2.445837,41.657965],[2.445805,41.658112],[2.445804,41.658116],[2.445796,41.658157],[2.445774,41.658289],[2.445773,41.658291],[2.44572,41.658652],[2.445663,41.659033],[2.445655,41.659089],[2.445634,41.659219],[2.445589,41.659512],[2.445568,41.659516],[2.445582,41.659558],[2.44558,41.659573],[2.445578,41.659596],[2.445574,41.659648],[2.44558,41.659732],[2.445608,41.659785],[2.445643,41.659851],[2.445741,41.660014],[2.445771,41.660064],[2.445861,41.660203],[2.445866,41.660209],[2.446,41.660386],[2.446004,41.66039],[2.446155,41.660545],[2.446307,41.66072],[2.446367,41.660756],[2.446391,41.660756],[2.446432,41.660741],[2.446547,41.660697],[2.446551,41.660697],[2.44646,41.660764],[2.446399,41.660877],[2.446394,41.660886],[2.446371,41.660929],[2.446281,41.661093],[2.446231,41.661187],[2.44625,41.661223],[2.446319,41.661359],[2.446534,41.661781],[2.446579,41.66187],[2.446631,41.661971],[2.446696,41.661991],[2.446717,41.661997],[2.446915,41.662097],[2.44711,41.661997],[2.447196,41.662034],[2.447349,41.661927],[2.447275,41.66173],[2.447423,41.661762],[2.447442,41.661767],[2.447844,41.662094],[2.4483,41.662239],[2.44868,41.662423],[2.44863,41.662516],[2.448609,41.662586],[2.448614,41.662646],[2.448619,41.662705],[2.448626,41.662717],[2.448634,41.662729],[2.448652,41.662756],[2.448332,41.662805],[2.447768,41.663259],[2.44777,41.663271],[2.447778,41.66332],[2.447813,41.663359],[2.447871,41.663429],[2.447936,41.663504],[2.4479,41.66351],[2.447867,41.663522],[2.447847,41.663533],[2.447831,41.663546],[2.447821,41.663563],[2.447819,41.663575],[2.447823,41.663597],[2.447824,41.663599],[2.447826,41.663609],[2.447836,41.663618],[2.447851,41.663622],[2.447865,41.663621],[2.447953,41.663603],[2.447991,41.663698],[2.448028,41.663861],[2.448083,41.663998],[2.44809,41.664017],[2.448114,41.664097],[2.44812,41.664152],[2.44811,41.664223],[2.448082,41.664306],[2.448063,41.664392],[2.448052,41.664393],[2.448022,41.664398],[2.448007,41.664403],[2.448028,41.664469],[2.448045,41.664516],[2.448077,41.664608],[2.448089,41.664642],[2.448025,41.664656],[2.448058,41.664886],[2.448196,41.665273],[2.448308,41.66532],[2.448309,41.665325],[2.448314,41.665323],[2.448326,41.665314],[2.448335,41.665305],[2.448354,41.66528],[2.448363,41.665269],[2.448393,41.665239],[2.448405,41.66523],[2.44842,41.665221],[2.448599,41.665117],[2.448765,41.66502],[2.448853,41.664968],[2.44888,41.664953],[2.448918,41.664938],[2.448959,41.664928],[2.449001,41.664924],[2.449044,41.664926],[2.449086,41.664933],[2.449125,41.664946],[2.449175,41.664967],[2.449219,41.664985],[2.449298,41.665019],[2.449376,41.66505],[2.449463,41.665079],[2.449534,41.665102],[2.449595,41.665116],[2.44966,41.665126],[2.44975,41.665137],[2.449838,41.665139],[2.449886,41.665139],[2.449927,41.665138],[2.44997,41.665141],[2.449987,41.665144],[2.450011,41.665148],[2.450034,41.665154],[2.450083,41.665175],[2.450129,41.665201],[2.450159,41.66522],[2.450207,41.665255],[2.450266,41.665302],[2.450293,41.665324],[2.450322,41.665348],[2.450316,41.665399],[2.450311,41.665451],[2.450309,41.665496],[2.45031,41.665541],[2.450313,41.665571],[2.45032,41.665616],[2.450328,41.66566],[2.450338,41.665707],[2.450352,41.665753],[2.450361,41.665772],[2.450368,41.66578],[2.450378,41.665787],[2.45038,41.665788],[2.450388,41.665792],[2.450415,41.665804],[2.450454,41.665816],[2.450519,41.665835],[2.450585,41.665851],[2.45059,41.665852],[2.450612,41.665855],[2.450653,41.665856],[2.450694,41.66586],[2.450725,41.665869],[2.450741,41.665874],[2.450758,41.665878],[2.4508,41.665884],[2.450843,41.66589],[2.450862,41.665811],[2.450872,41.665772],[2.450884,41.665734],[2.450902,41.665688],[2.450932,41.665621],[2.450963,41.665555],[2.451029,41.665496],[2.451064,41.665464],[2.451096,41.665428],[2.45118,41.665226]]]]}},{"type":"Feature","id":"082592_082592 AP02 VOR 2","properties":{"area_id":"082592_082592 AP02 VOR 2","nom":"Can Pagà","codi_icgc":"082592 AP02 VOR 2","categoria":"Àrees de poblament","codi_municipi":"082592","municipi":"Santa Maria de Palautordera","codi_comarca":"41","comarca":"Vallès Oriental","provincia":"Barcelona","font":"ICGC Àrees de poblament v3r1 202602"},"geometry":{"type":"MultiPolygon","coordinates":[[[[2.454122,41.677119],[2.454112,41.677132],[2.454006,41.677253],[2.453985,41.677277],[2.453927,41.677344],[2.453808,41.677513],[2.453737,41.67762],[2.453616,41.677664],[2.453037,41.67788],[2.452909,41.677994],[2.452615,41.678254],[2.452458,41.678425],[2.45208,41.678836],[2.451693,41.67928],[2.451961,41.679588],[2.452617,41.680341],[2.452693,41.680453],[2.452792,41.680595],[2.452893,41.680735],[2.452901,41.680743],[2.452912,41.680749],[2.452936,41.680755],[2.452962,41.680757],[2.452997,41.680759],[2.453033,41.680758],[2.453124,41.680752],[2.453215,41.680741],[2.453293,41.680729],[2.45337,41.680715],[2.453442,41.6807],[2.453494,41.680696],[2.453532,41.680677],[2.453546,41.680673],[2.453618,41.680648],[2.453687,41.680618],[2.453774,41.680575],[2.45386,41.680532],[2.453934,41.680498],[2.453953,41.680489],[2.454007,41.680463],[2.454014,41.680495],[2.454089,41.680561],[2.454246,41.680698],[2.454253,41.680705],[2.454079,41.680783],[2.454469,41.681166],[2.454672,41.681068],[2.454806,41.681178],[2.45496,41.681303],[2.454975,41.681298],[2.454991,41.681312],[2.455008,41.681327],[2.455022,41.681321],[2.455037,41.681315],[2.455057,41.681306],[2.455138,41.681264],[2.455156,41.681257],[2.45517,41.681275],[2.455197,41.681311],[2.455209,41.681328],[2.455248,41.681385],[2.45529,41.681441],[2.455349,41.681511],[2.455407,41.68158],[2.455466,41.681651],[2.455527,41.681724],[2.455553,41.681748],[2.455581,41.681765],[2.455694,41.681747],[2.455825,41.681725],[2.456007,41.681696],[2.456,41.681683],[2.455972,41.681639],[2.455941,41.681588],[2.455892,41.681511],[2.456428,41.681359],[2.456496,41.681347],[2.456772,41.681298],[2.456828,41.681287],[2.457105,41.681233],[2.457114,41.680974],[2.457166,41.680968],[2.457219,41.680962],[2.457274,41.680957],[2.45733,41.680951],[2.457424,41.680939],[2.457517,41.680924],[2.457631,41.6809],[2.457744,41.680872],[2.457869,41.680839],[2.457994,41.680806],[2.458133,41.68077],[2.458273,41.680736],[2.458432,41.680698],[2.458591,41.680661],[2.458773,41.680613],[2.458954,41.680565],[2.459146,41.680521],[2.459338,41.680476],[2.459457,41.680441],[2.459574,41.680402],[2.459669,41.680368],[2.459706,41.680354],[2.459756,41.680333],[2.459802,41.680306],[2.459816,41.680296],[2.45982,41.680295],[2.459826,41.680288],[2.459945,41.680153],[2.459983,41.680103],[2.460027,41.680051],[2.460058,41.680006],[2.460081,41.679964],[2.460091,41.679936],[2.4601,41.679901],[2.460108,41.679855],[2.460109,41.679809],[2.460101,41.679777],[2.460084,41.679747],[2.46007,41.679727],[2.460043,41.679696],[2.460012,41.679668],[2.459989,41.679652],[2.459889,41.679592],[2.459789,41.679532],[2.459721,41.67949],[2.459702,41.679476],[2.459687,41.679464],[2.459678,41.679455],[2.459671,41.679444],[2.459663,41.679429],[2.46011,41.679292],[2.460142,41.679283],[2.460055,41.679095],[2.460052,41.679089],[2.460033,41.679048],[2.459977,41.678927],[2.459819,41.67863],[2.45965,41.678478],[2.45953,41.67837],[2.459543,41.67836],[2.459556,41.678347],[2.459571,41.678328],[2.459566,41.678317],[2.459554,41.678305],[2.459537,41.678313],[2.459509,41.678322],[2.459495,41.678325],[2.459487,41.678326],[2.459461,41.67833],[2.459008,41.67815],[2.458999,41.678041],[2.458997,41.678011],[2.45905,41.677749],[2.45907,41.677648],[2.459015,41.677635],[2.458953,41.677608],[2.458866,41.677566],[2.458566,41.677422],[2.458272,41.677284],[2.457953,41.677571],[2.457872,41.677632],[2.457103,41.677126],[2.457097,41.677122],[2.457205,41.677042],[2.457494,41.676827],[2.457478,41.676813],[2.457451,41.676789],[2.457268,41.676663],[2.456986,41.676412],[2.456764,41.676215],[2.456682,41.676139],[2.456649,41.676108],[2.456578,41.676041],[2.456482,41.675943],[2.456239,41.675745],[2.456139,41.675756],[2.456131,41.675746],[2.456091,41.675692],[2.456045,41.67571],[2.455653,41.67602],[2.45563,41.676038],[2.455577,41.67608],[2.455234,41.676358],[2.455163,41.676419],[2.454998,41.676561],[2.454963,41.676591],[2.454963,41.676591],[2.454824,41.676695],[2.454499,41.677032],[2.454255,41.676936],[2.454122,41.677119]]]]}},{"type":"Feature","id":"082592_082592 AP06 VOR 2","properties":{"area_id":"082592_082592 AP06 VOR 2","nom":"Can Portell","codi_icgc":"082592 AP06 VOR 2","categoria":"Àrees de poblament","codi_municipi":"082592","municipi":"Santa Maria de Palautordera","codi_comarca":"41","comarca":"Vallès Oriental","provincia":"Barcelona","font":"ICGC Àrees de poblament v3r1 202602"},"geometry":{"type":"MultiPolygon","coordinates":[[[[2.434848,41.6947],[2.434889,41.694685],[2.435241,41.69452],[2.43525,41.694497],[2.435114,41.694423],[2.435001,41.694329],[2.434954,41.69429],[2.434822,41.694175],[2.434793,41.694154],[2.434657,41.694038],[2.434633,41.694017],[2.434607,41.693974],[2.434548,41.694003],[2.434494,41.694023],[2.434468,41.694024],[2.434398,41.694001],[2.433933,41.693768],[2.433903,41.69377],[2.433835,41.693774],[2.433654,41.693826],[2.433653,41.693826],[2.433541,41.693862],[2.433443,41.693892],[2.433226,41.69396],[2.433061,41.694012],[2.432832,41.69408],[2.432663,41.69413],[2.432609,41.694202],[2.432513,41.694199],[2.432456,41.6942],[2.43242,41.694209],[2.432216,41.694284],[2.432264,41.694358],[2.432629,41.694695],[2.432459,41.694762],[2.432452,41.694765],[2.432349,41.694827],[2.432393,41.694868],[2.432408,41.694859],[2.432523,41.694963],[2.432573,41.695009],[2.432609,41.694988],[2.432767,41.695137],[2.432799,41.695168],[2.434137,41.694573],[2.433927,41.694217],[2.43401,41.694211],[2.43408,41.69423],[2.434171,41.694285],[2.434424,41.694508],[2.434711,41.694748],[2.434848,41.6947]]]]}},{"type":"Feature","id":"082592_082592 AP09 VOR 2","properties":{"area_id":"082592_082592 AP09 VOR 2","nom":"Can Ram","codi_icgc":"082592 AP09 VOR 2","categoria":"Àrees de poblament","codi_municipi":"082592","municipi":"Santa Maria de Palautordera","codi_comarca":"41","comarca":"Vallès Oriental","provincia":"Barcelona","font":"ICGC Àrees de poblament v3r1 202602"},"geometry":{"type":"MultiPolygon","coordinates":[[[[2.429269,41.67882],[2.429275,41.678795],[2.429269,41.678776],[2.429257,41.678751],[2.429233,41.678733],[2.429203,41.678733],[2.429165,41.678736],[2.429137,41.678745],[2.429113,41.67869],[2.428993,41.678688],[2.428884,41.678687],[2.428798,41.678689],[2.428616,41.67871],[2.428443,41.678729],[2.428339,41.678747],[2.428244,41.678761],[2.42818,41.678779],[2.428127,41.678795],[2.428094,41.678808],[2.428093,41.678804],[2.428082,41.678813],[2.428107,41.678835],[2.428511,41.679187],[2.42852,41.679194],[2.428524,41.679198],[2.428613,41.679179],[2.428655,41.679175],[2.428738,41.679163],[2.429021,41.679157],[2.428982,41.678906],[2.429125,41.678876],[2.429198,41.678863],[2.429232,41.678848],[2.429259,41.678836],[2.429269,41.67882]]],[[[2.429658,41.680043],[2.429448,41.680001],[2.429522,41.680066],[2.431003,41.681354],[2.431009,41.68136],[2.431012,41.681362],[2.431045,41.681246],[2.431066,41.681173],[2.431125,41.681009],[2.431144,41.680955],[2.430979,41.680755],[2.43051,41.680753],[2.42987,41.680316],[2.430082,41.680192],[2.4299,41.680099],[2.429658,41.680043]]]]}},{"type":"Feature","id":"082592_082592 AP08 VOR 2","properties":{"area_id":"082592_082592 AP08 VOR 2","nom":"Can Sala","codi_icgc":"082592 AP08 VOR 2","categoria":"Àrees de poblament","codi_municipi":"082592","municipi":"Santa Maria de Palautordera","codi_comarca":"41","comarca":"Vallès Oriental","provincia":"Barcelona","font":"ICGC Àrees de poblament v3r1 202602"},"geometry":{"type":"MultiPolygon","coordinates":[[[[2.445187,41.689314],[2.445041,41.689181],[2.444981,41.689226],[2.444865,41.689314],[2.444866,41.689322],[2.444866,41.689351],[2.444862,41.689354],[2.444859,41.689356],[2.444805,41.689394],[2.444827,41.689411],[2.444828,41.689412],[2.444832,41.689414],[2.444831,41.689414],[2.444974,41.689528],[2.445131,41.689654],[2.445281,41.689772],[2.445432,41.68989],[2.445534,41.689971],[2.445636,41.690053],[2.445745,41.690137],[2.445853,41.690222],[2.445907,41.690264],[2.445962,41.690307],[2.445964,41.690323],[2.44613,41.690446],[2.44619,41.690492],[2.4463,41.690578],[2.446342,41.690583],[2.446383,41.690546],[2.446379,41.690496],[2.44642,41.690398],[2.446457,41.690341],[2.446524,41.690248],[2.446578,41.6902],[2.446566,41.690189],[2.446439,41.690082],[2.446284,41.690019],[2.446011,41.689792],[2.445885,41.689691],[2.445809,41.689641],[2.445668,41.68959],[2.445548,41.689552],[2.445458,41.689549],[2.445412,41.689511],[2.445312,41.689423],[2.445195,41.689321],[2.445187,41.689314]]],[[[2.442841,41.691883],[2.442839,41.69181],[2.442902,41.691849],[2.443381,41.691783],[2.443526,41.691771],[2.44381,41.691649],[2.443836,41.691637],[2.443848,41.691635],[2.443978,41.691615],[2.444202,41.691541],[2.444548,41.691374],[2.444534,41.691361],[2.444467,41.6913],[2.444427,41.691264],[2.444313,41.691142],[2.44418,41.691077],[2.444066,41.691048],[2.443999,41.69116],[2.443989,41.691176],[2.443766,41.691141],[2.443626,41.69112],[2.443624,41.691119],[2.443625,41.691104],[2.443647,41.690762],[2.443665,41.690433],[2.443719,41.689466],[2.443748,41.688946],[2.443759,41.688804],[2.443903,41.688791],[2.444357,41.688667],[2.444316,41.688565],[2.44425,41.68851],[2.444249,41.688502],[2.444216,41.688475],[2.444203,41.688415],[2.444191,41.688326],[2.444197,41.688283],[2.444214,41.688249],[2.444256,41.688234],[2.444343,41.688207],[2.44435,41.688203],[2.444343,41.688165],[2.444315,41.688118],[2.444254,41.688016],[2.444189,41.687861],[2.444543,41.687767],[2.444481,41.687676],[2.444544,41.687642],[2.444571,41.687615],[2.444575,41.687567],[2.444577,41.687532],[2.444879,41.68746],[2.444833,41.687284],[2.444614,41.687232],[2.444557,41.687226],[2.444522,41.687199],[2.444484,41.687187],[2.444439,41.687181],[2.444377,41.687191],[2.444312,41.687215],[2.444256,41.687244],[2.444265,41.687279],[2.444263,41.687368],[2.444224,41.687419],[2.444179,41.687455],[2.44408,41.687476],[2.443998,41.687478],[2.443934,41.687466],[2.443883,41.687439],[2.443855,41.687401],[2.443834,41.687368],[2.443819,41.687321],[2.443831,41.68727],[2.443856,41.687218],[2.443897,41.687167],[2.443922,41.68712],[2.44392,41.687085],[2.443906,41.686932],[2.443908,41.686487],[2.443917,41.686171],[2.443914,41.68604],[2.443895,41.685992],[2.443861,41.685942],[2.443803,41.685896],[2.443732,41.685864],[2.443647,41.68584],[2.443558,41.685837],[2.443091,41.685982],[2.442613,41.686137],[2.442336,41.686214],[2.442015,41.686291],[2.441605,41.686375],[2.441356,41.686438],[2.441241,41.686481],[2.441064,41.686558],[2.440643,41.686764],[2.440052,41.68703],[2.440002,41.687057],[2.439854,41.687137],[2.439677,41.687233],[2.438736,41.687722],[2.438613,41.687786],[2.438587,41.687807],[2.438589,41.687848],[2.438612,41.687873],[2.438667,41.687942],[2.438758,41.688044],[2.43888,41.68819],[2.439029,41.688361],[2.439332,41.688703],[2.439423,41.68882],[2.439422,41.688865],[2.439135,41.689009],[2.439037,41.68906],[2.439345,41.689416],[2.43919,41.689489],[2.439233,41.689528],[2.43927,41.689563],[2.439661,41.689925],[2.439752,41.69001],[2.439979,41.690208],[2.440007,41.690233],[2.440061,41.690274],[2.440617,41.690693],[2.44069,41.690766],[2.440747,41.690823],[2.44118,41.691252],[2.441214,41.691285],[2.44123,41.691303],[2.44144,41.691184],[2.441998,41.691637],[2.442166,41.691744],[2.442216,41.691788],[2.442311,41.691862],[2.442525,41.692005],[2.442596,41.692064],[2.442802,41.691914],[2.442841,41.691883]]]]}},{"type":"Feature","id":"082592_082592 SI03 VOR 2","properties":{"area_id":"082592_082592 SI03 VOR 2","nom":"Can Vernedes - Ca l'Auleda","codi_icgc":"082592 SI03 VOR 2","categoria":"Sector industrial","codi_municipi":"082592","municipi":"Santa Maria de Palautordera","codi_comarca":"41","comarca":"Vallès Oriental","provincia":"Barcelona","font":"ICGC Àrees de poblament v3r1 202602"},"geometry":{"type":"MultiPolygon","coordinates":[[[[2.454803,41.693772],[2.455572,41.693047],[2.456244,41.692485],[2.456311,41.692442],[2.456368,41.692444],[2.456424,41.692438],[2.456461,41.69243],[2.456496,41.692419],[2.456528,41.692406],[2.456558,41.692391],[2.456624,41.692303],[2.456629,41.692284],[2.456637,41.692266],[2.45665,41.69225],[2.456666,41.692235],[2.456685,41.692223],[2.456731,41.692205],[2.456749,41.692227],[2.456766,41.692228],[2.457764,41.692004],[2.459093,41.691736],[2.4594,41.691819],[2.459408,41.691821],[2.459746,41.691747],[2.459869,41.691722],[2.460175,41.69166],[2.460277,41.691639],[2.460381,41.691619],[2.460573,41.691577],[2.460765,41.691534],[2.460898,41.691504],[2.46103,41.69147],[2.461146,41.691434],[2.46117,41.691426],[2.461186,41.691422],[2.461218,41.691408],[2.46183,41.691148],[2.462463,41.690876],[2.463071,41.690608],[2.463004,41.690542],[2.462906,41.690444],[2.462849,41.690404],[2.462603,41.690224],[2.462953,41.690021],[2.462801,41.689875],[2.462493,41.689636],[2.461996,41.689825],[2.461846,41.689883],[2.461408,41.69011],[2.461255,41.69013],[2.461153,41.690048],[2.461046,41.690042],[2.460347,41.689953],[2.46031,41.689977],[2.460574,41.690259],[2.46079,41.69049],[2.461039,41.690756],[2.461224,41.690954],[2.460578,41.691295],[2.459269,41.691538],[2.459186,41.691509],[2.459083,41.691449],[2.45906,41.691396],[2.459122,41.691364],[2.459552,41.69067],[2.459499,41.69065],[2.460007,41.689816],[2.460003,41.689815],[2.460256,41.689394],[2.460113,41.689137],[2.460086,41.689148],[2.46007,41.689151],[2.460053,41.689151],[2.460017,41.689149],[2.459982,41.689147],[2.459689,41.689043],[2.459351,41.688924],[2.458982,41.688796],[2.458612,41.688671],[2.458586,41.688665],[2.458545,41.688665],[2.458505,41.688669],[2.458452,41.688682],[2.458427,41.688691],[2.458402,41.688702],[2.458375,41.688719],[2.45834,41.688748],[2.458313,41.688781],[2.458258,41.688877],[2.458202,41.688973],[2.458094,41.689142],[2.458031,41.689118],[2.457569,41.688996],[2.457311,41.689403],[2.456989,41.689464],[2.456618,41.689969],[2.45643,41.689992],[2.456093,41.690181],[2.455759,41.690376],[2.45557,41.690561],[2.455369,41.690945],[2.45534,41.691002],[2.455462,41.69146],[2.455475,41.691792],[2.455144,41.6923],[2.455279,41.692406],[2.455285,41.692412],[2.455302,41.692435],[2.455312,41.692461],[2.455315,41.692487],[2.455313,41.692496],[2.455309,41.692513],[2.455216,41.692576],[2.455201,41.69259],[2.455175,41.692614],[2.455147,41.692636],[2.455063,41.692701],[2.455044,41.692717],[2.454981,41.692766],[2.454933,41.692808],[2.45482,41.692913],[2.454782,41.692947],[2.454654,41.69306],[2.454594,41.693114],[2.454386,41.693267],[2.454195,41.69338],[2.454177,41.693391],[2.454046,41.693473],[2.454036,41.693479],[2.45399,41.693506],[2.453966,41.693519],[2.453952,41.693526],[2.453945,41.693529],[2.453935,41.693534],[2.453923,41.693536],[2.453916,41.693537],[2.453883,41.693539],[2.453827,41.693546],[2.4538,41.693546],[2.453685,41.693545],[2.453549,41.693541],[2.453414,41.693534],[2.453384,41.693528],[2.453355,41.693519],[2.453323,41.693506],[2.453289,41.693491],[2.453282,41.693487],[2.453261,41.693476],[2.453228,41.693458],[2.453196,41.69344],[2.45318,41.693386],[2.453118,41.69339],[2.452844,41.693409],[2.45277,41.693411],[2.452322,41.693449],[2.4521,41.693492],[2.452016,41.693519],[2.45194,41.69355],[2.451869,41.693586],[2.451824,41.693613],[2.451785,41.693645],[2.451753,41.693679],[2.451735,41.693703],[2.451714,41.693737],[2.451691,41.693786],[2.451675,41.693836],[2.451668,41.69387],[2.451664,41.693915],[2.451669,41.693962],[2.451679,41.694009],[2.451691,41.69404],[2.451757,41.694132],[2.451789,41.694176],[2.452022,41.694302],[2.452718,41.694349],[2.453243,41.694322],[2.453979,41.694147],[2.454323,41.694034],[2.454803,41.693772]]]]}},{"type":"Feature","id":"082592_082592 SI05 VOR 2","properties":{"area_id":"082592_082592 SI05 VOR 2","nom":"Industrial El Temple","codi_icgc":"082592 SI05 VOR 2","categoria":"Sector industrial","codi_municipi":"082592","municipi":"Santa Maria de Palautordera","codi_comarca":"41","comarca":"Vallès Oriental","provincia":"Barcelona","font":"ICGC Àrees de poblament v3r1 202602"},"geometry":{"type":"MultiPolygon","coordinates":[[[[2.473743,41.684494],[2.473562,41.684426],[2.473074,41.685096],[2.472979,41.685226],[2.472968,41.685254],[2.472963,41.685287],[2.472966,41.68532],[2.472976,41.685352],[2.472994,41.685382],[2.473018,41.685409],[2.473129,41.685481],[2.473366,41.685633],[2.473385,41.685645],[2.473471,41.685619],[2.474471,41.685248],[2.474637,41.685168],[2.474783,41.685058],[2.474499,41.684821],[2.474392,41.684771],[2.473743,41.684494]]]]}},{"type":"Feature","id":"082592_082592 SI04 VOR 2","properties":{"area_id":"082592_082592 SI04 VOR 2","nom":"Industrial Pont Trencat","codi_icgc":"082592 SI04 VOR 2","categoria":"Sector industrial","codi_municipi":"082592","municipi":"Santa Maria de Palautordera","codi_comarca":"41","comarca":"Vallès Oriental","provincia":"Barcelona","font":"ICGC Àrees de poblament v3r1 202602"},"geometry":{"type":"MultiPolygon","coordinates":[[[[2.484388,41.67618],[2.484269,41.676137],[2.484144,41.67614],[2.484105,41.676128],[2.483716,41.67603],[2.483533,41.67601],[2.48339,41.676011],[2.483136,41.676083],[2.483107,41.67609],[2.483107,41.67613],[2.483116,41.67617],[2.483121,41.676187],[2.483156,41.676253],[2.483165,41.676273],[2.483162,41.676276],[2.483167,41.676278],[2.483172,41.67628],[2.483169,41.676284],[2.483168,41.676287],[2.483171,41.676288],[2.483228,41.676311],[2.483488,41.676415],[2.48385,41.67656],[2.484813,41.677003],[2.484939,41.677108],[2.485069,41.67729],[2.485354,41.677691],[2.485448,41.677749],[2.48562,41.677855],[2.486039,41.677999],[2.486117,41.678029],[2.486964,41.678347],[2.487446,41.678482],[2.487652,41.678555],[2.487655,41.67855],[2.487694,41.678499],[2.487723,41.678461],[2.487688,41.67834],[2.487674,41.678289],[2.487562,41.67819],[2.487514,41.678148],[2.487414,41.678057],[2.487015,41.677754],[2.486892,41.677681],[2.486603,41.677546],[2.486196,41.677382],[2.48602,41.677322],[2.485768,41.677248],[2.485582,41.677194],[2.485298,41.677111],[2.485236,41.677085],[2.485173,41.677052],[2.484963,41.676865],[2.484998,41.676835],[2.484987,41.676781],[2.484969,41.676723],[2.484938,41.676627],[2.484877,41.676474],[2.484871,41.676448],[2.48485,41.676431],[2.484849,41.676428],[2.484831,41.676415],[2.484675,41.676305],[2.484663,41.676297],[2.484595,41.676268],[2.484593,41.676268],[2.484388,41.67618]]]]}},{"type":"Feature","id":"082592_082592 SI07 VOR 2","properties":{"area_id":"082592_082592 SI07 VOR 2","nom":"Monturó SL","codi_icgc":"082592 SI07 VOR 2","categoria":"Sector industrial","codi_municipi":"082592","municipi":"Santa Maria de Palautordera","codi_comarca":"41","comarca":"Vallès Oriental","provincia":"Barcelona","font":"ICGC Àrees de poblament v3r1 202602"},"geometry":{"type":"MultiPolygon","coordinates":[[[[2.43911,41.690243],[2.439122,41.690253],[2.439015,41.69034],[2.43908,41.690384],[2.439019,41.690441],[2.43903,41.690449],[2.439361,41.690688],[2.439673,41.690457],[2.439608,41.690402],[2.439297,41.690141],[2.439276,41.690124],[2.43911,41.690243]]]]}},{"type":"Feature","id":"082592_082592 AP05 VOR 2","properties":{"area_id":"082592_082592 AP05 VOR 2","nom":"Pont Trencat i Moixerigues","codi_icgc":"082592 AP05 VOR 2","categoria":"Àrees de poblament","codi_municipi":"082592","municipi":"Santa Maria de Palautordera","codi_comarca":"41","comarca":"Vallès Oriental","provincia":"Barcelona","font":"ICGC Àrees de poblament v3r1 202602"},"geometry":{"type":"MultiPolygon","coordinates":[[[[2.486743,41.679499],[2.486883,41.679481],[2.487357,41.679249],[2.487437,41.679154],[2.487594,41.678648],[2.487595,41.678637],[2.487487,41.678587],[2.487234,41.678529],[2.486925,41.678409],[2.486015,41.678109],[2.485732,41.678005],[2.485549,41.67795],[2.485395,41.677866],[2.485161,41.677862],[2.484807,41.677584],[2.48368,41.676988],[2.483072,41.676756],[2.482976,41.676767],[2.482811,41.676816],[2.482693,41.676823],[2.482376,41.676782],[2.482096,41.676838],[2.481334,41.67697],[2.48109,41.677012],[2.480807,41.677004],[2.480287,41.676839],[2.480075,41.676295],[2.480083,41.67627],[2.479419,41.676538],[2.479603,41.676989],[2.479713,41.677138],[2.480122,41.677101],[2.480137,41.677553],[2.480145,41.677553],[2.48018,41.677973],[2.480536,41.677908],[2.480586,41.678023],[2.480571,41.678299],[2.480621,41.678471],[2.480696,41.678538],[2.481358,41.678436],[2.481537,41.67838],[2.481653,41.678218],[2.481666,41.678151],[2.482111,41.678172],[2.482263,41.678173],[2.482517,41.67827],[2.482598,41.678327],[2.482711,41.678316],[2.482744,41.678114],[2.482752,41.67809],[2.482983,41.678055],[2.483354,41.678391],[2.483884,41.678596],[2.484353,41.678693],[2.48452,41.678688],[2.48451,41.678763],[2.484701,41.678794],[2.485045,41.67871],[2.485389,41.678626],[2.485504,41.678512],[2.485886,41.678523],[2.486468,41.678897],[2.486302,41.678973],[2.486327,41.67903],[2.486503,41.679288],[2.486654,41.67948],[2.486664,41.679524],[2.486743,41.679499]]]]}},{"type":"Feature","id":"082592_082592 AP01 VOR 3","properties":{"area_id":"082592_082592 AP01 VOR 3","nom":"Santa Maria de Palautordera","codi_icgc":"082592 AP01 VOR 3","categoria":"Àrees de poblament","codi_municipi":"082592","municipi":"Santa Maria de Palautordera","codi_comarca":"41","comarca":"Vallès Oriental","provincia":"Barcelona","font":"ICGC Àrees de poblament v3r1 202602"},"geometry":{"type":"MultiPolygon","coordinates":[[[[2.43899,41.701027],[2.439421,41.701028],[2.439563,41.701032],[2.439634,41.701033],[2.4397,41.701032],[2.439728,41.701],[2.439832,41.700925],[2.439979,41.70081],[2.439977,41.700797],[2.439998,41.700773],[2.440027,41.700752],[2.440075,41.700749],[2.440537,41.700524],[2.440742,41.700419],[2.440817,41.700501],[2.440911,41.700456],[2.441025,41.700578],[2.441199,41.700751],[2.441245,41.700751],[2.441335,41.700751],[2.441371,41.70075],[2.441386,41.700749],[2.441401,41.700747],[2.441419,41.700745],[2.441437,41.700742],[2.441454,41.700739],[2.441469,41.700735],[2.441483,41.700731],[2.441508,41.700723],[2.441533,41.700714],[2.441547,41.700708],[2.441553,41.700706],[2.441613,41.700677],[2.441756,41.700602],[2.441818,41.700569],[2.441972,41.700485],[2.442137,41.700397],[2.442143,41.700394],[2.442199,41.700363],[2.442303,41.700309],[2.442652,41.700124],[2.442918,41.699983],[2.443034,41.699925],[2.443068,41.69991],[2.443103,41.699908],[2.443147,41.699912],[2.443192,41.699916],[2.443383,41.699922],[2.443436,41.699922],[2.44344,41.699978],[2.443433,41.700071],[2.443467,41.700159],[2.443528,41.700205],[2.443591,41.700243],[2.443695,41.700268],[2.4438,41.700275],[2.444002,41.700212],[2.444129,41.700179],[2.444174,41.700167],[2.444211,41.700157],[2.444326,41.700096],[2.44437,41.700073],[2.444551,41.699978],[2.444706,41.699957],[2.444856,41.699938],[2.444994,41.699927],[2.445112,41.699899],[2.445233,41.699874],[2.445305,41.699856],[2.445407,41.699819],[2.445509,41.69978],[2.445699,41.699716],[2.445888,41.699651],[2.445955,41.699627],[2.446051,41.699587],[2.446097,41.699563],[2.44614,41.699537],[2.446195,41.699497],[2.446272,41.699434],[2.44635,41.699372],[2.44639,41.699346],[2.446454,41.699309],[2.446482,41.699287],[2.446503,41.699263],[2.446599,41.69913],[2.446612,41.699116],[2.446616,41.699084],[2.446611,41.699059],[2.4466,41.699035],[2.446582,41.699017],[2.446561,41.699002],[2.446544,41.698999],[2.446488,41.698994],[2.446442,41.699009],[2.446237,41.698838],[2.446281,41.698808],[2.446366,41.698877],[2.446762,41.698609],[2.446825,41.698569],[2.446575,41.698345],[2.446464,41.698253],[2.446116,41.697983],[2.446102,41.697957],[2.446062,41.697932],[2.445886,41.697797],[2.445406,41.697421],[2.444957,41.697769],[2.44461,41.697491],[2.444588,41.697458],[2.444585,41.697416],[2.444617,41.697386],[2.444831,41.69721],[2.444995,41.697073],[2.445074,41.697114],[2.445263,41.697034],[2.445338,41.696988],[2.445368,41.697019],[2.44546,41.696965],[2.445591,41.69692],[2.445687,41.696878],[2.44577,41.696821],[2.445809,41.696761],[2.445899,41.696662],[2.446079,41.696772],[2.446261,41.696616],[2.446056,41.696496],[2.446165,41.69639],[2.446319,41.696267],[2.446495,41.696129],[2.446597,41.696027],[2.446674,41.69594],[2.446706,41.695899],[2.446707,41.695873],[2.446707,41.695823],[2.446714,41.695787],[2.446745,41.695744],[2.447023,41.695834],[2.447101,41.6957],[2.447109,41.695675],[2.447139,41.695624],[2.447262,41.695663],[2.447351,41.695692],[2.447448,41.695524],[2.447483,41.695432],[2.447766,41.695033],[2.447876,41.695],[2.447909,41.694993],[2.447963,41.694966],[2.447931,41.694929],[2.447907,41.694881],[2.447895,41.694856],[2.447877,41.694827],[2.447828,41.694776],[2.447772,41.694687],[2.447738,41.694582],[2.447713,41.694522],[2.447794,41.694389],[2.447892,41.694276],[2.447966,41.694169],[2.448097,41.694009],[2.448126,41.693974],[2.44835,41.693701],[2.448375,41.69367],[2.448529,41.693481],[2.448647,41.693333],[2.448679,41.693297],[2.448852,41.693141],[2.448932,41.693066],[2.449085,41.692945],[2.449139,41.692897],[2.449285,41.692762],[2.449564,41.692504],[2.449632,41.692438],[2.449634,41.692436],[2.449657,41.692413],[2.449823,41.692365],[2.45004,41.692331],[2.450106,41.692165],[2.45026,41.692217],[2.450349,41.692034],[2.45058,41.691476],[2.450563,41.691471],[2.450412,41.691434],[2.45042,41.691365],[2.45044,41.691296],[2.450443,41.691285],[2.450379,41.691219],[2.450087,41.6911],[2.450074,41.691081],[2.450052,41.691085],[2.44987,41.69101],[2.449529,41.690868],[2.449214,41.690736],[2.448898,41.690604],[2.448645,41.690497],[2.448641,41.690498],[2.448145,41.690297],[2.448258,41.690242],[2.448176,41.690139],[2.448149,41.690121],[2.447916,41.690208],[2.447704,41.690351],[2.447842,41.690475],[2.447502,41.690696],[2.447375,41.690765],[2.447364,41.690771],[2.447248,41.690823],[2.447149,41.690738],[2.44706,41.690784],[2.446408,41.691232],[2.446195,41.691393],[2.446049,41.691433],[2.445887,41.691542],[2.445592,41.69174],[2.445207,41.691998],[2.445157,41.692023],[2.444917,41.692145],[2.444835,41.692172],[2.444791,41.692187],[2.44473,41.6921],[2.444377,41.692253],[2.444294,41.69215],[2.444257,41.692129],[2.444215,41.692114],[2.444183,41.692089],[2.44408,41.692118],[2.443663,41.69227],[2.443821,41.692426],[2.443565,41.69256],[2.443524,41.692552],[2.443163,41.692765],[2.442926,41.692891],[2.442641,41.693052],[2.442597,41.693078],[2.442437,41.69318],[2.442265,41.693271],[2.442205,41.693308],[2.442138,41.6934],[2.442118,41.69352],[2.442178,41.69357],[2.442182,41.693666],[2.442144,41.693696],[2.442106,41.693708],[2.442063,41.693718],[2.442029,41.693726],[2.441992,41.693732],[2.441921,41.693744],[2.441829,41.693755],[2.441736,41.693766],[2.441696,41.693772],[2.441627,41.693782],[2.441552,41.693811],[2.441446,41.693776],[2.441369,41.693765],[2.441296,41.693754],[2.441224,41.69374],[2.441146,41.693722],[2.441067,41.693703],[2.441,41.693688],[2.440931,41.693674],[2.44088,41.693669],[2.440828,41.693668],[2.440785,41.693669],[2.440742,41.693672],[2.440701,41.693677],[2.44066,41.693688],[2.440619,41.693706],[2.440582,41.693728],[2.440531,41.693762],[2.440487,41.693799],[2.440445,41.693841],[2.440388,41.693881],[2.440343,41.693868],[2.440309,41.693909],[2.440315,41.693946],[2.440225,41.694015],[2.440152,41.694071],[2.440057,41.694148],[2.439964,41.694227],[2.439897,41.694283],[2.439833,41.694341],[2.439796,41.694381],[2.439772,41.694408],[2.439745,41.694438],[2.439711,41.694476],[2.439591,41.69461],[2.439471,41.694745],[2.439406,41.694818],[2.43934,41.694892],[2.439314,41.694914],[2.439281,41.694931],[2.439237,41.694949],[2.439191,41.694964],[2.439065,41.694998],[2.438936,41.695033],[2.438726,41.695092],[2.438515,41.695153],[2.438332,41.695208],[2.438149,41.695262],[2.437972,41.695309],[2.437794,41.695355],[2.437609,41.695402],[2.437433,41.695448],[2.437258,41.695495],[2.437101,41.695536],[2.437024,41.695559],[2.436949,41.695586],[2.436897,41.69561],[2.436822,41.695648],[2.436748,41.695688],[2.436587,41.695774],[2.436425,41.69586],[2.436338,41.695903],[2.436205,41.695964],[2.436136,41.695992],[2.436065,41.696016],[2.435898,41.696068],[2.435731,41.696119],[2.435548,41.696176],[2.435367,41.696234],[2.435226,41.696284],[2.435088,41.696337],[2.434945,41.696395],[2.434803,41.696459],[2.434761,41.69647],[2.434716,41.696484],[2.43472,41.696526],[2.434782,41.696545],[2.434836,41.696564],[2.435025,41.696634],[2.435213,41.696704],[2.435719,41.696889],[2.436224,41.697074],[2.43648,41.697168],[2.436735,41.697263],[2.436912,41.697332],[2.437081,41.697388],[2.437233,41.697439],[2.437442,41.69751],[2.437612,41.697565],[2.437641,41.697573],[2.437367,41.69801],[2.437613,41.698094],[2.437609,41.698099],[2.437498,41.698253],[2.437389,41.698417],[2.437317,41.69853],[2.437247,41.698643],[2.437192,41.698738],[2.437124,41.698879],[2.437068,41.699015],[2.437018,41.699215],[2.43699,41.699362],[2.436986,41.699535],[2.43699,41.69969],[2.437166,41.699714],[2.43725,41.699699],[2.437335,41.699687],[2.437472,41.699668],[2.437609,41.699649],[2.437929,41.699604],[2.43805,41.699588],[2.438068,41.699586],[2.438086,41.699585],[2.438106,41.699585],[2.438122,41.699585],[2.43815,41.699586],[2.438099,41.69978],[2.438224,41.699807],[2.438407,41.699845],[2.43871,41.699903],[2.438964,41.699561],[2.438999,41.699539],[2.439757,41.69982],[2.439744,41.699851],[2.439311,41.700182],[2.438485,41.700842],[2.438392,41.700919],[2.43845,41.701055],[2.438587,41.701101],[2.438907,41.701094],[2.43899,41.701027]]]]}},{"type":"Feature","id":"082592_082592 SI02 VOR 2","properties":{"area_id":"082592_082592 SI02 VOR 2","nom":"Zona industrial Can Balmes","codi_icgc":"082592 SI02 VOR 2","categoria":"Sector industrial","codi_municipi":"082592","municipi":"Santa Maria de Palautordera","codi_comarca":"41","comarca":"Vallès Oriental","provincia":"Barcelona","font":"ICGC Àrees de poblament v3r1 202602"},"geometry":{"type":"MultiPolygon","coordinates":[[[[2.45596,41.695362],[2.456022,41.69532],[2.456132,41.695274],[2.456197,41.695263],[2.456264,41.695259],[2.456329,41.695266],[2.456384,41.695282],[2.456456,41.69531],[2.456557,41.695353],[2.456532,41.695386],[2.456418,41.695521],[2.456307,41.695664],[2.456369,41.695692],[2.456364,41.695881],[2.456341,41.696078],[2.456413,41.696113],[2.456594,41.696198],[2.456699,41.696243],[2.45682,41.696326],[2.456949,41.696423],[2.457067,41.696493],[2.457164,41.696548],[2.457303,41.696604],[2.457417,41.696642],[2.457535,41.696631],[2.457626,41.696535],[2.457691,41.696461],[2.457741,41.69641],[2.457762,41.69637],[2.457788,41.696313],[2.457798,41.696265],[2.4578,41.696163],[2.45779,41.696054],[2.45777,41.69587],[2.457776,41.695778],[2.457791,41.695714],[2.457816,41.695624],[2.457836,41.695577],[2.457854,41.695404],[2.457908,41.695153],[2.45794,41.694949],[2.457417,41.695055],[2.457012,41.69508],[2.45672,41.695322],[2.456681,41.695309],[2.456577,41.695261],[2.456511,41.695232],[2.456479,41.695194],[2.456461,41.695154],[2.456454,41.695118],[2.456457,41.695076],[2.456483,41.695017],[2.456516,41.694996],[2.456692,41.694875],[2.456868,41.694755],[2.45696,41.69469],[2.457094,41.694589],[2.457224,41.694485],[2.457313,41.69441],[2.457442,41.694295],[2.457564,41.694177],[2.457753,41.693984],[2.457934,41.693787],[2.458058,41.693648],[2.458121,41.693577],[2.458308,41.693366],[2.458339,41.693315],[2.458362,41.693262],[2.458378,41.693207],[2.458386,41.693151],[2.458386,41.693095],[2.458379,41.693039],[2.458364,41.692984],[2.458342,41.692931],[2.458313,41.692879],[2.458282,41.692838],[2.45815,41.692717],[2.458018,41.692597],[2.457926,41.692518],[2.457877,41.692481],[2.457845,41.692459],[2.457782,41.692423],[2.45772,41.692387],[2.457696,41.692377],[2.457658,41.692366],[2.457375,41.692344],[2.456795,41.692503],[2.456399,41.692706],[2.455868,41.693152],[2.455131,41.693782],[2.455009,41.693925],[2.454453,41.694222],[2.453943,41.69442],[2.453535,41.694508],[2.453489,41.694515],[2.453335,41.694536],[2.453217,41.694551],[2.452671,41.694589],[2.452499,41.694569],[2.452287,41.694538],[2.452076,41.694502],[2.451867,41.694461],[2.45166,41.694415],[2.451613,41.694404],[2.451291,41.694609],[2.452729,41.695766],[2.452447,41.695957],[2.452432,41.695967],[2.452841,41.696256],[2.453696,41.696912],[2.453817,41.696819],[2.454202,41.696524],[2.45423,41.696491],[2.454241,41.696476],[2.454368,41.696327],[2.45446,41.696188],[2.454473,41.696184],[2.454497,41.696176],[2.4545,41.696173],[2.454505,41.696173],[2.454515,41.69617],[2.454518,41.696169],[2.454546,41.69616],[2.454553,41.696158],[2.45456,41.696156],[2.454574,41.696155],[2.454597,41.696153],[2.454603,41.696153],[2.454636,41.696147],[2.454669,41.69614],[2.454676,41.696139],[2.454709,41.696131],[2.454733,41.696124],[2.454739,41.696123],[2.454761,41.696115],[2.454787,41.696105],[2.454803,41.696099],[2.454816,41.696093],[2.454822,41.696089],[2.454829,41.696086],[2.454858,41.696069],[2.454906,41.696039],[2.45507,41.695931],[2.455121,41.695897],[2.45528,41.695797],[2.455495,41.695663],[2.455587,41.695603],[2.455739,41.695504],[2.455882,41.69541],[2.455914,41.69539],[2.45596,41.695362]]]]}},{"type":"Feature","id":"082592_082592 SI06 VOR 2","properties":{"area_id":"082592_082592 SI06 VOR 2","nom":"Zona industrial Can Batalla","codi_icgc":"082592 SI06 VOR 2","categoria":"Sector industrial","codi_municipi":"082592","municipi":"Santa Maria de Palautordera","codi_comarca":"41","comarca":"Vallès Oriental","provincia":"Barcelona","font":"ICGC Àrees de poblament v3r1 202602"},"geometry":{"type":"MultiPolygon","coordinates":[[[[2.466777,41.688895],[2.466672,41.688941],[2.466568,41.688987],[2.466489,41.689021],[2.466408,41.689052],[2.466352,41.68907],[2.466276,41.689089],[2.46621,41.689102],[2.466145,41.689114],[2.465721,41.689224],[2.465604,41.689373],[2.465764,41.689725],[2.465795,41.689718],[2.465857,41.689862],[2.465881,41.689904],[2.465906,41.689947],[2.465919,41.689961],[2.465937,41.689972],[2.466388,41.690169],[2.466957,41.690418],[2.466986,41.690424],[2.467045,41.690429],[2.467094,41.690429],[2.467142,41.690422],[2.467409,41.690356],[2.4675,41.690333],[2.467692,41.6903],[2.467677,41.690311],[2.467665,41.690323],[2.46766,41.690334],[2.467661,41.69034],[2.467665,41.690344],[2.467771,41.6904],[2.467876,41.690457],[2.46793,41.690486],[2.467985,41.690515],[2.467994,41.690518],[2.468003,41.690518],[2.468011,41.690517],[2.468026,41.690525],[2.46804,41.690495],[2.468057,41.690467],[2.468074,41.690424],[2.468082,41.690403],[2.468094,41.690384],[2.468117,41.690359],[2.468162,41.690317],[2.468236,41.690255],[2.46827,41.690223],[2.468298,41.690189],[2.468298,41.690189],[2.468386,41.690113],[2.468475,41.690037],[2.468578,41.68995],[2.468687,41.68986],[2.468779,41.689777],[2.468836,41.689711],[2.468907,41.68961],[2.468938,41.689524],[2.468949,41.689495],[2.468959,41.689466],[2.468631,41.689023],[2.46835,41.688644],[2.468337,41.688627],[2.467385,41.688877],[2.46727,41.688868],[2.467156,41.688866],[2.467041,41.688869],[2.466926,41.688878],[2.466813,41.688892],[2.466777,41.688895]]]]}},{"type":"Feature","id":"082592_082592 AP10 VOR 3","properties":{"area_id":"082592_082592 AP10 VOR 3","nom":"el Virgili, el Temple i Ca n'Abril","codi_icgc":"082592 AP10 VOR 3","categoria":"Àrees de poblament","codi_municipi":"082592","municipi":"Santa Maria de Palautordera","codi_comarca":"41","comarca":"Vallès Oriental","provincia":"Barcelona","font":"ICGC Àrees de poblament v3r1 202602"},"geometry":{"type":"MultiPolygon","coordinates":[[[[2.473415,41.693267],[2.473602,41.693261],[2.473662,41.69327],[2.473796,41.693293],[2.473876,41.693305],[2.474054,41.693325],[2.474113,41.693321],[2.474212,41.6933],[2.474567,41.693203],[2.474741,41.693157],[2.475022,41.692981],[2.475155,41.692869],[2.475213,41.692839],[2.475382,41.692751],[2.47562,41.692603],[2.475657,41.692579],[2.475777,41.692426],[2.475795,41.692405],[2.475925,41.692359],[2.475668,41.692156],[2.475603,41.692105],[2.475721,41.692018],[2.475859,41.691939],[2.475969,41.691874],[2.476068,41.691863],[2.476116,41.691858],[2.476319,41.691624],[2.476408,41.691616],[2.476442,41.691612],[2.47668,41.691522],[2.476606,41.691363],[2.476596,41.691337],[2.476575,41.691286],[2.476537,41.691265],[2.476503,41.691228],[2.476475,41.691183],[2.47646,41.691148],[2.476451,41.691095],[2.476449,41.691043],[2.476454,41.690977],[2.47646,41.690945],[2.476469,41.690912],[2.476492,41.690853],[2.47652,41.690796],[2.476557,41.690727],[2.476577,41.690694],[2.476601,41.690662],[2.476628,41.690632],[2.476671,41.690589],[2.476716,41.690547],[2.47677,41.690496],[2.476798,41.690471],[2.476829,41.690448],[2.476889,41.690413],[2.476953,41.690382],[2.476998,41.69036],[2.47706,41.69033],[2.477113,41.690305],[2.477169,41.690282],[2.47725,41.690252],[2.477332,41.690222],[2.477448,41.690179],[2.477486,41.690165],[2.477563,41.690135],[2.477626,41.690108],[2.477716,41.69006],[2.477807,41.690015],[2.477963,41.68995],[2.478121,41.689888],[2.478222,41.689851],[2.478323,41.689814],[2.478399,41.689781],[2.478473,41.689744],[2.478508,41.689726],[2.47854,41.689705],[2.478573,41.689678],[2.47862,41.689634],[2.478663,41.689589],[2.478728,41.689517],[2.47879,41.689444],[2.478863,41.689353],[2.478935,41.689262],[2.478962,41.689228],[2.478998,41.68918],[2.479026,41.689142],[2.479064,41.68908],[2.479084,41.689046],[2.478991,41.68904],[2.477231,41.688959],[2.476365,41.688955],[2.476513,41.688677],[2.476637,41.688629],[2.477953,41.688128],[2.478058,41.688106],[2.478283,41.688235],[2.478365,41.688282],[2.478385,41.688257],[2.478419,41.688243],[2.478439,41.688222],[2.478441,41.688195],[2.478428,41.688171],[2.47849,41.688072],[2.478587,41.687914],[2.478677,41.687775],[2.478703,41.68773],[2.478736,41.687666],[2.478751,41.687619],[2.478762,41.687577],[2.478764,41.68753],[2.478754,41.68747],[2.47874,41.68743],[2.478871,41.687364],[2.479271,41.68753],[2.478657,41.688546],[2.478983,41.688814],[2.479051,41.68883],[2.479169,41.688811],[2.479209,41.688744],[2.479238,41.688702],[2.479277,41.688641],[2.480242,41.687326],[2.48067,41.686703],[2.480748,41.686355],[2.480614,41.685814],[2.480543,41.685523],[2.480284,41.684891],[2.480212,41.684866],[2.480148,41.684854],[2.480061,41.684827],[2.479998,41.684794],[2.479999,41.684639],[2.480012,41.684502],[2.480061,41.684314],[2.480148,41.68396],[2.480209,41.68374],[2.480279,41.683437],[2.480332,41.68322],[2.480423,41.68289],[2.480576,41.682554],[2.480626,41.682322],[2.480656,41.682205],[2.480306,41.682139],[2.479819,41.682666],[2.479277,41.682717],[2.479133,41.682709],[2.478991,41.68271],[2.478711,41.682715],[2.478432,41.68272],[2.478196,41.682725],[2.47796,41.68273],[2.477657,41.682734],[2.477355,41.682738],[2.477139,41.682742],[2.476924,41.682747],[2.476792,41.682749],[2.476661,41.682751],[2.476606,41.682753],[2.476551,41.682755],[2.47641,41.682756],[2.476269,41.682758],[2.476027,41.682766],[2.475785,41.682774],[2.475678,41.682777],[2.475562,41.682783],[2.475519,41.682801],[2.475453,41.682833],[2.475391,41.68287],[2.475335,41.682911],[2.475285,41.682955],[2.47524,41.682972],[2.475211,41.68299],[2.475175,41.683017],[2.47513,41.683011],[2.475075,41.683005],[2.474835,41.683065],[2.474714,41.683102],[2.474563,41.68317],[2.474467,41.683234],[2.473996,41.683811],[2.473983,41.683836],[2.473662,41.68427],[2.47363,41.684314],[2.473592,41.684379],[2.473593,41.68438],[2.474748,41.684893],[2.474938,41.685025],[2.474985,41.685057],[2.475006,41.685115],[2.475012,41.685187],[2.475006,41.6853],[2.474562,41.685434],[2.474572,41.685641],[2.474422,41.685643],[2.474371,41.685648],[2.474333,41.685658],[2.474299,41.685674],[2.47427,41.685694],[2.474246,41.685718],[2.474229,41.685745],[2.474219,41.685774],[2.474216,41.685804],[2.474149,41.685857],[2.473743,41.68587],[2.47368,41.685877],[2.473635,41.685888],[2.473592,41.685904],[2.473554,41.685926],[2.47352,41.685952],[2.473492,41.685981],[2.473471,41.686014],[2.473458,41.686048],[2.473451,41.686084],[2.473398,41.686355],[2.473373,41.686479],[2.473368,41.686509],[2.473361,41.686534],[2.4733,41.686859],[2.473277,41.686981],[2.473266,41.687037],[2.473256,41.687087],[2.473236,41.687184],[2.473225,41.687234],[2.47322,41.68727],[2.473193,41.687302],[2.473172,41.687324],[2.47294,41.687445],[2.472987,41.687528],[2.473064,41.687667],[2.473621,41.688016],[2.473828,41.687944],[2.473819,41.687975],[2.473813,41.688014],[2.473839,41.688049],[2.473873,41.688059],[2.473909,41.688054],[2.473944,41.688034],[2.473955,41.688005],[2.473986,41.687987],[2.474032,41.688065],[2.474069,41.688127],[2.474101,41.68818],[2.474169,41.688296],[2.474183,41.688319],[2.474221,41.688402],[2.474269,41.68839],[2.474289,41.688423],[2.47431,41.688456],[2.474337,41.688489],[2.474369,41.688518],[2.474395,41.688535],[2.474438,41.688555],[2.474485,41.68857],[2.474556,41.68859],[2.474593,41.688597],[2.474633,41.6886],[2.474688,41.6886],[2.474735,41.688597],[2.474787,41.68859],[2.474856,41.688665],[2.475027,41.688856],[2.475249,41.689059],[2.475378,41.689055],[2.475655,41.689269],[2.475749,41.689321],[2.475663,41.689418],[2.475643,41.689441],[2.475591,41.68955],[2.475534,41.68967],[2.475522,41.689856],[2.475516,41.689958],[2.475516,41.690053],[2.475513,41.690127],[2.475507,41.690266],[2.475501,41.690402],[2.4755,41.690438],[2.475498,41.690569],[2.475495,41.690812],[2.475488,41.690903],[2.475373,41.690904],[2.475371,41.691045],[2.475368,41.691249],[2.475367,41.691306],[2.475391,41.69149],[2.475404,41.691583],[2.475413,41.691651],[2.47543,41.691777],[2.475439,41.691906],[2.475174,41.692071],[2.475047,41.692158],[2.47483,41.692306],[2.47465,41.692456],[2.474873,41.692638],[2.474837,41.692676],[2.4748,41.692713],[2.474762,41.692751],[2.47472,41.692787],[2.474689,41.69281],[2.474656,41.692831],[2.47461,41.692858],[2.474576,41.692876],[2.474542,41.692892],[2.474506,41.692906],[2.474456,41.692922],[2.474416,41.692931],[2.474335,41.692943],[2.474261,41.692951],[2.474174,41.692956],[2.474122,41.692667],[2.47403,41.69266],[2.473847,41.692645],[2.473665,41.692632],[2.473574,41.692626],[2.473302,41.692612],[2.473171,41.692614],[2.47297,41.692709],[2.472694,41.69287],[2.472513,41.692969],[2.472421,41.69302],[2.472342,41.693069],[2.472496,41.693334],[2.472539,41.693396],[2.472583,41.693459],[2.472613,41.693501],[2.472718,41.693644],[2.472744,41.693673],[2.472754,41.69368],[2.472821,41.693618],[2.472865,41.693576],[2.472968,41.693502],[2.473028,41.693461],[2.473176,41.693374],[2.473208,41.693354],[2.47325,41.693337],[2.473361,41.69329],[2.473415,41.693267]]]]}},{"type":"Feature","id":"082592_082592 AP04 VOR 2","properties":{"area_id":"082592_082592 AP04 VOR 2","nom":"els Bruguers","codi_icgc":"082592 AP04 VOR 2","categoria":"Àrees de poblament","codi_municipi":"082592","municipi":"Santa Maria de Palautordera","codi_comarca":"41","comarca":"Vallès Oriental","provincia":"Barcelona","font":"ICGC Àrees de poblament v3r1 202602"},"geometry":{"type":"MultiPolygon","coordinates":[[[[2.435939,41.683695],[2.436049,41.683839],[2.435908,41.68391],[2.436027,41.684039],[2.435967,41.684096],[2.436319,41.684511],[2.436569,41.684426],[2.43686,41.684726],[2.436685,41.684966],[2.436479,41.68512],[2.436393,41.685201],[2.436273,41.685303],[2.436236,41.685337],[2.43607,41.685488],[2.436028,41.685531],[2.435937,41.685622],[2.435877,41.685683],[2.43581,41.685725],[2.435782,41.685743],[2.435597,41.685859],[2.435514,41.685906],[2.435317,41.686016],[2.435021,41.686169],[2.43459,41.68639],[2.434516,41.686468],[2.434488,41.686495],[2.434464,41.686468],[2.434432,41.686418],[2.434389,41.686284],[2.434359,41.686156],[2.434323,41.68601],[2.434303,41.685906],[2.434061,41.686164],[2.433528,41.686676],[2.433788,41.68687],[2.434133,41.687219],[2.434391,41.687449],[2.434465,41.687485],[2.434446,41.687528],[2.434477,41.687538],[2.434534,41.687543],[2.434597,41.687547],[2.434716,41.687552],[2.434836,41.687556],[2.434941,41.687562],[2.435071,41.687569],[2.435234,41.687572],[2.435398,41.687572],[2.435586,41.687572],[2.435764,41.687574],[2.435837,41.687574],[2.435937,41.687575],[2.436012,41.687575],[2.436141,41.687572],[2.436211,41.687569],[2.436268,41.687567],[2.436423,41.687561],[2.436578,41.687554],[2.436672,41.687551],[2.43674,41.687549],[2.436902,41.687544],[2.437029,41.687537],[2.437141,41.687527],[2.437308,41.687508],[2.437461,41.687489],[2.437609,41.687477],[2.437672,41.687472],[2.437883,41.687454],[2.438035,41.687446],[2.438021,41.687495],[2.438058,41.687529],[2.438069,41.687673],[2.438264,41.68765],[2.438624,41.687512],[2.438975,41.687323],[2.439022,41.687226],[2.43905,41.687212],[2.439083,41.687169],[2.439126,41.687129],[2.439142,41.687023],[2.438932,41.686798],[2.438752,41.68686],[2.438515,41.686897],[2.438171,41.686953],[2.438021,41.687021],[2.437843,41.687079],[2.437826,41.687012],[2.437728,41.687083],[2.437611,41.687121],[2.437581,41.687101],[2.437609,41.68709],[2.437568,41.687051],[2.437547,41.686963],[2.437535,41.686892],[2.43753,41.686821],[2.437532,41.686789],[2.437538,41.686758],[2.437558,41.686697],[2.437578,41.686657],[2.437609,41.686615],[2.437629,41.686594],[2.437665,41.686569],[2.437708,41.686546],[2.437739,41.686534],[2.437783,41.686524],[2.437851,41.686514],[2.437921,41.686507],[2.437966,41.686499],[2.438031,41.686485],[2.438096,41.686468],[2.438138,41.686454],[2.438189,41.686429],[2.438234,41.686399],[2.438261,41.686377],[2.438295,41.686342],[2.438323,41.686306],[2.438338,41.686281],[2.438364,41.686229],[2.438389,41.686176],[2.438616,41.686212],[2.438872,41.686111],[2.438907,41.685957],[2.438802,41.685883],[2.43871,41.685835],[2.438493,41.685834],[2.438454,41.6858],[2.438425,41.685749],[2.438358,41.68563],[2.438301,41.685502],[2.43818,41.685442],[2.438001,41.685352],[2.437758,41.685221],[2.437455,41.68506],[2.436964,41.684786],[2.437163,41.684417],[2.437203,41.684345],[2.43724,41.684303],[2.43727,41.684267],[2.437305,41.684242],[2.437609,41.683984],[2.437774,41.683844],[2.437885,41.683751],[2.437948,41.683698],[2.438211,41.683817],[2.438271,41.683835],[2.438354,41.683882],[2.438611,41.683994],[2.438937,41.683658],[2.439052,41.683536],[2.439231,41.683589],[2.439291,41.683607],[2.439373,41.683631],[2.43952,41.683675],[2.439588,41.683695],[2.439634,41.683709],[2.439728,41.683742],[2.439917,41.683809],[2.43997,41.683828],[2.44018,41.683902],[2.440347,41.683961],[2.440299,41.683777],[2.440279,41.68375],[2.440255,41.683729],[2.440226,41.683713],[2.440192,41.683702],[2.44006,41.683662],[2.439719,41.683559],[2.439406,41.68345],[2.439217,41.683353],[2.439021,41.683254],[2.438983,41.683168],[2.43894,41.683158],[2.438886,41.68315],[2.43885,41.683148],[2.438774,41.683145],[2.438698,41.683144],[2.438603,41.683141],[2.438507,41.683138],[2.438462,41.683134],[2.438419,41.683124],[2.43833,41.683096],[2.438242,41.683067],[2.438159,41.683041],[2.438076,41.683015],[2.43801,41.682987],[2.438009,41.682949],[2.438049,41.682874],[2.438074,41.682823],[2.438096,41.682771],[2.438122,41.682722],[2.438355,41.682686],[2.438319,41.682579],[2.438302,41.682525],[2.438291,41.682496],[2.438277,41.682471],[2.43811,41.682206],[2.438086,41.682193],[2.437983,41.682228],[2.437572,41.682366],[2.43742,41.682435],[2.437194,41.682505],[2.436479,41.68282],[2.436477,41.68282],[2.436423,41.682844],[2.436336,41.682882],[2.436058,41.682927],[2.435941,41.682979],[2.435609,41.683143],[2.435502,41.683095],[2.435387,41.683061],[2.435283,41.68303],[2.435171,41.683089],[2.435209,41.683127],[2.435268,41.683232],[2.435303,41.683309],[2.435347,41.683366],[2.435445,41.683431],[2.43558,41.683565],[2.435637,41.683553],[2.435691,41.683573],[2.435726,41.68357],[2.435801,41.683556],[2.435939,41.683695]]]]}},{"type":"Feature","id":"082592_082592 AP12 VOR 2","properties":{"area_id":"082592_082592 AP12 VOR 2","nom":"la Serra","codi_icgc":"082592 AP12 VOR 2","categoria":"Àrees de poblament","codi_municipi":"082592","municipi":"Santa Maria de Palautordera","codi_comarca":"41","comarca":"Vallès Oriental","provincia":"Barcelona","font":"ICGC Àrees de poblament v3r1 202602"},"geometry":{"type":"MultiPolygon","coordinates":[[[[2.455668,41.688753],[2.455919,41.688537],[2.455895,41.688539],[2.4558,41.68847],[2.455726,41.688423],[2.455642,41.688364],[2.455563,41.688323],[2.45546,41.688312],[2.455267,41.6883],[2.455234,41.68826],[2.455107,41.688272],[2.455083,41.688294],[2.454994,41.68827],[2.454823,41.688219],[2.454803,41.688245],[2.454645,41.688151],[2.454502,41.688105],[2.454459,41.688101],[2.454432,41.688121],[2.454348,41.688079],[2.454241,41.688092],[2.454199,41.688098],[2.454185,41.688073],[2.454165,41.68804],[2.454055,41.688052],[2.453989,41.688045],[2.453691,41.688081],[2.453382,41.688139],[2.453319,41.688151],[2.453277,41.688166],[2.453267,41.688201],[2.453525,41.68864],[2.453553,41.688629],[2.453636,41.688677],[2.453907,41.688861],[2.454084,41.68898],[2.454286,41.689117],[2.454502,41.689263],[2.454707,41.689411],[2.454745,41.689438],[2.454757,41.689444],[2.454844,41.68939],[2.455344,41.689014],[2.455668,41.688753]]]]}},{"type":"Feature","id":"082592_082592 SI01 VOR 2","properties":{"area_id":"082592_082592 SI01 VOR 2","nom":"la Serra","codi_icgc":"082592 SI01 VOR 2","categoria":"Sector industrial","codi_municipi":"082592","municipi":"Santa Maria de Palautordera","codi_comarca":"41","comarca":"Vallès Oriental","provincia":"Barcelona","font":"ICGC Àrees de poblament v3r1 202602"},"geometry":{"type":"MultiPolygon","coordinates":[[[[2.451162,41.692414],[2.451447,41.692253],[2.45202,41.691918],[2.452189,41.691819],[2.452241,41.691802],[2.452347,41.691742],[2.45262,41.691598],[2.452629,41.691593],[2.452736,41.691535],[2.45281,41.691486],[2.452873,41.691423],[2.452938,41.691335],[2.453017,41.691198],[2.453024,41.691165],[2.453006,41.691142],[2.452983,41.691133],[2.45315,41.690989],[2.453164,41.690971],[2.453217,41.690876],[2.453324,41.690693],[2.45333,41.690685],[2.453345,41.690662],[2.453387,41.690609],[2.453436,41.690559],[2.45349,41.690513],[2.453502,41.690504],[2.453528,41.690483],[2.453557,41.690459],[2.453608,41.69041],[2.453654,41.690359],[2.453661,41.690351],[2.453674,41.690331],[2.453893,41.690155],[2.453897,41.690152],[2.453958,41.690106],[2.454228,41.689889],[2.454231,41.689887],[2.454656,41.689538],[2.454666,41.689522],[2.454668,41.689505],[2.454663,41.689488],[2.454654,41.689476],[2.454601,41.68944],[2.454517,41.689383],[2.454341,41.689263],[2.454064,41.689074],[2.453801,41.688895],[2.453654,41.68883],[2.453584,41.688812],[2.453494,41.688795],[2.453405,41.688786],[2.453157,41.688929],[2.453079,41.688995],[2.452998,41.68912],[2.452902,41.689219],[2.452792,41.689286],[2.45267,41.689329],[2.452533,41.689362],[2.452507,41.689368],[2.452501,41.689382],[2.452484,41.689421],[2.452452,41.689449],[2.452431,41.689464],[2.452425,41.689468],[2.452416,41.689474],[2.452408,41.68948],[2.452401,41.689485],[2.45236,41.689514],[2.452247,41.689594],[2.45219,41.689645],[2.452101,41.689728],[2.452012,41.689811],[2.451918,41.689899],[2.451825,41.689987],[2.451742,41.690067],[2.451661,41.690148],[2.451587,41.690228],[2.451519,41.69031],[2.451437,41.69042],[2.451355,41.690531],[2.451267,41.69065],[2.451179,41.690768],[2.451062,41.690927],[2.450944,41.691085],[2.450869,41.691184],[2.450794,41.691282],[2.450782,41.6913],[2.450715,41.69136],[2.450658,41.69149],[2.45047,41.691839],[2.450525,41.691859],[2.450516,41.691869],[2.450292,41.692259],[2.450244,41.692249],[2.450064,41.692472],[2.44985,41.692483],[2.449698,41.692509],[2.449252,41.692922],[2.448717,41.693381],[2.448023,41.694238],[2.447932,41.694376],[2.447872,41.694469],[2.447855,41.694494],[2.447863,41.694542],[2.447897,41.694558],[2.447962,41.694557],[2.448008,41.694538],[2.448467,41.694345],[2.448845,41.69419],[2.449327,41.694058],[2.449571,41.693985],[2.449622,41.693966],[2.449712,41.69393],[2.449798,41.693888],[2.44988,41.693842],[2.44992,41.693818],[2.449957,41.693789],[2.449989,41.693756],[2.450014,41.69372],[2.450028,41.693699],[2.450052,41.693676],[2.450081,41.693656],[2.450114,41.693641],[2.450151,41.693631],[2.45019,41.693627],[2.450573,41.693327],[2.450623,41.693291],[2.450658,41.693265],[2.45069,41.693234],[2.450715,41.693199],[2.450733,41.693163],[2.450744,41.693124],[2.450747,41.693085],[2.450742,41.693046],[2.450734,41.693022],[2.45073,41.693008],[2.450723,41.692995],[2.45071,41.692972],[2.450704,41.692963],[2.450741,41.692942],[2.450834,41.692814],[2.450864,41.692768],[2.450881,41.692709],[2.450976,41.692572],[2.451162,41.692414]]]]}},{"type":"Feature","id":"082592_082592 AP11 VOR 1","properties":{"area_id":"082592_082592 AP11 VOR 1","nom":"les Barqueres","codi_icgc":"082592 AP11 VOR 1","categoria":"Àrees de poblament","codi_municipi":"082592","municipi":"Santa Maria de Palautordera","codi_comarca":"41","comarca":"Vallès Oriental","provincia":"Barcelona","font":"ICGC Àrees de poblament v3r1 202602"},"geometry":{"type":"MultiPolygon","coordinates":[[[[2.460414,41.674562],[2.460511,41.67441],[2.46044,41.674365],[2.460823,41.674155],[2.460689,41.674074],[2.460617,41.674056],[2.460606,41.674002],[2.460636,41.673767],[2.460488,41.673796],[2.460261,41.673852],[2.460082,41.673884],[2.460034,41.673907],[2.460037,41.674042],[2.460135,41.674179],[2.459996,41.674229],[2.459912,41.674276],[2.459936,41.674309],[2.459983,41.674393],[2.460089,41.674465],[2.4602,41.674504],[2.460272,41.674489],[2.460414,41.674562]]],[[[2.457483,41.67376],[2.457705,41.673721],[2.457769,41.673721],[2.457876,41.673688],[2.457919,41.673659],[2.458026,41.673593],[2.458096,41.67354],[2.458145,41.673489],[2.458435,41.673364],[2.458569,41.673286],[2.458747,41.673135],[2.458871,41.673078],[2.4589,41.673004],[2.458901,41.672911],[2.458873,41.672846],[2.45761,41.67251],[2.457339,41.672437],[2.457342,41.672127],[2.4571,41.672121],[2.456896,41.672128],[2.456826,41.672323],[2.456802,41.672402],[2.456724,41.672641],[2.456708,41.672812],[2.456528,41.673258],[2.456377,41.673576],[2.456253,41.673862],[2.456076,41.674153],[2.455938,41.674402],[2.456032,41.674518],[2.456256,41.674548],[2.45638,41.674516],[2.456457,41.674452],[2.456534,41.674335],[2.456601,41.674256],[2.456836,41.674168],[2.45698,41.674065],[2.457057,41.673969],[2.45713,41.673808],[2.457483,41.67376]]]]}}]}