{"type":"FeatureCollection","name":"ICGC Àrees de poblament - Cercs","features":[{"type":"Feature","id":"082687_082687 SI02 BER 2","properties":{"area_id":"082687_082687 SI02 BER 2","nom":"Centre d'empreses de Cercs (CEC)","codi_icgc":"082687 SI02 BER 2","categoria":"Sector industrial","codi_municipi":"082687","municipi":"Cercs","codi_comarca":"14","comarca":"Berguedà","provincia":"Barcelona","font":"ICGC Àrees de poblament v3r1 202602"},"geometry":{"type":"MultiPolygon","coordinates":[[[[1.86265,42.17323],[1.862567,42.17301],[1.862704,42.172982],[1.862725,42.172978],[1.862912,42.17294],[1.862918,42.172858],[1.862909,42.172695],[1.862882,42.172563],[1.862756,42.172334],[1.862652,42.172238],[1.862588,42.172178],[1.862566,42.172153],[1.862519,42.17212],[1.862312,42.171977],[1.86222,42.171913],[1.862126,42.171851],[1.862085,42.171828],[1.86204,42.17181],[1.861947,42.171782],[1.861834,42.171752],[1.86172,42.171728],[1.861637,42.171715],[1.861555,42.171706],[1.861499,42.171704],[1.861397,42.171716],[1.861361,42.171722],[1.86135,42.171726],[1.861319,42.171742],[1.861293,42.171762],[1.861278,42.171778],[1.861262,42.171813],[1.861255,42.171849],[1.861252,42.171881],[1.861255,42.171913],[1.861262,42.171935],[1.861278,42.171961],[1.861296,42.171984],[1.86134,42.172027],[1.861354,42.172038],[1.861368,42.172048],[1.861398,42.172076],[1.861312,42.172162],[1.861911,42.172541],[1.862008,42.172475],[1.862077,42.17254],[1.86209,42.172562],[1.862101,42.172585],[1.862111,42.172632],[1.862113,42.172664],[1.862111,42.172707],[1.862103,42.1728],[1.862096,42.172894],[1.862096,42.172962],[1.862104,42.17303],[1.862119,42.173056],[1.862143,42.173078],[1.862164,42.17309],[1.862195,42.173101],[1.862227,42.173103],[1.862328,42.173086],[1.862388,42.173288],[1.862584,42.173245],[1.86265,42.17323]]],[[[1.861602,42.177876],[1.861394,42.177664],[1.861366,42.177625],[1.860963,42.177702],[1.860789,42.177728],[1.860704,42.177569],[1.860671,42.17747],[1.860641,42.177373],[1.860623,42.177307],[1.860608,42.177231],[1.8606,42.177154],[1.860598,42.177084],[1.860601,42.177013],[1.860606,42.176967],[1.860621,42.17689],[1.860642,42.176815],[1.860667,42.176751],[1.860698,42.17669],[1.860752,42.176606],[1.860807,42.176521],[1.860845,42.176459],[1.860884,42.176395],[1.860926,42.176306],[1.860962,42.176216],[1.861006,42.176101],[1.861048,42.175985],[1.861066,42.175934],[1.861083,42.175881],[1.861099,42.175815],[1.861111,42.175748],[1.86112,42.175677],[1.861129,42.17561],[1.861129,42.175606],[1.861137,42.175563],[1.86115,42.175532],[1.861141,42.175311],[1.861194,42.174916],[1.861214,42.174762],[1.861237,42.174573],[1.861213,42.174441],[1.861143,42.174306],[1.861051,42.17422],[1.861043,42.174213],[1.861005,42.174196],[1.860963,42.174187],[1.860921,42.174184],[1.860878,42.174186],[1.860835,42.17419],[1.860792,42.174195],[1.860724,42.174206],[1.860624,42.17423],[1.860526,42.174257],[1.860333,42.174303],[1.86014,42.174349],[1.860094,42.174359],[1.859971,42.174387],[1.859821,42.174427],[1.859743,42.174482],[1.859593,42.174283],[1.859858,42.174178],[1.859917,42.174044],[1.86006,42.173891],[1.860091,42.173777],[1.860036,42.173648],[1.859791,42.17337],[1.860701,42.172934],[1.860764,42.172904],[1.860678,42.172801],[1.860678,42.172801],[1.86062,42.172732],[1.860404,42.172426],[1.860308,42.172243],[1.860176,42.171931],[1.860057,42.171655],[1.859974,42.171524],[1.860056,42.171496],[1.860237,42.171436],[1.860813,42.171336],[1.861122,42.171234],[1.861228,42.17122],[1.861371,42.171215],[1.861636,42.171212],[1.861926,42.171301],[1.862142,42.171367],[1.862184,42.17137],[1.862255,42.171239],[1.861638,42.171018],[1.861347,42.171021],[1.860943,42.171014],[1.860521,42.171005],[1.859593,42.170733],[1.859241,42.170819],[1.858926,42.170871],[1.8589,42.170956],[1.858827,42.170992],[1.858634,42.170908],[1.85845,42.170803],[1.858363,42.170833],[1.858319,42.170849],[1.858204,42.17089],[1.858149,42.170904],[1.858108,42.171179],[1.85809,42.1713],[1.858088,42.171411],[1.858084,42.171444],[1.858084,42.171451],[1.858064,42.171625],[1.858058,42.171679],[1.858051,42.171741],[1.85801,42.171805],[1.857947,42.171905],[1.857944,42.171905],[1.857903,42.171995],[1.85789,42.172022],[1.857824,42.172153],[1.857806,42.172245],[1.857505,42.172291],[1.85711,42.171616],[1.856904,42.171587],[1.856681,42.17164],[1.856633,42.171678],[1.856592,42.171719],[1.856557,42.171764],[1.856528,42.171811],[1.856507,42.17186],[1.856492,42.171911],[1.856488,42.171938],[1.856485,42.171978],[1.856486,42.172018],[1.856497,42.172076],[1.856517,42.172133],[1.856546,42.172188],[1.856583,42.172239],[1.856629,42.172287],[1.856683,42.172331],[1.856743,42.172369],[1.856809,42.172401],[1.856811,42.172402],[1.856925,42.172457],[1.856934,42.172496],[1.856896,42.172539],[1.856863,42.172583],[1.856833,42.172629],[1.856802,42.17269],[1.856778,42.172754],[1.856763,42.172818],[1.856755,42.172883],[1.856755,42.172949],[1.856763,42.173014],[1.856779,42.173078],[1.856803,42.173142],[1.856834,42.173203],[1.856873,42.173262],[1.856918,42.173318],[1.857014,42.173379],[1.85708,42.173459],[1.85706,42.17353],[1.856961,42.173661],[1.856835,42.173728],[1.856647,42.173769],[1.85644,42.173792],[1.8563,42.173837],[1.855972,42.173901],[1.855476,42.173936],[1.854304,42.174174],[1.854291,42.174367],[1.853311,42.174618],[1.853411,42.174874],[1.854786,42.17455],[1.854917,42.174516],[1.855051,42.174488],[1.855163,42.17447],[1.855276,42.174455],[1.855389,42.174445],[1.855504,42.174439],[1.85558,42.174438],[1.855657,42.174438],[1.855742,42.174441],[1.855779,42.174447],[1.855817,42.174453],[1.855872,42.174456],[1.855926,42.174459],[1.855993,42.174462],[1.85606,42.174464],[1.856175,42.174466],[1.85629,42.174465],[1.856367,42.174463],[1.856444,42.174459],[1.856472,42.174455],[1.8565,42.174449],[1.85655,42.174429],[1.856581,42.174412],[1.856628,42.17438],[1.856669,42.174345],[1.856698,42.174334],[1.85673,42.174328],[1.856861,42.174425],[1.856864,42.174787],[1.856888,42.174798],[1.857014,42.174827],[1.857123,42.174821],[1.857195,42.17485],[1.857246,42.174922],[1.857235,42.17499],[1.857217,42.175081],[1.857202,42.175155],[1.857153,42.175185],[1.857111,42.175259],[1.857105,42.175351],[1.857148,42.175532],[1.85715,42.175545],[1.857318,42.175766],[1.857415,42.17588],[1.857451,42.175959],[1.857555,42.176053],[1.857609,42.176112],[1.857672,42.176181],[1.857723,42.176233],[1.857779,42.176282],[1.857819,42.176313],[1.857897,42.176371],[1.857976,42.176427],[1.858104,42.17652],[1.858237,42.176612],[1.858282,42.176634],[1.858328,42.176652],[1.858407,42.176685],[1.85849,42.176718],[1.858531,42.176728],[1.8586,42.17674],[1.858671,42.176746],[1.858742,42.176747],[1.858813,42.176744],[1.858883,42.176735],[1.858953,42.176721],[1.859021,42.176702],[1.859087,42.176678],[1.859126,42.176658],[1.85917,42.17663],[1.859219,42.176607],[1.859273,42.17659],[1.859329,42.176579],[1.859386,42.176574],[1.859445,42.176575],[1.859476,42.176578],[1.859507,42.176583],[1.859627,42.176607],[1.859745,42.176633],[1.859841,42.176651],[1.859934,42.176675],[1.860024,42.176706],[1.86011,42.176742],[1.860191,42.176783],[1.860219,42.1768],[1.860268,42.176831],[1.860314,42.176864],[1.860358,42.1769],[1.860589,42.177381],[1.86062,42.17748],[1.860652,42.177578],[1.860678,42.17767],[1.860696,42.177717],[1.860719,42.177777],[1.860746,42.177836],[1.860765,42.177866],[1.86064,42.177967],[1.860808,42.17813],[1.860948,42.178358],[1.86104,42.178451],[1.861602,42.178725],[1.861693,42.178812],[1.861738,42.178965],[1.862104,42.179102],[1.862844,42.179321],[1.862977,42.179291],[1.86312,42.179195],[1.862217,42.178384],[1.861602,42.177876]]]]}},{"type":"Feature","id":"082687_082687 AP01 BER 3","properties":{"area_id":"082687_082687 AP01 BER 3","nom":"Cercs","codi_icgc":"082687 AP01 BER 3","categoria":"Àrees de poblament","codi_municipi":"082687","municipi":"Cercs","codi_comarca":"14","comarca":"Berguedà","provincia":"Barcelona","font":"ICGC Àrees de poblament v3r1 202602"},"geometry":{"type":"MultiPolygon","coordinates":[[[[1.857973,42.147896],[1.858089,42.14778],[1.858159,42.147819],[1.858211,42.147765],[1.858216,42.147691],[1.858223,42.147615],[1.858312,42.147607],[1.858481,42.147571],[1.858478,42.147503],[1.858404,42.147502],[1.858463,42.147482],[1.858543,42.147469],[1.858672,42.147457],[1.858787,42.147444],[1.858895,42.147433],[1.859015,42.147412],[1.859144,42.147383],[1.859301,42.147344],[1.859451,42.147287],[1.859585,42.147216],[1.859702,42.147134],[1.859748,42.147107],[1.859795,42.147109],[1.859847,42.147112],[1.85987,42.147088],[1.859876,42.146963],[1.859965,42.146949],[1.860088,42.146971],[1.860156,42.146968],[1.860221,42.146933],[1.860322,42.146909],[1.860469,42.146873],[1.86048,42.146871],[1.860553,42.146837],[1.860554,42.146806],[1.860573,42.146784],[1.860704,42.146814],[1.860821,42.146813],[1.860937,42.146805],[1.86104,42.146781],[1.861142,42.14676],[1.861256,42.146748],[1.861276,42.146764],[1.861317,42.146891],[1.861639,42.146841],[1.861848,42.146806],[1.861976,42.146783],[1.86229,42.146733],[1.86263,42.146682],[1.862686,42.146677],[1.863092,42.146855],[1.863224,42.146698],[1.863413,42.146784],[1.863547,42.146571],[1.863118,42.146419],[1.862803,42.146295],[1.86286,42.1459],[1.862814,42.145851],[1.862758,42.14577],[1.862737,42.145766],[1.862661,42.145685],[1.862384,42.145636],[1.861858,42.145552],[1.861725,42.145558],[1.861618,42.145575],[1.861367,42.145648],[1.861133,42.145699],[1.86105,42.145722],[1.860783,42.145768],[1.86075,42.145596],[1.86092,42.14554],[1.861016,42.145503],[1.861086,42.145448],[1.861205,42.145368],[1.861317,42.145285],[1.86119,42.14513],[1.861195,42.145063],[1.861092,42.144981],[1.860836,42.145138],[1.860492,42.144881],[1.860277,42.14498],[1.86017,42.145046],[1.860176,42.14507],[1.860243,42.145296],[1.85991,42.145457],[1.859702,42.145554],[1.859647,42.145601],[1.859609,42.145657],[1.859607,42.145689],[1.859609,42.145756],[1.859572,42.14576],[1.85953,42.145713],[1.859417,42.145654],[1.859366,42.145715],[1.859133,42.14568],[1.859081,42.145633],[1.859008,42.145675],[1.859061,42.145728],[1.859366,42.145799],[1.859454,42.145914],[1.859535,42.145912],[1.859498,42.146078],[1.859443,42.146071],[1.859444,42.14608],[1.859399,42.14608],[1.85939,42.146157],[1.859479,42.146167],[1.859554,42.146163],[1.859584,42.146208],[1.859585,42.146217],[1.859583,42.14623],[1.85957,42.146353],[1.859556,42.146421],[1.859514,42.146414],[1.859451,42.146403],[1.859242,42.146388],[1.859201,42.146386],[1.859187,42.146499],[1.859101,42.146574],[1.85905,42.146625],[1.858968,42.146687],[1.859021,42.146729],[1.859039,42.146782],[1.859054,42.14684],[1.858974,42.146858],[1.858923,42.147],[1.859124,42.147047],[1.859101,42.147056],[1.858957,42.147104],[1.858852,42.147151],[1.858714,42.147257],[1.858488,42.147385],[1.858359,42.147438],[1.858222,42.147484],[1.858077,42.147512],[1.85806,42.147602],[1.858003,42.147655],[1.857849,42.147754],[1.857812,42.147766],[1.857815,42.147777],[1.85785,42.147828],[1.857973,42.147896]]],[[[1.862352,42.148141],[1.862992,42.147741],[1.862751,42.147509],[1.862698,42.147509],[1.862609,42.14748],[1.862309,42.14744],[1.862291,42.147437],[1.862116,42.147414],[1.86192,42.147449],[1.861643,42.147439],[1.861362,42.147417],[1.861356,42.147416],[1.861311,42.147453],[1.861202,42.147426],[1.861106,42.147394],[1.861085,42.147384],[1.86093,42.147432],[1.860965,42.147454],[1.860982,42.147468],[1.86086,42.147504],[1.860791,42.147526],[1.860702,42.147578],[1.860685,42.147608],[1.860637,42.14771],[1.860593,42.147829],[1.860586,42.147865],[1.860549,42.147874],[1.860304,42.147834],[1.860108,42.147886],[1.860033,42.147931],[1.860148,42.148108],[1.860215,42.148114],[1.860348,42.148384],[1.860433,42.148674],[1.860499,42.148662],[1.860764,42.148612],[1.86087,42.148592],[1.861356,42.148503],[1.861723,42.148414],[1.862029,42.148309],[1.862129,42.148275],[1.862352,42.148141]]]]}},{"type":"Feature","id":"082687_082687 SI03 BER 2","properties":{"area_id":"082687_082687 SI03 BER 2","nom":"Explosius Sistach SA","codi_icgc":"082687 SI03 BER 2","categoria":"Sector industrial","codi_municipi":"082687","municipi":"Cercs","codi_comarca":"14","comarca":"Berguedà","provincia":"Barcelona","font":"ICGC Àrees de poblament v3r1 202602"},"geometry":{"type":"MultiPolygon","coordinates":[[[[1.848421,42.177358],[1.8484,42.177326],[1.848233,42.177385],[1.847812,42.177532],[1.848053,42.177941],[1.848491,42.17864],[1.849097,42.17844],[1.848667,42.177738],[1.848424,42.177362],[1.848421,42.177358]]]]}},{"type":"Feature","id":"082687_082687 AP03 BER 3","properties":{"area_id":"082687_082687 AP03 BER 3","nom":"Sant Corneli","codi_icgc":"082687 AP03 BER 3","categoria":"Àrees de poblament","codi_municipi":"082687","municipi":"Cercs","codi_comarca":"14","comarca":"Berguedà","provincia":"Barcelona","font":"ICGC Àrees de poblament v3r1 202602"},"geometry":{"type":"MultiPolygon","coordinates":[[[[1.856323,42.187425],[1.856366,42.187414],[1.856414,42.187399],[1.856485,42.187371],[1.856554,42.187342],[1.856645,42.187303],[1.856735,42.187264],[1.856822,42.187224],[1.856907,42.187182],[1.856994,42.187135],[1.85708,42.187087],[1.857153,42.187046],[1.857223,42.187001],[1.857256,42.186977],[1.857288,42.186952],[1.857321,42.186926],[1.857357,42.1869],[1.857386,42.1869],[1.857399,42.186901],[1.857525,42.186933],[1.85754,42.186953],[1.857548,42.186962],[1.857559,42.18697],[1.857565,42.186972],[1.857566,42.186975],[1.857623,42.18699],[1.857657,42.18698],[1.857695,42.186981],[1.857715,42.186939],[1.857721,42.186913],[1.857725,42.186872],[1.857684,42.186847],[1.857617,42.1868],[1.857608,42.186761],[1.857599,42.186725],[1.857533,42.186682],[1.857427,42.186684],[1.857383,42.186694],[1.857381,42.186691],[1.857224,42.186721],[1.85715,42.186588],[1.857019,42.18663],[1.856755,42.186656],[1.856649,42.18663],[1.856681,42.186466],[1.856592,42.186336],[1.856533,42.186318],[1.856504,42.18631],[1.856434,42.186299],[1.856322,42.186284],[1.856272,42.186278],[1.856139,42.18627],[1.856073,42.186268],[1.856006,42.186269],[1.855949,42.186274],[1.855848,42.186289],[1.855729,42.18629],[1.855569,42.18629],[1.855457,42.186284],[1.855452,42.18628],[1.855447,42.186278],[1.855432,42.186275],[1.855424,42.186274],[1.855405,42.186271],[1.855388,42.18627],[1.855381,42.18627],[1.855366,42.18627],[1.855319,42.186222],[1.855317,42.186219],[1.855325,42.186141],[1.85533,42.186108],[1.855346,42.185952],[1.855342,42.1859],[1.855336,42.185869],[1.855327,42.185849],[1.855292,42.185811],[1.855262,42.185777],[1.855238,42.185754],[1.855203,42.18572],[1.855163,42.18568],[1.855105,42.185619],[1.855099,42.185613],[1.855176,42.185591],[1.855185,42.185589],[1.855195,42.18559],[1.855209,42.185595],[1.855255,42.185613],[1.855297,42.185633],[1.855347,42.18566],[1.855399,42.185687],[1.855431,42.185698],[1.855464,42.185706],[1.855528,42.185714],[1.855564,42.185712],[1.855602,42.185702],[1.855624,42.185687],[1.855643,42.185671],[1.855626,42.185594],[1.855623,42.185583],[1.855593,42.185497],[1.855577,42.185453],[1.855521,42.185342],[1.855495,42.185338],[1.855452,42.185331],[1.855361,42.185334],[1.855244,42.185316],[1.855234,42.185315],[1.855233,42.185301],[1.855218,42.185268],[1.855203,42.185243],[1.855182,42.185217],[1.855173,42.1852],[1.855158,42.185191],[1.855141,42.185174],[1.855122,42.18516],[1.855083,42.185142],[1.855045,42.185127],[1.855021,42.185118],[1.854995,42.185104],[1.854975,42.185085],[1.854958,42.185057],[1.854938,42.185014],[1.854923,42.18497],[1.85492,42.184952],[1.854919,42.184945],[1.85492,42.184908],[1.854896,42.184865],[1.854865,42.184841],[1.85481,42.184793],[1.854756,42.184745],[1.8547,42.184695],[1.854643,42.184644],[1.854631,42.18463],[1.854616,42.184603],[1.854613,42.184592],[1.854603,42.184558],[1.854597,42.184536],[1.85459,42.184516],[1.854584,42.184495],[1.854573,42.184476],[1.854523,42.184454],[1.854509,42.184446],[1.854494,42.184437],[1.854482,42.184426],[1.854471,42.184408],[1.85447,42.184398],[1.854471,42.184388],[1.854481,42.184363],[1.854502,42.184325],[1.854523,42.184286],[1.854527,42.184278],[1.854544,42.184243],[1.854561,42.184214],[1.85456,42.18419],[1.854552,42.184176],[1.85454,42.184165],[1.854517,42.184152],[1.854492,42.184141],[1.854481,42.184138],[1.85446,42.184138],[1.854428,42.184144],[1.854419,42.184145],[1.854413,42.184145],[1.854398,42.184144],[1.854331,42.184125],[1.854265,42.184105],[1.854255,42.184101],[1.854207,42.184079],[1.854177,42.184067],[1.854159,42.184064],[1.854146,42.184061],[1.8541,42.18406],[1.854053,42.184058],[1.854015,42.184066],[1.853921,42.183962],[1.853915,42.183955],[1.853852,42.183978],[1.853787,42.183973],[1.853745,42.183983],[1.853722,42.183989],[1.853657,42.183985],[1.853598,42.183982],[1.853535,42.183959],[1.853456,42.183915],[1.85309,42.183666],[1.853125,42.183644],[1.853307,42.183682],[1.8534,42.183413],[1.85346,42.183423],[1.853537,42.183188],[1.853596,42.183197],[1.853627,42.18311],[1.853663,42.183011],[1.853641,42.183003],[1.853627,42.183],[1.85346,42.182965],[1.853261,42.182951],[1.853044,42.18296],[1.852948,42.182969],[1.852821,42.18298],[1.852424,42.183036],[1.852364,42.183064],[1.852203,42.183043],[1.852176,42.18304],[1.852036,42.183061],[1.852109,42.18317],[1.852198,42.183268],[1.852293,42.183325],[1.852282,42.183331],[1.852302,42.183371],[1.852476,42.183518],[1.852364,42.18367],[1.852286,42.183736],[1.852131,42.183787],[1.851814,42.183919],[1.851808,42.183922],[1.85176,42.183843],[1.851746,42.183823],[1.851659,42.183682],[1.851682,42.183576],[1.851688,42.183543],[1.851689,42.183527],[1.851691,42.183517],[1.851689,42.18351],[1.851687,42.183497],[1.851679,42.183478],[1.851667,42.18346],[1.85164,42.18343],[1.851623,42.183417],[1.851603,42.183407],[1.85156,42.183394],[1.851514,42.183387],[1.851469,42.183382],[1.851424,42.183377],[1.851395,42.183373],[1.851367,42.183369],[1.851355,42.183365],[1.85134,42.183355],[1.851327,42.183341],[1.851307,42.183315],[1.851295,42.183287],[1.851302,42.183177],[1.851317,42.183171],[1.851207,42.183063],[1.851168,42.183035],[1.851019,42.18295],[1.850972,42.182901],[1.85094,42.18288],[1.850916,42.182872],[1.850768,42.18285],[1.850717,42.182836],[1.850623,42.182782],[1.850609,42.18277],[1.850563,42.182766],[1.850464,42.182787],[1.850434,42.182787],[1.850362,42.182786],[1.850351,42.182786],[1.850303,42.182801],[1.850236,42.18284],[1.850193,42.182882],[1.850187,42.182887],[1.850265,42.182937],[1.850306,42.182967],[1.850978,42.183391],[1.850987,42.183403],[1.851011,42.183436],[1.851223,42.183683],[1.851367,42.18385],[1.85147,42.183979],[1.851509,42.18404],[1.851527,42.184073],[1.851544,42.1841],[1.851563,42.184134],[1.85161,42.18419],[1.851656,42.184266],[1.851624,42.18428],[1.851673,42.184342],[1.851724,42.184411],[1.851781,42.184488],[1.851814,42.18454],[1.851833,42.184562],[1.851845,42.18457],[1.851858,42.184574],[1.851864,42.184574],[1.851928,42.184547],[1.851941,42.184541],[1.852038,42.184648],[1.851751,42.184856],[1.851714,42.184882],[1.852441,42.185595],[1.852595,42.18551],[1.852956,42.185681],[1.853071,42.185687],[1.853178,42.185759],[1.853222,42.185826],[1.853265,42.185908],[1.853426,42.185876],[1.853428,42.185795],[1.853615,42.185697],[1.853553,42.18562],[1.853408,42.185461],[1.853583,42.185358],[1.853761,42.185455],[1.853773,42.185494],[1.85389,42.185743],[1.854134,42.185712],[1.854249,42.185708],[1.854469,42.185972],[1.854617,42.18594],[1.854833,42.186033],[1.854832,42.186109],[1.854773,42.186171],[1.854913,42.186238],[1.85488,42.186282],[1.854845,42.186324],[1.854811,42.186366],[1.854793,42.186392],[1.854788,42.186401],[1.854776,42.186426],[1.854765,42.18645],[1.85476,42.186468],[1.854764,42.186497],[1.854776,42.186526],[1.854801,42.186576],[1.854816,42.186599],[1.854833,42.186622],[1.854869,42.186664],[1.854905,42.186705],[1.85494,42.186743],[1.854972,42.186772],[1.855061,42.186844],[1.855075,42.186858],[1.855088,42.186866],[1.855099,42.186872],[1.855173,42.186933],[1.855228,42.186975],[1.855287,42.187016],[1.855333,42.187039],[1.855456,42.187091],[1.855553,42.187132],[1.855578,42.187142],[1.855723,42.187204],[1.855867,42.187265],[1.855902,42.187282],[1.855933,42.187302],[1.855945,42.187312],[1.856018,42.18734],[1.85607,42.18735],[1.856136,42.187381],[1.856184,42.187415],[1.856195,42.18742],[1.856214,42.187423],[1.856226,42.187422],[1.856264,42.187438],[1.85628,42.187434],[1.856323,42.187425]]]]}},{"type":"Feature","id":"082687_082687 SI01 BER 2","properties":{"area_id":"082687_082687 SI01 BER 2","nom":"Sant Jordi","codi_icgc":"082687 SI01 BER 2","categoria":"Sector industrial","codi_municipi":"082687","municipi":"Cercs","codi_comarca":"14","comarca":"Berguedà","provincia":"Barcelona","font":"ICGC Àrees de poblament v3r1 202602"},"geometry":{"type":"MultiPolygon","coordinates":[[[[1.862956,42.149854],[1.863165,42.149767],[1.863187,42.149759],[1.863021,42.149485],[1.862904,42.149528],[1.862312,42.149743],[1.862164,42.149797],[1.862139,42.149793],[1.862113,42.149793],[1.862094,42.149797],[1.862072,42.149805],[1.861867,42.149886],[1.861806,42.149908],[1.86177,42.149918],[1.861752,42.149923],[1.861689,42.149936],[1.861658,42.149941],[1.861623,42.149944],[1.861585,42.149945],[1.861573,42.149972],[1.861564,42.149989],[1.861588,42.150038],[1.861592,42.150048],[1.86165,42.150219],[1.8617,42.150315],[1.862084,42.150843],[1.862184,42.150929],[1.862273,42.150965],[1.862346,42.150982],[1.86242,42.150978],[1.862497,42.150965],[1.862898,42.150804],[1.862935,42.150791],[1.863231,42.150688],[1.863324,42.15064],[1.863369,42.150592],[1.863391,42.150565],[1.863351,42.150496],[1.863317,42.150453],[1.863318,42.150392],[1.863259,42.150314],[1.862956,42.149854]]]]}},{"type":"Feature","id":"082687_082687 AP06 BER 3","properties":{"area_id":"082687_082687 AP06 BER 3","nom":"Sant Jordi de Cercs","codi_icgc":"082687 AP06 BER 3","categoria":"Àrees de poblament","codi_municipi":"082687","municipi":"Cercs","codi_comarca":"14","comarca":"Berguedà","provincia":"Barcelona","font":"ICGC Àrees de poblament v3r1 202602"},"geometry":{"type":"MultiPolygon","coordinates":[[[[1.860219,42.148715],[1.860216,42.148709],[1.859961,42.148171],[1.859959,42.148168],[1.859949,42.148147],[1.859936,42.148103],[1.859904,42.14799],[1.859658,42.148176],[1.859649,42.148179],[1.8596,42.148187],[1.859554,42.148192],[1.85955,42.148193],[1.859494,42.148196],[1.859437,42.148199],[1.859384,42.148203],[1.85933,42.148207],[1.859263,42.148212],[1.859196,42.148214],[1.859118,42.148214],[1.859084,42.148214],[1.859041,42.148213],[1.858973,42.148214],[1.858905,42.148215],[1.858854,42.148218],[1.858804,42.148222],[1.858753,42.148224],[1.858702,42.148226],[1.858659,42.148229],[1.858616,42.148231],[1.858582,42.148233],[1.858549,42.148239],[1.858531,42.148245],[1.858522,42.148248],[1.858497,42.148259],[1.85845,42.148283],[1.85842,42.148302],[1.858391,42.14832],[1.858369,42.148331],[1.858341,42.148341],[1.858311,42.148351],[1.858276,42.148362],[1.85824,42.148373],[1.858204,42.148385],[1.858168,42.148398],[1.858133,42.14841],[1.858116,42.148417],[1.858066,42.148438],[1.858026,42.148459],[1.857987,42.14848],[1.857926,42.148512],[1.857866,42.148545],[1.857813,42.148575],[1.857762,42.148607],[1.857748,42.148619],[1.857737,42.14863],[1.857736,42.148638],[1.857733,42.148655],[1.857712,42.148784],[1.857709,42.148951],[1.857737,42.149038],[1.857713,42.149017],[1.857689,42.148996],[1.85768,42.148992],[1.857669,42.14899],[1.857654,42.14899],[1.857647,42.148991],[1.857625,42.148993],[1.857604,42.148996],[1.857498,42.148902],[1.8574,42.148829],[1.857389,42.148819],[1.85737,42.148801],[1.857288,42.148818],[1.857129,42.148937],[1.857035,42.149042],[1.857025,42.149069],[1.857038,42.149084],[1.857164,42.149235],[1.857152,42.149267],[1.857057,42.149334],[1.856934,42.149408],[1.856791,42.149358],[1.856712,42.149362],[1.856696,42.149362],[1.856553,42.149408],[1.856457,42.149493],[1.856331,42.149654],[1.856322,42.149665],[1.85631,42.149693],[1.856472,42.149831],[1.8566,42.149895],[1.856631,42.149911],[1.856577,42.149955],[1.856511,42.150012],[1.85648,42.150038],[1.856457,42.150027],[1.856337,42.149985],[1.856287,42.150008],[1.856106,42.150134],[1.855864,42.150303],[1.85561,42.150465],[1.855596,42.150496],[1.85555,42.150635],[1.855524,42.150738],[1.855492,42.150744],[1.85545,42.150757],[1.855411,42.150775],[1.855387,42.15079],[1.855377,42.150798],[1.855362,42.150811],[1.855349,42.150821],[1.855327,42.150827],[1.855336,42.150832],[1.855323,42.150843],[1.855266,42.150898],[1.855206,42.15096],[1.855187,42.150981],[1.855147,42.151022],[1.855123,42.151048],[1.855116,42.151053],[1.85511,42.151057],[1.855099,42.15106],[1.85509,42.151061],[1.85508,42.15106],[1.855025,42.151055],[1.854971,42.151051],[1.854919,42.151048],[1.854867,42.151048],[1.854853,42.151048],[1.854842,42.151047],[1.854838,42.151045],[1.854831,42.15104],[1.854831,42.150792],[1.854695,42.150837],[1.854585,42.150866],[1.854526,42.150881],[1.854435,42.150904],[1.854329,42.150934],[1.854293,42.150953],[1.854296,42.150957],[1.854244,42.150967],[1.854232,42.150969],[1.854189,42.150977],[1.85408,42.151],[1.854023,42.151056],[1.85396,42.151134],[1.85396,42.151138],[1.853977,42.151155],[1.854013,42.15119],[1.854016,42.151192],[1.854048,42.151206],[1.854081,42.151228],[1.854128,42.151267],[1.854173,42.151308],[1.854198,42.151334],[1.854216,42.151352],[1.854255,42.151391],[1.854257,42.151394],[1.85426,42.151396],[1.854286,42.151428],[1.854302,42.151448],[1.854362,42.151532],[1.854422,42.151633],[1.854482,42.151739],[1.854573,42.151789],[1.85458,42.151794],[1.854605,42.151811],[1.854622,42.151819],[1.854635,42.151822],[1.854652,42.151823],[1.854659,42.151824],[1.854636,42.151852],[1.85465,42.151857],[1.854628,42.151943],[1.854627,42.151947],[1.854618,42.151984],[1.854564,42.151995],[1.854447,42.152019],[1.854285,42.152072],[1.854255,42.152083],[1.854133,42.152128],[1.854108,42.152135],[1.854026,42.152157],[1.853878,42.152192],[1.853766,42.152229],[1.853697,42.152249],[1.853699,42.152252],[1.853703,42.152259],[1.853642,42.152284],[1.853635,42.152273],[1.853593,42.152207],[1.853569,42.15219],[1.853558,42.152185],[1.853545,42.152181],[1.853511,42.152178],[1.853475,42.152179],[1.853457,42.15218],[1.853444,42.152183],[1.853439,42.152186],[1.853433,42.152191],[1.85343,42.152196],[1.853424,42.152206],[1.85342,42.152218],[1.853409,42.152278],[1.853397,42.152339],[1.85339,42.152375],[1.853371,42.152464],[1.853344,42.15259],[1.853317,42.152707],[1.853286,42.152823],[1.853243,42.152955],[1.853225,42.153007],[1.853198,42.153086],[1.853163,42.153185],[1.853128,42.153283],[1.853119,42.15332],[1.853115,42.153348],[1.853154,42.15335],[1.853249,42.153354],[1.85343,42.153353],[1.853535,42.153358],[1.853568,42.153359],[1.853571,42.153362],[1.853571,42.153365],[1.853598,42.153389],[1.853615,42.153505],[1.853616,42.153508],[1.85369,42.153671],[1.85374,42.153667],[1.853771,42.153664],[1.853793,42.153673],[1.85387,42.153797],[1.853999,42.153981],[1.854109,42.153958],[1.854255,42.15392],[1.854276,42.153915],[1.854271,42.153907],[1.854255,42.153882],[1.85419,42.153764],[1.854188,42.153761],[1.854177,42.153702],[1.854176,42.153699],[1.854191,42.153614],[1.854191,42.153611],[1.854207,42.153549],[1.854234,42.153541],[1.854255,42.153526],[1.854259,42.153524],[1.854259,42.153521],[1.854289,42.153444],[1.854291,42.15344],[1.854292,42.153436],[1.854314,42.153362],[1.854315,42.153359],[1.854361,42.153205],[1.854362,42.153202],[1.854407,42.153048],[1.854408,42.153044],[1.854448,42.152907],[1.854448,42.152904],[1.854486,42.152766],[1.854487,42.152763],[1.854521,42.152629],[1.854522,42.152626],[1.854555,42.152493],[1.854556,42.152489],[1.854592,42.15236],[1.854592,42.152357],[1.854628,42.152227],[1.854629,42.152224],[1.854663,42.152092],[1.854663,42.152088],[1.854695,42.151956],[1.854696,42.151953],[1.8547,42.151944],[1.854701,42.151941],[1.854712,42.151927],[1.854729,42.151911],[1.854741,42.151905],[1.854759,42.151897],[1.854778,42.151893],[1.854777,42.151897],[1.854768,42.151932],[1.854767,42.151935],[1.854757,42.151983],[1.854756,42.151987],[1.854751,42.152043],[1.854751,42.152047],[1.854754,42.152103],[1.854754,42.152106],[1.854763,42.152185],[1.854763,42.152188],[1.854774,42.152267],[1.854774,42.15227],[1.854796,42.152411],[1.854796,42.152414],[1.854822,42.152555],[1.854823,42.152558],[1.854832,42.152585],[1.854833,42.152588],[1.854846,42.152614],[1.854847,42.152617],[1.854877,42.15267],[1.854878,42.152673],[1.854893,42.152707],[1.854893,42.15271],[1.854904,42.152753],[1.854905,42.152757],[1.854911,42.1528],[1.854911,42.152803],[1.854914,42.152848],[1.854914,42.152851],[1.854917,42.152896],[1.854918,42.152899],[1.854919,42.152924],[1.854919,42.152927],[1.854921,42.152953],[1.854923,42.152956],[1.854935,42.152983],[1.854936,42.152987],[1.854938,42.152991],[1.854938,42.152995],[1.854924,42.153003],[1.854959,42.153073],[1.854959,42.153077],[1.854941,42.153106],[1.854941,42.15311],[1.854933,42.153167],[1.854907,42.153172],[1.854907,42.153176],[1.854869,42.153171],[1.854852,42.153169],[1.854871,42.153223],[1.854896,42.153225],[1.855188,42.153261],[1.855368,42.15327],[1.855452,42.153097],[1.855453,42.153093],[1.855471,42.153004],[1.855599,42.153005],[1.855604,42.153059],[1.855604,42.153063],[1.855609,42.153117],[1.855575,42.153387],[1.855575,42.153391],[1.856052,42.153832],[1.856174,42.153768],[1.856182,42.153767],[1.856236,42.153737],[1.856236,42.153733],[1.856238,42.153728],[1.856244,42.153723],[1.856248,42.153718],[1.856298,42.153689],[1.856344,42.15366],[1.856387,42.153628],[1.856404,42.153614],[1.856418,42.153606],[1.856428,42.153602],[1.856437,42.153601],[1.856444,42.153601],[1.856453,42.153604],[1.856459,42.153607],[1.856467,42.153613],[1.856481,42.153622],[1.856506,42.153637],[1.856512,42.15364],[1.856547,42.153657],[1.856555,42.15366],[1.856989,42.153373],[1.856963,42.153323],[1.856944,42.153288],[1.856933,42.153294],[1.856918,42.153272],[1.856898,42.153244],[1.856895,42.153234],[1.856895,42.153224],[1.8569,42.153213],[1.856904,42.153205],[1.856915,42.153194],[1.856921,42.15319],[1.856915,42.153183],[1.856939,42.15318],[1.856959,42.153167],[1.857061,42.15309],[1.857157,42.15301],[1.857253,42.152925],[1.857347,42.152838],[1.857404,42.152781],[1.857457,42.152722],[1.857486,42.152683],[1.857535,42.152609],[1.857541,42.152598],[1.857611,42.152444],[1.857615,42.152434],[1.857659,42.152306],[1.857664,42.152289],[1.857669,42.152272],[1.857798,42.15223],[1.857811,42.152227],[1.857836,42.152091],[1.8579,42.152105],[1.858051,42.152137],[1.858138,42.152152],[1.85822,42.152101],[1.858328,42.152025],[1.858414,42.151895],[1.858418,42.15189],[1.858423,42.151883],[1.858488,42.151772],[1.858495,42.151756],[1.85854,42.151654],[1.858567,42.151552],[1.858578,42.15148],[1.858569,42.151456],[1.858608,42.151394],[1.858619,42.151388],[1.858619,42.151381],[1.858611,42.151309],[1.858603,42.151275],[1.858593,42.151248],[1.858591,42.151242],[1.858564,42.151185],[1.858536,42.151128],[1.858522,42.151101],[1.858505,42.151068],[1.858474,42.151006],[1.858461,42.150968],[1.858455,42.150928],[1.858458,42.150872],[1.858467,42.150835],[1.858471,42.150816],[1.8585,42.150742],[1.858534,42.150669],[1.858576,42.150586],[1.858622,42.150504],[1.85866,42.150443],[1.858689,42.150403],[1.858694,42.150394],[1.858717,42.15036],[1.858748,42.150329],[1.858784,42.150302],[1.858825,42.150279],[1.858871,42.150262],[1.858919,42.150249],[1.858992,42.150237],[1.859005,42.150233],[1.859024,42.150222],[1.859037,42.150207],[1.859043,42.15019],[1.859042,42.150184],[1.859234,42.15012],[1.859244,42.150139],[1.859254,42.150138],[1.85946,42.150103],[1.860463,42.149544],[1.860495,42.149524],[1.860521,42.1495],[1.860528,42.14949],[1.860541,42.149472],[1.860554,42.149443],[1.86056,42.149412],[1.860557,42.149381],[1.860549,42.149355],[1.860444,42.149128],[1.86038,42.148989],[1.860433,42.148965],[1.860538,42.148987],[1.86075,42.148956],[1.861432,42.14882],[1.861615,42.148773],[1.861731,42.148737],[1.862174,42.148603],[1.862185,42.148599],[1.862061,42.148372],[1.861897,42.148445],[1.861556,42.148539],[1.861308,42.148608],[1.860881,42.148685],[1.860482,42.14875],[1.860219,42.148718],[1.860219,42.148715]]]]}},{"type":"Feature","id":"082687_082687 AP04 BER 3","properties":{"area_id":"082687_082687 AP04 BER 3","nom":"Sant Josep","codi_icgc":"082687 AP04 BER 3","categoria":"Àrees de poblament","codi_municipi":"082687","municipi":"Cercs","codi_comarca":"14","comarca":"Berguedà","provincia":"Barcelona","font":"ICGC Àrees de poblament v3r1 202602"},"geometry":{"type":"MultiPolygon","coordinates":[[[[1.861632,42.183245],[1.861599,42.183242],[1.861563,42.183238],[1.861304,42.183155],[1.860899,42.183704],[1.86082,42.183811],[1.860987,42.183858],[1.861175,42.183912],[1.861281,42.183939],[1.861387,42.183959],[1.861489,42.183969],[1.861592,42.183973],[1.861612,42.183973],[1.861997,42.183962],[1.862014,42.183961],[1.862068,42.183955],[1.862122,42.183947],[1.86223,42.183922],[1.862339,42.183894],[1.86243,42.183867],[1.862558,42.183833],[1.862602,42.183833],[1.862611,42.183834],[1.862612,42.183831],[1.862382,42.183144],[1.862372,42.183156],[1.862342,42.183186],[1.862306,42.183212],[1.862281,42.183227],[1.862239,42.183245],[1.862194,42.18326],[1.8621,42.183282],[1.862004,42.1833],[1.861915,42.183313],[1.861827,42.183319],[1.861814,42.183318],[1.861837,42.18331],[1.861884,42.183293],[1.86198,42.183258],[1.862076,42.18322],[1.8621,42.183208],[1.862122,42.183193],[1.862144,42.183167],[1.862157,42.183139],[1.862168,42.183095],[1.862179,42.18303],[1.862195,42.182967],[1.862203,42.182944],[1.862044,42.182799],[1.861714,42.182918],[1.861632,42.183245]]]]}},{"type":"Feature","id":"082687_082687 AP07 BER 2","properties":{"area_id":"082687_082687 AP07 BER 2","nom":"Vilosiu","codi_icgc":"082687 AP07 BER 2","categoria":"Àrees de poblament","codi_municipi":"082687","municipi":"Cercs","codi_comarca":"14","comarca":"Berguedà","provincia":"Barcelona","font":"ICGC Àrees de poblament v3r1 202602"},"geometry":{"type":"MultiPolygon","coordinates":[[[[1.83181,42.132913],[1.831743,42.133082],[1.831668,42.133289],[1.831663,42.133308],[1.831668,42.133328],[1.831683,42.133336],[1.831729,42.133363],[1.831889,42.133405],[1.831972,42.133394],[1.832016,42.133406],[1.832089,42.133415],[1.832177,42.133396],[1.832275,42.133399],[1.832342,42.133411],[1.832415,42.133426],[1.832521,42.133427],[1.832584,42.133408],[1.832633,42.133371],[1.83267,42.133305],[1.832627,42.133209],[1.83252,42.133152],[1.832498,42.133127],[1.832434,42.13312],[1.832413,42.13302],[1.832367,42.132943],[1.832342,42.132886],[1.832285,42.132844],[1.83227,42.132806],[1.832255,42.132768],[1.832118,42.13279],[1.832065,42.132702],[1.831923,42.132762],[1.831879,42.132828],[1.83181,42.132913]]]]}},{"type":"Feature","id":"082687_082687 AP02 BER 2","properties":{"area_id":"082687_082687 AP02 BER 2","nom":"la Baells","codi_icgc":"082687 AP02 BER 2","categoria":"Àrees de poblament","codi_municipi":"082687","municipi":"Cercs","codi_comarca":"14","comarca":"Berguedà","provincia":"Barcelona","font":"ICGC Àrees de poblament v3r1 202602"},"geometry":{"type":"MultiPolygon","coordinates":[[[[1.870003,42.125611],[1.869786,42.12559],[1.869711,42.125513],[1.869583,42.125474],[1.869558,42.125455],[1.86956,42.125321],[1.869562,42.125226],[1.869576,42.125169],[1.869666,42.125141],[1.869859,42.125105],[1.870038,42.125107],[1.870152,42.125093],[1.870412,42.124958],[1.870528,42.124921],[1.870936,42.125011],[1.871212,42.124613],[1.871352,42.124652],[1.871482,42.12449],[1.870884,42.124343],[1.870783,42.124182],[1.870012,42.124391],[1.870199,42.124698],[1.870221,42.124899],[1.870091,42.125012],[1.86995,42.125029],[1.869733,42.12498],[1.869671,42.124874],[1.869595,42.124845],[1.869481,42.124739],[1.869005,42.124896],[1.868927,42.124934],[1.868873,42.125105],[1.868871,42.12519],[1.868956,42.125449],[1.869486,42.125883],[1.869572,42.126093],[1.869711,42.126238],[1.869889,42.126258],[1.870082,42.126241],[1.870121,42.126184],[1.870127,42.126136],[1.870135,42.126039],[1.870035,42.125974],[1.870023,42.125936],[1.870012,42.125869],[1.870237,42.125754],[1.870056,42.12558],[1.870003,42.125611]]]]}},{"type":"Feature","id":"082687_082687 AP05 BER 3","properties":{"area_id":"082687_082687 AP05 BER 3","nom":"la Rodonella","codi_icgc":"082687 AP05 BER 3","categoria":"Àrees de poblament","codi_municipi":"082687","municipi":"Cercs","codi_comarca":"14","comarca":"Berguedà","provincia":"Barcelona","font":"ICGC Àrees de poblament v3r1 202602"},"geometry":{"type":"MultiPolygon","coordinates":[[[[1.855318,42.162769],[1.855294,42.162756],[1.855269,42.16274],[1.855234,42.162711],[1.855204,42.162681],[1.855188,42.16266],[1.855164,42.162615],[1.855144,42.162578],[1.85514,42.162569],[1.855106,42.162503],[1.85509,42.162471],[1.855042,42.162374],[1.855016,42.162308],[1.854995,42.162243],[1.854986,42.162211],[1.854983,42.162199],[1.854978,42.16218],[1.854959,42.162125],[1.854942,42.162075],[1.854922,42.161994],[1.854901,42.161911],[1.854883,42.161877],[1.854856,42.161849],[1.854835,42.161831],[1.854803,42.161811],[1.854758,42.161789],[1.85471,42.161773],[1.854675,42.161766],[1.854613,42.161758],[1.854551,42.161757],[1.854467,42.161762],[1.854384,42.161772],[1.854293,42.161781],[1.85427,42.161781],[1.854255,42.16178],[1.854251,42.16178],[1.854233,42.161779],[1.854218,42.161779],[1.854204,42.161777],[1.85419,42.161774],[1.854184,42.161771],[1.854102,42.16179],[1.854091,42.161854],[1.854081,42.161918],[1.85407,42.161986],[1.854062,42.162055],[1.854063,42.162089],[1.85407,42.162115],[1.854087,42.162154],[1.854109,42.16219],[1.854136,42.162231],[1.854162,42.162271],[1.853862,42.162268],[1.853749,42.162314],[1.8538,42.162368],[1.853771,42.162404],[1.853917,42.162599],[1.853918,42.162715],[1.85407,42.162702],[1.854084,42.162815],[1.854168,42.162863],[1.85427,42.162933],[1.85428,42.163029],[1.854076,42.163025],[1.85409,42.163089],[1.854143,42.163125],[1.854217,42.163227],[1.854216,42.163269],[1.854228,42.163384],[1.854484,42.163382],[1.854486,42.163401],[1.854492,42.16345],[1.854494,42.163467],[1.854504,42.163612],[1.854541,42.163612],[1.854543,42.163625],[1.854584,42.163621],[1.854579,42.163667],[1.854574,42.1637],[1.854571,42.163717],[1.854568,42.163735],[1.85457,42.163755],[1.854571,42.163769],[1.854594,42.163781],[1.854602,42.163787],[1.85465,42.163806],[1.85469,42.163828],[1.854461,42.163827],[1.85445,42.163835],[1.854477,42.164179],[1.85472,42.164195],[1.854734,42.164508],[1.854385,42.164502],[1.854417,42.164595],[1.854439,42.1646],[1.854611,42.164644],[1.854747,42.16469],[1.854717,42.164873],[1.8548,42.164855],[1.854896,42.164852],[1.854899,42.164852],[1.854919,42.164824],[1.854903,42.164621],[1.854902,42.164357],[1.854893,42.164338],[1.854891,42.164285],[1.854875,42.164204],[1.855208,42.164217],[1.855205,42.164243],[1.855387,42.164243],[1.855463,42.164241],[1.855466,42.164305],[1.855468,42.164311],[1.855529,42.164362],[1.855574,42.164381],[1.855672,42.164404],[1.855705,42.164407],[1.855724,42.164402],[1.855772,42.164391],[1.85584,42.164352],[1.855933,42.164282],[1.855971,42.164251],[1.856048,42.164175],[1.856143,42.164096],[1.856168,42.164069],[1.85619,42.164038],[1.856238,42.163973],[1.856251,42.163939],[1.856256,42.163908],[1.856266,42.163909],[1.85627,42.163885],[1.856274,42.163824],[1.856276,42.163778],[1.856276,42.163761],[1.856276,42.163731],[1.856276,42.1637],[1.856276,42.163659],[1.856274,42.163622],[1.856263,42.163587],[1.856241,42.163535],[1.856237,42.163528],[1.856234,42.163526],[1.856205,42.163478],[1.856179,42.163433],[1.856175,42.163425],[1.856138,42.163374],[1.856131,42.163366],[1.856069,42.163286],[1.855983,42.163195],[1.855838,42.163049],[1.855795,42.163005],[1.855634,42.16285],[1.855621,42.162835],[1.855496,42.162906],[1.855458,42.162884],[1.855325,42.162772],[1.855318,42.162769]]]]}}]}