{"type":"FeatureCollection","name":"ICGC Àrees de poblament - Santa Susanna","features":[{"type":"Feature","id":"082613_082613 AP06 MAR 2","properties":{"area_id":"082613_082613 AP06 MAR 2","nom":"Can Batlle","codi_icgc":"082613 AP06 MAR 2","categoria":"Àrees de poblament","codi_municipi":"082613","municipi":"Santa Susanna","codi_comarca":"21","comarca":"Maresme","provincia":"Barcelona","font":"ICGC Àrees de poblament v3r1 202602"},"geometry":{"type":"MultiPolygon","coordinates":[[[[2.698617,41.6363],[2.698663,41.636394],[2.698686,41.636459],[2.699432,41.636542],[2.700325,41.636631],[2.700956,41.636695],[2.701027,41.63671],[2.701127,41.636725],[2.701464,41.636824],[2.702213,41.637038],[2.70253,41.637128],[2.702681,41.637191],[2.702808,41.637248],[2.703378,41.637538],[2.703549,41.637631],[2.703664,41.637685],[2.703743,41.637703],[2.703814,41.637691],[2.703894,41.637641],[2.703918,41.637593],[2.703903,41.637489],[2.703816,41.637286],[2.703761,41.637149],[2.703679,41.636949],[2.703501,41.636732],[2.703489,41.636711],[2.70297,41.636024],[2.702856,41.635873],[2.702856,41.635873],[2.702759,41.635749],[2.702712,41.63569],[2.70271,41.635688],[2.70267,41.63564],[2.702587,41.635561],[2.702557,41.635532],[2.702546,41.635531],[2.702307,41.635402],[2.70222,41.635286],[2.70222,41.635285],[2.702229,41.63522],[2.702229,41.63522],[2.701747,41.634828],[2.701493,41.634975],[2.701467,41.634975],[2.701363,41.635045],[2.701387,41.635068],[2.701536,41.635207],[2.70121,41.635316],[2.700842,41.635416],[2.701001,41.635204],[2.700792,41.635101],[2.700742,41.635168],[2.700622,41.635112],[2.700584,41.635154],[2.700534,41.635133],[2.700449,41.635096],[2.700409,41.635154],[2.700201,41.635075],[2.700173,41.635064],[2.699992,41.634983],[2.699973,41.634974],[2.699964,41.634976],[2.699929,41.635036],[2.699915,41.635062],[2.699915,41.6351],[2.699918,41.63513],[2.699929,41.635179],[2.699926,41.635235],[2.699846,41.635369],[2.699818,41.635412],[2.699815,41.635414],[2.699736,41.635484],[2.699639,41.635589],[2.699593,41.635639],[2.699611,41.635654],[2.699572,41.635691],[2.699264,41.635994],[2.698852,41.636141],[2.698815,41.636168],[2.698765,41.636198],[2.698732,41.636214],[2.698669,41.636249],[2.698608,41.636282],[2.698617,41.6363]]]]}},{"type":"Feature","id":"082613_082613 AP03 MAR 3","properties":{"area_id":"082613_082613 AP03 MAR 3","nom":"Can Torrent-Alta Maresma","codi_icgc":"082613 AP03 MAR 3","categoria":"Àrees de poblament","codi_municipi":"082613","municipi":"Santa Susanna","codi_comarca":"21","comarca":"Maresme","provincia":"Barcelona","font":"ICGC Àrees de poblament v3r1 202602"},"geometry":{"type":"MultiPolygon","coordinates":[[[[2.718701,41.644778],[2.718834,41.644573],[2.718837,41.644574],[2.718843,41.644562],[2.718867,41.644512],[2.718885,41.644482],[2.718896,41.644462],[2.718924,41.644412],[2.718964,41.644341],[2.719004,41.644269],[2.719055,41.644176],[2.719092,41.64411],[2.719096,41.644102],[2.719121,41.644055],[2.719144,41.644016],[2.719167,41.643981],[2.719195,41.643937],[2.719221,41.643903],[2.719249,41.643867],[2.719281,41.643828],[2.719322,41.643776],[2.719329,41.643733],[2.719507,41.643564],[2.719619,41.643448],[2.719793,41.643269],[2.720496,41.642514],[2.720928,41.642037],[2.720925,41.642036],[2.720926,41.642034],[2.720942,41.642007],[2.720889,41.641988],[2.720615,41.641891],[2.720507,41.641859],[2.720428,41.641826],[2.720415,41.641821],[2.720444,41.641759],[2.720735,41.641145],[2.720967,41.640874],[2.721029,41.640802],[2.72104,41.640806],[2.72125,41.640877],[2.721257,41.640879],[2.721257,41.64088],[2.721254,41.640923],[2.721252,41.640953],[2.721247,41.641008],[2.721246,41.641022],[2.721222,41.641335],[2.721489,41.641448],[2.72153,41.641406],[2.721772,41.64114],[2.721905,41.640991],[2.72196,41.640927],[2.722077,41.6408],[2.722129,41.640746],[2.721389,41.640383],[2.721351,41.640314],[2.721297,41.640214],[2.721123,41.640108],[2.720632,41.639811],[2.720348,41.63977],[2.720141,41.639739],[2.719728,41.639726],[2.719688,41.639677],[2.719684,41.639663],[2.719671,41.639631],[2.719654,41.6396],[2.719613,41.639539],[2.719571,41.639487],[2.719525,41.639438],[2.719481,41.639398],[2.719434,41.63936],[2.719398,41.639334],[2.71936,41.63931],[2.719332,41.639297],[2.719283,41.639278],[2.719233,41.639263],[2.719185,41.639249],[2.719135,41.639236],[2.719109,41.639231],[2.719097,41.639228],[2.719058,41.639223],[2.71898,41.63922],[2.718922,41.639225],[2.718863,41.639234],[2.718824,41.639238],[2.718785,41.639238],[2.718747,41.639234],[2.718723,41.639226],[2.718703,41.639215],[2.71866,41.639187],[2.718618,41.639159],[2.718575,41.639131],[2.718541,41.639108],[2.718524,41.639104],[2.718528,41.639099],[2.718739,41.638868],[2.718763,41.638842],[2.716893,41.637873],[2.716857,41.637834],[2.716857,41.637832],[2.716854,41.637816],[2.716854,41.637788],[2.716855,41.63776],[2.716853,41.637736],[2.716847,41.637713],[2.716833,41.637685],[2.71681,41.637661],[2.716774,41.637631],[2.716738,41.637602],[2.716725,41.637595],[2.716619,41.637538],[2.716544,41.637505],[2.716499,41.637489],[2.716395,41.637455],[2.716188,41.637389],[2.716145,41.637375],[2.71611,41.637359],[2.715872,41.637289],[2.715486,41.637166],[2.715154,41.63706],[2.715096,41.637042],[2.714974,41.637003],[2.714732,41.636926],[2.714411,41.636823],[2.71438,41.636813],[2.714367,41.636809],[2.714348,41.636804],[2.713922,41.636671],[2.713846,41.636648],[2.713838,41.636647],[2.713818,41.636648],[2.713801,41.636655],[2.713788,41.636666],[2.713782,41.63668],[2.713784,41.636695],[2.713861,41.636777],[2.713883,41.636799],[2.713468,41.636707],[2.713292,41.636653],[2.713254,41.636659],[2.713195,41.636669],[2.71304,41.636772],[2.713,41.63679],[2.712937,41.636813],[2.712872,41.636831],[2.712803,41.636843],[2.712734,41.63685],[2.712664,41.63685],[2.712561,41.636854],[2.712528,41.636849],[2.712492,41.636844],[2.712443,41.636831],[2.712443,41.636926],[2.712444,41.63695],[2.712511,41.637053],[2.71246,41.637068],[2.712435,41.63709],[2.712431,41.637092],[2.712374,41.637131],[2.712318,41.637172],[2.712318,41.637172],[2.712293,41.637188],[2.712208,41.637276],[2.712139,41.637355],[2.712107,41.637392],[2.71207,41.637421],[2.712017,41.637452],[2.712014,41.637453],[2.711898,41.637508],[2.711836,41.637529],[2.711824,41.637533],[2.711769,41.637525],[2.711685,41.63762],[2.71166,41.63771],[2.711654,41.637716],[2.711552,41.637822],[2.711527,41.637852],[2.711428,41.637971],[2.711428,41.637972],[2.711399,41.638008],[2.711371,41.638039],[2.71132,41.638097],[2.711311,41.638109],[2.711225,41.638223],[2.711196,41.638261],[2.711038,41.638478],[2.711147,41.638501],[2.711278,41.638528],[2.711397,41.638573],[2.71148,41.638604],[2.711555,41.638632],[2.711622,41.638671],[2.711652,41.63869],[2.711689,41.638657],[2.711723,41.638622],[2.711806,41.638642],[2.711831,41.638646],[2.711937,41.638666],[2.712021,41.638684],[2.712068,41.638692],[2.71208,41.638695],[2.712117,41.638766],[2.712127,41.638784],[2.712239,41.638853],[2.712436,41.638975],[2.712435,41.63898],[2.712406,41.639157],[2.712403,41.639172],[2.712469,41.639202],[2.712482,41.639208],[2.712482,41.639208],[2.712482,41.639208],[2.712488,41.639216],[2.712488,41.639225],[2.712476,41.639272],[2.712461,41.639319],[2.712435,41.639375],[2.712423,41.639404],[2.712416,41.639433],[2.71242,41.639475],[2.712427,41.639517],[2.712429,41.639547],[2.71243,41.639565],[2.712431,41.639574],[2.712423,41.639598],[2.712432,41.6396],[2.712433,41.639612],[2.712438,41.639634],[2.712444,41.639644],[2.712453,41.639653],[2.712464,41.639661],[2.71248,41.639667],[2.712494,41.63967],[2.712497,41.63967],[2.712525,41.639669],[2.712539,41.639665],[2.712552,41.639659],[2.712566,41.639647],[2.712576,41.639634],[2.712579,41.639654],[2.712578,41.63967],[2.712574,41.639685],[2.712559,41.639717],[2.712623,41.639763],[2.712639,41.639774],[2.712727,41.639806],[2.71294,41.639883],[2.712956,41.639888],[2.712645,41.640346],[2.712638,41.64036],[2.712628,41.640379],[2.712608,41.640416],[2.712589,41.640449],[2.71257,41.640483],[2.712568,41.640493],[2.712566,41.640507],[2.712834,41.640566],[2.712842,41.640567],[2.712813,41.640618],[2.712781,41.640675],[2.71276,41.640707],[2.712696,41.640802],[2.712626,41.640894],[2.712424,41.641139],[2.712397,41.641167],[2.712367,41.641193],[2.712345,41.641207],[2.712343,41.641208],[2.712311,41.64122],[2.712276,41.641226],[2.712246,41.641229],[2.712217,41.641228],[2.712179,41.64122],[2.712156,41.641213],[2.712141,41.641209],[2.712108,41.641195],[2.712081,41.641178],[2.712041,41.641137],[2.712004,41.641095],[2.711956,41.641038],[2.711909,41.64098],[2.711867,41.640932],[2.711826,41.640884],[2.711821,41.640878],[2.711815,41.64087],[2.711806,41.640858],[2.711798,41.640845],[2.711822,41.640842],[2.712192,41.640793],[2.712195,41.640761],[2.712192,41.640748],[2.712166,41.640645],[2.71215,41.640591],[2.712111,41.640512],[2.712083,41.640385],[2.71206,41.640315],[2.712046,41.640269],[2.712012,41.64011],[2.712131,41.640065],[2.711955,41.639996],[2.711827,41.639858],[2.711811,41.639841],[2.711617,41.639633],[2.711599,41.639614],[2.711652,41.63958],[2.711828,41.639469],[2.711828,41.639344],[2.711794,41.639313],[2.711702,41.639237],[2.711605,41.639159],[2.711507,41.639083],[2.711438,41.639035],[2.711355,41.638981],[2.711274,41.638927],[2.711149,41.638884],[2.711126,41.638872],[2.711087,41.638851],[2.710979,41.63877],[2.710885,41.638724],[2.710875,41.638715],[2.710864,41.638709],[2.710784,41.638658],[2.710733,41.638625],[2.710695,41.638619],[2.71049,41.638584],[2.710389,41.638793],[2.710342,41.638893],[2.710319,41.638885],[2.710218,41.639101],[2.710191,41.639209],[2.710175,41.639241],[2.710169,41.639288],[2.710154,41.639404],[2.710151,41.639432],[2.710461,41.639633],[2.710476,41.639637],[2.710617,41.639721],[2.710769,41.640068],[2.710901,41.640269],[2.711059,41.640615],[2.711077,41.640634],[2.711129,41.640728],[2.711147,41.64076],[2.711182,41.64082],[2.711234,41.640914],[2.711265,41.640985],[2.71128,41.641035],[2.711282,41.64104],[2.711331,41.641199],[2.711358,41.641262],[2.711374,41.641346],[2.711393,41.641389],[2.711399,41.641512],[2.711399,41.64154],[2.71141,41.641575],[2.711435,41.641659],[2.711439,41.641672],[2.711582,41.642365],[2.711814,41.642471],[2.711814,41.642516],[2.711848,41.642534],[2.711975,41.64261],[2.71199,41.642619],[2.712002,41.642625],[2.712009,41.642628],[2.712026,41.642635],[2.712049,41.642645],[2.71209,41.642661],[2.712169,41.642694],[2.712197,41.642708],[2.712259,41.642739],[2.712349,41.642786],[2.71241,41.642816],[2.712534,41.642874],[2.712659,41.642931],[2.712737,41.642965],[2.712747,41.642951],[2.712815,41.642985],[2.712829,41.642992],[2.712828,41.642993],[2.712812,41.643036],[2.712812,41.64304],[2.712811,41.643054],[2.712827,41.643076],[2.713019,41.643194],[2.713089,41.64323],[2.713137,41.64326],[2.713213,41.64333],[2.713242,41.64336],[2.713341,41.643392],[2.713385,41.643386],[2.71339,41.64338],[2.713432,41.643342],[2.713462,41.643318],[2.713532,41.643268],[2.713602,41.643219],[2.713676,41.643168],[2.713753,41.64312],[2.713807,41.643093],[2.713839,41.64308],[2.713904,41.643064],[2.713972,41.643048],[2.714048,41.643027],[2.714124,41.643004],[2.714174,41.642987],[2.714214,41.642969],[2.714251,41.642948],[2.714317,41.6429],[2.714384,41.642843],[2.714444,41.64278],[2.714479,41.642731],[2.714505,41.642679],[2.714518,41.642643],[2.714521,41.642603],[2.714512,41.642564],[2.7145,41.642538],[2.714471,41.642496],[2.714454,41.642479],[2.71445,41.64248],[2.714429,41.642455],[2.714396,41.642429],[2.714356,41.642401],[2.714338,41.642391],[2.71439,41.642326],[2.714391,41.642317],[2.714408,41.642303],[2.714422,41.642286],[2.714478,41.642219],[2.714516,41.642203],[2.714531,41.642197],[2.714546,41.642195],[2.71455,41.642192],[2.71458,41.642191],[2.714812,41.642181],[2.714823,41.642177],[2.714865,41.642174],[2.714898,41.642165],[2.71494,41.642153],[2.715007,41.642111],[2.715088,41.642052],[2.7151,41.64204],[2.715191,41.641953],[2.715328,41.641817],[2.715333,41.641809],[2.715372,41.641775],[2.71538,41.641767],[2.715444,41.641878],[2.715455,41.641909],[2.715491,41.64202],[2.715518,41.642012],[2.71552,41.642016],[2.716122,41.64182],[2.71615,41.641899],[2.716177,41.641981],[2.7162,41.642063],[2.71621,41.64213],[2.716212,41.642198],[2.716214,41.642291],[2.716216,41.642385],[2.716217,41.642465],[2.716218,41.642545],[2.71622,41.64256],[2.716227,41.642574],[2.716251,41.642601],[2.716269,41.642614],[2.716291,41.642625],[2.716315,41.642635],[2.716339,41.642641],[2.716352,41.642642],[2.716366,41.642638],[2.716367,41.642637],[2.716383,41.642648],[2.716443,41.642538],[2.716741,41.642596],[2.716992,41.642639],[2.717026,41.642524],[2.717043,41.642439],[2.717065,41.642397],[2.717075,41.642377],[2.717296,41.642391],[2.717296,41.642394],[2.71731,41.642425],[2.717318,41.642442],[2.717329,41.642462],[2.717355,41.64249],[2.717374,41.642503],[2.717388,41.642512],[2.717435,41.642535],[2.717482,41.642556],[2.717499,41.642564],[2.717516,41.642575],[2.717522,41.642586],[2.717522,41.642598],[2.717518,41.642607],[2.717514,41.642617],[2.717504,41.642636],[2.717482,41.642679],[2.71745,41.642742],[2.71741,41.642833],[2.717357,41.642971],[2.717308,41.64311],[2.717254,41.643266],[2.717199,41.643423],[2.717167,41.643528],[2.717148,41.64358],[2.717143,41.643588],[2.717095,41.643677],[2.716924,41.643987],[2.716975,41.644013],[2.717329,41.644196],[2.717422,41.644132],[2.717583,41.644182],[2.717673,41.64421],[2.717872,41.644272],[2.717959,41.644299],[2.718374,41.644429],[2.718387,41.644433],[2.718229,41.644675],[2.718283,41.644687],[2.718339,41.644622],[2.718502,41.644697],[2.718701,41.644778]]]]}},{"type":"Feature","id":"082613_082613 AP01 MAR 3","properties":{"area_id":"082613_082613 AP01 MAR 3","nom":"Santa Susanna","codi_icgc":"082613 AP01 MAR 3","categoria":"Àrees de poblament","codi_municipi":"082613","municipi":"Santa Susanna","codi_comarca":"21","comarca":"Maresme","provincia":"Barcelona","font":"ICGC Àrees de poblament v3r1 202602"},"geometry":{"type":"MultiPolygon","coordinates":[[[[2.703908,41.633749],[2.703998,41.634016],[2.704057,41.634127],[2.704167,41.634337],[2.704311,41.634555],[2.70434,41.634621],[2.704,41.635075],[2.703833,41.635339],[2.704451,41.635477],[2.704582,41.635507],[2.704648,41.635531],[2.704674,41.63555],[2.704699,41.635578],[2.704809,41.635768],[2.704852,41.635831],[2.704933,41.635946],[2.704944,41.635966],[2.704945,41.635988],[2.704959,41.636008],[2.70472,41.636188],[2.704734,41.63621],[2.704752,41.636239],[2.704752,41.636239],[2.704853,41.636405],[2.704923,41.636524],[2.70521,41.636382],[2.705273,41.636525],[2.705355,41.636739],[2.705443,41.636924],[2.705534,41.637076],[2.705301,41.637166],[2.705267,41.637185],[2.705459,41.637629],[2.70582,41.637539],[2.705851,41.63759],[2.705926,41.637713],[2.705968,41.637827],[2.706541,41.63938],[2.707083,41.639232],[2.707137,41.639175],[2.708633,41.637607],[2.708753,41.63748],[2.708777,41.637489],[2.708784,41.637491],[2.708996,41.637261],[2.709237,41.637],[2.709409,41.636832],[2.709518,41.636719],[2.70995,41.63626],[2.70998,41.636228],[2.709888,41.636175],[2.70973,41.636127],[2.709552,41.636083],[2.709406,41.636033],[2.708604,41.635781],[2.708902,41.63523],[2.708728,41.635167],[2.708359,41.635058],[2.708331,41.634998],[2.708311,41.634941],[2.708467,41.634703],[2.708531,41.634686],[2.708642,41.63471],[2.709035,41.634845],[2.709562,41.635016],[2.709772,41.635076],[2.710131,41.635176],[2.710176,41.635189],[2.710341,41.635204],[2.710554,41.635183],[2.710688,41.635147],[2.710771,41.63514],[2.71085,41.635138],[2.710888,41.635148],[2.710948,41.635169],[2.710967,41.635198],[2.711011,41.635251],[2.71114,41.635293],[2.711845,41.635518],[2.711969,41.635557],[2.712471,41.635714],[2.712781,41.635136],[2.712667,41.635093],[2.712879,41.634737],[2.713548,41.634953],[2.713554,41.634945],[2.713565,41.63493],[2.713896,41.634501],[2.713995,41.634373],[2.713983,41.63437],[2.713874,41.634345],[2.713868,41.634345],[2.713758,41.634363],[2.713696,41.634387],[2.713672,41.634411],[2.713326,41.634247],[2.713922,41.633379],[2.714011,41.633249],[2.714016,41.633242],[2.713648,41.633068],[2.71364,41.633055],[2.713786,41.632859],[2.713831,41.6328],[2.713838,41.632803],[2.713876,41.632758],[2.713766,41.632706],[2.713729,41.632689],[2.713716,41.632683],[2.713738,41.632655],[2.713723,41.632647],[2.713704,41.632645],[2.713684,41.63267],[2.713662,41.632699],[2.713604,41.632774],[2.713494,41.632719],[2.71351,41.632695],[2.713452,41.632673],[2.713439,41.632692],[2.713434,41.632699],[2.71341,41.63269],[2.713363,41.632789],[2.71335,41.632828],[2.713306,41.63294],[2.713295,41.632963],[2.713274,41.633012],[2.713231,41.633112],[2.713183,41.633211],[2.713146,41.633285],[2.713107,41.633359],[2.713076,41.633409],[2.713051,41.633442],[2.71304,41.633457],[2.713011,41.63349],[2.712978,41.63352],[2.712904,41.633577],[2.712875,41.633595],[2.712871,41.633598],[2.712824,41.633628],[2.712736,41.633676],[2.712648,41.633725],[2.712551,41.63378],[2.712447,41.633843],[2.712277,41.633945],[2.712269,41.633947],[2.712262,41.63395],[2.712253,41.633954],[2.712246,41.633958],[2.712148,41.634021],[2.712054,41.634088],[2.711971,41.634149],[2.711893,41.634214],[2.711875,41.634234],[2.711858,41.634255],[2.711851,41.634267],[2.711847,41.634277],[2.711677,41.634426],[2.711583,41.634509],[2.711516,41.634567],[2.711437,41.634662],[2.711344,41.634773],[2.711313,41.634816],[2.711178,41.634841],[2.711036,41.634831],[2.710883,41.634788],[2.710709,41.634733],[2.71049,41.634644],[2.709922,41.634464],[2.709818,41.634428],[2.708655,41.634072],[2.708161,41.633931],[2.708114,41.63384],[2.708316,41.633372],[2.708246,41.633322],[2.707758,41.633175],[2.707774,41.633137],[2.707882,41.632959],[2.707883,41.632878],[2.707851,41.632823],[2.707801,41.632785],[2.707649,41.632701],[2.70737,41.632543],[2.70723,41.632468],[2.706846,41.63315],[2.706586,41.633073],[2.706441,41.633392],[2.706428,41.63346],[2.706284,41.633791],[2.706162,41.633998],[2.70635,41.634058],[2.70745,41.634392],[2.707476,41.634357],[2.707492,41.63435],[2.707765,41.634429],[2.707815,41.63447],[2.707952,41.634518],[2.708199,41.634595],[2.708347,41.634655],[2.708243,41.634833],[2.708183,41.634933],[2.707864,41.634831],[2.707708,41.634771],[2.707569,41.634683],[2.707363,41.634589],[2.707382,41.634565],[2.707299,41.634527],[2.706246,41.634205],[2.705663,41.634022],[2.705024,41.63382],[2.704276,41.633592],[2.704216,41.633644],[2.70413,41.633725],[2.704073,41.633739],[2.704025,41.633723],[2.703956,41.633725],[2.703908,41.633749]]]]}},{"type":"Feature","id":"082613_082613 AP08 MAR 2","properties":{"area_id":"082613_082613 AP08 MAR 2","nom":"Verdemar","codi_icgc":"082613 AP08 MAR 2","categoria":"Àrees de poblament","codi_municipi":"082613","municipi":"Santa Susanna","codi_comarca":"21","comarca":"Maresme","provincia":"Barcelona","font":"ICGC Àrees de poblament v3r1 202602"},"geometry":{"type":"MultiPolygon","coordinates":[[[[2.712389,41.632405],[2.712395,41.632317],[2.712267,41.632315],[2.712187,41.632342],[2.712183,41.632399],[2.712021,41.632419],[2.711834,41.632437],[2.711697,41.632448],[2.71162,41.632455],[2.71155,41.632432],[2.711449,41.63239],[2.711345,41.632306],[2.711244,41.632224],[2.71121,41.632199],[2.711166,41.632189],[2.71112,41.632199],[2.711057,41.63222],[2.710946,41.632313],[2.710849,41.632399],[2.710797,41.632466],[2.710739,41.632536],[2.71072,41.63257],[2.710728,41.632593],[2.71076,41.632614],[2.710809,41.632635],[2.710779,41.632683],[2.711469,41.632892],[2.71232,41.633148],[2.712487,41.633193],[2.712588,41.633088],[2.712698,41.632899],[2.712789,41.632706],[2.712853,41.6325],[2.712423,41.632423],[2.712389,41.632405]]]]}},{"type":"Feature","id":"082613_082613 AP09 MAR 2","properties":{"area_id":"082613_082613 AP09 MAR 2","nom":"Veïnat d'en Jordi","codi_icgc":"082613 AP09 MAR 2","categoria":"Àrees de poblament","codi_municipi":"082613","municipi":"Santa Susanna","codi_comarca":"21","comarca":"Maresme","provincia":"Barcelona","font":"ICGC Àrees de poblament v3r1 202602"},"geometry":{"type":"MultiPolygon","coordinates":[[[[2.696142,41.647115],[2.695886,41.647091],[2.695814,41.6473],[2.69583,41.647328],[2.695846,41.647357],[2.695864,41.647378],[2.695882,41.647391],[2.695913,41.647407],[2.695948,41.647422],[2.695998,41.647434],[2.696049,41.647442],[2.696089,41.647445],[2.696106,41.647443],[2.696113,41.64744],[2.696118,41.647435],[2.696139,41.647402],[2.696147,41.647388],[2.69615,41.64738],[2.696154,41.647367],[2.696162,41.647309],[2.69617,41.647251],[2.696175,41.6472],[2.696175,41.647159],[2.696167,41.647117],[2.696142,41.647115]]],[[[2.696333,41.650037],[2.696373,41.649971],[2.696417,41.6499],[2.696429,41.649881],[2.696467,41.64982],[2.69647,41.649803],[2.6964,41.649766],[2.696368,41.649755],[2.696366,41.649755],[2.696272,41.649695],[2.696168,41.649628],[2.695984,41.649521],[2.69579,41.649408],[2.695556,41.649674],[2.695532,41.649701],[2.695496,41.649741],[2.695458,41.649767],[2.695423,41.649767],[2.695204,41.649643],[2.695155,41.649615],[2.694958,41.649766],[2.694934,41.649784],[2.694884,41.649823],[2.694968,41.649864],[2.695042,41.649901],[2.695151,41.649946],[2.695199,41.64997],[2.695211,41.649976],[2.69526,41.650001],[2.695299,41.649994],[2.695373,41.649986],[2.695429,41.649982],[2.695485,41.649981],[2.695516,41.649984],[2.695546,41.649992],[2.695585,41.650011],[2.695622,41.650034],[2.695694,41.650086],[2.695725,41.650112],[2.695753,41.650141],[2.695789,41.650185],[2.695797,41.650195],[2.695815,41.650219],[2.695766,41.650304],[2.695701,41.650416],[2.695666,41.650477],[2.69563,41.650505],[2.69559,41.65053],[2.695546,41.650551],[2.695499,41.650567],[2.695457,41.650601],[2.695461,41.650693],[2.69545,41.650925],[2.695455,41.650926],[2.695778,41.650939],[2.695906,41.650841],[2.695992,41.650758],[2.696084,41.650671],[2.695994,41.650615],[2.695967,41.650596],[2.695951,41.650441],[2.696019,41.650337],[2.696212,41.650139],[2.696245,41.650111],[2.696297,41.650068],[2.696316,41.650051],[2.696333,41.650037]]],[[[2.692126,41.651615],[2.692263,41.651524],[2.692572,41.651661],[2.692617,41.651681],[2.692648,41.651695],[2.692724,41.651722],[2.692785,41.651729],[2.692814,41.651726],[2.692835,41.651721],[2.692866,41.651712],[2.692895,41.651696],[2.692924,41.651673],[2.692952,41.651642],[2.69297,41.651609],[2.692973,41.651569],[2.692966,41.651538],[2.692951,41.651504],[2.692944,41.651477],[2.692939,41.651411],[2.69294,41.651357],[2.692938,41.651329],[2.693156,41.651328],[2.693181,41.65133],[2.693189,41.651331],[2.693324,41.651343],[2.693389,41.651157],[2.693183,41.651125],[2.693181,41.650985],[2.693188,41.650986],[2.693181,41.650972],[2.693295,41.65094],[2.693421,41.650896],[2.693421,41.650896],[2.693421,41.650896],[2.693421,41.650896],[2.693534,41.650851],[2.693572,41.650836],[2.693623,41.650816],[2.693676,41.650798],[2.693773,41.650769],[2.693872,41.650742],[2.693985,41.650716],[2.694061,41.6507],[2.69412,41.65069],[2.69421,41.650677],[2.694289,41.650667],[2.694311,41.650665],[2.694334,41.650664],[2.694398,41.650664],[2.694401,41.650664],[2.694377,41.65061],[2.694369,41.650608],[2.694312,41.650495],[2.694203,41.650301],[2.694161,41.65022],[2.693821,41.649771],[2.693796,41.649738],[2.693775,41.649738],[2.693658,41.649737],[2.693638,41.649733],[2.693584,41.649722],[2.693567,41.649717],[2.693468,41.649688],[2.693303,41.649641],[2.693139,41.649593],[2.693063,41.649568],[2.693001,41.649538],[2.692987,41.649529],[2.692971,41.649518],[2.692938,41.649475],[2.6931,41.649314],[2.693041,41.649257],[2.693034,41.64918],[2.693042,41.649109],[2.693083,41.648937],[2.693054,41.648915],[2.692914,41.648839],[2.692784,41.6488],[2.692702,41.648827],[2.692693,41.648868],[2.692701,41.648935],[2.692693,41.649018],[2.692634,41.649164],[2.692648,41.649229],[2.692682,41.649294],[2.692745,41.649342],[2.69279,41.64938],[2.692885,41.649463],[2.6929,41.649473],[2.692899,41.649491],[2.692898,41.649509],[2.6929,41.64952],[2.692924,41.649544],[2.692947,41.649557],[2.692971,41.649566],[2.693047,41.649594],[2.693124,41.649619],[2.693289,41.649668],[2.693454,41.649715],[2.693493,41.649726],[2.693507,41.649748],[2.6935,41.649765],[2.693473,41.649779],[2.693462,41.649785],[2.693448,41.649794],[2.693404,41.649831],[2.693378,41.649858],[2.693346,41.649896],[2.693305,41.649948],[2.693248,41.650016],[2.693176,41.650091],[2.693104,41.650167],[2.69309,41.650182],[2.693078,41.650194],[2.693063,41.650206],[2.693032,41.650221],[2.692998,41.650237],[2.692933,41.650269],[2.692902,41.650288],[2.692873,41.65031],[2.692826,41.65036],[2.692824,41.650368],[2.692632,41.650576],[2.692548,41.650677],[2.692434,41.650813],[2.692402,41.650845],[2.692346,41.650889],[2.692328,41.650903],[2.69229,41.650934],[2.692246,41.650972],[2.692226,41.650991],[2.692185,41.651029],[2.692177,41.651036],[2.692162,41.651046],[2.692151,41.651054],[2.692149,41.651055],[2.692085,41.651094],[2.692033,41.651124],[2.691978,41.651151],[2.691898,41.651184],[2.691815,41.651215],[2.691789,41.651228],[2.691768,41.651244],[2.691759,41.651255],[2.691755,41.651259],[2.691747,41.651257],[2.691727,41.651256],[2.691693,41.651261],[2.691649,41.651277],[2.691607,41.65129],[2.691579,41.651296],[2.691552,41.651298],[2.69154,41.651297],[2.691537,41.651313],[2.691537,41.651314],[2.691536,41.65132],[2.69153,41.651374],[2.691527,41.651416],[2.691523,41.651456],[2.691516,41.651608],[2.691464,41.651723],[2.691699,41.651833],[2.691906,41.651749],[2.691927,41.651741],[2.691945,41.651733],[2.691992,41.651714],[2.692126,41.651615]]]]}},{"type":"Feature","id":"082613_082613 AP04 MAR 1","properties":{"area_id":"082613_082613 AP04 MAR 1","nom":"Zona hotelera","codi_icgc":"082613 AP04 MAR 1","categoria":"Àrees de poblament","codi_municipi":"082613","municipi":"Santa Susanna","codi_comarca":"21","comarca":"Maresme","provincia":"Barcelona","font":"ICGC Àrees de poblament v3r1 202602"},"geometry":{"type":"MultiPolygon","coordinates":[[[[2.725692,41.637141],[2.725908,41.636879],[2.725925,41.636886],[2.726084,41.636719],[2.726215,41.636584],[2.726555,41.636243],[2.727315,41.635414],[2.727369,41.635354],[2.727394,41.635327],[2.727168,41.635224],[2.72666,41.635012],[2.726276,41.634856],[2.72547,41.63442],[2.725163,41.63426],[2.724067,41.633686],[2.724063,41.633683],[2.72324,41.634501],[2.723027,41.634379],[2.719458,41.631835],[2.718388,41.631214],[2.716548,41.630524],[2.717204,41.629221],[2.716544,41.629096],[2.716251,41.62904],[2.715989,41.629006],[2.715908,41.62918],[2.715271,41.62896],[2.714942,41.629536],[2.714608,41.630119],[2.714578,41.630173],[2.714231,41.630779],[2.714118,41.630977],[2.714532,41.631088],[2.715398,41.63132],[2.716197,41.631617],[2.716419,41.6317],[2.716997,41.631915],[2.717586,41.632209],[2.717574,41.632228],[2.717755,41.632425],[2.717786,41.632458],[2.718084,41.632652],[2.718434,41.632879],[2.720003,41.633981],[2.720234,41.634105],[2.720201,41.634159],[2.720004,41.634476],[2.722237,41.636],[2.722287,41.636034],[2.722608,41.636253],[2.72276,41.636356],[2.723814,41.636805],[2.724164,41.636953],[2.725255,41.637417],[2.725435,41.637486],[2.725476,41.637439],[2.725552,41.637351],[2.725739,41.637163],[2.725692,41.637141]]]]}},{"type":"Feature","id":"082613_082613 AP07 MAR 2","properties":{"area_id":"082613_082613 AP07 MAR 2","nom":"la Ciutat Jardí","codi_icgc":"082613 AP07 MAR 2","categoria":"Àrees de poblament","codi_municipi":"082613","municipi":"Santa Susanna","codi_comarca":"21","comarca":"Maresme","provincia":"Barcelona","font":"ICGC Àrees de poblament v3r1 202602"},"geometry":{"type":"MultiPolygon","coordinates":[[[[2.713981,41.651731],[2.713979,41.651569],[2.713979,41.651565],[2.713978,41.651459],[2.713915,41.651487],[2.713741,41.65156],[2.71351,41.651656],[2.713308,41.651641],[2.713167,41.6516],[2.712962,41.651567],[2.712786,41.651569],[2.712683,41.651462],[2.712637,41.651415],[2.712524,41.651294],[2.71232,41.651078],[2.712299,41.651056],[2.712261,41.651027],[2.712218,41.651002],[2.712169,41.650977],[2.712137,41.650961],[2.712128,41.650977],[2.712059,41.65091],[2.711776,41.651037],[2.711561,41.651133],[2.711471,41.651174],[2.711679,41.651336],[2.711638,41.651364],[2.711591,41.651387],[2.71154,41.651405],[2.711487,41.651417],[2.711476,41.651419],[2.711393,41.65143],[2.711337,41.651439],[2.711323,41.651443],[2.711303,41.651449],[2.711292,41.651456],[2.711278,41.651465],[2.711268,41.65148],[2.711265,41.651492],[2.711265,41.651515],[2.711272,41.65153],[2.711279,41.65154],[2.711291,41.651551],[2.711219,41.651656],[2.711321,41.651712],[2.711416,41.651765],[2.711399,41.651882],[2.711408,41.651885],[2.711418,41.651888],[2.711464,41.651904],[2.711512,41.651922],[2.711607,41.651957],[2.711649,41.651974],[2.71172,41.652003],[2.711724,41.652005],[2.711772,41.652013],[2.711941,41.652043],[2.711985,41.65205],[2.711983,41.652062],[2.711982,41.652074],[2.71198,41.652084],[2.711983,41.652119],[2.711994,41.652152],[2.712086,41.652177],[2.712286,41.652228],[2.712657,41.652345],[2.712902,41.652422],[2.71313,41.652494],[2.713229,41.652521],[2.713295,41.652545],[2.713368,41.652547],[2.713441,41.652533],[2.713502,41.652512],[2.713629,41.652441],[2.713959,41.652266],[2.713844,41.652135],[2.713838,41.652128],[2.713775,41.652057],[2.713751,41.65203],[2.713738,41.652016],[2.713725,41.652002],[2.713715,41.651993],[2.713706,41.651983],[2.713654,41.651944],[2.713775,41.651846],[2.713777,41.651843],[2.713878,41.651784],[2.713981,41.651731]]],[[[2.709317,41.654477],[2.709313,41.654431],[2.709277,41.654435],[2.709275,41.654433],[2.709189,41.65444],[2.709074,41.654453],[2.708937,41.654453],[2.708849,41.654457],[2.708775,41.654462],[2.708725,41.654451],[2.708696,41.654432],[2.708646,41.654391],[2.708556,41.654277],[2.708476,41.654179],[2.708348,41.654022],[2.708284,41.653945],[2.70822,41.65394],[2.708127,41.654011],[2.708084,41.654047],[2.707919,41.654207],[2.707808,41.654328],[2.707679,41.654474],[2.70763,41.654538],[2.707616,41.65456],[2.707617,41.654603],[2.70762,41.654694],[2.707572,41.654756],[2.707555,41.654782],[2.707468,41.654962],[2.707379,41.655197],[2.707334,41.655315],[2.707374,41.655374],[2.707292,41.655561],[2.70729,41.655566],[2.707152,41.655838],[2.707018,41.656301],[2.707011,41.656313],[2.707006,41.656325],[2.707,41.656343],[2.707116,41.656396],[2.707371,41.656349],[2.707495,41.656314],[2.707648,41.65624],[2.707778,41.656155],[2.70796,41.656],[2.708046,41.655931],[2.70816,41.655872],[2.708307,41.655819],[2.708491,41.65577],[2.70876,41.655711],[2.708916,41.655667],[2.709,41.655617],[2.709033,41.655583],[2.709054,41.655537],[2.709077,41.655475],[2.7091,41.655395],[2.709137,41.655315],[2.709174,41.655254],[2.709241,41.655156],[2.709287,41.655093],[2.709323,41.655033],[2.709349,41.654862],[2.709317,41.654477]]]]}},{"type":"Feature","id":"082613_082613 AP05 MAR 3","properties":{"area_id":"082613_082613 AP05 MAR 3","nom":"la Riera","codi_icgc":"082613 AP05 MAR 3","categoria":"Àrees de poblament","codi_municipi":"082613","municipi":"Santa Susanna","codi_comarca":"21","comarca":"Maresme","provincia":"Barcelona","font":"ICGC Àrees de poblament v3r1 202602"},"geometry":{"type":"MultiPolygon","coordinates":[[[[2.703779,41.643333],[2.703528,41.643037],[2.703451,41.643078],[2.703443,41.64307],[2.703325,41.643118],[2.703203,41.64297],[2.7032,41.642923],[2.703167,41.642892],[2.703096,41.642814],[2.702956,41.642671],[2.702778,41.642838],[2.702768,41.642896],[2.70267,41.642952],[2.702567,41.643013],[2.702361,41.643135],[2.70213,41.643226],[2.701903,41.643329],[2.701581,41.643501],[2.701571,41.643504],[2.701629,41.643569],[2.701728,41.643677],[2.701762,41.643717],[2.702045,41.643972],[2.702189,41.644102],[2.702244,41.644152],[2.702245,41.644153],[2.702246,41.644153],[2.702286,41.644171],[2.702425,41.644189],[2.702444,41.644193],[2.702478,41.644201],[2.702489,41.644203],[2.702701,41.644327],[2.702807,41.644383],[2.702896,41.644436],[2.702899,41.644438],[2.703183,41.644658],[2.703196,41.644668],[2.703313,41.644763],[2.703374,41.644809],[2.703372,41.644811],[2.70343,41.644852],[2.703455,41.644871],[2.703512,41.644914],[2.703714,41.644789],[2.703788,41.644743],[2.704059,41.644575],[2.704129,41.644522],[2.70439,41.644328],[2.704421,41.644305],[2.70448,41.644261],[2.704494,41.644251],[2.704373,41.644126],[2.70428,41.644008],[2.703982,41.643629],[2.703857,41.643499],[2.703779,41.643333]]]]}},{"type":"Feature","id":"082613_082613 AP02 MAR 3","properties":{"area_id":"082613_082613 AP02 MAR 3","nom":"la Vall","codi_icgc":"082613 AP02 MAR 3","categoria":"Àrees de poblament","codi_municipi":"082613","municipi":"Santa Susanna","codi_comarca":"21","comarca":"Maresme","provincia":"Barcelona","font":"ICGC Àrees de poblament v3r1 202602"},"geometry":{"type":"MultiPolygon","coordinates":[[[[2.708863,41.638953],[2.708859,41.638997],[2.708815,41.639158],[2.708764,41.63921],[2.70828,41.639086],[2.707647,41.638862],[2.707583,41.638924],[2.70751,41.638996],[2.707429,41.639082],[2.707351,41.63917],[2.707322,41.639203],[2.707289,41.639236],[2.707271,41.639245],[2.707253,41.639249],[2.707237,41.639247],[2.707234,41.639245],[2.707221,41.639239],[2.707209,41.639228],[2.707207,41.639227],[2.706541,41.639814],[2.706525,41.639845],[2.706522,41.639846],[2.706467,41.639895],[2.706459,41.639912],[2.706458,41.639937],[2.706466,41.639954],[2.706451,41.639981],[2.706454,41.639984],[2.706421,41.640005],[2.706491,41.640064],[2.705955,41.640368],[2.706254,41.64062],[2.70591,41.640651],[2.705857,41.640656],[2.705846,41.640663],[2.70629,41.641013],[2.706105,41.641192],[2.705807,41.641424],[2.705708,41.641531],[2.705635,41.641477],[2.705153,41.641155],[2.705146,41.64116],[2.705054,41.641272],[2.704722,41.641487],[2.704661,41.641527],[2.704517,41.641637],[2.704534,41.641653],[2.704596,41.641702],[2.704542,41.64174],[2.704522,41.641726],[2.70408,41.642039],[2.704074,41.642044],[2.703844,41.642207],[2.703863,41.642222],[2.703862,41.642222],[2.703817,41.64226],[2.703797,41.642277],[2.703805,41.642284],[2.704294,41.642708],[2.704294,41.642708],[2.70424,41.642767],[2.704228,41.64279],[2.704215,41.642821],[2.704212,41.64285],[2.704214,41.642864],[2.704215,41.642866],[2.704231,41.6429],[2.704242,41.642919],[2.704257,41.642945],[2.704282,41.64299],[2.704285,41.642993],[2.704309,41.643025],[2.704344,41.643057],[2.704418,41.643117],[2.704561,41.643227],[2.704678,41.643335],[2.704714,41.643379],[2.704749,41.643424],[2.70477,41.643479],[2.704788,41.64358],[2.704806,41.643726],[2.70482,41.643774],[2.704835,41.643823],[2.70485,41.643856],[2.704883,41.6439],[2.704922,41.643941],[2.704952,41.643967],[2.704974,41.643981],[2.705,41.64399],[2.705073,41.644007],[2.705176,41.64403],[2.705245,41.644045],[2.705327,41.644062],[2.705402,41.644081],[2.705465,41.644097],[2.705696,41.644177],[2.705698,41.644178],[2.705718,41.644191],[2.705753,41.644214],[2.705833,41.644274],[2.705954,41.644356],[2.706062,41.64443],[2.706075,41.644439],[2.706123,41.644473],[2.706168,41.64451],[2.706195,41.644536],[2.706239,41.644589],[2.706256,41.644612],[2.70628,41.644642],[2.706343,41.644725],[2.706407,41.644808],[2.706433,41.644835],[2.706461,41.644857],[2.70663,41.64502],[2.706633,41.645026],[2.706648,41.645052],[2.706665,41.645092],[2.706671,41.645124],[2.706675,41.645157],[2.706681,41.645222],[2.706689,41.645265],[2.706709,41.645333],[2.70671,41.645336],[2.706774,41.645546],[2.706791,41.645676],[2.706795,41.645713],[2.70679,41.64574],[2.706833,41.645866],[2.706839,41.645869],[2.70686,41.64588],[2.706889,41.645907],[2.706914,41.645932],[2.70694,41.645958],[2.706941,41.645959],[2.706976,41.64599],[2.707035,41.646034],[2.707097,41.646076],[2.707163,41.646118],[2.707215,41.646099],[2.707405,41.646031],[2.707478,41.646004],[2.707478,41.646005],[2.707482,41.646022],[2.707508,41.646122],[2.707668,41.646219],[2.707673,41.646222],[2.707805,41.646337],[2.707813,41.646344],[2.707973,41.646492],[2.708067,41.646458],[2.708254,41.64639],[2.70828,41.646415],[2.708419,41.646545],[2.708442,41.646535],[2.708605,41.646457],[2.708627,41.646478],[2.708655,41.646505],[2.708823,41.646669],[2.708906,41.646759],[2.708976,41.646834],[2.70899,41.646849],[2.709057,41.646918],[2.709068,41.646929],[2.709076,41.646933],[2.709073,41.646934],[2.708959,41.646995],[2.708912,41.647261],[2.709115,41.647764],[2.709159,41.647891],[2.709179,41.647947],[2.709478,41.648002],[2.709504,41.647979],[2.709577,41.647914],[2.709586,41.64792],[2.709597,41.647869],[2.709564,41.647847],[2.709541,41.647832],[2.709521,41.647818],[2.709512,41.647808],[2.709507,41.647794],[2.709472,41.64767],[2.709436,41.647545],[2.709407,41.647443],[2.709376,41.64734],[2.709338,41.64726],[2.709296,41.647183],[2.709257,41.647102],[2.709329,41.647172],[2.709414,41.647256],[2.709517,41.647358],[2.709621,41.647459],[2.709674,41.647513],[2.709731,41.647569],[2.709762,41.647595],[2.709812,41.647626],[2.709861,41.647652],[2.709952,41.6477],[2.710004,41.647724],[2.710061,41.647744],[2.710183,41.647774],[2.7103,41.647802],[2.71044,41.647838],[2.710578,41.647875],[2.710604,41.647882],[2.71068,41.647999],[2.710728,41.648071],[2.710699,41.648214],[2.710741,41.648367],[2.710686,41.648376],[2.710518,41.648402],[2.710535,41.64853],[2.710482,41.648556],[2.71044,41.648581],[2.710244,41.648552],[2.710076,41.648503],[2.709712,41.648356],[2.709504,41.648406],[2.709333,41.648515],[2.709332,41.648522],[2.709392,41.648546],[2.709441,41.648576],[2.709521,41.648604],[2.709705,41.648672],[2.710104,41.64882],[2.710133,41.64883],[2.710137,41.648832],[2.710248,41.648875],[2.710269,41.648883],[2.71029,41.648891],[2.71033,41.648906],[2.71047,41.648939],[2.710714,41.648989],[2.710717,41.64899],[2.710773,41.648948],[2.710825,41.648909],[2.710877,41.648871],[2.710879,41.64887],[2.710883,41.648867],[2.710886,41.648865],[2.710949,41.648845],[2.711012,41.648826],[2.71106,41.64881],[2.711108,41.648795],[2.711122,41.648791],[2.711258,41.648751],[2.711266,41.648749],[2.711249,41.648716],[2.711246,41.648709],[2.711219,41.648633],[2.71119,41.648557],[2.711132,41.648409],[2.711074,41.64826],[2.711026,41.648146],[2.710971,41.648033],[2.710953,41.648009],[2.71093,41.647987],[2.710875,41.647948],[2.710822,41.647915],[2.710767,41.647885],[2.710728,41.647867],[2.710666,41.647845],[2.710603,41.647825],[2.710463,41.647788],[2.710316,41.64775],[2.71028,41.647739],[2.710269,41.647727],[2.710266,41.647714],[2.710266,41.647712],[2.710259,41.647667],[2.710226,41.647502],[2.710224,41.647477],[2.710232,41.647462],[2.710444,41.647466],[2.710684,41.647471],[2.710723,41.64747],[2.710826,41.647461],[2.710921,41.647453],[2.711016,41.647444],[2.711089,41.647437],[2.71116,41.647427],[2.711214,41.647416],[2.711292,41.647393],[2.711369,41.647367],[2.711479,41.647327],[2.711587,41.647284],[2.711676,41.647244],[2.711705,41.64723],[2.711708,41.647229],[2.711709,41.647228],[2.711715,41.647226],[2.71172,41.647226],[2.71177,41.647202],[2.711825,41.647177],[2.71189,41.647145],[2.711898,41.64714],[2.71192,41.647126],[2.711946,41.647105],[2.711962,41.647084],[2.711982,41.647059],[2.712014,41.647012],[2.712076,41.646915],[2.712136,41.646817],[2.712182,41.646738],[2.712227,41.646659],[2.712251,41.646619],[2.712276,41.646579],[2.712297,41.646557],[2.712324,41.646539],[2.712438,41.646472],[2.712553,41.646406],[2.712617,41.646367],[2.71268,41.646326],[2.712722,41.646296],[2.712782,41.646249],[2.712839,41.6462],[2.712915,41.646127],[2.712985,41.64605],[2.713013,41.646018],[2.713024,41.646],[2.713031,41.645982],[2.713042,41.645928],[2.713044,41.645859],[2.713044,41.645858],[2.713046,41.645807],[2.713047,41.645736],[2.713044,41.645659],[2.713038,41.645608],[2.71302,41.64548],[2.713008,41.645412],[2.713008,41.645353],[2.713023,41.645271],[2.713044,41.645199],[2.713045,41.64512],[2.713021,41.645104],[2.713001,41.645083],[2.712999,41.644972],[2.713,41.644965],[2.713009,41.644929],[2.712959,41.644922],[2.712442,41.644733],[2.712383,41.644712],[2.712291,41.644672],[2.712215,41.644856],[2.712069,41.645214],[2.712102,41.64528],[2.712127,41.645332],[2.712154,41.645387],[2.712201,41.645464],[2.712247,41.645539],[2.712279,41.645595],[2.712313,41.645689],[2.712319,41.645715],[2.712325,41.645742],[2.712326,41.645776],[2.712318,41.64581],[2.7123,41.645846],[2.71229,41.645859],[2.712272,41.645879],[2.712229,41.645917],[2.712181,41.645949],[2.712137,41.645972],[2.712091,41.645992],[2.712059,41.646002],[2.711946,41.646034],[2.71161,41.646152],[2.711607,41.646151],[2.711564,41.646176],[2.711388,41.646055],[2.711385,41.646053],[2.711341,41.645982],[2.711274,41.64591],[2.711211,41.645861],[2.711208,41.645859],[2.711172,41.645833],[2.711149,41.645823],[2.711136,41.645823],[2.71106,41.645775],[2.711045,41.645786],[2.710966,41.645833],[2.710926,41.645853],[2.710918,41.645859],[2.710917,41.645859],[2.710876,41.645889],[2.710833,41.64593],[2.710797,41.645976],[2.710769,41.646024],[2.710752,41.646067],[2.710743,41.646111],[2.71074,41.646169],[2.710742,41.646224],[2.710752,41.646382],[2.710754,41.646403],[2.71073,41.646456],[2.710639,41.646473],[2.710577,41.646454],[2.71043,41.646388],[2.710348,41.646347],[2.710372,41.646325],[2.710339,41.646304],[2.710267,41.646258],[2.710228,41.64622],[2.710191,41.646178],[2.710161,41.646125],[2.710122,41.646042],[2.710101,41.645994],[2.710075,41.645915],[2.710062,41.645859],[2.710062,41.645859],[2.71006,41.64585],[2.710046,41.645784],[2.71003,41.645705],[2.710014,41.645693],[2.709802,41.645533],[2.709481,41.645309],[2.709334,41.645198],[2.709243,41.645089],[2.709238,41.645082],[2.709202,41.64501],[2.709188,41.644973],[2.709177,41.644936],[2.709169,41.644903],[2.709167,41.644895],[2.709158,41.644853],[2.709151,41.64482],[2.709145,41.644786],[2.709106,41.644747],[2.709068,41.644722],[2.709033,41.644621],[2.709039,41.644622],[2.709045,41.644621],[2.709053,41.644615],[2.70906,41.644607],[2.70907,41.64459],[2.709071,41.644581],[2.709068,41.644573],[2.709022,41.644499],[2.708973,41.644425],[2.70896,41.644406],[2.708897,41.644315],[2.708826,41.644212],[2.708821,41.644204],[2.708752,41.644111],[2.708709,41.644069],[2.708651,41.643996],[2.708627,41.64397],[2.708577,41.643914],[2.708558,41.643896],[2.708498,41.643854],[2.708339,41.643747],[2.708178,41.64364],[2.708134,41.64361],[2.708061,41.64356],[2.707945,41.64348],[2.707886,41.643434],[2.70786,41.643407],[2.707838,41.643377],[2.707821,41.643343],[2.707814,41.643327],[2.707783,41.643252],[2.707751,41.643179],[2.707705,41.643083],[2.707679,41.643037],[2.707639,41.642986],[2.707595,41.642935],[2.707591,41.642931],[2.707522,41.642844],[2.707396,41.642715],[2.707371,41.642678],[2.707474,41.642641],[2.707541,41.64266],[2.707721,41.642596],[2.70787,41.642543],[2.707853,41.642481],[2.707851,41.642475],[2.707842,41.642444],[2.707814,41.64235],[2.70779,41.642235],[2.707779,41.642157],[2.707759,41.642022],[2.707749,41.641995],[2.707737,41.641831],[2.70772,41.641677],[2.707713,41.6416],[2.7077,41.641452],[2.707678,41.641318],[2.707676,41.641318],[2.707662,41.641322],[2.7076,41.641337],[2.707591,41.641291],[2.70766,41.641274],[2.707596,41.641147],[2.70757,41.641117],[2.707601,41.640995],[2.707602,41.640989],[2.707603,41.640986],[2.707634,41.641034],[2.707682,41.641069],[2.707782,41.641149],[2.707788,41.641154],[2.707817,41.641184],[2.707858,41.641231],[2.707863,41.641239],[2.707915,41.641495],[2.707919,41.641522],[2.70794,41.641674],[2.707963,41.64183],[2.707966,41.641847],[2.707995,41.642081],[2.708014,41.642219],[2.708019,41.642334],[2.708026,41.642352],[2.708037,41.642384],[2.708074,41.642453],[2.7081,41.642498],[2.708114,41.642522],[2.708172,41.642627],[2.70821,41.642696],[2.708249,41.642765],[2.708314,41.642934],[2.70832,41.642959],[2.708326,41.642982],[2.708718,41.642864],[2.708859,41.643336],[2.708981,41.64371],[2.708994,41.643747],[2.71003,41.643656],[2.710016,41.64358],[2.709989,41.643545],[2.709952,41.643506],[2.709931,41.643489],[2.709894,41.643464],[2.709853,41.643435],[2.709825,41.643418],[2.709828,41.643392],[2.7099,41.643263],[2.709954,41.643151],[2.710018,41.642945],[2.710052,41.642834],[2.710073,41.642778],[2.710082,41.642752],[2.710114,41.642665],[2.710216,41.642384],[2.710114,41.641876],[2.710021,41.641837],[2.709856,41.641767],[2.709574,41.641675],[2.709476,41.641643],[2.709501,41.641609],[2.709495,41.641605],[2.709278,41.641453],[2.708792,41.641227],[2.708726,41.641027],[2.708565,41.640726],[2.708859,41.640257],[2.708869,41.640257],[2.709071,41.64027],[2.70908,41.640306],[2.709095,41.640341],[2.709096,41.640342],[2.709118,41.640373],[2.709132,41.640389],[2.709199,41.640443],[2.709327,41.640506],[2.70941,41.640551],[2.709438,41.640567],[2.709672,41.640699],[2.709708,41.640713],[2.709737,41.640719],[2.709778,41.640718],[2.709811,41.640705],[2.709837,41.640686],[2.709846,41.640658],[2.709855,41.640594],[2.709849,41.64049],[2.709838,41.640369],[2.709824,41.640208],[2.709824,41.640167],[2.70983,41.64008],[2.709835,41.640013],[2.709861,41.639843],[2.709904,41.639698],[2.709919,41.639652],[2.709938,41.639571],[2.70995,41.63954],[2.709952,41.639521],[2.709942,41.639519],[2.709752,41.639497],[2.709716,41.639496],[2.709708,41.639501],[2.709702,41.63951],[2.709677,41.639681],[2.709659,41.639783],[2.709647,41.639838],[2.70947,41.639825],[2.709468,41.639825],[2.709285,41.63981],[2.709119,41.639796],[2.709091,41.639764],[2.709068,41.639729],[2.709052,41.639692],[2.709049,41.639682],[2.709051,41.639647],[2.709068,41.63958],[2.709068,41.639579],[2.709424,41.639645],[2.709516,41.639419],[2.709153,41.639315],[2.709156,41.639309],[2.709196,41.639222],[2.709256,41.639114],[2.709244,41.638992],[2.709093,41.638977],[2.708863,41.638953]],[[2.712363,41.64587],[2.712364,41.645868],[2.712365,41.645871],[2.712362,41.645871],[2.712363,41.64587]]]]}}]}