{"type":"FeatureCollection","name":"ICGC Àrees de poblament - Sant Vicenç de Castellet","features":[{"type":"Feature","id":"082628_082628 AP05 BAG 3","properties":{"area_id":"082628_082628 AP05 BAG 3","nom":"Can Xesc","codi_icgc":"082628 AP05 BAG 3","categoria":"Àrees de poblament","codi_municipi":"082628","municipi":"Sant Vicenç de Castellet","codi_comarca":"07","comarca":"Bages","provincia":"Barcelona","font":"ICGC Àrees de poblament v3r1 202602"},"geometry":{"type":"MultiPolygon","coordinates":[[[[1.834306,41.662162],[1.834353,41.662166],[1.834601,41.662162],[1.834663,41.662142],[1.834752,41.662106],[1.834858,41.662065],[1.834963,41.662024],[1.835065,41.661982],[1.835166,41.661939],[1.835264,41.661896],[1.835363,41.661854],[1.835424,41.661825],[1.835509,41.661775],[1.835592,41.661723],[1.835693,41.661659],[1.835793,41.661593],[1.835886,41.661523],[1.83598,41.661454],[1.836054,41.661399],[1.83613,41.661345],[1.8362,41.661299],[1.836273,41.661255],[1.83633,41.661225],[1.836361,41.661212],[1.836394,41.6612],[1.836405,41.661198],[1.836412,41.661196],[1.836421,41.661187],[1.836442,41.661168],[1.83642,41.66117],[1.836414,41.66117],[1.836413,41.661153],[1.836403,41.661128],[1.836389,41.661109],[1.836357,41.661075],[1.836351,41.661071],[1.836328,41.661052],[1.836305,41.661039],[1.836229,41.660992],[1.836182,41.660965],[1.836133,41.660939],[1.836109,41.66093],[1.836071,41.66092],[1.836033,41.660911],[1.835989,41.660904],[1.835967,41.660903],[1.835947,41.660907],[1.835918,41.660898],[1.835875,41.660875],[1.835853,41.660867],[1.83583,41.660862],[1.835785,41.660853],[1.835693,41.660829],[1.835601,41.660804],[1.835578,41.660795],[1.835557,41.660785],[1.83555,41.660781],[1.835516,41.660759],[1.835496,41.660744],[1.835469,41.660745],[1.83545,41.660748],[1.835372,41.660736],[1.835274,41.6608],[1.835126,41.660924],[1.834978,41.661039],[1.834788,41.661106],[1.834565,41.661182],[1.83432,41.661265],[1.834355,41.661301],[1.834322,41.661321],[1.834289,41.66134],[1.834251,41.661361],[1.834214,41.661383],[1.834174,41.661414],[1.834105,41.661464],[1.834097,41.66147],[1.83402,41.661525],[1.834004,41.661537],[1.833991,41.66155],[1.833988,41.661558],[1.83399,41.661564],[1.833996,41.661569],[1.834012,41.66158],[1.834017,41.661585],[1.834021,41.661589],[1.834043,41.661625],[1.834065,41.661661],[1.834095,41.661676],[1.834085,41.6617],[1.834076,41.661724],[1.834068,41.661748],[1.834063,41.661773],[1.834059,41.661822],[1.834059,41.661844],[1.834063,41.661866],[1.834071,41.661879],[1.834092,41.661904],[1.834112,41.661929],[1.834177,41.661978],[1.83416,41.662013],[1.834151,41.662021],[1.834098,41.662125],[1.834151,41.662139],[1.834229,41.662153],[1.834306,41.662162]]]]}},{"type":"Feature","id":"082628_082628 SI02 BAG 2","properties":{"area_id":"082628_082628 SI02 BAG 2","nom":"Polígon industrial Can Balet","codi_icgc":"082628 SI02 BAG 2","categoria":"Sector industrial","codi_municipi":"082628","municipi":"Sant Vicenç de Castellet","codi_comarca":"07","comarca":"Bages","provincia":"Barcelona","font":"ICGC Àrees de poblament v3r1 202602"},"geometry":{"type":"MultiPolygon","coordinates":[[[[1.864758,41.659642],[1.864762,41.65965],[1.864768,41.659678],[1.864768,41.659705],[1.864764,41.659777],[1.864764,41.65985],[1.864768,41.659919],[1.864776,41.660003],[1.86443,41.660048],[1.86431,41.660295],[1.864253,41.660337],[1.864264,41.660362],[1.864477,41.660455],[1.864376,41.660581],[1.864338,41.660564],[1.864287,41.660625],[1.864331,41.660646],[1.864111,41.66091],[1.864075,41.660893],[1.864035,41.660941],[1.864073,41.660959],[1.864046,41.660991],[1.864212,41.661069],[1.864138,41.661158],[1.864561,41.661356],[1.864936,41.66153],[1.864998,41.661557],[1.864998,41.66156],[1.865,41.661573],[1.865307,41.661716],[1.865399,41.661758],[1.865502,41.661807],[1.865547,41.661833],[1.865567,41.661844],[1.865574,41.661848],[1.865552,41.661725],[1.865541,41.661662],[1.86554,41.661633],[1.865453,41.661169],[1.865438,41.661103],[1.865464,41.660976],[1.865499,41.660711],[1.865523,41.660659],[1.86552,41.660627],[1.865518,41.660598],[1.865518,41.660565],[1.865521,41.66053],[1.865522,41.660528],[1.865524,41.660497],[1.865523,41.660463],[1.86552,41.660432],[1.865509,41.660387],[1.865494,41.660342],[1.865484,41.660318],[1.865472,41.660293],[1.865447,41.660259],[1.865435,41.660243],[1.865428,41.660228],[1.865413,41.660159],[1.865398,41.660089],[1.865384,41.660027],[1.865366,41.659966],[1.865338,41.659897],[1.865301,41.659831],[1.865265,41.659778],[1.865263,41.659777],[1.864953,41.659771],[1.86493,41.65972],[1.864871,41.659678],[1.864806,41.659629],[1.864758,41.659642]]]]}},{"type":"Feature","id":"082628_082628 SI08 BAG 2","properties":{"area_id":"082628_082628 SI08 BAG 2","nom":"Polígon industrial Can Soler","codi_icgc":"082628 SI08 BAG 2","categoria":"Sector industrial","codi_municipi":"082628","municipi":"Sant Vicenç de Castellet","codi_comarca":"07","comarca":"Bages","provincia":"Barcelona","font":"ICGC Àrees de poblament v3r1 202602"},"geometry":{"type":"MultiPolygon","coordinates":[[[[1.857961,41.665476],[1.857928,41.665533],[1.857884,41.665636],[1.857824,41.665792],[1.857763,41.665947],[1.857712,41.66607],[1.857631,41.666253],[1.857549,41.666436],[1.857523,41.666482],[1.857477,41.666548],[1.857433,41.666616],[1.857429,41.666626],[1.857438,41.666632],[1.857443,41.666638],[1.857691,41.666889],[1.858098,41.666435],[1.858683,41.665781],[1.858751,41.665682],[1.858784,41.665634],[1.858912,41.665689],[1.858927,41.665668],[1.858975,41.665684],[1.859052,41.665711],[1.859134,41.665723],[1.859199,41.665719],[1.8593,41.665714],[1.859388,41.665691],[1.859472,41.665668],[1.859567,41.665642],[1.859574,41.66564],[1.859689,41.66561],[1.859775,41.665583],[1.860144,41.665515],[1.860232,41.665499],[1.860392,41.665532],[1.860548,41.665585],[1.86075,41.665336],[1.860813,41.665213],[1.860894,41.665081],[1.860896,41.665077],[1.860802,41.665077],[1.860744,41.665058],[1.860815,41.664894],[1.860907,41.664689],[1.860935,41.664545],[1.86078,41.66433],[1.860747,41.664284],[1.860746,41.664283],[1.860311,41.663766],[1.860235,41.663698],[1.860232,41.663695],[1.859959,41.663893],[1.859923,41.663932],[1.859774,41.6641],[1.859767,41.664108],[1.859646,41.6642],[1.859512,41.664265],[1.859512,41.664266],[1.859466,41.664321],[1.859204,41.664563],[1.858942,41.664806],[1.858889,41.664814],[1.858696,41.664774],[1.858691,41.664773],[1.858464,41.665023],[1.858251,41.665295],[1.858239,41.665295],[1.858209,41.665293],[1.85812,41.665298],[1.858111,41.665299],[1.858011,41.665409],[1.857961,41.665476]]]]}},{"type":"Feature","id":"082628_082628 SI10 BAG 2","properties":{"area_id":"082628_082628 SI10 BAG 2","nom":"Polígon industrial Clot del Tufau","codi_icgc":"082628 SI10 BAG 2","categoria":"Sector industrial","codi_municipi":"082628","municipi":"Sant Vicenç de Castellet","codi_comarca":"07","comarca":"Bages","provincia":"Barcelona","font":"ICGC Àrees de poblament v3r1 202602"},"geometry":{"type":"MultiPolygon","coordinates":[[[[1.849462,41.667458],[1.850107,41.667725],[1.850112,41.667735],[1.85014,41.667793],[1.850178,41.667826],[1.850223,41.667853],[1.850272,41.667875],[1.850326,41.66789],[1.850379,41.667899],[1.850434,41.667901],[1.851115,41.667827],[1.851192,41.667825],[1.851211,41.667825],[1.851228,41.667821],[1.851476,41.667761],[1.851541,41.667723],[1.851711,41.66761],[1.851726,41.667573],[1.851735,41.667552],[1.851783,41.667441],[1.851793,41.667416],[1.851827,41.667321],[1.852203,41.66693],[1.852296,41.666853],[1.852263,41.666788],[1.852232,41.666725],[1.852228,41.666693],[1.852204,41.666522],[1.85213,41.666416],[1.852081,41.666353],[1.852028,41.666289],[1.851974,41.666225],[1.851917,41.666159],[1.851881,41.666125],[1.851842,41.666093],[1.851765,41.666033],[1.851671,41.66596],[1.851575,41.665889],[1.851507,41.665844],[1.85125,41.66568],[1.850994,41.665518],[1.850897,41.665456],[1.850855,41.665429],[1.850586,41.665258],[1.850429,41.665182],[1.850285,41.665131],[1.849964,41.665019],[1.849509,41.664905],[1.849353,41.664924],[1.84921,41.665152],[1.848713,41.665818],[1.848632,41.665933],[1.848301,41.6664],[1.848301,41.6664],[1.848256,41.666463],[1.8481,41.666682],[1.848088,41.666699],[1.848076,41.666716],[1.848051,41.666751],[1.848017,41.666799],[1.847984,41.666849],[1.847976,41.666869],[1.847978,41.666899],[1.847992,41.666927],[1.849261,41.667436],[1.849396,41.66749],[1.84945,41.667469],[1.849462,41.667458]]]]}},{"type":"Feature","id":"082628_082628 SI01 BAG 2","properties":{"area_id":"082628_082628 SI01 BAG 2","nom":"Polígon industrial La Farinera","codi_icgc":"082628 SI01 BAG 2","categoria":"Sector industrial","codi_municipi":"082628","municipi":"Sant Vicenç de Castellet","codi_comarca":"07","comarca":"Bages","provincia":"Barcelona","font":"ICGC Àrees de poblament v3r1 202602"},"geometry":{"type":"MultiPolygon","coordinates":[[[[1.854628,41.667013],[1.85457,41.667146],[1.8544,41.667539],[1.854373,41.667601],[1.854372,41.667979],[1.854372,41.667979],[1.854372,41.668223],[1.854366,41.668223],[1.854243,41.668219],[1.854222,41.668219],[1.853742,41.668204],[1.853739,41.668204],[1.853727,41.668204],[1.85372,41.668359],[1.85393,41.668421],[1.853944,41.668492],[1.85391,41.669302],[1.854021,41.669366],[1.854131,41.669361],[1.854331,41.669352],[1.854479,41.669345],[1.85483,41.668448],[1.855142,41.66765],[1.85544,41.667023],[1.855695,41.666522],[1.855722,41.666515],[1.855755,41.666462],[1.855803,41.666383],[1.855848,41.666311],[1.855976,41.666088],[1.856203,41.665573],[1.856333,41.665314],[1.856483,41.665036],[1.856452,41.665024],[1.856408,41.665007],[1.856373,41.664995],[1.856336,41.664987],[1.856311,41.664984],[1.856279,41.664984],[1.856253,41.664992],[1.85623,41.665005],[1.856217,41.665017],[1.856204,41.665035],[1.856124,41.66511],[1.856053,41.665176],[1.856042,41.665188],[1.856016,41.665216],[1.855978,41.665257],[1.855936,41.665294],[1.855892,41.66533],[1.855798,41.665397],[1.855732,41.665439],[1.855681,41.665469],[1.85563,41.665497],[1.855622,41.665501],[1.855646,41.665512],[1.85567,41.665523],[1.855532,41.665638],[1.8554,41.665623],[1.855308,41.665676],[1.855216,41.665729],[1.855211,41.665732],[1.85513,41.665733],[1.855101,41.665734],[1.855079,41.665736],[1.854897,41.665751],[1.854674,41.665697],[1.854724,41.665634],[1.854701,41.665609],[1.854733,41.66557],[1.854722,41.665565],[1.854735,41.665549],[1.854715,41.665511],[1.854701,41.665482],[1.854646,41.665435],[1.854578,41.665478],[1.854534,41.665568],[1.854564,41.665576],[1.854254,41.665959],[1.854223,41.665997],[1.853804,41.665964],[1.853684,41.665923],[1.853439,41.665066],[1.853253,41.665094],[1.853248,41.665096],[1.853211,41.665109],[1.853393,41.665717],[1.85338,41.665722],[1.852554,41.665897],[1.852518,41.665804],[1.85231,41.665863],[1.852146,41.665603],[1.851934,41.665708],[1.85187,41.665734],[1.851854,41.66574],[1.851774,41.665772],[1.851769,41.665775],[1.851768,41.665779],[1.851775,41.665788],[1.851809,41.66581],[1.851828,41.665824],[1.851831,41.665827],[1.851832,41.665829],[1.851839,41.665835],[1.851862,41.665857],[1.851897,41.665891],[1.852184,41.666194],[1.852317,41.666334],[1.852339,41.666375],[1.852433,41.666382],[1.85242,41.666392],[1.852399,41.66641],[1.852377,41.666428],[1.852371,41.666435],[1.852367,41.66645],[1.852377,41.666499],[1.852386,41.666551],[1.852395,41.666604],[1.852404,41.666631],[1.852405,41.666633],[1.852435,41.666703],[1.852458,41.666756],[1.852464,41.66677],[1.852471,41.66678],[1.852475,41.666786],[1.852474,41.666786],[1.85249,41.666819],[1.852505,41.666852],[1.852524,41.66689],[1.852547,41.666928],[1.852567,41.666951],[1.852591,41.666973],[1.852597,41.666979],[1.852619,41.666998],[1.852649,41.66702],[1.852698,41.667048],[1.852751,41.667071],[1.852794,41.667088],[1.852839,41.667102],[1.852885,41.667111],[1.852932,41.667118],[1.853012,41.667128],[1.853093,41.667137],[1.853169,41.667146],[1.853245,41.667154],[1.853283,41.667158],[1.853321,41.667161],[1.853326,41.667161],[1.853347,41.66716],[1.853373,41.667155],[1.853476,41.667124],[1.853551,41.6671],[1.853659,41.66706],[1.853763,41.667015],[1.853775,41.66701],[1.853781,41.666956],[1.853784,41.666955],[1.853789,41.666875],[1.853791,41.666857],[1.853796,41.666781],[1.853797,41.666766],[1.853804,41.666764],[1.853883,41.666746],[1.853892,41.666744],[1.853889,41.666767],[1.853931,41.666759],[1.854141,41.66673],[1.854254,41.666716],[1.854391,41.666698],[1.854456,41.66669],[1.854453,41.666674],[1.854611,41.666668],[1.854619,41.666649],[1.854695,41.666639],[1.85476,41.666682],[1.85471,41.666821],[1.854628,41.667013]]]]}},{"type":"Feature","id":"082628_082628 SI05 BAG 2","properties":{"area_id":"082628_082628 SI05 BAG 2","nom":"Polígon industrial Les Vives","codi_icgc":"082628 SI05 BAG 2","categoria":"Sector industrial","codi_municipi":"082628","municipi":"Sant Vicenç de Castellet","codi_comarca":"07","comarca":"Bages","provincia":"Barcelona","font":"ICGC Àrees de poblament v3r1 202602"},"geometry":{"type":"MultiPolygon","coordinates":[[[[1.857894,41.657102],[1.857876,41.657015],[1.857872,41.657015],[1.857516,41.65704],[1.855261,41.656903],[1.855214,41.656886],[1.855214,41.656961],[1.855206,41.657005],[1.855192,41.657049],[1.855167,41.65711],[1.855139,41.65717],[1.855131,41.657185],[1.855062,41.657311],[1.855058,41.657318],[1.854978,41.657467],[1.854904,41.657616],[1.85483,41.657764],[1.854726,41.657965],[1.854692,41.658041],[1.854683,41.658077],[1.85468,41.658094],[1.854674,41.658126],[1.854672,41.658131],[1.854674,41.658148],[1.85468,41.658203],[1.854688,41.658238],[1.854714,41.658308],[1.855169,41.659442],[1.855176,41.65947],[1.855178,41.659483],[1.855177,41.659523],[1.855167,41.659562],[1.855146,41.659592],[1.85517,41.659706],[1.855192,41.659809],[1.85524,41.659812],[1.855488,41.659857],[1.855678,41.659995],[1.855771,41.660055],[1.855891,41.660074],[1.855986,41.66008],[1.856164,41.660045],[1.85619,41.660037],[1.856296,41.660001],[1.856414,41.65996],[1.85659,41.659917],[1.856923,41.659851],[1.856961,41.659839],[1.856991,41.659834],[1.858014,41.659689],[1.858222,41.659666],[1.85843,41.65949],[1.858457,41.659442],[1.858461,41.659435],[1.858462,41.659434],[1.858462,41.659433],[1.85837,41.659071],[1.858219,41.658418],[1.858048,41.657709],[1.85802,41.657601],[1.857932,41.657252],[1.857894,41.657102]]]]}},{"type":"Feature","id":"082628_082628 SI06 BAG 2","properties":{"area_id":"082628_082628 SI06 BAG 2","nom":"Polígon industrial Les Vives-Casacoberta","codi_icgc":"082628 SI06 BAG 2","categoria":"Sector industrial","codi_municipi":"082628","municipi":"Sant Vicenç de Castellet","codi_comarca":"07","comarca":"Bages","provincia":"Barcelona","font":"ICGC Àrees de poblament v3r1 202602"},"geometry":{"type":"MultiPolygon","coordinates":[[[[1.856962,41.663439],[1.856912,41.663348],[1.85624,41.663374],[1.855661,41.663346],[1.855536,41.663322],[1.855487,41.663267],[1.855477,41.662976],[1.855448,41.662884],[1.855374,41.662616],[1.855345,41.662372],[1.855356,41.662135],[1.855215,41.662224],[1.855117,41.662145],[1.854981,41.662035],[1.854893,41.662059],[1.854801,41.662056],[1.854794,41.662055],[1.854753,41.662046],[1.854725,41.662035],[1.854668,41.662011],[1.854639,41.661997],[1.854605,41.661977],[1.85458,41.661958],[1.854539,41.661922],[1.854526,41.661907],[1.854504,41.66188],[1.854475,41.661839],[1.854461,41.661812],[1.854392,41.661761],[1.854364,41.661743],[1.854269,41.661681],[1.854128,41.66158],[1.853892,41.661442],[1.853198,41.661034],[1.852863,41.660863],[1.852844,41.660803],[1.852826,41.660749],[1.852754,41.660726],[1.852458,41.660659],[1.852228,41.660617],[1.852156,41.660605],[1.852132,41.660601],[1.852174,41.660596],[1.852255,41.660586],[1.852398,41.660565],[1.852541,41.660542],[1.852654,41.66052],[1.852745,41.6605],[1.852737,41.660476],[1.852731,41.660457],[1.852689,41.660327],[1.852615,41.660093],[1.852529,41.659823],[1.852525,41.659729],[1.852523,41.659665],[1.852483,41.65966],[1.852375,41.659654],[1.852215,41.659646],[1.85209,41.659642],[1.851965,41.659642],[1.851931,41.659642],[1.851698,41.659675],[1.851585,41.659691],[1.851543,41.659697],[1.851359,41.659723],[1.851357,41.659718],[1.851026,41.659756],[1.850694,41.659798],[1.850585,41.659824],[1.850595,41.659866],[1.850619,41.659967],[1.850765,41.660586],[1.850781,41.66061],[1.850803,41.660631],[1.850831,41.660648],[1.850832,41.660648],[1.850845,41.660664],[1.850887,41.66079],[1.850873,41.660806],[1.850856,41.660835],[1.850847,41.660865],[1.850845,41.660897],[1.850851,41.660928],[1.850852,41.660932],[1.850864,41.66116],[1.8508,41.661446],[1.850786,41.661524],[1.850788,41.661586],[1.85079,41.661657],[1.850795,41.661707],[1.850804,41.661757],[1.85082,41.661805],[1.850832,41.661828],[1.850848,41.66185],[1.850894,41.661898],[1.850943,41.661944],[1.850969,41.661969],[1.850998,41.661993],[1.851023,41.662008],[1.851064,41.662025],[1.851108,41.662038],[1.851174,41.662052],[1.851241,41.662061],[1.851311,41.662065],[1.85138,41.662069],[1.851437,41.662074],[1.851494,41.662081],[1.851544,41.662089],[1.851595,41.662098],[1.851657,41.662109],[1.851721,41.66212],[1.85182,41.662129],[1.851918,41.662136],[1.852006,41.662143],[1.852092,41.662153],[1.852155,41.662165],[1.852217,41.662182],[1.852314,41.662215],[1.852361,41.662234],[1.852405,41.662255],[1.852488,41.662304],[1.85257,41.662354],[1.852648,41.662396],[1.852728,41.662435],[1.852818,41.662473],[1.852906,41.662511],[1.852928,41.662524],[1.852957,41.662549],[1.85299,41.662574],[1.853043,41.662602],[1.8531,41.662626],[1.853149,41.662648],[1.853224,41.662679],[1.853264,41.662692],[1.853306,41.6627],[1.853394,41.662711],[1.853452,41.662719],[1.853456,41.662721],[1.853475,41.662736],[1.853494,41.662751],[1.853467,41.662793],[1.85374,41.662921],[1.854383,41.663223],[1.854513,41.663289],[1.854373,41.663461],[1.854346,41.663669],[1.854285,41.663683],[1.854221,41.663691],[1.854157,41.663692],[1.854094,41.663687],[1.854032,41.663675],[1.853972,41.663657],[1.853917,41.663633],[1.85387,41.663607],[1.853829,41.663576],[1.853793,41.663542],[1.853762,41.663505],[1.853687,41.663455],[1.853615,41.663432],[1.85354,41.663414],[1.853463,41.663402],[1.853385,41.663394],[1.853307,41.663391],[1.853229,41.663394],[1.853152,41.663402],[1.853077,41.663415],[1.853062,41.663454],[1.853051,41.663505],[1.853032,41.663595],[1.853024,41.66366],[1.85301,41.66372],[1.85301,41.663741],[1.853016,41.663758],[1.853037,41.663786],[1.853081,41.663827],[1.853104,41.663848],[1.853123,41.663869],[1.853154,41.663907],[1.853169,41.663925],[1.853169,41.663932],[1.853175,41.663934],[1.85318,41.663942],[1.853174,41.663944],[1.85317,41.663986],[1.85317,41.664045],[1.853169,41.664074],[1.853165,41.664117],[1.853163,41.664138],[1.853163,41.66416],[1.853168,41.664179],[1.853177,41.664192],[1.853196,41.664212],[1.853217,41.664231],[1.853262,41.664265],[1.853286,41.664279],[1.853314,41.66429],[1.853375,41.664307],[1.853469,41.664327],[1.853563,41.664342],[1.853727,41.66436],[1.853891,41.664378],[1.853945,41.664387],[1.853998,41.6644],[1.854025,41.664412],[1.854026,41.664411],[1.854027,41.664412],[1.854036,41.66442],[1.85414,41.664507],[1.854179,41.664481],[1.854218,41.664454],[1.854242,41.664415],[1.854254,41.664395],[1.854266,41.664375],[1.8543,41.664308],[1.854331,41.664241],[1.85435,41.664189],[1.854363,41.664136],[1.85438,41.664028],[1.854396,41.663956],[1.854409,41.663916],[1.854425,41.663884],[1.854448,41.663855],[1.854466,41.663838],[1.854496,41.663818],[1.854525,41.663805],[1.854555,41.663795],[1.854615,41.663777],[1.854654,41.663763],[1.854751,41.663714],[1.854765,41.663706],[1.854829,41.663656],[1.854884,41.663601],[1.854915,41.663562],[1.854954,41.663507],[1.855038,41.663431],[1.855038,41.663431],[1.855043,41.663427],[1.85521,41.663225],[1.855311,41.663104],[1.85537,41.663042],[1.855383,41.663035],[1.855384,41.663035],[1.8554,41.663031],[1.85541,41.663029],[1.855419,41.663031],[1.855428,41.663044],[1.855432,41.663059],[1.855433,41.663087],[1.855429,41.663178],[1.855424,41.663268],[1.855428,41.663328],[1.855445,41.663421],[1.855464,41.663515],[1.855473,41.663577],[1.855492,41.663674],[1.855494,41.663756],[1.855489,41.663817],[1.855488,41.663825],[1.855478,41.663878],[1.855467,41.663934],[1.855457,41.663991],[1.855454,41.664034],[1.855457,41.664078],[1.855462,41.664107],[1.855471,41.664136],[1.8555,41.664187],[1.855537,41.664233],[1.855576,41.664272],[1.855621,41.664306],[1.855663,41.66433],[1.855707,41.664351],[1.855763,41.664373],[1.855823,41.664391],[1.85589,41.664405],[1.855954,41.66442],[1.856126,41.66448],[1.856221,41.664516],[1.856261,41.664541],[1.856295,41.664524],[1.856396,41.664472],[1.856817,41.664174],[1.857061,41.663921],[1.857146,41.663884],[1.857186,41.663846],[1.856962,41.663439]]]]}},{"type":"Feature","id":"082628_082628 SI07 BAG 2","properties":{"area_id":"082628_082628 SI07 BAG 2","nom":"Polígon industrial Les Vives-Castellet","codi_icgc":"082628 SI07 BAG 2","categoria":"Sector industrial","codi_municipi":"082628","municipi":"Sant Vicenç de Castellet","codi_comarca":"07","comarca":"Bages","provincia":"Barcelona","font":"ICGC Àrees de poblament v3r1 202602"},"geometry":{"type":"MultiPolygon","coordinates":[[[[1.850395,41.662044],[1.85041,41.662017],[1.850368,41.661909],[1.850539,41.661664],[1.850663,41.661485],[1.850703,41.661378],[1.85071,41.661311],[1.850731,41.661094],[1.850732,41.661079],[1.850731,41.661051],[1.850728,41.660973],[1.850706,41.660787],[1.850624,41.660471],[1.850498,41.6599],[1.850494,41.659829],[1.850473,41.65982],[1.850407,41.659794],[1.849813,41.659651],[1.849766,41.659735],[1.849773,41.65975],[1.849776,41.659766],[1.849772,41.659775],[1.849764,41.659786],[1.849756,41.659798],[1.849725,41.659794],[1.849427,41.659705],[1.849398,41.659861],[1.849366,41.659891],[1.84936,41.659895],[1.849347,41.659902],[1.849353,41.659935],[1.849374,41.660044],[1.849339,41.660143],[1.849251,41.66036],[1.849144,41.660413],[1.849116,41.660426],[1.849116,41.660428],[1.849093,41.660473],[1.848991,41.660762],[1.848807,41.66144],[1.848772,41.661569],[1.847871,41.661237],[1.84781,41.661219],[1.84781,41.661223],[1.847809,41.66123],[1.8478,41.661238],[1.847788,41.661244],[1.847771,41.66125],[1.847753,41.661257],[1.847734,41.661258],[1.847715,41.661257],[1.847703,41.66126],[1.847692,41.661267],[1.847684,41.661275],[1.847668,41.661292],[1.847652,41.66131],[1.847637,41.661325],[1.847621,41.661341],[1.847616,41.661352],[1.847615,41.661363],[1.847614,41.661381],[1.847614,41.661398],[1.847614,41.661416],[1.847611,41.661433],[1.847603,41.661449],[1.847592,41.661465],[1.847567,41.661494],[1.847542,41.66152],[1.847517,41.661547],[1.847488,41.661581],[1.847472,41.661599],[1.847384,41.661619],[1.847249,41.661649],[1.847206,41.661732],[1.847323,41.661823],[1.847499,41.661873],[1.847581,41.661916],[1.847628,41.661941],[1.847693,41.661994],[1.84769,41.662014],[1.847682,41.662034],[1.847663,41.66206],[1.847643,41.662084],[1.847641,41.662091],[1.847644,41.662096],[1.847659,41.662104],[1.847675,41.662112],[1.847694,41.662124],[1.847715,41.662136],[1.847744,41.662146],[1.847774,41.662153],[1.847789,41.662156],[1.847804,41.662159],[1.847818,41.662161],[1.847831,41.662165],[1.847841,41.662173],[1.847846,41.662184],[1.847854,41.662206],[1.847862,41.662228],[1.847902,41.66237],[1.84792,41.662414],[1.847949,41.662442],[1.848034,41.662487],[1.848376,41.66264],[1.84861,41.662743],[1.848685,41.662782],[1.84876,41.662822],[1.848772,41.662827],[1.848785,41.662829],[1.848813,41.662832],[1.848834,41.662834],[1.848855,41.662834],[1.84888,41.662829],[1.848905,41.662822],[1.848927,41.662816],[1.848947,41.662809],[1.84896,41.662804],[1.848985,41.662795],[1.848993,41.662791],[1.849027,41.662778],[1.849239,41.662877],[1.84937,41.662938],[1.849388,41.662956],[1.849395,41.662984],[1.849389,41.663024],[1.849397,41.663072],[1.849422,41.663108],[1.849446,41.66313],[1.849472,41.663143],[1.849508,41.663149],[1.849543,41.663148],[1.849571,41.663135],[1.849753,41.662877],[1.849871,41.662711],[1.849956,41.662717],[1.850023,41.662722],[1.85004,41.662705],[1.850058,41.66268],[1.850072,41.662657],[1.850096,41.662613],[1.85013,41.662546],[1.850165,41.662478],[1.850395,41.662044]]]]}},{"type":"Feature","id":"082628_082628 SI09 BAG 2","properties":{"area_id":"082628_082628 SI09 BAG 2","nom":"Polígon industrial Llobregat-Pla de la Ceràmica","codi_icgc":"082628 SI09 BAG 2","categoria":"Sector industrial","codi_municipi":"082628","municipi":"Sant Vicenç de Castellet","codi_comarca":"07","comarca":"Bages","provincia":"Barcelona","font":"ICGC Àrees de poblament v3r1 202602"},"geometry":{"type":"MultiPolygon","coordinates":[[[[1.856202,41.674695],[1.856476,41.674487],[1.85653,41.674515],[1.856675,41.674385],[1.856871,41.674237],[1.857097,41.67408],[1.857171,41.674061],[1.85768,41.673797],[1.857795,41.673725],[1.857899,41.673659],[1.858289,41.673332],[1.858331,41.673297],[1.858144,41.67317],[1.857809,41.672899],[1.857252,41.67242],[1.857213,41.672397],[1.857197,41.672388],[1.857163,41.672367],[1.857114,41.672446],[1.857051,41.672544],[1.856983,41.672641],[1.856913,41.672737],[1.856852,41.672818],[1.856789,41.672899],[1.856745,41.672946],[1.856696,41.67299],[1.856644,41.673029],[1.856588,41.673064],[1.856546,41.673085],[1.856534,41.67309],[1.856533,41.67309],[1.856532,41.67309],[1.856504,41.673103],[1.856502,41.673104],[1.856465,41.673116],[1.856426,41.673123],[1.856395,41.673125],[1.856361,41.673127],[1.856315,41.673136],[1.856274,41.673156],[1.856232,41.673209],[1.856197,41.67326],[1.856126,41.673364],[1.856057,41.673468],[1.856013,41.673541],[1.855974,41.673615],[1.855941,41.673685],[1.855915,41.673756],[1.85589,41.673833],[1.855866,41.67391],[1.855827,41.674004],[1.855777,41.674095],[1.855723,41.674173],[1.855665,41.67425],[1.855651,41.674269],[1.855681,41.674294],[1.855692,41.674303],[1.855704,41.674313],[1.855711,41.674319],[1.85577,41.674367],[1.855867,41.674447],[1.856201,41.674701],[1.856202,41.674695]]]]}},{"type":"Feature","id":"082628_082628 SI04 BAG 2","properties":{"area_id":"082628_082628 SI04 BAG 2","nom":"Polígon industrial Pla del Riu I","codi_icgc":"082628 SI04 BAG 2","categoria":"Sector industrial","codi_municipi":"082628","municipi":"Sant Vicenç de Castellet","codi_comarca":"07","comarca":"Bages","provincia":"Barcelona","font":"ICGC Àrees de poblament v3r1 202602"},"geometry":{"type":"MultiPolygon","coordinates":[[[[1.860089,41.662245],[1.860157,41.662214],[1.860177,41.662241],[1.860368,41.662122],[1.86066,41.661942],[1.86065,41.66193],[1.860545,41.661792],[1.860533,41.661763],[1.860536,41.661736],[1.860531,41.661731],[1.860543,41.661712],[1.860552,41.661688],[1.860572,41.661633],[1.860585,41.661577],[1.860588,41.66151],[1.860582,41.661438],[1.860581,41.661378],[1.86059,41.66133],[1.860604,41.661305],[1.860642,41.661261],[1.860913,41.661032],[1.860907,41.660997],[1.860872,41.660882],[1.860938,41.660866],[1.860941,41.660887],[1.86105,41.660871],[1.86105,41.660846],[1.861229,41.660814],[1.861274,41.66076],[1.861239,41.660629],[1.861163,41.660596],[1.861004,41.660616],[1.860997,41.660583],[1.860909,41.660594],[1.860907,41.66058],[1.860785,41.660595],[1.860777,41.660561],[1.860472,41.660286],[1.86031,41.660148],[1.859445,41.660299],[1.859337,41.660316],[1.859266,41.660327],[1.859267,41.660329],[1.859212,41.660339],[1.859234,41.660414],[1.859285,41.660573],[1.859348,41.660759],[1.85941,41.660944],[1.85947,41.661124],[1.859535,41.661304],[1.859562,41.661361],[1.859608,41.661444],[1.859658,41.661526],[1.859693,41.661581],[1.859729,41.661627],[1.85974,41.661641],[1.859749,41.661653],[1.859783,41.661697],[1.859802,41.661726],[1.859865,41.661827],[1.859928,41.661927],[1.859974,41.661998],[1.860019,41.662068],[1.860029,41.662086],[1.860037,41.662107],[1.860042,41.662178],[1.860089,41.662245]]]]}},{"type":"Feature","id":"082628_082628 SI03 BAG 2","properties":{"area_id":"082628_082628 SI03 BAG 2","nom":"Polígon industrial Pla del Riu II","codi_icgc":"082628 SI03 BAG 2","categoria":"Sector industrial","codi_municipi":"082628","municipi":"Sant Vicenç de Castellet","codi_comarca":"07","comarca":"Bages","provincia":"Barcelona","font":"ICGC Àrees de poblament v3r1 202602"},"geometry":{"type":"MultiPolygon","coordinates":[[[[1.860137,41.660042],[1.860169,41.660031],[1.860199,41.660016],[1.860225,41.659997],[1.860249,41.659978],[1.860265,41.659964],[1.860281,41.659948],[1.86029,41.659932],[1.860294,41.65992],[1.860297,41.659907],[1.860298,41.659883],[1.860292,41.659858],[1.860292,41.65985],[1.860289,41.659843],[1.860253,41.659759],[1.860233,41.659723],[1.860192,41.659662],[1.860163,41.659627],[1.860136,41.659592],[1.86012,41.659559],[1.860104,41.659526],[1.860091,41.659496],[1.860079,41.659468],[1.860077,41.659466],[1.860054,41.659405],[1.860029,41.659345],[1.860003,41.65929],[1.859976,41.659235],[1.859959,41.659199],[1.859954,41.659188],[1.859929,41.659125],[1.859832,41.658861],[1.859785,41.658811],[1.859732,41.658791],[1.859498,41.658011],[1.859401,41.658022],[1.858774,41.658098],[1.858711,41.658105],[1.858708,41.658162],[1.858737,41.65832],[1.85889,41.659089],[1.859042,41.659685],[1.859136,41.660057],[1.859152,41.660053],[1.859225,41.660037],[1.859247,41.660032],[1.859268,41.660035],[1.85928,41.660039],[1.859289,41.660046],[1.859312,41.660082],[1.859348,41.660139],[1.859359,41.660152],[1.859386,41.660166],[1.859414,41.660175],[1.859447,41.660181],[1.859479,41.660182],[1.859524,41.660179],[1.859552,41.660177],[1.859568,41.660176],[1.859621,41.660172],[1.859675,41.660168],[1.859706,41.660164],[1.859736,41.660156],[1.859767,41.660145],[1.859779,41.660141],[1.859798,41.660134],[1.85984,41.66012],[1.859881,41.660105],[1.859928,41.660088],[1.859973,41.660072],[1.859992,41.660067],[1.860023,41.660064],[1.860056,41.66006],[1.860096,41.660053],[1.860137,41.660042]]]]}},{"type":"Feature","id":"082628_082628 AP02 BAG 2","properties":{"area_id":"082628_082628 AP02 BAG 2","nom":"Raval del Gravat","codi_icgc":"082628 AP02 BAG 2","categoria":"Àrees de poblament","codi_municipi":"082628","municipi":"Sant Vicenç de Castellet","codi_comarca":"07","comarca":"Bages","provincia":"Barcelona","font":"ICGC Àrees de poblament v3r1 202602"},"geometry":{"type":"MultiPolygon","coordinates":[[[[1.831163,41.658379],[1.83108,41.658509],[1.831225,41.658663],[1.831242,41.658674],[1.831243,41.658675],[1.831262,41.658688],[1.831267,41.658691],[1.831434,41.658616],[1.831639,41.658553],[1.831983,41.658512],[1.832089,41.658481],[1.832168,41.658391],[1.832246,41.658326],[1.832312,41.658272],[1.83238,41.658217],[1.832489,41.658411],[1.832462,41.658525],[1.832432,41.658777],[1.832416,41.658944],[1.832432,41.658965],[1.832488,41.659014],[1.832604,41.659118],[1.832795,41.65911],[1.832911,41.65907],[1.832916,41.659068],[1.832912,41.659045],[1.832905,41.659007],[1.832908,41.659007],[1.832908,41.658806],[1.832908,41.658805],[1.833069,41.658291],[1.833062,41.658288],[1.832951,41.658247],[1.832927,41.658238],[1.832854,41.658212],[1.832834,41.658204],[1.832742,41.658171],[1.83242,41.657957],[1.83247,41.657899],[1.832556,41.657846],[1.832653,41.657787],[1.8327,41.657758],[1.832736,41.657707],[1.832772,41.657657],[1.832799,41.65762],[1.832829,41.657584],[1.83285,41.657562],[1.832873,41.657541],[1.83293,41.657495],[1.832989,41.65745],[1.83303,41.65742],[1.833071,41.657392],[1.833117,41.657368],[1.833167,41.657348],[1.833247,41.657321],[1.83333,41.657298],[1.833387,41.657284],[1.833499,41.657257],[1.833519,41.657258],[1.833562,41.65725],[1.833643,41.657237],[1.833712,41.657231],[1.833781,41.657229],[1.833836,41.65723],[1.833891,41.657236],[1.833936,41.657245],[1.833984,41.657254],[1.834022,41.65726],[1.834061,41.657266],[1.834101,41.65727],[1.834142,41.65727],[1.834172,41.657266],[1.834202,41.657259],[1.834263,41.657234],[1.834318,41.657204],[1.834388,41.657159],[1.834427,41.657116],[1.834462,41.657078],[1.834388,41.657056],[1.834372,41.657032],[1.834362,41.657016],[1.834302,41.656923],[1.834278,41.656871],[1.834202,41.65686],[1.834136,41.6569],[1.834092,41.656926],[1.834003,41.65693],[1.833902,41.656916],[1.833847,41.656909],[1.833831,41.656963],[1.833779,41.656959],[1.833721,41.656955],[1.833669,41.656951],[1.833635,41.65697],[1.833372,41.657052],[1.833069,41.657193],[1.83296,41.657233],[1.832932,41.657243],[1.832912,41.657251],[1.83285,41.657274],[1.832535,41.657557],[1.832302,41.657741],[1.83229,41.65775],[1.832277,41.657764],[1.83222,41.657822],[1.83215,41.65788],[1.831983,41.65797],[1.831687,41.658147],[1.831555,41.658186],[1.831354,41.658246],[1.831163,41.658379]]]]}},{"type":"Feature","id":"082628_082628 AP01 BAG 3","properties":{"area_id":"082628_082628 AP01 BAG 3","nom":"Sant Vicenç de Castellet","codi_icgc":"082628 AP01 BAG 3","categoria":"Àrees de poblament","codi_municipi":"082628","municipi":"Sant Vicenç de Castellet","codi_comarca":"07","comarca":"Bages","provincia":"Barcelona","font":"ICGC Àrees de poblament v3r1 202602"},"geometry":{"type":"MultiPolygon","coordinates":[[[[1.870202,41.670276],[1.870414,41.670212],[1.870471,41.67019],[1.870536,41.670149],[1.870666,41.670042],[1.870769,41.66996],[1.870942,41.669825],[1.870967,41.669719],[1.870656,41.669513],[1.870621,41.66949],[1.870491,41.669401],[1.870326,41.669371],[1.870145,41.669323],[1.870079,41.669336],[1.869988,41.669355],[1.869821,41.669317],[1.869745,41.669309],[1.86941,41.669293],[1.869356,41.669297],[1.869328,41.669307],[1.86929,41.669401],[1.869144,41.66937],[1.869117,41.669365],[1.869018,41.669344],[1.86886,41.669312],[1.868728,41.669284],[1.868603,41.669256],[1.868545,41.669372],[1.868386,41.6698],[1.868366,41.669844],[1.868789,41.669936],[1.86903,41.669999],[1.869561,41.670141],[1.869566,41.670125],[1.869649,41.670144],[1.87003,41.67026],[1.870096,41.670245],[1.870202,41.670276]]],[[[1.863719,41.674599],[1.863802,41.674505],[1.864232,41.674682],[1.864308,41.674695],[1.864357,41.674618],[1.864491,41.674415],[1.864015,41.674232],[1.864191,41.673947],[1.864661,41.674098],[1.864747,41.673953],[1.86496,41.674018],[1.865348,41.674169],[1.865688,41.67363],[1.86571,41.673639],[1.865717,41.673641],[1.865888,41.673707],[1.865924,41.673721],[1.865907,41.673747],[1.865982,41.673775],[1.86608,41.673812],[1.866133,41.673838],[1.866186,41.673863],[1.866221,41.673879],[1.866278,41.6739],[1.86634,41.673918],[1.866383,41.673925],[1.866416,41.673926],[1.866466,41.673923],[1.866515,41.673916],[1.866526,41.673913],[1.866778,41.673856],[1.866862,41.673832],[1.866961,41.673793],[1.867002,41.673784],[1.867071,41.673783],[1.867165,41.673791],[1.867235,41.673794],[1.867287,41.673785],[1.86733,41.673767],[1.867441,41.673649],[1.867423,41.673636],[1.867342,41.673612],[1.866999,41.673486],[1.866901,41.673459],[1.866792,41.673418],[1.867022,41.673059],[1.867056,41.672994],[1.867107,41.67292],[1.867099,41.672916],[1.866903,41.67278],[1.866851,41.672744],[1.866833,41.672731],[1.866852,41.672702],[1.866722,41.672654],[1.866707,41.672644],[1.866665,41.672613],[1.866625,41.67258],[1.866544,41.672514],[1.866509,41.672488],[1.866473,41.672465],[1.866376,41.672406],[1.866379,41.6724],[1.866334,41.672371],[1.866334,41.672254],[1.866117,41.671982],[1.866237,41.671805],[1.866642,41.671982],[1.866829,41.67172],[1.866901,41.671641],[1.866966,41.671579],[1.867027,41.671508],[1.867067,41.67147],[1.867103,41.671461],[1.867222,41.671483],[1.867438,41.671616],[1.867564,41.671689],[1.867663,41.671723],[1.867977,41.671925],[1.868041,41.671899],[1.868194,41.671773],[1.868275,41.671696],[1.868304,41.671634],[1.868313,41.671574],[1.868239,41.671514],[1.868212,41.671436],[1.868238,41.671347],[1.868275,41.671267],[1.868272,41.671198],[1.868353,41.671101],[1.86779,41.670752],[1.867851,41.670683],[1.867856,41.670678],[1.867905,41.670662],[1.867941,41.670618],[1.868078,41.670448],[1.867532,41.670232],[1.867482,41.670208],[1.867523,41.67014],[1.86746,41.670122],[1.867463,41.670114],[1.867371,41.670092],[1.86729,41.670073],[1.867269,41.670067],[1.867403,41.669734],[1.867416,41.669737],[1.867442,41.669674],[1.867455,41.669655],[1.867461,41.669653],[1.867436,41.669591],[1.867372,41.669577],[1.867366,41.669576],[1.867338,41.66957],[1.867302,41.669562],[1.867268,41.669518],[1.867234,41.669476],[1.867199,41.669439],[1.86716,41.669404],[1.867134,41.669385],[1.867109,41.669366],[1.867095,41.669351],[1.867073,41.669316],[1.867052,41.66928],[1.867042,41.669265],[1.867004,41.66921],[1.867013,41.669147],[1.867003,41.669138],[1.867002,41.66913],[1.866991,41.669098],[1.866988,41.669094],[1.867007,41.669068],[1.867021,41.669044],[1.86704,41.669019],[1.867045,41.669013],[1.867052,41.668998],[1.867053,41.668982],[1.867047,41.668951],[1.867036,41.668907],[1.867024,41.668864],[1.867021,41.668835],[1.867021,41.668821],[1.867021,41.668805],[1.867019,41.668742],[1.867023,41.668671],[1.867025,41.668612],[1.867018,41.668597],[1.867008,41.668592],[1.867007,41.668579],[1.867003,41.66856],[1.866994,41.668544],[1.866978,41.668532],[1.866958,41.668529],[1.866935,41.66853],[1.866841,41.668536],[1.866747,41.668542],[1.866668,41.668547],[1.866589,41.668551],[1.866548,41.668551],[1.866506,41.668548],[1.866479,41.668543],[1.866435,41.668531],[1.866392,41.66852],[1.866362,41.668515],[1.866331,41.668511],[1.866312,41.668511],[1.866316,41.668498],[1.866322,41.668476],[1.866372,41.668189],[1.86584,41.66816],[1.865841,41.668153],[1.865841,41.668115],[1.865835,41.668078],[1.865824,41.668043],[1.865812,41.668015],[1.865802,41.667988],[1.865797,41.667966],[1.865793,41.667944],[1.866145,41.667986],[1.866173,41.668028],[1.86632,41.668036],[1.866428,41.668051],[1.866417,41.668011],[1.866389,41.667924],[1.866417,41.667921],[1.866435,41.667917],[1.866571,41.667882],[1.866615,41.667872],[1.866658,41.667862],[1.866678,41.667859],[1.86671,41.667858],[1.866739,41.667864],[1.866784,41.667882],[1.866828,41.667901],[1.866852,41.667911],[1.866876,41.667922],[1.866904,41.66793],[1.866932,41.667934],[1.866973,41.667937],[1.867004,41.667936],[1.86705,41.66793],[1.867097,41.66792],[1.867128,41.667907],[1.867155,41.667888],[1.867183,41.667858],[1.867192,41.667843],[1.867196,41.667827],[1.867196,41.667799],[1.867192,41.667758],[1.867191,41.667717],[1.867193,41.667671],[1.867195,41.667624],[1.867195,41.6676],[1.867193,41.667576],[1.867191,41.667562],[1.86722,41.667456],[1.867227,41.667435],[1.867236,41.667408],[1.867245,41.667384],[1.867001,41.667339],[1.866906,41.667321],[1.86655,41.667268],[1.866535,41.667263],[1.866476,41.667244],[1.866461,41.667239],[1.866386,41.667203],[1.866331,41.667193],[1.86626,41.667181],[1.866197,41.667151],[1.866022,41.666963],[1.866413,41.666761],[1.866578,41.666721],[1.866694,41.6667],[1.866699,41.666699],[1.866705,41.666698],[1.866686,41.666627],[1.867109,41.666551],[1.867215,41.666527],[1.867257,41.666511],[1.867301,41.666504],[1.867296,41.666488],[1.86724,41.666333],[1.867233,41.666313],[1.867205,41.666321],[1.867093,41.66635],[1.867013,41.666368],[1.866973,41.666374],[1.866932,41.666379],[1.866868,41.666378],[1.86686,41.666378],[1.866841,41.666375],[1.866823,41.666372],[1.86681,41.666371],[1.866795,41.666371],[1.866824,41.666334],[1.867029,41.666108],[1.867135,41.665985],[1.867165,41.665948],[1.86718,41.665951],[1.867269,41.66597],[1.867309,41.665921],[1.867269,41.665803],[1.867332,41.665747],[1.8674,41.665727],[1.867487,41.665744],[1.867532,41.665743],[1.867568,41.665743],[1.867529,41.665674],[1.867517,41.665613],[1.867547,41.66561],[1.867493,41.665503],[1.867491,41.665492],[1.867485,41.665468],[1.867449,41.665419],[1.867399,41.665334],[1.867394,41.665313],[1.867331,41.665311],[1.867336,41.66529],[1.867345,41.66525],[1.867348,41.665218],[1.867347,41.665186],[1.867346,41.665156],[1.86734,41.665125],[1.867318,41.66508],[1.867292,41.665037],[1.867264,41.664995],[1.867236,41.664953],[1.867218,41.66492],[1.867202,41.664886],[1.867191,41.664868],[1.867175,41.664852],[1.867156,41.66484],[1.867106,41.664829],[1.867062,41.6649],[1.867009,41.664985],[1.866956,41.665062],[1.866903,41.66514],[1.866861,41.665205],[1.86682,41.665268],[1.866782,41.665323],[1.866742,41.665377],[1.866694,41.665433],[1.866646,41.665491],[1.866639,41.6655],[1.866492,41.66567],[1.86634,41.665588],[1.86624,41.665542],[1.866106,41.665472],[1.866069,41.665459],[1.865895,41.665405],[1.865898,41.6654],[1.865983,41.665263],[1.86582,41.665195],[1.865844,41.665162],[1.865982,41.664978],[1.866123,41.664795],[1.86616,41.664743],[1.866212,41.664664],[1.866257,41.664582],[1.866352,41.664472],[1.866413,41.664473],[1.866475,41.664474],[1.866526,41.664476],[1.866576,41.664479],[1.866609,41.664479],[1.866633,41.664477],[1.866657,41.664474],[1.866688,41.66447],[1.866721,41.664466],[1.866725,41.664458],[1.866724,41.66445],[1.866721,41.664434],[1.866726,41.664398],[1.866731,41.664362],[1.866743,41.664303],[1.86676,41.664245],[1.86679,41.664169],[1.86682,41.664093],[1.866841,41.66403],[1.86686,41.663968],[1.866863,41.663957],[1.866872,41.663925],[1.866582,41.663883],[1.866648,41.663666],[1.86653,41.663622],[1.865982,41.663548],[1.865946,41.663668],[1.86591,41.663787],[1.865891,41.663845],[1.865857,41.663932],[1.865821,41.664019],[1.865794,41.664082],[1.865764,41.664142],[1.865749,41.664164],[1.865718,41.6642],[1.865688,41.66424],[1.865623,41.664347],[1.865559,41.664453],[1.865473,41.664593],[1.865417,41.664681],[1.865339,41.664802],[1.865304,41.664855],[1.865234,41.664835],[1.865229,41.664844],[1.865212,41.664838],[1.865181,41.664825],[1.865101,41.664792],[1.865078,41.664783],[1.865141,41.664683],[1.865444,41.664025],[1.865645,41.663449],[1.86573,41.662954],[1.865744,41.662597],[1.865755,41.66251],[1.865753,41.662359],[1.865707,41.662188],[1.865682,41.662099],[1.865574,41.66201],[1.865405,41.661901],[1.86506,41.661733],[1.864435,41.661448],[1.864268,41.661378],[1.864203,41.661387],[1.86414,41.661402],[1.8641,41.661418],[1.863928,41.661503],[1.863759,41.661586],[1.863325,41.661798],[1.862892,41.66201],[1.862562,41.662171],[1.862232,41.662333],[1.862156,41.662372],[1.862083,41.662414],[1.862011,41.662462],[1.861946,41.662514],[1.861885,41.662566],[1.861864,41.662588],[1.861831,41.662623],[1.861777,41.6627],[1.861732,41.662779],[1.861698,41.662849],[1.86167,41.66292],[1.861657,41.662961],[1.861649,41.663002],[1.861632,41.663082],[1.861616,41.663132],[1.861572,41.663227],[1.861523,41.663322],[1.861454,41.663449],[1.861385,41.663576],[1.861355,41.663631],[1.861355,41.66364],[1.861351,41.66364],[1.861341,41.663657],[1.861297,41.663739],[1.861279,41.663781],[1.861274,41.663802],[1.861269,41.663825],[1.861266,41.663854],[1.861268,41.663959],[1.861277,41.664062],[1.861291,41.664178],[1.861302,41.664293],[1.861304,41.664359],[1.861307,41.664423],[1.861299,41.664514],[1.861284,41.664604],[1.861266,41.664678],[1.86126,41.664698],[1.861244,41.664752],[1.861237,41.664769],[1.861218,41.664823],[1.861189,41.664894],[1.861151,41.664985],[1.86113,41.665023],[1.861102,41.665069],[1.861093,41.66508],[1.860841,41.665419],[1.860698,41.665611],[1.860639,41.66569],[1.86026,41.665579],[1.859963,41.665633],[1.859379,41.665806],[1.859045,41.665803],[1.85886,41.665764],[1.858845,41.665787],[1.858534,41.666155],[1.858506,41.666188],[1.858173,41.666574],[1.858058,41.666714],[1.858008,41.666775],[1.857891,41.666923],[1.857826,41.667004],[1.857817,41.667015],[1.857834,41.667023],[1.857806,41.667056],[1.857775,41.667095],[1.857744,41.667136],[1.857713,41.667177],[1.857693,41.667205],[1.857673,41.667232],[1.857655,41.667254],[1.857637,41.667276],[1.857611,41.667309],[1.857584,41.667342],[1.857557,41.667378],[1.857534,41.667415],[1.857515,41.667451],[1.857497,41.667488],[1.857479,41.667523],[1.857462,41.667558],[1.857449,41.667587],[1.857437,41.667616],[1.85741,41.66769],[1.857382,41.667764],[1.857361,41.667823],[1.85734,41.667881],[1.857287,41.668014],[1.857248,41.668111],[1.857245,41.668118],[1.857242,41.668125],[1.85718,41.66828],[1.856723,41.669403],[1.856714,41.669425],[1.856673,41.669527],[1.85667,41.669535],[1.856666,41.669544],[1.856658,41.669565],[1.856465,41.67005],[1.856653,41.670108],[1.857088,41.670241],[1.857242,41.670284],[1.857344,41.670307],[1.857802,41.670388],[1.857847,41.670398],[1.857985,41.670395],[1.8581,41.670372],[1.85836,41.670408],[1.858747,41.670445],[1.858988,41.670462],[1.859223,41.670507],[1.859443,41.670628],[1.85989,41.670905],[1.860029,41.670949],[1.860212,41.670984],[1.860288,41.671023],[1.860312,41.671123],[1.860271,41.671242],[1.860101,41.671527],[1.859801,41.671958],[1.859704,41.672028],[1.859607,41.672132],[1.859272,41.672038],[1.858864,41.67284],[1.859245,41.673014],[1.858984,41.673381],[1.858641,41.673604],[1.858791,41.673719],[1.859017,41.673866],[1.859093,41.673915],[1.859216,41.673995],[1.859315,41.673991],[1.859337,41.673996],[1.859452,41.674018],[1.859585,41.674045],[1.860174,41.674159],[1.860594,41.674239],[1.860909,41.674298],[1.861005,41.674317],[1.861265,41.674368],[1.861278,41.674371],[1.861298,41.674376],[1.861312,41.674381],[1.861471,41.674428],[1.861669,41.674485],[1.862001,41.674589],[1.862416,41.674706],[1.86287,41.674834],[1.863315,41.674959],[1.863447,41.674996],[1.8637,41.67462],[1.863719,41.674599]]]]}},{"type":"Feature","id":"082628_082628 AP06 BAG 3","properties":{"area_id":"082628_082628 AP06 BAG 3","nom":"Vallhonesta","codi_icgc":"082628 AP06 BAG 3","categoria":"Àrees de poblament","codi_municipi":"082628","municipi":"Sant Vicenç de Castellet","codi_comarca":"07","comarca":"Bages","provincia":"Barcelona","font":"ICGC Àrees de poblament v3r1 202602"},"geometry":{"type":"MultiPolygon","coordinates":[[[[1.894114,41.673414],[1.894342,41.673491],[1.89452,41.673351],[1.894537,41.673322],[1.894538,41.673271],[1.894554,41.673241],[1.894719,41.673145],[1.894775,41.673121],[1.894799,41.673124],[1.89485,41.673167],[1.894854,41.67317],[1.894909,41.673167],[1.894937,41.673165],[1.895,41.673183],[1.895019,41.673234],[1.895027,41.67327],[1.895058,41.673279],[1.89515,41.673274],[1.895229,41.673263],[1.895329,41.673246],[1.895378,41.673241],[1.895377,41.673243],[1.895428,41.673271],[1.895512,41.673312],[1.895653,41.673335],[1.895781,41.673328],[1.895803,41.673179],[1.895722,41.67313],[1.895727,41.6731],[1.895736,41.673044],[1.895746,41.672991],[1.895749,41.672975],[1.895761,41.672983],[1.895786,41.672993],[1.895812,41.672998],[1.895843,41.672995],[1.895874,41.672984],[1.895896,41.672968],[1.895912,41.672953],[1.895922,41.672943],[1.89594,41.672924],[1.895981,41.67289],[1.896023,41.672857],[1.896046,41.672843],[1.896071,41.672831],[1.896119,41.672814],[1.896169,41.672801],[1.896221,41.672791],[1.896274,41.672785],[1.896334,41.672788],[1.896394,41.672795],[1.896433,41.672804],[1.896471,41.672815],[1.896493,41.672826],[1.89651,41.672841],[1.896521,41.672861],[1.896526,41.672882],[1.896526,41.672895],[1.896521,41.672915],[1.896512,41.672934],[1.896502,41.672946],[1.896474,41.672968],[1.896444,41.672988],[1.896412,41.673009],[1.896378,41.673032],[1.896367,41.673043],[1.896359,41.673055],[1.89635,41.67308],[1.896348,41.673103],[1.89635,41.673125],[1.896359,41.673161],[1.896371,41.673198],[1.896386,41.673229],[1.896406,41.673259],[1.896426,41.673282],[1.896433,41.673289],[1.896458,41.673309],[1.896466,41.673316],[1.896488,41.673328],[1.896491,41.673329],[1.89649,41.673332],[1.896563,41.673344],[1.896622,41.673332],[1.89667,41.673384],[1.896521,41.673541],[1.896606,41.673597],[1.896654,41.673596],[1.896801,41.673424],[1.896712,41.673318],[1.8967,41.6733],[1.896678,41.673273],[1.8965,41.672976],[1.896523,41.672958],[1.896535,41.672943],[1.896546,41.67292],[1.896552,41.672897],[1.896552,41.67288],[1.896546,41.672856],[1.896532,41.672831],[1.89651,41.672812],[1.896483,41.672798],[1.896449,41.672787],[1.896442,41.672785],[1.896399,41.672777],[1.896336,41.672768],[1.896273,41.672766],[1.896216,41.672772],[1.896161,41.672783],[1.896109,41.672796],[1.896059,41.672814],[1.896031,41.672827],[1.896006,41.672843],[1.895963,41.672877],[1.895922,41.672911],[1.89592,41.672913],[1.895891,41.672941],[1.895877,41.672955],[1.895859,41.672968],[1.895836,41.672976],[1.895814,41.672978],[1.895795,41.672975],[1.895776,41.672967],[1.895763,41.672959],[1.89576,41.672956],[1.895759,41.672953],[1.895759,41.672937],[1.895759,41.67292],[1.89576,41.672888],[1.895761,41.672856],[1.895769,41.672818],[1.895781,41.67278],[1.895791,41.672749],[1.895798,41.672735],[1.895808,41.672723],[1.895825,41.672714],[1.895856,41.672704],[1.89589,41.672695],[1.895922,41.672688],[1.895943,41.672684],[1.895996,41.672672],[1.896053,41.672654],[1.896106,41.672632],[1.896147,41.672614],[1.896189,41.672595],[1.896201,41.672585],[1.896211,41.672568],[1.896218,41.672551],[1.896221,41.672528],[1.896215,41.672502],[1.896196,41.672481],[1.896169,41.672465],[1.896136,41.672454],[1.896118,41.672451],[1.8961,41.672451],[1.896058,41.672456],[1.896016,41.672462],[1.895959,41.672473],[1.895922,41.67248],[1.895903,41.672484],[1.895847,41.67249],[1.895788,41.672496],[1.895729,41.672507],[1.895671,41.672518],[1.89561,41.672529],[1.895549,41.67254],[1.895476,41.672553],[1.895403,41.672564],[1.895379,41.672565],[1.895354,41.672566],[1.895334,41.672569],[1.895315,41.672578],[1.895301,41.672593],[1.895288,41.672606],[1.895269,41.672625],[1.895249,41.672643],[1.895229,41.672662],[1.89521,41.672682],[1.8952,41.672697],[1.895193,41.672719],[1.895189,41.672741],[1.895189,41.672771],[1.895188,41.6728],[1.895186,41.672814],[1.895174,41.672836],[1.89516,41.672858],[1.895146,41.672879],[1.895138,41.672887],[1.895129,41.672894],[1.895094,41.672904],[1.895057,41.672911],[1.895015,41.672917],[1.894971,41.672924],[1.894927,41.672934],[1.894884,41.672946],[1.894855,41.672955],[1.894827,41.672965],[1.894784,41.672981],[1.894742,41.672999],[1.894711,41.673016],[1.894681,41.673032],[1.894643,41.673054],[1.894604,41.673075],[1.894567,41.673092],[1.894529,41.673109],[1.894491,41.673132],[1.894457,41.673155],[1.894439,41.673163],[1.894405,41.67317],[1.894386,41.673175],[1.894368,41.673182],[1.894328,41.673205],[1.89429,41.673229],[1.894251,41.673256],[1.894212,41.673284],[1.894181,41.673308],[1.894153,41.673333],[1.894126,41.673361],[1.894102,41.67339],[1.894094,41.673402],[1.894095,41.673408],[1.894114,41.673414]]]]}},{"type":"Feature","id":"082628_082628 AP04 BAG 3","properties":{"area_id":"082628_082628 AP04 BAG 3","nom":"el Clot del Tufau","codi_icgc":"082628 AP04 BAG 3","categoria":"Àrees de poblament","codi_municipi":"082628","municipi":"Sant Vicenç de Castellet","codi_comarca":"07","comarca":"Bages","provincia":"Barcelona","font":"ICGC Àrees de poblament v3r1 202602"},"geometry":{"type":"MultiPolygon","coordinates":[[[[1.83833,41.660885],[1.838336,41.660849],[1.838337,41.660814],[1.838335,41.660754],[1.838334,41.660694],[1.838334,41.660652],[1.838349,41.660456],[1.83835,41.660441],[1.838348,41.660437],[1.83834,41.660418],[1.838295,41.660399],[1.838245,41.660375],[1.838198,41.660346],[1.838172,41.660325],[1.838148,41.660302],[1.838116,41.660261],[1.838098,41.660236],[1.83809,41.660233],[1.838063,41.660181],[1.838042,41.660144],[1.838027,41.660114],[1.838016,41.660083],[1.838014,41.660045],[1.838018,41.660008],[1.838025,41.659969],[1.838032,41.659931],[1.838038,41.659896],[1.838042,41.659861],[1.838041,41.659846],[1.838039,41.65983],[1.838035,41.659812],[1.838029,41.659795],[1.838014,41.659781],[1.837994,41.659772],[1.837962,41.65976],[1.837929,41.659753],[1.837868,41.659754],[1.837805,41.65976],[1.837749,41.659767],[1.837692,41.659778],[1.837655,41.659791],[1.837618,41.659805],[1.837571,41.659824],[1.837525,41.659845],[1.8375,41.65986],[1.837495,41.659864],[1.837468,41.659885],[1.837438,41.659911],[1.837411,41.659938],[1.837387,41.659965],[1.837365,41.659994],[1.837339,41.660028],[1.837313,41.660063],[1.837278,41.660109],[1.837243,41.660155],[1.837232,41.660168],[1.83721,41.660184],[1.837183,41.660197],[1.837148,41.660207],[1.837111,41.660211],[1.837067,41.660211],[1.836994,41.660196],[1.836881,41.660157],[1.836814,41.660132],[1.836823,41.66013],[1.836826,41.660124],[1.836828,41.660118],[1.836837,41.660101],[1.836846,41.660082],[1.836854,41.660061],[1.836862,41.660029],[1.836866,41.659995],[1.836867,41.659968],[1.836867,41.65994],[1.83687,41.659913],[1.836873,41.659886],[1.836872,41.659874],[1.836868,41.659864],[1.836851,41.659843],[1.836835,41.659822],[1.836922,41.659836],[1.837118,41.659862],[1.837133,41.659836],[1.837166,41.659744],[1.837175,41.659718],[1.837204,41.65963],[1.837206,41.659565],[1.837206,41.659492],[1.837196,41.659494],[1.83719,41.659449],[1.837183,41.659451],[1.837098,41.659468],[1.837013,41.659486],[1.836942,41.659498],[1.836869,41.659505],[1.836813,41.659507],[1.836757,41.659507],[1.836668,41.659505],[1.836579,41.659499],[1.836497,41.659487],[1.836478,41.659477],[1.836468,41.659465],[1.836476,41.659399],[1.836474,41.65924],[1.836482,41.659156],[1.836486,41.659101],[1.836491,41.659068],[1.836356,41.659055],[1.836237,41.65904],[1.836096,41.659028],[1.835964,41.659012],[1.835932,41.6591],[1.83591,41.659103],[1.835907,41.659121],[1.8359,41.659163],[1.835895,41.659195],[1.835896,41.659228],[1.835903,41.659259],[1.83591,41.659288],[1.835921,41.659336],[1.835934,41.659384],[1.835948,41.659427],[1.835951,41.659457],[1.835923,41.659477],[1.835905,41.659502],[1.83589,41.659545],[1.835884,41.659588],[1.835884,41.659622],[1.835892,41.659657],[1.835914,41.659703],[1.835942,41.659746],[1.835979,41.659795],[1.83602,41.659843],[1.836048,41.659871],[1.836079,41.659897],[1.836118,41.659928],[1.83614,41.659941],[1.836189,41.659969],[1.836164,41.659959],[1.836138,41.65995],[1.83613,41.659947],[1.836104,41.659937],[1.836069,41.659925],[1.835991,41.6599],[1.835912,41.659874],[1.835774,41.660093],[1.835814,41.660369],[1.835973,41.660378],[1.836194,41.660392],[1.836539,41.660296],[1.83663,41.660269],[1.836745,41.660338],[1.836721,41.660384],[1.836776,41.660401],[1.836814,41.660413],[1.836781,41.660474],[1.836749,41.660549],[1.836707,41.66063],[1.836672,41.660667],[1.836673,41.660679],[1.836673,41.66069],[1.836675,41.660699],[1.83668,41.660707],[1.836697,41.660717],[1.836715,41.660726],[1.836776,41.660752],[1.836797,41.660761],[1.836837,41.660777],[1.836848,41.660781],[1.836902,41.660802],[1.836936,41.660814],[1.83697,41.660822],[1.837044,41.660836],[1.837103,41.660848],[1.837118,41.660851],[1.83712,41.660919],[1.837319,41.66093],[1.837363,41.660907],[1.837371,41.660906],[1.837593,41.660861],[1.837606,41.660863],[1.837652,41.660873],[1.837667,41.660876],[1.837802,41.660892],[1.83785,41.661017],[1.837849,41.661035],[1.837851,41.661071],[1.837854,41.661085],[1.837857,41.661099],[1.837878,41.66112],[1.837905,41.661168],[1.837913,41.661182],[1.837918,41.661192],[1.837932,41.661216],[1.837957,41.661255],[1.837985,41.661294],[1.838013,41.661329],[1.838043,41.661364],[1.838062,41.661384],[1.838082,41.661403],[1.838091,41.661407],[1.838103,41.661406],[1.838139,41.661395],[1.838175,41.661383],[1.838198,41.661375],[1.838219,41.661366],[1.838225,41.661362],[1.83823,41.661356],[1.838234,41.66135],[1.838235,41.661343],[1.838234,41.661323],[1.838233,41.661318],[1.838229,41.661292],[1.838215,41.661239],[1.838203,41.661186],[1.838198,41.661136],[1.838194,41.661087],[1.838194,41.661056],[1.838193,41.661024],[1.838192,41.661012],[1.838188,41.660999],[1.838184,41.660993],[1.838176,41.660988],[1.838167,41.660984],[1.838158,41.660981],[1.838152,41.66098],[1.838215,41.660963],[1.838256,41.660958],[1.838273,41.660953],[1.838287,41.660944],[1.838307,41.660924],[1.838318,41.66091],[1.838321,41.660905],[1.83833,41.660885]]]]}},{"type":"Feature","id":"082628_082628 AP08 BAG 2","properties":{"area_id":"082628_082628 AP08 BAG 2","nom":"el Raval Nou","codi_icgc":"082628 AP08 BAG 2","categoria":"Àrees de poblament","codi_municipi":"082628","municipi":"Sant Vicenç de Castellet","codi_comarca":"07","comarca":"Bages","provincia":"Barcelona","font":"ICGC Àrees de poblament v3r1 202602"},"geometry":{"type":"MultiPolygon","coordinates":[[[[1.865117,41.659097],[1.865496,41.659939],[1.865762,41.659984],[1.865941,41.659924],[1.865976,41.659762],[1.866004,41.659615],[1.865987,41.659491],[1.865709,41.658997],[1.865685,41.658965],[1.865117,41.659097]]]]}},{"type":"Feature","id":"082628_082628 AP07 BAG 3","properties":{"area_id":"082628_082628 AP07 BAG 3","nom":"la Balconada","codi_icgc":"082628 AP07 BAG 3","categoria":"Àrees de poblament","codi_municipi":"082628","municipi":"Sant Vicenç de Castellet","codi_comarca":"07","comarca":"Bages","provincia":"Barcelona","font":"ICGC Àrees de poblament v3r1 202602"},"geometry":{"type":"MultiPolygon","coordinates":[[[[1.867514,41.66425],[1.867564,41.664311],[1.867664,41.66433],[1.867899,41.664343],[1.868011,41.664344],[1.868177,41.664353],[1.868232,41.664372],[1.868297,41.664317],[1.868357,41.664279],[1.868408,41.664262],[1.868486,41.664245],[1.868556,41.664234],[1.868585,41.664223],[1.868625,41.664205],[1.868633,41.664206],[1.868639,41.664207],[1.868646,41.664209],[1.868655,41.664214],[1.868675,41.664228],[1.868758,41.664292],[1.868922,41.664407],[1.869085,41.664521],[1.86912,41.664546],[1.86916,41.664575],[1.869165,41.664578],[1.869169,41.664581],[1.869175,41.664586],[1.869178,41.664588],[1.869185,41.664593],[1.869208,41.664609],[1.869266,41.664651],[1.869358,41.664716],[1.869378,41.664732],[1.869389,41.664746],[1.869397,41.664759],[1.86938,41.664808],[1.869348,41.664867],[1.869303,41.664892],[1.869345,41.664925],[1.86943,41.664976],[1.869376,41.665025],[1.869326,41.665062],[1.869258,41.665124],[1.86939,41.665218],[1.869507,41.665302],[1.869707,41.665444],[1.869934,41.665578],[1.870184,41.66566],[1.870276,41.665701],[1.870332,41.665727],[1.870371,41.665747],[1.870434,41.665779],[1.87045,41.665784],[1.870466,41.665786],[1.870491,41.665788],[1.87052,41.665789],[1.870546,41.665795],[1.870581,41.665809],[1.870615,41.66582],[1.870674,41.665833],[1.870736,41.665841],[1.870781,41.665845],[1.870826,41.665848],[1.870853,41.66585],[1.87088,41.665851],[1.870917,41.66585],[1.870953,41.665844],[1.87098,41.665833],[1.871003,41.665818],[1.871022,41.665801],[1.871042,41.665783],[1.871074,41.665755],[1.871202,41.665701],[1.871173,41.665686],[1.871165,41.665676],[1.871155,41.665656],[1.871149,41.665645],[1.871139,41.665635],[1.871114,41.665617],[1.871087,41.665601],[1.871017,41.665561],[1.870996,41.665544],[1.870976,41.665527],[1.870962,41.665513],[1.870952,41.665497],[1.870948,41.665485],[1.870941,41.665481],[1.870972,41.665442],[1.870974,41.665438],[1.871016,41.665385],[1.871051,41.665349],[1.871083,41.665307],[1.871111,41.665264],[1.87113,41.665231],[1.871148,41.665199],[1.871165,41.665157],[1.871179,41.665116],[1.871192,41.66507],[1.871205,41.665024],[1.871216,41.664981],[1.871224,41.664937],[1.871229,41.664895],[1.871231,41.664853],[1.871232,41.664815],[1.871232,41.664778],[1.871235,41.664749],[1.871243,41.664721],[1.871262,41.664679],[1.871274,41.664654],[1.871282,41.664638],[1.871302,41.664602],[1.871322,41.664565],[1.87134,41.664532],[1.871355,41.664498],[1.871362,41.664465],[1.871369,41.664432],[1.871377,41.66441],[1.871387,41.664388],[1.871395,41.664367],[1.871397,41.664362],[1.871406,41.664336],[1.871412,41.664309],[1.871411,41.664281],[1.871406,41.66425],[1.8714,41.66422],[1.871393,41.664182],[1.871385,41.664143],[1.871375,41.664112],[1.871362,41.664082],[1.871347,41.664059],[1.87133,41.664038],[1.871306,41.66401],[1.871285,41.663987],[1.871273,41.663974],[1.871253,41.663957],[1.871231,41.66394],[1.871217,41.663927],[1.871203,41.663914],[1.871179,41.6639],[1.871151,41.663893],[1.87113,41.663892],[1.871109,41.663891],[1.871077,41.663891],[1.871045,41.663892],[1.871009,41.663893],[1.870973,41.663895],[1.870962,41.663897],[1.870882,41.663917],[1.870841,41.663935],[1.870789,41.663965],[1.870738,41.663993],[1.870682,41.664022],[1.870652,41.664016],[1.870418,41.663967],[1.870362,41.663955],[1.870296,41.663951],[1.870298,41.663814],[1.870296,41.663809],[1.87023,41.663635],[1.870195,41.663541],[1.870187,41.663521],[1.870156,41.663438],[1.870154,41.663434],[1.870076,41.663242],[1.870002,41.663051],[1.869833,41.662657],[1.869811,41.662603],[1.86977,41.6625],[1.869745,41.662428],[1.869697,41.662295],[1.869595,41.662259],[1.869602,41.662239],[1.869602,41.662219],[1.869594,41.6622],[1.869579,41.662184],[1.869558,41.662171],[1.869534,41.662163],[1.869507,41.66216],[1.869482,41.662164],[1.869475,41.662114],[1.869435,41.662115],[1.869414,41.662008],[1.869413,41.662005],[1.869378,41.661925],[1.869346,41.661895],[1.869318,41.661776],[1.869324,41.661765],[1.869332,41.661761],[1.86933,41.661756],[1.869323,41.66174],[1.86931,41.661741],[1.869177,41.661752],[1.869101,41.661761],[1.869084,41.661728],[1.869293,41.661666],[1.86941,41.661632],[1.869451,41.661619],[1.869501,41.661594],[1.869554,41.661568],[1.869586,41.661553],[1.869668,41.661477],[1.869759,41.6614],[1.869764,41.661397],[1.869805,41.66137],[1.869723,41.661252],[1.869686,41.661201],[1.869665,41.661173],[1.869611,41.66111],[1.869565,41.660973],[1.869567,41.660902],[1.86957,41.660825],[1.869598,41.660809],[1.869597,41.660804],[1.869607,41.660774],[1.869608,41.660769],[1.869592,41.660739],[1.869557,41.660709],[1.869483,41.660678],[1.869471,41.660663],[1.869465,41.660655],[1.869374,41.660615],[1.869364,41.660573],[1.869363,41.660566],[1.869275,41.660522],[1.869237,41.660517],[1.869266,41.660486],[1.86926,41.660454],[1.869173,41.660381],[1.869102,41.660324],[1.869061,41.660278],[1.869037,41.66023],[1.86903,41.660172],[1.869013,41.660128],[1.868993,41.660091],[1.868964,41.660051],[1.868919,41.660007],[1.868893,41.659976],[1.868879,41.65996],[1.86883,41.659926],[1.8688,41.659917],[1.868783,41.659913],[1.868726,41.659919],[1.868693,41.65984],[1.868691,41.659836],[1.868669,41.659791],[1.868639,41.659741],[1.86861,41.65971],[1.868572,41.659685],[1.868543,41.659672],[1.86851,41.659661],[1.868477,41.659653],[1.868412,41.659645],[1.868372,41.659645],[1.868332,41.659649],[1.868303,41.659657],[1.868263,41.659674],[1.868246,41.659684],[1.868235,41.65969],[1.868229,41.659694],[1.868158,41.659746],[1.868137,41.659752],[1.868121,41.659763],[1.868003,41.659841],[1.867887,41.659919],[1.867764,41.660005],[1.867641,41.66009],[1.86751,41.660176],[1.86738,41.660264],[1.867272,41.660338],[1.867233,41.660365],[1.867191,41.660395],[1.867176,41.660404],[1.867164,41.660411],[1.867148,41.660417],[1.867131,41.660421],[1.867114,41.660422],[1.867094,41.660419],[1.867049,41.660409],[1.866993,41.660402],[1.86692,41.660394],[1.866908,41.66043],[1.866781,41.660557],[1.866753,41.660585],[1.866686,41.660705],[1.866733,41.660796],[1.866751,41.660804],[1.866781,41.660855],[1.866826,41.660949],[1.866863,41.661104],[1.866952,41.661357],[1.866954,41.661361],[1.867059,41.661627],[1.867137,41.661823],[1.86717,41.661905],[1.867212,41.662009],[1.867213,41.662013],[1.867265,41.66214],[1.867317,41.662266],[1.867348,41.662341],[1.867377,41.662392],[1.867451,41.66252],[1.86751,41.662668],[1.867584,41.662846],[1.867754,41.662925],[1.867764,41.662962],[1.867771,41.663024],[1.867767,41.663089],[1.867759,41.663157],[1.867744,41.66328],[1.867735,41.663356],[1.867726,41.663431],[1.867705,41.663532],[1.867681,41.663633],[1.867661,41.663723],[1.867642,41.663813],[1.867617,41.663925],[1.867593,41.664036],[1.867579,41.664095],[1.867528,41.664229],[1.867523,41.664237],[1.867514,41.66425]]]]}},{"type":"Feature","id":"082628_082628 AP03 BAG 2","properties":{"area_id":"082628_082628 AP03 BAG 2","nom":"la Farinera","codi_icgc":"082628 AP03 BAG 2","categoria":"Àrees de poblament","codi_municipi":"082628","municipi":"Sant Vicenç de Castellet","codi_comarca":"07","comarca":"Bages","provincia":"Barcelona","font":"ICGC Àrees de poblament v3r1 202602"},"geometry":{"type":"MultiPolygon","coordinates":[[[[1.852311,41.667745],[1.853301,41.667819],[1.8533,41.667876],[1.853345,41.668063],[1.853715,41.668145],[1.853742,41.668204],[1.854222,41.668219],[1.854243,41.668219],[1.854249,41.667825],[1.854286,41.667583],[1.854374,41.667285],[1.853739,41.667201],[1.853623,41.66729],[1.853343,41.667335],[1.853108,41.667342],[1.852411,41.667165],[1.852311,41.667745]]]]}}]}