{"type":"FeatureCollection","name":"ICGC Àrees de poblament - Tagamanent","features":[{"type":"Feature","id":"082763_082763 AP04 VOR 2","properties":{"area_id":"082763_082763 AP04 VOR 2","nom":"Avencó","codi_icgc":"082763 AP04 VOR 2","categoria":"Àrees de poblament","codi_municipi":"082763","municipi":"Tagamanent","codi_comarca":"41","comarca":"Vallès Oriental","provincia":"Barcelona","font":"ICGC Àrees de poblament v3r1 202602"},"geometry":{"type":"MultiPolygon","coordinates":[[[[2.254254,41.765176],[2.254369,41.765094],[2.254389,41.765095],[2.254392,41.765095],[2.254411,41.765097],[2.254442,41.765107],[2.254474,41.765118],[2.254525,41.765137],[2.254578,41.765156],[2.254594,41.76516],[2.25461,41.76516],[2.254965,41.765318],[2.255434,41.76538],[2.255664,41.765316],[2.255712,41.765302],[2.255727,41.765298],[2.255856,41.765262],[2.255954,41.765094],[2.255808,41.764979],[2.255627,41.765248],[2.255615,41.765246],[2.255596,41.765236],[2.255595,41.765236],[2.255576,41.765222],[2.25557,41.765217],[2.255557,41.765208],[2.25555,41.765204],[2.255542,41.765201],[2.255491,41.765182],[2.255472,41.765177],[2.255439,41.765168],[2.255384,41.765156],[2.255329,41.765146],[2.255242,41.765137],[2.255199,41.765133],[2.255156,41.765127],[2.255126,41.765119],[2.255084,41.765101],[2.255047,41.765078],[2.254973,41.765018],[2.2549,41.764958],[2.254822,41.764893],[2.254744,41.764827],[2.254693,41.764779],[2.254645,41.764728],[2.254623,41.7647],[2.254606,41.764669],[2.254592,41.764616],[2.254588,41.764566],[2.254588,41.764562],[2.254594,41.764499],[2.254601,41.764435],[2.254602,41.764385],[2.254597,41.764335],[2.254588,41.764285],[2.254579,41.764267],[2.254566,41.764237],[2.254527,41.764189],[2.25439,41.764061],[2.254217,41.763931],[2.254182,41.763993],[2.25419,41.763999],[2.254173,41.764035],[2.254138,41.764088],[2.254125,41.764117],[2.25413,41.764166],[2.254143,41.764221],[2.254176,41.764287],[2.254209,41.764325],[2.254239,41.764346],[2.254261,41.764365],[2.254268,41.76442],[2.254275,41.764519],[2.254273,41.764534],[2.254263,41.764653],[2.254242,41.764738],[2.254212,41.764733],[2.254193,41.764807],[2.254184,41.764846],[2.254181,41.764862],[2.254182,41.764908],[2.254186,41.764944],[2.254203,41.764967],[2.254205,41.764979],[2.254215,41.764984],[2.254218,41.764988],[2.254253,41.765017],[2.254198,41.765095],[2.254168,41.765136],[2.25416,41.765149],[2.254229,41.765193],[2.254254,41.765176]]]]}},{"type":"Feature","id":"082763_082763 SI02 VOR 2","properties":{"area_id":"082763_082763 SI02 VOR 2","nom":"Camp dels Avellaners","codi_icgc":"082763 SI02 VOR 2","categoria":"Sector industrial","codi_municipi":"082763","municipi":"Tagamanent","codi_comarca":"41","comarca":"Vallès Oriental","provincia":"Barcelona","font":"ICGC Àrees de poblament v3r1 202602"},"geometry":{"type":"MultiPolygon","coordinates":[[[[2.263865,41.741622],[2.263812,41.741587],[2.263734,41.741677],[2.263663,41.741759],[2.263592,41.741842],[2.263548,41.741902],[2.263507,41.741963],[2.263482,41.742005],[2.263462,41.742048],[2.263449,41.74209],[2.26344,41.742133],[2.263432,41.74218],[2.26343,41.742228],[2.263438,41.742308],[2.263445,41.742388],[2.263457,41.742524],[2.263469,41.74266],[2.263478,41.742747],[2.263486,41.742834],[2.263493,41.742877],[2.263505,41.742919],[2.263522,41.742954],[2.263543,41.742988],[2.263561,41.743015],[2.263581,41.743042],[2.263609,41.743069],[2.263641,41.743095],[2.263668,41.743114],[2.263698,41.743132],[2.26374,41.743154],[2.263786,41.743172],[2.263853,41.743195],[2.26392,41.743215],[2.264035,41.743249],[2.264124,41.743274],[2.26415,41.743281],[2.264256,41.743308],[2.264309,41.743321],[2.264348,41.743332],[2.264409,41.743329],[2.264409,41.743322],[2.264409,41.743295],[2.264408,41.743292],[2.264407,41.743221],[2.264385,41.743041],[2.264374,41.74294],[2.264363,41.742841],[2.264344,41.742688],[2.264322,41.742535],[2.2643,41.742393],[2.264277,41.74225],[2.264264,41.74216],[2.264252,41.74207],[2.264241,41.741983],[2.264232,41.741894],[2.26423,41.74187],[2.264186,41.74184],[2.263946,41.741678],[2.263865,41.741622]]]]}},{"type":"Feature","id":"082763_082763 SI01 VOR 2","properties":{"area_id":"082763_082763 SI01 VOR 2","nom":"El Rieral","codi_icgc":"082763 SI01 VOR 2","categoria":"Sector industrial","codi_municipi":"082763","municipi":"Tagamanent","codi_comarca":"41","comarca":"Vallès Oriental","provincia":"Barcelona","font":"ICGC Àrees de poblament v3r1 202602"},"geometry":{"type":"MultiPolygon","coordinates":[[[[2.257007,41.750928],[2.257156,41.750886],[2.257354,41.750823],[2.257549,41.750757],[2.257569,41.75075],[2.257602,41.75067],[2.257611,41.75065],[2.257645,41.750566],[2.257663,41.750521],[2.259043,41.749991],[2.259146,41.749927],[2.259397,41.749827],[2.259588,41.74975],[2.260082,41.749518],[2.260401,41.749385],[2.260421,41.749374],[2.260393,41.749356],[2.260387,41.749352],[2.260313,41.749348],[2.260286,41.749349],[2.259609,41.749425],[2.259346,41.749466],[2.258887,41.749578],[2.258675,41.749619],[2.25844,41.749665],[2.258304,41.749698],[2.258107,41.749745],[2.257201,41.749957],[2.256983,41.750011],[2.256638,41.750215],[2.256584,41.75024],[2.25633,41.750876],[2.256326,41.750895],[2.256165,41.750895],[2.256076,41.750893],[2.255925,41.750882],[2.255781,41.750869],[2.255613,41.750847],[2.255445,41.750824],[2.255269,41.750797],[2.255093,41.750766],[2.254742,41.750704],[2.25432,41.750634],[2.254089,41.750595],[2.254079,41.750659],[2.254077,41.750677],[2.254068,41.750738],[2.254055,41.750822],[2.254114,41.750892],[2.254223,41.751058],[2.25429,41.751157],[2.254363,41.751274],[2.254437,41.751352],[2.25449,41.751392],[2.254539,41.751399],[2.254627,41.751411],[2.25482,41.751427],[2.255229,41.75152],[2.255487,41.751558],[2.255661,41.75157],[2.255799,41.751517],[2.255932,41.751442],[2.256019,41.75138],[2.256128,41.751297],[2.256261,41.751195],[2.256462,41.75104],[2.256476,41.751022],[2.256496,41.75102],[2.256528,41.751017],[2.256614,41.751006],[2.256735,41.750987],[2.256855,41.750964],[2.257007,41.750928]]]]}},{"type":"Feature","id":"082763_082763 AP02 VOR 3","properties":{"area_id":"082763_082763 AP02 VOR 3","nom":"Santa Eugènia del Congost","codi_icgc":"082763 AP02 VOR 3","categoria":"Àrees de poblament","codi_municipi":"082763","municipi":"Tagamanent","codi_comarca":"41","comarca":"Vallès Oriental","provincia":"Barcelona","font":"ICGC Àrees de poblament v3r1 202602"},"geometry":{"type":"MultiPolygon","coordinates":[[[[2.268901,41.732873],[2.268928,41.732794],[2.269089,41.732496],[2.269141,41.732348],[2.269193,41.732201],[2.269251,41.732049],[2.269311,41.731897],[2.269366,41.73176],[2.269421,41.731622],[2.269439,41.73157],[2.269452,41.731516],[2.269452,41.731484],[2.269444,41.731451],[2.269432,41.73142],[2.269414,41.731391],[2.269387,41.731354],[2.269374,41.731349],[2.269348,41.731341],[2.269321,41.731316],[2.269288,41.731294],[2.269242,41.731273],[2.26921,41.731259],[2.269165,41.731239],[2.269116,41.731213],[2.269078,41.731202],[2.26904,41.7312],[2.268972,41.731146],[2.268932,41.731173],[2.268904,41.731198],[2.268874,41.731235],[2.268846,41.73129],[2.268825,41.731335],[2.268566,41.731275],[2.268295,41.731212],[2.268292,41.731187],[2.268356,41.731006],[2.268464,41.730747],[2.268494,41.730659],[2.268535,41.730523],[2.268539,41.730446],[2.268495,41.730512],[2.268503,41.730449],[2.268509,41.730419],[2.268496,41.730396],[2.268474,41.730376],[2.268417,41.73037],[2.268363,41.730399],[2.268322,41.73044],[2.268288,41.730492],[2.268258,41.730547],[2.268167,41.730711],[2.268125,41.730793],[2.268088,41.730877],[2.268034,41.731019],[2.26798,41.73116],[2.267956,41.731226],[2.267931,41.731292],[2.26791,41.731357],[2.267903,41.73139],[2.267899,41.731422],[2.267901,41.731449],[2.267913,41.73149],[2.267928,41.73153],[2.267948,41.731571],[2.267967,41.731611],[2.26798,41.731666],[2.26798,41.731699],[2.267972,41.731764],[2.267954,41.731863],[2.267946,41.731912],[2.267939,41.731961],[2.267931,41.73203],[2.267929,41.732065],[2.267931,41.7321],[2.267937,41.732129],[2.267946,41.732157],[2.267969,41.732222],[2.267991,41.732287],[2.268008,41.732355],[2.268021,41.732424],[2.268033,41.732516],[2.268041,41.732607],[2.268046,41.732754],[2.268053,41.73286],[2.268154,41.732854],[2.268261,41.732854],[2.268284,41.73288],[2.268297,41.732912],[2.268299,41.732953],[2.268297,41.732956],[2.268291,41.732992],[2.268293,41.733051],[2.268303,41.73311],[2.268327,41.733198],[2.268373,41.733329],[2.268396,41.733394],[2.268415,41.73346],[2.26849,41.733484],[2.268544,41.733525],[2.268589,41.733534],[2.268638,41.733541],[2.268659,41.73349],[2.268672,41.733439],[2.268687,41.733397],[2.268703,41.733356],[2.26872,41.733332],[2.268737,41.733308],[2.268758,41.733274],[2.268773,41.733238],[2.268783,41.733213],[2.268792,41.733187],[2.268812,41.733122],[2.268834,41.733057],[2.268854,41.733004],[2.268875,41.732951],[2.268901,41.732873]]],[[[2.267715,41.734937],[2.267738,41.734936],[2.267763,41.734937],[2.267789,41.734937],[2.267837,41.734914],[2.267839,41.734912],[2.267848,41.734883],[2.267848,41.734855],[2.267832,41.734817],[2.267799,41.734762],[2.267766,41.734707],[2.267749,41.734671],[2.267734,41.734615],[2.267723,41.734558],[2.267717,41.734516],[2.267709,41.734475],[2.267698,41.734447],[2.267674,41.734408],[2.267647,41.73437],[2.267609,41.734314],[2.267603,41.734306],[2.267692,41.73399],[2.267624,41.733935],[2.267296,41.733922],[2.267284,41.733921],[2.267257,41.733912],[2.26725,41.733908],[2.267246,41.733908],[2.26723,41.733909],[2.267224,41.733911],[2.267219,41.733913],[2.267184,41.733928],[2.267182,41.73394],[2.267198,41.734239],[2.267355,41.734541],[2.267294,41.734554],[2.267314,41.734651],[2.267308,41.734653],[2.267249,41.734644],[2.267225,41.734641],[2.267211,41.73464],[2.267194,41.73464],[2.267178,41.73464],[2.267172,41.734641],[2.267158,41.734643],[2.26715,41.734645],[2.267143,41.734648],[2.267137,41.73465],[2.26713,41.734658],[2.267123,41.734668],[2.267098,41.734689],[2.267081,41.73469],[2.267087,41.73473],[2.267097,41.734765],[2.267142,41.73487],[2.267179,41.734948],[2.267199,41.734985],[2.267218,41.735022],[2.267231,41.735047],[2.267236,41.735057],[2.267248,41.735075],[2.267257,41.735083],[2.267276,41.73509],[2.267296,41.735092],[2.267334,41.735088],[2.267371,41.735077],[2.267414,41.735049],[2.267454,41.735023],[2.2675,41.734996],[2.267549,41.734974],[2.267597,41.734961],[2.267647,41.73495],[2.267693,41.734941],[2.267715,41.734937]]]]}},{"type":"Feature","id":"082763_082763 AP01 VOR 3","properties":{"area_id":"082763_082763 AP01 VOR 3","nom":"Tagamanent","codi_icgc":"082763 AP01 VOR 3","categoria":"Àrees de poblament","codi_municipi":"082763","municipi":"Tagamanent","codi_comarca":"41","comarca":"Vallès Oriental","provincia":"Barcelona","font":"ICGC Àrees de poblament v3r1 202602"},"geometry":{"type":"MultiPolygon","coordinates":[[[[2.269754,41.738566],[2.269792,41.738441],[2.269828,41.738337],[2.269868,41.738223],[2.269951,41.738143],[2.270034,41.738062],[2.27006,41.738039],[2.270114,41.738004],[2.270157,41.737981],[2.270181,41.737952],[2.270295,41.737925],[2.270386,41.737884],[2.270443,41.737865],[2.270478,41.737852],[2.270545,41.737835],[2.270612,41.737818],[2.270696,41.737789],[2.270737,41.737773],[2.270775,41.737754],[2.270807,41.737737],[2.270854,41.737711],[2.2709,41.737685],[2.270937,41.737666],[2.270964,41.737651],[2.271028,41.737618],[2.271083,41.737585],[2.27116,41.737531],[2.271238,41.737478],[2.271309,41.737437],[2.271347,41.737419],[2.271386,41.737403],[2.271425,41.737391],[2.271495,41.737374],[2.271546,41.737364],[2.271602,41.737354],[2.271656,41.737344],[2.271708,41.737331],[2.271761,41.737315],[2.271798,41.737298],[2.271822,41.737279],[2.271849,41.737245],[2.271871,41.737221],[2.271931,41.737173],[2.271985,41.737134],[2.272051,41.737093],[2.272116,41.737051],[2.272214,41.737032],[2.272329,41.737029],[2.272378,41.737025],[2.272427,41.73702],[2.272541,41.737004],[2.272654,41.736988],[2.272699,41.736984],[2.272767,41.736985],[2.272835,41.736989],[2.272911,41.737001],[2.272913,41.736945],[2.272844,41.736936],[2.272764,41.73693],[2.272733,41.736725],[2.272557,41.736598],[2.27234,41.736444],[2.272145,41.736481],[2.272036,41.736602],[2.271942,41.736705],[2.271863,41.736748],[2.271832,41.73676],[2.271748,41.736792],[2.271664,41.73682],[2.271582,41.736842],[2.271544,41.736848],[2.271502,41.736849],[2.271452,41.736849],[2.271404,41.736844],[2.271314,41.736828],[2.271218,41.736811],[2.271159,41.736805],[2.271098,41.736804],[2.271051,41.736809],[2.270995,41.736824],[2.270936,41.736851],[2.270909,41.736866],[2.270882,41.736892],[2.270821,41.736993],[2.270777,41.737082],[2.270738,41.737166],[2.270698,41.737249],[2.270674,41.7373],[2.270649,41.737351],[2.270632,41.737385],[2.270603,41.737436],[2.270562,41.737497],[2.270517,41.737524],[2.270465,41.737547],[2.270411,41.737566],[2.270374,41.737576],[2.270337,41.737585],[2.270268,41.737601],[2.27016,41.737626],[2.270089,41.737643],[2.270012,41.737661],[2.269977,41.737675],[2.269948,41.737697],[2.269915,41.737731],[2.269892,41.737752],[2.269865,41.737769],[2.269692,41.737636],[2.269259,41.73793],[2.269224,41.737947],[2.269115,41.738001],[2.269066,41.738025],[2.268977,41.738107],[2.268935,41.738159],[2.268908,41.738251],[2.268895,41.738347],[2.268884,41.738454],[2.268909,41.738499],[2.268975,41.738547],[2.26908,41.738546],[2.269085,41.738627],[2.269089,41.738703],[2.269071,41.738729],[2.269031,41.73878],[2.268965,41.738876],[2.268909,41.738962],[2.268836,41.739079],[2.268766,41.739198],[2.268714,41.739295],[2.268662,41.739391],[2.268623,41.739454],[2.268567,41.739535],[2.268549,41.739561],[2.268511,41.739616],[2.268426,41.739724],[2.268381,41.739775],[2.268331,41.739824],[2.268227,41.73992],[2.268163,41.73998],[2.26792,41.7402],[2.267982,41.74026],[2.268044,41.740302],[2.268456,41.74058],[2.268502,41.740507],[2.268618,41.740324],[2.268761,41.740096],[2.268806,41.740049],[2.268837,41.740017],[2.268912,41.739939],[2.269041,41.73981],[2.269174,41.739683],[2.269217,41.739643],[2.269283,41.739583],[2.269348,41.739523],[2.269378,41.739492],[2.269418,41.739444],[2.269453,41.739393],[2.269482,41.739344],[2.269507,41.739294],[2.269528,41.739246],[2.269544,41.739206],[2.269589,41.739082],[2.269629,41.738966],[2.269656,41.738891],[2.269681,41.738816],[2.269698,41.738755],[2.269715,41.738694],[2.269754,41.738566]]],[[[2.267352,41.74182],[2.267392,41.741812],[2.267432,41.741821],[2.267493,41.741845],[2.267551,41.741872],[2.267608,41.741902],[2.267664,41.741932],[2.267697,41.74195],[2.267724,41.741927],[2.267705,41.741842],[2.267687,41.741757],[2.26768,41.741715],[2.267673,41.741651],[2.267667,41.741587],[2.267656,41.741511],[2.267646,41.741436],[2.267639,41.741352],[2.267633,41.741269],[2.267626,41.741172],[2.267619,41.741076],[2.267606,41.741005],[2.267589,41.740935],[2.267573,41.740863],[2.267565,41.740827],[2.267554,41.740791],[2.267542,41.740759],[2.267518,41.740711],[2.267492,41.740664],[2.267467,41.74062],[2.267442,41.740576],[2.267405,41.740594],[2.267367,41.740612],[2.267328,41.74063],[2.267288,41.740649],[2.267094,41.740698],[2.267034,41.740745],[2.266925,41.740691],[2.266809,41.740637],[2.266751,41.740605],[2.266837,41.740512],[2.266922,41.74042],[2.267016,41.740317],[2.267112,41.740216],[2.267174,41.740153],[2.267236,41.74009],[2.267299,41.740025],[2.267361,41.739961],[2.267393,41.739925],[2.267435,41.739878],[2.267499,41.73979],[2.267529,41.739746],[2.267545,41.739721],[2.26759,41.739653],[2.267715,41.739456],[2.267842,41.739203],[2.267993,41.738918],[2.268076,41.738764],[2.268176,41.738564],[2.268478,41.738642],[2.268523,41.738557],[2.268591,41.738371],[2.26831,41.738326],[2.268379,41.738148],[2.268422,41.738062],[2.268478,41.737976],[2.26856,41.737884],[2.268733,41.737771],[2.269007,41.737619],[2.269132,41.73753],[2.269219,41.737463],[2.269315,41.73736],[2.269459,41.737271],[2.26957,41.737215],[2.269666,41.737162],[2.269719,41.737112],[2.269759,41.736987],[2.269774,41.736891],[2.269867,41.736713],[2.269974,41.736499],[2.270051,41.736431],[2.270233,41.736357],[2.270411,41.736303],[2.27061,41.736239],[2.270762,41.736192],[2.270858,41.73616],[2.270898,41.736134],[2.271001,41.736137],[2.27108,41.736139],[2.27119,41.736129],[2.271241,41.736114],[2.2713,41.736082],[2.271337,41.736044],[2.271386,41.735984],[2.271426,41.735948],[2.271482,41.735907],[2.27158,41.735849],[2.27168,41.735798],[2.271728,41.735774],[2.271812,41.735772],[2.271888,41.73578],[2.272028,41.735816],[2.272199,41.735868],[2.272329,41.735902],[2.272413,41.735922],[2.272601,41.73597],[2.272692,41.736001],[2.272801,41.736042],[2.272879,41.736077],[2.272934,41.736043],[2.272983,41.735969],[2.27303,41.735837],[2.273031,41.735803],[2.272993,41.735785],[2.272871,41.73575],[2.272814,41.735713],[2.272736,41.735688],[2.272651,41.735645],[2.272554,41.735592],[2.27247,41.735548],[2.272345,41.735521],[2.272177,41.735501],[2.272034,41.735502],[2.271822,41.735505],[2.271646,41.735497],[2.271495,41.735504],[2.271382,41.735531],[2.271294,41.735563],[2.271219,41.735605],[2.271186,41.73565],[2.271148,41.735653],[2.271108,41.735631],[2.271053,41.735598],[2.271001,41.735583],[2.27093,41.73558],[2.270866,41.7356],[2.270734,41.73565],[2.27067,41.73567],[2.270523,41.73569],[2.270447,41.735711],[2.270432,41.735651],[2.270203,41.735635],[2.269993,41.735615],[2.269847,41.735622],[2.269691,41.735648],[2.269525,41.735706],[2.269355,41.735769],[2.269182,41.735871],[2.269153,41.735971],[2.269135,41.736135],[2.26914,41.736171],[2.26914,41.7362],[2.269134,41.736242],[2.269122,41.736283],[2.2691,41.736337],[2.269063,41.736418],[2.269022,41.736498],[2.268971,41.736582],[2.268922,41.736666],[2.268941,41.736807],[2.268928,41.736832],[2.268908,41.736866],[2.268878,41.736892],[2.268847,41.736919],[2.268815,41.736945],[2.268761,41.737006],[2.26871,41.737038],[2.268667,41.737044],[2.268583,41.737106],[2.268502,41.73717],[2.268395,41.737261],[2.268289,41.73735],[2.268222,41.737404],[2.268156,41.737458],[2.268116,41.737494],[2.268075,41.737528],[2.267997,41.73758],[2.267917,41.73763],[2.267818,41.737697],[2.267722,41.737765],[2.267612,41.737849],[2.267502,41.737932],[2.267444,41.737972],[2.267385,41.738013],[2.267264,41.738123],[2.267255,41.738124],[2.267242,41.738126],[2.267116,41.738284],[2.26682,41.738174],[2.267224,41.737668],[2.2681,41.736853],[2.267839,41.736733],[2.267751,41.736841],[2.267661,41.736938],[2.267608,41.736995],[2.26757,41.737036],[2.267516,41.737088],[2.267458,41.737137],[2.267413,41.73717],[2.267361,41.737197],[2.267315,41.737215],[2.267248,41.737268],[2.267207,41.73728],[2.267166,41.737291],[2.26713,41.737306],[2.267099,41.737327],[2.267073,41.737349],[2.26705,41.737372],[2.26702,41.737405],[2.266994,41.737439],[2.266978,41.737468],[2.266914,41.737523],[2.266882,41.737554],[2.266834,41.737557],[2.266758,41.737619],[2.266702,41.737631],[2.266367,41.737859],[2.266206,41.738023],[2.266056,41.738177],[2.266006,41.738251],[2.265636,41.738638],[2.265666,41.738654],[2.265931,41.738788],[2.266127,41.738888],[2.266206,41.73893],[2.266235,41.738947],[2.266303,41.738982],[2.265726,41.739682],[2.265692,41.739715],[2.265658,41.739749],[2.265567,41.739835],[2.265477,41.739921],[2.265425,41.739976],[2.265377,41.740026],[2.265275,41.740133],[2.265239,41.740169],[2.265102,41.740535],[2.265448,41.740702],[2.265416,41.740721],[2.265384,41.740746],[2.265318,41.740857],[2.265347,41.740897],[2.265379,41.740934],[2.265504,41.741015],[2.26562,41.741088],[2.265748,41.741167],[2.265875,41.741247],[2.265922,41.741281],[2.265965,41.741317],[2.266045,41.741395],[2.266131,41.741481],[2.266218,41.741567],[2.266251,41.741607],[2.266283,41.741646],[2.266309,41.741674],[2.266337,41.741701],[2.266397,41.741753],[2.266461,41.741805],[2.266526,41.741856],[2.266566,41.741886],[2.266607,41.741913],[2.266636,41.741928],[2.266676,41.741944],[2.266725,41.741965],[2.266762,41.741992],[2.266878,41.742072],[2.266911,41.742077],[2.266945,41.742112],[2.26697,41.742141],[2.267009,41.74218],[2.267049,41.742218],[2.267092,41.742236],[2.267138,41.742283],[2.267191,41.742289],[2.267232,41.742276],[2.267271,41.742264],[2.267303,41.742244],[2.267334,41.742209],[2.267351,41.742166],[2.267349,41.742118],[2.267345,41.742078],[2.26734,41.742011],[2.267334,41.741944],[2.267331,41.741906],[2.26733,41.741857],[2.267352,41.74182]]],[[[2.268672,41.742381],[2.268665,41.742127],[2.268789,41.742249],[2.2689,41.74223],[2.269009,41.742213],[2.269005,41.742174],[2.268994,41.742077],[2.268991,41.74202],[2.268973,41.741925],[2.268975,41.741868],[2.268976,41.741804],[2.268963,41.741761],[2.268942,41.741737],[2.268873,41.741695],[2.268803,41.741654],[2.268757,41.741627],[2.268697,41.74159],[2.26866,41.741574],[2.268637,41.741555],[2.268598,41.741518],[2.268558,41.741484],[2.268504,41.741437],[2.268398,41.741464],[2.268326,41.741475],[2.26835,41.741592],[2.268361,41.741657],[2.268371,41.741729],[2.26838,41.741801],[2.268395,41.741886],[2.268411,41.741972],[2.268423,41.742048],[2.268433,41.742124],[2.268444,41.742217],[2.268452,41.742282],[2.268447,41.742306],[2.268513,41.742341],[2.268545,41.742361],[2.268598,41.742372],[2.268672,41.742381]]]]}},{"type":"Feature","id":"082763_082763 AP05 VOR 2","properties":{"area_id":"082763_082763 AP05 VOR 2","nom":"el Solell","codi_icgc":"082763 AP05 VOR 2","categoria":"Àrees de poblament","codi_municipi":"082763","municipi":"Tagamanent","codi_comarca":"41","comarca":"Vallès Oriental","provincia":"Barcelona","font":"ICGC Àrees de poblament v3r1 202602"},"geometry":{"type":"MultiPolygon","coordinates":[[[[2.277391,41.728813],[2.277429,41.728766],[2.277466,41.72878],[2.277493,41.728745],[2.277451,41.728728],[2.277536,41.728681],[2.277551,41.728688],[2.277649,41.72875],[2.277742,41.728796],[2.277813,41.728839],[2.277913,41.728868],[2.278006,41.728895],[2.27806,41.728898],[2.278123,41.728891],[2.278226,41.72887],[2.278234,41.728985],[2.278233,41.729072],[2.278274,41.729102],[2.278657,41.728989],[2.278705,41.729015],[2.278799,41.728992],[2.278792,41.728943],[2.27881,41.728914],[2.278791,41.728794],[2.278818,41.728788],[2.279027,41.728875],[2.279094,41.728779],[2.278684,41.728654],[2.278674,41.728727],[2.278541,41.728757],[2.27839,41.728794],[2.278216,41.728832],[2.278132,41.728852],[2.27809,41.728852],[2.278071,41.728837],[2.278051,41.72881],[2.278027,41.728689],[2.278047,41.72846],[2.277,41.72814],[2.276993,41.728216],[2.276987,41.728373],[2.27698,41.728412],[2.277076,41.728686],[2.277391,41.728813]]]]}},{"type":"Feature","id":"082763_082763 AP03 VOR 3","properties":{"area_id":"082763_082763 AP03 VOR 3","nom":"la Pedralba","codi_icgc":"082763 AP03 VOR 3","categoria":"Àrees de poblament","codi_municipi":"082763","municipi":"Tagamanent","codi_comarca":"41","comarca":"Vallès Oriental","provincia":"Barcelona","font":"ICGC Àrees de poblament v3r1 202602"},"geometry":{"type":"MultiPolygon","coordinates":[[[[2.267513,41.743351],[2.267521,41.743282],[2.267521,41.743282],[2.267659,41.743293],[2.267759,41.743292],[2.267804,41.743249],[2.267877,41.743173],[2.268023,41.743249],[2.268132,41.74302],[2.268154,41.74293],[2.26817,41.74285],[2.267681,41.74281],[2.267698,41.742659],[2.267621,41.742599],[2.267303,41.742559],[2.267178,41.74254],[2.267089,41.742526],[2.267026,41.742454],[2.266996,41.742439],[2.266972,41.74242],[2.266918,41.742394],[2.266859,41.742373],[2.266792,41.742356],[2.266691,41.742335],[2.266641,41.742324],[2.266592,41.742311],[2.266538,41.742291],[2.26646,41.742259],[2.266378,41.742229],[2.266341,41.742221],[2.266236,41.742182],[2.266147,41.742139],[2.266055,41.74209],[2.265946,41.742032],[2.26588,41.741995],[2.265782,41.741941],[2.265685,41.741887],[2.265593,41.741832],[2.265503,41.741775],[2.265465,41.741748],[2.265406,41.741706],[2.265371,41.741682],[2.265338,41.74166],[2.265103,41.741572],[2.264965,41.741559],[2.264915,41.741568],[2.264859,41.74158],[2.264835,41.741605],[2.264819,41.741676],[2.264809,41.741739],[2.264794,41.741848],[2.264787,41.741903],[2.264781,41.741958],[2.264779,41.74199],[2.264781,41.74204],[2.264787,41.742089],[2.264796,41.742134],[2.264806,41.742167],[2.264825,41.742216],[2.264853,41.742263],[2.264882,41.742299],[2.264913,41.742333],[2.26494,41.742362],[2.264976,41.742392],[2.265008,41.742402],[2.26504,41.74241],[2.265074,41.74241],[2.265087,41.742437],[2.265112,41.74247],[2.265258,41.74261],[2.265352,41.742718],[2.265369,41.74274],[2.2654,41.742779],[2.265435,41.742853],[2.265467,41.742903],[2.265499,41.742952],[2.265521,41.742988],[2.265542,41.743025],[2.265565,41.743071],[2.265588,41.743117],[2.26562,41.743172],[2.265648,41.743219],[2.265829,41.743371],[2.265946,41.743466],[2.26599,41.743466],[2.266125,41.743467],[2.266172,41.743492],[2.26622,41.743518],[2.26625,41.743537],[2.266291,41.743569],[2.266335,41.743599],[2.266382,41.743625],[2.266443,41.743655],[2.266494,41.743678],[2.266533,41.743696],[2.266574,41.743712],[2.266615,41.743729],[2.266649,41.743746],[2.266681,41.743764],[2.266709,41.743783],[2.266733,41.743826],[2.266749,41.743861],[2.266767,41.743899],[2.266785,41.743936],[2.266796,41.743964],[2.266801,41.744002],[2.266847,41.744019],[2.266885,41.743999],[2.266887,41.743923],[2.266928,41.743908],[2.266969,41.743892],[2.267039,41.743862],[2.267104,41.743828],[2.267171,41.743788],[2.267239,41.743748],[2.267278,41.743731],[2.267326,41.743709],[2.267361,41.743682],[2.267382,41.743658],[2.267475,41.743517],[2.267487,41.743489],[2.267496,41.743462],[2.267506,41.743406],[2.267513,41.743351]]]]}}]}