{"type":"FeatureCollection","name":"ICGC Àrees de poblament - Sitges","features":[{"type":"Feature","id":"082704_082704 AP12 GAF 2","properties":{"area_id":"082704_082704 AP12 GAF 2","nom":"Aiguadolç","codi_icgc":"082704 AP12 GAF 2","categoria":"Àrees de poblament","codi_municipi":"082704","municipi":"Sitges","codi_comarca":"17","comarca":"Garraf","provincia":"Barcelona","font":"ICGC Àrees de poblament v3r1 202602"},"geometry":{"type":"MultiPolygon","coordinates":[[[[1.825848,41.237506],[1.825969,41.237507],[1.826089,41.237508],[1.826259,41.237509],[1.82639,41.23751],[1.826428,41.23751],[1.826457,41.237511],[1.826505,41.237513],[1.826583,41.237515],[1.826724,41.237511],[1.826866,41.237505],[1.82705,41.237498],[1.827233,41.237489],[1.82741,41.237478],[1.827586,41.237461],[1.827677,41.237449],[1.827693,41.237447],[1.827799,41.23743],[1.827882,41.237417],[1.827912,41.237412],[1.828025,41.237394],[1.828028,41.237361],[1.828661,41.237228],[1.828661,41.23725],[1.82867,41.237249],[1.828676,41.237223],[1.8287,41.237183],[1.828721,41.237167],[1.828738,41.237164],[1.828753,41.237161],[1.8288,41.237161],[1.828825,41.237162],[1.828868,41.237166],[1.828921,41.237167],[1.828973,41.237167],[1.829008,41.23716],[1.82904,41.237145],[1.829064,41.237127],[1.829083,41.237105],[1.829096,41.237075],[1.829096,41.237045],[1.829053,41.236987],[1.829031,41.236977],[1.829001,41.23697],[1.828972,41.236962],[1.828973,41.236936],[1.828973,41.236917],[1.828951,41.236914],[1.828842,41.236908],[1.828846,41.236867],[1.828825,41.23686],[1.828249,41.236825],[1.828257,41.236732],[1.827884,41.236705],[1.827891,41.236638],[1.827799,41.236633],[1.827801,41.236608],[1.827373,41.236578],[1.827147,41.236565],[1.827146,41.236587],[1.826897,41.236571],[1.826872,41.236549],[1.826758,41.236448],[1.826744,41.236436],[1.82672,41.236415],[1.82671,41.236406],[1.826731,41.236213],[1.826715,41.23618],[1.826663,41.236067],[1.826662,41.236066],[1.826724,41.235991],[1.826745,41.235965],[1.826837,41.23585],[1.826929,41.235735],[1.82695,41.235705],[1.826969,41.235674],[1.826984,41.235647],[1.826993,41.235618],[1.826996,41.235591],[1.826996,41.235565],[1.826995,41.235528],[1.826991,41.235491],[1.826982,41.23546],[1.826969,41.235429],[1.826955,41.2354],[1.826938,41.235372],[1.826912,41.235339],[1.826881,41.235308],[1.82685,41.235281],[1.826816,41.235256],[1.826778,41.235236],[1.826736,41.23522],[1.826711,41.235213],[1.826685,41.235208],[1.82663,41.235208],[1.826605,41.235209],[1.826523,41.235212],[1.826439,41.235224],[1.826256,41.235255],[1.826235,41.235256],[1.826233,41.235251],[1.826043,41.235287],[1.826025,41.235295],[1.825984,41.235303],[1.825977,41.235289],[1.825841,41.235311],[1.825639,41.235143],[1.825601,41.235111],[1.825553,41.235062],[1.825525,41.235034],[1.825466,41.234988],[1.825388,41.234968],[1.825346,41.234968],[1.825277,41.234969],[1.824959,41.234934],[1.824879,41.234929],[1.824754,41.234922],[1.824705,41.234912],[1.824647,41.234913],[1.824382,41.234933],[1.82432,41.234945],[1.824076,41.23499],[1.823891,41.234979],[1.823605,41.234966],[1.823606,41.234951],[1.823505,41.234946],[1.823503,41.234959],[1.823342,41.234951],[1.822726,41.234924],[1.822725,41.234924],[1.822725,41.234924],[1.822725,41.234924],[1.822473,41.234912],[1.821945,41.234859],[1.821957,41.234787],[1.821951,41.234786],[1.821368,41.234752],[1.821367,41.234761],[1.821346,41.234986],[1.821354,41.235007],[1.821363,41.235028],[1.821369,41.23504],[1.821378,41.235052],[1.821386,41.23506],[1.821396,41.235066],[1.82141,41.235072],[1.821414,41.235073],[1.821418,41.235073],[1.821424,41.235071],[1.821431,41.235066],[1.821437,41.23506],[1.821448,41.23505],[1.821455,41.235044],[1.821469,41.235034],[1.821516,41.23503],[1.821491,41.23512],[1.821529,41.235127],[1.821517,41.235226],[1.821494,41.235227],[1.82149,41.235323],[1.821467,41.235325],[1.821446,41.235497],[1.821409,41.235497],[1.821404,41.235602],[1.821381,41.235602],[1.821379,41.235604],[1.821367,41.235693],[1.821342,41.235693],[1.821342,41.235698],[1.821306,41.235698],[1.821303,41.235713],[1.82125,41.235713],[1.821236,41.235837],[1.821209,41.235833],[1.82119,41.236018],[1.82118,41.236104],[1.82106,41.23619],[1.821024,41.236199],[1.820729,41.236161],[1.820429,41.236124],[1.820195,41.236175],[1.819975,41.236285],[1.819564,41.236318],[1.819325,41.236246],[1.819168,41.236202],[1.819152,41.236206],[1.819136,41.236204],[1.819066,41.236248],[1.819013,41.236254],[1.818879,41.236246],[1.818779,41.236206],[1.818708,41.236185],[1.818543,41.236158],[1.818383,41.236134],[1.818366,41.236408],[1.818476,41.236409],[1.818484,41.236433],[1.818506,41.236505],[1.818506,41.236505],[1.81844,41.236601],[1.818425,41.236623],[1.818424,41.23667],[1.81842,41.236873],[1.818528,41.23701],[1.818557,41.237047],[1.818854,41.23712],[1.81897,41.23713],[1.81936,41.237164],[1.81945,41.237169],[1.819749,41.237186],[1.820046,41.237202],[1.820048,41.237202],[1.820127,41.237206],[1.820144,41.237207],[1.82027,41.237213],[1.820972,41.23725],[1.820972,41.23725],[1.820972,41.23725],[1.821028,41.237254],[1.821047,41.237255],[1.82109,41.237257],[1.821134,41.237259],[1.821156,41.237259],[1.821464,41.237278],[1.821503,41.237281],[1.821678,41.237284],[1.821692,41.237285],[1.821975,41.237303],[1.822042,41.237308],[1.822146,41.237313],[1.822249,41.237317],[1.822416,41.237326],[1.82257,41.237333],[1.822584,41.237334],[1.822763,41.237342],[1.822942,41.237348],[1.822964,41.237348],[1.822986,41.237345],[1.82424,41.237426],[1.824688,41.237444],[1.824743,41.237447],[1.824824,41.237452],[1.825205,41.237476],[1.825351,41.237482],[1.825383,41.237474],[1.825516,41.237473],[1.825529,41.237492],[1.82558,41.237504],[1.825698,41.237507],[1.825773,41.237506],[1.825848,41.237506]]]]}},{"type":"Feature","id":"082704_082704 AP06 GAF 2","properties":{"area_id":"082704_082704 AP06 GAF 2","nom":"Campdàsens","codi_icgc":"082704 AP06 GAF 2","categoria":"Àrees de poblament","codi_municipi":"082704","municipi":"Sitges","codi_comarca":"17","comarca":"Garraf","provincia":"Barcelona","font":"ICGC Àrees de poblament v3r1 202602"},"geometry":{"type":"MultiPolygon","coordinates":[[[[1.878206,41.260479],[1.878628,41.260704],[1.878711,41.260972],[1.878842,41.261105],[1.878913,41.261117],[1.879072,41.261071],[1.879208,41.260971],[1.87921,41.26087],[1.87911,41.26069],[1.878915,41.260534],[1.878878,41.260438],[1.878847,41.260384],[1.878786,41.260282],[1.878667,41.260263],[1.878422,41.260273],[1.878256,41.260313],[1.878183,41.260395],[1.878206,41.260479]]]]}},{"type":"Feature","id":"082704_082704 AP18 GAF 2","properties":{"area_id":"082704_082704 AP18 GAF 2","nom":"Can Canyes","codi_icgc":"082704 AP18 GAF 2","categoria":"Àrees de poblament","codi_municipi":"082704","municipi":"Sitges","codi_comarca":"17","comarca":"Garraf","provincia":"Barcelona","font":"ICGC Àrees de poblament v3r1 202602"},"geometry":{"type":"MultiPolygon","coordinates":[[[[1.905312,41.258285],[1.905386,41.258185],[1.905445,41.258199],[1.905433,41.258141],[1.905425,41.258097],[1.905422,41.258083],[1.905411,41.258018],[1.905406,41.257952],[1.905406,41.257887],[1.90541,41.257821],[1.905417,41.25776],[1.905428,41.257699],[1.905449,41.257629],[1.905478,41.257561],[1.905536,41.257451],[1.9056,41.257343],[1.905649,41.257275],[1.905673,41.257241],[1.905693,41.257205],[1.905729,41.257131],[1.905764,41.257056],[1.905737,41.25705],[1.905657,41.257032],[1.90547,41.256989],[1.905417,41.256969],[1.905393,41.25696],[1.905381,41.256957],[1.90537,41.256954],[1.905369,41.256954],[1.905344,41.256948],[1.905318,41.256944],[1.905305,41.256945],[1.905292,41.256951],[1.905285,41.256955],[1.905282,41.256959],[1.905162,41.256908],[1.905084,41.256875],[1.905139,41.256805],[1.905751,41.256044],[1.905876,41.255912],[1.906279,41.255488],[1.905952,41.255442],[1.905459,41.255422],[1.90488,41.25541],[1.904478,41.255528],[1.904533,41.255662],[1.904653,41.255644],[1.904779,41.255683],[1.904812,41.256095],[1.904824,41.256254],[1.904223,41.256715],[1.904213,41.256775],[1.904189,41.256873],[1.90422,41.256901],[1.904373,41.256941],[1.904442,41.25691],[1.904927,41.257199],[1.904907,41.257223],[1.904908,41.257224],[1.905115,41.257354],[1.905065,41.257475],[1.90505,41.257512],[1.905028,41.257568],[1.905006,41.257625],[1.904993,41.257663],[1.904985,41.257704],[1.904984,41.257719],[1.904992,41.257854],[1.904999,41.258009],[1.904959,41.258102],[1.904993,41.258161],[1.904995,41.25816],[1.905312,41.258285]]]]}},{"type":"Feature","id":"082704_082704 AP15 GAF 2","properties":{"area_id":"082704_082704 AP15 GAF 2","nom":"Cases del Mallorquí","codi_icgc":"082704 AP15 GAF 2","categoria":"Àrees de poblament","codi_municipi":"082704","municipi":"Sitges","codi_comarca":"17","comarca":"Garraf","provincia":"Barcelona","font":"ICGC Àrees de poblament v3r1 202602"},"geometry":{"type":"MultiPolygon","coordinates":[[[[1.815599,41.251772],[1.815699,41.251825],[1.816235,41.25209],[1.81612,41.252182],[1.816273,41.252256],[1.816419,41.252333],[1.816472,41.252342],[1.816535,41.252339],[1.816575,41.252315],[1.816595,41.25228],[1.816605,41.25221],[1.816608,41.252168],[1.816579,41.2521],[1.816477,41.251994],[1.816476,41.251932],[1.816444,41.251614],[1.816406,41.25159],[1.816404,41.25159],[1.816342,41.251558],[1.816162,41.251683],[1.816072,41.251651],[1.815913,41.251581],[1.815886,41.251565],[1.816042,41.251498],[1.815967,41.251455],[1.815911,41.251366],[1.815896,41.25136],[1.815696,41.251356],[1.81538,41.251406],[1.815333,41.251366],[1.8153,41.251357],[1.815246,41.25136],[1.814869,41.251455],[1.814858,41.251522],[1.814885,41.251573],[1.81498,41.251549],[1.814966,41.251554],[1.81496,41.251556],[1.815019,41.251594],[1.815055,41.251617],[1.815167,41.251677],[1.815234,41.251714],[1.815235,41.251714],[1.815335,41.251768],[1.815438,41.251681],[1.815473,41.251705],[1.815536,41.251738],[1.815599,41.251772]]]]}},{"type":"Feature","id":"082704_082704 AP17 GAF 3","properties":{"area_id":"082704_082704 AP17 GAF 3","nom":"Garraf","codi_icgc":"082704 AP17 GAF 3","categoria":"Àrees de poblament","codi_municipi":"082704","municipi":"Sitges","codi_comarca":"17","comarca":"Garraf","provincia":"Barcelona","font":"ICGC Àrees de poblament v3r1 202602"},"geometry":{"type":"MultiPolygon","coordinates":[[[[1.905004,41.254631],[1.905021,41.254593],[1.904659,41.254501],[1.904652,41.254516],[1.904399,41.254451],[1.904324,41.254431],[1.904323,41.254437],[1.904314,41.254436],[1.904173,41.254412],[1.903891,41.254347],[1.903877,41.25434],[1.903757,41.254302],[1.903736,41.254298],[1.903545,41.254242],[1.903347,41.254184],[1.90333,41.254178],[1.903234,41.254155],[1.903124,41.254109],[1.903001,41.254025],[1.902899,41.253955],[1.902872,41.25391],[1.902827,41.253835],[1.90281,41.253814],[1.902795,41.253785],[1.902797,41.253783],[1.902793,41.253782],[1.902812,41.253694],[1.902829,41.253667],[1.902845,41.253587],[1.9029,41.253522],[1.90298,41.253498],[1.902998,41.253488],[1.903005,41.253487],[1.903003,41.253484],[1.903012,41.253477],[1.903004,41.253469],[1.903002,41.253458],[1.903008,41.253449],[1.90302,41.253442],[1.903034,41.253442],[1.903047,41.253446],[1.90305,41.253449],[1.903061,41.253441],[1.903035,41.253376],[1.903047,41.253373],[1.903046,41.253353],[1.903065,41.253347],[1.903071,41.253303],[1.903013,41.253265],[1.903007,41.253235],[1.903026,41.253232],[1.903023,41.253213],[1.903013,41.253202],[1.903014,41.253202],[1.903018,41.253196],[1.903032,41.253185],[1.90303,41.253177],[1.90302,41.253165],[1.903005,41.253156],[1.902986,41.253153],[1.902953,41.253179],[1.902962,41.253131],[1.902988,41.253051],[1.902984,41.253037],[1.902973,41.253025],[1.902958,41.253018],[1.902948,41.252965],[1.902869,41.252857],[1.902824,41.252884],[1.90264,41.252704],[1.902642,41.2527],[1.902649,41.252682],[1.902647,41.252662],[1.902639,41.252644],[1.902562,41.252566],[1.902572,41.25256],[1.902576,41.25255],[1.902573,41.25254],[1.902564,41.252532],[1.90255,41.252529],[1.902537,41.252532],[1.902527,41.25254],[1.902523,41.252545],[1.902511,41.252554],[1.902498,41.252552],[1.902482,41.252536],[1.902476,41.25252],[1.902476,41.252504],[1.902478,41.252489],[1.902477,41.252488],[1.902472,41.252482],[1.902458,41.25247],[1.90244,41.252463],[1.902419,41.252461],[1.902398,41.252465],[1.902381,41.252474],[1.902375,41.252502],[1.90233,41.252518],[1.902321,41.252546],[1.902302,41.252554],[1.902231,41.252586],[1.90218,41.252599],[1.902129,41.252529],[1.902062,41.252456],[1.901986,41.252428],[1.901891,41.252396],[1.901871,41.252381],[1.901823,41.252348],[1.901781,41.252322],[1.901736,41.252301],[1.901685,41.252284],[1.90163,41.252271],[1.901566,41.252259],[1.901501,41.252252],[1.90138,41.252247],[1.901259,41.252244],[1.90117,41.252242],[1.90108,41.252241],[1.900993,41.252236],[1.900906,41.25223],[1.900799,41.252222],[1.900691,41.252211],[1.9006,41.252198],[1.900511,41.252179],[1.900444,41.252164],[1.900377,41.252149],[1.900257,41.252122],[1.900136,41.252093],[1.900022,41.252062],[1.899911,41.252029],[1.899792,41.251998],[1.899672,41.251968],[1.899574,41.25194],[1.899393,41.251871],[1.899281,41.251828],[1.899261,41.251825],[1.899074,41.251804],[1.899049,41.251806],[1.899036,41.251811],[1.899023,41.251818],[1.899005,41.251832],[1.89899,41.251848],[1.898978,41.251864],[1.89897,41.251882],[1.898963,41.251917],[1.898957,41.251952],[1.898951,41.251984],[1.898947,41.252011],[1.898953,41.252029],[1.898941,41.252083],[1.898941,41.252085],[1.89894,41.25209],[1.898962,41.252106],[1.89915,41.252232],[1.899546,41.252499],[1.899608,41.252529],[1.899822,41.252633],[1.900264,41.252817],[1.900671,41.253031],[1.901156,41.253296],[1.901484,41.253507],[1.901764,41.253653],[1.901787,41.253666],[1.901972,41.253772],[1.902044,41.253808],[1.90237,41.253972],[1.902445,41.253993],[1.902467,41.254],[1.902479,41.253998],[1.902473,41.253964],[1.902537,41.25394],[1.902576,41.25392],[1.902586,41.253868],[1.902613,41.253904],[1.902664,41.253969],[1.902716,41.254035],[1.902747,41.254067],[1.902784,41.254097],[1.902835,41.254131],[1.902887,41.254162],[1.902936,41.254189],[1.902986,41.254214],[1.903254,41.254313],[1.903381,41.25435],[1.903509,41.254387],[1.903657,41.254425],[1.903804,41.254463],[1.903981,41.254512],[1.904156,41.254563],[1.904176,41.254569],[1.904276,41.2546],[1.904396,41.254636],[1.904547,41.254683],[1.90457,41.25469],[1.904625,41.254613],[1.905032,41.254722],[1.905034,41.254717],[1.905066,41.254646],[1.905004,41.254631]]],[[[1.902445,41.257946],[1.90245,41.257925],[1.902452,41.257904],[1.902455,41.257887],[1.902454,41.257879],[1.90245,41.257872],[1.90244,41.257861],[1.902429,41.25785],[1.902431,41.257845],[1.902446,41.257813],[1.902473,41.257751],[1.902507,41.257677],[1.902517,41.257657],[1.902525,41.257639],[1.902554,41.257581],[1.902634,41.257528],[1.902909,41.257232],[1.902928,41.257214],[1.902949,41.257199],[1.902995,41.257168],[1.903022,41.257145],[1.903059,41.257098],[1.903086,41.257049],[1.903097,41.257014],[1.903103,41.25698],[1.903102,41.256944],[1.903098,41.256922],[1.903082,41.256875],[1.903063,41.25683],[1.903045,41.256803],[1.903027,41.256776],[1.903023,41.256757],[1.903024,41.256713],[1.903026,41.256669],[1.903064,41.256555],[1.903175,41.256455],[1.903208,41.256426],[1.90322,41.256373],[1.903221,41.256324],[1.903216,41.256289],[1.903203,41.256255],[1.903183,41.256223],[1.903157,41.256194],[1.903125,41.256169],[1.903087,41.256148],[1.903046,41.256132],[1.903042,41.256131],[1.903083,41.256134],[1.903121,41.256139],[1.903159,41.256149],[1.903199,41.256167],[1.903228,41.256186],[1.903236,41.256194],[1.903406,41.256096],[1.903414,41.256063],[1.903421,41.256087],[1.903434,41.25611],[1.903454,41.256129],[1.90346,41.256133],[1.90362,41.256039],[1.903786,41.255803],[1.903812,41.255764],[1.903821,41.255751],[1.903984,41.255535],[1.903989,41.255522],[1.904031,41.255422],[1.904066,41.255374],[1.9041,41.255343],[1.904131,41.255301],[1.904204,41.255203],[1.904293,41.255079],[1.90338,41.254769],[1.902427,41.254341],[1.902424,41.254344],[1.902298,41.254283],[1.90181,41.254049],[1.901384,41.253807],[1.901144,41.253739],[1.900966,41.253902],[1.900966,41.253904],[1.900982,41.253949],[1.90099,41.253973],[1.901001,41.253996],[1.901016,41.254017],[1.901033,41.254037],[1.901072,41.254073],[1.901153,41.254144],[1.901235,41.254215],[1.90129,41.254267],[1.901166,41.254382],[1.901131,41.254415],[1.901041,41.254449],[1.900965,41.254389],[1.900822,41.254472],[1.90069,41.254548],[1.900374,41.254737],[1.90023,41.254816],[1.900091,41.254897],[1.900294,41.255087],[1.900406,41.255186],[1.900521,41.255289],[1.900654,41.255404],[1.900763,41.255511],[1.900894,41.255664],[1.901014,41.255862],[1.901027,41.255873],[1.901139,41.255972],[1.901169,41.256016],[1.901251,41.256137],[1.901254,41.256141],[1.901349,41.25632],[1.901374,41.256412],[1.901398,41.256502],[1.901424,41.25666],[1.901437,41.256755],[1.90146,41.256913],[1.901472,41.257003],[1.901551,41.25698],[1.901534,41.256998],[1.901518,41.257016],[1.901511,41.257032],[1.901512,41.257049],[1.901517,41.257069],[1.901528,41.257087],[1.901566,41.257128],[1.901596,41.257165],[1.901647,41.257224],[1.901713,41.2573],[1.902029,41.257555],[1.902125,41.257747],[1.90218,41.257855],[1.902287,41.25791],[1.902356,41.25795],[1.902366,41.25794],[1.902393,41.257953],[1.902432,41.257972],[1.902445,41.257946]]]]}},{"type":"Feature","id":"082704_082704 AP08 GAF 1","properties":{"area_id":"082704_082704 AP08 GAF 1","nom":"Garraf II","codi_icgc":"082704 AP08 GAF 1","categoria":"Àrees de poblament","codi_municipi":"082704","municipi":"Sitges","codi_comarca":"17","comarca":"Garraf","provincia":"Barcelona","font":"ICGC Àrees de poblament v3r1 202602"},"geometry":{"type":"MultiPolygon","coordinates":[[[[1.935833,41.267447],[1.935787,41.267551],[1.935728,41.26758],[1.935721,41.26758],[1.935542,41.267563],[1.935423,41.267631],[1.935359,41.267656],[1.935303,41.267745],[1.935313,41.267823],[1.935257,41.267908],[1.935246,41.268051],[1.935296,41.26815],[1.93535,41.268243],[1.935568,41.268171],[1.935759,41.268119],[1.935976,41.268079],[1.93606,41.268247],[1.936106,41.268363],[1.936136,41.268462],[1.936135,41.268545],[1.936105,41.268677],[1.936086,41.268868],[1.936088,41.268996],[1.936118,41.269098],[1.936213,41.269286],[1.936372,41.269499],[1.93648,41.269649],[1.936565,41.26979],[1.93661,41.269886],[1.936594,41.269939],[1.93655,41.269963],[1.936502,41.269971],[1.936447,41.269956],[1.936375,41.269958],[1.936131,41.270097],[1.936324,41.27038],[1.936428,41.270353],[1.936877,41.270127],[1.93681,41.270008],[1.937008,41.270041],[1.937127,41.270143],[1.937148,41.27022],[1.937168,41.270295],[1.937211,41.270459],[1.937214,41.270465],[1.937229,41.270485],[1.937253,41.270497],[1.937276,41.270502],[1.93728,41.270503],[1.937309,41.270504],[1.937337,41.2705],[1.937362,41.270489],[1.937383,41.270475],[1.937392,41.270462],[1.937409,41.270439],[1.937421,41.270414],[1.937433,41.270384],[1.937437,41.270369],[1.937445,41.27033],[1.937448,41.270304],[1.937582,41.270299],[1.937824,41.27029],[1.937926,41.269993],[1.938067,41.269991],[1.938186,41.269989],[1.938438,41.270254],[1.938902,41.270215],[1.938914,41.270239],[1.938944,41.270233],[1.93904,41.270213],[1.939023,41.270163],[1.939109,41.270148],[1.939208,41.27011],[1.938927,41.269557],[1.938719,41.269113],[1.938683,41.269039],[1.938661,41.268958],[1.938646,41.26889],[1.938738,41.268871],[1.938653,41.268707],[1.938792,41.268612],[1.938806,41.268603],[1.938958,41.268505],[1.939119,41.26841],[1.939132,41.268403],[1.939283,41.268309],[1.939263,41.268286],[1.939193,41.268205],[1.939399,41.268101],[1.939557,41.268062],[1.939792,41.268092],[1.94002,41.268094],[1.940194,41.268096],[1.940245,41.268088],[1.940438,41.268059],[1.940407,41.267966],[1.940715,41.267893],[1.941045,41.267811],[1.941063,41.267613],[1.941012,41.267507],[1.941054,41.267492],[1.941112,41.267471],[1.941184,41.267448],[1.941247,41.267428],[1.941308,41.267413],[1.941354,41.267401],[1.941381,41.267395],[1.941413,41.267386],[1.941437,41.267372],[1.941463,41.267356],[1.941487,41.267334],[1.941505,41.267313],[1.941667,41.267351],[1.94171,41.267323],[1.941724,41.267314],[1.941946,41.267169],[1.941966,41.267156],[1.941992,41.267138],[1.94203,41.267113],[1.942243,41.266974],[1.942249,41.26697],[1.942146,41.266937],[1.942077,41.266926],[1.942004,41.266914],[1.941885,41.266895],[1.941931,41.266782],[1.941937,41.266769],[1.941917,41.266772],[1.941805,41.26674],[1.941668,41.266636],[1.941141,41.266672],[1.940916,41.266704],[1.940732,41.26673],[1.940723,41.266731],[1.940458,41.266769],[1.94043,41.26677],[1.940186,41.266784],[1.939923,41.266793],[1.939492,41.266738],[1.939339,41.266674],[1.939231,41.266646],[1.939006,41.266648],[1.938992,41.266575],[1.938949,41.266554],[1.938861,41.266557],[1.938808,41.26656],[1.938748,41.266512],[1.938754,41.266468],[1.938646,41.266427],[1.938503,41.266349],[1.93847,41.266368],[1.93843,41.266333],[1.938369,41.266329],[1.938291,41.266353],[1.938224,41.266385],[1.938082,41.266439],[1.937838,41.266515],[1.93769,41.266586],[1.937586,41.266659],[1.937432,41.266801],[1.937309,41.266895],[1.937225,41.266952],[1.937182,41.266955],[1.937107,41.26695],[1.937068,41.266967],[1.936926,41.266966],[1.93678,41.266501],[1.936699,41.266244],[1.936551,41.266258],[1.936487,41.266284],[1.936439,41.266317],[1.93643,41.266379],[1.936409,41.26645],[1.936424,41.266516],[1.936512,41.266696],[1.936575,41.266702],[1.936566,41.266762],[1.93655,41.266816],[1.936482,41.266863],[1.936394,41.266907],[1.936307,41.266945],[1.936243,41.266998],[1.936166,41.26708],[1.935838,41.267351],[1.935833,41.267447]]]]}},{"type":"Feature","id":"082704_082704 AP09 GAF 2","properties":{"area_id":"082704_082704 AP09 GAF 2","nom":"Miralpeix","codi_icgc":"082704 AP09 GAF 2","categoria":"Àrees de poblament","codi_municipi":"082704","municipi":"Sitges","codi_comarca":"17","comarca":"Garraf","provincia":"Barcelona","font":"ICGC Àrees de poblament v3r1 202602"},"geometry":{"type":"MultiPolygon","coordinates":[[[[1.776152,41.230575],[1.776131,41.230488],[1.776109,41.230395],[1.776086,41.230302],[1.776068,41.230232],[1.776048,41.230162],[1.776021,41.230079],[1.775989,41.229997],[1.775946,41.229896],[1.775901,41.229794],[1.775853,41.229685],[1.775802,41.229576],[1.775743,41.229455],[1.775683,41.229335],[1.775646,41.229254],[1.775618,41.229186],[1.775611,41.229171],[1.775578,41.229086],[1.775548,41.229],[1.775524,41.228922],[1.775503,41.228844],[1.775498,41.228819],[1.774703,41.228807],[1.774703,41.228674],[1.775011,41.228526],[1.775134,41.228399],[1.775189,41.228142],[1.774779,41.228128],[1.774735,41.228457],[1.774567,41.228597],[1.774091,41.228601],[1.774217,41.22823],[1.774303,41.227934],[1.774293,41.227698],[1.774282,41.227667],[1.774644,41.227627],[1.77482,41.227625],[1.77481,41.227479],[1.774818,41.2275],[1.775439,41.227509],[1.775439,41.227489],[1.775439,41.227347],[1.775439,41.227205],[1.77544,41.227176],[1.77544,41.227146],[1.77544,41.227085],[1.775434,41.227043],[1.77542,41.227],[1.775398,41.226959],[1.77537,41.226921],[1.775342,41.22689],[1.775309,41.226861],[1.775271,41.226834],[1.775229,41.22681],[1.77518,41.226788],[1.775129,41.22677],[1.775083,41.226758],[1.775036,41.226748],[1.774986,41.22674],[1.774935,41.226738],[1.774871,41.226746],[1.77481,41.226756],[1.774711,41.226773],[1.774613,41.226789],[1.774541,41.2268],[1.774469,41.226809],[1.774415,41.226814],[1.774362,41.226816],[1.774306,41.226816],[1.774251,41.226813],[1.774215,41.226808],[1.774127,41.226792],[1.774038,41.226776],[1.773976,41.226767],[1.773915,41.22676],[1.773856,41.226754],[1.773794,41.22675],[1.773721,41.226751],[1.773649,41.226758],[1.773576,41.22677],[1.773504,41.226784],[1.773443,41.226799],[1.773383,41.226818],[1.773345,41.226835],[1.773275,41.226868],[1.773207,41.226902],[1.773146,41.226946],[1.77309,41.226994],[1.773086,41.226997],[1.77304,41.227046],[1.772996,41.227101],[1.772959,41.227158],[1.772929,41.227218],[1.772906,41.22728],[1.772891,41.227343],[1.772883,41.227407],[1.772882,41.227423],[1.77287,41.227539],[1.772858,41.227656],[1.772848,41.227768],[1.772838,41.22788],[1.772831,41.227955],[1.772824,41.22803],[1.772817,41.228071],[1.772806,41.228112],[1.772795,41.22815],[1.772782,41.228187],[1.77276,41.228229],[1.772736,41.228271],[1.772711,41.228313],[1.772686,41.228354],[1.772656,41.228394],[1.772622,41.228433],[1.772585,41.228471],[1.772545,41.228507],[1.772509,41.228535],[1.77247,41.22856],[1.772426,41.228582],[1.77238,41.228602],[1.772341,41.228616],[1.772301,41.228626],[1.772249,41.228636],[1.772195,41.22864],[1.772154,41.228641],[1.772112,41.228639],[1.77207,41.228635],[1.772041,41.228631],[1.772028,41.228629],[1.771975,41.228614],[1.771818,41.228554],[1.771432,41.228404],[1.771375,41.228382],[1.771318,41.22836],[1.771257,41.228337],[1.771192,41.228317],[1.77113,41.228304],[1.771068,41.228294],[1.770997,41.228283],[1.770922,41.228277],[1.770902,41.228277],[1.770842,41.228279],[1.770764,41.228285],[1.770677,41.228291],[1.770663,41.228293],[1.770397,41.228331],[1.770332,41.228339],[1.770267,41.228346],[1.770192,41.22835],[1.770117,41.228348],[1.770041,41.228341],[1.769965,41.228329],[1.76988,41.228311],[1.769799,41.228288],[1.769722,41.228257],[1.769647,41.228222],[1.769583,41.228188],[1.769525,41.22815],[1.769472,41.228107],[1.769424,41.22806],[1.769384,41.228018],[1.769348,41.227975],[1.769315,41.227928],[1.769289,41.227879],[1.769275,41.227846],[1.769257,41.227786],[1.769248,41.227724],[1.769247,41.227675],[1.76925,41.227626],[1.769261,41.227573],[1.769277,41.227521],[1.76929,41.227487],[1.769307,41.227453],[1.769435,41.227302],[1.769498,41.227257],[1.769566,41.227215],[1.769614,41.22719],[1.769751,41.227121],[1.769836,41.227077],[1.769835,41.227077],[1.769938,41.227025],[1.77025,41.226865],[1.77025,41.226865],[1.770354,41.226813],[1.770365,41.226807],[1.770364,41.226807],[1.770599,41.226664],[1.770202,41.226429],[1.769881,41.226292],[1.769865,41.226376],[1.769847,41.226424],[1.769834,41.226414],[1.769806,41.226461],[1.769482,41.226633],[1.769224,41.226756],[1.769095,41.226816],[1.768993,41.226865],[1.76889,41.226914],[1.768818,41.226951],[1.768749,41.226991],[1.76871,41.227018],[1.768672,41.227045],[1.768632,41.227077],[1.768594,41.22711],[1.768558,41.227148],[1.768527,41.227188],[1.768497,41.227232],[1.76841,41.227469],[1.768409,41.227615],[1.768423,41.227778],[1.768061,41.227768],[1.768023,41.228161],[1.767978,41.228378],[1.767879,41.228692],[1.767783,41.228843],[1.767749,41.228891],[1.767745,41.228892],[1.76756,41.22913],[1.767546,41.229186],[1.76753,41.229252],[1.767616,41.229313],[1.768498,41.229054],[1.768553,41.229048],[1.768582,41.22918],[1.768636,41.22927],[1.768729,41.22936],[1.768909,41.229451],[1.768544,41.229806],[1.768552,41.229808],[1.768663,41.229825],[1.768774,41.229842],[1.768957,41.229871],[1.769589,41.229677],[1.769943,41.229629],[1.770014,41.2298],[1.77005,41.229918],[1.770674,41.229566],[1.770611,41.230012],[1.770633,41.230084],[1.77007,41.230623],[1.770088,41.230636],[1.770131,41.230662],[1.77022,41.230712],[1.770267,41.230734],[1.770317,41.230752],[1.770372,41.230769],[1.770457,41.230788],[1.770543,41.230803],[1.770631,41.230816],[1.770719,41.230823],[1.770771,41.230823],[1.770822,41.230817],[1.770903,41.230802],[1.770978,41.230788],[1.771134,41.230758],[1.771463,41.230663],[1.771466,41.230662],[1.771738,41.230574],[1.771739,41.230574],[1.772002,41.230441],[1.772354,41.230261],[1.772388,41.230244],[1.772654,41.230198],[1.772919,41.230176],[1.773017,41.230198],[1.77303,41.230201],[1.773164,41.230241],[1.773299,41.230358],[1.773347,41.230341],[1.77338,41.230344],[1.773446,41.230605],[1.773895,41.230484],[1.773922,41.23053],[1.773986,41.230644],[1.774033,41.230725],[1.774082,41.230805],[1.774134,41.230898],[1.774243,41.230929],[1.774344,41.230942],[1.774272,41.231076],[1.774543,41.23124],[1.774863,41.231433],[1.774881,41.231471],[1.774902,41.231513],[1.774906,41.231522],[1.774925,41.231561],[1.774972,41.231563],[1.775061,41.231572],[1.775149,41.231584],[1.775195,41.231591],[1.775264,41.231602],[1.775333,41.231613],[1.775355,41.231616],[1.775386,41.23162],[1.775418,41.231624],[1.775464,41.231626],[1.77551,41.231624],[1.775536,41.231619],[1.775561,41.231611],[1.775582,41.231602],[1.775603,41.231593],[1.775648,41.231576],[1.775695,41.231562],[1.775722,41.231555],[1.775766,41.231544],[1.775806,41.231535],[1.775918,41.231513],[1.776016,41.231499],[1.776115,41.231482],[1.776219,41.231459],[1.776321,41.231434],[1.776388,41.23142],[1.776391,41.231419],[1.776423,41.231381],[1.776436,41.231315],[1.776438,41.23121],[1.776411,41.231143],[1.776393,41.231095],[1.776378,41.231064],[1.776392,41.230976],[1.776419,41.23092],[1.776419,41.23092],[1.776363,41.230886],[1.776313,41.230848],[1.776268,41.230806],[1.77623,41.230761],[1.776198,41.230713],[1.776177,41.230661],[1.776152,41.230575]]]]}},{"type":"Feature","id":"082704_082704 AP05 GAF 2","properties":{"area_id":"082704_082704 AP05 GAF 2","nom":"Montgavina","codi_icgc":"082704 AP05 GAF 2","categoria":"Àrees de poblament","codi_municipi":"082704","municipi":"Sitges","codi_comarca":"17","comarca":"Garraf","provincia":"Barcelona","font":"ICGC Àrees de poblament v3r1 202602"},"geometry":{"type":"MultiPolygon","coordinates":[[[[1.83181,41.237343],[1.831746,41.237251],[1.831731,41.237195],[1.831723,41.237164],[1.831729,41.237125],[1.83166,41.237012],[1.83166,41.236949],[1.831707,41.236913],[1.831779,41.2369],[1.831786,41.236887],[1.831787,41.236833],[1.831778,41.236811],[1.831728,41.236809],[1.831624,41.236808],[1.831514,41.236639],[1.831361,41.236679],[1.831413,41.236775],[1.831455,41.236787],[1.831513,41.236828],[1.831519,41.236849],[1.831521,41.236905],[1.831459,41.23699],[1.831349,41.237051],[1.831344,41.237081],[1.83133,41.237157],[1.831317,41.237219],[1.831338,41.237279],[1.831394,41.237315],[1.831517,41.237332],[1.831644,41.237257],[1.831727,41.237378],[1.83181,41.237343]]],[[[1.836712,41.239995],[1.836543,41.239428],[1.836711,41.239409],[1.836614,41.239081],[1.83656,41.238895],[1.836475,41.238685],[1.836424,41.238622],[1.836233,41.238472],[1.83606,41.238342],[1.835959,41.238276],[1.835857,41.238227],[1.835852,41.238224],[1.835651,41.238112],[1.835643,41.238107],[1.835497,41.238023],[1.835461,41.23798],[1.83537,41.237789],[1.835356,41.237771],[1.835281,41.237686],[1.835234,41.237634],[1.835205,41.237601],[1.835099,41.237479],[1.834992,41.237357],[1.83496,41.237323],[1.834928,41.237295],[1.834924,41.237292],[1.834888,41.237272],[1.834848,41.237259],[1.83482,41.237254],[1.834746,41.237247],[1.834744,41.237247],[1.834672,41.237241],[1.834633,41.237238],[1.834595,41.237235],[1.834572,41.237235],[1.834499,41.237248],[1.834426,41.237265],[1.834313,41.237289],[1.834203,41.237316],[1.834152,41.237332],[1.834101,41.23735],[1.834064,41.237358],[1.83395,41.237372],[1.833882,41.23738],[1.833838,41.237384],[1.833785,41.23739],[1.833737,41.237405],[1.833708,41.237434],[1.833708,41.237466],[1.83372,41.23748],[1.833669,41.237471],[1.833662,41.23747],[1.833098,41.237609],[1.833041,41.237622],[1.832862,41.237517],[1.832665,41.2377],[1.832536,41.237833],[1.832535,41.237835],[1.832534,41.237835],[1.832472,41.237899],[1.832362,41.237956],[1.832091,41.238059],[1.832005,41.238092],[1.831907,41.238129],[1.831723,41.238199],[1.831707,41.238205],[1.831557,41.238262],[1.831506,41.238282],[1.831348,41.238347],[1.831435,41.23842],[1.831503,41.238475],[1.831559,41.238522],[1.831568,41.23853],[1.831569,41.238531],[1.831513,41.238562],[1.831488,41.238579],[1.831478,41.238586],[1.831571,41.238633],[1.83162,41.238677],[1.831612,41.238687],[1.831553,41.238763],[1.831521,41.238804],[1.831489,41.238846],[1.83144,41.238908],[1.831405,41.238953],[1.831525,41.239006],[1.831643,41.239058],[1.831691,41.239094],[1.831739,41.23913],[1.831766,41.239146],[1.831811,41.239166],[1.831859,41.239182],[1.831932,41.2392],[1.832003,41.239215],[1.832005,41.239231],[1.832043,41.239223],[1.832064,41.239226],[1.832099,41.239232],[1.832157,41.239239],[1.832215,41.239245],[1.832318,41.239254],[1.832473,41.239265],[1.832526,41.23927],[1.83255,41.239272],[1.832627,41.239279],[1.832738,41.239294],[1.832794,41.239303],[1.832848,41.239315],[1.832896,41.239328],[1.832964,41.239352],[1.832976,41.239357],[1.833031,41.23938],[1.833126,41.239422],[1.83317,41.239445],[1.83318,41.239453],[1.83321,41.239473],[1.833324,41.239565],[1.833439,41.239657],[1.833762,41.239565],[1.833793,41.239556],[1.834187,41.239494],[1.834553,41.239458],[1.834561,41.239457],[1.834855,41.239414],[1.834913,41.239187],[1.83504,41.239228],[1.83508,41.239248],[1.835111,41.239281],[1.835138,41.239322],[1.835164,41.239365],[1.83519,41.239412],[1.835216,41.23946],[1.835245,41.239518],[1.83527,41.239562],[1.835376,41.239547],[1.836043,41.239456],[1.836144,41.239442],[1.836263,41.239861],[1.83628,41.239978],[1.836283,41.240229],[1.836281,41.240421],[1.836296,41.240497],[1.836297,41.240498],[1.836324,41.240578],[1.836714,41.240549],[1.836705,41.240416],[1.836632,41.240134],[1.836694,41.240124],[1.836691,41.240114],[1.836745,41.240105],[1.836712,41.239995]]]]}},{"type":"Feature","id":"082704_082704 SI01 GAF 2","properties":{"area_id":"082704_082704 SI01 GAF 2","nom":"Polígon industrial Mas Alba","codi_icgc":"082704 SI01 GAF 2","categoria":"Sector industrial","codi_municipi":"082704","municipi":"Sitges","codi_comarca":"17","comarca":"Garraf","provincia":"Barcelona","font":"ICGC Àrees de poblament v3r1 202602"},"geometry":{"type":"MultiPolygon","coordinates":[[[[1.806206,41.25139],[1.806872,41.251496],[1.807059,41.251526],[1.807132,41.251267],[1.807784,41.251395],[1.807991,41.251337],[1.80855,41.250196],[1.808516,41.250173],[1.808384,41.250114],[1.80812,41.250061],[1.808165,41.249912],[1.808317,41.249878],[1.808765,41.249728],[1.809345,41.249867],[1.809291,41.250242],[1.809282,41.250335],[1.809234,41.250809],[1.809663,41.250903],[1.809718,41.250764],[1.809567,41.250709],[1.809758,41.250295],[1.809817,41.250175],[1.809864,41.250006],[1.809886,41.249895],[1.809835,41.249769],[1.80994,41.249738],[1.809994,41.249711],[1.810095,41.249618],[1.810171,41.249532],[1.810226,41.249456],[1.810568,41.248726],[1.811824,41.248244],[1.812721,41.249521],[1.812823,41.249667],[1.813004,41.249943],[1.813063,41.250049],[1.813096,41.250199],[1.813112,41.250271],[1.813182,41.250366],[1.81324,41.250418],[1.81335,41.2505],[1.813488,41.250623],[1.813586,41.250747],[1.813637,41.250861],[1.813742,41.25098],[1.813754,41.250993],[1.814435,41.250818],[1.814581,41.250787],[1.814676,41.250773],[1.814745,41.250755],[1.81478,41.250742],[1.814812,41.250727],[1.814849,41.250704],[1.814881,41.250677],[1.814908,41.250647],[1.814929,41.250614],[1.814944,41.25058],[1.814945,41.250577],[1.814952,41.250543],[1.814953,41.250508],[1.814948,41.250474],[1.814937,41.250441],[1.81492,41.250409],[1.814809,41.250221],[1.814749,41.250161],[1.814707,41.250085],[1.814675,41.250014],[1.814662,41.249886],[1.81469,41.249766],[1.814687,41.249648],[1.814664,41.249567],[1.814636,41.249487],[1.814601,41.249408],[1.814565,41.249338],[1.814513,41.249253],[1.81449,41.249219],[1.814326,41.249069],[1.814166,41.248917],[1.81401,41.248763],[1.813961,41.248714],[1.813881,41.248625],[1.813808,41.248534],[1.813742,41.248439],[1.813683,41.248341],[1.813632,41.248241],[1.813588,41.248139],[1.813552,41.248036],[1.813524,41.247931],[1.813504,41.247825],[1.813491,41.247718],[1.813459,41.247676],[1.813418,41.247639],[1.813372,41.247606],[1.813319,41.247578],[1.813262,41.247556],[1.813202,41.247541],[1.813139,41.247532],[1.813075,41.247529],[1.81293,41.247566],[1.812854,41.247446],[1.812891,41.247351],[1.812933,41.247221],[1.812926,41.247194],[1.812917,41.247167],[1.812895,41.247123],[1.812872,41.247089],[1.812844,41.247056],[1.812818,41.247031],[1.812789,41.247008],[1.812738,41.247005],[1.812682,41.246989],[1.812634,41.246964],[1.812556,41.246913],[1.812516,41.246874],[1.812481,41.246814],[1.812385,41.246831],[1.81229,41.246854],[1.812199,41.246883],[1.81211,41.246917],[1.812026,41.246957],[1.811947,41.247002],[1.811872,41.247052],[1.811804,41.247106],[1.811834,41.247134],[1.811858,41.247167],[1.811875,41.247201],[1.811883,41.247238],[1.811884,41.247275],[1.811875,41.247311],[1.811859,41.247346],[1.811836,41.247378],[1.811805,41.247407],[1.811768,41.247432],[1.811727,41.247451],[1.811681,41.247465],[1.811633,41.247473],[1.811585,41.247475],[1.811536,41.24747],[1.811489,41.24746],[1.811445,41.247443],[1.811406,41.247421],[1.811372,41.247395],[1.811344,41.247364],[1.811324,41.247331],[1.811311,41.247295],[1.811171,41.247332],[1.810993,41.247367],[1.810818,41.247407],[1.810644,41.247452],[1.810473,41.247504],[1.810306,41.24756],[1.810141,41.247622],[1.809981,41.247689],[1.809824,41.247761],[1.809671,41.247839],[1.809617,41.247868],[1.809552,41.247907],[1.80949,41.247949],[1.809432,41.247994],[1.809377,41.248042],[1.809326,41.248093],[1.809273,41.248154],[1.809225,41.248218],[1.809184,41.248284],[1.80915,41.248352],[1.809121,41.248422],[1.8091,41.248494],[1.80884,41.248955],[1.808754,41.249026],[1.808663,41.249092],[1.808567,41.249153],[1.808465,41.24921],[1.808359,41.249261],[1.808248,41.249307],[1.808134,41.249348],[1.808017,41.249383],[1.807897,41.249412],[1.80662,41.249458],[1.806562,41.249479],[1.806509,41.249506],[1.806461,41.249537],[1.806419,41.249574],[1.806384,41.249614],[1.806357,41.249657],[1.806337,41.249703],[1.806325,41.24975],[1.806323,41.249776],[1.806324,41.249818],[1.806325,41.249885],[1.806361,41.250009],[1.806389,41.250135],[1.806408,41.250262],[1.806419,41.250389],[1.806421,41.250517],[1.806415,41.250644],[1.806401,41.250771],[1.806378,41.250898],[1.806347,41.251023],[1.806308,41.251147],[1.806261,41.25127],[1.806206,41.25139]]]]}},{"type":"Feature","id":"082704_082704 AP19 GAF 2","properties":{"area_id":"082704_082704 AP19 GAF 2","nom":"Quintmar","codi_icgc":"082704 AP19 GAF 2","categoria":"Àrees de poblament","codi_municipi":"082704","municipi":"Sitges","codi_comarca":"17","comarca":"Garraf","provincia":"Barcelona","font":"ICGC Àrees de poblament v3r1 202602"},"geometry":{"type":"MultiPolygon","coordinates":[[[[1.821459,41.246289],[1.821194,41.246272],[1.821086,41.246478],[1.820999,41.24657],[1.821053,41.246728],[1.82108,41.246857],[1.820911,41.246977],[1.820873,41.246963],[1.820843,41.246969],[1.820724,41.247004],[1.821567,41.248554],[1.821622,41.248697],[1.821735,41.248991],[1.821712,41.249215],[1.821681,41.249523],[1.821628,41.249924],[1.821799,41.250225],[1.822038,41.250519],[1.822101,41.250596],[1.822115,41.250608],[1.822405,41.250867],[1.822885,41.251172],[1.823346,41.251295],[1.824073,41.25142],[1.824119,41.251431],[1.824106,41.25143],[1.824081,41.251492],[1.824263,41.251533],[1.82436,41.251556],[1.824465,41.25158],[1.824601,41.251611],[1.824669,41.251616],[1.824673,41.251602],[1.824832,41.251638],[1.824844,41.251658],[1.825266,41.251769],[1.825377,41.251789],[1.825502,41.251787],[1.825513,41.251786],[1.82552,41.251786],[1.825655,41.251769],[1.825743,41.251766],[1.825817,41.251769],[1.825934,41.251796],[1.826023,41.251825],[1.826087,41.251838],[1.826145,41.251836],[1.826159,41.251831],[1.826251,41.251791],[1.826433,41.251728],[1.826434,41.251728],[1.826612,41.251682],[1.826623,41.25168],[1.826895,41.251612],[1.826948,41.251599],[1.827122,41.251556],[1.827122,41.251556],[1.827218,41.251533],[1.827332,41.251505],[1.827411,41.251486],[1.827438,41.251479],[1.827437,41.251477],[1.82793,41.251352],[1.827942,41.251349],[1.828142,41.251305],[1.828186,41.251294],[1.828206,41.25129],[1.82835,41.251261],[1.828428,41.251225],[1.828466,41.251208],[1.828522,41.251178],[1.828839,41.251083],[1.828919,41.251059],[1.828946,41.251051],[1.829038,41.251022],[1.829047,41.251019],[1.829161,41.250979],[1.829211,41.250967],[1.829271,41.250953],[1.829313,41.250943],[1.829407,41.250932],[1.829499,41.250922],[1.829503,41.250922],[1.829611,41.250912],[1.829661,41.250908],[1.829656,41.25085],[1.829652,41.250794],[1.829651,41.250779],[1.829643,41.250681],[1.829635,41.250579],[1.829628,41.250499],[1.829673,41.250498],[1.829745,41.250508],[1.829793,41.250516],[1.829891,41.250537],[1.830087,41.250576],[1.830185,41.250595],[1.830284,41.250614],[1.830375,41.250629],[1.830513,41.250646],[1.830652,41.250659],[1.830793,41.250665],[1.830934,41.250667],[1.831091,41.250665],[1.831209,41.250661],[1.831387,41.250651],[1.831564,41.250635],[1.831631,41.250626],[1.831729,41.250607],[1.831826,41.250585],[1.831852,41.250578],[1.831924,41.25056],[1.83207,41.250519],[1.832214,41.250475],[1.832301,41.250445],[1.832386,41.250413],[1.83243,41.250396],[1.832493,41.250369],[1.832524,41.250355],[1.832598,41.250319],[1.832673,41.250283],[1.832715,41.25026],[1.832757,41.250236],[1.832783,41.250222],[1.832807,41.250203],[1.832815,41.250193],[1.832817,41.250177],[1.832816,41.25016],[1.832814,41.25014],[1.83281,41.25013],[1.832802,41.250121],[1.832789,41.250112],[1.832776,41.250106],[1.832764,41.250101],[1.832752,41.250095],[1.832854,41.250092],[1.8329,41.250092],[1.833013,41.250063],[1.833016,41.25002],[1.833019,41.249968],[1.832841,41.249872],[1.832657,41.249865],[1.832409,41.249882],[1.832343,41.249865],[1.832204,41.249885],[1.832015,41.249905],[1.831948,41.249898],[1.831642,41.249923],[1.831276,41.249938],[1.830936,41.249952],[1.830586,41.249971],[1.830496,41.250199],[1.830471,41.250198],[1.830445,41.250197],[1.830168,41.250148],[1.829958,41.25011],[1.829958,41.25011],[1.829958,41.25011],[1.829958,41.25011],[1.829357,41.250002],[1.82931,41.249988],[1.829308,41.249722],[1.829063,41.249641],[1.828788,41.249653],[1.828783,41.249957],[1.828761,41.249957],[1.828716,41.249951],[1.828624,41.249929],[1.828531,41.249908],[1.828436,41.249888],[1.828339,41.24987],[1.828294,41.249868],[1.828248,41.249869],[1.828156,41.249876],[1.827997,41.249889],[1.827852,41.249904],[1.827691,41.24957],[1.827461,41.249696],[1.827355,41.249788],[1.827556,41.250057],[1.827548,41.250077],[1.827543,41.250096],[1.827538,41.250163],[1.827537,41.25023],[1.827533,41.250274],[1.827526,41.250306],[1.827514,41.250336],[1.827505,41.250345],[1.827495,41.250353],[1.82747,41.250365],[1.82744,41.250372],[1.827411,41.250374],[1.827354,41.25037],[1.827296,41.250362],[1.827243,41.250348],[1.827192,41.250332],[1.827154,41.250318],[1.827116,41.250304],[1.827065,41.250282],[1.827016,41.250257],[1.826985,41.250237],[1.826956,41.250214],[1.826914,41.250174],[1.826872,41.250132],[1.826832,41.250092],[1.826793,41.250052],[1.826765,41.250019],[1.82676,41.250013],[1.82673,41.249973],[1.826698,41.249923],[1.826667,41.249874],[1.826631,41.249818],[1.826595,41.249762],[1.826593,41.249759],[1.826889,41.249498],[1.827039,41.249524],[1.827136,41.249524],[1.827325,41.249517],[1.827402,41.249483],[1.827563,41.24938],[1.827662,41.249269],[1.827634,41.249157],[1.827613,41.249067],[1.8276,41.249015],[1.827869,41.24887],[1.827869,41.24887],[1.828017,41.248796],[1.828021,41.248797],[1.828244,41.248833],[1.828731,41.248839],[1.829461,41.248977],[1.829626,41.248622],[1.829685,41.248625],[1.829767,41.248627],[1.829935,41.248653],[1.830116,41.248683],[1.830297,41.248713],[1.830472,41.248742],[1.830646,41.248773],[1.83076,41.248794],[1.830875,41.248817],[1.830997,41.248844],[1.831121,41.248871],[1.831177,41.248882],[1.831232,41.248893],[1.831325,41.248909],[1.83142,41.248923],[1.83154,41.248935],[1.831659,41.248946],[1.831814,41.24896],[1.831968,41.248974],[1.832015,41.248978],[1.832062,41.248982],[1.832188,41.248992],[1.832314,41.249002],[1.832448,41.249014],[1.832582,41.249027],[1.832717,41.249043],[1.832808,41.249055],[1.832933,41.249035],[1.832936,41.248924],[1.83298,41.248764],[1.832978,41.248674],[1.83298,41.248576],[1.832884,41.248584],[1.832788,41.248593],[1.832713,41.248598],[1.832636,41.248599],[1.832482,41.248594],[1.83238,41.24859],[1.832134,41.248578],[1.832012,41.248571],[1.832011,41.24857],[1.832,41.24857],[1.831889,41.248564],[1.831693,41.248549],[1.831496,41.248532],[1.831444,41.24853],[1.831392,41.248531],[1.831289,41.248534],[1.83122,41.248533],[1.831204,41.248531],[1.831124,41.248518],[1.830956,41.24848],[1.830773,41.248439],[1.830602,41.248403],[1.830574,41.248398],[1.830513,41.248383],[1.830425,41.248368],[1.830418,41.248367],[1.830255,41.248322],[1.830253,41.248321],[1.830092,41.248289],[1.830088,41.248288],[1.829886,41.24824],[1.829725,41.248202],[1.829722,41.248202],[1.829437,41.248145],[1.829404,41.248139],[1.829373,41.248132],[1.829367,41.248131],[1.829352,41.248127],[1.829301,41.248114],[1.829167,41.248099],[1.829164,41.248117],[1.829047,41.248104],[1.828993,41.248099],[1.828886,41.248086],[1.828654,41.248057],[1.828264,41.247968],[1.828261,41.247968],[1.828268,41.247991],[1.828225,41.248003],[1.828211,41.248006],[1.828107,41.248034],[1.827941,41.247954],[1.827852,41.247869],[1.827868,41.247853],[1.827704,41.247769],[1.827552,41.247691],[1.827538,41.247684],[1.827369,41.247648],[1.827163,41.247553],[1.827035,41.247515],[1.826948,41.247494],[1.826823,41.247477],[1.826693,41.247465],[1.826471,41.247449],[1.826364,41.247442],[1.826329,41.247443],[1.825745,41.247468],[1.824574,41.247438],[1.824344,41.247001],[1.825582,41.246747],[1.825382,41.246328],[1.824663,41.24641],[1.824504,41.246636],[1.823354,41.246687],[1.823353,41.24674],[1.823343,41.246823],[1.823316,41.247044],[1.823174,41.247072],[1.823087,41.247029],[1.822746,41.24686],[1.82273,41.246849],[1.822745,41.246539],[1.822575,41.24654],[1.822397,41.246539],[1.82161,41.246433],[1.821527,41.24642],[1.821459,41.246289]]]]}},{"type":"Feature","id":"082704_082704 AP07 GAF 3","properties":{"area_id":"082704_082704 AP07 GAF 3","nom":"Ratpenat","codi_icgc":"082704 AP07 GAF 3","categoria":"Àrees de poblament","codi_municipi":"082704","municipi":"Sitges","codi_comarca":"17","comarca":"Garraf","provincia":"Barcelona","font":"ICGC Àrees de poblament v3r1 202602"},"geometry":{"type":"MultiPolygon","coordinates":[[[[1.929054,41.269248],[1.929163,41.269055],[1.929227,41.268925],[1.92923,41.268919],[1.929267,41.268836],[1.929274,41.26882],[1.929279,41.268792],[1.929275,41.268765],[1.929269,41.26874],[1.929261,41.268716],[1.929272,41.268682],[1.929282,41.268649],[1.929289,41.268622],[1.929289,41.268594],[1.929284,41.268575],[1.929272,41.26856],[1.929257,41.268547],[1.929221,41.268525],[1.929213,41.268521],[1.929192,41.26851],[1.929107,41.268468],[1.929088,41.268458],[1.928783,41.268332],[1.928667,41.2683],[1.928637,41.268293],[1.928593,41.268283],[1.928561,41.26828],[1.928528,41.268284],[1.928493,41.268293],[1.928459,41.268306],[1.928413,41.268327],[1.928397,41.268335],[1.928383,41.268342],[1.928376,41.268344],[1.928367,41.268346],[1.928355,41.268347],[1.928266,41.268347],[1.928202,41.268347],[1.928167,41.268347],[1.928125,41.268343],[1.92811,41.26834],[1.928083,41.268336],[1.928056,41.268326],[1.928054,41.268326],[1.928031,41.268309],[1.928028,41.268302],[1.928029,41.268291],[1.928035,41.268281],[1.928064,41.268254],[1.928093,41.268226],[1.928132,41.268186],[1.928167,41.268148],[1.92817,41.268144],[1.928207,41.268104],[1.92821,41.2681],[1.928243,41.268064],[1.928271,41.268035],[1.928312,41.267991],[1.928354,41.267948],[1.9284,41.267892],[1.92844,41.267833],[1.928464,41.26778],[1.928478,41.267724],[1.92848,41.267695],[1.928485,41.267611],[1.928829,41.26761],[1.928853,41.26761],[1.928816,41.26736],[1.928853,41.267293],[1.928756,41.266906],[1.928742,41.26682],[1.928715,41.266787],[1.928398,41.266751],[1.928337,41.266567],[1.928272,41.266484],[1.928235,41.266439],[1.928228,41.26643],[1.928135,41.266429],[1.927945,41.266442],[1.927523,41.266218],[1.927471,41.266204],[1.92748,41.26619],[1.927535,41.266109],[1.92754,41.266112],[1.92756,41.266122],[1.927584,41.266126],[1.927604,41.266127],[1.927623,41.266125],[1.92764,41.26612],[1.927654,41.266113],[1.927673,41.2661],[1.927689,41.266084],[1.927697,41.266071],[1.927698,41.266057],[1.927695,41.266049],[1.927689,41.266042],[1.927672,41.26602],[1.927646,41.265993],[1.92758,41.265936],[1.927515,41.265879],[1.927492,41.265857],[1.927471,41.265832],[1.927459,41.26581],[1.927452,41.265787],[1.927444,41.265728],[1.927437,41.265668],[1.92743,41.265598],[1.927424,41.265528],[1.927423,41.265503],[1.927424,41.265478],[1.927431,41.265452],[1.927439,41.265426],[1.92745,41.265392],[1.927461,41.265358],[1.927481,41.26532],[1.927502,41.265286],[1.927523,41.265255],[1.927546,41.265225],[1.927563,41.265208],[1.927587,41.265194],[1.927645,41.265172],[1.927669,41.265163],[1.927681,41.265159],[1.927693,41.265154],[1.927699,41.265152],[1.927778,41.265122],[1.927856,41.265091],[1.927867,41.265085],[1.927914,41.265062],[1.927971,41.265031],[1.928006,41.265008],[1.928036,41.264982],[1.928051,41.264961],[1.928062,41.264937],[1.928073,41.264906],[1.928082,41.264874],[1.92809,41.264844],[1.928092,41.264817],[1.928082,41.264764],[1.928071,41.26471],[1.928059,41.264644],[1.928048,41.26458],[1.928038,41.264555],[1.928034,41.264547],[1.927997,41.264497],[1.927977,41.264468],[1.927963,41.264437],[1.927955,41.2644],[1.927955,41.264398],[1.927951,41.264364],[1.927949,41.264342],[1.927949,41.26434],[1.92795,41.264314],[1.927947,41.264308],[1.927955,41.2643],[1.928043,41.264209],[1.928114,41.264132],[1.928117,41.264129],[1.928189,41.264064],[1.928202,41.264048],[1.928212,41.264031],[1.928218,41.264016],[1.928226,41.263997],[1.928236,41.263973],[1.928303,41.263872],[1.928314,41.263854],[1.928391,41.263793],[1.928473,41.263754],[1.92815,41.263599],[1.928051,41.26355],[1.92802,41.263538],[1.928083,41.263417],[1.92812,41.263348],[1.928101,41.263344],[1.928018,41.263326],[1.927947,41.263308],[1.927876,41.263291],[1.92785,41.263287],[1.927809,41.263286],[1.927769,41.26329],[1.927768,41.26329],[1.927745,41.263296],[1.927723,41.263305],[1.927701,41.263317],[1.927685,41.263333],[1.927642,41.263411],[1.927599,41.263488],[1.927498,41.263664],[1.927464,41.263723],[1.927398,41.263839],[1.927382,41.263868],[1.927321,41.263959],[1.927292,41.264044],[1.927259,41.264112],[1.927201,41.264256],[1.927179,41.264329],[1.92718,41.264374],[1.927181,41.2644],[1.927202,41.264529],[1.927103,41.264611],[1.927078,41.264704],[1.927052,41.264797],[1.927013,41.264941],[1.926974,41.265084],[1.926959,41.265129],[1.926942,41.265174],[1.926909,41.265263],[1.926907,41.265288],[1.926909,41.265312],[1.926919,41.265353],[1.926933,41.265394],[1.926954,41.265429],[1.926968,41.265451],[1.926976,41.265463],[1.926987,41.265487],[1.927007,41.265545],[1.927026,41.265603],[1.927035,41.26563],[1.927044,41.265658],[1.927061,41.265712],[1.927066,41.265726],[1.927074,41.265739],[1.927085,41.265749],[1.927096,41.265758],[1.927175,41.265819],[1.927253,41.265881],[1.927342,41.265953],[1.92724,41.265885],[1.927191,41.265853],[1.927113,41.265809],[1.927036,41.265766],[1.927018,41.265756],[1.926999,41.265745],[1.926986,41.265737],[1.926976,41.265726],[1.926962,41.265702],[1.926953,41.265679],[1.926946,41.265655],[1.926939,41.265621],[1.92693,41.265587],[1.926916,41.265545],[1.926902,41.265502],[1.926886,41.265479],[1.926878,41.265468],[1.926865,41.265453],[1.926858,41.265439],[1.92685,41.265422],[1.926842,41.265401],[1.926829,41.26535],[1.926817,41.265292],[1.926816,41.265282],[1.926773,41.265276],[1.926651,41.265316],[1.926455,41.265254],[1.92645,41.265253],[1.92644,41.265239],[1.926272,41.265005],[1.92616,41.26485],[1.926283,41.264327],[1.926447,41.263635],[1.926443,41.263634],[1.926249,41.263606],[1.926217,41.263602],[1.92622,41.26358],[1.926224,41.263549],[1.926229,41.263516],[1.926235,41.263483],[1.926248,41.263418],[1.926262,41.263356],[1.926286,41.263277],[1.926315,41.263201],[1.926341,41.263121],[1.92637,41.263048],[1.926406,41.262972],[1.926431,41.262925],[1.926459,41.262879],[1.926492,41.262828],[1.926527,41.262777],[1.926567,41.262718],[1.926608,41.262657],[1.926623,41.262623],[1.926628,41.262587],[1.92673,41.262536],[1.926765,41.262508],[1.926778,41.262465],[1.926769,41.262432],[1.926735,41.262364],[1.926934,41.262202],[1.926573,41.262101],[1.926005,41.261935],[1.925895,41.261902],[1.925892,41.261902],[1.925779,41.261899],[1.925613,41.261861],[1.925609,41.26186],[1.92528,41.2618],[1.925277,41.2618],[1.92493,41.261725],[1.924922,41.261724],[1.924711,41.261701],[1.924542,41.261672],[1.924515,41.261808],[1.924528,41.262001],[1.924461,41.261991],[1.924401,41.262007],[1.924376,41.262021],[1.92436,41.262044],[1.924347,41.262063],[1.924343,41.262073],[1.924352,41.262113],[1.924411,41.26215],[1.924525,41.262155],[1.924475,41.262429],[1.924472,41.262456],[1.924471,41.262463],[1.924444,41.262631],[1.924439,41.26266],[1.924433,41.262698],[1.92443,41.262716],[1.924421,41.262791],[1.924417,41.262818],[1.924359,41.262853],[1.924303,41.262876],[1.924234,41.262909],[1.92416,41.262951],[1.924113,41.262986],[1.924075,41.263019],[1.924053,41.263041],[1.924032,41.263065],[1.923989,41.263132],[1.923985,41.263139],[1.923988,41.263144],[1.923988,41.263145],[1.923715,41.263575],[1.923615,41.263713],[1.923488,41.26389],[1.923432,41.263975],[1.923416,41.263996],[1.923399,41.264018],[1.923364,41.264056],[1.923329,41.264094],[1.923297,41.264134],[1.923266,41.264174],[1.923254,41.264201],[1.923242,41.264229],[1.923233,41.264253],[1.923209,41.26443],[1.923295,41.264612],[1.92343,41.264899],[1.92343,41.264899],[1.923535,41.265148],[1.923451,41.265164],[1.923425,41.265169],[1.923504,41.265491],[1.923582,41.2657],[1.923885,41.265739],[1.923972,41.265765],[1.92397,41.265864],[1.92397,41.265952],[1.923972,41.26604],[1.923977,41.266134],[1.923985,41.266228],[1.923988,41.266244],[1.923995,41.26626],[1.924,41.266266],[1.924049,41.266291],[1.924105,41.266294],[1.924363,41.266285],[1.924475,41.266254],[1.924497,41.266243],[1.924805,41.266103],[1.925043,41.265993],[1.925264,41.266312],[1.925405,41.266188],[1.92553,41.266073],[1.925541,41.266064],[1.92557,41.266103],[1.925586,41.266124],[1.925604,41.266145],[1.925627,41.266168],[1.925644,41.266179],[1.925657,41.266184],[1.92569,41.266191],[1.925695,41.266191],[1.925772,41.266162],[1.925779,41.26615],[1.925781,41.26614],[1.925776,41.266118],[1.925771,41.266095],[1.926029,41.266051],[1.926052,41.266208],[1.926084,41.266348],[1.92612,41.26651],[1.926122,41.266516],[1.926323,41.266511],[1.926389,41.266616],[1.926402,41.266636],[1.926405,41.266641],[1.926326,41.266692],[1.926286,41.266717],[1.926275,41.266726],[1.926266,41.266737],[1.926253,41.266761],[1.926246,41.266777],[1.926245,41.266785],[1.926243,41.266794],[1.926246,41.266805],[1.926255,41.266821],[1.92627,41.266835],[1.926283,41.266842],[1.92632,41.266855],[1.926357,41.266867],[1.926423,41.266887],[1.92649,41.266908],[1.926558,41.266934],[1.92661,41.266957],[1.926608,41.266962],[1.926588,41.266998],[1.926527,41.267112],[1.926506,41.26715],[1.926448,41.267254],[1.926398,41.267342],[1.926371,41.267391],[1.926405,41.267403],[1.92648,41.267433],[1.926556,41.267463],[1.926656,41.267502],[1.926755,41.267541],[1.926859,41.267583],[1.926963,41.267625],[1.927011,41.267644],[1.927058,41.267663],[1.927133,41.267693],[1.927204,41.267719],[1.927263,41.26774],[1.927325,41.267757],[1.927409,41.267774],[1.927491,41.267791],[1.927573,41.267808],[1.927653,41.267826],[1.927711,41.267841],[1.927768,41.26786],[1.927811,41.267876],[1.927856,41.267894],[1.927883,41.267902],[1.927906,41.267908],[1.927911,41.267909],[1.92795,41.267914],[1.927992,41.267914],[1.928029,41.267905],[1.928062,41.267888],[1.928088,41.267866],[1.928108,41.267842],[1.928118,41.267816],[1.928122,41.267788],[1.928121,41.267763],[1.928159,41.267718],[1.9284,41.267797],[1.928391,41.267818],[1.928354,41.267873],[1.92831,41.267925],[1.928269,41.267968],[1.928228,41.268012],[1.9282,41.268041],[1.928166,41.268082],[1.928131,41.268122],[1.928099,41.268156],[1.928062,41.268187],[1.928015,41.268225],[1.927965,41.268261],[1.927919,41.26829],[1.927871,41.268316],[1.927826,41.268339],[1.927799,41.268352],[1.92778,41.268362],[1.927746,41.268377],[1.927711,41.268393],[1.927663,41.268416],[1.927661,41.26842],[1.927656,41.268419],[1.927606,41.268444],[1.927562,41.26847],[1.927522,41.268501],[1.927508,41.268519],[1.927498,41.268538],[1.927496,41.268549],[1.9275,41.268556],[1.927501,41.26856],[1.927513,41.268568],[1.927525,41.268573],[1.927551,41.26858],[1.927589,41.268587],[1.927627,41.268592],[1.927642,41.268593],[1.927672,41.268595],[1.927717,41.268597],[1.927761,41.2686],[1.927804,41.268607],[1.927847,41.268621],[1.927888,41.26864],[1.927927,41.268658],[1.927965,41.268678],[1.928004,41.268704],[1.928039,41.268733],[1.928073,41.268762],[1.928104,41.268793],[1.928126,41.268818],[1.928143,41.268842],[1.928163,41.268868],[1.92818,41.268894],[1.9282,41.268925],[1.928218,41.268958],[1.928235,41.26899],[1.928257,41.26903],[1.928562,41.269117],[1.928651,41.26914],[1.928664,41.269143],[1.928678,41.269147],[1.928909,41.269206],[1.928923,41.26921],[1.928938,41.269213],[1.929019,41.269234],[1.929022,41.269228],[1.929054,41.269247],[1.929054,41.269248]]]]}},{"type":"Feature","id":"082704_082704 AP03 GAF 2","properties":{"area_id":"082704_082704 AP03 GAF 2","nom":"Santa Bàrbara","codi_icgc":"082704 AP03 GAF 2","categoria":"Àrees de poblament","codi_municipi":"082704","municipi":"Sitges","codi_comarca":"17","comarca":"Garraf","provincia":"Barcelona","font":"ICGC Àrees de poblament v3r1 202602"},"geometry":{"type":"MultiPolygon","coordinates":[[[[1.791597,41.24224],[1.791597,41.242242],[1.791723,41.242368],[1.791766,41.242431],[1.791834,41.242544],[1.791808,41.242722],[1.791756,41.242998],[1.791723,41.243255],[1.791682,41.243545],[1.791674,41.243655],[1.791674,41.243679],[1.791695,41.2437],[1.791905,41.2438],[1.792224,41.243951],[1.79242,41.244042],[1.79248,41.244052],[1.792688,41.244083],[1.792896,41.244087],[1.793234,41.244086],[1.793378,41.244091],[1.793443,41.244077],[1.793584,41.244048],[1.793583,41.244051],[1.793585,41.244058],[1.793594,41.244064],[1.793606,41.244065],[1.793619,41.244065],[1.793874,41.244035],[1.794137,41.244051],[1.79429,41.244058],[1.794303,41.244044],[1.794306,41.244034],[1.794256,41.244028],[1.794284,41.243951],[1.794361,41.243804],[1.794375,41.243779],[1.794509,41.243641],[1.794511,41.24364],[1.794724,41.243531],[1.794724,41.243531],[1.794867,41.243481],[1.794959,41.243449],[1.794976,41.243456],[1.794971,41.243445],[1.794994,41.243423],[1.795,41.24338],[1.794898,41.243233],[1.794861,41.243205],[1.794797,41.243194],[1.794778,41.24323],[1.794761,41.243258],[1.794698,41.243239],[1.794512,41.2432],[1.794502,41.243198],[1.794298,41.243159],[1.794254,41.243091],[1.794255,41.243024],[1.794232,41.243006],[1.794212,41.24299],[1.794213,41.242956],[1.793959,41.242871],[1.793957,41.242861],[1.793963,41.242847],[1.793977,41.242827],[1.794199,41.242547],[1.793515,41.241934],[1.793472,41.241893],[1.793456,41.241877],[1.793441,41.241855],[1.793428,41.241835],[1.793404,41.24181],[1.793349,41.241789],[1.793321,41.24179],[1.793308,41.241778],[1.793137,41.241835],[1.792819,41.241939],[1.792597,41.242003],[1.79259,41.241997],[1.792561,41.242008],[1.792473,41.242039],[1.792222,41.241785],[1.792171,41.241733],[1.791974,41.241909],[1.791828,41.242039],[1.791597,41.24224]]]]}},{"type":"Feature","id":"082704_082704 AP01 GAF 3","properties":{"area_id":"082704_082704 AP01 GAF 3","nom":"Sitges","codi_icgc":"082704 AP01 GAF 3","categoria":"Àrees de poblament","codi_municipi":"082704","municipi":"Sitges","codi_comarca":"17","comarca":"Garraf","provincia":"Barcelona","font":"ICGC Àrees de poblament v3r1 202602"},"geometry":{"type":"MultiPolygon","coordinates":[[[[1.787075,41.231388],[1.787261,41.231513],[1.787322,41.231651],[1.787308,41.231713],[1.787267,41.231768],[1.787238,41.231775],[1.787075,41.231815],[1.786995,41.231835],[1.786845,41.231872],[1.785868,41.231388],[1.785724,41.231305],[1.785362,41.231115],[1.784911,41.230877],[1.784436,41.230619],[1.783811,41.230289],[1.78369,41.230714],[1.783662,41.230823],[1.783787,41.230882],[1.784019,41.230999],[1.784469,41.231218],[1.785233,41.231598],[1.785608,41.231792],[1.785746,41.231856],[1.78584,41.231857],[1.78598,41.231844],[1.786074,41.231859],[1.786156,41.231884],[1.786224,41.231932],[1.786331,41.231967],[1.786437,41.23196],[1.786429,41.23202],[1.786422,41.232069],[1.786332,41.232124],[1.786314,41.232151],[1.786304,41.23218],[1.786301,41.23221],[1.786306,41.232239],[1.786318,41.232268],[1.786337,41.232294],[1.786348,41.232305],[1.786238,41.232386],[1.786283,41.23242],[1.786371,41.232486],[1.7864,41.232534],[1.786419,41.232575],[1.786429,41.232618],[1.78643,41.232654],[1.786421,41.232691],[1.786407,41.232714],[1.786378,41.232753],[1.786346,41.232788],[1.786277,41.232854],[1.786148,41.232966],[1.786019,41.233077],[1.785895,41.233181],[1.78578,41.233278],[1.785754,41.233372],[1.785708,41.233518],[1.785676,41.233721],[1.785691,41.233914],[1.785725,41.23414],[1.785815,41.23438],[1.785926,41.23456],[1.786087,41.23478],[1.786296,41.235],[1.786516,41.235171],[1.786675,41.23529],[1.786764,41.235348],[1.786646,41.235461],[1.786565,41.235523],[1.786221,41.235823],[1.785968,41.236044],[1.785879,41.236129],[1.786007,41.236208],[1.786059,41.236262],[1.786142,41.236348],[1.786224,41.236437],[1.786254,41.236469],[1.786279,41.236496],[1.786337,41.236558],[1.786384,41.236718],[1.786441,41.236919],[1.786584,41.237059],[1.786837,41.237018],[1.787104,41.23699],[1.787191,41.237442],[1.787218,41.237517],[1.787236,41.237564],[1.787481,41.237707],[1.787514,41.237726],[1.787592,41.237813],[1.787972,41.238236],[1.788014,41.238283],[1.788195,41.23843],[1.788208,41.23844],[1.788372,41.238558],[1.78847,41.238611],[1.788491,41.238622],[1.788532,41.238704],[1.788597,41.238836],[1.788599,41.238839],[1.788622,41.238836],[1.78875,41.238815],[1.788907,41.238871],[1.788988,41.238862],[1.789029,41.238238],[1.789032,41.238195],[1.7893,41.238268],[1.789434,41.238302],[1.789957,41.238459],[1.790396,41.238636],[1.790634,41.238745],[1.790782,41.23883],[1.790951,41.238937],[1.7911,41.239048],[1.791301,41.239208],[1.791564,41.239449],[1.791867,41.239736],[1.792257,41.240095],[1.792519,41.240297],[1.792809,41.24049],[1.793137,41.240672],[1.793203,41.240702],[1.793396,41.240792],[1.793399,41.240789],[1.793666,41.240908],[1.793685,41.240921],[1.793728,41.240936],[1.794234,41.241106],[1.794283,41.24112],[1.795045,41.241394],[1.795699,41.241619],[1.795967,41.241729],[1.796207,41.241865],[1.796283,41.24191],[1.796459,41.242043],[1.796629,41.24222],[1.796761,41.242338],[1.796816,41.242362],[1.796922,41.242361],[1.797074,41.242294],[1.79721,41.242191],[1.797659,41.241698],[1.797921,41.241412],[1.797982,41.241358],[1.798063,41.241322],[1.798212,41.241326],[1.798328,41.241335],[1.798378,41.241354],[1.79843,41.241412],[1.798656,41.241683],[1.798636,41.241691],[1.79832,41.241886],[1.798585,41.242053],[1.798377,41.242244],[1.798136,41.242425],[1.798182,41.242486],[1.79834,41.242552],[1.79836,41.242568],[1.79845,41.24258],[1.799047,41.24301],[1.799132,41.243054],[1.799173,41.243078],[1.799343,41.242984],[1.799381,41.242958],[1.799555,41.242864],[1.799616,41.242839],[1.799798,41.243101],[1.800059,41.243478],[1.800355,41.243903],[1.800334,41.243975],[1.79965,41.244049],[1.799452,41.244051],[1.799122,41.244002],[1.799242,41.243699],[1.798781,41.243576],[1.798576,41.24398],[1.79858,41.243982],[1.798711,41.244022],[1.798844,41.244057],[1.798979,41.244086],[1.799116,41.24411],[1.799255,41.244128],[1.799394,41.24414],[1.799516,41.244146],[1.799638,41.244148],[1.79976,41.244146],[1.799882,41.244139],[1.799638,41.244557],[1.800309,41.244784],[1.800151,41.24503],[1.800483,41.245148],[1.800611,41.245156],[1.800589,41.244918],[1.80133,41.244899],[1.801427,41.244795],[1.801443,41.244766],[1.801479,41.244739],[1.801552,41.244684],[1.801539,41.244674],[1.801272,41.244476],[1.801172,41.244394],[1.80097,41.24422],[1.800831,41.244078],[1.800769,41.244013],[1.801787,41.243612],[1.802035,41.24352],[1.802165,41.243439],[1.803044,41.243167],[1.803319,41.24312],[1.803217,41.243338],[1.803036,41.243668],[1.802841,41.243974],[1.802555,41.244328],[1.802375,41.244559],[1.802513,41.244615],[1.802518,41.244614],[1.802516,41.244616],[1.802632,41.244672],[1.802656,41.244683],[1.802695,41.244702],[1.803045,41.244625],[1.803109,41.244601],[1.803247,41.24452],[1.803328,41.244483],[1.803442,41.244486],[1.803493,41.244475],[1.803576,41.244451],[1.803625,41.244421],[1.803803,41.244494],[1.803813,41.244513],[1.803805,41.244534],[1.803679,41.244645],[1.803543,41.244745],[1.803462,41.244786],[1.803406,41.24481],[1.803317,41.244836],[1.803209,41.24492],[1.803134,41.245023],[1.803848,41.245467],[1.804058,41.245552],[1.804084,41.245552],[1.804866,41.245547],[1.804898,41.245506],[1.804982,41.245445],[1.805041,41.245414],[1.805133,41.24539],[1.805141,41.24474],[1.805154,41.243825],[1.80517,41.2438],[1.805556,41.243812],[1.805577,41.243812],[1.805644,41.243814],[1.805688,41.243816],[1.805725,41.243823],[1.805768,41.243839],[1.805826,41.243864],[1.805843,41.243873],[1.80586,41.243887],[1.805903,41.243967],[1.805943,41.244056],[1.805993,41.244158],[1.806055,41.244257],[1.806143,41.244367],[1.806236,41.244473],[1.806326,41.24457],[1.806386,41.244631],[1.80642,41.244666],[1.806491,41.244728],[1.80657,41.244787],[1.806652,41.244838],[1.806734,41.244889],[1.806849,41.244955],[1.80695,41.24501],[1.806967,41.24502],[1.807175,41.245135],[1.807179,41.245138],[1.807202,41.24515],[1.807384,41.245251],[1.807476,41.245307],[1.807569,41.245364],[1.807645,41.245413],[1.807717,41.245466],[1.807767,41.245509],[1.807789,41.245532],[1.80781,41.245556],[1.807832,41.245584],[1.807855,41.245611],[1.807889,41.245648],[1.807924,41.245686],[1.807948,41.245718],[1.807968,41.245753],[1.808004,41.245824],[1.808056,41.245911],[1.808092,41.245972],[1.808107,41.245997],[1.808145,41.246061],[1.808183,41.246124],[1.808186,41.246137],[1.80818,41.24615],[1.808173,41.246159],[1.80816,41.246164],[1.808147,41.246166],[1.808121,41.246171],[1.808078,41.24619],[1.808036,41.246212],[1.807998,41.246234],[1.807962,41.246257],[1.807928,41.246285],[1.807898,41.246316],[1.807879,41.246338],[1.807859,41.24636],[1.807836,41.246356],[1.807792,41.24635],[1.807744,41.24634],[1.807555,41.246298],[1.807474,41.246344],[1.807314,41.246542],[1.807349,41.246731],[1.807362,41.246795],[1.80682,41.24685],[1.80679,41.246858],[1.806755,41.246832],[1.806787,41.246739],[1.80658,41.246716],[1.806512,41.246767],[1.80634,41.24672],[1.806307,41.246791],[1.806426,41.246868],[1.806705,41.246922],[1.806623,41.247016],[1.806638,41.24703],[1.806491,41.247175],[1.806257,41.247109],[1.806025,41.247082],[1.80606,41.247526],[1.806123,41.247572],[1.806118,41.24771],[1.806141,41.247726],[1.806162,41.247744],[1.806182,41.247762],[1.806201,41.247782],[1.806232,41.247822],[1.806256,41.247865],[1.806271,41.247868],[1.806428,41.247904],[1.806559,41.24793],[1.806644,41.247948],[1.807092,41.247693],[1.807577,41.247435],[1.807654,41.247394],[1.807898,41.247217],[1.808062,41.247018],[1.808069,41.247021],[1.808421,41.247154],[1.808601,41.24705],[1.808639,41.247006],[1.808795,41.246819],[1.808636,41.246661],[1.808383,41.246513],[1.808412,41.246474],[1.808441,41.246434],[1.808459,41.246411],[1.80848,41.24639],[1.808527,41.246349],[1.808589,41.246304],[1.808656,41.246263],[1.808703,41.246239],[1.808849,41.246173],[1.808999,41.246113],[1.809122,41.246069],[1.809244,41.246024],[1.809336,41.245987],[1.809426,41.245947],[1.809483,41.245917],[1.80962,41.245838],[1.809756,41.24576],[1.809844,41.245711],[1.809932,41.245662],[1.810039,41.245741],[1.810124,41.245804],[1.809819,41.245999],[1.809857,41.246053],[1.809856,41.246136],[1.809804,41.246179],[1.809742,41.246232],[1.809694,41.246274],[1.809685,41.246282],[1.809625,41.246312],[1.809381,41.246436],[1.809324,41.24647],[1.809359,41.246502],[1.809429,41.246576],[1.809617,41.246709],[1.80966,41.246743],[1.809868,41.246907],[1.809971,41.246989],[1.810217,41.24691],[1.810405,41.24684],[1.810514,41.246793],[1.810618,41.246686],[1.810684,41.246654],[1.810867,41.246601],[1.810963,41.246573],[1.811013,41.246526],[1.81098,41.246488],[1.810928,41.246419],[1.810888,41.246363],[1.810991,41.246311],[1.810991,41.246311],[1.811012,41.246312],[1.811192,41.246539],[1.811242,41.246525],[1.811349,41.246496],[1.811467,41.246447],[1.811747,41.246304],[1.811758,41.246298],[1.81168,41.246268],[1.811588,41.246225],[1.811413,41.246138],[1.811459,41.24602],[1.811467,41.246001],[1.811489,41.245945],[1.812034,41.246085],[1.812281,41.245658],[1.812291,41.245642],[1.812345,41.245549],[1.811556,41.245347],[1.811299,41.245336],[1.811281,41.245303],[1.811311,41.245276],[1.811346,41.245292],[1.81134,41.245299],[1.811388,41.245323],[1.811422,41.245283],[1.811437,41.245291],[1.811465,41.245258],[1.811413,41.245232],[1.811446,41.245194],[1.81146,41.2452],[1.811493,41.245162],[1.811473,41.245151],[1.811495,41.245126],[1.811512,41.245134],[1.811534,41.245108],[1.811553,41.245085],[1.811576,41.245096],[1.811592,41.245078],[1.811557,41.245061],[1.811628,41.244978],[1.811686,41.245006],[1.811704,41.244986],[1.8117,41.244971],[1.811691,41.244938],[1.811689,41.244927],[1.811634,41.244901],[1.811673,41.244867],[1.811747,41.244804],[1.811847,41.244738],[1.811846,41.244735],[1.811843,41.244709],[1.811729,41.244718],[1.81173,41.24472],[1.811639,41.244736],[1.811634,41.244715],[1.811729,41.244692],[1.811885,41.244652],[1.812004,41.244631],[1.812094,41.244614],[1.812193,41.244592],[1.812367,41.244554],[1.812536,41.244516],[1.812573,41.244508],[1.812705,41.244478],[1.812891,41.244433],[1.813075,41.244384],[1.81317,41.244358],[1.81324,41.244337],[1.813343,41.244301],[1.813392,41.244281],[1.813439,41.244258],[1.813532,41.24421],[1.813675,41.244128],[1.813681,41.244122],[1.813708,41.244089],[1.81373,41.244054],[1.813738,41.244035],[1.813742,41.244005],[1.813737,41.243976],[1.813724,41.243949],[1.813721,41.243943],[1.813677,41.243875],[1.81361,41.243807],[1.813435,41.24363],[1.813436,41.243622],[1.813448,41.243589],[1.813451,41.243573],[1.81345,41.243557],[1.813425,41.243481],[1.813393,41.243407],[1.813297,41.243225],[1.813195,41.243046],[1.813178,41.243014],[1.813168,41.242999],[1.813152,41.242986],[1.813138,41.24298],[1.813115,41.242982],[1.813092,41.242986],[1.81298,41.243008],[1.812962,41.243012],[1.812959,41.242969],[1.813031,41.242949],[1.813108,41.24293],[1.81316,41.24292],[1.813277,41.242904],[1.813395,41.242891],[1.813528,41.242877],[1.813662,41.242862],[1.81381,41.242839],[1.813912,41.242819],[1.814173,41.243264],[1.814425,41.243737],[1.814552,41.243959],[1.815465,41.243658],[1.815358,41.243452],[1.815449,41.243432],[1.81551,41.243352],[1.815552,41.243209],[1.815573,41.243111],[1.815532,41.242995],[1.815494,41.242923],[1.815601,41.242659],[1.815406,41.242335],[1.814917,41.242533],[1.814838,41.242532],[1.814796,41.24248],[1.814884,41.242431],[1.814984,41.242372],[1.815053,41.242336],[1.815204,41.242266],[1.815361,41.242203],[1.815485,41.242158],[1.81561,41.242116],[1.815695,41.24209],[1.815806,41.242061],[1.815888,41.242042],[1.816234,41.241981],[1.816272,41.241974],[1.81629,41.241966],[1.816306,41.241952],[1.816314,41.241936],[1.816316,41.241918],[1.816312,41.241907],[1.816267,41.241716],[1.816265,41.241703],[1.81627,41.24169],[1.816281,41.24168],[1.816297,41.241675],[1.816314,41.241675],[1.816322,41.241677],[1.816326,41.241679],[1.816355,41.241687],[1.816432,41.241593],[1.816432,41.241592],[1.816501,41.241506],[1.816716,41.241306],[1.816836,41.241196],[1.817081,41.241027],[1.817272,41.240922],[1.817425,41.240852],[1.817539,41.240807],[1.81777,41.24087],[1.817882,41.240685],[1.818009,41.240511],[1.818192,41.240327],[1.818322,41.240214],[1.818507,41.240204],[1.818497,41.239968],[1.818544,41.239712],[1.818625,41.239455],[1.818647,41.239451],[1.818665,41.239436],[1.818678,41.23939],[1.818666,41.239354],[1.818626,41.239335],[1.818606,41.239329],[1.818611,41.239188],[1.818612,41.239142],[1.818711,41.239156],[1.818824,41.239129],[1.818854,41.239121],[1.818951,41.239098],[1.818954,41.239099],[1.818981,41.239112],[1.819105,41.239202],[1.81946,41.239519],[1.819682,41.239369],[1.819949,41.239218],[1.819995,41.239215],[1.82026,41.239095],[1.820282,41.239085],[1.820794,41.238854],[1.820524,41.238418],[1.82039,41.238404],[1.820308,41.238377],[1.820229,41.238358],[1.820143,41.23822],[1.820143,41.238101],[1.820136,41.237957],[1.820066,41.237607],[1.820032,41.237491],[1.820031,41.23749],[1.818949,41.237535],[1.818937,41.237463],[1.818923,41.237367],[1.818919,41.237344],[1.818913,41.237299],[1.818774,41.237315],[1.818406,41.237161],[1.818365,41.23715],[1.818247,41.237117],[1.818202,41.23711],[1.818193,41.237109],[1.818174,41.236908],[1.818169,41.236865],[1.818173,41.236209],[1.818163,41.235987],[1.818,41.236048],[1.81797,41.236057],[1.817908,41.236086],[1.81765,41.236134],[1.817417,41.23617],[1.817414,41.236165],[1.817372,41.236087],[1.817329,41.236008],[1.817278,41.235927],[1.817271,41.235915],[1.817252,41.235916],[1.816949,41.235932],[1.816856,41.235937],[1.816848,41.235942],[1.816716,41.23601],[1.816715,41.236033],[1.816788,41.23608],[1.816761,41.236147],[1.816482,41.236161],[1.816234,41.236128],[1.816008,41.236056],[1.815936,41.235976],[1.81572,41.235987],[1.815727,41.236003],[1.815535,41.236191],[1.815343,41.236285],[1.814951,41.236319],[1.814825,41.236265],[1.81449,41.236183],[1.814457,41.236175],[1.813603,41.236011],[1.813167,41.235649],[1.813172,41.235641],[1.813233,41.235521],[1.813256,41.235475],[1.813334,41.235361],[1.813358,41.235281],[1.813353,41.235248],[1.813352,41.235241],[1.813267,41.235183],[1.813115,41.235081],[1.812827,41.234908],[1.812751,41.234882],[1.812742,41.234878],[1.812724,41.234885],[1.812675,41.234863],[1.812519,41.234795],[1.812471,41.234795],[1.811959,41.23462],[1.811939,41.234572],[1.811825,41.234545],[1.811756,41.234528],[1.811609,41.234487],[1.811537,41.234467],[1.811531,41.234466],[1.811389,41.23445],[1.811359,41.234455],[1.811356,41.234453],[1.811093,41.234266],[1.811007,41.23425],[1.810949,41.234258],[1.810902,41.234211],[1.810609,41.233893],[1.810245,41.233481],[1.81015,41.233534],[1.810247,41.233646],[1.810276,41.233679],[1.810304,41.233706],[1.810312,41.233723],[1.810296,41.233754],[1.810279,41.233777],[1.810258,41.233794],[1.810286,41.233821],[1.810683,41.234197],[1.810725,41.234314],[1.810766,41.234361],[1.810559,41.234508],[1.810251,41.234663],[1.809988,41.234729],[1.80973,41.234775],[1.809373,41.234794],[1.808589,41.23471],[1.808519,41.234695],[1.806752,41.234367],[1.805132,41.233726],[1.803612,41.233127],[1.802237,41.23255],[1.802148,41.232551],[1.802031,41.232715],[1.801985,41.232781],[1.801982,41.232785],[1.801008,41.232409],[1.799898,41.231999],[1.799835,41.231972],[1.799763,41.231942],[1.797702,41.231064],[1.796479,41.230545],[1.795809,41.230228],[1.795131,41.229931],[1.795034,41.229888],[1.794102,41.229417],[1.794102,41.229417],[1.793783,41.229255],[1.792344,41.228549],[1.792144,41.228416],[1.7909,41.227655],[1.790632,41.227476],[1.790574,41.227429],[1.790529,41.227391],[1.790089,41.227028],[1.790066,41.227009],[1.789571,41.226553],[1.789563,41.226546],[1.789559,41.226541],[1.789213,41.226143],[1.788777,41.225674],[1.78873,41.225616],[1.788509,41.225386],[1.788372,41.225261],[1.78823,41.225152],[1.78808,41.225071],[1.787957,41.225009],[1.787792,41.224931],[1.787514,41.224827],[1.787115,41.224691],[1.786743,41.224573],[1.786705,41.224641],[1.785661,41.224377],[1.784699,41.224128],[1.783517,41.223797],[1.783488,41.223844],[1.783454,41.223933],[1.783454,41.223941],[1.78336,41.224474],[1.783313,41.224897],[1.783303,41.224928],[1.783307,41.225286],[1.783462,41.225332],[1.783754,41.225419],[1.783761,41.225454],[1.783804,41.225586],[1.783894,41.225869],[1.783923,41.22598],[1.783982,41.226081],[1.784108,41.226225],[1.784232,41.226341],[1.784394,41.226446],[1.784475,41.226465],[1.784545,41.226606],[1.784585,41.226775],[1.784626,41.226887],[1.784642,41.22697],[1.784654,41.227029],[1.784665,41.22709],[1.784724,41.227159],[1.784768,41.227249],[1.784771,41.227364],[1.784757,41.227438],[1.784677,41.227529],[1.784653,41.2276],[1.784666,41.227699],[1.784708,41.227789],[1.784734,41.228007],[1.784766,41.228192],[1.784782,41.228259],[1.784781,41.228327],[1.784734,41.228398],[1.784642,41.228474],[1.784601,41.228525],[1.784556,41.228601],[1.784418,41.228826],[1.784296,41.229027],[1.784251,41.229131],[1.784246,41.229186],[1.784245,41.229273],[1.784188,41.229338],[1.784163,41.229397],[1.784142,41.229492],[1.784132,41.229622],[1.784204,41.229671],[1.784385,41.229795],[1.784448,41.229833],[1.784517,41.229868],[1.784566,41.229886],[1.784617,41.229897],[1.784651,41.2299],[1.784698,41.2299],[1.784742,41.229902],[1.78478,41.229907],[1.784795,41.229911],[1.784809,41.229918],[1.785059,41.230086],[1.785311,41.230254],[1.785599,41.230446],[1.78589,41.230634],[1.786257,41.230864],[1.786634,41.231103],[1.78684,41.23123],[1.787075,41.231388]]]]}},{"type":"Feature","id":"082704_082704 AP10 GAF 2","properties":{"area_id":"082704_082704 AP10 GAF 2","nom":"Vallbona","codi_icgc":"082704 AP10 GAF 2","categoria":"Àrees de poblament","codi_municipi":"082704","municipi":"Sitges","codi_comarca":"17","comarca":"Garraf","provincia":"Barcelona","font":"ICGC Àrees de poblament v3r1 202602"},"geometry":{"type":"MultiPolygon","coordinates":[[[[1.929523,41.263549],[1.929124,41.263609],[1.928829,41.263707],[1.928319,41.263937],[1.928242,41.2642],[1.928259,41.264221],[1.928283,41.264259],[1.928291,41.264274],[1.928303,41.264297],[1.928308,41.264309],[1.928312,41.264321],[1.928321,41.264357],[1.928328,41.264384],[1.92833,41.264419],[1.928334,41.264446],[1.928352,41.26455],[1.928377,41.264686],[1.928383,41.26472],[1.928396,41.264753],[1.928406,41.264768],[1.928054,41.265718],[1.928298,41.265769],[1.92832,41.265774],[1.928435,41.265798],[1.928671,41.265853],[1.928675,41.265851],[1.928725,41.265863],[1.928736,41.265832],[1.928989,41.265109],[1.929031,41.26512],[1.929144,41.265173],[1.929234,41.265216],[1.929371,41.265253],[1.929391,41.2652],[1.929461,41.265005],[1.92955,41.264733],[1.929516,41.264727],[1.929521,41.264705],[1.929558,41.264672],[1.929567,41.264671],[1.929559,41.26465],[1.929554,41.264638],[1.929721,41.264576],[1.929767,41.264559],[1.929918,41.264518],[1.930117,41.264492],[1.930271,41.264496],[1.930287,41.264497],[1.93037,41.264507],[1.930452,41.264523],[1.930501,41.264536],[1.930532,41.264549],[1.9309,41.264693],[1.930945,41.264624],[1.931014,41.264496],[1.930916,41.264459],[1.930961,41.264223],[1.930983,41.264005],[1.930984,41.263986],[1.930844,41.263854],[1.930771,41.263805],[1.930654,41.263778],[1.930585,41.263765],[1.93043,41.263766],[1.930234,41.263755],[1.930092,41.263751],[1.929998,41.26375],[1.929903,41.263761],[1.929733,41.263789],[1.929523,41.263549]]]]}},{"type":"Feature","id":"082704_082704 SI02 GAF 3","properties":{"area_id":"082704_082704 SI02 GAF 3","nom":"Vallcarca","codi_icgc":"082704 SI02 GAF 3","categoria":"Sector industrial","codi_municipi":"082704","municipi":"Sitges","codi_comarca":"17","comarca":"Garraf","provincia":"Barcelona","font":"ICGC Àrees de poblament v3r1 202602"},"geometry":{"type":"MultiPolygon","coordinates":[[[[1.860506,41.243634],[1.860547,41.243434],[1.860755,41.243479],[1.860971,41.243546],[1.861629,41.243603],[1.861843,41.24307],[1.861994,41.243047],[1.862084,41.242749],[1.862076,41.242641],[1.862107,41.242484],[1.862299,41.242393],[1.86246,41.242352],[1.862593,41.242346],[1.862753,41.242376],[1.862953,41.24244],[1.863149,41.242488],[1.863313,41.242318],[1.863269,41.242131],[1.863107,41.242003],[1.862988,41.241943],[1.863156,41.241522],[1.861784,41.240908],[1.861807,41.2408],[1.860873,41.240351],[1.859934,41.240032],[1.859798,41.239982],[1.859682,41.239974],[1.859631,41.239979],[1.859508,41.239999],[1.859375,41.240026],[1.859139,41.239945],[1.858868,41.239852],[1.858758,41.239822],[1.858612,41.239783],[1.858555,41.239782],[1.85845,41.239817],[1.858396,41.239873],[1.858348,41.239922],[1.858131,41.2402],[1.858043,41.240378],[1.858041,41.240485],[1.857964,41.240534],[1.857759,41.240519],[1.857688,41.240683],[1.856953,41.241365],[1.856977,41.241481],[1.856575,41.241915],[1.856546,41.241989],[1.856568,41.242129],[1.856598,41.242198],[1.856645,41.242285],[1.857399,41.242538],[1.857607,41.242567],[1.858243,41.24246],[1.858462,41.242398],[1.858804,41.242337],[1.859116,41.242383],[1.859425,41.242579],[1.859518,41.242675],[1.859535,41.242795],[1.859595,41.243136],[1.85967,41.243268],[1.859824,41.243351],[1.860112,41.24338],[1.860067,41.243592],[1.860506,41.243634]]],[[[1.854628,41.244128],[1.854151,41.243272],[1.852991,41.24354],[1.852895,41.243582],[1.853215,41.244243],[1.853763,41.244305],[1.854267,41.244217],[1.854628,41.244128]]]]}},{"type":"Feature","id":"082704_082704 AP02 GAF 2","properties":{"area_id":"082704_082704 AP02 GAF 2","nom":"Vallpineda","codi_icgc":"082704 AP02 GAF 2","categoria":"Àrees de poblament","codi_municipi":"082704","municipi":"Sitges","codi_comarca":"17","comarca":"Garraf","provincia":"Barcelona","font":"ICGC Àrees de poblament v3r1 202602"},"geometry":{"type":"MultiPolygon","coordinates":[[[[1.80275,41.250102],[1.802733,41.250082],[1.802877,41.250012],[1.802688,41.249757],[1.802506,41.249576],[1.802461,41.249533],[1.802368,41.249445],[1.802514,41.249388],[1.802696,41.249313],[1.802944,41.249212],[1.803067,41.249157],[1.803189,41.249094],[1.80327,41.249028],[1.803343,41.24896],[1.803417,41.24889],[1.803492,41.248816],[1.803526,41.248773],[1.803558,41.248721],[1.803573,41.248684],[1.803585,41.248644],[1.803911,41.248754],[1.804123,41.248951],[1.804224,41.249045],[1.804248,41.249027],[1.804214,41.248999],[1.804249,41.248968],[1.80425,41.248952],[1.804253,41.248952],[1.80425,41.248951],[1.804254,41.248909],[1.804278,41.248862],[1.804315,41.248815],[1.804433,41.248699],[1.804491,41.248642],[1.804512,41.248603],[1.804528,41.248555],[1.804533,41.248495],[1.804524,41.248467],[1.804503,41.248399],[1.804474,41.248335],[1.804438,41.248272],[1.804399,41.248226],[1.804352,41.248189],[1.804349,41.248187],[1.804182,41.248103],[1.804142,41.248082],[1.804182,41.248016],[1.804406,41.24764],[1.804137,41.247626],[1.80403,41.247372],[1.804017,41.247342],[1.803949,41.247354],[1.803457,41.247452],[1.803311,41.247482],[1.802856,41.247577],[1.802825,41.247503],[1.80282,41.247491],[1.803184,41.246551],[1.804409,41.247153],[1.804874,41.247097],[1.804816,41.246929],[1.80383,41.246436],[1.803937,41.245751],[1.803238,41.245658],[1.802748,41.245538],[1.802566,41.245861],[1.80232,41.245791],[1.80217,41.245736],[1.80148,41.245386],[1.801451,41.245432],[1.801354,41.245591],[1.801315,41.245654],[1.801216,41.245605],[1.801204,41.245599],[1.800981,41.245497],[1.801003,41.245442],[1.801008,41.245425],[1.801014,41.245405],[1.801021,41.245368],[1.801021,41.245348],[1.801013,41.245328],[1.801001,41.245315],[1.800977,41.2453],[1.800951,41.245292],[1.800897,41.245285],[1.800853,41.245281],[1.800808,41.24528],[1.800719,41.24528],[1.80066,41.245276],[1.800627,41.245271],[1.800496,41.245243],[1.800368,41.245209],[1.800103,41.245112],[1.799925,41.245045],[1.799677,41.24495],[1.799251,41.244786],[1.798826,41.244622],[1.798494,41.244497],[1.798159,41.244377],[1.797984,41.244319],[1.797806,41.244267],[1.797686,41.244235],[1.797525,41.244195],[1.797233,41.244126],[1.796941,41.244057],[1.796914,41.244064],[1.796835,41.244095],[1.796788,41.244134],[1.796639,41.244091],[1.796638,41.244086],[1.79662,41.24405],[1.796606,41.244028],[1.796586,41.24401],[1.79656,41.243996],[1.796531,41.243987],[1.79652,41.243985],[1.796254,41.243947],[1.795822,41.243973],[1.795804,41.243938],[1.795604,41.243971],[1.795225,41.244043],[1.79498,41.244092],[1.794677,41.244164],[1.794591,41.244227],[1.794606,41.244262],[1.794779,41.244347],[1.795082,41.244498],[1.79509,41.244493],[1.795211,41.244543],[1.79537,41.244612],[1.795705,41.244768],[1.795928,41.244864],[1.796137,41.244941],[1.79629,41.244992],[1.796505,41.245072],[1.796601,41.245102],[1.796839,41.2452],[1.797153,41.245395],[1.797371,41.245521],[1.797515,41.24562],[1.797602,41.24569],[1.797682,41.245774],[1.797858,41.246012],[1.797941,41.246115],[1.798084,41.246329],[1.798186,41.246442],[1.798292,41.246536],[1.798566,41.246737],[1.798669,41.246809],[1.798782,41.246844],[1.79877,41.246909],[1.79877,41.24696],[1.798764,41.24705],[1.79876,41.247121],[1.798779,41.247287],[1.798779,41.247288],[1.799007,41.24743],[1.798909,41.247761],[1.798944,41.247927],[1.79903,41.248051],[1.798996,41.248201],[1.799038,41.248354],[1.799105,41.248609],[1.799147,41.248739],[1.799252,41.248961],[1.799302,41.249046],[1.799349,41.249117],[1.799361,41.249135],[1.799361,41.249135],[1.799643,41.249558],[1.800024,41.249701],[1.800321,41.249787],[1.800336,41.249764],[1.800554,41.249832],[1.800568,41.249837],[1.800586,41.249843],[1.800596,41.249846],[1.800926,41.249958],[1.801111,41.250016],[1.801123,41.25002],[1.801238,41.250056],[1.801263,41.250063],[1.801358,41.250096],[1.80151,41.250081],[1.801591,41.250073],[1.801753,41.250078],[1.801794,41.250072],[1.801856,41.250426],[1.801904,41.250458],[1.802001,41.250452],[1.802256,41.250338],[1.802505,41.250217],[1.802514,41.250212],[1.80275,41.250102]]]]}},{"type":"Feature","id":"082704_082704 AP04 GAF 2","properties":{"area_id":"082704_082704 AP04 GAF 2","nom":"la Llevantina","codi_icgc":"082704 AP04 GAF 2","categoria":"Àrees de poblament","codi_municipi":"082704","municipi":"Sitges","codi_comarca":"17","comarca":"Garraf","provincia":"Barcelona","font":"ICGC Àrees de poblament v3r1 202602"},"geometry":{"type":"MultiPolygon","coordinates":[[[[1.826869,41.238415],[1.826842,41.238425],[1.826836,41.238423],[1.826822,41.238421],[1.826791,41.238417],[1.82676,41.238418],[1.826714,41.238424],[1.826683,41.238433],[1.82667,41.238436],[1.82662,41.238457],[1.826535,41.238499],[1.826447,41.238539],[1.826344,41.238586],[1.82624,41.238631],[1.826195,41.238649],[1.826148,41.238664],[1.826051,41.238688],[1.82604,41.23869],[1.825876,41.238654],[1.825798,41.238637],[1.825797,41.238624],[1.825796,41.238608],[1.825796,41.2386],[1.825725,41.238599],[1.825516,41.238574],[1.825363,41.238538],[1.825252,41.238542],[1.825174,41.238544],[1.824977,41.238581],[1.824843,41.238644],[1.824798,41.238665],[1.824786,41.238681],[1.82454,41.23883],[1.824495,41.238857],[1.824402,41.238914],[1.824272,41.238993],[1.82425,41.238997],[1.824112,41.239022],[1.823836,41.239076],[1.823543,41.23913],[1.82347,41.239144],[1.82341,41.239155],[1.823376,41.239163],[1.823348,41.23917],[1.823318,41.23918],[1.82331,41.239183],[1.822476,41.239389],[1.822351,41.239393],[1.822324,41.239412],[1.822316,41.239413],[1.822314,41.239413],[1.82195,41.239508],[1.821541,41.239639],[1.821663,41.240015],[1.821728,41.240213],[1.821719,41.240238],[1.821734,41.240232],[1.821735,41.240237],[1.822079,41.240244],[1.822125,41.240265],[1.822211,41.240626],[1.822213,41.240639],[1.822218,41.24065],[1.822316,41.240876],[1.822356,41.240993],[1.82247,41.241195],[1.822478,41.241204],[1.822535,41.241265],[1.822534,41.241265],[1.822509,41.241285],[1.822372,41.241392],[1.822244,41.241491],[1.82215,41.241565],[1.822117,41.241593],[1.822063,41.241666],[1.821976,41.241786],[1.821972,41.241792],[1.821885,41.241932],[1.821834,41.242014],[1.821814,41.24205],[1.821774,41.242124],[1.821706,41.24225],[1.821674,41.24231],[1.821639,41.242407],[1.821624,41.242416],[1.821623,41.242422],[1.821633,41.242428],[1.821614,41.242497],[1.821612,41.242563],[1.821612,41.242563],[1.821622,41.242631],[1.821626,41.242701],[1.821629,41.242715],[1.821645,41.242782],[1.821671,41.242858],[1.821672,41.242859],[1.821732,41.243009],[1.821789,41.243152],[1.821806,41.243194],[1.821858,41.243299],[1.821861,41.243303],[1.821913,41.2434],[1.821937,41.243451],[1.821961,41.243495],[1.821977,41.243541],[1.821984,41.243558],[1.821982,41.243567],[1.821985,41.243576],[1.821995,41.243619],[1.821998,41.243678],[1.821998,41.243737],[1.821995,41.243806],[1.821989,41.243852],[1.821986,41.243875],[1.82197,41.243949],[1.821954,41.244021],[1.821933,41.244117],[1.821932,41.244122],[1.821911,41.244214],[1.821897,41.244267],[1.821896,41.244275],[1.821877,41.244336],[1.821852,41.244398],[1.821857,41.244402],[1.821852,41.244403],[1.821872,41.244412],[1.822063,41.244537],[1.82229,41.24458],[1.822379,41.244282],[1.822394,41.244228],[1.822435,41.244076],[1.822474,41.243877],[1.822474,41.243877],[1.82248,41.243726],[1.822462,41.24354],[1.822461,41.243531],[1.822458,41.243513],[1.822429,41.243377],[1.822367,41.243266],[1.822364,41.243261],[1.822307,41.243139],[1.822305,41.243133],[1.822253,41.243022],[1.822248,41.243013],[1.82219,41.242888],[1.822264,41.24289],[1.822298,41.24289],[1.822274,41.242783],[1.822234,41.242604],[1.822242,41.24255],[1.822264,41.242485],[1.822295,41.242394],[1.822316,41.242349],[1.822364,41.242247],[1.822403,41.242175],[1.822437,41.242113],[1.822479,41.242035],[1.822507,41.241985],[1.822546,41.241912],[1.822547,41.241912],[1.822679,41.24181],[1.822682,41.241807],[1.822808,41.241709],[1.822748,41.241657],[1.822727,41.241639],[1.822856,41.241536],[1.822946,41.241463],[1.823044,41.241417],[1.823059,41.24141],[1.823065,41.24142],[1.823151,41.241565],[1.823166,41.241591],[1.823266,41.241811],[1.823268,41.241816],[1.823361,41.242027],[1.823362,41.242027],[1.823447,41.242219],[1.823494,41.242318],[1.823546,41.242381],[1.823614,41.242462],[1.823728,41.242565],[1.823873,41.242693],[1.823938,41.24276],[1.82411,41.242927],[1.824137,41.242953],[1.823993,41.24311],[1.824333,41.243178],[1.824329,41.243204],[1.824565,41.24323],[1.824672,41.243242],[1.824906,41.2434],[1.824906,41.2434],[1.825152,41.243507],[1.825153,41.243507],[1.82536,41.243596],[1.825366,41.243599],[1.825566,41.243683],[1.825648,41.243718],[1.825765,41.24375],[1.825962,41.243804],[1.825964,41.243804],[1.826164,41.243858],[1.826172,41.24386],[1.826307,41.243892],[1.82643,41.243907],[1.826573,41.24392],[1.826856,41.243916],[1.826887,41.243918],[1.827069,41.24393],[1.827189,41.243946],[1.827262,41.243955],[1.827492,41.243984],[1.827494,41.243984],[1.827657,41.244012],[1.827809,41.244022],[1.827916,41.24401],[1.827963,41.244005],[1.828305,41.243915],[1.828331,41.243912],[1.828449,41.243881],[1.828485,41.243871],[1.828487,41.243871],[1.828875,41.24377],[1.828879,41.243769],[1.829111,41.243694],[1.829196,41.243666],[1.829521,41.243535],[1.829527,41.243531],[1.829627,41.243472],[1.829806,41.243365],[1.829842,41.243317],[1.829901,41.243238],[1.829995,41.243112],[1.830006,41.243099],[1.830014,41.243085],[1.830011,41.243076],[1.830001,41.243067],[1.829988,41.24306],[1.829961,41.243049],[1.829902,41.243026],[1.829843,41.243004],[1.829805,41.242992],[1.829755,41.242978],[1.829635,41.242951],[1.829516,41.242923],[1.829521,41.24291],[1.829525,41.242897],[1.829535,41.242867],[1.829544,41.242826],[1.829548,41.242784],[1.82955,41.242737],[1.829551,41.242691],[1.829556,41.242621],[1.82956,41.242552],[1.829564,41.24252],[1.829568,41.242491],[1.828984,41.242428],[1.82883,41.242248],[1.828958,41.242142],[1.829309,41.241913],[1.829613,41.241719],[1.829686,41.241565],[1.829666,41.241398],[1.829494,41.240836],[1.82949,41.2406],[1.82948,41.240591],[1.829319,41.240457],[1.829148,41.240314],[1.828936,41.240188],[1.828762,41.240085],[1.828685,41.240048],[1.828652,41.24006],[1.828646,41.240029],[1.828611,41.23986],[1.82857,41.239759],[1.828482,41.239725],[1.82804,41.23972],[1.827901,41.239565],[1.827861,41.239537],[1.827734,41.239432],[1.827694,41.239399],[1.827551,41.239245],[1.827557,41.239227],[1.827691,41.239045],[1.828302,41.238765],[1.82813,41.238506],[1.827819,41.238233],[1.827713,41.23812],[1.827307,41.238245],[1.826888,41.238436],[1.826869,41.238415]]]]}},{"type":"Feature","id":"082704_082704 AP16 GAF 2","properties":{"area_id":"082704_082704 AP16 GAF 2","nom":"la Punta Gavina","codi_icgc":"082704 AP16 GAF 2","categoria":"Àrees de poblament","codi_municipi":"082704","municipi":"Sitges","codi_comarca":"17","comarca":"Garraf","provincia":"Barcelona","font":"ICGC Àrees de poblament v3r1 202602"},"geometry":{"type":"MultiPolygon","coordinates":[[[[1.831926,41.236011],[1.831818,41.235999],[1.831524,41.236161],[1.831599,41.236484],[1.831983,41.236383],[1.83281,41.236161],[1.832751,41.236027],[1.832722,41.236024],[1.83261,41.236017],[1.832508,41.236021],[1.832383,41.236037],[1.832282,41.236056],[1.832214,41.236062],[1.832161,41.236057],[1.832074,41.236039],[1.831951,41.236013],[1.831926,41.236011]]]]}},{"type":"Feature","id":"082704_082704 AP11 GAF 3","properties":{"area_id":"082704_082704 AP11 GAF 3","nom":"les Botigues","codi_icgc":"082704 AP11 GAF 3","categoria":"Àrees de poblament","codi_municipi":"082704","municipi":"Sitges","codi_comarca":"17","comarca":"Garraf","provincia":"Barcelona","font":"ICGC Àrees de poblament v3r1 202602"},"geometry":{"type":"MultiPolygon","coordinates":[[[[1.94244,41.265234],[1.942507,41.265035],[1.943635,41.265194],[1.943692,41.265163],[1.943711,41.265127],[1.943749,41.265034],[1.943781,41.264936],[1.943804,41.264858],[1.943823,41.264789],[1.943835,41.264707],[1.943844,41.264618],[1.943846,41.264566],[1.943837,41.264513],[1.943821,41.264436],[1.943782,41.264365],[1.942434,41.264233],[1.940696,41.264062],[1.939699,41.263967],[1.939088,41.263893],[1.938112,41.26375],[1.937175,41.263599],[1.935293,41.263298],[1.934561,41.263181],[1.933395,41.262992],[1.932541,41.262856],[1.932501,41.262936],[1.93228,41.263306],[1.934204,41.263871],[1.935808,41.264236],[1.937012,41.264519],[1.939602,41.264886],[1.94244,41.265234]]],[[[1.93558,41.265612],[1.935638,41.265563],[1.935746,41.265521],[1.935762,41.265476],[1.935932,41.26553],[1.936073,41.2656],[1.936198,41.265675],[1.936307,41.265776],[1.936323,41.265848],[1.936372,41.265853],[1.93657,41.265907],[1.936797,41.265822],[1.93777,41.266225],[1.937776,41.266221],[1.938063,41.266134],[1.93815,41.266108],[1.938318,41.266159],[1.938416,41.266199],[1.938453,41.266197],[1.938647,41.266272],[1.939074,41.266437],[1.939808,41.266468],[1.939889,41.266373],[1.940063,41.266333],[1.94019,41.266319],[1.940264,41.266304],[1.94028,41.266317],[1.940311,41.266339],[1.940348,41.266347],[1.940355,41.266325],[1.940408,41.266335],[1.94041,41.266328],[1.940437,41.266334],[1.940587,41.266367],[1.940674,41.266331],[1.940708,41.266307],[1.94071,41.266306],[1.940729,41.266292],[1.940905,41.26631],[1.940908,41.26631],[1.940979,41.266296],[1.941139,41.266308],[1.94114,41.266302],[1.941282,41.266295],[1.941449,41.266319],[1.941494,41.266322],[1.941676,41.266338],[1.941752,41.266344],[1.941853,41.266364],[1.941886,41.266368],[1.942028,41.2664],[1.942109,41.266425],[1.942167,41.266481],[1.942185,41.266499],[1.942223,41.266511],[1.942273,41.266515],[1.942272,41.266566],[1.942532,41.26662],[1.942578,41.266625],[1.942671,41.266642],[1.942674,41.266643],[1.942739,41.266655],[1.942803,41.266673],[1.943024,41.266466],[1.94327,41.266249],[1.943274,41.266239],[1.943126,41.266228],[1.943067,41.266224],[1.943066,41.266224],[1.94304,41.266222],[1.943042,41.26622],[1.942471,41.266178],[1.941222,41.26607],[1.94037,41.266002],[1.940247,41.26599],[1.939303,41.26592],[1.938636,41.265853],[1.938371,41.265829],[1.938206,41.265796],[1.937917,41.26574],[1.937573,41.265626],[1.937008,41.265445],[1.936772,41.265354],[1.936386,41.265236],[1.935239,41.264888],[1.934967,41.264822],[1.933589,41.264409],[1.933522,41.26439],[1.933493,41.264391],[1.93326,41.26432],[1.933256,41.264321],[1.933219,41.264404],[1.933129,41.264529],[1.933039,41.264635],[1.93299,41.264655],[1.932832,41.264606],[1.932782,41.264571],[1.932605,41.264556],[1.932388,41.264558],[1.932206,41.264581],[1.931981,41.264644],[1.932095,41.264881],[1.93228,41.264828],[1.93251,41.264807],[1.932697,41.264834],[1.932905,41.264911],[1.932954,41.265066],[1.932986,41.265242],[1.932976,41.265379],[1.932963,41.265495],[1.932941,41.265568],[1.933094,41.265586],[1.933138,41.26562],[1.933244,41.26565],[1.933352,41.265667],[1.933402,41.265668],[1.933446,41.265671],[1.933449,41.265683],[1.933442,41.265711],[1.933477,41.265728],[1.933537,41.265731],[1.933572,41.265708],[1.933594,41.265691],[1.93362,41.265682],[1.933658,41.265689],[1.933814,41.265823],[1.933979,41.265721],[1.934224,41.265635],[1.934379,41.265598],[1.934544,41.265581],[1.934689,41.265584],[1.934856,41.265593],[1.934995,41.265628],[1.935139,41.265674],[1.935258,41.265728],[1.935374,41.265793],[1.935439,41.265858],[1.93552,41.265954],[1.93557,41.26601],[1.935628,41.266127],[1.935673,41.266249],[1.9357,41.266366],[1.935695,41.26649],[1.935674,41.26661],[1.935615,41.266724],[1.93554,41.266835],[1.935492,41.266906],[1.935329,41.267033],[1.935425,41.267104],[1.935569,41.267195],[1.935595,41.267176],[1.935717,41.267079],[1.93583,41.266961],[1.935924,41.266804],[1.935989,41.266686],[1.935999,41.266627],[1.936027,41.266477],[1.936023,41.266331],[1.935988,41.266166],[1.935924,41.265999],[1.93586,41.265896],[1.935748,41.265761],[1.935639,41.265668],[1.93558,41.265612]]]]}},{"type":"Feature","id":"082704_082704 AP14 GAF 3","properties":{"area_id":"082704_082704 AP14 GAF 3","nom":"les Cases dels Treballadors","codi_icgc":"082704 AP14 GAF 3","categoria":"Àrees de poblament","codi_municipi":"082704","municipi":"Sitges","codi_comarca":"17","comarca":"Garraf","provincia":"Barcelona","font":"ICGC Àrees de poblament v3r1 202602"},"geometry":{"type":"MultiPolygon","coordinates":[[[[1.856075,41.242075],[1.856329,41.242128],[1.856352,41.242127],[1.856368,41.242118],[1.856395,41.242084],[1.856486,41.241934],[1.856634,41.241735],[1.856669,41.241698],[1.856718,41.241647],[1.856849,41.241512],[1.856838,41.241497],[1.856726,41.241443],[1.856701,41.24143],[1.856307,41.24124],[1.856212,41.241295],[1.855809,41.241686],[1.855786,41.241738],[1.855777,41.24177],[1.855782,41.241915],[1.855796,41.241937],[1.855878,41.241999],[1.855904,41.241997],[1.855968,41.242],[1.855987,41.242008],[1.856026,41.242026],[1.856036,41.242035],[1.856054,41.242054],[1.856075,41.242075]]]]}},{"type":"Feature","id":"082704_082704 AP13 GAF 2","properties":{"area_id":"082704_082704 AP13 GAF 2","nom":"les Forques","codi_icgc":"082704 AP13 GAF 2","categoria":"Àrees de poblament","codi_municipi":"082704","municipi":"Sitges","codi_comarca":"17","comarca":"Garraf","provincia":"Barcelona","font":"ICGC Àrees de poblament v3r1 202602"},"geometry":{"type":"MultiPolygon","coordinates":[[[[1.822514,41.23764],[1.821894,41.237603],[1.821351,41.237568],[1.821351,41.237568],[1.820452,41.23751],[1.820349,41.237603],[1.820199,41.237653],[1.82025,41.237862],[1.820435,41.238059],[1.820448,41.238072],[1.820471,41.238083],[1.820514,41.238094],[1.820558,41.238111],[1.820614,41.238146],[1.820622,41.238192],[1.820646,41.238224],[1.820681,41.2383],[1.820671,41.238323],[1.820624,41.238391],[1.820649,41.23844],[1.820681,41.238491],[1.820717,41.23854],[1.820758,41.238586],[1.820766,41.238599],[1.820774,41.238611],[1.820794,41.238622],[1.820815,41.23863],[1.820842,41.238636],[1.820867,41.238647],[1.820877,41.238655],[1.820887,41.238663],[1.820901,41.238683],[1.820907,41.238704],[1.820906,41.238726],[1.821039,41.238739],[1.821285,41.238765],[1.82153,41.238794],[1.821587,41.238799],[1.821589,41.238798],[1.821589,41.238799],[1.821694,41.238802],[1.821799,41.2388],[1.821903,41.238793],[1.822007,41.23878],[1.822077,41.238769],[1.822149,41.238749],[1.822219,41.238724],[1.822285,41.238694],[1.822347,41.23866],[1.822404,41.238621],[1.822456,41.238577],[1.822501,41.23853],[1.822507,41.238524],[1.822519,41.238498],[1.822524,41.23847],[1.822523,41.238463],[1.822578,41.238436],[1.822847,41.2382],[1.822921,41.238161],[1.823212,41.238009],[1.823375,41.237924],[1.823417,41.237895],[1.82345,41.23786],[1.823465,41.237837],[1.823478,41.237812],[1.823492,41.237777],[1.823506,41.237742],[1.823515,41.237714],[1.823454,41.237701],[1.822514,41.23764]]]]}}]}