{"type":"FeatureCollection","name":"ICGC Àrees de poblament - Ullastrell","features":[{"type":"Feature","id":"082900_082900 AP04 VOC 3","properties":{"area_id":"082900_082900 AP04 VOC 3","nom":"Ca n'Amat","codi_icgc":"082900 AP04 VOC 3","categoria":"Àrees de poblament","codi_municipi":"082900","municipi":"Ullastrell","codi_comarca":"40","comarca":"Vallès Occidental","provincia":"Barcelona","font":"ICGC Àrees de poblament v3r1 202602"},"geometry":{"type":"MultiPolygon","coordinates":[[[[1.983503,41.531168],[1.983448,41.53113],[1.9834,41.531087],[1.983373,41.531056],[1.983325,41.53099],[1.98328,41.530924],[1.98328,41.530924],[1.983247,41.530884],[1.98319,41.530826],[1.983127,41.530772],[1.983103,41.530757],[1.983085,41.530744],[1.983041,41.53072],[1.983011,41.530707],[1.982967,41.530694],[1.982847,41.53067],[1.982805,41.530662],[1.982717,41.530644],[1.982628,41.530625],[1.982578,41.530614],[1.982529,41.530602],[1.982496,41.530591],[1.982465,41.530575],[1.982409,41.530536],[1.982357,41.530494],[1.982335,41.530473],[1.982316,41.53045],[1.982301,41.53042],[1.982296,41.530389],[1.9823,41.530358],[1.982312,41.530328],[1.982336,41.530291],[1.982366,41.530256],[1.982396,41.530228],[1.982428,41.530201],[1.982453,41.530186],[1.982485,41.53017],[1.982505,41.530159],[1.982562,41.530138],[1.982601,41.530126],[1.982641,41.530113],[1.982718,41.530093],[1.982765,41.530076],[1.982769,41.530074],[1.982816,41.530052],[1.982864,41.530025],[1.982892,41.530004],[1.982945,41.529953],[1.982992,41.529897],[1.983018,41.529861],[1.983105,41.529766],[1.983153,41.529596],[1.983201,41.529428],[1.983079,41.529022],[1.98279,41.528518],[1.982888,41.528456],[1.982899,41.528433],[1.982904,41.528409],[1.982905,41.528391],[1.982903,41.528373],[1.982888,41.528325],[1.982868,41.528278],[1.98285,41.528241],[1.982849,41.52824],[1.982849,41.528241],[1.98284,41.52823],[1.982823,41.528221],[1.982791,41.528212],[1.982758,41.528203],[1.982689,41.528169],[1.982586,41.528035],[1.982553,41.527988],[1.982595,41.527963],[1.982574,41.527896],[1.982552,41.527829],[1.982546,41.52779],[1.982548,41.527751],[1.982563,41.527673],[1.982577,41.527611],[1.982584,41.527583],[1.982592,41.527548],[1.982605,41.527491],[1.982615,41.527434],[1.982614,41.527404],[1.98261,41.527374],[1.982597,41.527314],[1.982573,41.527185],[1.982547,41.527056],[1.982525,41.526981],[1.982501,41.526905],[1.982488,41.526839],[1.982481,41.526772],[1.98248,41.526727],[1.982484,41.52665],[1.982494,41.526573],[1.982515,41.52646],[1.982537,41.526348],[1.982549,41.526273],[1.982559,41.526181],[1.98257,41.526089],[1.982577,41.526024],[1.982584,41.525959],[1.982583,41.525931],[1.982579,41.525904],[1.982566,41.525849],[1.982551,41.525798],[1.982533,41.525748],[1.982502,41.525689],[1.982466,41.525631],[1.982427,41.525576],[1.982382,41.525525],[1.98233,41.525476],[1.982271,41.525432],[1.982227,41.525402],[1.982181,41.525374],[1.982148,41.525359],[1.982057,41.525324],[1.98198,41.525297],[1.981721,41.525396],[1.981631,41.525427],[1.981552,41.525454],[1.981467,41.525483],[1.981086,41.525612],[1.980948,41.525659],[1.980888,41.52568],[1.980832,41.525833],[1.980778,41.525881],[1.980719,41.525933],[1.980698,41.525971],[1.980678,41.526008],[1.980665,41.526014],[1.980589,41.52616],[1.980559,41.526261],[1.980553,41.526455],[1.980532,41.5265],[1.980518,41.526515],[1.980453,41.526586],[1.980441,41.526599],[1.980439,41.526599],[1.980432,41.526605],[1.980395,41.526629],[1.980377,41.526637],[1.980348,41.526645],[1.980319,41.52665],[1.980272,41.526654],[1.980249,41.526653],[1.980227,41.52665],[1.980184,41.526639],[1.980143,41.526623],[1.980093,41.5266],[1.980043,41.526575],[1.979994,41.526549],[1.979944,41.526523],[1.979913,41.526504],[1.979776,41.526416],[1.97964,41.526328],[1.97956,41.52628],[1.979477,41.526235],[1.979437,41.526217],[1.979421,41.52621],[1.979363,41.52619],[1.9793,41.52617],[1.979256,41.526159],[1.979236,41.526154],[1.979203,41.526148],[1.979163,41.526141],[1.979089,41.526134],[1.979027,41.52613],[1.978966,41.526129],[1.978913,41.526129],[1.97886,41.526134],[1.97883,41.526139],[1.978801,41.526147],[1.978744,41.526167],[1.978697,41.526187],[1.978653,41.526209],[1.978626,41.526228],[1.978585,41.526261],[1.978548,41.526297],[1.978527,41.526322],[1.978473,41.52639],[1.97842,41.526458],[1.978406,41.526484],[1.978346,41.52657],[1.978284,41.526655],[1.978171,41.526799],[1.978138,41.526842],[1.978059,41.526944],[1.977989,41.527046],[1.977928,41.52715],[1.97788,41.527242],[1.977833,41.527334],[1.977811,41.52738],[1.977792,41.52743],[1.977787,41.52751],[1.97779,41.527588],[1.977802,41.527742],[1.977816,41.527952],[1.977908,41.528076],[1.977969,41.528159],[1.978079,41.528308],[1.978137,41.528354],[1.978213,41.528402],[1.978297,41.528444],[1.978382,41.52848],[1.978452,41.528507],[1.978523,41.528532],[1.978603,41.528558],[1.978686,41.528583],[1.978756,41.528598],[1.978793,41.528603],[1.978831,41.528605],[1.97889,41.528602],[1.978949,41.528596],[1.979041,41.528583],[1.979131,41.528567],[1.979206,41.528551],[1.979256,41.528537],[1.979279,41.528531],[1.979332,41.528512],[1.979381,41.52849],[1.979435,41.528464],[1.979488,41.528435],[1.979541,41.528403],[1.979593,41.528371],[1.9796,41.528368],[1.979607,41.528364],[1.979621,41.528363],[1.979634,41.528367],[1.979645,41.528372],[1.979654,41.528378],[1.979668,41.52839],[1.979677,41.528403],[1.979689,41.52843],[1.9797,41.528456],[1.979722,41.52851],[1.979745,41.528565],[1.979763,41.528594],[1.979786,41.528622],[1.979816,41.528657],[1.979846,41.528692],[1.979818,41.528686],[1.97981,41.528686],[1.979804,41.528691],[1.979789,41.528721],[1.97978,41.528751],[1.979771,41.528771],[1.979732,41.528838],[1.979717,41.528862],[1.979693,41.528904],[1.979662,41.52896],[1.97963,41.529016],[1.979625,41.529023],[1.979616,41.529027],[1.979604,41.529029],[1.979592,41.529029],[1.979588,41.529028],[1.979471,41.529019],[1.97935,41.529005],[1.97927,41.529],[1.979256,41.529],[1.979236,41.529],[1.979202,41.529004],[1.97918,41.52901],[1.979167,41.529018],[1.979164,41.529021],[1.979158,41.529028],[1.979155,41.529042],[1.979151,41.529056],[1.979136,41.529072],[1.979118,41.529085],[1.979103,41.529089],[1.979075,41.529091],[1.979047,41.529093],[1.979026,41.529095],[1.979019,41.529096],[1.978963,41.529096],[1.978823,41.529123],[1.978792,41.52914],[1.978763,41.529169],[1.978754,41.529178],[1.978772,41.529216],[1.978858,41.529392],[1.978912,41.529482],[1.979018,41.529608],[1.979031,41.529621],[1.979051,41.529642],[1.979108,41.529704],[1.979164,41.529766],[1.979208,41.529818],[1.979254,41.529869],[1.979256,41.529871],[1.979277,41.529887],[1.979315,41.52991],[1.979354,41.529933],[1.979366,41.529942],[1.979431,41.529988],[1.979508,41.530043],[1.979633,41.530124],[1.979758,41.530205],[1.979805,41.530236],[1.97985,41.530269],[1.979887,41.5303],[1.979917,41.530335],[1.979934,41.530361],[1.979954,41.530392],[1.979991,41.530449],[1.980018,41.530485],[1.980048,41.530521],[1.980067,41.530541],[1.98009,41.530559],[1.980113,41.530573],[1.980125,41.530577],[1.980137,41.530578],[1.980166,41.530577],[1.980209,41.530574],[1.980251,41.53057],[1.980254,41.53057],[1.980294,41.530566],[1.980333,41.530563],[1.980337,41.530563],[1.980364,41.530564],[1.980392,41.530569],[1.980497,41.530591],[1.980651,41.530623],[1.980855,41.530666],[1.980942,41.53069],[1.981075,41.530735],[1.981255,41.530799],[1.981265,41.530802],[1.981454,41.530903],[1.981457,41.530905],[1.981602,41.531009],[1.98162,41.531018],[1.981783,41.531098],[1.981959,41.531196],[1.982056,41.531271],[1.982058,41.531272],[1.98217,41.531349],[1.982234,41.531384],[1.982501,41.531139],[1.982543,41.53115],[1.982583,41.531166],[1.982664,41.531213],[1.982779,41.531281],[1.982896,41.531351],[1.983126,41.531488],[1.983196,41.531531],[1.983298,41.531601],[1.983398,41.531672],[1.983428,41.531696],[1.983468,41.531733],[1.983497,41.531766],[1.983518,41.531799],[1.983538,41.53185],[1.983553,41.531904],[1.983558,41.531938],[1.983557,41.531971],[1.983549,41.532007],[1.98354,41.532034],[1.98352,41.532077],[1.983494,41.532119],[1.983479,41.532138],[1.983449,41.532168],[1.983414,41.532198],[1.983375,41.532227],[1.983363,41.532234],[1.98341,41.532309],[1.983548,41.532485],[1.983601,41.532525],[1.983743,41.532559],[1.983904,41.532408],[1.98391,41.532398],[1.984062,41.53214],[1.984082,41.532107],[1.984121,41.53204],[1.984116,41.531893],[1.984111,41.531867],[1.984058,41.531562],[1.983709,41.531426],[1.983793,41.531357],[1.983852,41.531308],[1.983614,41.531219],[1.983601,41.531214],[1.983551,41.531193],[1.983503,41.531168]]],[[[1.978368,41.533496],[1.978418,41.533495],[1.978422,41.533499],[1.978428,41.533494],[1.97847,41.533493],[1.978657,41.533486],[1.978843,41.53348],[1.978919,41.533476],[1.978967,41.533472],[1.978998,41.533472],[1.979014,41.533467],[1.979088,41.53344],[1.979122,41.533441],[1.979132,41.533441],[1.979145,41.533431],[1.979267,41.533342],[1.979285,41.533335],[1.979356,41.533309],[1.979553,41.533311],[1.979579,41.533311],[1.979845,41.53338],[1.979934,41.533381],[1.979996,41.533368],[1.980046,41.533352],[1.98009,41.533331],[1.980117,41.533314],[1.980159,41.533279],[1.98019,41.53324],[1.980211,41.533204],[1.980213,41.533199],[1.980225,41.533168],[1.980226,41.533168],[1.98023,41.533144],[1.980231,41.533143],[1.980231,41.533123],[1.980231,41.533109],[1.980225,41.533074],[1.980221,41.533061],[1.980206,41.533049],[1.980188,41.53302],[1.979966,41.532677],[1.979902,41.532578],[1.980318,41.532438],[1.9804,41.532411],[1.980393,41.532402],[1.980461,41.53242],[1.980967,41.531974],[1.980502,41.53167],[1.980401,41.531605],[1.980248,41.531514],[1.980094,41.531427],[1.979995,41.531373],[1.979987,41.531368],[1.979982,41.531346],[1.980002,41.531323],[1.980021,41.531301],[1.980032,41.531286],[1.980043,41.531261],[1.98005,41.531235],[1.980054,41.531199],[1.98005,41.531163],[1.980044,41.531142],[1.980029,41.531113],[1.980004,41.531086],[1.979983,41.531069],[1.979948,41.531051],[1.979908,41.531037],[1.979865,41.531026],[1.979804,41.53101],[1.979765,41.531002],[1.979751,41.530999],[1.979697,41.530992],[1.979617,41.530987],[1.979538,41.530986],[1.979538,41.530986],[1.979499,41.530987],[1.979454,41.530989],[1.979413,41.530993],[1.979371,41.531],[1.9793,41.531021],[1.979256,41.531035],[1.979231,41.531043],[1.97918,41.531054],[1.979156,41.53106],[1.979133,41.531065],[1.979349,41.531299],[1.979298,41.531327],[1.979256,41.531357],[1.979243,41.531367],[1.979241,41.531368],[1.979208,41.531398],[1.97917,41.531442],[1.97914,41.531491],[1.979125,41.531527],[1.979114,41.531569],[1.979112,41.531575],[1.97911,41.531626],[1.979117,41.531676],[1.979133,41.531724],[1.979136,41.531732],[1.979149,41.531743],[1.979164,41.53176],[1.979181,41.531781],[1.979256,41.531887],[1.979297,41.531943],[1.979343,41.532004],[1.97939,41.532064],[1.979462,41.532154],[1.979535,41.532243],[1.979611,41.53234],[1.979685,41.532437],[1.97983,41.532635],[1.979975,41.532834],[1.980052,41.532942],[1.979876,41.533019],[1.979786,41.533048],[1.979754,41.533063],[1.979747,41.533162],[1.979721,41.533165],[1.979714,41.533166],[1.979716,41.533158],[1.979718,41.533131],[1.979712,41.533104],[1.979694,41.533066],[1.979668,41.53303],[1.979638,41.532997],[1.979602,41.532969],[1.979579,41.532955],[1.979557,41.532939],[1.979512,41.532909],[1.979455,41.532872],[1.979421,41.53285],[1.979303,41.532787],[1.979265,41.532763],[1.979256,41.532757],[1.979256,41.532757],[1.979211,41.532728],[1.979121,41.532666],[1.979112,41.532659],[1.979054,41.532617],[1.978989,41.532566],[1.978961,41.532544],[1.97895,41.532535],[1.978914,41.532502],[1.978838,41.532425],[1.97883,41.532416],[1.978763,41.532348],[1.978607,41.532187],[1.978452,41.532025],[1.978451,41.532025],[1.978389,41.531955],[1.978329,41.531885],[1.978307,41.531863],[1.978279,41.531835],[1.978224,41.531787],[1.978197,41.531769],[1.978175,41.531759],[1.978166,41.531755],[1.978102,41.531727],[1.978062,41.531704],[1.97804,41.531686],[1.978038,41.531684],[1.978008,41.531532],[1.978046,41.531485],[1.978047,41.531452],[1.978051,41.531383],[1.978059,41.5313],[1.978068,41.531217],[1.978076,41.531106],[1.978083,41.530995],[1.978088,41.530921],[1.978093,41.530847],[1.978102,41.530788],[1.978118,41.530729],[1.978143,41.530655],[1.978174,41.530582],[1.978177,41.530577],[1.978151,41.530563],[1.978117,41.530544],[1.978072,41.53054],[1.978099,41.530385],[1.978154,41.530385],[1.978,41.530146],[1.977854,41.530101],[1.97785,41.530093],[1.977849,41.530087],[1.97785,41.53008],[1.977855,41.530064],[1.977893,41.529978],[1.977924,41.52989],[1.977947,41.529801],[1.977962,41.529711],[1.97797,41.529621],[1.97797,41.529583],[1.977966,41.529494],[1.977953,41.529405],[1.977933,41.529317],[1.977905,41.52923],[1.977896,41.529206],[1.977888,41.529182],[1.977839,41.529076],[1.977839,41.529076],[1.977735,41.529099],[1.977703,41.52907],[1.977665,41.529046],[1.977622,41.529025],[1.977583,41.529012],[1.977576,41.52901],[1.977528,41.529],[1.977478,41.528996],[1.977427,41.528997],[1.97739,41.528996],[1.977345,41.528992],[1.977321,41.52899],[1.977254,41.528978],[1.977188,41.528961],[1.977126,41.528939],[1.977126,41.528971],[1.977126,41.529053],[1.977119,41.529187],[1.977111,41.529275],[1.977111,41.529321],[1.977112,41.529421],[1.97711,41.529687],[1.977101,41.530044],[1.977101,41.530046],[1.977097,41.530196],[1.977097,41.530198],[1.977078,41.530333],[1.977078,41.530348],[1.977073,41.530497],[1.977069,41.530658],[1.977065,41.530787],[1.977071,41.530828],[1.977099,41.531002],[1.977133,41.531142],[1.977152,41.531222],[1.977165,41.5313],[1.977201,41.531538],[1.977208,41.531618],[1.977242,41.531806],[1.977242,41.532006],[1.977292,41.532151],[1.977322,41.532197],[1.977697,41.532587],[1.977603,41.532642],[1.977598,41.532661],[1.977607,41.532674],[1.977594,41.53268],[1.97756,41.532822],[1.977558,41.532833],[1.977552,41.532866],[1.977511,41.532964],[1.977501,41.532977],[1.977501,41.532978],[1.977537,41.532991],[1.977557,41.533006],[1.977623,41.533001],[1.977623,41.533001],[1.97767,41.533034],[1.977698,41.533054],[1.977727,41.533074],[1.977776,41.533116],[1.977805,41.533146],[1.977833,41.533177],[1.977871,41.533221],[1.977934,41.533297],[1.977952,41.533321],[1.97797,41.533344],[1.978007,41.53339],[1.978021,41.533407],[1.978049,41.533434],[1.978074,41.533451],[1.978083,41.533457],[1.97812,41.533475],[1.978161,41.533489],[1.978204,41.533497],[1.978249,41.533501],[1.978275,41.5335],[1.978295,41.533499],[1.978368,41.533496]]]]}},{"type":"Feature","id":"082900_082900 AP02 VOC 3","properties":{"area_id":"082900_082900 AP02 VOC 3","nom":"Can Cabassa","codi_icgc":"082900 AP02 VOC 3","categoria":"Àrees de poblament","codi_municipi":"082900","municipi":"Ullastrell","codi_comarca":"40","comarca":"Vallès Occidental","provincia":"Barcelona","font":"ICGC Àrees de poblament v3r1 202602"},"geometry":{"type":"MultiPolygon","coordinates":[[[[1.962341,41.534475],[1.962334,41.53448],[1.962245,41.534479],[1.962227,41.53464],[1.962179,41.535067],[1.962178,41.53508],[1.962106,41.535723],[1.962162,41.536619],[1.962215,41.536878],[1.962362,41.53714],[1.962712,41.537914],[1.96292,41.537872],[1.963207,41.537841],[1.962652,41.536891],[1.962628,41.536469],[1.962597,41.535934],[1.962767,41.53554],[1.963077,41.534824],[1.962983,41.534542],[1.962341,41.534475]]]]}},{"type":"Feature","id":"082900_082900 AP03 VOC 3","properties":{"area_id":"082900_082900 AP03 VOC 3","nom":"Can Palet","codi_icgc":"082900 AP03 VOC 3","categoria":"Àrees de poblament","codi_municipi":"082900","municipi":"Ullastrell","codi_comarca":"40","comarca":"Vallès Occidental","provincia":"Barcelona","font":"ICGC Àrees de poblament v3r1 202602"},"geometry":{"type":"MultiPolygon","coordinates":[[[[1.963646,41.524941],[1.963622,41.524783],[1.963193,41.524094],[1.963031,41.523951],[1.96282,41.523723],[1.962481,41.523474],[1.961787,41.52307],[1.961843,41.522859],[1.961782,41.522839],[1.96165,41.522815],[1.961554,41.523078],[1.96144,41.523084],[1.961053,41.523137],[1.960811,41.523153],[1.960642,41.523149],[1.960583,41.523148],[1.960516,41.523119],[1.960712,41.522882],[1.960379,41.522773],[1.960228,41.52275],[1.960141,41.522762],[1.960117,41.522788],[1.960092,41.522872],[1.960129,41.522965],[1.960358,41.52309],[1.960293,41.523388],[1.96038,41.523417],[1.960511,41.52346],[1.961177,41.523478],[1.961269,41.523474],[1.961598,41.523462],[1.961602,41.523458],[1.962208,41.52384],[1.96215,41.523907],[1.962092,41.52396],[1.96193,41.524109],[1.961909,41.524128],[1.961917,41.524175],[1.961964,41.524218],[1.962125,41.524248],[1.962163,41.524292],[1.962132,41.524399],[1.962179,41.524471],[1.961969,41.524547],[1.962097,41.524813],[1.962257,41.524787],[1.962294,41.524805],[1.962532,41.524924],[1.962559,41.524938],[1.962577,41.524983],[1.962716,41.525356],[1.962898,41.52556],[1.963292,41.525596],[1.963615,41.525063],[1.963646,41.524941]]]]}},{"type":"Feature","id":"082900_082900 SI02 VOC 2","properties":{"area_id":"082900_082900 SI02 VOC 2","nom":"Celler de Ca n'Amat","codi_icgc":"082900 SI02 VOC 2","categoria":"Sector industrial","codi_municipi":"082900","municipi":"Ullastrell","codi_comarca":"40","comarca":"Vallès Occidental","provincia":"Barcelona","font":"ICGC Àrees de poblament v3r1 202602"},"geometry":{"type":"MultiPolygon","coordinates":[[[[1.975554,41.530304],[1.975468,41.530265],[1.975395,41.530242],[1.975356,41.530301],[1.975314,41.530293],[1.975203,41.530288],[1.975158,41.530392],[1.975189,41.5304],[1.975259,41.530416],[1.975154,41.530504],[1.975138,41.530524],[1.975129,41.530547],[1.975133,41.530607],[1.975165,41.530664],[1.975198,41.530702],[1.975244,41.530729],[1.975297,41.530749],[1.975354,41.530765],[1.975464,41.530787],[1.975465,41.530788],[1.975418,41.530889],[1.975547,41.530919],[1.975687,41.530505],[1.975696,41.530444],[1.9757,41.530411],[1.975701,41.530361],[1.975554,41.530304]]]]}},{"type":"Feature","id":"082900_082900 SI01 VOC 2","properties":{"area_id":"082900_082900 SI01 VOC 2","nom":"Polichemi","codi_icgc":"082900 SI01 VOC 2","categoria":"Sector industrial","codi_municipi":"082900","municipi":"Ullastrell","codi_comarca":"40","comarca":"Vallès Occidental","provincia":"Barcelona","font":"ICGC Àrees de poblament v3r1 202602"},"geometry":{"type":"MultiPolygon","coordinates":[[[[1.954843,41.515756],[1.954839,41.515563],[1.954838,41.515535],[1.954719,41.51532],[1.954673,41.515236],[1.954609,41.51516],[1.954517,41.515091],[1.954469,41.515082],[1.954401,41.515089],[1.954317,41.515164],[1.954159,41.515324],[1.954107,41.515383],[1.954008,41.515551],[1.953988,41.51562],[1.954015,41.515638],[1.954021,41.515643],[1.953872,41.515972],[1.953618,41.51658],[1.953569,41.516673],[1.953496,41.516812],[1.953494,41.516817],[1.953437,41.516896],[1.953421,41.516945],[1.953429,41.516962],[1.953443,41.516999],[1.953448,41.517037],[1.95349,41.51707],[1.953532,41.517104],[1.953567,41.517143],[1.954115,41.517229],[1.954412,41.516961],[1.954556,41.516852],[1.954703,41.516588],[1.954761,41.516484],[1.954848,41.516358],[1.954875,41.516291],[1.954914,41.515934],[1.954843,41.515756]]]]}},{"type":"Feature","id":"082900_082900 AP01 VOC 3","properties":{"area_id":"082900_082900 AP01 VOC 3","nom":"Ullastrell","codi_icgc":"082900 AP01 VOC 3","categoria":"Àrees de poblament","codi_municipi":"082900","municipi":"Ullastrell","codi_comarca":"40","comarca":"Vallès Occidental","provincia":"Barcelona","font":"ICGC Àrees de poblament v3r1 202602"},"geometry":{"type":"MultiPolygon","coordinates":[[[[1.954043,41.526907],[1.954202,41.526877],[1.954431,41.526823],[1.954466,41.526703],[1.954498,41.526721],[1.954666,41.526751],[1.954798,41.526775],[1.954837,41.526798],[1.954923,41.526847],[1.954969,41.526829],[1.954998,41.526821],[1.955027,41.526817],[1.955027,41.526817],[1.955047,41.526817],[1.955099,41.526826],[1.955149,41.526842],[1.955174,41.526853],[1.955199,41.526863],[1.955317,41.526918],[1.955451,41.527],[1.955555,41.52706],[1.955654,41.527113],[1.95569,41.527124],[1.955722,41.527128],[1.955763,41.527125],[1.955796,41.527117],[1.955893,41.527075],[1.956007,41.527031],[1.956112,41.52701],[1.956203,41.527003],[1.956259,41.527007],[1.956365,41.527039],[1.956442,41.527075],[1.956544,41.527145],[1.956683,41.527269],[1.956764,41.52735],[1.956815,41.527401],[1.956819,41.527412],[1.956825,41.527418],[1.956832,41.527425],[1.956868,41.527455],[1.956772,41.527496],[1.956787,41.527608],[1.956718,41.527638],[1.956856,41.527816],[1.95689,41.527855],[1.957022,41.52801],[1.957077,41.528099],[1.957129,41.528146],[1.957208,41.528218],[1.957271,41.528207],[1.957311,41.5282],[1.957354,41.528247],[1.957382,41.528278],[1.957466,41.52834],[1.957566,41.528389],[1.957674,41.52842],[1.957721,41.528387],[1.957742,41.528372],[1.95775,41.528366],[1.957777,41.528341],[1.957912,41.528461],[1.957972,41.528525],[1.958043,41.528661],[1.958114,41.528797],[1.958127,41.52884],[1.958139,41.528871],[1.958151,41.528903],[1.958166,41.528928],[1.95818,41.528953],[1.958192,41.528968],[1.958216,41.528987],[1.95824,41.529007],[1.958278,41.529045],[1.958316,41.529083],[1.958327,41.529095],[1.958416,41.529166],[1.958509,41.529224],[1.958537,41.529251],[1.958546,41.52925],[1.958576,41.529247],[1.958704,41.529234],[1.959051,41.529024],[1.959216,41.528939],[1.959476,41.528873],[1.959481,41.52892],[1.959517,41.528918],[1.95957,41.528919],[1.959591,41.528919],[1.959654,41.528927],[1.960084,41.52899],[1.960432,41.528883],[1.960641,41.528833],[1.960672,41.528823],[1.960701,41.528815],[1.960739,41.52888],[1.960738,41.528883],[1.960743,41.528882],[1.960767,41.528855],[1.960824,41.528783],[1.960869,41.528712],[1.960947,41.528588],[1.960991,41.528463],[1.961015,41.528392],[1.961028,41.528354],[1.961029,41.528351],[1.960993,41.528328],[1.961022,41.528293],[1.961055,41.528254],[1.961059,41.52825],[1.961068,41.528239],[1.961098,41.528206],[1.961149,41.528145],[1.961149,41.528145],[1.961165,41.528126],[1.96118,41.528108],[1.96118,41.528108],[1.961217,41.528065],[1.961337,41.527916],[1.96143,41.527795],[1.961558,41.527633],[1.96163,41.527545],[1.961703,41.527459],[1.961708,41.527454],[1.96176,41.527405],[1.961803,41.527369],[1.961858,41.527331],[1.9619,41.527308],[1.961928,41.527293],[1.96199,41.52726],[1.962035,41.527246],[1.962068,41.527235],[1.962152,41.527217],[1.96282,41.527102],[1.962924,41.527085],[1.963093,41.527056],[1.963138,41.527049],[1.963414,41.527005],[1.963588,41.526979],[1.963621,41.526973],[1.963633,41.526958],[1.963641,41.526922],[1.963642,41.526893],[1.963642,41.526854],[1.963625,41.52681],[1.963584,41.526788],[1.963581,41.526787],[1.963499,41.526756],[1.963469,41.526742],[1.963441,41.526727],[1.963388,41.52669],[1.963353,41.526658],[1.963325,41.526624],[1.963306,41.526592],[1.963293,41.526559],[1.963286,41.526527],[1.96328,41.526495],[1.96328,41.526487],[1.963269,41.52647],[1.963267,41.526467],[1.963212,41.526414],[1.963164,41.526388],[1.963096,41.526387],[1.963028,41.526388],[1.962936,41.52639],[1.962878,41.526392],[1.962848,41.526391],[1.96281,41.526386],[1.962769,41.526378],[1.962632,41.526353],[1.96252,41.526339],[1.962483,41.526335],[1.962431,41.526331],[1.962377,41.526331],[1.962332,41.52633],[1.962311,41.526328],[1.962297,41.526325],[1.962274,41.526315],[1.962313,41.526239],[1.962201,41.526194],[1.96205,41.52615],[1.961996,41.526131],[1.961847,41.526061],[1.961838,41.526058],[1.961819,41.526051],[1.961555,41.525953],[1.961362,41.52588],[1.961345,41.525869],[1.961412,41.525792],[1.961359,41.525762],[1.961257,41.525736],[1.961043,41.525695],[1.960894,41.525666],[1.96091,41.525598],[1.961002,41.525516],[1.961032,41.525492],[1.961118,41.525371],[1.961122,41.525367],[1.961153,41.525327],[1.961058,41.525256],[1.961048,41.525248],[1.960994,41.525177],[1.960935,41.525128],[1.960894,41.525101],[1.960802,41.525041],[1.960653,41.524944],[1.960638,41.524922],[1.960622,41.5249],[1.960613,41.524883],[1.960606,41.524866],[1.960592,41.524832],[1.960576,41.524812],[1.960563,41.524803],[1.960537,41.524789],[1.960511,41.524775],[1.960365,41.524591],[1.960352,41.524574],[1.960006,41.524249],[1.959959,41.524183],[1.95988,41.524141],[1.959862,41.524131],[1.959659,41.523978],[1.959632,41.523957],[1.959495,41.523901],[1.959333,41.523913],[1.959192,41.523939],[1.959177,41.523947],[1.959071,41.524003],[1.959058,41.523977],[1.95903,41.523919],[1.9589,41.523996],[1.958769,41.524073],[1.958672,41.524137],[1.958624,41.524169],[1.958575,41.5242],[1.958522,41.524231],[1.958468,41.524263],[1.958381,41.524335],[1.958338,41.524402],[1.958321,41.524466],[1.958321,41.524469],[1.958322,41.524592],[1.958328,41.524809],[1.958329,41.524851],[1.95833,41.524991],[1.95833,41.525023],[1.95833,41.52507],[1.958342,41.525127],[1.958346,41.525167],[1.958349,41.525198],[1.958362,41.525312],[1.958362,41.525312],[1.95837,41.525356],[1.958413,41.525432],[1.958461,41.525459],[1.95851,41.525485],[1.958519,41.525486],[1.958765,41.525496],[1.958859,41.525495],[1.958944,41.525496],[1.959004,41.525493],[1.959024,41.525504],[1.959045,41.525524],[1.959051,41.525537],[1.959053,41.525566],[1.95905,41.525598],[1.959044,41.525657],[1.959039,41.525715],[1.95903,41.525713],[1.959022,41.525711],[1.95901,41.525703],[1.959,41.525692],[1.958975,41.525668],[1.95895,41.525643],[1.958926,41.525624],[1.958897,41.525609],[1.958878,41.525605],[1.958859,41.525603],[1.958821,41.525604],[1.958787,41.525606],[1.958752,41.52561],[1.95873,41.525616],[1.958695,41.52563],[1.958661,41.525644],[1.958636,41.525635],[1.958588,41.525655],[1.957928,41.525998],[1.957771,41.525816],[1.957689,41.525751],[1.957632,41.525727],[1.957623,41.525722],[1.957581,41.52572],[1.957529,41.525731],[1.957486,41.525757],[1.957465,41.525793],[1.957465,41.525796],[1.957448,41.525886],[1.95743,41.525984],[1.957415,41.526099],[1.957404,41.526179],[1.957309,41.526151],[1.957234,41.526105],[1.957146,41.526059],[1.956993,41.526083],[1.956854,41.526094],[1.956656,41.526123],[1.956415,41.526178],[1.956287,41.526203],[1.956151,41.526209],[1.956049,41.526223],[1.956018,41.526163],[1.955985,41.526093],[1.955985,41.526041],[1.955961,41.525974],[1.955938,41.525812],[1.955972,41.525694],[1.955966,41.525662],[1.955955,41.525585],[1.955905,41.525528],[1.955836,41.525503],[1.955748,41.525483],[1.955762,41.525429],[1.95587,41.524961],[1.955802,41.524943],[1.955774,41.524943],[1.955594,41.524941],[1.955565,41.52504],[1.955209,41.524977],[1.955051,41.524904],[1.955003,41.524833],[1.954856,41.524628],[1.954882,41.524619],[1.954901,41.524609],[1.954928,41.524587],[1.954946,41.524568],[1.954963,41.524548],[1.954982,41.524534],[1.955006,41.524518],[1.955091,41.524476],[1.955136,41.524457],[1.955178,41.524437],[1.955237,41.524403],[1.955296,41.52437],[1.955349,41.524341],[1.955361,41.524335],[1.955376,41.524328],[1.955406,41.524317],[1.955437,41.52431],[1.955455,41.524308],[1.955485,41.524306],[1.955534,41.524302],[1.955547,41.5243],[1.955575,41.524296],[1.955596,41.524292],[1.955616,41.524286],[1.955691,41.524251],[1.955765,41.524215],[1.955857,41.524169],[1.955949,41.524124],[1.955975,41.524115],[1.956018,41.524104],[1.956286,41.523966],[1.95632,41.523948],[1.956457,41.52392],[1.956963,41.523815],[1.956987,41.52381],[1.957357,41.523651],[1.957387,41.523602],[1.957406,41.523615],[1.957441,41.523587],[1.957423,41.523564],[1.957451,41.523526],[1.957459,41.523479],[1.957474,41.52345],[1.957508,41.523427],[1.957505,41.523388],[1.957498,41.523309],[1.957536,41.523296],[1.957557,41.523288],[1.95752,41.523197],[1.957486,41.523148],[1.957415,41.523123],[1.957342,41.52313],[1.957205,41.523165],[1.957094,41.523193],[1.957024,41.52321],[1.956914,41.523252],[1.956876,41.523277],[1.956873,41.523293],[1.956832,41.523298],[1.956829,41.523299],[1.956743,41.52331],[1.956668,41.523314],[1.956615,41.523317],[1.956527,41.523326],[1.956465,41.523352],[1.95643,41.523374],[1.956323,41.523394],[1.956279,41.523393],[1.956228,41.523395],[1.956209,41.523404],[1.956201,41.523409],[1.956168,41.523443],[1.956159,41.523446],[1.955973,41.523516],[1.955879,41.523551],[1.955905,41.523587],[1.955888,41.523594],[1.955894,41.523606],[1.955847,41.523635],[1.955795,41.523662],[1.955786,41.523666],[1.95579,41.52367],[1.95571,41.523735],[1.955703,41.523742],[1.95567,41.523753],[1.955623,41.523769],[1.955403,41.52385],[1.955378,41.52385],[1.955347,41.523846],[1.955315,41.523838],[1.955282,41.52383],[1.955212,41.523808],[1.955174,41.523791],[1.955147,41.523777],[1.955123,41.523764],[1.95509,41.523744],[1.95503,41.523705],[1.95497,41.523665],[1.954935,41.523644],[1.954898,41.523626],[1.954823,41.523595],[1.954739,41.523562],[1.954653,41.523532],[1.954572,41.523507],[1.954492,41.523483],[1.954416,41.523457],[1.954344,41.523429],[1.954303,41.523408],[1.954266,41.523383],[1.95422,41.523348],[1.95418,41.523311],[1.954158,41.523285],[1.954156,41.523282],[1.95411,41.523211],[1.954069,41.523134],[1.954044,41.523083],[1.954017,41.523022],[1.953992,41.52296],[1.953979,41.52292],[1.953971,41.522881],[1.953966,41.522841],[1.953966,41.522799],[1.953968,41.522775],[1.953911,41.522731],[1.953879,41.522705],[1.953863,41.522655],[1.953857,41.522645],[1.953825,41.522585],[1.953803,41.522506],[1.953655,41.522516],[1.953617,41.522525],[1.953562,41.522498],[1.953454,41.522444],[1.953445,41.522443],[1.95343,41.522447],[1.953395,41.52245],[1.953372,41.522449],[1.953337,41.522441],[1.953303,41.522432],[1.953279,41.522427],[1.953244,41.522424],[1.95321,41.522421],[1.953158,41.522418],[1.953106,41.522415],[1.953074,41.52241],[1.953042,41.522403],[1.95298,41.522386],[1.952945,41.522374],[1.952921,41.522363],[1.952827,41.522368],[1.952775,41.52237],[1.952763,41.522366],[1.952707,41.522356],[1.952673,41.522364],[1.952625,41.522388],[1.952576,41.522423],[1.952507,41.522503],[1.952461,41.522556],[1.952445,41.522616],[1.952387,41.522677],[1.952369,41.522703],[1.952366,41.522733],[1.95237,41.52276],[1.952387,41.522845],[1.952381,41.522957],[1.95236,41.523142],[1.952338,41.523143],[1.952313,41.523291],[1.952312,41.523297],[1.952623,41.523308],[1.952673,41.523295],[1.952676,41.523268],[1.952679,41.523267],[1.953171,41.523289],[1.953525,41.523359],[1.953902,41.523429],[1.953883,41.523446],[1.953774,41.523465],[1.953729,41.523471],[1.953589,41.523489],[1.953565,41.523498],[1.953479,41.523529],[1.953453,41.523539],[1.953404,41.523592],[1.95337,41.52367],[1.953373,41.523881],[1.953398,41.524033],[1.953326,41.524216],[1.953287,41.524374],[1.953259,41.524402],[1.953234,41.524432],[1.953193,41.524496],[1.953185,41.524516],[1.953182,41.524538],[1.953179,41.524583],[1.953175,41.524596],[1.95317,41.524611],[1.953165,41.52462],[1.953156,41.524624],[1.953116,41.524627],[1.953109,41.524627],[1.953107,41.524673],[1.953097,41.524674],[1.953085,41.524689],[1.953088,41.524729],[1.953087,41.52477],[1.953107,41.524772],[1.953107,41.524774],[1.953108,41.524788],[1.953429,41.524797],[1.953467,41.524797],[1.953856,41.524793],[1.953938,41.524792],[1.953941,41.524896],[1.953944,41.525],[1.953941,41.525007],[1.953933,41.525012],[1.953911,41.52502],[1.953898,41.525026],[1.953849,41.525069],[1.953814,41.525101],[1.953843,41.52532],[1.953901,41.525358],[1.953934,41.525399],[1.95394,41.525441],[1.953942,41.525489],[1.953963,41.525545],[1.953952,41.525554],[1.953942,41.525562],[1.95391,41.525585],[1.953876,41.525605],[1.953837,41.525629],[1.953815,41.525642],[1.953793,41.525654],[1.953764,41.525677],[1.953741,41.525695],[1.95379,41.525763],[1.953856,41.525832],[1.953882,41.525879],[1.953874,41.525927],[1.953834,41.525975],[1.953748,41.526011],[1.953612,41.526038],[1.953391,41.526068],[1.953246,41.526077],[1.953206,41.526073],[1.953113,41.526056],[1.953041,41.526045],[1.953011,41.52605],[1.952934,41.526116],[1.95296,41.526157],[1.953037,41.52622],[1.953175,41.526321],[1.953294,41.526439],[1.953388,41.526532],[1.95343,41.526596],[1.953458,41.526672],[1.953445,41.526734],[1.95342,41.526769],[1.953342,41.526878],[1.953253,41.526848],[1.953186,41.526895],[1.953339,41.52707],[1.953678,41.526935],[1.953699,41.526931],[1.953708,41.526925],[1.953724,41.52692],[1.953834,41.526922],[1.953936,41.526918],[1.954043,41.526907]]]]}}]}