{"type":"FeatureCollection","name":"ICGC Àrees de poblament - Vallcebre","features":[{"type":"Feature","id":"082938_082938 AP05 BER 2","properties":{"area_id":"082938_082938 AP05 BER 2","nom":"Obac","codi_icgc":"082938 AP05 BER 2","categoria":"Àrees de poblament","codi_municipi":"082938","municipi":"Vallcebre","codi_comarca":"14","comarca":"Berguedà","provincia":"Barcelona","font":"ICGC Àrees de poblament v3r1 202602"},"geometry":{"type":"MultiPolygon","coordinates":[[[[1.820777,42.201608],[1.82076,42.201284],[1.820894,42.201277],[1.821039,42.201267],[1.821088,42.201261],[1.821117,42.201254],[1.821143,42.201274],[1.821152,42.201307],[1.821165,42.201375],[1.821349,42.201373],[1.821388,42.201428],[1.8214,42.201449],[1.82155,42.201505],[1.821602,42.201435],[1.821494,42.201393],[1.821498,42.201353],[1.821509,42.201294],[1.821493,42.201258],[1.821465,42.201205],[1.82145,42.201127],[1.821454,42.201092],[1.821455,42.201082],[1.821497,42.201082],[1.821689,42.201082],[1.821848,42.201077],[1.822051,42.201083],[1.822072,42.200962],[1.822055,42.200848],[1.822077,42.200821],[1.82209,42.200805],[1.822112,42.200782],[1.822142,42.200768],[1.822224,42.200656],[1.821889,42.200616],[1.821606,42.200583],[1.821594,42.200582],[1.82158,42.200677],[1.821567,42.200743],[1.821554,42.200805],[1.821503,42.20083],[1.821391,42.200886],[1.821297,42.200933],[1.821179,42.200891],[1.821167,42.200887],[1.821098,42.200855],[1.821022,42.200846],[1.820961,42.200844],[1.820961,42.200844],[1.820918,42.200848],[1.820773,42.200867],[1.820738,42.200885],[1.820717,42.200899],[1.820646,42.200956],[1.820612,42.20098],[1.82058,42.201001],[1.820568,42.201006],[1.820553,42.201008],[1.820508,42.201008],[1.820474,42.201013],[1.820423,42.201032],[1.820405,42.201044],[1.820394,42.201065],[1.820394,42.20111],[1.820395,42.201152],[1.820395,42.201186],[1.820397,42.201233],[1.82044,42.201332],[1.820457,42.201337],[1.82051,42.201316],[1.820527,42.20131],[1.82058,42.201297],[1.82064,42.201619],[1.820654,42.20162],[1.820777,42.201608]]]]}},{"type":"Feature","id":"082938_082938 AP03 BER 1","properties":{"area_id":"082938_082938 AP03 BER 1","nom":"Sant Julià de Fréixens","codi_icgc":"082938 AP03 BER 1","categoria":"Àrees de poblament","codi_municipi":"082938","municipi":"Vallcebre","codi_comarca":"14","comarca":"Berguedà","provincia":"Barcelona","font":"ICGC Àrees de poblament v3r1 202602"},"geometry":{"type":"MultiPolygon","coordinates":[[[[1.825093,42.222752],[1.825429,42.222848],[1.825446,42.222847],[1.825461,42.222838],[1.825598,42.222789],[1.825599,42.222716],[1.825587,42.222697],[1.825519,42.222676],[1.825456,42.222655],[1.825412,42.22263],[1.825372,42.222606],[1.825332,42.2226],[1.82528,42.222602],[1.825228,42.222608],[1.825151,42.222615],[1.825134,42.222652],[1.825119,42.222687],[1.825093,42.222752]]]]}},{"type":"Feature","id":"082938_082938 AP01 BER 3","properties":{"area_id":"082938_082938 AP01 BER 3","nom":"Vallcebre","codi_icgc":"082938 AP01 BER 3","categoria":"Àrees de poblament","codi_municipi":"082938","municipi":"Vallcebre","codi_comarca":"14","comarca":"Berguedà","provincia":"Barcelona","font":"ICGC Àrees de poblament v3r1 202602"},"geometry":{"type":"MultiPolygon","coordinates":[[[[1.81597,42.204789],[1.815978,42.204817],[1.816012,42.204927],[1.816019,42.204958],[1.816031,42.205005],[1.816145,42.205156],[1.816319,42.205352],[1.816473,42.205493],[1.816672,42.205627],[1.816811,42.205767],[1.816887,42.205867],[1.816896,42.205891],[1.816907,42.205917],[1.816913,42.205936],[1.816917,42.205968],[1.816921,42.206002],[1.816925,42.20602],[1.816935,42.206041],[1.816938,42.206046],[1.81694,42.206051],[1.81694,42.206056],[1.81696,42.206065],[1.816976,42.206069],[1.817009,42.206035],[1.817015,42.206029],[1.81703,42.206011],[1.817043,42.205985],[1.817053,42.205923],[1.81706,42.205862],[1.817064,42.205821],[1.81707,42.205805],[1.817082,42.205792],[1.817117,42.205766],[1.817153,42.205748],[1.81716,42.205744],[1.817167,42.205738],[1.817172,42.205733],[1.817264,42.205548],[1.817271,42.205563],[1.81728,42.205586],[1.81729,42.205609],[1.8173,42.205624],[1.817323,42.205641],[1.817347,42.205656],[1.817423,42.205693],[1.817459,42.205712],[1.817474,42.205723],[1.817486,42.205734],[1.817503,42.205761],[1.817528,42.205803],[1.817554,42.205845],[1.817515,42.20587],[1.817446,42.206137],[1.817663,42.206168],[1.817733,42.205551],[1.817733,42.205526],[1.817738,42.205506],[1.81774,42.20549],[1.817368,42.205365],[1.817384,42.205336],[1.817404,42.205299],[1.817507,42.205107],[1.817543,42.205089],[1.817603,42.205081],[1.817675,42.204992],[1.818027,42.205033],[1.818028,42.205074],[1.818058,42.205084],[1.818109,42.205105],[1.818159,42.205129],[1.818197,42.205149],[1.818259,42.205189],[1.818348,42.205252],[1.818394,42.205283],[1.818442,42.205312],[1.818486,42.205332],[1.818514,42.205374],[1.81851,42.205434],[1.81847,42.205505],[1.818463,42.205548],[1.818518,42.205839],[1.818662,42.205845],[1.818766,42.205808],[1.81876,42.205753],[1.819025,42.205627],[1.818947,42.205534],[1.818721,42.205282],[1.818583,42.205078],[1.818559,42.204902],[1.818659,42.204896],[1.81873,42.204891],[1.818827,42.204875],[1.818914,42.204859],[1.818963,42.204843],[1.819007,42.204821],[1.819048,42.204795],[1.819083,42.204765],[1.819111,42.204732],[1.819105,42.204643],[1.819096,42.204518],[1.819151,42.204528],[1.819165,42.204485],[1.819092,42.204472],[1.819089,42.204426],[1.819079,42.204411],[1.818943,42.204204],[1.81893,42.204185],[1.81891,42.204154],[1.818934,42.204149],[1.819017,42.204014],[1.81896,42.203918],[1.81887,42.20388],[1.818897,42.203801],[1.818921,42.203731],[1.818946,42.20366],[1.81895,42.203649],[1.818954,42.203641],[1.818955,42.203638],[1.818961,42.203633],[1.818974,42.203627],[1.81899,42.203625],[1.818996,42.203624],[1.81902,42.203601],[1.819068,42.203543],[1.8191,42.203486],[1.819148,42.203383],[1.819192,42.203268],[1.819193,42.20326],[1.8192,42.203207],[1.819203,42.203187],[1.81919,42.203127],[1.819171,42.203036],[1.819155,42.202999],[1.819125,42.202925],[1.819089,42.202838],[1.819077,42.202832],[1.818547,42.202569],[1.818466,42.202537],[1.818391,42.202521],[1.818285,42.202467],[1.818075,42.202386],[1.817884,42.202315],[1.817864,42.202311],[1.817797,42.202295],[1.817732,42.202278],[1.817621,42.202242],[1.817513,42.202204],[1.817447,42.202178],[1.817377,42.202151],[1.817342,42.202143],[1.817338,42.202143],[1.817223,42.202091],[1.817181,42.202072],[1.817131,42.20205],[1.817035,42.202012],[1.817029,42.20204],[1.817004,42.202158],[1.816775,42.202203],[1.816734,42.202358],[1.816734,42.202379],[1.816858,42.202437],[1.816878,42.202458],[1.816895,42.202525],[1.816906,42.202628],[1.816896,42.202788],[1.816766,42.202772],[1.8165,42.202744],[1.816495,42.202635],[1.816341,42.202609],[1.816341,42.202739],[1.815962,42.20273],[1.81577,42.202721],[1.815573,42.202704],[1.815458,42.2027],[1.815376,42.202713],[1.815356,42.202741],[1.81535,42.202816],[1.815354,42.202859],[1.815371,42.202981],[1.815383,42.203096],[1.815056,42.203096],[1.815052,42.203296],[1.815196,42.203326],[1.815368,42.203374],[1.815765,42.203482],[1.816162,42.203583],[1.816334,42.203653],[1.81647,42.203743],[1.81677,42.203968],[1.816975,42.204127],[1.816991,42.204175],[1.816974,42.204206],[1.816718,42.204327],[1.816787,42.2044],[1.81716,42.204994],[1.817033,42.204956],[1.816932,42.204926],[1.816324,42.204727],[1.81617,42.204677],[1.816074,42.204659],[1.816007,42.204674],[1.815971,42.204704],[1.815965,42.204736],[1.81597,42.204789]]]]}},{"type":"Feature","id":"082938_082938 AP02 BER 2","properties":{"area_id":"082938_082938 AP02 BER 2","nom":"el Divinal","codi_icgc":"082938 AP02 BER 2","categoria":"Àrees de poblament","codi_municipi":"082938","municipi":"Vallcebre","codi_comarca":"14","comarca":"Berguedà","provincia":"Barcelona","font":"ICGC Àrees de poblament v3r1 202602"},"geometry":{"type":"MultiPolygon","coordinates":[[[[1.82549,42.199797],[1.825092,42.199952],[1.825414,42.200298],[1.82572,42.200246],[1.825888,42.200082],[1.825997,42.199961],[1.826524,42.199954],[1.826826,42.199614],[1.826992,42.199567],[1.827499,42.198875],[1.827089,42.19876],[1.826879,42.198997],[1.826714,42.199038],[1.826516,42.19906],[1.826392,42.199077],[1.826255,42.199351],[1.8261,42.199295],[1.825845,42.199274],[1.825735,42.19945],[1.825821,42.199659],[1.82549,42.199797]]]]}},{"type":"Feature","id":"082938_082938 AP04 BER 2","properties":{"area_id":"082938_082938 AP04 BER 2","nom":"el Lloc de Dalt","codi_icgc":"082938 AP04 BER 2","categoria":"Àrees de poblament","codi_municipi":"082938","municipi":"Vallcebre","codi_comarca":"14","comarca":"Berguedà","provincia":"Barcelona","font":"ICGC Àrees de poblament v3r1 202602"},"geometry":{"type":"MultiPolygon","coordinates":[[[[1.815608,42.207115],[1.815691,42.207061],[1.815724,42.20705],[1.815859,42.207127],[1.815892,42.207151],[1.81592,42.207155],[1.816081,42.20714],[1.816081,42.207016],[1.816081,42.206997],[1.816082,42.206904],[1.816029,42.206812],[1.815987,42.20678],[1.81588,42.206728],[1.815772,42.206695],[1.815774,42.206661],[1.815814,42.206635],[1.816079,42.20649],[1.816081,42.206484],[1.816158,42.20641],[1.816091,42.206286],[1.81655,42.206234],[1.816557,42.206229],[1.816516,42.206074],[1.816476,42.206042],[1.816451,42.206013],[1.816413,42.205864],[1.816164,42.205899],[1.816117,42.205901],[1.816062,42.20591],[1.816001,42.205924],[1.81594,42.205939],[1.815912,42.205945],[1.815885,42.20595],[1.815865,42.205952],[1.815851,42.20595],[1.815829,42.205944],[1.815807,42.205933],[1.815793,42.20592],[1.815777,42.205896],[1.815768,42.205871],[1.815763,42.205827],[1.815763,42.205806],[1.815767,42.205786],[1.815778,42.205751],[1.815788,42.205716],[1.815793,42.205699],[1.815797,42.205685],[1.815806,42.205654],[1.815813,42.205622],[1.815812,42.205605],[1.815806,42.205587],[1.815764,42.205533],[1.815734,42.2055],[1.815717,42.205482],[1.815601,42.20537],[1.815561,42.205363],[1.815549,42.205369],[1.815468,42.205418],[1.815445,42.205414],[1.815416,42.205408],[1.815375,42.205399],[1.81534,42.205391],[1.815347,42.205401],[1.815382,42.205456],[1.815408,42.205499],[1.815429,42.205543],[1.815443,42.205582],[1.815457,42.20562],[1.815457,42.205621],[1.815472,42.205642],[1.815487,42.205663],[1.815505,42.205682],[1.815541,42.205708],[1.815581,42.205732],[1.815605,42.205744],[1.815628,42.205752],[1.815642,42.205751],[1.815656,42.205743],[1.815719,42.205733],[1.815732,42.205733],[1.815721,42.205801],[1.815715,42.205848],[1.815717,42.205894],[1.815743,42.205935],[1.815766,42.205959],[1.815858,42.206002],[1.815823,42.206015],[1.815793,42.206029],[1.815758,42.206046],[1.815551,42.206145],[1.815565,42.206229],[1.815554,42.206232],[1.815068,42.206365],[1.815105,42.206429],[1.815066,42.206455],[1.81515,42.206564],[1.815323,42.206628],[1.815646,42.206696],[1.815759,42.206833],[1.815588,42.206963],[1.815442,42.207094],[1.815369,42.207107],[1.815347,42.207078],[1.815323,42.20705],[1.815298,42.207024],[1.815256,42.206987],[1.815208,42.206953],[1.815171,42.206932],[1.815149,42.206924],[1.815126,42.206919],[1.815089,42.206913],[1.815047,42.206905],[1.815008,42.206901],[1.814968,42.206897],[1.814918,42.206895],[1.814892,42.206896],[1.814892,42.206896],[1.814864,42.206897],[1.81476,42.2069],[1.814505,42.206877],[1.814511,42.206926],[1.814512,42.206935],[1.81465,42.20698],[1.814822,42.207039],[1.814995,42.207098],[1.815106,42.207133],[1.815165,42.207144],[1.815176,42.207151],[1.815194,42.207156],[1.815262,42.207169],[1.815385,42.207189],[1.815437,42.207197],[1.815473,42.207191],[1.815485,42.207184],[1.815608,42.207115]]]]}}]}