{"type":"FeatureCollection","name":"ICGC Àrees de poblament - Vilada","features":[{"type":"Feature","id":"082994_082994 SI01 BER 2","properties":{"area_id":"082994_082994 SI01 BER 2","nom":"Alditex SA","codi_icgc":"082994 SI01 BER 2","categoria":"Sector industrial","codi_municipi":"082994","municipi":"Vilada","codi_comarca":"14","comarca":"Berguedà","provincia":"Barcelona","font":"ICGC Àrees de poblament v3r1 202602"},"geometry":{"type":"MultiPolygon","coordinates":[[[[1.929274,42.129093],[1.929323,42.129084],[1.929325,42.129049],[1.929363,42.129035],[1.929486,42.129027],[1.929596,42.129028],[1.929699,42.129033],[1.929836,42.129043],[1.929912,42.129051],[1.930033,42.129089],[1.930211,42.129166],[1.930239,42.129145],[1.930323,42.129036],[1.930329,42.128982],[1.930279,42.12897],[1.930267,42.128922],[1.930288,42.128887],[1.930185,42.128864],[1.930067,42.128822],[1.929969,42.128779],[1.929896,42.128733],[1.929823,42.128665],[1.929381,42.128516],[1.929123,42.128451],[1.928903,42.128368],[1.928674,42.128221],[1.928655,42.128196],[1.928621,42.128169],[1.928545,42.128128],[1.928478,42.12812],[1.928422,42.128125],[1.928398,42.128144],[1.928361,42.128172],[1.928201,42.128356],[1.928039,42.128526],[1.927967,42.128572],[1.927937,42.128715],[1.927972,42.128763],[1.928035,42.128838],[1.928147,42.128904],[1.928328,42.128999],[1.928419,42.129056],[1.928486,42.129107],[1.928558,42.129144],[1.928837,42.129185],[1.928956,42.129195],[1.929074,42.129204],[1.929089,42.129145],[1.929093,42.129109],[1.929191,42.129114],[1.929274,42.129093]]]]}},{"type":"Feature","id":"082994_082994 AP01 BER 3","properties":{"area_id":"082994_082994 AP01 BER 3","nom":"Vilada","codi_icgc":"082994 AP01 BER 3","categoria":"Àrees de poblament","codi_municipi":"082994","municipi":"Vilada","codi_comarca":"14","comarca":"Berguedà","provincia":"Barcelona","font":"ICGC Àrees de poblament v3r1 202602"},"geometry":{"type":"MultiPolygon","coordinates":[[[[1.935299,42.138807],[1.935222,42.138764],[1.935216,42.138769],[1.934995,42.138669],[1.935085,42.138582],[1.935146,42.138308],[1.935788,42.138665],[1.936004,42.138454],[1.935822,42.138345],[1.935754,42.138407],[1.935632,42.138507],[1.935176,42.138241],[1.935177,42.138198],[1.935178,42.138176],[1.935219,42.138014],[1.935261,42.137854],[1.935294,42.137836],[1.935639,42.13789],[1.935787,42.137938],[1.936113,42.138005],[1.93645,42.138237],[1.936469,42.138251],[1.936477,42.138257],[1.936388,42.138334],[1.936362,42.138356],[1.936364,42.138358],[1.936371,42.138366],[1.936594,42.138506],[1.936609,42.138516],[1.936613,42.138517],[1.936704,42.138548],[1.936797,42.138462],[1.936811,42.138449],[1.936865,42.138401],[1.936868,42.138404],[1.936908,42.138356],[1.936952,42.138313],[1.936677,42.138147],[1.936739,42.138103],[1.936599,42.138025],[1.936419,42.13793],[1.9364,42.137912],[1.936284,42.137803],[1.936288,42.137789],[1.936306,42.137709],[1.936233,42.13766],[1.936235,42.137649],[1.935916,42.137589],[1.935808,42.137573],[1.935602,42.137539],[1.935451,42.137499],[1.935446,42.1375],[1.935402,42.13751],[1.935332,42.137526],[1.935263,42.137546],[1.935219,42.137558],[1.935066,42.137606],[1.934924,42.137652],[1.934914,42.137655],[1.934835,42.137682],[1.934812,42.13769],[1.934754,42.137714],[1.934686,42.13774],[1.934678,42.137739],[1.934636,42.137746],[1.934565,42.137762],[1.934506,42.137768],[1.934404,42.137766],[1.934385,42.137764],[1.934379,42.137763],[1.93436,42.137756],[1.934257,42.137729],[1.93425,42.137727],[1.934175,42.137701],[1.934076,42.137666],[1.934066,42.137662],[1.933988,42.137635],[1.93403,42.137585],[1.934195,42.137389],[1.934359,42.137152],[1.934671,42.137274],[1.934692,42.13725],[1.934715,42.137224],[1.934733,42.137197],[1.93474,42.137177],[1.934745,42.137146],[1.93475,42.137115],[1.934754,42.137102],[1.934761,42.137079],[1.934771,42.137044],[1.934776,42.137027],[1.934781,42.137013],[1.934689,42.136971],[1.934666,42.136905],[1.934664,42.136886],[1.934353,42.136732],[1.934411,42.136662],[1.934475,42.136591],[1.934484,42.136579],[1.934527,42.13653],[1.934534,42.136522],[1.934497,42.136485],[1.934666,42.136282],[1.934799,42.136138],[1.934891,42.136117],[1.935026,42.136118],[1.935146,42.136109],[1.935199,42.136084],[1.935253,42.136027],[1.935361,42.13586],[1.935401,42.13578],[1.935335,42.135712],[1.935207,42.135578],[1.935098,42.135492],[1.935047,42.135416],[1.934529,42.134514],[1.93436,42.134559],[1.934239,42.134363],[1.934008,42.134382],[1.933792,42.134337],[1.933706,42.134308],[1.933639,42.134343],[1.933624,42.134368],[1.933646,42.13445],[1.933744,42.134615],[1.933705,42.13466],[1.93361,42.134688],[1.933516,42.134688],[1.933472,42.134663],[1.933399,42.134625],[1.933306,42.134626],[1.933279,42.134664],[1.933256,42.134723],[1.933228,42.134773],[1.933106,42.134727],[1.93308,42.134783],[1.932992,42.134752],[1.93289,42.134762],[1.932824,42.134808],[1.932764,42.134781],[1.932621,42.134955],[1.932705,42.134946],[1.932703,42.13495],[1.932696,42.134959],[1.932692,42.134968],[1.932642,42.134996],[1.932632,42.135002],[1.932587,42.135027],[1.932497,42.135134],[1.932424,42.135216],[1.932415,42.135257],[1.932511,42.135292],[1.932536,42.135304],[1.932621,42.135336],[1.932635,42.135343],[1.932784,42.135419],[1.932859,42.135454],[1.932903,42.135475],[1.93303,42.135562],[1.933021,42.135599],[1.933018,42.135602],[1.932926,42.135679],[1.932914,42.135689],[1.932804,42.135782],[1.9328,42.135784],[1.932717,42.135839],[1.932677,42.135879],[1.932668,42.135917],[1.932669,42.135963],[1.932685,42.136006],[1.932707,42.136041],[1.93276,42.136084],[1.932814,42.136128],[1.93273,42.136172],[1.932647,42.136216],[1.932582,42.136249],[1.932516,42.136282],[1.932472,42.136304],[1.932456,42.136312],[1.932438,42.13632],[1.932411,42.136331],[1.932378,42.136339],[1.932367,42.136341],[1.932344,42.136344],[1.932289,42.136349],[1.932257,42.136351],[1.932069,42.136239],[1.931992,42.136156],[1.931996,42.136089],[1.932041,42.136045],[1.932074,42.135971],[1.932107,42.135905],[1.932132,42.135858],[1.932173,42.135793],[1.932214,42.135743],[1.932214,42.135732],[1.932206,42.135668],[1.932204,42.135662],[1.932055,42.135673],[1.932039,42.135699],[1.932002,42.135773],[1.931896,42.135877],[1.931738,42.136],[1.931892,42.136113],[1.931896,42.136202],[1.931904,42.136216],[1.931911,42.136233],[1.931922,42.136252],[1.931935,42.136258],[1.93195,42.136262],[1.931935,42.13635],[1.931928,42.136381],[1.931955,42.136418],[1.931957,42.136447],[1.931928,42.136472],[1.931909,42.136496],[1.931895,42.136494],[1.931731,42.136473],[1.931525,42.136485],[1.931438,42.136506],[1.931384,42.136548],[1.931249,42.136622],[1.931089,42.136689],[1.930725,42.136772],[1.930748,42.136906],[1.930485,42.136928],[1.930148,42.13695],[1.930108,42.136951],[1.930058,42.136946],[1.93001,42.136936],[1.929965,42.136921],[1.929924,42.1369],[1.929887,42.136875],[1.929884,42.136872],[1.929857,42.136832],[1.929853,42.136824],[1.92993,42.136819],[1.930001,42.136822],[1.930087,42.136849],[1.930072,42.136761],[1.930057,42.136739],[1.930034,42.136544],[1.929839,42.136544],[1.929874,42.136326],[1.929927,42.136016],[1.930425,42.135931],[1.930351,42.13551],[1.930343,42.135512],[1.930308,42.135538],[1.930173,42.135603],[1.93018,42.135642],[1.930122,42.135648],[1.930084,42.135683],[1.930117,42.135773],[1.92995,42.135867],[1.929888,42.135902],[1.92983,42.135814],[1.929827,42.135789],[1.929821,42.135771],[1.929806,42.135744],[1.929782,42.135717],[1.929761,42.1357],[1.929745,42.135691],[1.929719,42.13568],[1.92969,42.135674],[1.929569,42.13566],[1.929446,42.135646],[1.929166,42.135615],[1.928886,42.135585],[1.928827,42.135579],[1.928751,42.135572],[1.928755,42.135611],[1.928758,42.135656],[1.928776,42.13592],[1.928748,42.135928],[1.928045,42.135736],[1.928077,42.1355],[1.927977,42.135503],[1.927766,42.135511],[1.927709,42.135697],[1.927813,42.135704],[1.927763,42.135834],[1.927775,42.13588],[1.927781,42.135909],[1.927714,42.135933],[1.927646,42.13597],[1.927546,42.136036],[1.927464,42.136099],[1.927539,42.136146],[1.927542,42.136155],[1.927556,42.136158],[1.927608,42.136171],[1.927717,42.136161],[1.928971,42.136547],[1.928977,42.136549],[1.928887,42.136673],[1.928863,42.1367],[1.928842,42.136714],[1.928733,42.136785],[1.928665,42.13683],[1.928517,42.136923],[1.928506,42.13694],[1.928518,42.136984],[1.928511,42.137043],[1.928486,42.137065],[1.928377,42.137053],[1.92832,42.137045],[1.928164,42.136996],[1.928074,42.136977],[1.928034,42.137073],[1.927979,42.137211],[1.92794,42.137254],[1.927906,42.13725],[1.927859,42.137228],[1.927811,42.137206],[1.927706,42.137159],[1.927396,42.137121],[1.927394,42.137183],[1.927389,42.137222],[1.927387,42.137231],[1.927387,42.137234],[1.927386,42.137239],[1.927523,42.137252],[1.927645,42.137261],[1.927648,42.13723],[1.927655,42.137233],[1.927727,42.137274],[1.927734,42.137278],[1.927837,42.137335],[1.927883,42.137367],[1.927893,42.137377],[1.927899,42.137383],[1.928069,42.137483],[1.928077,42.137478],[1.928109,42.137495],[1.928158,42.13753],[1.928192,42.137551],[1.928244,42.137584],[1.928249,42.137587],[1.928421,42.137745],[1.928424,42.137744],[1.928494,42.137656],[1.928525,42.137612],[1.928529,42.137614],[1.928602,42.13768],[1.928629,42.137704],[1.928667,42.137724],[1.92872,42.137751],[1.928778,42.137781],[1.928901,42.1379],[1.928981,42.137867],[1.929122,42.137807],[1.929153,42.137794],[1.929174,42.137785],[1.929181,42.137782],[1.929205,42.137772],[1.929241,42.13781],[1.929246,42.137816],[1.929259,42.137829],[1.929347,42.137763],[1.929419,42.137748],[1.929425,42.137741],[1.929047,42.137246],[1.929172,42.137182],[1.92918,42.137178],[1.929372,42.137151],[1.929616,42.13711],[1.929626,42.137112],[1.929649,42.137124],[1.929689,42.137197],[1.929738,42.137177],[1.92981,42.137275],[1.929876,42.137365],[1.929905,42.137369],[1.930156,42.137373],[1.930191,42.137354],[1.930225,42.137363],[1.930294,42.137356],[1.930302,42.137312],[1.93036,42.137294],[1.930501,42.137278],[1.930908,42.13729],[1.930909,42.13731],[1.930908,42.13733],[1.930887,42.13733],[1.930881,42.137365],[1.930854,42.137362],[1.930843,42.13744],[1.930866,42.137457],[1.930893,42.13746],[1.931043,42.137448],[1.93112,42.137427],[1.931128,42.137431],[1.931149,42.137441],[1.931155,42.137444],[1.931173,42.137435],[1.931186,42.137426],[1.931197,42.137416],[1.931205,42.137406],[1.931215,42.137412],[1.931333,42.137491],[1.931382,42.137556],[1.93139,42.137573],[1.931408,42.137605],[1.931436,42.137646],[1.931457,42.13767],[1.931493,42.137678],[1.931546,42.13772],[1.931684,42.137805],[1.932,42.137982],[1.932384,42.138191],[1.932459,42.138131],[1.932509,42.138096],[1.932533,42.138067],[1.932536,42.138064],[1.932606,42.138089],[1.932915,42.138271],[1.933362,42.138546],[1.933785,42.138786],[1.934284,42.139091],[1.934588,42.139273],[1.934964,42.139494],[1.935084,42.139428],[1.935217,42.139343],[1.935339,42.139267],[1.935407,42.139237],[1.935504,42.139197],[1.935645,42.139147],[1.935721,42.139112],[1.935746,42.139101],[1.935394,42.1389],[1.935393,42.138899],[1.935377,42.138889],[1.935404,42.13888],[1.93542,42.138875],[1.935409,42.138869],[1.935299,42.138807]]]]}},{"type":"Feature","id":"082994_082994 AP03 BER 2","properties":{"area_id":"082994_082994 AP03 BER 2","nom":"els Clotassos","codi_icgc":"082994 AP03 BER 2","categoria":"Àrees de poblament","codi_municipi":"082994","municipi":"Vilada","codi_comarca":"14","comarca":"Berguedà","provincia":"Barcelona","font":"ICGC Àrees de poblament v3r1 202602"},"geometry":{"type":"MultiPolygon","coordinates":[[[[1.925338,42.136575],[1.925443,42.136525],[1.92589,42.136539],[1.925912,42.13642],[1.92596,42.136415],[1.925981,42.136403],[1.925995,42.13639],[1.926009,42.136369],[1.926011,42.13636],[1.92601,42.136352],[1.926003,42.136341],[1.925983,42.136332],[1.925954,42.136323],[1.925926,42.136317],[1.925877,42.136302],[1.92583,42.136286],[1.925792,42.13627],[1.925736,42.136241],[1.925681,42.13621],[1.92564,42.136185],[1.925622,42.136171],[1.925606,42.136156],[1.925597,42.136139],[1.925596,42.136124],[1.925608,42.136081],[1.925628,42.136037],[1.925651,42.135998],[1.92568,42.13596],[1.925713,42.135933],[1.92575,42.135908],[1.925785,42.135888],[1.925821,42.135867],[1.92584,42.135855],[1.925863,42.135834],[1.925879,42.13581],[1.925905,42.135773],[1.925911,42.135764],[1.925924,42.135754],[1.925936,42.13575],[1.925952,42.135749],[1.926021,42.135754],[1.926068,42.135756],[1.926068,42.135756],[1.926261,42.135755],[1.926269,42.135755],[1.92635,42.135754],[1.926597,42.135723],[1.927288,42.135546],[1.927275,42.135519],[1.927252,42.135472],[1.927236,42.13544],[1.927122,42.135159],[1.926903,42.135253],[1.926903,42.135253],[1.926899,42.135255],[1.926894,42.135257],[1.926845,42.135279],[1.926843,42.135279],[1.926658,42.135342],[1.92656,42.13538],[1.926516,42.135378],[1.926511,42.135376],[1.92651,42.135378],[1.926481,42.135378],[1.9264,42.135502],[1.926441,42.135542],[1.926481,42.135582],[1.926485,42.135585],[1.926496,42.135596],[1.926505,42.135609],[1.926522,42.135639],[1.926545,42.135673],[1.926551,42.135683],[1.926545,42.135684],[1.926494,42.135692],[1.926389,42.135704],[1.926305,42.13571],[1.926224,42.135712],[1.926221,42.135712],[1.926193,42.135712],[1.926163,42.135711],[1.926127,42.135711],[1.926033,42.135707],[1.925941,42.135699],[1.92585,42.13569],[1.925817,42.135685],[1.925804,42.135668],[1.925779,42.135634],[1.925761,42.135612],[1.92574,42.135591],[1.92571,42.135567],[1.925682,42.135544],[1.925649,42.135518],[1.925614,42.135492],[1.925594,42.135481],[1.925572,42.135475],[1.92555,42.135472],[1.925529,42.13547],[1.925507,42.135469],[1.925485,42.135469],[1.925479,42.135469],[1.925459,42.135469],[1.925522,42.135419],[1.925584,42.135192],[1.925546,42.135177],[1.9254,42.135118],[1.925207,42.135079],[1.925167,42.13522],[1.92513,42.135383],[1.925127,42.135397],[1.92512,42.135383],[1.925108,42.135383],[1.925069,42.135384],[1.925024,42.135385],[1.92498,42.135386],[1.924954,42.135385],[1.924928,42.13538],[1.9249,42.135373],[1.924873,42.135363],[1.924833,42.135348],[1.924792,42.135332],[1.924762,42.135324],[1.924731,42.135318],[1.924713,42.135317],[1.924694,42.135318],[1.92468,42.13532],[1.924667,42.135326],[1.924659,42.135336],[1.924655,42.135343],[1.924653,42.135339],[1.92464,42.135317],[1.924638,42.135313],[1.924628,42.135299],[1.924611,42.135282],[1.924591,42.13527],[1.924569,42.13526],[1.924542,42.135249],[1.924512,42.13524],[1.924466,42.135235],[1.92442,42.135233],[1.924366,42.135232],[1.924313,42.135232],[1.924277,42.135232],[1.92424,42.13523],[1.92421,42.135229],[1.92418,42.135227],[1.924152,42.135224],[1.924124,42.135222],[1.924108,42.135221],[1.924106,42.135221],[1.92407,42.135221],[1.924047,42.135221],[1.92402,42.135224],[1.924008,42.135226],[1.923989,42.13523],[1.923967,42.135236],[1.923956,42.135242],[1.923948,42.135251],[1.923941,42.135268],[1.923935,42.135283],[1.92393,42.135299],[1.923925,42.135313],[1.923917,42.135324],[1.923905,42.135334],[1.923887,42.135345],[1.923867,42.135351],[1.923834,42.135357],[1.923697,42.135376],[1.923681,42.135297],[1.923595,42.135068],[1.92372,42.135065],[1.923715,42.135002],[1.923717,42.134859],[1.923715,42.134823],[1.923594,42.134782],[1.92353,42.134777],[1.923466,42.13479],[1.92344,42.134809],[1.923446,42.134833],[1.923483,42.134905],[1.92343,42.134933],[1.923482,42.135034],[1.923531,42.135131],[1.923653,42.135373],[1.923672,42.135411],[1.923679,42.135424],[1.923608,42.135451],[1.923629,42.135454],[1.923792,42.135473],[1.923787,42.135478],[1.923758,42.135507],[1.923746,42.135515],[1.92373,42.135521],[1.923691,42.135529],[1.923645,42.135537],[1.923599,42.135542],[1.923564,42.135543],[1.923529,42.135543],[1.923487,42.135542],[1.923443,42.135541],[1.923389,42.135542],[1.923333,42.135546],[1.923302,42.135552],[1.923273,42.13556],[1.923178,42.135588],[1.923083,42.135621],[1.923043,42.135642],[1.923009,42.135669],[1.922994,42.135686],[1.922983,42.135704],[1.922975,42.135722],[1.922971,42.135741],[1.922971,42.135767],[1.922973,42.135792],[1.922978,42.135838],[1.922983,42.135884],[1.922983,42.135914],[1.922986,42.135914],[1.922983,42.135918],[1.922983,42.135926],[1.92298,42.135967],[1.922977,42.135984],[1.922969,42.135999],[1.922961,42.136007],[1.922934,42.136027],[1.922905,42.136047],[1.922883,42.136068],[1.922863,42.136089],[1.922852,42.136103],[1.922841,42.136117],[1.922836,42.136122],[1.92283,42.136126],[1.922813,42.136131],[1.922844,42.136155],[1.922869,42.136174],[1.923,42.136103],[1.923119,42.135978],[1.923171,42.135931],[1.923306,42.13588],[1.923537,42.135832],[1.923615,42.135778],[1.92366,42.135776],[1.923686,42.135774],[1.923756,42.135775],[1.923872,42.135766],[1.923928,42.135807],[1.923951,42.135812],[1.924083,42.135762],[1.924035,42.135503],[1.924231,42.135527],[1.924245,42.135529],[1.924705,42.135589],[1.924705,42.135589],[1.924958,42.135622],[1.925209,42.135655],[1.925596,42.135705],[1.925718,42.135721],[1.925824,42.135735],[1.925837,42.135737],[1.925847,42.135742],[1.925855,42.135752],[1.925856,42.135759],[1.925846,42.135799],[1.925832,42.135819],[1.925813,42.135837],[1.925798,42.135847],[1.925763,42.135867],[1.925727,42.135888],[1.925688,42.135914],[1.925651,42.135945],[1.925619,42.135986],[1.925594,42.136028],[1.925573,42.136074],[1.92556,42.136122],[1.925562,42.136145],[1.925574,42.136169],[1.925595,42.136189],[1.925615,42.136204],[1.925659,42.136231],[1.925715,42.136262],[1.925772,42.136292],[1.925814,42.13631],[1.925862,42.136327],[1.925911,42.136341],[1.925938,42.136352],[1.92594,42.136355],[1.925942,42.136358],[1.925941,42.136368],[1.925936,42.136374],[1.925927,42.136379],[1.92591,42.136384],[1.92589,42.136385],[1.925846,42.136384],[1.925803,42.136382],[1.925721,42.136374],[1.92564,42.136366],[1.925607,42.136363],[1.925213,42.136229],[1.925214,42.136174],[1.925159,42.136151],[1.925055,42.136138],[1.924895,42.136143],[1.924851,42.13619],[1.92481,42.136234],[1.924795,42.136251],[1.924705,42.136492],[1.925289,42.136599],[1.925291,42.136598],[1.925338,42.136575]]]]}},{"type":"Feature","id":"082994_082994 AP02 BER 2","properties":{"area_id":"082994_082994 AP02 BER 2","nom":"la Ribera","codi_icgc":"082994 AP02 BER 2","categoria":"Àrees de poblament","codi_municipi":"082994","municipi":"Vilada","codi_comarca":"14","comarca":"Berguedà","provincia":"Barcelona","font":"ICGC Àrees de poblament v3r1 202602"},"geometry":{"type":"MultiPolygon","coordinates":[[[[1.933495,42.132347],[1.933839,42.132436],[1.934215,42.132954],[1.934518,42.133185],[1.934608,42.133186],[1.934668,42.133416],[1.935061,42.133686],[1.935255,42.133526],[1.935283,42.133421],[1.935449,42.133423],[1.935718,42.133454],[1.935845,42.133484],[1.935961,42.133428],[1.935976,42.133294],[1.935965,42.133199],[1.93612,42.133134],[1.936173,42.133029],[1.9362,42.132925],[1.93619,42.132801],[1.935935,42.132732],[1.93554,42.132604],[1.935435,42.132717],[1.93551,42.13288],[1.935674,42.132986],[1.935672,42.133129],[1.93553,42.133204],[1.935324,42.13325],[1.935018,42.1332],[1.934497,42.132918],[1.933982,42.132361],[1.933971,42.132256],[1.93364,42.1321],[1.933612,42.132149],[1.933246,42.131915],[1.933107,42.131838],[1.932919,42.131579],[1.932741,42.131491],[1.932676,42.131567],[1.932557,42.131785],[1.932849,42.131969],[1.933533,42.132283],[1.933495,42.132347]]]]}}]}