{"type":"FeatureCollection","name":"ICGC Àrees de poblament - Vic","features":[{"type":"Feature","id":"082981_082981 SI10 OSO 2","properties":{"area_id":"082981_082981 SI10 OSO 2","nom":"Av. dels Països Catalans-Carrer Sant Jaume","codi_icgc":"082981 SI10 OSO 2","categoria":"Sector industrial","codi_municipi":"082981","municipi":"Vic","codi_comarca":"24","comarca":"Osona","provincia":"Barcelona","font":"ICGC Àrees de poblament v3r1 202602"},"geometry":{"type":"MultiPolygon","coordinates":[[[[2.259227,41.920044],[2.259085,41.920036],[2.259057,41.920115],[2.259033,41.920218],[2.259068,41.920253],[2.259573,41.92038],[2.259996,41.920514],[2.260503,41.920746],[2.261923,41.920692],[2.261915,41.920672],[2.261908,41.920651],[2.261689,41.920317],[2.261449,41.919899],[2.26105,41.919115],[2.261083,41.918659],[2.261085,41.91843],[2.261068,41.918202],[2.261062,41.918202],[2.261028,41.918156],[2.260818,41.918165],[2.260353,41.918217],[2.260047,41.91824],[2.259905,41.918283],[2.259227,41.920044]]]]}},{"type":"Feature","id":"082981_082981 SI06 OSO 2","properties":{"area_id":"082981_082981 SI06 OSO 2","nom":"Carretera de Gurb","codi_icgc":"082981 SI06 OSO 2","categoria":"Sector industrial","codi_municipi":"082981","municipi":"Vic","codi_comarca":"24","comarca":"Osona","provincia":"Barcelona","font":"ICGC Àrees de poblament v3r1 202602"},"geometry":{"type":"MultiPolygon","coordinates":[[[[2.247209,41.937113],[2.247176,41.937145],[2.246639,41.937469],[2.24653,41.937534],[2.246403,41.93761],[2.24617,41.937754],[2.245949,41.93789],[2.245524,41.938137],[2.245172,41.938341],[2.244606,41.938665],[2.24441,41.938784],[2.244217,41.938906],[2.244096,41.938984],[2.24398,41.939067],[2.243906,41.939125],[2.24385,41.939177],[2.243798,41.939231],[2.243704,41.939343],[2.243614,41.939457],[2.243527,41.939572],[2.24351,41.939596],[2.243497,41.939626],[2.243551,41.939634],[2.243588,41.939643],[2.244121,41.93965],[2.244245,41.939643],[2.244316,41.939633],[2.244391,41.939614],[2.244467,41.93959],[2.244472,41.939584],[2.24448,41.939575],[2.244486,41.939569],[2.244805,41.939559],[2.245125,41.939544],[2.245181,41.939543],[2.245206,41.939514],[2.245354,41.93931],[2.245418,41.939314],[2.245764,41.938937],[2.246347,41.93823],[2.24634,41.938204],[2.246988,41.937534],[2.247299,41.937212],[2.247326,41.937183],[2.247209,41.937113],[2.247209,41.937113]]]]}},{"type":"Feature","id":"082981_082981 SI09 OSO 2","properties":{"area_id":"082981_082981 SI09 OSO 2","nom":"Parc d'activitats econòmiques d'Osona","codi_icgc":"082981 SI09 OSO 2","categoria":"Sector industrial","codi_municipi":"082981","municipi":"Vic","codi_comarca":"24","comarca":"Osona","provincia":"Barcelona","font":"ICGC Àrees de poblament v3r1 202602"},"geometry":{"type":"MultiPolygon","coordinates":[[[[2.273763,41.950034],[2.273496,41.949811],[2.273194,41.949558],[2.272991,41.949388],[2.271566,41.948195],[2.271553,41.948028],[2.271529,41.947898],[2.271435,41.947427],[2.271649,41.946949],[2.271475,41.946908],[2.27127,41.946848],[2.271043,41.946796],[2.270815,41.94675],[2.270584,41.946708],[2.270353,41.946671],[2.270203,41.94665],[2.270118,41.946614],[2.270109,41.946611],[2.269711,41.946421],[2.269115,41.946193],[2.26916,41.946048],[2.269161,41.945953],[2.269139,41.945792],[2.269066,41.945655],[2.269017,41.94552],[2.268933,41.945499],[2.268801,41.945464],[2.268712,41.945442],[2.268603,41.945418],[2.268495,41.945394],[2.268278,41.945347],[2.268081,41.945303],[2.26795,41.945276],[2.267817,41.94525],[2.267751,41.945239],[2.267684,41.945228],[2.267659,41.945225],[2.267634,41.945223],[2.26762,41.945222],[2.267607,41.945224],[2.267586,41.945232],[2.267583,41.945229],[2.267571,41.94524],[2.267514,41.945294],[2.26743,41.945419],[2.267307,41.945603],[2.267051,41.945666],[2.267028,41.945656],[2.266979,41.94564],[2.266894,41.945618],[2.266807,41.9456],[2.266718,41.945588],[2.266629,41.945581],[2.266538,41.94558],[2.266449,41.945584],[2.266196,41.945583],[2.265853,41.945585],[2.265509,41.945593],[2.265468,41.945592],[2.265357,41.945585],[2.265247,41.945572],[2.265138,41.945553],[2.265031,41.94553],[2.264927,41.9455],[2.264829,41.945469],[2.264722,41.945428],[2.264612,41.945383],[2.264397,41.945296],[2.264057,41.94499],[2.26388,41.944702],[2.263556,41.944185],[2.26393,41.944009],[2.264214,41.943884],[2.264265,41.943858],[2.264447,41.943619],[2.264431,41.943577],[2.264234,41.943364],[2.263827,41.943349],[2.263546,41.943295],[2.263548,41.943294],[2.263347,41.942725],[2.262401,41.942498],[2.261764,41.942427],[2.261566,41.942476],[2.261289,41.942571],[2.261088,41.942687],[2.260992,41.942754],[2.260976,41.942758],[2.260974,41.942767],[2.260891,41.943104],[2.260786,41.943524],[2.260601,41.944028],[2.260598,41.944037],[2.260571,41.944137],[2.260538,41.944263],[2.260502,41.94435],[2.260331,41.944771],[2.261248,41.944923],[2.261041,41.946002],[2.261522,41.945947],[2.261563,41.945942],[2.261619,41.945959],[2.261614,41.945933],[2.261566,41.945688],[2.262233,41.9456],[2.26229,41.945593],[2.262186,41.94506],[2.262722,41.945156],[2.26286,41.944784],[2.262884,41.944727],[2.262939,41.944596],[2.263799,41.944769],[2.263762,41.944937],[2.263752,41.945063],[2.26351,41.945254],[2.263419,41.945318],[2.263291,41.945982],[2.263333,41.946118],[2.263313,41.9462],[2.26325,41.946221],[2.262982,41.946255],[2.262945,41.946112],[2.262417,41.946197],[2.262408,41.946199],[2.262417,41.946201],[2.262417,41.946202],[2.262416,41.946221],[2.262385,41.946533],[2.262298,41.946668],[2.262245,41.94667],[2.262192,41.946676],[2.26214,41.946686],[2.262079,41.946704],[2.262021,41.946727],[2.261967,41.946755],[2.261918,41.946787],[2.261875,41.946824],[2.261837,41.946864],[2.261807,41.946908],[2.261784,41.946954],[2.261768,41.947001],[2.261761,41.94705],[2.26176,41.947096],[2.261767,41.947142],[2.261781,41.947187],[2.261846,41.947616],[2.261894,41.947911],[2.261887,41.947932],[2.261883,41.947931],[2.261793,41.94791],[2.261701,41.947894],[2.261607,41.947884],[2.261513,41.94788],[2.261419,41.947882],[2.261325,41.94789],[2.261241,41.947905],[2.26131,41.948267],[2.261456,41.94896],[2.261455,41.94896],[2.261491,41.948999],[2.261496,41.949005],[2.261944,41.94895],[2.262075,41.948933],[2.262301,41.948903],[2.262444,41.948889],[2.262444,41.948889],[2.26279,41.948887],[2.263044,41.948919],[2.263505,41.949011],[2.263582,41.949026],[2.263597,41.949029],[2.263722,41.949056],[2.264059,41.949131],[2.264201,41.949159],[2.265835,41.949484],[2.266426,41.949608],[2.26682,41.949691],[2.267317,41.949786],[2.267852,41.94991],[2.267876,41.949915],[2.268023,41.94995],[2.268098,41.949952],[2.268216,41.949955],[2.268303,41.949936],[2.268395,41.949876],[2.268405,41.949854],[2.268489,41.949675],[2.268657,41.949198],[2.268684,41.949204],[2.268836,41.949241],[2.268885,41.949253],[2.269473,41.949467],[2.269345,41.949678],[2.269849,41.949827],[2.269807,41.9499],[2.270172,41.949989],[2.270238,41.949999],[2.270306,41.95001],[2.270425,41.949923],[2.270461,41.949887],[2.2705,41.949841],[2.270777,41.949946],[2.270936,41.950006],[2.271161,41.950091],[2.271723,41.950305],[2.27201,41.950415],[2.272032,41.950433],[2.272036,41.950435],[2.272039,41.950439],[2.272114,41.950502],[2.272095,41.950578],[2.272076,41.950705],[2.272048,41.950937],[2.272117,41.950942],[2.272573,41.950975],[2.272583,41.950976],[2.272918,41.951015],[2.273078,41.951033],[2.273237,41.951069],[2.273598,41.951151],[2.273612,41.951156],[2.273702,41.951188],[2.273773,41.951225],[2.27432,41.951508],[2.274493,41.951312],[2.274823,41.950951],[2.274161,41.950362],[2.274146,41.950348],[2.274127,41.950339],[2.274114,41.950328],[2.274098,41.950315],[2.273923,41.950168],[2.273763,41.950034]]]]}},{"type":"Feature","id":"082981_082981 SI02 OSO 2","properties":{"area_id":"082981_082981 SI02 OSO 2","nom":"Polígon industrial El Bruguer","codi_icgc":"082981 SI02 OSO 2","categoria":"Sector industrial","codi_municipi":"082981","municipi":"Vic","codi_comarca":"24","comarca":"Osona","provincia":"Barcelona","font":"ICGC Àrees de poblament v3r1 202602"},"geometry":{"type":"MultiPolygon","coordinates":[[[[2.279435,41.945472],[2.27985,41.945265],[2.279857,41.945203],[2.279849,41.945032],[2.279843,41.944902],[2.279837,41.944773],[2.279814,41.944506],[2.279822,41.9445],[2.280098,41.944335],[2.280063,41.944319],[2.279994,41.944282],[2.279991,41.944278],[2.279766,41.944065],[2.279764,41.944062],[2.279753,41.944043],[2.279749,41.944021],[2.279752,41.944],[2.279763,41.94398],[2.279781,41.943963],[2.27987,41.943923],[2.280112,41.943814],[2.280151,41.943799],[2.280218,41.943779],[2.280287,41.943764],[2.280359,41.943755],[2.28043,41.943752],[2.280854,41.943764],[2.280854,41.943767],[2.280878,41.943764],[2.280959,41.943764],[2.281018,41.943764],[2.281779,41.943775],[2.281748,41.944425],[2.2822,41.944412],[2.282722,41.944419],[2.282832,41.944397],[2.282839,41.944393],[2.282862,41.944378],[2.282865,41.944376],[2.283023,41.944275],[2.283016,41.944268],[2.283171,41.944198],[2.282777,41.943776],[2.282124,41.943159],[2.282121,41.943157],[2.282075,41.943113],[2.282013,41.943109],[2.282009,41.943108],[2.282009,41.943105],[2.281966,41.943105],[2.281084,41.94311],[2.281086,41.942613],[2.280972,41.942462],[2.280054,41.942447],[2.279394,41.942436],[2.279333,41.942437],[2.279249,41.942444],[2.279166,41.942456],[2.279085,41.942474],[2.279031,41.942489],[2.279006,41.942497],[2.278844,41.942575],[2.278737,41.942403],[2.278672,41.942227],[2.278664,41.942119],[2.278687,41.941895],[2.278694,41.941836],[2.2787,41.941785],[2.27872,41.941664],[2.279712,41.941735],[2.279803,41.941251],[2.278741,41.941178],[2.2787,41.941515],[2.278678,41.941513],[2.278666,41.941512],[2.278187,41.941478],[2.277956,41.941452],[2.277927,41.941507],[2.277918,41.941574],[2.277911,41.941614],[2.277907,41.94164],[2.277844,41.941639],[2.277844,41.941677],[2.277799,41.941745],[2.27779,41.942137],[2.277808,41.942198],[2.277881,41.94233],[2.277909,41.942402],[2.277977,41.942533],[2.278274,41.942802],[2.278143,41.94288],[2.278147,41.942987],[2.278157,41.943023],[2.27824,41.943092],[2.278248,41.943098],[2.278284,41.943125],[2.278435,41.943159],[2.27916,41.943841],[2.27916,41.943841],[2.278407,41.944271],[2.278288,41.944159],[2.277647,41.944544],[2.27755,41.944602],[2.277648,41.944793],[2.277752,41.944998],[2.277764,41.94502],[2.277988,41.945457],[2.278083,41.9454],[2.278239,41.945305],[2.278772,41.945801],[2.27905,41.945639],[2.279435,41.945472]]]]}},{"type":"Feature","id":"082981_082981 SI07 OSO 2","properties":{"area_id":"082981_082981 SI07 OSO 2","nom":"Polígon industrial El Sot dels Pradals","codi_icgc":"082981 SI07 OSO 2","categoria":"Sector industrial","codi_municipi":"082981","municipi":"Vic","codi_comarca":"24","comarca":"Osona","provincia":"Barcelona","font":"ICGC Àrees de poblament v3r1 202602"},"geometry":{"type":"MultiPolygon","coordinates":[[[[2.250773,41.93785],[2.250555,41.937756],[2.250356,41.937695],[2.250213,41.937665],[2.250057,41.937658],[2.249886,41.937669],[2.2498,41.937675],[2.249791,41.937676],[2.249591,41.937701],[2.249393,41.937732],[2.249318,41.937744],[2.249263,41.937789],[2.249103,41.938547],[2.249102,41.938554],[2.249028,41.938987],[2.249006,41.939116],[2.249004,41.939314],[2.249003,41.939503],[2.248695,41.939422],[2.24818,41.939298],[2.247944,41.939254],[2.247899,41.939246],[2.247577,41.939187],[2.247572,41.939186],[2.247472,41.939167],[2.247457,41.93915],[2.247433,41.939122],[2.247471,41.939014],[2.246644,41.938924],[2.246603,41.938933],[2.246577,41.938959],[2.246545,41.938993],[2.246378,41.939058],[2.246358,41.939139],[2.246357,41.939177],[2.246414,41.939204],[2.246489,41.93922],[2.246822,41.939268],[2.24687,41.939302],[2.246872,41.939374],[2.247059,41.939456],[2.247062,41.939535],[2.247071,41.939578],[2.247113,41.939631],[2.247828,41.940019],[2.248561,41.940405],[2.24859,41.940421],[2.248704,41.940486],[2.248796,41.940537],[2.249236,41.940775],[2.24937,41.940831],[2.249533,41.940899],[2.250151,41.940054],[2.250989,41.940525],[2.250242,41.941359],[2.250131,41.941489],[2.249546,41.942175],[2.24937,41.942424],[2.249368,41.942435],[2.249368,41.942486],[2.249376,41.942536],[2.24939,41.942582],[2.249429,41.942685],[2.249477,41.942786],[2.249531,41.942884],[2.249593,41.942981],[2.249604,41.942998],[2.249683,41.94309],[2.24975,41.943171],[2.24975,41.943172],[2.249817,41.943284],[2.249878,41.9434],[2.249933,41.943516],[2.249939,41.943529],[2.249943,41.943574],[2.249946,41.943628],[2.249956,41.943681],[2.249973,41.943734],[2.249986,41.943763],[2.250133,41.943936],[2.250158,41.943979],[2.250175,41.944024],[2.250184,41.94407],[2.250186,41.944117],[2.25018,41.944163],[2.25018,41.944164],[2.250161,41.944219],[2.250144,41.944255],[2.250053,41.944394],[2.250054,41.944433],[2.25033,41.944502],[2.250547,41.944549],[2.250674,41.944601],[2.250677,41.944603],[2.250717,41.944637],[2.25076,41.944672],[2.250778,41.944689],[2.250803,41.944721],[2.250831,41.944773],[2.250855,41.944828],[2.250895,41.944931],[2.250911,41.944984],[2.250925,41.945036],[2.250933,41.945088],[2.250939,41.945167],[2.250948,41.945245],[2.250958,41.945285],[2.250966,41.945304],[2.250978,41.945323],[2.250989,41.945334],[2.25101,41.945348],[2.251034,41.945357],[2.251047,41.94536],[2.251098,41.945373],[2.251274,41.945398],[2.251293,41.9454],[2.251463,41.945424],[2.251475,41.945446],[2.251494,41.945466],[2.251518,41.945481],[2.251543,41.945491],[2.252312,41.945595],[2.252396,41.945606],[2.252435,41.945607],[2.252474,41.945603],[2.252511,41.945592],[2.252544,41.945577],[2.252573,41.945557],[2.252596,41.945533],[2.252599,41.945529],[2.252786,41.944731],[2.252773,41.944709],[2.252845,41.944472],[2.252867,41.944401],[2.253134,41.943268],[2.253138,41.943254],[2.253138,41.94323],[2.253131,41.943207],[2.253209,41.942869],[2.253559,41.941448],[2.2536,41.941204],[2.253693,41.940868],[2.253732,41.940682],[2.253809,41.940376],[2.253876,41.940105],[2.253889,41.940055],[2.253889,41.940055],[2.254221,41.938604],[2.254214,41.938589],[2.253941,41.938575],[2.253669,41.938562],[2.253503,41.938552],[2.253338,41.938539],[2.253229,41.938527],[2.253099,41.938513],[2.252969,41.938498],[2.252693,41.938419],[2.252607,41.938395],[2.25228,41.938318],[2.251762,41.93818],[2.251585,41.93813],[2.251275,41.93806],[2.250835,41.937874],[2.250773,41.93785]]]]}},{"type":"Feature","id":"082981_082981 SI05 OSO 2","properties":{"area_id":"082981_082981 SI05 OSO 2","nom":"Polígon industrial Les Casasses","codi_icgc":"082981 SI05 OSO 2","categoria":"Sector industrial","codi_municipi":"082981","municipi":"Vic","codi_comarca":"24","comarca":"Osona","provincia":"Barcelona","font":"ICGC Àrees de poblament v3r1 202602"},"geometry":{"type":"MultiPolygon","coordinates":[[[[2.277393,41.953189],[2.277312,41.953293],[2.277212,41.953461],[2.277081,41.953789],[2.277509,41.953977],[2.277166,41.95438],[2.277018,41.954322],[2.276869,41.954329],[2.276877,41.954563],[2.276189,41.954593],[2.276011,41.954604],[2.275794,41.954607],[2.275546,41.954605],[2.275525,41.954611],[2.275404,41.954642],[2.275278,41.954675],[2.274963,41.954718],[2.274925,41.954724],[2.274832,41.954713],[2.27474,41.954684],[2.274664,41.954629],[2.274518,41.954583],[2.274384,41.954553],[2.274348,41.954605],[2.274338,41.954704],[2.274302,41.954729],[2.274314,41.954789],[2.274339,41.954837],[2.274393,41.954877],[2.27448,41.954927],[2.274753,41.954961],[2.274786,41.954965],[2.275218,41.95502],[2.275266,41.955378],[2.27529,41.955468],[2.275322,41.955557],[2.275347,41.955619],[2.275391,41.955709],[2.275441,41.955797],[2.275504,41.955897],[2.275558,41.955972],[2.275574,41.955994],[2.27565,41.956086],[2.27569,41.956131],[2.275734,41.956174],[2.275857,41.956284],[2.275985,41.956391],[2.276103,41.956487],[2.276223,41.95658],[2.276312,41.956646],[2.276403,41.956708],[2.276535,41.956792],[2.276669,41.956874],[2.276795,41.956948],[2.276923,41.957019],[2.277012,41.957066],[2.277105,41.957108],[2.277268,41.957176],[2.277396,41.957229],[2.277615,41.957303],[2.277834,41.957368],[2.27799,41.957417],[2.278181,41.957456],[2.278443,41.957501],[2.278637,41.957516],[2.278794,41.957513],[2.279027,41.957488],[2.279273,41.957444],[2.279456,41.957378],[2.279661,41.957296],[2.279919,41.957126],[2.280106,41.956966],[2.280229,41.956805],[2.28032,41.956639],[2.280377,41.956435],[2.280421,41.95618],[2.280454,41.956063],[2.280504,41.955918],[2.280575,41.955776],[2.280701,41.95558],[2.28094,41.955295],[2.281167,41.955005],[2.28126,41.954886],[2.281271,41.954819],[2.281274,41.954748],[2.281252,41.954678],[2.281191,41.954611],[2.281075,41.954534],[2.280762,41.954368],[2.280009,41.953973],[2.279754,41.953841],[2.279515,41.953713],[2.279271,41.95359],[2.279037,41.953477],[2.279024,41.953471],[2.278772,41.953357],[2.278533,41.953255],[2.27852,41.953251],[2.27764,41.952955],[2.277552,41.953017],[2.277393,41.953189]]]]}},{"type":"Feature","id":"082981_082981 SI04 OSO 2","properties":{"area_id":"082981_082981 SI04 OSO 2","nom":"Polígon industrial Mas Beuló","codi_icgc":"082981 SI04 OSO 2","categoria":"Sector industrial","codi_municipi":"082981","municipi":"Vic","codi_comarca":"24","comarca":"Osona","provincia":"Barcelona","font":"ICGC Àrees de poblament v3r1 202602"},"geometry":{"type":"MultiPolygon","coordinates":[[[[2.252886,41.94617],[2.252901,41.946173],[2.25302,41.946162],[2.253173,41.946201],[2.253415,41.946248],[2.253556,41.946287],[2.253611,41.946298],[2.253717,41.946304],[2.253847,41.94631],[2.25399,41.946369],[2.254116,41.946416],[2.254205,41.946431],[2.254251,41.946438],[2.254308,41.946494],[2.254426,41.946541],[2.254594,41.946593],[2.254739,41.946641],[2.254934,41.946698],[2.255195,41.94678],[2.255302,41.946811],[2.255429,41.946861],[2.255733,41.946938],[2.255964,41.947003],[2.256037,41.947034],[2.256101,41.947117],[2.256163,41.947189],[2.256292,41.947269],[2.256377,41.947343],[2.256412,41.947378],[2.256487,41.947418],[2.256801,41.947433],[2.256952,41.94744],[2.257309,41.947488],[2.257518,41.947516],[2.257677,41.947536],[2.257942,41.947567],[2.258239,41.947595],[2.258285,41.947613],[2.258366,41.947654],[2.258412,41.94768],[2.258454,41.947761],[2.258455,41.947761],[2.25847,41.947757],[2.258744,41.947685],[2.259264,41.947534],[2.259269,41.947525],[2.259271,41.947504],[2.259267,41.947487],[2.259254,41.947448],[2.258871,41.946673],[2.25886,41.946651],[2.258615,41.946162],[2.258484,41.945895],[2.257941,41.94479],[2.257836,41.944579],[2.257735,41.944379],[2.257306,41.943514],[2.257052,41.942995],[2.25699,41.942868],[2.256921,41.942726],[2.256085,41.941052],[2.255835,41.940558],[2.255759,41.940401],[2.255511,41.939893],[2.254775,41.940064],[2.254271,41.940008],[2.254178,41.940396],[2.254164,41.940456],[2.25374,41.942311],[2.25374,41.942311],[2.253566,41.943031],[2.253515,41.943243],[2.25326,41.944299],[2.253217,41.944578],[2.253196,41.944717],[2.252959,41.945549],[2.252831,41.945983],[2.252708,41.946094],[2.252669,41.946181],[2.252876,41.946167],[2.252886,41.94617]]]]}},{"type":"Feature","id":"082981_082981 SI01 OSO 2","properties":{"area_id":"082981_082981 SI01 OSO 2","nom":"Polígon industrial Mas d'en Prats","codi_icgc":"082981 SI01 OSO 2","categoria":"Sector industrial","codi_municipi":"082981","municipi":"Vic","codi_comarca":"24","comarca":"Osona","provincia":"Barcelona","font":"ICGC Àrees de poblament v3r1 202602"},"geometry":{"type":"MultiPolygon","coordinates":[[[[2.258879,41.943807],[2.259109,41.943772],[2.259185,41.943814],[2.259266,41.943852],[2.259351,41.943884],[2.259366,41.943889],[2.25946,41.94391],[2.259717,41.943962],[2.260416,41.944105],[2.260707,41.943272],[2.26068,41.94327],[2.26068,41.943255],[2.260673,41.94324],[2.260659,41.943228],[2.26064,41.943221],[2.260627,41.943219],[2.26039,41.943171],[2.260153,41.943122],[2.259916,41.943072],[2.259776,41.943042],[2.25974,41.943035],[2.259648,41.94301],[2.259559,41.942981],[2.259492,41.942953],[2.259452,41.942936],[2.259181,41.942905],[2.259019,41.942577],[2.25899,41.942523],[2.258987,41.942517],[2.258865,41.942288],[2.258606,41.941756],[2.258567,41.941672],[2.258291,41.941107],[2.258135,41.940786],[2.258063,41.940639],[2.257964,41.940443],[2.257946,41.940431],[2.257925,41.940424],[2.257901,41.940422],[2.257891,41.940423],[2.257891,41.940423],[2.25789,41.940423],[2.257867,41.940429],[2.257389,41.940562],[2.256624,41.940775],[2.256532,41.940801],[2.256402,41.940837],[2.258714,41.94542],[2.25876,41.945406],[2.259118,41.945289],[2.259126,41.945287],[2.25943,41.945181],[2.25945,41.945174],[2.259469,41.945169],[2.258757,41.943826],[2.258879,41.943807]]]]}},{"type":"Feature","id":"082981_082981 SI03 OSO 2","properties":{"area_id":"082981_082981 SI03 OSO 2","nom":"Polígon industrial Mas de Bigues","codi_icgc":"082981 SI03 OSO 2","categoria":"Sector industrial","codi_municipi":"082981","municipi":"Vic","codi_comarca":"24","comarca":"Osona","provincia":"Barcelona","font":"ICGC Àrees de poblament v3r1 202602"},"geometry":{"type":"MultiPolygon","coordinates":[[[[2.238151,41.939027],[2.238101,41.939417],[2.238369,41.939616],[2.238543,41.939748],[2.238741,41.939733],[2.239102,41.939707],[2.239342,41.939687],[2.239451,41.939621],[2.239654,41.939527],[2.239775,41.93949],[2.239909,41.939479],[2.240021,41.939484],[2.240101,41.939499],[2.240164,41.93953],[2.240202,41.939574],[2.240201,41.939633],[2.240175,41.939712],[2.240174,41.939771],[2.240183,41.939814],[2.240247,41.93985],[2.240374,41.939901],[2.240459,41.939954],[2.240512,41.939973],[2.240569,41.939981],[2.240622,41.939977],[2.240699,41.939935],[2.24077,41.939882],[2.240861,41.939843],[2.240868,41.939818],[2.240957,41.939819],[2.241045,41.939835],[2.241126,41.939863],[2.241207,41.9399],[2.24122,41.939975],[2.241261,41.940036],[2.241321,41.940083],[2.241377,41.940097],[2.241444,41.940108],[2.241527,41.940108],[2.2416,41.940092],[2.241676,41.940026],[2.241731,41.939936],[2.242206,41.93973],[2.242485,41.939604],[2.242523,41.939598],[2.24262,41.939579],[2.242951,41.939603],[2.24298,41.939491],[2.242989,41.939392],[2.242958,41.939311],[2.242909,41.939249],[2.242857,41.939199],[2.242784,41.939157],[2.242706,41.939123],[2.242616,41.939099],[2.242535,41.939086],[2.238151,41.939027]]]]}},{"type":"Feature","id":"082981_082981 SI08 OSO 2","properties":{"area_id":"082981_082981 SI08 OSO 2","nom":"Polígon industrial de Malloles","codi_icgc":"082981 SI08 OSO 2","categoria":"Sector industrial","codi_municipi":"082981","municipi":"Vic","codi_comarca":"24","comarca":"Osona","provincia":"Barcelona","font":"ICGC Àrees de poblament v3r1 202602"},"geometry":{"type":"MultiPolygon","coordinates":[[[[2.277582,41.952745],[2.278352,41.953034],[2.278802,41.953205],[2.279129,41.953358],[2.280532,41.954094],[2.280743,41.954221],[2.280895,41.954315],[2.281322,41.95449],[2.281393,41.954446],[2.281473,41.954422],[2.281566,41.954435],[2.281626,41.954485],[2.281641,41.954503],[2.281814,41.954554],[2.282261,41.954344],[2.282331,41.954313],[2.282475,41.954247],[2.282484,41.954243],[2.282639,41.954172],[2.282803,41.954097],[2.282866,41.954068],[2.282929,41.95404],[2.282955,41.954033],[2.283347,41.953803],[2.283493,41.953524],[2.283732,41.95273],[2.283948,41.95209],[2.283943,41.952081],[2.283943,41.95207],[2.283949,41.952052],[2.284043,41.951759],[2.284153,41.95141],[2.284262,41.951062],[2.284356,41.950763],[2.28445,41.950465],[2.284468,41.950401],[2.284482,41.950337],[2.284489,41.950299],[2.28449,41.950289],[2.284491,41.950287],[2.284491,41.95028],[2.284497,41.950237],[2.284502,41.950181],[2.284505,41.950126],[2.284506,41.950068],[2.284503,41.95001],[2.284493,41.949948],[2.284477,41.949888],[2.284456,41.949824],[2.284432,41.949762],[2.284402,41.949694],[2.284385,41.949661],[2.284363,41.94963],[2.284288,41.949502],[2.284285,41.94949],[2.284284,41.949477],[2.284286,41.949468],[2.284705,41.949269],[2.284775,41.949212],[2.284845,41.949151],[2.284886,41.949104],[2.284938,41.949044],[2.284972,41.948986],[2.285024,41.948919],[2.285121,41.948774],[2.285244,41.948587],[2.28529,41.948515],[2.285342,41.948437],[2.285516,41.948456],[2.28575,41.9482],[2.285933,41.948019],[2.286072,41.947834],[2.28625,41.947576],[2.286398,41.947303],[2.286481,41.94715],[2.286472,41.947138],[2.286431,41.947105],[2.286309,41.947063],[2.285936,41.946957],[2.285755,41.946901],[2.285728,41.946893],[2.28563,41.946859],[2.285489,41.946787],[2.285406,41.946744],[2.28523,41.946651],[2.285026,41.946542],[2.284916,41.946477],[2.284808,41.946409],[2.284717,41.946344],[2.284633,41.946274],[2.284558,41.9462],[2.284489,41.946123],[2.284414,41.946029],[2.284339,41.945936],[2.284202,41.945771],[2.284148,41.945707],[2.28414,41.945696],[2.284131,41.945686],[2.284065,41.945607],[2.28391,41.945417],[2.283755,41.945227],[2.283571,41.945001],[2.283387,41.944774],[2.283303,41.944665],[2.283242,41.944587],[2.283163,41.944496],[2.28315,41.94448],[2.283133,41.944471],[2.283115,41.944438],[2.28309,41.944407],[2.282806,41.944481],[2.282667,41.944552],[2.28234,41.944658],[2.28177,41.944888],[2.281661,41.944897],[2.281349,41.944795],[2.28058,41.944533],[2.280319,41.944447],[2.28032,41.944444],[2.280312,41.944445],[2.280272,41.944432],[2.280118,41.944513],[2.28007,41.944525],[2.280056,41.944541],[2.280013,41.944593],[2.280005,41.944602],[2.280041,41.945615],[2.279853,41.945802],[2.279847,41.945815],[2.279828,41.945842],[2.279801,41.945866],[2.279769,41.945885],[2.278701,41.946385],[2.27869,41.946388],[2.278662,41.946392],[2.278634,41.946391],[2.278607,41.946384],[2.278601,41.94638],[2.278394,41.946363],[2.278322,41.946366],[2.278293,41.94638],[2.278261,41.946388],[2.278226,41.946391],[2.278195,41.946395],[2.278157,41.946406],[2.278121,41.94642],[2.278086,41.94644],[2.278057,41.946465],[2.278029,41.946497],[2.278017,41.946516],[2.278008,41.946531],[2.277995,41.946565],[2.277992,41.946598],[2.277996,41.946627],[2.278007,41.946655],[2.278018,41.946673],[2.278056,41.946722],[2.278097,41.946755],[2.27812,41.946768],[2.278138,41.946777],[2.278141,41.946779],[2.278144,41.94678],[2.278183,41.946793],[2.278223,41.946807],[2.278237,41.946813],[2.278364,41.946857],[2.279021,41.948127],[2.279027,41.948139],[2.279041,41.94818],[2.279048,41.948221],[2.279047,41.948263],[2.279039,41.948304],[2.279023,41.948345],[2.279,41.948383],[2.27897,41.948418],[2.278675,41.948638],[2.278675,41.948639],[2.278644,41.948662],[2.278583,41.948707],[2.278582,41.948707],[2.278579,41.948705],[2.278563,41.948698],[2.27856,41.94872],[2.278553,41.948724],[2.278556,41.948725],[2.27855,41.948729],[2.278505,41.948759],[2.278461,41.94879],[2.278258,41.948936],[2.278216,41.948967],[2.278057,41.949083],[2.277943,41.949163],[2.277829,41.949242],[2.27778,41.949279],[2.277736,41.949319],[2.277711,41.949348],[2.277699,41.949367],[2.277686,41.949386],[2.27768,41.949394],[2.277676,41.9494],[2.277675,41.949402],[2.277666,41.949416],[2.277665,41.949418],[2.277659,41.949428],[2.277652,41.949438],[2.277647,41.949447],[2.277641,41.949456],[2.277581,41.949556],[2.27757,41.949574],[2.27757,41.949574],[2.277521,41.949656],[2.277441,41.949787],[2.277414,41.949831],[2.277361,41.949918],[2.2773,41.950015],[2.277238,41.950112],[2.277174,41.950221],[2.277116,41.950331],[2.277084,41.950406],[2.27704,41.950525],[2.276998,41.950644],[2.276949,41.950789],[2.2769,41.950933],[2.276829,41.951126],[2.276752,41.951318],[2.276718,41.951383],[2.276677,41.951445],[2.276616,41.951519],[2.27655,41.951591],[2.27651,41.951631],[2.276466,41.951669],[2.276432,41.951691],[2.276406,41.951703],[2.276378,41.951712],[2.276377,41.951713],[2.27632,41.951726],[2.276289,41.951732],[2.276257,41.951737],[2.276208,41.951742],[2.276158,41.951739],[2.276115,41.951732],[2.276073,41.95172],[2.276029,41.951706],[2.275988,41.95169],[2.275963,41.951677],[2.27591,41.951643],[2.275861,41.951606],[2.275719,41.951491],[2.275597,41.951393],[2.275476,41.951456],[2.275433,41.951421],[2.27504,41.951471],[2.275017,41.951487],[2.275028,41.951588],[2.27511,41.951645],[2.274948,41.951658],[2.274741,41.951829],[2.274584,41.9521],[2.274493,41.952251],[2.274432,41.952274],[2.274377,41.952311],[2.274364,41.952343],[2.274316,41.952467],[2.274295,41.952536],[2.274274,41.952605],[2.274248,41.952675],[2.274245,41.952684],[2.274215,41.952763],[2.274131,41.953228],[2.274064,41.953901],[2.27408,41.954319],[2.274083,41.954379],[2.27457,41.954536],[2.27486,41.954636],[2.275155,41.954661],[2.275145,41.954589],[2.275147,41.95459],[2.275188,41.954539],[2.275241,41.954507],[2.27532,41.954493],[2.275436,41.954476],[2.27552,41.954473],[2.275684,41.954483],[2.275795,41.954499],[2.276007,41.954509],[2.276189,41.954593],[2.276877,41.954563],[2.276869,41.954329],[2.277018,41.954322],[2.277022,41.954009],[2.277032,41.953783],[2.27704,41.953643],[2.277582,41.952745]]]]}},{"type":"Feature","id":"082981_082981 AP02 OSO 2","properties":{"area_id":"082981_082981 AP02 OSO 2","nom":"Sentfores","codi_icgc":"082981 AP02 OSO 2","categoria":"Àrees de poblament","codi_municipi":"082981","municipi":"Vic","codi_comarca":"24","comarca":"Osona","provincia":"Barcelona","font":"ICGC Àrees de poblament v3r1 202602"},"geometry":{"type":"MultiPolygon","coordinates":[[[[2.226629,41.913549],[2.226287,41.91419],[2.226621,41.914281],[2.226619,41.914424],[2.227095,41.91466],[2.227428,41.914769],[2.227879,41.915112],[2.228263,41.915025],[2.228501,41.915134],[2.229273,41.914585],[2.229987,41.914876],[2.230746,41.915435],[2.231317,41.915725],[2.232229,41.915534],[2.231668,41.914387],[2.231557,41.913725],[2.231156,41.913239],[2.230847,41.913077],[2.230182,41.912643],[2.23016,41.912429],[2.230615,41.912449],[2.230694,41.911842],[2.230647,41.911788],[2.230432,41.911769],[2.230048,41.911838],[2.229858,41.911694],[2.229668,41.911621],[2.229262,41.911565],[2.229038,41.912207],[2.228845,41.912402],[2.228262,41.913095],[2.227455,41.912589],[2.227123,41.912319],[2.226629,41.913549]]]]}},{"type":"Feature","id":"082981_082981 AP03 OSO 2","properties":{"area_id":"082981_082981 AP03 OSO 2","nom":"Serra-de-senferm","codi_icgc":"082981 AP03 OSO 2","categoria":"Àrees de poblament","codi_municipi":"082981","municipi":"Vic","codi_comarca":"24","comarca":"Osona","provincia":"Barcelona","font":"ICGC Àrees de poblament v3r1 202602"},"geometry":{"type":"MultiPolygon","coordinates":[[[[2.260682,41.914974],[2.260732,41.914766],[2.260798,41.914466],[2.260826,41.914316],[2.260851,41.914165],[2.260862,41.914081],[2.260871,41.914009],[2.260884,41.913853],[2.260896,41.913741],[2.2609,41.913728],[2.260912,41.913712],[2.260918,41.913706],[2.260928,41.913703],[2.260919,41.913652],[2.260917,41.913643],[2.260711,41.912882],[2.260664,41.912916],[2.260642,41.912933],[2.260617,41.912945],[2.260587,41.912953],[2.260444,41.912979],[2.2603,41.913005],[2.259951,41.913068],[2.259601,41.913131],[2.259281,41.913188],[2.258961,41.913244],[2.258824,41.913268],[2.258687,41.913292],[2.258646,41.913282],[2.258631,41.913244],[2.258577,41.913251],[2.258549,41.913255],[2.258533,41.913201],[2.25852,41.913139],[2.258496,41.913028],[2.258471,41.912917],[2.25845,41.912838],[2.258437,41.912798],[2.25842,41.912759],[2.25839,41.91269],[2.258335,41.912609],[2.258294,41.912525],[2.258249,41.91244],[2.258206,41.912355],[2.258181,41.912298],[2.258169,41.912262],[2.258156,41.912228],[2.258153,41.912193],[2.258155,41.912178],[2.258162,41.912164],[2.258171,41.912157],[2.258192,41.912146],[2.258212,41.912134],[2.258234,41.912127],[2.25829,41.912101],[2.258315,41.912084],[2.258345,41.912054],[2.258366,41.91202],[2.258378,41.911978],[2.258384,41.911934],[2.258429,41.911772],[2.258547,41.912041],[2.258635,41.912058],[2.258701,41.912087],[2.25875,41.91216],[2.258815,41.912195],[2.259904,41.911852],[2.259617,41.911233],[2.259456,41.911278],[2.259222,41.911341],[2.259158,41.911361],[2.259056,41.911394],[2.258919,41.911442],[2.258785,41.911494],[2.258697,41.91153],[2.258615,41.911568],[2.258538,41.911611],[2.258514,41.911628],[2.258491,41.911647],[2.258453,41.911686],[2.258432,41.911715],[2.258403,41.911765],[2.258382,41.911816],[2.258372,41.911851],[2.25836,41.911913],[2.258351,41.911975],[2.25834,41.912014],[2.258322,41.912044],[2.258295,41.91207],[2.258273,41.912085],[2.258222,41.912109],[2.258166,41.912128],[2.258153,41.912131],[2.258144,41.912131],[2.258135,41.912127],[2.258126,41.91212],[2.258111,41.912102],[2.258104,41.912089],[2.258094,41.912055],[2.25809,41.912021],[2.25809,41.911976],[2.25809,41.911931],[2.258086,41.9119],[2.258073,41.911868],[2.258058,41.911838],[2.258021,41.91178],[2.257974,41.91171],[2.257925,41.911639],[2.257857,41.911548],[2.257784,41.911458],[2.257772,41.911446],[2.257735,41.911443],[2.257712,41.91142],[2.257659,41.911373],[2.257625,41.911339],[2.257592,41.911302],[2.257566,41.911283],[2.257542,41.911275],[2.25751,41.911274],[2.257482,41.911283],[2.257461,41.911294],[2.257438,41.911311],[2.257425,41.911337],[2.257366,41.911442],[2.257308,41.911545],[2.257286,41.911588],[2.257233,41.911628],[2.257224,41.911646],[2.257169,41.911755],[2.257148,41.911801],[2.257132,41.911847],[2.257125,41.911879],[2.257125,41.911921],[2.257148,41.912001],[2.25715,41.912012],[2.257152,41.912027],[2.257149,41.912038],[2.257143,41.912051],[2.257127,41.912081],[2.257103,41.912121],[2.257081,41.912147],[2.257054,41.912171],[2.25703,41.912188],[2.257004,41.912202],[2.256986,41.912207],[2.256921,41.912219],[2.256854,41.912226],[2.256714,41.912239],[2.256573,41.912252],[2.256476,41.91226],[2.256378,41.912268],[2.256168,41.912284],[2.255957,41.9123],[2.255916,41.912303],[2.255916,41.912256],[2.255921,41.91222],[2.255928,41.912154],[2.255937,41.912098],[2.255427,41.912115],[2.255407,41.91223],[2.255406,41.912301],[2.255393,41.912308],[2.255377,41.912314],[2.255353,41.912318],[2.255336,41.912318],[2.255198,41.912326],[2.255081,41.912332],[2.254977,41.912337],[2.254997,41.912451],[2.255041,41.912603],[2.255048,41.912637],[2.255031,41.912639],[2.255331,41.913606],[2.255407,41.913597],[2.255853,41.91354],[2.255954,41.913526],[2.256041,41.913514],[2.256126,41.913755],[2.256142,41.913753],[2.256161,41.913824],[2.256179,41.913895],[2.256187,41.913923],[2.256202,41.91395],[2.256212,41.913958],[2.256225,41.913963],[2.256234,41.913965],[2.256244,41.913968],[2.25625,41.913972],[2.256254,41.913977],[2.25626,41.913995],[2.256266,41.914013],[2.256304,41.914173],[2.256343,41.914333],[2.256366,41.91443],[2.256393,41.914528],[2.256423,41.914626],[2.256453,41.914725],[2.256458,41.914747],[2.256463,41.914768],[2.256467,41.914777],[2.256478,41.914784],[2.256489,41.914787],[2.2565,41.914787],[2.256519,41.914787],[2.256539,41.914787],[2.256574,41.914782],[2.256609,41.914776],[2.25663,41.914774],[2.256651,41.914773],[2.256662,41.914772],[2.256673,41.914773],[2.256685,41.914778],[2.2567,41.914788],[2.256712,41.9148],[2.25672,41.914813],[2.256729,41.914826],[2.256726,41.91486],[2.256719,41.914933],[2.256862,41.914959],[2.256887,41.914964],[2.258437,41.91505],[2.25849,41.914955],[2.258515,41.91496],[2.258534,41.914977],[2.258545,41.915024],[2.258548,41.91505],[2.258549,41.915099],[2.258543,41.915163],[2.258526,41.915344],[2.258499,41.915615],[2.25847,41.915886],[2.25846,41.915957],[2.25844,41.916063],[2.258416,41.916169],[2.258375,41.916332],[2.258339,41.91649],[2.258603,41.916519],[2.258834,41.916539],[2.258898,41.916544],[2.258976,41.91655],[2.259041,41.916555],[2.259685,41.916607],[2.260142,41.916643],[2.260165,41.916645],[2.260286,41.916653],[2.260303,41.916596],[2.260361,41.916413],[2.260389,41.916322],[2.260413,41.916229],[2.260458,41.916022],[2.260501,41.915816],[2.260551,41.915568],[2.260601,41.915321],[2.260601,41.915318],[2.260605,41.915318],[2.260638,41.915318],[2.260628,41.915304],[2.26061,41.915279],[2.260594,41.915258],[2.260667,41.915035],[2.260682,41.914974]]]]}},{"type":"Feature","id":"082981_082981 AP01 OSO 3","properties":{"area_id":"082981_082981 AP01 OSO 3","nom":"Vic","codi_icgc":"082981 AP01 OSO 3","categoria":"Àrees de poblament","codi_municipi":"082981","municipi":"Vic","codi_comarca":"24","comarca":"Osona","provincia":"Barcelona","font":"ICGC Àrees de poblament v3r1 202602"},"geometry":{"type":"MultiPolygon","coordinates":[[[[2.256853,41.940011],[2.25674,41.939739],[2.256692,41.939622],[2.256689,41.939615],[2.256719,41.939609],[2.256847,41.939588],[2.257095,41.939535],[2.257121,41.939521],[2.257142,41.939504],[2.257157,41.939482],[2.257165,41.939459],[2.257165,41.939435],[2.257157,41.939412],[2.257153,41.939404],[2.257098,41.939363],[2.256835,41.939194],[2.256831,41.939191],[2.25675,41.9392],[2.255705,41.939399],[2.25559,41.939209],[2.255452,41.938923],[2.255211,41.938441],[2.255103,41.938304],[2.255437,41.938001],[2.255379,41.93764],[2.255375,41.937534],[2.255366,41.937339],[2.255367,41.937257],[2.255351,41.937161],[2.255278,41.937151],[2.25524,41.937152],[2.25525,41.937026],[2.255239,41.936902],[2.255237,41.936769],[2.255306,41.936542],[2.255323,41.936473],[2.255328,41.936455],[2.255359,41.936473],[2.255405,41.936522],[2.255441,41.936551],[2.255484,41.936579],[2.25552,41.936602],[2.255516,41.93662],[2.255549,41.936625],[2.255578,41.936629],[2.2556,41.936657],[2.255653,41.936766],[2.255764,41.936849],[2.255877,41.936944],[2.256024,41.937047],[2.256309,41.937237],[2.256548,41.937299],[2.256589,41.937324],[2.256833,41.937475],[2.256942,41.937534],[2.256978,41.937554],[2.257042,41.937656],[2.257093,41.93769],[2.257243,41.937792],[2.257272,41.937763],[2.257357,41.937677],[2.257499,41.937535],[2.257543,41.937493],[2.257632,41.937393],[2.257633,41.937298],[2.257569,41.936934],[2.257549,41.93682],[2.257736,41.936805],[2.257785,41.93678],[2.257866,41.936744],[2.257958,41.936714],[2.258052,41.936688],[2.258127,41.936669],[2.258201,41.936651],[2.258311,41.936623],[2.258421,41.936594],[2.258498,41.936574],[2.258576,41.936552],[2.25861,41.936538],[2.258641,41.93652],[2.25866,41.936505],[2.258672,41.936488],[2.258681,41.936466],[2.258687,41.936443],[2.25869,41.936433],[2.258821,41.93641],[2.258896,41.936563],[2.258967,41.936706],[2.258983,41.936739],[2.25905,41.936874],[2.259118,41.937009],[2.259153,41.937073],[2.259182,41.93712],[2.259233,41.937188],[2.259292,41.937252],[2.259292,41.937307],[2.258738,41.936899],[2.258279,41.937265],[2.259081,41.937884],[2.25956,41.937547],[2.259605,41.937455],[2.259655,41.937378],[2.259749,41.937396],[2.259771,41.937401],[2.260639,41.937568],[2.260755,41.937569],[2.260855,41.9375],[2.260914,41.937433],[2.26101,41.937153],[2.261467,41.937261],[2.261805,41.937344],[2.261755,41.937528],[2.262105,41.937616],[2.262018,41.937826],[2.262227,41.937887],[2.262333,41.937775],[2.262564,41.937909],[2.262743,41.938011],[2.262891,41.938086],[2.263013,41.938136],[2.263103,41.938156],[2.263166,41.938155],[2.263216,41.938141],[2.263294,41.93808],[2.263312,41.938002],[2.263514,41.937882],[2.263573,41.937768],[2.263586,41.937708],[2.263589,41.937698],[2.26359,41.937634],[2.263272,41.937537],[2.263054,41.937485],[2.262898,41.93746],[2.262735,41.937438],[2.262651,41.937416],[2.262612,41.93738],[2.262521,41.937293],[2.262484,41.93725],[2.263069,41.93681],[2.263314,41.936527],[2.263433,41.936602],[2.264043,41.937009],[2.264318,41.937235],[2.264763,41.937656],[2.265474,41.938434],[2.266422,41.93804],[2.266426,41.938038],[2.266661,41.93794],[2.26795,41.937404],[2.267898,41.937338],[2.267894,41.937333],[2.267875,41.93731],[2.267866,41.937299],[2.267834,41.937286],[2.267796,41.93727],[2.267726,41.937243],[2.267586,41.937162],[2.267557,41.937146],[2.267519,41.937124],[2.267491,41.937108],[2.2673,41.937005],[2.267254,41.936985],[2.267251,41.936982],[2.266947,41.936722],[2.266943,41.936718],[2.266902,41.936683],[2.266847,41.936621],[2.26683,41.936595],[2.266823,41.936587],[2.266802,41.936544],[2.266772,41.936472],[2.266749,41.936323],[2.266733,41.93626],[2.266694,41.936152],[2.266662,41.936083],[2.266651,41.936064],[2.2666,41.935974],[2.266591,41.935958],[2.266587,41.935931],[2.26658,41.935877],[2.266572,41.935807],[2.266376,41.93566],[2.266262,41.935571],[2.267206,41.935025],[2.267166,41.934963],[2.267182,41.934936],[2.26719,41.934883],[2.267185,41.934843],[2.267173,41.934799],[2.267125,41.934757],[2.267218,41.934713],[2.267281,41.934692],[2.267299,41.934682],[2.267317,41.934672],[2.267336,41.934661],[2.267359,41.93464],[2.267378,41.934616],[2.267391,41.934594],[2.2674,41.934571],[2.267407,41.934551],[2.267415,41.93452],[2.267421,41.934489],[2.267423,41.934455],[2.26742,41.934421],[2.2674,41.934318],[2.26738,41.934214],[2.267412,41.934042],[2.267463,41.933771],[2.267472,41.933722],[2.267484,41.933648],[2.267483,41.933608],[2.267047,41.933672],[2.266852,41.933199],[2.266846,41.93317],[2.266953,41.933136],[2.266814,41.932786],[2.266768,41.932679],[2.266086,41.932736],[2.265888,41.93203],[2.266244,41.932],[2.266226,41.931846],[2.266275,41.931838],[2.266141,41.931388],[2.266193,41.931385],[2.267669,41.931362],[2.26767,41.93122],[2.268049,41.93121],[2.268053,41.931083],[2.268046,41.930912],[2.268031,41.930589],[2.268017,41.930144],[2.267813,41.929585],[2.267693,41.929284],[2.267632,41.929167],[2.267628,41.929159],[2.267874,41.929149],[2.268032,41.929135],[2.268186,41.929104],[2.26834,41.929028],[2.26835,41.929027],[2.268361,41.929025],[2.268375,41.929023],[2.268403,41.929021],[2.268536,41.92906],[2.268569,41.929092],[2.26866,41.929107],[2.268765,41.929101],[2.268837,41.929048],[2.268915,41.928985],[2.269009,41.928979],[2.269083,41.928974],[2.269084,41.928977],[2.269268,41.929436],[2.269347,41.929636],[2.269366,41.929637],[2.269365,41.929658],[2.269394,41.929784],[2.269662,41.92975],[2.269672,41.929758],[2.269703,41.929782],[2.269681,41.929795],[2.26969,41.929802],[2.269719,41.92983],[2.269745,41.929815],[2.269754,41.929822],[2.269788,41.929849],[2.269959,41.92978],[2.269981,41.929772],[2.26999,41.929779],[2.269945,41.929691],[2.26987,41.929576],[2.269838,41.929415],[2.270419,41.929322],[2.270428,41.929383],[2.270485,41.929412],[2.270539,41.929655],[2.270732,41.929614],[2.27081,41.929603],[2.270927,41.929586],[2.270991,41.929577],[2.271382,41.92952],[2.271388,41.929517],[2.271433,41.929513],[2.27144,41.929512],[2.272214,41.929395],[2.272261,41.929388],[2.272588,41.92934],[2.27258,41.929272],[2.27253,41.928964],[2.272528,41.928952],[2.272525,41.928794],[2.272541,41.928642],[2.272542,41.928634],[2.272466,41.928638],[2.272458,41.928638],[2.272422,41.928485],[2.27242,41.928476],[2.27245,41.928445],[2.27251,41.928418],[2.272717,41.928387],[2.272747,41.928383],[2.27303,41.928346],[2.273345,41.928311],[2.273603,41.928288],[2.273861,41.928271],[2.274122,41.928276],[2.274297,41.928303],[2.274317,41.92831],[2.274334,41.928316],[2.274847,41.9285],[2.274922,41.928526],[2.275277,41.928649],[2.27558,41.928783],[2.275842,41.928912],[2.275964,41.928788],[2.276106,41.928804],[2.276607,41.92886],[2.276608,41.928854],[2.276619,41.928856],[2.276679,41.928503],[2.27669,41.928487],[2.276704,41.928478],[2.276718,41.928474],[2.276755,41.928482],[2.276821,41.928493],[2.27707,41.928538],[2.277319,41.928582],[2.2775,41.928611],[2.277564,41.92862],[2.277551,41.928675],[2.277581,41.928678],[2.277649,41.928687],[2.27788,41.928711],[2.278058,41.928725],[2.278113,41.928729],[2.27829,41.928738],[2.27827,41.929007],[2.278275,41.929008],[2.278285,41.929008],[2.278503,41.929013],[2.278734,41.929012],[2.278963,41.929005],[2.27916,41.928995],[2.279272,41.928986],[2.279389,41.928977],[2.279622,41.928951],[2.279834,41.928923],[2.280075,41.928884],[2.280213,41.928858],[2.280312,41.928838],[2.280474,41.928802],[2.28056,41.928782],[2.280795,41.928721],[2.2809,41.92841],[2.280914,41.928389],[2.280921,41.928376],[2.280961,41.928314],[2.28096,41.928174],[2.280684,41.928027],[2.280695,41.927927],[2.280698,41.927912],[2.280826,41.927651],[2.280832,41.927639],[2.28122,41.927528],[2.281282,41.92748],[2.281315,41.927454],[2.281321,41.927391],[2.28135,41.92706],[2.281355,41.926915],[2.281382,41.926498],[2.281374,41.926239],[2.281389,41.926035],[2.281413,41.925734],[2.281413,41.925729],[2.281027,41.925748],[2.280368,41.925773],[2.280197,41.925779],[2.280061,41.925792],[2.279852,41.925793],[2.279871,41.925884],[2.279559,41.925922],[2.278897,41.926],[2.278718,41.926018],[2.278619,41.925983],[2.278419,41.925839],[2.278306,41.925726],[2.278129,41.925557],[2.278038,41.925486],[2.277898,41.925382],[2.277753,41.925295],[2.277671,41.925242],[2.277407,41.925279],[2.276924,41.925339],[2.276433,41.925401],[2.276017,41.925449],[2.275853,41.925481],[2.275589,41.925581],[2.275124,41.925754],[2.275056,41.925795],[2.27504,41.925822],[2.275031,41.925892],[2.274814,41.925925],[2.274736,41.925938],[2.274696,41.925945],[2.274676,41.925949],[2.274642,41.925913],[2.274366,41.925585],[2.274357,41.925578],[2.274055,41.925694],[2.273985,41.925726],[2.273974,41.925979],[2.273947,41.926058],[2.273912,41.926148],[2.273888,41.926286],[2.27391,41.926337],[2.273923,41.926368],[2.273746,41.926394],[2.273639,41.926405],[2.273529,41.926411],[2.273404,41.926417],[2.27328,41.926422],[2.272401,41.926446],[2.272372,41.926446],[2.272143,41.926452],[2.271913,41.926458],[2.271852,41.926459],[2.271847,41.92646],[2.271835,41.92646],[2.271828,41.92646],[2.271822,41.92646],[2.271766,41.926462],[2.271522,41.926468],[2.271006,41.926481],[2.270926,41.926482],[2.270778,41.926485],[2.270735,41.926483],[2.270692,41.926479],[2.270665,41.926474],[2.270645,41.926469],[2.270638,41.926467],[2.270574,41.926272],[2.27058,41.926272],[2.270583,41.926279],[2.270861,41.92626],[2.270852,41.926052],[2.270841,41.925884],[2.270797,41.925656],[2.270326,41.925648],[2.270331,41.925695],[2.270322,41.925696],[2.270288,41.925702],[2.270279,41.925704],[2.270288,41.925767],[2.270304,41.925894],[2.270309,41.925921],[2.27031,41.925949],[2.270304,41.925966],[2.270011,41.925913],[2.27,41.925928],[2.26999,41.925942],[2.269976,41.925961],[2.269963,41.92598],[2.26995,41.926003],[2.269942,41.926027],[2.269935,41.926077],[2.269927,41.926164],[2.269927,41.92625],[2.26993,41.926298],[2.269933,41.926347],[2.269944,41.926367],[2.269955,41.926388],[2.269963,41.926399],[2.269969,41.926406],[2.269978,41.926413],[2.269987,41.926423],[2.269995,41.92643],[2.270008,41.926441],[2.270017,41.926449],[2.270032,41.926459],[2.270055,41.926467],[2.27008,41.926474],[2.270103,41.926478],[2.270126,41.92648],[2.270096,41.926482],[2.269919,41.926493],[2.2699,41.926494],[2.269774,41.926502],[2.269754,41.926503],[2.269713,41.926505],[2.269602,41.926511],[2.269491,41.926514],[2.26927,41.926519],[2.269081,41.926521],[2.268897,41.926524],[2.268905,41.926498],[2.268908,41.92649],[2.268898,41.926293],[2.268898,41.926285],[2.268489,41.926289],[2.268374,41.926289],[2.268364,41.926289],[2.268364,41.926186],[2.268364,41.926181],[2.268202,41.926136],[2.268146,41.92612],[2.268074,41.926104],[2.268051,41.9261],[2.26804,41.926096],[2.267907,41.926066],[2.2679,41.926065],[2.267896,41.926064],[2.267891,41.926063],[2.267895,41.926045],[2.267899,41.926022],[2.267879,41.925998],[2.267876,41.925996],[2.267866,41.925988],[2.267848,41.92597],[2.267828,41.925946],[2.267814,41.925924],[2.26781,41.925919],[2.267799,41.925908],[2.267794,41.925903],[2.267768,41.925891],[2.26774,41.925884],[2.26771,41.925883],[2.267435,41.925896],[2.26716,41.925909],[2.267128,41.92591],[2.267077,41.925913],[2.267078,41.92592],[2.267079,41.925981],[2.26708,41.926055],[2.267107,41.926244],[2.267135,41.926393],[2.267177,41.92657],[2.267212,41.926709],[2.267223,41.926739],[2.26725,41.926914],[2.267145,41.926945],[2.267076,41.926966],[2.267057,41.926971],[2.267047,41.926974],[2.266972,41.926996],[2.266899,41.926836],[2.266766,41.925933],[2.266765,41.925926],[2.266709,41.925928],[2.266636,41.925931],[2.266487,41.925938],[2.266433,41.92594],[2.266418,41.925941],[2.264466,41.926108],[2.264418,41.926122],[2.264349,41.926173],[2.264293,41.92619],[2.264245,41.926195],[2.264188,41.92619],[2.264125,41.926175],[2.264069,41.926131],[2.264039,41.926091],[2.264028,41.926002],[2.264025,41.925988],[2.264006,41.925894],[2.263967,41.925826],[2.263938,41.925778],[2.263807,41.92555],[2.263775,41.92549],[2.263751,41.925445],[2.263683,41.925315],[2.263678,41.925305],[2.26358,41.925119],[2.263499,41.924974],[2.263419,41.924828],[2.263409,41.924814],[2.2634,41.9248],[2.263397,41.924798],[2.263394,41.924795],[2.263339,41.924678],[2.263329,41.924658],[2.263304,41.924604],[2.26321,41.924428],[2.263099,41.924217],[2.263027,41.924075],[2.26297,41.923965],[2.262948,41.923961],[2.262853,41.923843],[2.262762,41.923665],[2.262707,41.923557],[2.262656,41.923459],[2.262617,41.9234],[2.262595,41.923368],[2.262587,41.923354],[2.262559,41.923304],[2.262415,41.923066],[2.26215,41.922662],[2.262381,41.922547],[2.262414,41.92253],[2.26268,41.922422],[2.262683,41.922421],[2.262735,41.9224],[2.262819,41.92236],[2.262826,41.922369],[2.262858,41.922404],[2.262865,41.922412],[2.263032,41.922601],[2.263075,41.922588],[2.263129,41.922575],[2.263238,41.922551],[2.263346,41.922532],[2.263455,41.922516],[2.263546,41.922505],[2.263636,41.922497],[2.263697,41.922495],[2.263789,41.922496],[2.263881,41.922496],[2.263865,41.922445],[2.26385,41.922393],[2.263837,41.922341],[2.263825,41.922288],[2.263798,41.92217],[2.263774,41.922052],[2.263739,41.921865],[2.263705,41.921678],[2.263669,41.92148],[2.263635,41.921291],[2.263633,41.921282],[2.263517,41.921312],[2.2634,41.921342],[2.263214,41.921391],[2.263029,41.921439],[2.262871,41.921475],[2.262711,41.921505],[2.262694,41.921509],[2.262483,41.921547],[2.262315,41.921578],[2.262247,41.921549],[2.262191,41.921495],[2.262144,41.921432],[2.262133,41.921393],[2.262169,41.921367],[2.262277,41.921288],[2.262292,41.921277],[2.262317,41.921259],[2.262312,41.921255],[2.261853,41.920907],[2.261703,41.920793],[2.261679,41.920775],[2.261669,41.920768],[2.261535,41.920778],[2.261518,41.920779],[2.261139,41.920789],[2.260723,41.920804],[2.260478,41.921008],[2.259919,41.920731],[2.259654,41.920645],[2.259548,41.92061],[2.259537,41.920607],[2.259536,41.920611],[2.259532,41.920624],[2.259488,41.920618],[2.259477,41.920616],[2.259482,41.920594],[2.259483,41.92059],[2.259313,41.920535],[2.259085,41.920462],[2.258848,41.920401],[2.258838,41.920398],[2.258772,41.920381],[2.258841,41.920159],[2.258844,41.920148],[2.258853,41.920118],[2.258977,41.919765],[2.258987,41.919736],[2.258988,41.919732],[2.259012,41.919669],[2.259014,41.919664],[2.259051,41.919552],[2.259134,41.91933],[2.259135,41.919326],[2.259157,41.919268],[2.259285,41.918931],[2.259346,41.918768],[2.259378,41.918683],[2.259497,41.91837],[2.259507,41.918344],[2.259444,41.918264],[2.25934,41.918191],[2.259302,41.918166],[2.259087,41.918108],[2.258796,41.918045],[2.258309,41.917952],[2.257927,41.917871],[2.25733,41.917757],[2.256814,41.917653],[2.25636,41.917557],[2.256213,41.917524],[2.256136,41.917527],[2.256059,41.917552],[2.255971,41.917701],[2.255805,41.918019],[2.255638,41.918336],[2.255638,41.918371],[2.255705,41.918436],[2.255633,41.918596],[2.255631,41.9186],[2.25562,41.918624],[2.255618,41.918628],[2.255606,41.918655],[2.255496,41.91881],[2.255413,41.918809],[2.255369,41.918823],[2.255326,41.918883],[2.255247,41.919029],[2.254999,41.919414],[2.25497,41.919459],[2.254966,41.919465],[2.254912,41.919435],[2.254755,41.919384],[2.254525,41.919332],[2.254441,41.919317],[2.254327,41.919296],[2.254289,41.919288],[2.254239,41.919277],[2.254217,41.919329],[2.254191,41.919405],[2.254141,41.919505],[2.254114,41.919583],[2.254097,41.919633],[2.254076,41.919631],[2.254004,41.919624],[2.253941,41.919616],[2.253878,41.919604],[2.25386,41.919597],[2.25386,41.919603],[2.253833,41.919583],[2.253805,41.919564],[2.253778,41.919546],[2.25372,41.919505],[2.25322,41.919426],[2.253053,41.919306],[2.252989,41.919107],[2.252972,41.919056],[2.252999,41.919052],[2.25301,41.919051],[2.253022,41.919049],[2.253053,41.919045],[2.253092,41.919042],[2.253088,41.918951],[2.253079,41.918738],[2.252157,41.918862],[2.251955,41.918889],[2.251952,41.918874],[2.251914,41.918732],[2.251911,41.918666],[2.251909,41.918577],[2.251907,41.918569],[2.251853,41.918497],[2.251759,41.918442],[2.251687,41.918427],[2.251599,41.918437],[2.251562,41.918441],[2.251299,41.918549],[2.251234,41.918487],[2.251232,41.918485],[2.251211,41.918444],[2.251157,41.918335],[2.251359,41.918247],[2.251395,41.918225],[2.251451,41.918184],[2.251504,41.918138],[2.251539,41.9181],[2.251589,41.91802],[2.251595,41.917984],[2.251596,41.917947],[2.251593,41.917915],[2.251588,41.917883],[2.251563,41.917785],[2.251557,41.917759],[2.251525,41.917635],[2.251474,41.917438],[2.251423,41.917241],[2.251375,41.917047],[2.251327,41.916852],[2.250524,41.916867],[2.250314,41.917474],[2.250122,41.918056],[2.250135,41.918076],[2.249827,41.91806],[2.24983,41.918052],[2.249741,41.91802],[2.24969,41.917975],[2.249677,41.917975],[2.249673,41.917972],[2.248968,41.917883],[2.24847,41.91782],[2.248451,41.917901],[2.24842,41.91798],[2.248344,41.918178],[2.24831,41.918266],[2.248195,41.918397],[2.248053,41.918668],[2.247954,41.918921],[2.247771,41.919406],[2.247278,41.920649],[2.247199,41.92087],[2.247356,41.920914],[2.247762,41.921031],[2.247698,41.921185],[2.248386,41.921339],[2.248368,41.921387],[2.248262,41.921673],[2.248227,41.921779],[2.248181,41.921941],[2.248139,41.922104],[2.248097,41.922277],[2.24806,41.922451],[2.248036,41.922589],[2.248017,41.922727],[2.248004,41.922848],[2.247999,41.922888],[2.24656,41.922847],[2.246425,41.922946],[2.246251,41.92311],[2.246104,41.923387],[2.245916,41.923887],[2.245835,41.924265],[2.248045,41.924348],[2.248042,41.924643],[2.247964,41.924644],[2.247905,41.924645],[2.247905,41.924647],[2.24774,41.924646],[2.247649,41.924646],[2.247436,41.924647],[2.247131,41.924649],[2.246901,41.924652],[2.24667,41.924655],[2.246592,41.924655],[2.246514,41.924654],[2.246387,41.924646],[2.246261,41.924634],[2.246009,41.924603],[2.24584,41.924585],[2.245756,41.924579],[2.245732,41.924577],[2.245728,41.924576],[2.24562,41.92457],[2.245591,41.924569],[2.245557,41.924567],[2.245544,41.924567],[2.245446,41.924566],[2.2454,41.924568],[2.245354,41.924575],[2.245264,41.924594],[2.245215,41.924605],[2.245169,41.92462],[2.245141,41.924634],[2.245093,41.924662],[2.245046,41.924691],[2.245011,41.924717],[2.244951,41.924772],[2.244897,41.924829],[2.244864,41.924869],[2.244749,41.925021],[2.244633,41.92517],[2.244553,41.925265],[2.24447,41.925357],[2.244418,41.925407],[2.244362,41.925453],[2.244322,41.925481],[2.244253,41.92552],[2.244179,41.925553],[2.244128,41.925571],[2.244054,41.925594],[2.243979,41.925611],[2.24393,41.925619],[2.243727,41.925641],[2.243523,41.92566],[2.243297,41.925679],[2.24326,41.925683],[2.24307,41.9257],[2.24299,41.92571],[2.24291,41.925725],[2.242757,41.925762],[2.2426,41.925808],[2.242446,41.925859],[2.242328,41.925903],[2.242214,41.925951],[2.242107,41.926005],[2.242003,41.926061],[2.241936,41.926102],[2.241851,41.926158],[2.241702,41.926263],[2.241554,41.926367],[2.241423,41.926459],[2.241292,41.926551],[2.241262,41.926572],[2.241182,41.926629],[2.241063,41.926697],[2.240998,41.926729],[2.240924,41.926759],[2.240846,41.926784],[2.240765,41.926804],[2.240683,41.926818],[2.24066,41.926816],[2.240603,41.926815],[2.240547,41.92682],[2.240417,41.926855],[2.240397,41.926861],[2.24039,41.926867],[2.24023,41.927019],[2.240225,41.927024],[2.240145,41.9271],[2.240062,41.92715],[2.239973,41.927192],[2.239853,41.927228],[2.2398,41.927239],[2.239756,41.927244],[2.239746,41.927247],[2.23937,41.927357],[2.239212,41.927441],[2.239125,41.927506],[2.23909,41.927554],[2.239081,41.927566],[2.239053,41.927649],[2.238838,41.931047],[2.238785,41.931547],[2.237988,41.931506],[2.237245,41.931548],[2.237716,41.93285],[2.238558,41.932927],[2.238653,41.932942],[2.238961,41.932983],[2.239254,41.933011],[2.239254,41.933063],[2.239247,41.933108],[2.23925,41.933153],[2.239261,41.933197],[2.239281,41.933239],[2.239308,41.933279],[2.239343,41.933315],[2.239346,41.93335],[2.238838,41.933811],[2.239036,41.933943],[2.239049,41.934367],[2.238982,41.93476],[2.239909,41.934766],[2.239829,41.934458],[2.239811,41.934389],[2.239934,41.934407],[2.240473,41.934486],[2.240719,41.934523],[2.240831,41.934539],[2.240997,41.934542],[2.24101,41.934543],[2.241469,41.934552],[2.241592,41.934559],[2.241855,41.934572],[2.242051,41.933441],[2.242081,41.933265],[2.242193,41.933275],[2.24222,41.933276],[2.243264,41.93334],[2.243308,41.933317],[2.243357,41.9333],[2.243409,41.93329],[2.243422,41.933289],[2.243516,41.93329],[2.243732,41.933398],[2.24376,41.933412],[2.243802,41.933432],[2.243901,41.933451],[2.243973,41.933466],[2.244396,41.933496],[2.24441,41.933497],[2.244423,41.933499],[2.244443,41.933499],[2.244559,41.933445],[2.244578,41.933434],[2.244602,41.93342],[2.244628,41.933406],[2.244649,41.933398],[2.244682,41.933391],[2.244732,41.933379],[2.24474,41.933369],[2.244997,41.933445],[2.245049,41.933461],[2.245485,41.9335],[2.245506,41.933503],[2.245727,41.933597],[2.246035,41.933637],[2.246372,41.933681],[2.246385,41.933683],[2.246515,41.933686],[2.246524,41.933687],[2.246418,41.93386],[2.246327,41.934242],[2.246173,41.934367],[2.245803,41.93433],[2.245476,41.934323],[2.245228,41.934341],[2.245192,41.934344],[2.245052,41.934363],[2.244914,41.934388],[2.244893,41.934394],[2.244841,41.934415],[2.244794,41.93444],[2.24475,41.93447],[2.244713,41.934504],[2.244648,41.934578],[2.244586,41.934654],[2.244553,41.934701],[2.244522,41.93475],[2.244522,41.93478],[2.244523,41.934817],[2.244538,41.934945],[2.244585,41.935341],[2.244595,41.935432],[2.244605,41.935529],[2.244611,41.935548],[2.244623,41.935565],[2.244656,41.9356],[2.244691,41.935632],[2.244728,41.935661],[2.244756,41.935677],[2.244842,41.935719],[2.244931,41.935759],[2.244988,41.93579],[2.245104,41.93586],[2.245219,41.935929],[2.245337,41.935999],[2.245456,41.936069],[2.245516,41.936104],[2.245578,41.936139],[2.245618,41.936162],[2.245636,41.936169],[2.245654,41.936174],[2.245694,41.936178],[2.245704,41.936177],[2.245724,41.936199],[2.245755,41.936192],[2.245785,41.936182],[2.245803,41.936171],[2.245821,41.936154],[2.245832,41.936136],[2.245868,41.936132],[2.245845,41.936184],[2.24601,41.936263],[2.246337,41.936277],[2.246384,41.936253],[2.246341,41.936061],[2.246352,41.935904],[2.246486,41.93587],[2.2465,41.935865],[2.246562,41.93584],[2.246641,41.935791],[2.246676,41.935691],[2.246642,41.935587],[2.246529,41.935507],[2.246515,41.935497],[2.246483,41.935469],[2.24645,41.935441],[2.246423,41.935422],[2.246391,41.935406],[2.246324,41.93538],[2.246298,41.935372],[2.24627,41.935366],[2.246215,41.935355],[2.246182,41.935343],[2.246165,41.935333],[2.24614,41.935315],[2.246115,41.935297],[2.246096,41.935274],[2.246077,41.93525],[2.246052,41.93523],[2.246028,41.935217],[2.24599,41.935205],[2.245951,41.935196],[2.245864,41.935181],[2.24582,41.935175],[2.245776,41.935172],[2.245729,41.935171],[2.245684,41.93517],[2.245624,41.935169],[2.245565,41.935166],[2.245529,41.935159],[2.245505,41.93515],[2.245467,41.935132],[2.245429,41.935111],[2.245384,41.93508],[2.245346,41.935047],[2.24534,41.935035],[2.245339,41.935026],[2.245343,41.93501],[2.245355,41.934995],[2.245371,41.934983],[2.245398,41.934967],[2.245412,41.934963],[2.245426,41.93496],[2.245487,41.93496],[2.245549,41.934966],[2.245662,41.934985],[2.245776,41.935005],[2.245923,41.935031],[2.246071,41.935058],[2.246189,41.935077],[2.246305,41.935098],[2.246387,41.935124],[2.246468,41.935154],[2.24657,41.935192],[2.246672,41.93523],[2.246725,41.935257],[2.246801,41.935304],[2.246876,41.935352],[2.24692,41.93538],[2.246965,41.935409],[2.246984,41.935417],[2.247003,41.935421],[2.24703,41.935421],[2.247046,41.935415],[2.247055,41.935405],[2.24707,41.935389],[2.247087,41.935365],[2.247104,41.935342],[2.247115,41.935327],[2.247127,41.935312],[2.247136,41.935303],[2.247145,41.935294],[2.247152,41.935285],[2.247161,41.935278],[2.247169,41.935275],[2.247175,41.935275],[2.247174,41.935277],[2.247171,41.935288],[2.247168,41.935299],[2.247153,41.935325],[2.247138,41.935351],[2.247128,41.935386],[2.247125,41.935422],[2.247127,41.935446],[2.247145,41.935541],[2.247163,41.935636],[2.247177,41.93571],[2.247191,41.935784],[2.247191,41.935809],[2.247191,41.935846],[2.247191,41.935882],[2.247186,41.935973],[2.247176,41.936063],[2.247166,41.936107],[2.247146,41.936172],[2.247138,41.936206],[2.247134,41.93624],[2.247133,41.936311],[2.247132,41.936367],[2.247131,41.936376],[2.247127,41.936385],[2.247104,41.936432],[2.247082,41.936479],[2.247064,41.936509],[2.246993,41.936614],[2.246963,41.936657],[2.246857,41.936838],[2.246849,41.936854],[2.246842,41.936869],[2.246833,41.936885],[2.246824,41.936901],[2.246823,41.936918],[2.246822,41.936935],[2.246822,41.936942],[2.246837,41.936961],[2.24687,41.936979],[2.246903,41.936998],[2.24693,41.93702],[2.246955,41.937041],[2.246959,41.937051],[2.246955,41.93706],[2.246945,41.937074],[2.246932,41.937086],[2.246878,41.937129],[2.246823,41.937172],[2.246757,41.937201],[2.246113,41.937156],[2.245928,41.937015],[2.245608,41.937031],[2.245331,41.936985],[2.244808,41.937279],[2.2448,41.937283],[2.244587,41.937153],[2.244348,41.937301],[2.244224,41.937534],[2.244158,41.937658],[2.244581,41.937782],[2.245022,41.937997],[2.245299,41.938143],[2.245281,41.938158],[2.245303,41.938145],[2.24534,41.938164],[2.245468,41.938083],[2.24548,41.938076],[2.245486,41.938072],[2.245527,41.938043],[2.245509,41.938028],[2.245896,41.937791],[2.246797,41.937254],[2.246807,41.937264],[2.24685,41.937236],[2.246855,41.93722],[2.24706,41.937097],[2.247251,41.937],[2.247514,41.936865],[2.24753,41.936856],[2.247525,41.936854],[2.24754,41.936839],[2.247592,41.936786],[2.247663,41.936703],[2.247731,41.936618],[2.247914,41.936375],[2.248094,41.936131],[2.24822,41.935951],[2.248279,41.93586],[2.248335,41.935766],[2.248369,41.935696],[2.248389,41.935642],[2.248413,41.935561],[2.248433,41.935478],[2.248445,41.935405],[2.248456,41.935332],[2.248474,41.935272],[2.248502,41.935213],[2.248523,41.935184],[2.24856,41.935145],[2.248606,41.935109],[2.248661,41.935072],[2.248691,41.935057],[2.248699,41.935053],[2.248702,41.935052],[2.248724,41.935044],[2.248807,41.935017],[2.248813,41.935015],[2.248891,41.934991],[2.248949,41.934972],[2.248954,41.934971],[2.248976,41.934966],[2.24902,41.934965],[2.248946,41.935299],[2.248901,41.935426],[2.248682,41.935817],[2.248668,41.935839],[2.248461,41.936152],[2.248455,41.936161],[2.248386,41.936267],[2.248398,41.936369],[2.248242,41.936643],[2.248533,41.936902],[2.248257,41.93727],[2.248147,41.93739],[2.248056,41.93749],[2.248018,41.937534],[2.248003,41.937552],[2.247763,41.937837],[2.247682,41.937929],[2.247672,41.93794],[2.247577,41.938056],[2.247291,41.938287],[2.247096,41.93846],[2.247143,41.938554],[2.246769,41.938783],[2.2466,41.938889],[2.247402,41.938984],[2.247416,41.938986],[2.247479,41.938993],[2.247574,41.939005],[2.247632,41.939011],[2.24814,41.939117],[2.248245,41.939139],[2.248772,41.939239],[2.248933,41.938496],[2.24896,41.93838],[2.24914,41.937606],[2.249152,41.937605],[2.249555,41.937552],[2.249687,41.937552],[2.249729,41.937544],[2.249812,41.937534],[2.249835,41.937531],[2.249942,41.937524],[2.25005,41.937523],[2.250096,41.937525],[2.250213,41.937533],[2.250224,41.937534],[2.25024,41.937535],[2.250331,41.937542],[2.250385,41.937549],[2.250439,41.937561],[2.25054,41.937589],[2.250637,41.937622],[2.250773,41.937676],[2.250909,41.93773],[2.251082,41.937795],[2.251256,41.937861],[2.251665,41.938017],[2.251678,41.938024],[2.251708,41.938034],[2.251724,41.938037],[2.251866,41.938074],[2.252129,41.938138],[2.252277,41.938173],[2.252383,41.938199],[2.252393,41.938201],[2.252477,41.938222],[2.252541,41.938237],[2.25269,41.93827],[2.252695,41.938271],[2.252797,41.938289],[2.252803,41.93829],[2.252919,41.938306],[2.252973,41.938314],[2.253144,41.938334],[2.253354,41.93836],[2.253459,41.938371],[2.253565,41.93838],[2.253803,41.938394],[2.25404,41.938408],[2.254109,41.938409],[2.254152,41.938409],[2.254177,41.938409],[2.2542,41.938408],[2.254408,41.938395],[2.254494,41.938404],[2.254163,41.939972],[2.254477,41.940007],[2.254492,41.940008],[2.254776,41.940048],[2.2548,41.940045],[2.254884,41.94003],[2.255534,41.939861],[2.255731,41.939811],[2.25581,41.939969],[2.255922,41.940206],[2.255936,41.940235],[2.255942,41.940234],[2.256079,41.940208],[2.256085,41.940207],[2.256104,41.940202],[2.256864,41.940038],[2.256853,41.940011]]]]}}]}