{"type":"FeatureCollection","name":"ICGC Àrees de poblament - Vilanova de Sau","features":[{"type":"Feature","id":"083036_083036 AP03 OSO 3","properties":{"area_id":"083036_083036 AP03 OSO 3","nom":"Sant Andreu de Bancells","codi_icgc":"083036 AP03 OSO 3","categoria":"Àrees de poblament","codi_municipi":"083036","municipi":"Vilanova de Sau","codi_comarca":"24","comarca":"Osona","provincia":"Barcelona","font":"ICGC Àrees de poblament v3r1 202602"},"geometry":{"type":"MultiPolygon","coordinates":[[[[2.446491,41.934805],[2.446539,41.934833],[2.446596,41.934851],[2.446637,41.934865],[2.446713,41.934914],[2.446767,41.934938],[2.446815,41.93495],[2.446906,41.934973],[2.446995,41.934991],[2.447053,41.934998],[2.447099,41.934991],[2.447125,41.934979],[2.447155,41.934949],[2.447192,41.934918],[2.447211,41.93489],[2.44722,41.934858],[2.447119,41.934806],[2.446812,41.93475],[2.446796,41.934723],[2.446825,41.93462],[2.446831,41.934584],[2.446738,41.934593],[2.446643,41.934593],[2.446546,41.934567],[2.44645,41.93454],[2.446353,41.934518],[2.446267,41.934504],[2.446201,41.934544],[2.446169,41.934599],[2.446149,41.93463],[2.446126,41.934692],[2.446104,41.934745],[2.446119,41.934779],[2.446167,41.934799],[2.446216,41.934818],[2.446274,41.934837],[2.446345,41.934837],[2.446391,41.934757],[2.446415,41.934766],[2.446458,41.93478],[2.446491,41.934805]]]]}},{"type":"Feature","id":"083036_083036 AP04 OSO 3","properties":{"area_id":"083036_083036 AP04 OSO 3","nom":"Sant Pere de Castanyadell","codi_icgc":"083036 AP04 OSO 3","categoria":"Àrees de poblament","codi_municipi":"083036","municipi":"Vilanova de Sau","codi_comarca":"24","comarca":"Osona","provincia":"Barcelona","font":"ICGC Àrees de poblament v3r1 202602"},"geometry":{"type":"MultiPolygon","coordinates":[[[[2.429286,41.925765],[2.429338,41.925745],[2.429445,41.92561],[2.429455,41.925545],[2.429364,41.925435],[2.429033,41.925412],[2.428921,41.925424],[2.428847,41.925402],[2.428734,41.925376],[2.42866,41.925367],[2.428621,41.925392],[2.428585,41.925424],[2.428573,41.925474],[2.428601,41.925511],[2.428683,41.925544],[2.42876,41.925576],[2.429032,41.925686],[2.429237,41.92576],[2.429286,41.925765]]]]}},{"type":"Feature","id":"083036_083036 AP05 OSO 3","properties":{"area_id":"083036_083036 AP05 OSO 3","nom":"Sant Romà de Sau","codi_icgc":"083036 AP05 OSO 3","categoria":"Àrees de poblament","codi_municipi":"083036","municipi":"Vilanova de Sau","codi_comarca":"24","comarca":"Osona","provincia":"Barcelona","font":"ICGC Àrees de poblament v3r1 202602"},"geometry":{"type":"MultiPolygon","coordinates":[[[[2.409594,41.967598],[2.409541,41.96745],[2.409493,41.967322],[2.409449,41.967197],[2.409467,41.967173],[2.409492,41.967143],[2.409527,41.967111],[2.409589,41.96707],[2.409658,41.967034],[2.409676,41.967025],[2.409677,41.966996],[2.409786,41.966945],[2.409862,41.966914],[2.409941,41.966888],[2.410169,41.966824],[2.410283,41.966793],[2.410397,41.966761],[2.410454,41.966745],[2.410502,41.966731],[2.410526,41.966687],[2.410552,41.96664],[2.410562,41.966618],[2.410569,41.966596],[2.410578,41.96655],[2.410578,41.966533],[2.410571,41.966516],[2.410538,41.966484],[2.410503,41.966453],[2.410433,41.966393],[2.410394,41.966359],[2.410355,41.966325],[2.410335,41.966303],[2.41032,41.966279],[2.410301,41.966232],[2.410286,41.966183],[2.41027,41.966135],[2.410251,41.966095],[2.410228,41.966056],[2.410209,41.966032],[2.410164,41.965982],[2.410119,41.965931],[2.410071,41.965875],[2.410024,41.965817],[2.41001,41.965794],[2.409999,41.96577],[2.409994,41.965751],[2.409699,41.965744],[2.409578,41.965739],[2.409509,41.965706],[2.409476,41.96569],[2.409328,41.96562],[2.409293,41.965603],[2.409234,41.965575],[2.409132,41.965551],[2.409056,41.965565],[2.409004,41.965607],[2.408844,41.96573],[2.408807,41.965735],[2.408671,41.965753],[2.408495,41.965742],[2.408461,41.96574],[2.408432,41.965738],[2.408374,41.965731],[2.408315,41.965722],[2.408251,41.965738],[2.408191,41.965756],[2.408156,41.965766],[2.408134,41.965773],[2.408106,41.965786],[2.408083,41.965804],[2.40807,41.965817],[2.408053,41.96584],[2.408044,41.965861],[2.408041,41.965884],[2.408042,41.965906],[2.408051,41.965927],[2.408066,41.965954],[2.408084,41.965977],[2.408105,41.966001],[2.408147,41.966054],[2.408172,41.966087],[2.408204,41.966127],[2.408265,41.966205],[2.408274,41.966217],[2.408309,41.966305],[2.408301,41.966411],[2.408274,41.966502],[2.408248,41.966554],[2.408184,41.966625],[2.408157,41.966706],[2.408105,41.966787],[2.408042,41.966782],[2.407946,41.966708],[2.407931,41.966697],[2.407898,41.966671],[2.407835,41.966623],[2.407747,41.966555],[2.407686,41.96651],[2.407569,41.966592],[2.40749,41.96654],[2.407425,41.966496],[2.407359,41.966547],[2.407347,41.966557],[2.407295,41.966525],[2.407199,41.966464],[2.407125,41.966417],[2.407036,41.96636],[2.407022,41.966351],[2.406895,41.96646],[2.406901,41.966552],[2.406843,41.96659],[2.406472,41.966571],[2.406488,41.96666],[2.406487,41.966669],[2.406485,41.966753],[2.40649,41.966761],[2.406505,41.966768],[2.406533,41.966774],[2.406567,41.966779],[2.406602,41.966781],[2.406668,41.966784],[2.406709,41.966791],[2.406743,41.966802],[2.406777,41.966814],[2.406844,41.966839],[2.40691,41.966867],[2.406977,41.966894],[2.407031,41.966914],[2.407086,41.966929],[2.407125,41.966936],[2.407232,41.966945],[2.407338,41.966952],[2.407409,41.966956],[2.407482,41.966956],[2.407516,41.966947],[2.407548,41.966936],[2.407608,41.966913],[2.40763,41.966906],[2.407651,41.9669],[2.407694,41.966887],[2.407723,41.966881],[2.407748,41.966878],[2.407775,41.966879],[2.407812,41.966884],[2.407833,41.966887],[2.407869,41.966896],[2.407966,41.966926],[2.40806,41.96696],[2.408125,41.966985],[2.40816,41.967083],[2.408185,41.967154],[2.40821,41.967245],[2.408146,41.967288],[2.408024,41.967306],[2.407336,41.967247],[2.407283,41.967435],[2.407296,41.967441],[2.407431,41.967469],[2.407559,41.967495],[2.407754,41.96748],[2.407957,41.967466],[2.4084,41.967429],[2.408542,41.967377],[2.408648,41.967325],[2.408715,41.967375],[2.40876,41.967408],[2.408822,41.967448],[2.408919,41.967505],[2.409023,41.967561],[2.409084,41.967586],[2.409149,41.967603],[2.409175,41.967605],[2.409195,41.967602],[2.409224,41.967594],[2.409252,41.96758],[2.409272,41.967563],[2.409283,41.967551],[2.409312,41.967508],[2.409316,41.967501],[2.409428,41.967734],[2.409509,41.967736],[2.409592,41.967721],[2.409618,41.967669],[2.409594,41.967598]]]]}},{"type":"Feature","id":"083036_083036 AP01 OSO 3","properties":{"area_id":"083036_083036 AP01 OSO 3","nom":"Vilanova de Sau","codi_icgc":"083036 AP01 OSO 3","categoria":"Àrees de poblament","codi_municipi":"083036","municipi":"Vilanova de Sau","codi_comarca":"24","comarca":"Osona","provincia":"Barcelona","font":"ICGC Àrees de poblament v3r1 202602"},"geometry":{"type":"MultiPolygon","coordinates":[[[[2.387422,41.948828],[2.387732,41.948304],[2.387702,41.948259],[2.387563,41.948192],[2.387563,41.948169],[2.387563,41.948158],[2.387564,41.948141],[2.387318,41.948048],[2.387224,41.948002],[2.386931,41.947846],[2.386632,41.947639],[2.386351,41.947444],[2.386284,41.947375],[2.386185,41.947348],[2.385723,41.94722],[2.385137,41.946927],[2.385127,41.946937],[2.385099,41.946963],[2.385078,41.94698],[2.385019,41.946905],[2.384991,41.94687],[2.384953,41.94681],[2.38494,41.946789],[2.384929,41.946778],[2.38491,41.946766],[2.384883,41.946752],[2.384865,41.94673],[2.384853,41.946714],[2.384846,41.946705],[2.384844,41.946695],[2.384834,41.946679],[2.384819,41.94666],[2.384805,41.946638],[2.384785,41.946609],[2.384777,41.946602],[2.384754,41.946582],[2.384742,41.946564],[2.384738,41.946555],[2.38472,41.946539],[2.384735,41.946498],[2.384752,41.946459],[2.384762,41.946436],[2.384776,41.946407],[2.384793,41.946367],[2.384814,41.946324],[2.384832,41.946283],[2.384864,41.946198],[2.384841,41.94618],[2.384845,41.946175],[2.384731,41.946123],[2.384696,41.946166],[2.384667,41.946156],[2.384638,41.946145],[2.38459,41.946132],[2.38454,41.946123],[2.384459,41.946109],[2.384377,41.9461],[2.384267,41.945929],[2.384034,41.94595],[2.383954,41.945947],[2.383913,41.945948],[2.383871,41.945953],[2.383841,41.945963],[2.383801,41.945981],[2.383766,41.946002],[2.383735,41.946023],[2.383705,41.946044],[2.383578,41.946093],[2.383566,41.946093],[2.383495,41.946096],[2.383474,41.946076],[2.383454,41.946049],[2.383464,41.946057],[2.383487,41.946063],[2.383512,41.946064],[2.383539,41.946063],[2.383565,41.946057],[2.383596,41.946046],[2.38361,41.946038],[2.383621,41.946029],[2.383644,41.945999],[2.383665,41.945968],[2.383685,41.945934],[2.383707,41.945899],[2.383722,41.945883],[2.383751,41.945863],[2.383784,41.945848],[2.383847,41.945827],[2.383945,41.945801],[2.383993,41.945787],[2.38404,41.945771],[2.384106,41.945744],[2.384138,41.94573],[2.384172,41.945715],[2.384212,41.945696],[2.384251,41.945673],[2.384271,41.945657],[2.384294,41.94563],[2.384313,41.945601],[2.38433,41.945565],[2.384338,41.945529],[2.384337,41.945519],[2.384335,41.945496],[2.384324,41.945464],[2.384303,41.945425],[2.384289,41.945407],[2.384272,41.94539],[2.384246,41.945369],[2.384215,41.945354],[2.384175,41.945341],[2.384154,41.945337],[2.384133,41.945336],[2.384085,41.945338],[2.384077,41.945338],[2.384036,41.945339],[2.384,41.94534],[2.383964,41.94534],[2.383961,41.945318],[2.383944,41.945263],[2.38393,41.945237],[2.383928,41.945234],[2.38392,41.945222],[2.383912,41.945211],[2.383893,41.94519],[2.383872,41.945166],[2.38385,41.945141],[2.383784,41.945075],[2.38373,41.945025],[2.383676,41.944975],[2.38363,41.944936],[2.383605,41.944913],[2.383584,41.944894],[2.383567,41.944872],[2.383559,41.944854],[2.383554,41.944826],[2.383555,41.944799],[2.38356,41.944774],[2.383573,41.944738],[2.383596,41.944702],[2.383627,41.944666],[2.383633,41.944659],[2.383643,41.944649],[2.383665,41.94463],[2.383674,41.94462],[2.383736,41.944569],[2.383757,41.944549],[2.383865,41.944442],[2.383897,41.944413],[2.383929,41.944383],[2.383956,41.94436],[2.384002,41.944328],[2.384053,41.944298],[2.384091,41.944281],[2.384152,41.944261],[2.384216,41.944249],[2.384268,41.944245],[2.384348,41.944242],[2.384427,41.944244],[2.3845,41.944248],[2.38461,41.944258],[2.38472,41.944271],[2.384726,41.944272],[2.384785,41.944281],[2.38488,41.944303],[2.384888,41.944305],[2.384926,41.944259],[2.384962,41.944215],[2.384852,41.944124],[2.384735,41.944013],[2.384592,41.943942],[2.384531,41.943705],[2.384475,41.943682],[2.384436,41.943735],[2.384428,41.943746],[2.384282,41.943937],[2.384234,41.943913],[2.383745,41.943667],[2.383722,41.943696],[2.38344,41.943936],[2.383435,41.943934],[2.383425,41.943945],[2.383374,41.943944],[2.383046,41.943592],[2.382824,41.9437],[2.382622,41.943808],[2.382555,41.943843],[2.38238,41.943803],[2.382365,41.943811],[2.382344,41.943795],[2.382245,41.943773],[2.381901,41.944058],[2.382014,41.94418],[2.38209,41.944269],[2.382164,41.944356],[2.382394,41.944621],[2.382503,41.944755],[2.382331,41.944881],[2.382307,41.944899],[2.382131,41.945028],[2.381872,41.945235],[2.382089,41.945561],[2.38217,41.945595],[2.382198,41.945378],[2.382543,41.945171],[2.382702,41.945178],[2.382966,41.945162],[2.383085,41.94518],[2.383181,41.945211],[2.383308,41.945295],[2.383179,41.945419],[2.383058,41.945555],[2.382854,41.946013],[2.382783,41.946049],[2.38277,41.946058],[2.382486,41.946071],[2.38247,41.946118],[2.381577,41.94606],[2.381478,41.946263],[2.381274,41.946169],[2.3812,41.946134],[2.381203,41.946111],[2.381219,41.946071],[2.381245,41.946032],[2.381268,41.946005],[2.381308,41.945967],[2.381328,41.945951],[2.38122,41.945903],[2.381159,41.945903],[2.381114,41.945919],[2.381001,41.945971],[2.380749,41.946099],[2.38074,41.946144],[2.380727,41.946139],[2.380704,41.946141],[2.380684,41.946199],[2.380672,41.94624],[2.380461,41.946241],[2.380388,41.946432],[2.380391,41.946443],[2.380461,41.946681],[2.380547,41.946794],[2.380623,41.946893],[2.380712,41.946974],[2.380729,41.946989],[2.380839,41.947072],[2.38091,41.947124],[2.380924,41.947135],[2.380969,41.947156],[2.380999,41.947173],[2.381032,41.947188],[2.38107,41.947205],[2.381097,41.947216],[2.381191,41.94726],[2.381354,41.947302],[2.381541,41.947324],[2.38171,41.947311],[2.381736,41.947309],[2.381768,41.947306],[2.381797,41.947304],[2.382,41.947288],[2.382131,41.947283],[2.382112,41.947481],[2.382113,41.947507],[2.38218,41.947492],[2.382248,41.947478],[2.382296,41.947466],[2.382366,41.947444],[2.382435,41.94742],[2.382483,41.947401],[2.382522,41.947382],[2.382541,41.947392],[2.382546,41.947394],[2.382546,41.947413],[2.382547,41.947437],[2.382547,41.947443],[2.382548,41.947513],[2.382548,41.947534],[2.382548,41.947554],[2.382548,41.947559],[2.38274,41.947577],[2.382818,41.947587],[2.38291,41.947595],[2.38291,41.947598],[2.382908,41.947604],[2.382878,41.947602],[2.382804,41.947919],[2.382938,41.947923],[2.382923,41.948128],[2.382912,41.94828],[2.383095,41.948284],[2.383195,41.94827],[2.383253,41.948262],[2.383353,41.948208],[2.383511,41.948122],[2.383633,41.948055],[2.383661,41.948049],[2.383828,41.948007],[2.3839,41.948046],[2.384365,41.948299],[2.384619,41.948168],[2.384629,41.948163],[2.384672,41.948141],[2.384706,41.948123],[2.385014,41.947999],[2.385003,41.94797],[2.384941,41.947813],[2.384915,41.947757],[2.38492,41.947749],[2.384924,41.947747],[2.384935,41.947743],[2.38495,41.947744],[2.385082,41.947755],[2.385231,41.947765],[2.385275,41.947763],[2.38534,41.947757],[2.385404,41.947752],[2.385499,41.947743],[2.385507,41.947777],[2.38569,41.947851],[2.385771,41.94791],[2.385835,41.947976],[2.385803,41.948065],[2.385796,41.948084],[2.385851,41.948168],[2.385953,41.948225],[2.386382,41.948419],[2.386407,41.948452],[2.38649,41.94854],[2.386612,41.948612],[2.386593,41.948649],[2.386708,41.948681],[2.386741,41.948704],[2.38671,41.948757],[2.386855,41.948804],[2.386886,41.948751],[2.38689,41.948741],[2.386899,41.948722],[2.387161,41.948797],[2.387291,41.948806],[2.387422,41.948828]]]]}},{"type":"Feature","id":"083036_083036 AP07 OSO 2","properties":{"area_id":"083036_083036 AP07 OSO 2","nom":"el Poblat","codi_icgc":"083036 AP07 OSO 2","categoria":"Àrees de poblament","codi_municipi":"083036","municipi":"Vilanova de Sau","codi_comarca":"24","comarca":"Osona","provincia":"Barcelona","font":"ICGC Àrees de poblament v3r1 202602"},"geometry":{"type":"MultiPolygon","coordinates":[[[[2.403735,41.963657],[2.403779,41.963658],[2.403909,41.963586],[2.403931,41.963578],[2.403956,41.963649],[2.403978,41.963683],[2.404008,41.963727],[2.404029,41.963756],[2.40409,41.963792],[2.404145,41.963807],[2.404199,41.963829],[2.404364,41.963888],[2.404331,41.964012],[2.404313,41.964082],[2.404272,41.964198],[2.404269,41.964207],[2.404256,41.964241],[2.403968,41.964267],[2.403917,41.964453],[2.404208,41.964489],[2.404233,41.964492],[2.404239,41.964471],[2.404256,41.964389],[2.404273,41.964307],[2.404293,41.96424],[2.404319,41.964173],[2.404344,41.964125],[2.40436,41.964098],[2.404372,41.964077],[2.404386,41.964043],[2.404409,41.963956],[2.404432,41.963869],[2.404464,41.963769],[2.404517,41.963638],[2.404579,41.963624],[2.404642,41.963545],[2.404857,41.963399],[2.404863,41.963383],[2.404878,41.963345],[2.404682,41.963067],[2.404564,41.962923],[2.404441,41.962833],[2.404379,41.962568],[2.404376,41.96257],[2.404343,41.962589],[2.404321,41.9626],[2.404283,41.962612],[2.404244,41.962618],[2.404219,41.962619],[2.40417,41.962616],[2.404137,41.96261],[2.404118,41.962605],[2.40409,41.962598],[2.404066,41.962587],[2.404019,41.962566],[2.403968,41.962529],[2.403924,41.962489],[2.403898,41.962461],[2.403894,41.962455],[2.403885,41.962435],[2.403879,41.962437],[2.403831,41.962461],[2.403757,41.962496],[2.40363,41.962557],[2.403689,41.96263],[2.403594,41.962671],[2.403564,41.962683],[2.403582,41.9627],[2.403616,41.962734],[2.40365,41.962768],[2.403694,41.96281],[2.403743,41.962849],[2.4038,41.962886],[2.40384,41.962914],[2.403838,41.962915],[2.403831,41.962919],[2.403788,41.962946],[2.40369,41.963012],[2.403649,41.963041],[2.403564,41.963106],[2.403558,41.963108],[2.40344,41.963141],[2.403064,41.963196],[2.403124,41.963607],[2.403181,41.963614],[2.40368,41.963602],[2.403735,41.963657]]]]}},{"type":"Feature","id":"083036_083036 AP06 OSO 2","properties":{"area_id":"083036_083036 AP06 OSO 2","nom":"les Cases dels Enginyers","codi_icgc":"083036 AP06 OSO 2","categoria":"Àrees de poblament","codi_municipi":"083036","municipi":"Vilanova de Sau","codi_comarca":"24","comarca":"Osona","provincia":"Barcelona","font":"ICGC Àrees de poblament v3r1 202602"},"geometry":{"type":"MultiPolygon","coordinates":[[[[2.410852,41.964274],[2.410832,41.964273],[2.410807,41.964277],[2.410797,41.964282],[2.410787,41.964288],[2.410774,41.964298],[2.41069,41.964375],[2.410602,41.964454],[2.410456,41.964587],[2.41031,41.96472],[2.410188,41.964823],[2.410065,41.964926],[2.409988,41.964994],[2.410021,41.96505],[2.410327,41.965101],[2.410691,41.965139],[2.410835,41.965104],[2.410865,41.964997],[2.410885,41.96489],[2.410982,41.964712],[2.411051,41.964555],[2.411119,41.964419],[2.411149,41.964334],[2.411044,41.964304],[2.410852,41.964274]]]]}},{"type":"Feature","id":"083036_083036 AP02 OSO 2","properties":{"area_id":"083036_083036 AP02 OSO 2","nom":"les Guilleries","codi_icgc":"083036 AP02 OSO 2","categoria":"Àrees de poblament","codi_municipi":"083036","municipi":"Vilanova de Sau","codi_comarca":"24","comarca":"Osona","provincia":"Barcelona","font":"ICGC Àrees de poblament v3r1 202602"},"geometry":{"type":"MultiPolygon","coordinates":[[[[2.469977,41.927275],[2.470022,41.927268],[2.470025,41.927269],[2.470376,41.927291],[2.470384,41.927442],[2.471159,41.927452],[2.471371,41.927375],[2.471467,41.927246],[2.471478,41.927075],[2.471595,41.926882],[2.471672,41.92679],[2.471875,41.926619],[2.471876,41.926526],[2.471876,41.926476],[2.471838,41.926376],[2.47175,41.926336],[2.471695,41.926311],[2.471395,41.926239],[2.471361,41.926231],[2.471186,41.926516],[2.471444,41.926639],[2.47127,41.926824],[2.470905,41.926922],[2.470891,41.926925],[2.470826,41.92694],[2.470282,41.927062],[2.470207,41.926883],[2.469833,41.926974],[2.469974,41.927189],[2.469975,41.927189],[2.46997,41.92719],[2.469745,41.92721],[2.469641,41.927202],[2.469639,41.927202],[2.469638,41.927201],[2.469107,41.926756],[2.468968,41.926659],[2.46885,41.926577],[2.468859,41.926564],[2.468966,41.926413],[2.469062,41.926363],[2.469049,41.926355],[2.468777,41.926183],[2.468635,41.926311],[2.468564,41.926375],[2.468307,41.926267],[2.468664,41.925954],[2.468425,41.92586],[2.468203,41.926066],[2.467679,41.925749],[2.467615,41.92585],[2.467534,41.925942],[2.467582,41.925969],[2.467707,41.92604],[2.467739,41.926005],[2.467796,41.926039],[2.467794,41.926046],[2.467796,41.926065],[2.467805,41.926083],[2.467828,41.926113],[2.467857,41.926137],[2.467911,41.926169],[2.467966,41.926196],[2.468065,41.926237],[2.468165,41.926276],[2.468234,41.926299],[2.468365,41.926339],[2.468495,41.92638],[2.468573,41.926408],[2.468651,41.926437],[2.468687,41.926452],[2.46872,41.92647],[2.468738,41.926484],[2.468782,41.926526],[2.468814,41.926558],[2.468793,41.926573],[2.468758,41.926593],[2.468721,41.926615],[2.468687,41.926638],[2.468618,41.926682],[2.468511,41.926746],[2.46851,41.926746],[2.468052,41.927038],[2.468058,41.927043],[2.46815,41.927123],[2.468365,41.927311],[2.46874,41.927191],[2.469111,41.927465],[2.46913,41.927479],[2.469269,41.92744],[2.469707,41.927319],[2.469715,41.927317],[2.469853,41.927295],[2.469977,41.927275]]]]}}]}