{"type":"FeatureCollection","name":"ICGC Àrees de poblament - Vilobí del Penedès","features":[{"type":"Feature","id":"083041_083041 AP03 APE 3","properties":{"area_id":"083041_083041 AP03 APE 3","nom":"Bellver","codi_icgc":"083041 AP03 APE 3","categoria":"Àrees de poblament","codi_municipi":"083041","municipi":"Vilobí del Penedès","codi_comarca":"03","comarca":"Alt Penedès","provincia":"Barcelona","font":"ICGC Àrees de poblament v3r1 202602"},"geometry":{"type":"MultiPolygon","coordinates":[[[[1.660289,41.391711],[1.659787,41.391862],[1.659814,41.391913],[1.659893,41.392042],[1.659947,41.392217],[1.659895,41.392238],[1.659739,41.392254],[1.659563,41.392241],[1.65925,41.392232],[1.659161,41.39223],[1.658966,41.39232],[1.658897,41.392459],[1.658757,41.392676],[1.658741,41.392703],[1.65887,41.392863],[1.658817,41.392891],[1.658667,41.392937],[1.658389,41.393111],[1.658142,41.393194],[1.657952,41.393041],[1.657895,41.392996],[1.657827,41.392873],[1.657806,41.392837],[1.657439,41.392906],[1.657281,41.392935],[1.657303,41.393076],[1.657076,41.393255],[1.657051,41.393275],[1.657016,41.39329],[1.656979,41.393307],[1.656864,41.393359],[1.65673,41.393429],[1.656638,41.393524],[1.656568,41.393597],[1.656511,41.393665],[1.656274,41.393644],[1.656237,41.393626],[1.656043,41.393586],[1.655983,41.393862],[1.655747,41.39381],[1.655745,41.393826],[1.655739,41.393865],[1.655724,41.393975],[1.655708,41.394167],[1.655707,41.39417],[1.65567,41.394318],[1.655717,41.394333],[1.655864,41.39437],[1.656072,41.394428],[1.656168,41.394458],[1.65615,41.394495],[1.656132,41.394525],[1.656128,41.394542],[1.65613,41.39455],[1.656135,41.394558],[1.656165,41.39458],[1.656197,41.394597],[1.656237,41.394616],[1.656298,41.394641],[1.656329,41.394656],[1.656358,41.394674],[1.65637,41.394686],[1.656374,41.394698],[1.656368,41.394721],[1.656356,41.394743],[1.656333,41.39478],[1.656351,41.394784],[1.656376,41.39484],[1.656383,41.394854],[1.656295,41.394925],[1.656068,41.395039],[1.656062,41.395043],[1.655836,41.395174],[1.655818,41.395184],[1.655684,41.395254],[1.655572,41.395283],[1.655443,41.395318],[1.655439,41.395327],[1.655434,41.39534],[1.655337,41.395379],[1.655395,41.395448],[1.655358,41.395461],[1.655334,41.395428],[1.655273,41.395351],[1.655076,41.395444],[1.655091,41.395466],[1.655131,41.395525],[1.655146,41.395535],[1.655162,41.395559],[1.655229,41.395622],[1.655352,41.395774],[1.655391,41.395825],[1.655415,41.395856],[1.655425,41.395869],[1.654969,41.396038],[1.65487,41.396088],[1.654827,41.39611],[1.654367,41.396217],[1.654358,41.396224],[1.654253,41.396306],[1.654227,41.396327],[1.654029,41.396482],[1.654373,41.396785],[1.65442,41.396827],[1.654634,41.397015],[1.655064,41.397084],[1.65536,41.397101],[1.655437,41.397049],[1.65558,41.396881],[1.65561,41.396883],[1.65568,41.396887],[1.65575,41.396892],[1.655811,41.396899],[1.655873,41.396907],[1.65594,41.396917],[1.656007,41.396927],[1.656024,41.396928],[1.656036,41.396929],[1.656094,41.396922],[1.656133,41.396915],[1.656162,41.396908],[1.656204,41.396895],[1.656246,41.396881],[1.656405,41.396825],[1.656563,41.396768],[1.656672,41.396725],[1.656779,41.396679],[1.65684,41.396655],[1.656865,41.396639],[1.656872,41.396629],[1.656876,41.396618],[1.656876,41.396611],[1.657188,41.396545],[1.657294,41.396481],[1.657478,41.396305],[1.657633,41.396142],[1.657763,41.396035],[1.657794,41.396008],[1.657963,41.395873],[1.658029,41.395925],[1.658115,41.395992],[1.658282,41.396123],[1.658297,41.396143],[1.658454,41.396256],[1.658579,41.396261],[1.658887,41.396173],[1.659108,41.396117],[1.65919,41.396094],[1.659201,41.396069],[1.659095,41.395893],[1.659035,41.395787],[1.658963,41.395687],[1.659057,41.395627],[1.659365,41.395454],[1.659519,41.395367],[1.659652,41.395288],[1.65974,41.395241],[1.659821,41.395211],[1.659903,41.395174],[1.659997,41.395127],[1.660045,41.395107],[1.660085,41.39509],[1.660139,41.395109],[1.660215,41.394759],[1.660328,41.394577],[1.660308,41.394357],[1.660373,41.394319],[1.660666,41.39415],[1.661133,41.393926],[1.66149,41.393765],[1.661691,41.394034],[1.66175,41.394004],[1.662197,41.393773],[1.661919,41.393539],[1.661902,41.393524],[1.661829,41.393447],[1.661813,41.393429],[1.661734,41.393345],[1.661726,41.393336],[1.66164,41.393244],[1.661464,41.393314],[1.661257,41.393397],[1.661231,41.393376],[1.661203,41.393354],[1.661148,41.39331],[1.661116,41.393282],[1.661068,41.393229],[1.66094,41.393058],[1.660871,41.392975],[1.660804,41.392893],[1.660802,41.392891],[1.660754,41.39283],[1.660689,41.392736],[1.660629,41.392639],[1.660605,41.392598],[1.660581,41.392558],[1.66068,41.392528],[1.660696,41.392523],[1.660756,41.392505],[1.660714,41.39243],[1.660714,41.39243],[1.660696,41.392395],[1.660678,41.392359],[1.660653,41.392319],[1.66063,41.392277],[1.660601,41.392223],[1.660575,41.392168],[1.660558,41.39214],[1.660541,41.392112],[1.660534,41.392101],[1.660527,41.39209],[1.660526,41.392082],[1.660526,41.392077],[1.660527,41.392073],[1.660533,41.392069],[1.660542,41.392065],[1.660524,41.392041],[1.660439,41.392068],[1.660427,41.392043],[1.660289,41.391711]]]]}},{"type":"Feature","id":"083041_083041 AP04 APE 2","properties":{"area_id":"083041_083041 AP04 APE 2","nom":"Cal Pacra","codi_icgc":"083041 AP04 APE 2","categoria":"Àrees de poblament","codi_municipi":"083041","municipi":"Vilobí del Penedès","codi_comarca":"03","comarca":"Alt Penedès","provincia":"Barcelona","font":"ICGC Àrees de poblament v3r1 202602"},"geometry":{"type":"MultiPolygon","coordinates":[[[[1.656652,41.389775],[1.65684,41.389982],[1.656883,41.390049],[1.657287,41.389825],[1.657386,41.389783],[1.657343,41.389697],[1.657626,41.389314],[1.657532,41.38927],[1.657257,41.38941],[1.657226,41.389391],[1.657286,41.389265],[1.657037,41.389219],[1.656981,41.389321],[1.656972,41.389412],[1.656921,41.389628],[1.656652,41.389775]]]]}},{"type":"Feature","id":"083041_083041 SI02 APE 2","properties":{"area_id":"083041_083041 SI02 APE 2","nom":"Caves Loxarel","codi_icgc":"083041 SI02 APE 2","categoria":"Sector industrial","codi_municipi":"083041","municipi":"Vilobí del Penedès","codi_comarca":"03","comarca":"Alt Penedès","provincia":"Barcelona","font":"ICGC Àrees de poblament v3r1 202602"},"geometry":{"type":"MultiPolygon","coordinates":[[[[1.667209,41.372746],[1.667039,41.37292],[1.66697,41.372972],[1.666822,41.373081],[1.666686,41.373116],[1.666594,41.373106],[1.666527,41.373134],[1.66644,41.373209],[1.66637,41.373231],[1.666345,41.373239],[1.666256,41.373231],[1.666155,41.373201],[1.665791,41.373543],[1.665784,41.373573],[1.66579,41.373628],[1.665811,41.373669],[1.665861,41.373714],[1.665948,41.373768],[1.665981,41.373852],[1.665983,41.373909],[1.66602,41.373952],[1.666073,41.374003],[1.666123,41.374018],[1.666202,41.374019],[1.666397,41.373994],[1.666435,41.373983],[1.666464,41.373968],[1.66671,41.373796],[1.66672,41.373784],[1.66676,41.373789],[1.666781,41.373773],[1.666925,41.373512],[1.667272,41.373608],[1.667322,41.373524],[1.667541,41.373149],[1.667652,41.372766],[1.667692,41.372673],[1.667693,41.372668],[1.667614,41.372674],[1.667499,41.372687],[1.667416,41.372686],[1.66735,41.372635],[1.667254,41.372509],[1.667209,41.372746]]]]}},{"type":"Feature","id":"083041_083041 SI03 APE 2","properties":{"area_id":"083041_083041 SI03 APE 2","nom":"Caves Planes Albareda","codi_icgc":"083041 SI03 APE 2","categoria":"Sector industrial","codi_municipi":"083041","municipi":"Vilobí del Penedès","codi_comarca":"03","comarca":"Alt Penedès","provincia":"Barcelona","font":"ICGC Àrees de poblament v3r1 202602"},"geometry":{"type":"MultiPolygon","coordinates":[[[[1.686144,41.372212],[1.6862,41.372177],[1.686372,41.372036],[1.686682,41.371794],[1.686951,41.371579],[1.686818,41.371516],[1.686605,41.371425],[1.686495,41.371534],[1.68653,41.371589],[1.686487,41.371627],[1.686236,41.371816],[1.686317,41.371904],[1.686115,41.372151],[1.686049,41.372229],[1.686053,41.372249],[1.686061,41.372254],[1.686078,41.372245],[1.686144,41.372212]]]]}},{"type":"Feature","id":"083041_083041 SI01 APE 3","properties":{"area_id":"083041_083041 SI01 APE 3","nom":"Polígon industrial de Vilobí del Penedès","codi_icgc":"083041 SI01 APE 3","categoria":"Sector industrial","codi_municipi":"083041","municipi":"Vilobí del Penedès","codi_comarca":"03","comarca":"Alt Penedès","provincia":"Barcelona","font":"ICGC Àrees de poblament v3r1 202602"},"geometry":{"type":"MultiPolygon","coordinates":[[[[1.661587,41.397177],[1.661659,41.397109],[1.661769,41.397016],[1.661768,41.396991],[1.661748,41.396789],[1.66173,41.396321],[1.661705,41.395976],[1.661689,41.395788],[1.66177,41.395526],[1.661839,41.395253],[1.661908,41.394941],[1.661978,41.394644],[1.661936,41.394373],[1.661915,41.394351],[1.661813,41.394225],[1.661809,41.394224],[1.661199,41.394156],[1.661039,41.394783],[1.660785,41.394761],[1.660731,41.394962],[1.660659,41.395276],[1.660503,41.395442],[1.660492,41.39551],[1.660514,41.395607],[1.660554,41.395764],[1.660323,41.396078],[1.660232,41.39609],[1.660116,41.396103],[1.66,41.396117],[1.659924,41.396128],[1.65985,41.39614],[1.659773,41.396155],[1.659696,41.396172],[1.659611,41.39619],[1.659525,41.396209],[1.65947,41.396225],[1.659455,41.396229],[1.659454,41.396234],[1.659456,41.396346],[1.659743,41.396933],[1.659715,41.39694],[1.659683,41.396948],[1.659652,41.396957],[1.659565,41.396984],[1.659479,41.397013],[1.659342,41.39706],[1.659204,41.397107],[1.658987,41.39718],[1.65877,41.397254],[1.658549,41.397328],[1.658328,41.397403],[1.658282,41.397419],[1.658237,41.397435],[1.658219,41.397441],[1.658317,41.397615],[1.658299,41.397627],[1.658288,41.397642],[1.658285,41.397654],[1.658284,41.397659],[1.658288,41.397676],[1.658298,41.397692],[1.658303,41.397696],[1.658492,41.397857],[1.65852,41.39788],[1.658681,41.398019],[1.658861,41.398175],[1.65904,41.398332],[1.659023,41.398342],[1.659051,41.398367],[1.65991,41.39808],[1.660075,41.398366],[1.660087,41.398358],[1.660156,41.398312],[1.66026,41.398248],[1.660411,41.398168],[1.660562,41.398103],[1.661196,41.397869],[1.661591,41.397548],[1.661596,41.397544],[1.661432,41.397457],[1.661383,41.397436],[1.661364,41.397396],[1.661587,41.397177]]]]}},{"type":"Feature","id":"083041_083041 AP02 APE 2","properties":{"area_id":"083041_083041 AP02 APE 2","nom":"Vallformosa","codi_icgc":"083041 AP02 APE 2","categoria":"Àrees de poblament","codi_municipi":"083041","municipi":"Vilobí del Penedès","codi_comarca":"03","comarca":"Alt Penedès","provincia":"Barcelona","font":"ICGC Àrees de poblament v3r1 202602"},"geometry":{"type":"MultiPolygon","coordinates":[[[[1.677605,41.385069],[1.67827,41.384872],[1.678345,41.385015],[1.678377,41.385027],[1.678816,41.384907],[1.679064,41.384827],[1.678973,41.384662],[1.679268,41.38457],[1.679591,41.384468],[1.679977,41.384355],[1.680091,41.38431],[1.68025,41.384209],[1.680559,41.384017],[1.68057,41.384006],[1.680484,41.383894],[1.680542,41.383821],[1.680565,41.38381],[1.680657,41.3837],[1.680724,41.383722],[1.680771,41.383594],[1.680697,41.383577],[1.680731,41.383375],[1.680738,41.38334],[1.6807,41.383341],[1.680586,41.383346],[1.680472,41.383358],[1.680359,41.383367],[1.680295,41.38337],[1.680231,41.383372],[1.680188,41.383373],[1.680146,41.383374],[1.680121,41.383369],[1.680101,41.383357],[1.680088,41.383332],[1.680081,41.383304],[1.680074,41.383276],[1.680068,41.383249],[1.68006,41.383212],[1.679997,41.383227],[1.679743,41.38329],[1.679737,41.383263],[1.679564,41.383315],[1.67955,41.383292],[1.67935,41.383345],[1.679151,41.383399],[1.678963,41.383454],[1.678778,41.38351],[1.678745,41.383521],[1.67871,41.383529],[1.678689,41.383529],[1.67868,41.383526],[1.678671,41.38352],[1.678662,41.383508],[1.678653,41.383496],[1.678637,41.383476],[1.678615,41.38346],[1.678589,41.383448],[1.678559,41.383442],[1.678528,41.383441],[1.678407,41.383476],[1.678373,41.383403],[1.678353,41.38336],[1.678348,41.383349],[1.67831,41.383269],[1.678005,41.383373],[1.677922,41.383402],[1.677862,41.383422],[1.677853,41.383425],[1.677801,41.383329],[1.677706,41.383307],[1.677452,41.383528],[1.677459,41.383662],[1.677441,41.383666],[1.677383,41.383681],[1.677378,41.383682],[1.677037,41.383766],[1.677024,41.383715],[1.676872,41.383705],[1.67687,41.383698],[1.676861,41.383682],[1.676845,41.383669],[1.676836,41.383665],[1.676816,41.383664],[1.676766,41.383661],[1.676639,41.383644],[1.676643,41.383653],[1.676633,41.383648],[1.676616,41.383674],[1.676625,41.383701],[1.676648,41.383776],[1.676669,41.383851],[1.676693,41.383912],[1.676723,41.383972],[1.676757,41.384028],[1.67679,41.384083],[1.676821,41.384139],[1.676838,41.384183],[1.676855,41.384229],[1.676872,41.384276],[1.676876,41.384298],[1.676885,41.384371],[1.67689,41.384412],[1.676895,41.384417],[1.676955,41.384486],[1.676979,41.384528],[1.67699,41.38456],[1.676993,41.384584],[1.676993,41.384622],[1.676986,41.384658],[1.676967,41.384706],[1.676947,41.384755],[1.676934,41.384793],[1.676922,41.384852],[1.676914,41.384911],[1.676909,41.384992],[1.676914,41.385074],[1.676924,41.385115],[1.676947,41.385174],[1.676969,41.385216],[1.677023,41.385216],[1.677236,41.385209],[1.677268,41.385171],[1.677343,41.385164],[1.677564,41.385141],[1.677575,41.385121],[1.677595,41.385086],[1.677605,41.385069]]]]}},{"type":"Feature","id":"083041_083041 AP01 APE 3","properties":{"area_id":"083041_083041 AP01 APE 3","nom":"Vilobí del Penedès","codi_icgc":"083041 AP01 APE 3","categoria":"Àrees de poblament","codi_municipi":"083041","municipi":"Vilobí del Penedès","codi_comarca":"03","comarca":"Alt Penedès","provincia":"Barcelona","font":"ICGC Àrees de poblament v3r1 202602"},"geometry":{"type":"MultiPolygon","coordinates":[[[[1.662983,41.39149],[1.662991,41.391474],[1.66307,41.391477],[1.663304,41.391481],[1.663366,41.391482],[1.663663,41.39147],[1.66369,41.391469],[1.66372,41.391295],[1.663733,41.391215],[1.663761,41.391056],[1.6638,41.390828],[1.663853,41.390834],[1.663923,41.390841],[1.663992,41.390854],[1.664039,41.390805],[1.664096,41.390755],[1.664192,41.39068],[1.66429,41.390605],[1.664436,41.390495],[1.664582,41.390387],[1.664667,41.390326],[1.664672,41.390325],[1.664672,41.390323],[1.664723,41.390286],[1.664814,41.390221],[1.664888,41.390168],[1.664893,41.390164],[1.664911,41.390151],[1.664944,41.390127],[1.665059,41.390044],[1.66523,41.38992],[1.665362,41.389826],[1.665495,41.389731],[1.665684,41.389593],[1.66587,41.389452],[1.66602,41.389335],[1.666059,41.389305],[1.666067,41.389298],[1.666069,41.389297],[1.666083,41.389308],[1.666096,41.389294],[1.666085,41.389285],[1.666084,41.389285],[1.66617,41.389218],[1.666332,41.389096],[1.666496,41.388976],[1.666603,41.3889],[1.666711,41.388826],[1.666791,41.388773],[1.666873,41.388722],[1.666934,41.38869],[1.666997,41.388659],[1.66707,41.388626],[1.667144,41.388599],[1.667254,41.388569],[1.667365,41.388538],[1.667389,41.388531],[1.667836,41.388402],[1.667856,41.388396],[1.667966,41.388365],[1.668181,41.388306],[1.668328,41.388264],[1.668476,41.388221],[1.668542,41.3882],[1.668607,41.388175],[1.668651,41.388156],[1.668691,41.388134],[1.668752,41.388098],[1.668812,41.38806],[1.668948,41.387967],[1.669083,41.387872],[1.669221,41.387772],[1.669205,41.387715],[1.669178,41.387621],[1.669076,41.38748],[1.668717,41.387191],[1.668625,41.387107],[1.66847,41.387009],[1.668466,41.387007],[1.668421,41.386979],[1.668321,41.386924],[1.668247,41.386885],[1.668172,41.386847],[1.66809,41.386808],[1.668008,41.386768],[1.667947,41.386736],[1.667886,41.386705],[1.667784,41.386642],[1.667683,41.38658],[1.667542,41.386491],[1.667406,41.386398],[1.667282,41.386307],[1.667159,41.386215],[1.66703,41.386118],[1.666902,41.386021],[1.666769,41.385922],[1.666638,41.385823],[1.666612,41.385804],[1.666652,41.385736],[1.667029,41.385654],[1.667459,41.385549],[1.667189,41.385206],[1.666639,41.38537],[1.666254,41.385461],[1.666167,41.3855],[1.666054,41.385433],[1.666026,41.385415],[1.665989,41.385382],[1.665952,41.38535],[1.665853,41.385274],[1.665755,41.385198],[1.665702,41.385154],[1.665649,41.385111],[1.665557,41.385032],[1.665468,41.384953],[1.665394,41.384882],[1.665325,41.384808],[1.665263,41.38473],[1.665208,41.38465],[1.66518,41.384603],[1.665142,41.384531],[1.665117,41.384477],[1.664997,41.384225],[1.664989,41.384211],[1.664928,41.3841],[1.664905,41.384052],[1.664886,41.384003],[1.664848,41.383904],[1.66479,41.383767],[1.664731,41.38363],[1.664719,41.383605],[1.664326,41.383777],[1.664334,41.383793],[1.664388,41.383908],[1.664307,41.383935],[1.664225,41.383962],[1.664155,41.383986],[1.664084,41.384008],[1.664036,41.384017],[1.663983,41.384024],[1.663928,41.38403],[1.663893,41.384033],[1.663875,41.384035],[1.663857,41.384038],[1.663759,41.383931],[1.663632,41.383793],[1.663578,41.383816],[1.663469,41.383864],[1.663336,41.383724],[1.663177,41.38381],[1.663037,41.383867],[1.662985,41.383888],[1.663021,41.383929],[1.663167,41.384109],[1.663293,41.384263],[1.663419,41.384416],[1.663501,41.384511],[1.663584,41.384604],[1.663621,41.384646],[1.663656,41.384689],[1.663673,41.38471],[1.663685,41.384734],[1.663686,41.384751],[1.663682,41.384766],[1.663405,41.38482],[1.663127,41.384873],[1.663121,41.384875],[1.663162,41.384963],[1.662717,41.385117],[1.662688,41.385148],[1.662273,41.385329],[1.661854,41.385474],[1.661833,41.385481],[1.661836,41.385484],[1.661608,41.385619],[1.661564,41.385666],[1.661489,41.385789],[1.66143,41.38588],[1.661435,41.385954],[1.661513,41.386014],[1.661284,41.386196],[1.661271,41.386208],[1.661224,41.386246],[1.661176,41.386281],[1.661074,41.38635],[1.66097,41.386418],[1.660907,41.386458],[1.660844,41.386496],[1.660811,41.386512],[1.660775,41.386523],[1.660762,41.386526],[1.660761,41.386526],[1.660731,41.386554],[1.660751,41.386566],[1.660779,41.386592],[1.660788,41.386604],[1.660792,41.386618],[1.660797,41.386641],[1.660792,41.386664],[1.660786,41.386679],[1.660776,41.386693],[1.660766,41.386707],[1.660747,41.386723],[1.660713,41.386737],[1.660643,41.386765],[1.660573,41.386792],[1.660492,41.386823],[1.660411,41.386852],[1.660388,41.386858],[1.660365,41.38686],[1.660316,41.38686],[1.660291,41.386857],[1.660265,41.386851],[1.660209,41.386839],[1.66017,41.386835],[1.660117,41.386838],[1.660065,41.386843],[1.659927,41.386864],[1.65979,41.38689],[1.659758,41.386896],[1.65974,41.3869],[1.659726,41.386903],[1.65944,41.38689],[1.659496,41.386792],[1.659355,41.386574],[1.659298,41.38634],[1.659292,41.386298],[1.659308,41.386297],[1.659316,41.386259],[1.65914,41.386284],[1.659016,41.386302],[1.658743,41.386348],[1.658953,41.386847],[1.658965,41.387166],[1.658968,41.387239],[1.658677,41.387232],[1.658667,41.387345],[1.658661,41.387407],[1.658657,41.387434],[1.658655,41.38744],[1.658653,41.387451],[1.658641,41.387485],[1.658622,41.387517],[1.658609,41.387533],[1.658932,41.387634],[1.659021,41.38761],[1.659069,41.387596],[1.65913,41.38758],[1.659313,41.387509],[1.659363,41.387496],[1.659381,41.387492],[1.659389,41.387491],[1.659396,41.38749],[1.659412,41.387489],[1.65943,41.387489],[1.65945,41.387489],[1.65948,41.38749],[1.659505,41.387492],[1.65953,41.387495],[1.659559,41.387499],[1.659578,41.387502],[1.659597,41.387506],[1.659613,41.38751],[1.65962,41.387513],[1.659634,41.387518],[1.659639,41.38752],[1.659642,41.387507],[1.6597,41.387285],[1.659869,41.387378],[1.660011,41.387468],[1.660112,41.387533],[1.6604,41.387594],[1.660496,41.387611],[1.660617,41.387631],[1.66074,41.387652],[1.660847,41.387659],[1.660953,41.387659],[1.661027,41.387658],[1.661099,41.387658],[1.661155,41.38766],[1.661207,41.387666],[1.661236,41.387676],[1.661262,41.387691],[1.661287,41.38771],[1.661306,41.38773],[1.661343,41.387787],[1.661372,41.387847],[1.661392,41.387902],[1.661407,41.387957],[1.661414,41.387997],[1.661417,41.388037],[1.661413,41.388064],[1.6614,41.388089],[1.661374,41.388122],[1.661373,41.388122],[1.66135,41.388148],[1.661331,41.38817],[1.661328,41.388174],[1.661305,41.388203],[1.661293,41.388223],[1.661286,41.388234],[1.661268,41.388279],[1.661254,41.388324],[1.661248,41.388352],[1.661243,41.388379],[1.661239,41.388403],[1.661235,41.388415],[1.661224,41.388425],[1.66121,41.388431],[1.661197,41.388433],[1.661174,41.38843],[1.661139,41.38842],[1.661121,41.388416],[1.661103,41.388413],[1.661055,41.38841],[1.661031,41.388409],[1.661007,41.388412],[1.660957,41.388424],[1.660906,41.388436],[1.660876,41.388392],[1.660772,41.38824],[1.6607,41.388128],[1.660586,41.388166],[1.660443,41.388222],[1.660656,41.388533],[1.660707,41.388513],[1.660751,41.388559],[1.661136,41.388956],[1.661136,41.388956],[1.661127,41.388985],[1.661101,41.388999],[1.66105,41.389027],[1.661011,41.389046],[1.660959,41.389068],[1.66096,41.389069],[1.660849,41.389134],[1.660798,41.389172],[1.660782,41.389207],[1.660793,41.38928],[1.660788,41.389282],[1.660766,41.389292],[1.660678,41.389339],[1.660298,41.389593],[1.660266,41.389617],[1.660237,41.389637],[1.66033,41.389719],[1.660368,41.389752],[1.66033,41.389774],[1.66026,41.389815],[1.660231,41.389831],[1.660186,41.389913],[1.660168,41.389946],[1.660174,41.389985],[1.660159,41.390069],[1.660191,41.390102],[1.660193,41.390119],[1.660217,41.390136],[1.660222,41.390134],[1.660239,41.390152],[1.660271,41.390139],[1.660313,41.390114],[1.660337,41.390108],[1.660424,41.390026],[1.660602,41.389975],[1.660734,41.389913],[1.660838,41.38988],[1.660864,41.389872],[1.660865,41.389874],[1.66112,41.389811],[1.66115,41.389883],[1.661645,41.389773],[1.661825,41.389871],[1.661455,41.390032],[1.661359,41.390144],[1.661213,41.390181],[1.661222,41.390198],[1.661123,41.390217],[1.661126,41.390227],[1.660975,41.390286],[1.661036,41.390396],[1.661177,41.390391],[1.661485,41.390329],[1.661566,41.39029],[1.661741,41.390255],[1.661778,41.390236],[1.661796,41.390275],[1.661824,41.390335],[1.661901,41.390316],[1.66195,41.390349],[1.661969,41.390379],[1.661983,41.390402],[1.662102,41.390389],[1.6621,41.390462],[1.66182,41.390491],[1.661815,41.390517],[1.66179,41.390916],[1.661775,41.391154],[1.661753,41.391319],[1.661763,41.391342],[1.661786,41.391358],[1.661868,41.391382],[1.662006,41.39142],[1.6621,41.391446],[1.662288,41.391437],[1.66229,41.391406],[1.662295,41.391405],[1.662489,41.391412],[1.662487,41.391426],[1.66248,41.391467],[1.662754,41.391491],[1.662983,41.39149]]]]}},{"type":"Feature","id":"083041_083041 AP05 APE 2","properties":{"area_id":"083041_083041 AP05 APE 2","nom":"la Font","codi_icgc":"083041 AP05 APE 2","categoria":"Àrees de poblament","codi_municipi":"083041","municipi":"Vilobí del Penedès","codi_comarca":"03","comarca":"Alt Penedès","provincia":"Barcelona","font":"ICGC Àrees de poblament v3r1 202602"},"geometry":{"type":"MultiPolygon","coordinates":[[[[1.672724,41.389756],[1.67243,41.389654],[1.67221,41.389966],[1.672693,41.39003],[1.672738,41.390017],[1.672763,41.389938],[1.672768,41.389882],[1.672772,41.389827],[1.672775,41.389778],[1.672724,41.389756]]],[[[1.673346,41.390072],[1.673295,41.390057],[1.672715,41.39066],[1.672236,41.391219],[1.672508,41.391176],[1.67252,41.391174],[1.673154,41.391075],[1.673259,41.391058],[1.673541,41.391014],[1.673751,41.390981],[1.673793,41.390975],[1.673831,41.390969],[1.673857,41.390964],[1.673868,41.390963],[1.674451,41.390871],[1.674467,41.390869],[1.674506,41.390828],[1.674711,41.390581],[1.674722,41.390558],[1.674439,41.390477],[1.674349,41.390438],[1.673872,41.390294],[1.673822,41.390267],[1.673809,41.390259],[1.673796,41.390251],[1.67374,41.390222],[1.67372,41.390198],[1.673574,41.390153],[1.67346,41.390113],[1.673346,41.390072]]],[[[1.668758,41.390807],[1.668634,41.390684],[1.66843,41.390789],[1.66833,41.390877],[1.668265,41.390942],[1.668255,41.391007],[1.668251,41.391009],[1.668229,41.391026],[1.668206,41.391043],[1.66816,41.391084],[1.668116,41.391125],[1.668088,41.39115],[1.668069,41.391167],[1.66805,41.391174],[1.668238,41.391196],[1.668247,41.39119],[1.668483,41.391012],[1.668554,41.390963],[1.668629,41.390911],[1.668705,41.39086],[1.66877,41.390818],[1.668758,41.390807]]],[[[1.671049,41.391279],[1.671304,41.391107],[1.671464,41.390981],[1.671858,41.390709],[1.671842,41.390685],[1.671577,41.390565],[1.671123,41.390303],[1.670897,41.390539],[1.671232,41.390787],[1.671394,41.390974],[1.671119,41.391156],[1.670777,41.390993],[1.670684,41.391017],[1.67059,41.390998],[1.67045,41.391143],[1.670512,41.39118],[1.67089,41.391359],[1.670969,41.391318],[1.671049,41.391279]]],[[[1.668783,41.391968],[1.667733,41.3918],[1.667728,41.39182],[1.667724,41.391846],[1.667604,41.39195],[1.667571,41.392021],[1.667534,41.392053],[1.667866,41.392274],[1.667959,41.392217],[1.66804,41.392174],[1.668186,41.392108],[1.668282,41.392071],[1.668425,41.392031],[1.668641,41.39199],[1.668783,41.391968]]],[[[1.667564,41.392595],[1.667152,41.392387],[1.66704,41.392474],[1.666972,41.39262],[1.667386,41.392825],[1.667564,41.392595]]],[[[1.6663,41.394167],[1.666749,41.393654],[1.666067,41.393687],[1.665985,41.393761],[1.665975,41.39377],[1.665816,41.393913],[1.666232,41.394143],[1.6663,41.394167]]]]}}]}