{"type":"FeatureCollection","name":"ICGC Àrees de poblament - Viladecans","features":[{"type":"Feature","id":"083015_083015 AP04 BLL 2","properties":{"area_id":"083015_083015 AP04 BLL 2","nom":"Can Tries","codi_icgc":"083015 AP04 BLL 2","categoria":"Àrees de poblament","codi_municipi":"083015","municipi":"Viladecans","codi_comarca":"11","comarca":"Baix Llobregat","provincia":"Barcelona","font":"ICGC Àrees de poblament v3r1 202602"},"geometry":{"type":"MultiPolygon","coordinates":[[[[1.989805,41.314341],[1.989555,41.314336],[1.989401,41.314321],[1.989296,41.314332],[1.989214,41.314357],[1.989194,41.314393],[1.989143,41.31444],[1.988981,41.314484],[1.988834,41.314511],[1.988872,41.314648],[1.988841,41.31475],[1.988827,41.314814],[1.988855,41.314828],[1.988888,41.314893],[1.988942,41.314888],[1.989327,41.314779],[1.989371,41.314875],[1.989873,41.314752],[1.989935,41.314693],[1.989993,41.314634],[1.990026,41.314644],[1.990084,41.314651],[1.990129,41.314617],[1.99016,41.314572],[1.990201,41.314471],[1.990196,41.314452],[1.990236,41.314442],[1.990281,41.314431],[1.990291,41.314408],[1.990281,41.314351],[1.990239,41.314316],[1.990158,41.314307],[1.990064,41.314316],[1.989805,41.314341]]]]}},{"type":"Feature","id":"083015_083015 AP02 BLL 2","properties":{"area_id":"083015_083015 AP02 BLL 2","nom":"Cases del Mopu","codi_icgc":"083015 AP02 BLL 2","categoria":"Àrees de poblament","codi_municipi":"083015","municipi":"Viladecans","codi_comarca":"11","comarca":"Baix Llobregat","provincia":"Barcelona","font":"ICGC Àrees de poblament v3r1 202602"},"geometry":{"type":"MultiPolygon","coordinates":[[[[2.046892,41.295961],[2.046964,41.295976],[2.047595,41.296133],[2.047999,41.296242],[2.048037,41.296251],[2.048086,41.296262],[2.048095,41.296242],[2.04813,41.296169],[2.048192,41.296035],[2.048275,41.295857],[2.048407,41.295555],[2.048453,41.295449],[2.048455,41.295433],[2.04845,41.295418],[2.048438,41.295405],[2.048421,41.295395],[2.048406,41.295392],[2.047433,41.295149],[2.047287,41.295112],[2.046892,41.295961]]]]}},{"type":"Feature","id":"083015_083015 SI11 BLL 2","properties":{"area_id":"083015_083015 SI11 BLL 2","nom":"Dragados y Construcciones","codi_icgc":"083015 SI11 BLL 2","categoria":"Sector industrial","codi_municipi":"083015","municipi":"Viladecans","codi_comarca":"11","comarca":"Baix Llobregat","provincia":"Barcelona","font":"ICGC Àrees de poblament v3r1 202602"},"geometry":{"type":"MultiPolygon","coordinates":[[[[2.046106,41.294722],[2.046688,41.294868],[2.047069,41.294964],[2.04749,41.295066],[2.047488,41.295071],[2.047539,41.295086],[2.047542,41.295079],[2.048273,41.295256],[2.048478,41.295305],[2.048513,41.295315],[2.048774,41.294731],[2.048958,41.294326],[2.045834,41.293547],[2.045618,41.294582],[2.045615,41.294599],[2.046106,41.294722]]]]}},{"type":"Feature","id":"083015_083015 SI06 BLL 2","properties":{"area_id":"083015_083015 SI06 BLL 2","nom":"Parc d'Activitats de Viladecans","codi_icgc":"083015 SI06 BLL 2","categoria":"Sector industrial","codi_municipi":"083015","municipi":"Viladecans","codi_comarca":"11","comarca":"Baix Llobregat","provincia":"Barcelona","font":"ICGC Àrees de poblament v3r1 202602"},"geometry":{"type":"MultiPolygon","coordinates":[[[[2.035653,41.317402],[2.03507,41.316817],[2.034492,41.316228],[2.033921,41.315637],[2.033355,41.315042],[2.032795,41.314444],[2.029821,41.316774],[2.031037,41.3178],[2.031703,41.318334],[2.032481,41.318906],[2.034629,41.320515],[2.035109,41.320154],[2.035498,41.319818],[2.036104,41.319268],[2.036479,41.318892],[2.036812,41.31854],[2.036842,41.318493],[2.036225,41.317909],[2.036137,41.317881],[2.035653,41.317402]]]]}},{"type":"Feature","id":"083015_083015 SI09 BLL 2","properties":{"area_id":"083015_083015 SI09 BLL 2","nom":"Parc empresarial Roca","codi_icgc":"083015 SI09 BLL 2","categoria":"Sector industrial","codi_municipi":"083015","municipi":"Viladecans","codi_comarca":"11","comarca":"Baix Llobregat","provincia":"Barcelona","font":"ICGC Àrees de poblament v3r1 202602"},"geometry":{"type":"MultiPolygon","coordinates":[[[[2.015983,41.305489],[2.013926,41.304861],[2.013635,41.304872],[2.013547,41.304882],[2.013446,41.304894],[2.013343,41.304965],[2.012927,41.305356],[2.012689,41.305616],[2.012521,41.305839],[2.012486,41.305866],[2.012376,41.305891],[2.012379,41.305892],[2.012276,41.306016],[2.012265,41.306025],[2.01203,41.306233],[2.011877,41.306324],[2.011555,41.306508],[2.011552,41.30651],[2.011677,41.306635],[2.016586,41.311565],[2.017935,41.310127],[2.020695,41.30712],[2.01963,41.306781],[2.019319,41.306654],[2.018429,41.306329],[2.015983,41.305489]]]]}},{"type":"Feature","id":"083015_083015 SI01 BLL 2","properties":{"area_id":"083015_083015 SI01 BLL 2","nom":"Polígon industrial Can Calderon","codi_icgc":"083015 SI01 BLL 2","categoria":"Sector industrial","codi_municipi":"083015","municipi":"Viladecans","codi_comarca":"11","comarca":"Baix Llobregat","provincia":"Barcelona","font":"ICGC Àrees de poblament v3r1 202602"},"geometry":{"type":"MultiPolygon","coordinates":[[[[2.031612,41.322717],[2.031749,41.322606],[2.031917,41.322733],[2.032895,41.321998],[2.032745,41.321883],[2.033108,41.321629],[2.033253,41.321541],[2.033079,41.32141],[2.033029,41.321372],[2.033725,41.32085],[2.034055,41.320602],[2.034056,41.320602],[2.033915,41.320496],[2.03376,41.320378],[2.033521,41.320197],[2.033342,41.320063],[2.032964,41.319778],[2.032964,41.319778],[2.032964,41.319778],[2.031127,41.318384],[2.030986,41.318278],[2.030951,41.318278],[2.030866,41.318278],[2.030215,41.318776],[2.02987,41.31904],[2.029771,41.319115],[2.029746,41.319133],[2.029718,41.319155],[2.02955,41.319285],[2.029441,41.319367],[2.029423,41.319378],[2.028658,41.319963],[2.028266,41.320261],[2.028143,41.320354],[2.027559,41.320804],[2.027513,41.320839],[2.027516,41.320933],[2.028112,41.321375],[2.028131,41.321388],[2.028235,41.321466],[2.028431,41.321613],[2.02866,41.321784],[2.02869,41.321807],[2.028726,41.321834],[2.029034,41.322065],[2.029064,41.322088],[2.029104,41.322112],[2.029148,41.32213],[2.029195,41.322143],[2.029245,41.32215],[2.029295,41.322152],[2.029345,41.322148],[2.029365,41.322146],[2.029443,41.322142],[2.029521,41.322143],[2.029599,41.32215],[2.029675,41.322163],[2.02975,41.322181],[2.030176,41.322477],[2.03018,41.322506],[2.030181,41.322512],[2.030205,41.322563],[2.030222,41.322616],[2.030231,41.322669],[2.030233,41.322724],[2.030227,41.322777],[2.030217,41.322817],[2.030214,41.322853],[2.030219,41.322889],[2.030231,41.322925],[2.030251,41.322958],[2.030277,41.322988],[2.03031,41.323015],[2.03033,41.323028],[2.030335,41.323033],[2.030768,41.323361],[2.030784,41.323373],[2.030788,41.323402],[2.030803,41.32339],[2.030945,41.323276],[2.031561,41.322759],[2.031612,41.322717]]]]}},{"type":"Feature","id":"083015_083015 SI08 BLL 2","properties":{"area_id":"083015_083015 SI08 BLL 2","nom":"Polígon industrial Centre","codi_icgc":"083015 SI08 BLL 2","categoria":"Sector industrial","codi_municipi":"083015","municipi":"Viladecans","codi_comarca":"11","comarca":"Baix Llobregat","provincia":"Barcelona","font":"ICGC Àrees de poblament v3r1 202602"},"geometry":{"type":"MultiPolygon","coordinates":[[[[2.020619,41.314985],[2.024197,41.310345],[2.024198,41.310344],[2.022436,41.309141],[2.0205,41.307852],[2.01951,41.308757],[2.017521,41.310885],[2.017423,41.310999],[2.016823,41.311705],[2.016824,41.311731],[2.016846,41.311752],[2.017168,41.312064],[2.018212,41.313103],[2.019022,41.31392],[2.019389,41.314281],[2.019751,41.314052],[2.0198,41.314126],[2.020562,41.315146],[2.020623,41.315235],[2.020712,41.315141],[2.020619,41.314985]]]]}},{"type":"Feature","id":"083015_083015 SI10 BLL 2","properties":{"area_id":"083015_083015 SI10 BLL 2","nom":"Procoba","codi_icgc":"083015 SI10 BLL 2","categoria":"Sector industrial","codi_municipi":"083015","municipi":"Viladecans","codi_comarca":"11","comarca":"Baix Llobregat","provincia":"Barcelona","font":"ICGC Àrees de poblament v3r1 202602"},"geometry":{"type":"MultiPolygon","coordinates":[[[[2.024908,41.29554],[2.025273,41.295688],[2.025249,41.295715],[2.025539,41.295806],[2.02555,41.295788],[2.025588,41.295724],[2.026376,41.296042],[2.026461,41.295996],[2.02689,41.296136],[2.027306,41.296239],[2.027482,41.295833],[2.026681,41.295523],[2.027128,41.294772],[2.026685,41.294651],[2.02655,41.294753],[2.026455,41.294781],[2.026208,41.2948],[2.025798,41.295283],[2.025237,41.295103],[2.024916,41.295526],[2.024908,41.29554]]]]}},{"type":"Feature","id":"083015_083015 SI03 BLL 2","properties":{"area_id":"083015_083015 SI03 BLL 2","nom":"Reserva del Sector Aeroportuari","codi_icgc":"083015 SI03 BLL 2","categoria":"Sector industrial","codi_municipi":"083015","municipi":"Viladecans","codi_comarca":"11","comarca":"Baix Llobregat","provincia":"Barcelona","font":"ICGC Àrees de poblament v3r1 202602"},"geometry":{"type":"MultiPolygon","coordinates":[[[[2.05013,41.295554],[2.05007,41.294998],[2.050172,41.293861],[2.049376,41.293502],[2.047221,41.298347],[2.045715,41.302048],[2.046574,41.302268],[2.050201,41.303221],[2.05072,41.303346],[2.051122,41.303426],[2.051157,41.3033],[2.052265,41.301429],[2.052779,41.300606],[2.05268,41.300552],[2.052278,41.300353],[2.052008,41.300237],[2.051593,41.300062],[2.05099,41.299847],[2.050493,41.299628],[2.050074,41.299365],[2.049612,41.298942],[2.049333,41.298601],[2.049132,41.298075],[2.049067,41.297765],[2.049072,41.297403],[2.04918,41.29691],[2.049356,41.296559],[2.049626,41.296218],[2.049947,41.295911],[2.050171,41.295763],[2.05013,41.295554]]]]}},{"type":"Feature","id":"083015_083015 SI02 BLL 2","properties":{"area_id":"083015_083015 SI02 BLL 2","nom":"Sector Aeroportuari","codi_icgc":"083015 SI02 BLL 2","categoria":"Sector industrial","codi_municipi":"083015","municipi":"Viladecans","codi_comarca":"11","comarca":"Baix Llobregat","provincia":"Barcelona","font":"ICGC Àrees de poblament v3r1 202602"},"geometry":{"type":"MultiPolygon","coordinates":[[[[2.054713,41.294227],[2.054667,41.294207],[2.054384,41.29409],[2.054347,41.294074],[2.054319,41.294063],[2.054004,41.294203],[2.052696,41.294886],[2.052696,41.294881],[2.052698,41.294049],[2.052894,41.293643],[2.05328,41.293422],[2.053362,41.293376],[2.055338,41.292412],[2.055606,41.292297],[2.05644,41.291886],[2.057531,41.291348],[2.057679,41.291268],[2.057717,41.291247],[2.057743,41.291234],[2.057787,41.29121],[2.057761,41.291188],[2.057701,41.29114],[2.057638,41.291094],[2.057606,41.291075],[2.057556,41.29105],[2.057503,41.291027],[2.057424,41.290997],[2.057341,41.290973],[2.057242,41.290952],[2.057141,41.290937],[2.057025,41.290924],[2.056908,41.290914],[2.056842,41.290912],[2.056727,41.290909],[2.056494,41.290918],[2.056198,41.290954],[2.055913,41.291007],[2.05591,41.291006],[2.055812,41.290981],[2.055577,41.290982],[2.055552,41.290983],[2.055526,41.290979],[2.055476,41.290965],[2.055424,41.290947],[2.055378,41.290925],[2.055349,41.290907],[2.055311,41.290879],[2.055286,41.290855],[2.055267,41.29083],[2.055259,41.290813],[2.055254,41.290789],[2.055255,41.290744],[2.055263,41.2907],[2.055276,41.290646],[2.055279,41.290631],[2.05525,41.290549],[2.055244,41.290534],[2.055201,41.290404],[2.055203,41.290396],[2.055207,41.290372],[2.05521,41.290348],[2.055218,41.290285],[2.055229,41.29018],[2.055236,41.290075],[2.055236,41.290016],[2.055231,41.289927],[2.055221,41.289837],[2.055197,41.28969],[2.055182,41.289617],[2.055164,41.289544],[2.055118,41.289389],[2.055069,41.289235],[2.054969,41.288937],[2.054869,41.288639],[2.054781,41.288374],[2.054692,41.28811],[2.054672,41.288058],[2.054672,41.288058],[2.054662,41.288029],[2.054645,41.288003],[2.054622,41.28798],[2.054593,41.28796],[2.054559,41.287945],[2.054523,41.287936],[2.054496,41.28793],[2.054453,41.287914],[2.054414,41.287894],[2.05439,41.287876],[2.05437,41.287863],[2.054308,41.287673],[2.054283,41.287593],[2.054217,41.287337],[2.053788,41.28606],[2.053747,41.285941],[2.053746,41.285938],[2.053746,41.285939],[2.053729,41.285917],[2.053705,41.285897],[2.053675,41.285881],[2.053642,41.285871],[2.053607,41.285866],[2.053571,41.285866],[2.052969,41.285957],[2.052932,41.285973],[2.052896,41.285995],[2.052866,41.28602],[2.052841,41.286049],[2.052824,41.286081],[2.052813,41.286115],[2.052785,41.286301],[2.05272,41.286656],[2.052566,41.287282],[2.052451,41.287675],[2.052457,41.287687],[2.052462,41.287699],[2.052469,41.287709],[2.052478,41.287719],[2.052501,41.287736],[2.052521,41.287745],[2.052541,41.287753],[2.052551,41.287761],[2.052556,41.287769],[2.052561,41.287776],[2.052595,41.287775],[2.052382,41.287868],[2.052186,41.288065],[2.052164,41.28807],[2.052004,41.288661],[2.051653,41.289809],[2.051185,41.291356],[2.05103,41.291852],[2.050877,41.292343],[2.050843,41.29245],[2.050786,41.292635],[2.050787,41.292671],[2.050816,41.29338],[2.050846,41.294119],[2.050855,41.294344],[2.050992,41.294674],[2.05101,41.294681],[2.051247,41.294776],[2.051347,41.294752],[2.051389,41.294741],[2.052017,41.294164],[2.052129,41.294061],[2.052122,41.294099],[2.051985,41.294832],[2.051966,41.295504],[2.051972,41.295776],[2.052346,41.295834],[2.052535,41.295864],[2.052575,41.29587],[2.052795,41.295904],[2.053351,41.296073],[2.053936,41.296271],[2.054425,41.296547],[2.054643,41.296599],[2.054852,41.296536],[2.055052,41.296509],[2.05526,41.296496],[2.055308,41.296516],[2.055679,41.295946],[2.055917,41.295533],[2.056112,41.295156],[2.056275,41.294877],[2.054713,41.294227]]]]}},{"type":"Feature","id":"083015_083015 AP01 BLL 3","properties":{"area_id":"083015_083015 AP01 BLL 3","nom":"Viladecans","codi_icgc":"083015 AP01 BLL 3","categoria":"Àrees de poblament","codi_municipi":"083015","municipi":"Viladecans","codi_comarca":"11","comarca":"Baix Llobregat","provincia":"Barcelona","font":"ICGC Àrees de poblament v3r1 202602"},"geometry":{"type":"MultiPolygon","coordinates":[[[[2.012006,41.325891],[2.012214,41.325689],[2.012331,41.325751],[2.012333,41.325749],[2.012384,41.325785],[2.012472,41.325835],[2.01252,41.325858],[2.012555,41.325866],[2.012605,41.325874],[2.012666,41.325843],[2.012926,41.325582],[2.013069,41.325451],[2.013121,41.325407],[2.013218,41.325329],[2.013444,41.325435],[2.013723,41.325556],[2.014073,41.325691],[2.014164,41.325726],[2.014453,41.325836],[2.014762,41.325929],[2.015196,41.326041],[2.015471,41.326097],[2.015692,41.326137],[2.015708,41.32614],[2.015734,41.32615],[2.015755,41.326164],[2.015765,41.326175],[2.015786,41.326198],[2.015799,41.326209],[2.015813,41.326217],[2.015826,41.326223],[2.015844,41.326231],[2.015865,41.326237],[2.015878,41.32624],[2.015914,41.326243],[2.015931,41.326243],[2.015951,41.326241],[2.015986,41.326231],[2.015995,41.326228],[2.016013,41.326218],[2.016027,41.326211],[2.016041,41.326205],[2.016062,41.3262],[2.016081,41.326201],[2.016159,41.326208],[2.016741,41.326265],[2.017087,41.326293],[2.017528,41.3263],[2.017917,41.326292],[2.018344,41.32626],[2.018691,41.326217],[2.018681,41.326089],[2.018662,41.326009],[2.018643,41.325929],[2.018623,41.325823],[2.018607,41.325717],[2.018595,41.325626],[2.018582,41.325536],[2.018567,41.325463],[2.018543,41.325392],[2.0185,41.325301],[2.018456,41.32521],[2.01843,41.325141],[2.018406,41.325071],[2.018404,41.325064],[2.018395,41.325035],[2.018204,41.32502],[2.01821,41.324969],[2.018233,41.324908],[2.01836,41.324712],[2.018493,41.324493],[2.0185,41.324481],[2.018504,41.324473],[2.019229,41.324617],[2.019382,41.324288],[2.019446,41.32417],[2.019579,41.324218],[2.019654,41.324136],[2.020104,41.323532],[2.020203,41.323398],[2.020231,41.323359],[2.020235,41.323361],[2.020404,41.323162],[2.021339,41.323416],[2.021253,41.323653],[2.021256,41.323654],[2.02123,41.323716],[2.021183,41.32383],[2.021197,41.323961],[2.021284,41.324083],[2.02138,41.324179],[2.021494,41.324276],[2.02245,41.32441],[2.022868,41.324113],[2.022949,41.323792],[2.02329,41.323843],[2.023206,41.324113],[2.023376,41.324459],[2.02347,41.324521],[2.023848,41.324551],[2.024619,41.324579],[2.025424,41.324252],[2.025421,41.323825],[2.025413,41.323718],[2.026222,41.323625],[2.027229,41.323431],[2.028364,41.323095],[2.027637,41.322599],[2.028339,41.322094],[2.027964,41.32183],[2.026928,41.321061],[2.027014,41.320993],[2.027157,41.320882],[2.027503,41.32062],[2.027838,41.320365],[2.028106,41.32016],[2.028351,41.319967],[2.028611,41.319763],[2.028802,41.319612],[2.028955,41.319492],[2.029164,41.319329],[2.029373,41.319164],[2.029582,41.319],[2.029805,41.318824],[2.030052,41.31863],[2.030353,41.318394],[2.030637,41.318171],[2.030727,41.3181],[2.030824,41.317962],[2.030689,41.317869],[2.030472,41.317722],[2.030361,41.317643],[2.030211,41.317537],[2.02952,41.316965],[2.028729,41.31623],[2.028547,41.316027],[2.027784,41.315248],[2.027732,41.315195],[2.027695,41.315174],[2.027469,41.314985],[2.02679,41.314212],[2.027415,41.313937],[2.028081,41.31364],[2.028237,41.313509],[2.028841,41.313236],[2.029159,41.313084],[2.029327,41.31299],[2.029967,41.312648],[2.030718,41.312214],[2.030136,41.311642],[2.030157,41.311615],[2.030161,41.311614],[2.030161,41.311613],[2.030339,41.311498],[2.030346,41.311431],[2.030271,41.311341],[2.030226,41.311288],[2.030057,41.311158],[2.029876,41.311015],[2.029819,41.311006],[2.029761,41.311002],[2.029703,41.311005],[2.029646,41.311013],[2.029591,41.311027],[2.029538,41.311046],[2.029465,41.310989],[2.029224,41.3108],[2.029977,41.310277],[2.028774,41.309837],[2.02879,41.3098],[2.027358,41.309303],[2.026512,41.309018],[2.026382,41.309043],[2.02364,41.311774],[2.023529,41.311917],[2.023033,41.312545],[2.022735,41.312906],[2.022682,41.312942],[2.022664,41.312965],[2.021932,41.313935],[2.021261,41.314772],[2.02127,41.314794],[2.021103,41.315041],[2.020863,41.315361],[2.020657,41.315285],[2.020623,41.315235],[2.020562,41.315146],[2.0198,41.314126],[2.019751,41.314052],[2.019389,41.314281],[2.019329,41.314319],[2.01919,41.314385],[2.019049,41.314252],[2.018098,41.313306],[2.017248,41.312477],[2.016461,41.311793],[2.012877,41.308366],[2.011032,41.306647],[2.008449,41.306528],[2.007944,41.306488],[2.007578,41.306604],[2.006765,41.307121],[2.006495,41.307312],[2.004167,41.310023],[2.003739,41.31058],[2.003249,41.311147],[2.003,41.311401],[2.002728,41.311572],[2.002458,41.311677],[2.002181,41.31171],[2.001992,41.311655],[2.001764,41.311605],[2.001519,41.311591],[1.995186,41.312364],[1.995074,41.312405],[1.994958,41.312436],[1.994972,41.312483],[1.995036,41.312639],[1.995103,41.312801],[1.995114,41.312827],[1.99512,41.312841],[1.995224,41.313084],[1.995228,41.313095],[1.995262,41.313172],[1.995263,41.313175],[1.995268,41.313187],[1.995274,41.313201],[1.995275,41.313204],[1.995305,41.313275],[1.99533,41.313325],[1.995345,41.313351],[1.99535,41.31336],[1.995356,41.313371],[1.995383,41.313412],[1.995413,41.313457],[1.995449,41.313504],[1.995521,41.313585],[1.995567,41.313638],[1.995592,41.313666],[1.995643,41.313717],[1.995701,41.313765],[1.995757,41.31381],[1.995761,41.313813],[1.995766,41.313817],[1.995835,41.313866],[1.995838,41.313868],[1.995846,41.313873],[1.995914,41.313916],[1.995997,41.313964],[1.996071,41.314002],[1.996146,41.314037],[1.996254,41.314081],[1.996365,41.31412],[1.996419,41.314137],[1.996428,41.31414],[1.996487,41.314159],[1.996547,41.314176],[1.996609,41.31419],[1.99675,41.314215],[1.996782,41.314221],[1.99679,41.314222],[1.996892,41.314239],[1.997038,41.314261],[1.997183,41.314284],[1.997335,41.314306],[1.997376,41.314312],[1.997488,41.314328],[1.997496,41.314329],[1.997727,41.314366],[1.997966,41.314404],[1.998187,41.314439],[1.998215,41.314444],[1.998339,41.314463],[1.998408,41.314474],[1.998612,41.314506],[1.998814,41.314538],[1.998872,41.314546],[1.998982,41.314563],[1.999053,41.314573],[1.999151,41.314586],[1.999174,41.314589],[1.999295,41.314605],[1.99944,41.314621],[1.999598,41.314633],[1.999756,41.314637],[1.999885,41.314637],[1.999953,41.314634],[2.000013,41.314632],[2.000055,41.314629],[2.000177,41.31462],[2.00034,41.314603],[2.000468,41.314585],[2.000595,41.314563],[2.000754,41.31453],[2.000874,41.314504],[2.000912,41.314496],[2.000942,41.314488],[2.000969,41.314482],[2.000989,41.314477],[2.001002,41.314476],[2.001016,41.314477],[2.001035,41.314479],[2.001052,41.314484],[2.00108,41.314497],[2.001099,41.314505],[2.001132,41.314518],[2.001173,41.31453],[2.001197,41.314535],[2.001216,41.314537],[2.001237,41.314539],[2.00126,41.314539],[2.001288,41.314537],[2.001304,41.314535],[2.001326,41.31453],[2.001353,41.314524],[2.001366,41.314523],[2.001379,41.314522],[2.001393,41.314524],[2.001405,41.314527],[2.001422,41.314535],[2.001428,41.314539],[2.001622,41.314672],[2.001629,41.314678],[2.001632,41.314682],[2.001634,41.314689],[2.001634,41.314696],[2.00163,41.314714],[2.001613,41.314762],[2.001593,41.314747],[2.001541,41.314753],[2.001477,41.314761],[2.001232,41.314775],[2.001132,41.314788],[2.001069,41.314856],[2.001029,41.314943],[2.001001,41.31502],[2.001093,41.315076],[2.001065,41.315125],[2.001052,41.315147],[2.001018,41.315197],[2.001013,41.315195],[2.000998,41.315221],[2.000921,41.315335],[2.000844,41.315479],[2.000793,41.315548],[2.000732,41.315617],[2.000447,41.315742],[2.000331,41.315799],[2.000302,41.315777],[2.000273,41.3158],[2.000156,41.315836],[2.000132,41.315952],[1.999874,41.316176],[1.999698,41.316254],[1.999697,41.316255],[1.999697,41.316255],[1.999547,41.316315],[1.999461,41.316359],[1.999407,41.316385],[1.999302,41.316462],[1.999243,41.316493],[1.999214,41.316507],[1.999169,41.316531],[1.999134,41.316549],[1.999083,41.316588],[1.998859,41.316762],[1.998854,41.316766],[1.99872,41.316695],[1.998558,41.31678],[1.998269,41.316923],[1.998373,41.316973],[1.998259,41.317025],[1.998253,41.317031],[1.998084,41.317186],[1.998062,41.317211],[1.997969,41.317306],[1.997925,41.31733],[1.997868,41.317352],[1.9977,41.317421],[1.997647,41.317421],[1.997593,41.317464],[1.997544,41.317503],[1.997511,41.317529],[1.997296,41.317763],[1.997194,41.317888],[1.997194,41.317926],[1.997196,41.318003],[1.997197,41.318058],[1.997343,41.318165],[1.997341,41.318291],[1.997452,41.318321],[1.997451,41.318375],[1.997442,41.318649],[1.997343,41.318682],[1.997328,41.318946],[1.997326,41.318969],[1.997326,41.318969],[1.997337,41.318982],[1.997447,41.319025],[1.997553,41.319074],[1.997544,41.319118],[1.997537,41.319153],[1.997534,41.319172],[1.997525,41.319218],[1.997494,41.31935],[1.997483,41.31943],[1.997436,41.319501],[1.997502,41.319552],[1.997866,41.319722],[1.997873,41.319726],[1.997875,41.31974],[1.997882,41.319774],[1.997883,41.319779],[1.997889,41.319822],[1.997893,41.319872],[1.997898,41.319946],[1.997898,41.319983],[1.997895,41.32002],[1.997886,41.320072],[1.997877,41.320125],[1.997871,41.320156],[1.997865,41.320188],[1.997865,41.320204],[1.997874,41.320226],[1.997888,41.320247],[1.99791,41.320269],[1.99794,41.320288],[1.997961,41.320294],[1.997989,41.320298],[1.998017,41.320297],[1.99806,41.32029],[1.998083,41.320281],[1.998104,41.320268],[1.998126,41.32024],[1.998142,41.320214],[1.998178,41.320148],[1.998213,41.320083],[1.998246,41.320028],[1.998282,41.319974],[1.998291,41.319963],[1.998309,41.319949],[1.99833,41.319938],[1.998361,41.319931],[1.998395,41.319928],[1.998424,41.319928],[1.998453,41.31993],[1.998484,41.319938],[1.998514,41.31995],[1.998537,41.319965],[1.998555,41.319984],[1.998567,41.320008],[1.99857,41.320019],[1.99857,41.32003],[1.998563,41.320061],[1.998555,41.320093],[1.998553,41.320099],[1.998554,41.320108],[1.998551,41.320135],[1.998511,41.320251],[1.998475,41.320477],[1.99842,41.320476],[1.998408,41.320481],[1.998388,41.320487],[1.998328,41.320497],[1.998295,41.320503],[1.998261,41.320512],[1.998215,41.320535],[1.998176,41.32056],[1.998121,41.3206],[1.998067,41.32064],[1.997991,41.320698],[1.997915,41.320757],[1.997835,41.320818],[1.997755,41.320878],[1.997695,41.320924],[1.997636,41.320969],[1.997607,41.320988],[1.997574,41.321002],[1.997549,41.321007],[1.99752,41.321009],[1.997492,41.32101],[1.997466,41.321007],[1.997459,41.321004],[1.99745,41.320999],[1.997369,41.320944],[1.997286,41.320887],[1.997187,41.320821],[1.997088,41.320754],[1.997036,41.32072],[1.99698,41.320685],[1.996972,41.320681],[1.996891,41.320711],[1.99679,41.320764],[1.996784,41.32078],[1.99678,41.320804],[1.996778,41.320831],[1.996782,41.320847],[1.996793,41.320864],[1.996835,41.320898],[1.996877,41.320928],[1.996964,41.320986],[1.99705,41.321043],[1.997081,41.321067],[1.997109,41.321092],[1.997171,41.321156],[1.997234,41.321221],[1.997254,41.321239],[1.997287,41.321263],[1.997322,41.321285],[1.997357,41.321304],[1.997396,41.321321],[1.997432,41.321333],[1.997481,41.321344],[1.997533,41.32135],[1.997564,41.321353],[1.997569,41.321354],[1.997571,41.321356],[1.997667,41.321462],[1.99768,41.321479],[1.997736,41.32154],[1.997778,41.321607],[1.997867,41.321587],[1.997959,41.321586],[1.997966,41.321586],[1.997972,41.321587],[1.99807,41.321597],[1.998088,41.321652],[1.998101,41.321654],[1.998123,41.321659],[1.998155,41.32167],[1.998186,41.321684],[1.998218,41.321705],[1.998246,41.321728],[1.998265,41.321751],[1.998281,41.321777],[1.998297,41.321815],[1.998307,41.321854],[1.998314,41.321926],[1.99832,41.321999],[1.998321,41.322005],[1.99833,41.32203],[1.998344,41.322114],[1.998358,41.322132],[1.998381,41.322151],[1.998413,41.322168],[1.998448,41.322181],[1.998493,41.322188],[1.998539,41.322188],[1.998581,41.32218],[1.998604,41.322171],[1.998626,41.322159],[1.998642,41.322142],[1.998654,41.32213],[1.998663,41.322112],[1.998668,41.322094],[1.998671,41.322073],[1.998673,41.322051],[1.998675,41.322037],[1.998675,41.322027],[1.99883,41.321958],[1.998936,41.321915],[1.998959,41.321934],[1.998987,41.321949],[1.999019,41.321959],[1.999053,41.321963],[1.999087,41.321962],[1.99912,41.321955],[1.99915,41.321942],[1.99917,41.321929],[1.999288,41.321993],[1.999775,41.321715],[1.999774,41.321708],[1.999831,41.321683],[1.999849,41.321673],[1.999818,41.321615],[1.999852,41.321597],[1.999977,41.321541],[2.000033,41.321516],[2.000035,41.32152],[2.000137,41.321476],[2.000131,41.321472],[2.000243,41.321422],[2.000343,41.321393],[2.000398,41.321378],[2.000673,41.321302],[2.000709,41.321293],[2.00073,41.321285],[2.000751,41.321275],[2.000774,41.321261],[2.000775,41.321261],[2.000793,41.321253],[2.000812,41.321245],[2.000851,41.321228],[2.000889,41.321209],[2.000928,41.321186],[2.000967,41.32116],[2.001033,41.321115],[2.001039,41.321121],[2.001105,41.32108],[2.001133,41.321048],[2.00143,41.320891],[2.001535,41.320942],[2.001699,41.321022],[2.001839,41.321129],[2.001946,41.321052],[2.00204,41.320984],[2.002192,41.320859],[2.002327,41.320835],[2.00238,41.320799],[2.002637,41.320644],[2.002757,41.32062],[2.002855,41.320595],[2.002878,41.320569],[2.002966,41.320344],[2.003052,41.320355],[2.003081,41.320261],[2.003104,41.320172],[2.003119,41.320124],[2.003128,41.320095],[2.003202,41.319855],[2.003216,41.31981],[2.003218,41.319805],[2.00325,41.3197],[2.003296,41.319539],[2.003302,41.319542],[2.003325,41.319557],[2.003346,41.31957],[2.003373,41.319587],[2.00338,41.319592],[2.003387,41.319597],[2.003454,41.319643],[2.003519,41.319689],[2.003538,41.319708],[2.003553,41.31973],[2.003564,41.319753],[2.003567,41.319776],[2.003564,41.319805],[2.003553,41.319852],[2.003551,41.319864],[2.003532,41.319874],[2.003514,41.319884],[2.003479,41.319904],[2.003445,41.319926],[2.003412,41.319945],[2.00338,41.319964],[2.003362,41.31998],[2.00333,41.320024],[2.003303,41.32007],[2.003271,41.320119],[2.003237,41.320167],[2.003235,41.320172],[2.003167,41.320284],[2.003158,41.320298],[2.003109,41.320444],[2.003102,41.320468],[2.003071,41.320581],[2.003064,41.320594],[2.003018,41.320682],[2.003011,41.320689],[2.002911,41.320791],[2.002868,41.320834],[2.002847,41.320853],[2.002806,41.320891],[2.002716,41.320972],[2.002696,41.320991],[2.002695,41.320992],[2.002695,41.320992],[2.00265,41.321034],[2.002603,41.321079],[2.002502,41.321177],[2.002475,41.321203],[2.002146,41.321505],[2.002118,41.321534],[2.002073,41.32158],[2.002028,41.321625],[2.001983,41.321627],[2.001895,41.321631],[2.001851,41.321633],[2.001843,41.321639],[2.001772,41.321646],[2.001767,41.321647],[2.001742,41.321651],[2.001665,41.321644],[2.00164,41.321716],[2.001572,41.321734],[2.001559,41.32179],[2.001546,41.321825],[2.001471,41.322007],[2.001435,41.322071],[2.001383,41.32216],[2.00138,41.322165],[2.00132,41.322252],[2.001264,41.322296],[2.001203,41.322339],[2.001132,41.322368],[2.001083,41.322387],[2.001055,41.322415],[2.00081,41.322654],[2.000805,41.32267],[2.000786,41.322726],[2.00082,41.322865],[2.00091,41.322867],[2.001035,41.322885],[2.001116,41.322893],[2.00129,41.322937],[2.001453,41.322988],[2.001478,41.322992],[2.001539,41.323026],[2.001539,41.323027],[2.001591,41.323066],[2.001649,41.323111],[2.001688,41.323135],[2.001748,41.323173],[2.001816,41.323205],[2.001836,41.323216],[2.001902,41.32325],[2.00199,41.323116],[2.002003,41.323096],[2.002344,41.323075],[2.002344,41.323075],[2.002365,41.323075],[2.002514,41.323069],[2.002591,41.323066],[2.002706,41.32306],[2.002806,41.323056],[2.002846,41.323055],[2.002873,41.323054],[2.002891,41.323053],[2.003052,41.323049],[2.003061,41.323049],[2.003062,41.323049],[2.003215,41.323051],[2.003247,41.323063],[2.003287,41.323053],[2.003386,41.323049],[2.003506,41.323044],[2.003506,41.323044],[2.003506,41.323044],[2.00359,41.32304],[2.003592,41.3231],[2.003637,41.323075],[2.003655,41.323067],[2.003685,41.323062],[2.003715,41.323062],[2.003744,41.323068],[2.003771,41.32308],[2.003793,41.323095],[2.003798,41.3231],[2.004154,41.323048],[2.004261,41.323052],[2.004446,41.323116],[2.004619,41.323177],[2.00473,41.323216],[2.004773,41.323231],[2.004818,41.323242],[2.00484,41.323247],[2.004878,41.323256],[2.004911,41.323262],[2.004939,41.323267],[2.00497,41.323273],[2.005015,41.323282],[2.005019,41.323479],[2.005261,41.323537],[2.005406,41.323523],[2.005578,41.323512],[2.005764,41.323496],[2.005964,41.323474],[2.006134,41.323453],[2.006185,41.323453],[2.00624,41.323454],[2.006287,41.323451],[2.006332,41.323442],[2.006411,41.323414],[2.006488,41.323386],[2.00664,41.32333],[2.006791,41.323274],[2.006891,41.323241],[2.006994,41.323217],[2.007134,41.32319],[2.007197,41.323178],[2.007276,41.323163],[2.007515,41.32312],[2.007755,41.323077],[2.007818,41.323066],[2.00784,41.323063],[2.00788,41.323056],[2.007886,41.323056],[2.00789,41.323056],[2.007923,41.323065],[2.007933,41.323068],[2.007961,41.323075],[2.008004,41.323087],[2.008044,41.323098],[2.008144,41.323306],[2.008144,41.323306],[2.008154,41.32332],[2.008159,41.323318],[2.00816,41.323318],[2.008174,41.323336],[2.008216,41.323392],[2.008258,41.323447],[2.008304,41.323509],[2.00835,41.323571],[2.00838,41.323611],[2.008411,41.323652],[2.008421,41.323664],[2.008434,41.323681],[2.008456,41.323692],[2.008543,41.323707],[2.008623,41.32372],[2.008739,41.323742],[2.008745,41.323744],[2.008855,41.323766],[2.008876,41.32377],[2.008901,41.323773],[2.008924,41.32377],[2.008943,41.323763],[2.009045,41.323836],[2.009296,41.323744],[2.009317,41.323781],[2.00935,41.323841],[2.00936,41.32386],[2.009369,41.323872],[2.009388,41.323886],[2.009407,41.323889],[2.009416,41.323891],[2.009531,41.323915],[2.009647,41.323941],[2.009682,41.323948],[2.009695,41.323951],[2.009753,41.323955],[2.009785,41.323958],[2.010608,41.323579],[2.01071,41.323538],[2.010881,41.323414],[2.010983,41.323526],[2.011169,41.323746],[2.010897,41.323883],[2.010897,41.323884],[2.011231,41.324342],[2.0113,41.324383],[2.011323,41.324374],[2.011345,41.324366],[2.011389,41.324444],[2.01118,41.324619],[2.010843,41.324915],[2.010841,41.324916],[2.010533,41.325215],[2.01052,41.325227],[2.010398,41.325339],[2.010171,41.325561],[2.010144,41.325543],[2.010132,41.325535],[2.009961,41.325699],[2.010126,41.325796],[2.010287,41.325889],[2.010453,41.325983],[2.010454,41.325995],[2.010453,41.326005],[2.010451,41.326016],[2.010446,41.326026],[2.010441,41.326033],[2.010431,41.326044],[2.010378,41.326096],[2.01011,41.326394],[2.010115,41.326456],[2.010117,41.326488],[2.010399,41.326601],[2.010524,41.326638],[2.01056,41.326648],[2.010871,41.326744],[2.011018,41.326789],[2.011058,41.326799],[2.011579,41.326297],[2.012006,41.325891]]]]}},{"type":"Feature","id":"083015_083015 SI05 BLL 2","properties":{"area_id":"083015_083015 SI05 BLL 2","nom":"Viladecans Business Park","codi_icgc":"083015 SI05 BLL 2","categoria":"Sector industrial","codi_municipi":"083015","municipi":"Viladecans","codi_comarca":"11","comarca":"Baix Llobregat","provincia":"Barcelona","font":"ICGC Àrees de poblament v3r1 202602"},"geometry":{"type":"MultiPolygon","coordinates":[[[[2.029853,41.313475],[2.029853,41.313476],[2.02942,41.313713],[2.028642,41.314126],[2.028145,41.314388],[2.029105,41.315324],[2.029782,41.314971],[2.03012,41.315337],[2.030596,41.315754],[2.030626,41.31578],[2.032614,41.31426],[2.031585,41.313177],[2.031479,41.313047],[2.030901,41.31242],[2.03082,41.312348],[2.030576,41.312487],[2.029476,41.313075],[2.029476,41.313075],[2.029853,41.313475]]]]}},{"type":"Feature","id":"083015_083015 SI04 BLL 2","properties":{"area_id":"083015_083015 SI04 BLL 2","nom":"Zona d'activitat econòmica de Ca n'Alemany","codi_icgc":"083015 SI04 BLL 2","categoria":"Sector industrial","codi_municipi":"083015","municipi":"Viladecans","codi_comarca":"11","comarca":"Baix Llobregat","provincia":"Barcelona","font":"ICGC Àrees de poblament v3r1 202602"},"geometry":{"type":"MultiPolygon","coordinates":[[[[2.014233,41.30458],[2.016589,41.305368],[2.016601,41.30536],[2.016689,41.305309],[2.017164,41.30495],[2.017621,41.305235],[2.017743,41.305311],[2.017755,41.305336],[2.017772,41.30536],[2.017795,41.305381],[2.017822,41.305399],[2.017852,41.305414],[2.017886,41.305424],[2.017921,41.305429],[2.017957,41.30543],[2.017993,41.305427],[2.018027,41.305418],[2.018059,41.305406],[2.018088,41.305389],[2.018112,41.305369],[2.018132,41.305347],[2.018146,41.305322],[2.018155,41.305295],[2.018272,41.305219],[2.018621,41.304885],[2.018679,41.304829],[2.018722,41.304788],[2.019351,41.305165],[2.019487,41.305234],[2.020046,41.304729],[2.020515,41.305039],[2.020783,41.304782],[2.021447,41.304147],[2.021513,41.304085],[2.021582,41.304021],[2.021924,41.304221],[2.021929,41.304308],[2.021939,41.304351],[2.021957,41.304393],[2.021983,41.304433],[2.022016,41.304469],[2.022055,41.304502],[2.0221,41.30453],[2.021347,41.305285],[2.021315,41.305318],[2.021289,41.305353],[2.02127,41.305392],[2.021259,41.305432],[2.021256,41.305472],[2.021261,41.305513],[2.021274,41.305552],[2.021294,41.30559],[2.021342,41.305644],[2.021396,41.305693],[2.021458,41.305738],[2.021526,41.305777],[2.021599,41.30581],[2.021676,41.305837],[2.021757,41.305857],[2.021841,41.305871],[2.021926,41.305877],[2.022011,41.305877],[2.022096,41.305869],[2.022174,41.305855],[2.022331,41.30593],[2.022331,41.305977],[2.022337,41.306023],[2.022354,41.306084],[2.022379,41.306143],[2.022412,41.306199],[2.022454,41.306253],[2.022504,41.306302],[2.02256,41.306347],[2.022623,41.306387],[2.022692,41.306421],[2.022765,41.306449],[2.022842,41.306471],[2.022922,41.306486],[2.023003,41.306495],[2.023086,41.306496],[2.023131,41.306494],[2.023176,41.306489],[2.023223,41.306482],[2.02327,41.306473],[2.023309,41.306463],[2.023331,41.306475],[2.023228,41.306577],[2.022945,41.306878],[2.022909,41.306932],[2.022909,41.306975],[2.022917,41.307017],[2.023647,41.307271],[2.025804,41.307938],[2.025981,41.307993],[2.026601,41.308185],[2.026699,41.308084],[2.026797,41.307983],[2.026857,41.307923],[2.026916,41.307864],[2.027076,41.3077],[2.027235,41.307536],[2.027358,41.307413],[2.027443,41.307328],[2.025321,41.30476],[2.023774,41.303316],[2.023762,41.303304],[2.023475,41.303036],[2.023401,41.303106],[2.023216,41.303281],[2.023172,41.303323],[2.023125,41.303367],[2.023039,41.303449],[2.022491,41.303973],[2.022463,41.304001],[2.022421,41.30399],[2.022377,41.303983],[2.022332,41.30398],[2.022288,41.30398],[2.022253,41.303983],[2.022219,41.303988],[2.022186,41.303995],[2.022154,41.304004],[2.021735,41.303762],[2.021225,41.303466],[2.021154,41.303424],[2.021061,41.303369],[2.02104,41.303357],[2.02097,41.303316],[2.021315,41.30296],[2.022247,41.302049],[2.022353,41.301934],[2.02077,41.300279],[2.020701,41.300207],[2.020663,41.300181],[2.020651,41.300167],[2.020635,41.300155],[2.020617,41.300145],[2.020607,41.300141],[2.020517,41.300188],[2.019667,41.300892],[2.018578,41.301774],[2.017987,41.30227],[2.017505,41.302658],[2.017323,41.302811],[2.016781,41.303242],[2.016542,41.303365],[2.016107,41.303562],[2.015592,41.303689],[2.015233,41.303893],[2.014372,41.30439],[2.014305,41.304428],[2.014247,41.304499],[2.014233,41.30458]]]]}},{"type":"Feature","id":"083015_083015 SI07 BLL 2","properties":{"area_id":"083015_083015 SI07 BLL 2","nom":"Zona industrial Llobatona","codi_icgc":"083015 SI07 BLL 2","categoria":"Sector industrial","codi_municipi":"083015","municipi":"Viladecans","codi_comarca":"11","comarca":"Baix Llobregat","provincia":"Barcelona","font":"ICGC Àrees de poblament v3r1 202602"},"geometry":{"type":"MultiPolygon","coordinates":[[[[2.022546,41.309038],[2.022577,41.309057],[2.022594,41.309069],[2.023043,41.309375],[2.023591,41.309738],[2.023937,41.309973],[2.024285,41.3102],[2.024319,41.310212],[2.024355,41.31022],[2.024392,41.310221],[2.024429,41.310217],[2.024464,41.310207],[2.024496,41.310192],[2.024523,41.310173],[2.024615,41.310053],[2.024905,41.309678],[2.024951,41.309617],[2.024975,41.309585],[2.025085,41.309432],[2.025113,41.309394],[2.025202,41.309284],[2.025257,41.309214],[2.025411,41.309023],[2.025416,41.308884],[2.025387,41.308873],[2.024739,41.308648],[2.024739,41.308648],[2.024467,41.308554],[2.023838,41.308337],[2.02339,41.308181],[2.023252,41.308133],[2.02118,41.307418],[2.021094,41.307388],[2.021075,41.307381],[2.021038,41.307381],[2.021006,41.307389],[2.020817,41.307562],[2.020683,41.307685],[2.020686,41.307687],[2.020652,41.307719],[2.020642,41.307755],[2.020655,41.307785],[2.020922,41.307962],[2.021621,41.308428],[2.021694,41.308477],[2.021776,41.308532],[2.021794,41.308544],[2.022159,41.308781],[2.02247,41.308994],[2.022522,41.309024],[2.022546,41.309038]]]]}},{"type":"Feature","id":"083015_083015 AP03 BLL 2","properties":{"area_id":"083015_083015 AP03 BLL 2","nom":"la Colònia Montserrat","codi_icgc":"083015 AP03 BLL 2","categoria":"Àrees de poblament","codi_municipi":"083015","municipi":"Viladecans","codi_comarca":"11","comarca":"Baix Llobregat","provincia":"Barcelona","font":"ICGC Àrees de poblament v3r1 202602"},"geometry":{"type":"MultiPolygon","coordinates":[[[[2.04779,41.305818],[2.047717,41.305927],[2.047643,41.306036],[2.0476,41.306103],[2.04762,41.306111],[2.047623,41.306112],[2.047656,41.306125],[2.048156,41.306295],[2.048376,41.306004],[2.048456,41.305905],[2.048255,41.305847],[2.047939,41.305742],[2.047929,41.305737],[2.047861,41.305707],[2.04779,41.305818]]]]}}]}