{"type":"FeatureCollection","name":"ICGC Àrees de poblament - Sant Julià de Cerdanyola","features":[{"type":"Feature","id":"089030_089030 AP01 BER 3","properties":{"area_id":"089030_089030 AP01 BER 3","nom":"Sant Julià de Cerdanyola","codi_icgc":"089030 AP01 BER 3","categoria":"Àrees de poblament","codi_municipi":"089030","municipi":"Sant Julià de Cerdanyola","codi_comarca":"14","comarca":"Berguedà","provincia":"Barcelona","font":"ICGC Àrees de poblament v3r1 202602"},"geometry":{"type":"MultiPolygon","coordinates":[[[[1.89476,42.222564],[1.894692,42.222592],[1.894666,42.222602],[1.894625,42.222619],[1.89449,42.222658],[1.894483,42.22266],[1.894456,42.222664],[1.894429,42.222663],[1.894404,42.222655],[1.894328,42.222594],[1.894092,42.222376],[1.894031,42.222319],[1.893666,42.222044],[1.893614,42.222005],[1.893587,42.221987],[1.893559,42.221969],[1.893545,42.221958],[1.89348,42.221952],[1.893465,42.221959],[1.8934,42.221991],[1.893398,42.221993],[1.893372,42.222013],[1.893351,42.222029],[1.893309,42.222037],[1.893292,42.222027],[1.893103,42.221913],[1.892906,42.222078],[1.892806,42.22216],[1.892716,42.222234],[1.892706,42.222243],[1.892462,42.222442],[1.892309,42.222569],[1.892288,42.222584],[1.892227,42.222627],[1.892215,42.222618],[1.892187,42.222635],[1.892125,42.222675],[1.892079,42.222704],[1.892054,42.222719],[1.892028,42.222735],[1.891948,42.222788],[1.891908,42.2228],[1.891844,42.222781],[1.891796,42.222745],[1.891734,42.222655],[1.891809,42.222616],[1.891799,42.222606],[1.891789,42.222597],[1.891752,42.222561],[1.891733,42.222541],[1.89173,42.222537],[1.891725,42.222531],[1.891687,42.222528],[1.891543,42.222582],[1.891478,42.222587],[1.891414,42.22258],[1.891399,42.222574],[1.891328,42.222508],[1.891195,42.222304],[1.891108,42.222232],[1.891061,42.222142],[1.89107,42.222122],[1.891139,42.221965],[1.89115,42.22195],[1.89119,42.221916],[1.891256,42.221851],[1.891271,42.221821],[1.891093,42.221729],[1.891096,42.221726],[1.891073,42.22171],[1.891249,42.221465],[1.891275,42.221414],[1.891268,42.221361],[1.891213,42.221307],[1.891149,42.221299],[1.891017,42.221341],[1.89088,42.221437],[1.890798,42.221385],[1.89077,42.221377],[1.890743,42.221464],[1.890745,42.221518],[1.890772,42.221583],[1.89081,42.221631],[1.890822,42.221675],[1.890777,42.221747],[1.890732,42.221788],[1.890357,42.222137],[1.890746,42.222162],[1.890749,42.222162],[1.890739,42.222209],[1.890742,42.222304],[1.890771,42.222411],[1.890825,42.222554],[1.8908,42.222559],[1.890769,42.222565],[1.890682,42.222455],[1.890549,42.222516],[1.890424,42.222393],[1.890325,42.222438],[1.890243,42.222375],[1.89037,42.222272],[1.890274,42.222217],[1.890215,42.222252],[1.890205,42.222258],[1.889967,42.222124],[1.889946,42.222162],[1.889779,42.22238],[1.889749,42.222422],[1.889693,42.222387],[1.889641,42.222372],[1.889608,42.222363],[1.889398,42.222302],[1.889396,42.222305],[1.889193,42.222573],[1.889331,42.222613],[1.88945,42.222524],[1.889458,42.222513],[1.889622,42.222576],[1.889617,42.222589],[1.889606,42.222647],[1.889598,42.222692],[1.889586,42.222762],[1.889604,42.222857],[1.889595,42.222896],[1.889603,42.222921],[1.889607,42.222935],[1.889664,42.22293],[1.889671,42.222939],[1.88975,42.223081],[1.889777,42.223111],[1.889999,42.223352],[1.890122,42.223458],[1.890148,42.223471],[1.890173,42.223481],[1.89021,42.223496],[1.890417,42.223587],[1.890414,42.22359],[1.890321,42.223708],[1.89063,42.223825],[1.890725,42.223853],[1.890821,42.223733],[1.890928,42.223793],[1.890958,42.223769],[1.891162,42.223863],[1.891222,42.223868],[1.891333,42.223927],[1.891276,42.223986],[1.89119,42.224014],[1.89141,42.224142],[1.891546,42.224236],[1.891599,42.224436],[1.891598,42.224436],[1.891558,42.224445],[1.891411,42.224478],[1.891443,42.224593],[1.891573,42.224574],[1.891606,42.224569],[1.891618,42.224568],[1.891692,42.224559],[1.891705,42.224557],[1.891917,42.22453],[1.892178,42.224594],[1.892351,42.224637],[1.892403,42.224518],[1.892407,42.224508],[1.892439,42.22444],[1.892448,42.224421],[1.892464,42.224247],[1.892411,42.224233],[1.892241,42.224188],[1.892287,42.224094],[1.892218,42.224079],[1.892276,42.22397],[1.89229,42.223954],[1.892487,42.223827],[1.892519,42.223851],[1.892542,42.223871],[1.892628,42.223934],[1.892568,42.224122],[1.892577,42.224124],[1.892707,42.224151],[1.892696,42.224189],[1.892819,42.224214],[1.89282,42.224254],[1.892892,42.224255],[1.892996,42.22426],[1.893,42.22425],[1.893009,42.224243],[1.893025,42.224242],[1.893024,42.224233],[1.893035,42.224227],[1.89305,42.224221],[1.893079,42.224215],[1.893124,42.224209],[1.893147,42.224203],[1.893167,42.224192],[1.893181,42.224181],[1.893185,42.224175],[1.893186,42.224169],[1.893183,42.224162],[1.893173,42.22415],[1.89316,42.224139],[1.89316,42.224095],[1.893173,42.224096],[1.893181,42.224094],[1.893336,42.224057],[1.893345,42.224055],[1.893403,42.224038],[1.893402,42.224025],[1.893398,42.223986],[1.893397,42.22398],[1.893395,42.223959],[1.893481,42.223918],[1.893469,42.223891],[1.89342,42.223779],[1.893437,42.223756],[1.893452,42.223735],[1.893527,42.22375],[1.89356,42.223784],[1.893565,42.223789],[1.893787,42.223675],[1.893921,42.223605],[1.893934,42.223599],[1.893944,42.223593],[1.893973,42.223579],[1.893999,42.223565],[1.894023,42.223553],[1.894031,42.223556],[1.894135,42.223592],[1.894158,42.2236],[1.894163,42.223602],[1.894234,42.223627],[1.894416,42.223489],[1.89441,42.223418],[1.894371,42.223384],[1.894365,42.223379],[1.894196,42.223285],[1.894145,42.223285],[1.89408,42.223319],[1.893979,42.223271],[1.893946,42.223255],[1.893822,42.223195],[1.893845,42.223179],[1.893869,42.223163],[1.89391,42.223135],[1.893953,42.223107],[1.894037,42.223052],[1.894061,42.223032],[1.894081,42.22301],[1.894118,42.222963],[1.894147,42.222934],[1.894184,42.222902],[1.894226,42.222874],[1.894272,42.222849],[1.894318,42.222823],[1.894381,42.222796],[1.894659,42.222686],[1.894673,42.22268],[1.894701,42.222672],[1.894706,42.222672],[1.89471,42.222672],[1.89473,42.22267],[1.894742,42.222672],[1.89476,42.222674],[1.894787,42.222683],[1.894861,42.22272],[1.894884,42.222731],[1.894897,42.222737],[1.894779,42.222878],[1.894763,42.222902],[1.894745,42.222929],[1.894704,42.222989],[1.894687,42.223018],[1.894592,42.22317],[1.89453,42.223388],[1.894529,42.223392],[1.894541,42.223441],[1.894737,42.223472],[1.894745,42.223496],[1.894759,42.22352],[1.894778,42.22354],[1.894793,42.223551],[1.894713,42.223733],[1.89474,42.223741],[1.894767,42.22375],[1.894814,42.223768],[1.894884,42.223798],[1.894899,42.223803],[1.894916,42.223814],[1.895043,42.223891],[1.895081,42.223914],[1.895094,42.223922],[1.895173,42.223679],[1.895189,42.223685],[1.8952,42.223687],[1.89521,42.223683],[1.895229,42.223662],[1.895242,42.22364],[1.895261,42.223594],[1.895296,42.223514],[1.895797,42.22361],[1.895787,42.223643],[1.895739,42.223796],[1.89571,42.223879],[1.895676,42.223961],[1.895648,42.224014],[1.895618,42.224066],[1.895591,42.224104],[1.895577,42.224107],[1.895588,42.224113],[1.895647,42.224149],[1.895659,42.224141],[1.89566,42.224148],[1.895666,42.224157],[1.895692,42.224176],[1.895715,42.224186],[1.895786,42.224206],[1.895924,42.224244],[1.895932,42.224247],[1.895942,42.224249],[1.895946,42.22425],[1.895999,42.224137],[1.896042,42.22406],[1.896103,42.223972],[1.896337,42.224127],[1.896447,42.224029],[1.896453,42.224009],[1.89647,42.223978],[1.896481,42.223966],[1.896506,42.223951],[1.896547,42.223932],[1.896567,42.223921],[1.896585,42.223908],[1.896608,42.223884],[1.896617,42.223872],[1.896652,42.22384],[1.896654,42.223842],[1.896747,42.223797],[1.896764,42.223796],[1.896915,42.223888],[1.896986,42.223932],[1.897307,42.223652],[1.897511,42.223467],[1.897596,42.223391],[1.897687,42.223322],[1.897676,42.223314],[1.897621,42.223278],[1.89744,42.223248],[1.897396,42.223239],[1.897334,42.223227],[1.897231,42.22317],[1.896981,42.223303],[1.896851,42.22341],[1.896796,42.223365],[1.896711,42.223298],[1.896643,42.223252],[1.89662,42.223235],[1.896609,42.223234],[1.896598,42.223231],[1.896579,42.223219],[1.896553,42.223197],[1.896527,42.223173],[1.896423,42.223085],[1.896369,42.22304],[1.896312,42.222996],[1.896287,42.222979],[1.896274,42.222974],[1.896261,42.222975],[1.896168,42.223017],[1.896052,42.223076],[1.896073,42.223042],[1.896102,42.223004],[1.896125,42.222962],[1.896128,42.222941],[1.896125,42.22292],[1.896117,42.222895],[1.896096,42.22286],[1.895965,42.222799],[1.895983,42.222778],[1.89602,42.222734],[1.896126,42.222674],[1.896252,42.222572],[1.89629,42.222542],[1.896353,42.222491],[1.89639,42.222463],[1.89631,42.222375],[1.896458,42.222283],[1.896471,42.222257],[1.896476,42.222168],[1.896402,42.222097],[1.89633,42.222094],[1.896307,42.222106],[1.896071,42.222208],[1.896018,42.222099],[1.896016,42.222091],[1.896015,42.222062],[1.896015,42.222039],[1.896015,42.222028],[1.896015,42.222013],[1.896015,42.221994],[1.896014,42.221956],[1.896008,42.221956],[1.895965,42.221952],[1.895924,42.221945],[1.895884,42.221932],[1.895804,42.221909],[1.895724,42.221887],[1.895653,42.221863],[1.895583,42.221838],[1.89554,42.221822],[1.895498,42.221807],[1.895477,42.221762],[1.894612,42.2214],[1.894342,42.221283],[1.894068,42.221183],[1.894017,42.221236],[1.893884,42.221336],[1.894646,42.221676],[1.894802,42.221745],[1.89483,42.221758],[1.895136,42.221872],[1.895396,42.22196],[1.895406,42.221954],[1.895541,42.22201],[1.895603,42.22198],[1.89567,42.221911],[1.895708,42.221917],[1.895788,42.22194],[1.895825,42.22195],[1.895832,42.221963],[1.895831,42.221977],[1.895823,42.221989],[1.895809,42.221997],[1.895798,42.222],[1.89579,42.222002],[1.895721,42.222018],[1.895652,42.222037],[1.895519,42.222081],[1.895453,42.222107],[1.895392,42.222138],[1.895336,42.222172],[1.89526,42.222237],[1.89522,42.222275],[1.89514,42.222286],[1.894955,42.222342],[1.894891,42.222367],[1.894722,42.222308],[1.894747,42.222245],[1.894629,42.222227],[1.894542,42.222512],[1.894802,42.222547],[1.89476,42.222564]]]]}}]}