{"type":"FeatureCollection","name":"ICGC Àrees de poblament - Albons","features":[{"type":"Feature","id":"170046_170046 AP01 BEM 3","properties":{"area_id":"170046_170046 AP01 BEM 3","nom":"Albons","codi_icgc":"170046 AP01 BEM 3","categoria":"Àrees de poblament","codi_municipi":"170046","municipi":"Albons","codi_comarca":"10","comarca":"Baix Empordà","provincia":"Girona","font":"ICGC Àrees de poblament v3r1 202602"},"geometry":{"type":"MultiPolygon","coordinates":[[[[3.086018,42.108358],[3.085723,42.107931],[3.08573,42.107898],[3.085772,42.107751],[3.085777,42.10707],[3.08604,42.107084],[3.086219,42.107103],[3.086464,42.107124],[3.086515,42.107134],[3.086573,42.107145],[3.086928,42.106734],[3.086971,42.106354],[3.086908,42.10635],[3.086933,42.105879],[3.086973,42.105889],[3.08699,42.105894],[3.087006,42.10587],[3.087145,42.10566],[3.087294,42.105703],[3.087467,42.105754],[3.087504,42.105765],[3.087608,42.105579],[3.087632,42.105535],[3.087608,42.105528],[3.087532,42.105503],[3.08742,42.105467],[3.087422,42.105463],[3.087429,42.10545],[3.08744,42.105429],[3.087643,42.105049],[3.087635,42.105045],[3.087527,42.105025],[3.08742,42.105003],[3.087406,42.105],[3.087393,42.104996],[3.08739,42.104994],[3.087385,42.104986],[3.087385,42.104976],[3.087406,42.104915],[3.087428,42.104854],[3.087445,42.104789],[3.087458,42.104724],[3.087466,42.104614],[3.087463,42.104505],[3.087449,42.104325],[3.087438,42.104192],[3.087435,42.104146],[3.087419,42.103989],[3.087384,42.103812],[3.08734,42.103637],[3.08728,42.103401],[3.087217,42.103164],[3.087198,42.103103],[3.087184,42.103056],[3.087167,42.102952],[3.08716,42.102933],[3.087159,42.102928],[3.087256,42.102929],[3.087261,42.102929],[3.087355,42.102929],[3.087371,42.102929],[3.087364,42.10287],[3.08736,42.10284],[3.087362,42.102783],[3.087357,42.102742],[3.087344,42.102702],[3.087324,42.102664],[3.087297,42.102628],[3.087269,42.1026],[3.087084,42.10245],[3.087011,42.102391],[3.086711,42.102144],[3.086521,42.102031],[3.086537,42.102],[3.08667,42.101752],[3.086256,42.101583],[3.085945,42.101466],[3.085905,42.101452],[3.085906,42.101414],[3.085906,42.101393],[3.085907,42.101373],[3.085908,42.101354],[3.085913,42.101268],[3.085915,42.101251],[3.085927,42.101155],[3.085957,42.100986],[3.085996,42.100818],[3.086008,42.100775],[3.085578,42.100683],[3.085266,42.10066],[3.084895,42.100664],[3.084615,42.100657],[3.084556,42.100656],[3.084327,42.100647],[3.084316,42.100647],[3.084298,42.100645],[3.08408,42.100624],[3.083843,42.100595],[3.08363,42.100567],[3.083418,42.100537],[3.083278,42.100514],[3.083129,42.100482],[3.082982,42.100444],[3.082886,42.100415],[3.082675,42.100351],[3.082464,42.100287],[3.082246,42.100231],[3.082026,42.100182],[3.081877,42.100151],[3.081795,42.100138],[3.08171,42.100133],[3.081646,42.100125],[3.081605,42.10012],[3.08154,42.10018],[3.081507,42.10021],[3.081511,42.100231],[3.081195,42.10055],[3.081129,42.100614],[3.080751,42.100995],[3.080708,42.101036],[3.080709,42.10104],[3.080736,42.101055],[3.080839,42.10112],[3.080998,42.101212],[3.081154,42.101306],[3.08121,42.101343],[3.081264,42.101381],[3.081277,42.101402],[3.08125,42.10143],[3.081248,42.101432],[3.081225,42.101444],[3.080919,42.101595],[3.080631,42.101767],[3.080466,42.101866],[3.080443,42.101873],[3.080387,42.101889],[3.080378,42.101901],[3.080397,42.101902],[3.080424,42.10194],[3.080462,42.101992],[3.08065,42.10224],[3.080839,42.102488],[3.080868,42.102532],[3.080897,42.102578],[3.080906,42.10259],[3.080919,42.102604],[3.080922,42.102609],[3.080938,42.10262],[3.080942,42.102623],[3.080964,42.102634],[3.081189,42.102705],[3.081415,42.102769],[3.081599,42.102821],[3.081786,42.102869],[3.08183,42.10288],[3.081873,42.102889],[3.081892,42.102894],[3.081912,42.102901],[3.082043,42.10293],[3.082035,42.102942],[3.081881,42.102996],[3.081639,42.103081],[3.081896,42.103584],[3.08072,42.104012],[3.080468,42.104101],[3.080414,42.104121],[3.080408,42.104123],[3.080234,42.104186],[3.080216,42.104192],[3.079845,42.104317],[3.079605,42.104398],[3.079383,42.104473],[3.079184,42.10454],[3.079192,42.104556],[3.079245,42.104661],[3.079303,42.104784],[3.079302,42.104792],[3.079339,42.10486],[3.079295,42.104879],[3.079294,42.104883],[3.079285,42.104996],[3.079258,42.105306],[3.079229,42.105639],[3.079235,42.105642],[3.079856,42.105597],[3.080043,42.10556],[3.079967,42.10581],[3.079981,42.105973],[3.07999,42.106022],[3.080196,42.106001],[3.080335,42.10598],[3.080359,42.106143],[3.080367,42.106224],[3.080542,42.106466],[3.080702,42.10645],[3.080779,42.106444],[3.080811,42.106441],[3.080814,42.106403],[3.080816,42.106364],[3.08083,42.10607],[3.080824,42.106044],[3.080957,42.10602],[3.081089,42.105997],[3.081112,42.105993],[3.081196,42.10597],[3.081284,42.105965],[3.081469,42.105956],[3.081478,42.106159],[3.08148,42.106224],[3.081544,42.106531],[3.081579,42.106573],[3.08182,42.106579],[3.081834,42.106579],[3.081841,42.10642],[3.081842,42.106382],[3.081979,42.106382],[3.082334,42.106369],[3.08247,42.106416],[3.082443,42.106578],[3.082425,42.106721],[3.082419,42.106742],[3.082848,42.106832],[3.082957,42.106585],[3.083226,42.106627],[3.083313,42.106426],[3.083088,42.106361],[3.083094,42.106342],[3.083116,42.106266],[3.082879,42.106239],[3.082765,42.106233],[3.082676,42.105932],[3.082688,42.105772],[3.083006,42.105779],[3.082996,42.10546],[3.082695,42.105467],[3.082772,42.105284],[3.083197,42.105303],[3.083207,42.105047],[3.083213,42.105048],[3.083214,42.105051],[3.083239,42.105051],[3.083498,42.105049],[3.083505,42.105115],[3.083767,42.105125],[3.083771,42.105272],[3.084103,42.105274],[3.084111,42.105497],[3.084141,42.105815],[3.084144,42.105875],[3.084151,42.10591],[3.084166,42.105944],[3.084197,42.105969],[3.084262,42.106007],[3.084334,42.106036],[3.084396,42.106059],[3.084481,42.106086],[3.084489,42.106112],[3.084305,42.106168],[3.084272,42.106178],[3.084189,42.106524],[3.084178,42.106567],[3.084166,42.106672],[3.084153,42.106774],[3.084217,42.106984],[3.083953,42.106984],[3.083781,42.107113],[3.083696,42.107209],[3.08371,42.107213],[3.083751,42.107323],[3.083752,42.107699],[3.084213,42.107703],[3.084283,42.10777],[3.084607,42.107768],[3.085036,42.108147],[3.085317,42.10848],[3.085393,42.108508],[3.085471,42.1084],[3.085708,42.108351],[3.085801,42.108531],[3.085844,42.108508],[3.08584,42.1085],[3.085846,42.108443],[3.086018,42.108358]]]]}},{"type":"Feature","id":"170046_170046 AP02 BEM 2","properties":{"area_id":"170046_170046 AP02 BEM 2","nom":"la Creu d'Albons","codi_icgc":"170046 AP02 BEM 2","categoria":"Àrees de poblament","codi_municipi":"170046","municipi":"Albons","codi_comarca":"10","comarca":"Baix Empordà","provincia":"Girona","font":"ICGC Àrees de poblament v3r1 202602"},"geometry":{"type":"MultiPolygon","coordinates":[[[[3.070959,42.106535],[3.070986,42.106604],[3.071686,42.106689],[3.071792,42.106696],[3.071831,42.106925],[3.071725,42.107033],[3.071649,42.10714],[3.071735,42.107361],[3.07199,42.107275],[3.072145,42.107223],[3.072555,42.107146],[3.072607,42.107332],[3.072611,42.107343],[3.072747,42.107823],[3.072249,42.108029],[3.07144,42.108432],[3.071036,42.108649],[3.071017,42.108661],[3.070713,42.108406],[3.070482,42.108463],[3.070572,42.108863],[3.070705,42.108811],[3.070763,42.108937],[3.070866,42.109061],[3.070931,42.10914],[3.071043,42.109104],[3.071494,42.108958],[3.071513,42.108991],[3.071607,42.109156],[3.071757,42.109513],[3.07225,42.109389],[3.072134,42.109139],[3.072173,42.109034],[3.072198,42.108881],[3.072288,42.108729],[3.072403,42.108643],[3.072492,42.108557],[3.072402,42.108386],[3.072902,42.108349],[3.073121,42.108333],[3.073631,42.108299],[3.074782,42.108176],[3.074747,42.108018],[3.074719,42.107888],[3.074334,42.107942],[3.074117,42.107965],[3.074018,42.107599],[3.073991,42.107549],[3.073745,42.107555],[3.07372,42.10747],[3.073643,42.107403],[3.073604,42.107174],[3.07363,42.107079],[3.074116,42.106866],[3.073999,42.106602],[3.07368,42.10664],[3.073501,42.106641],[3.073463,42.106602],[3.073434,42.106495],[3.073402,42.106373],[3.073347,42.106159],[3.072876,42.106231],[3.072767,42.10623],[3.072861,42.106479],[3.072823,42.106517],[3.072746,42.106508],[3.072515,42.106489],[3.072349,42.106479],[3.072205,42.106099],[3.072127,42.105896],[3.071609,42.105986],[3.071709,42.10627],[3.071568,42.106289],[3.071148,42.10632],[3.071043,42.106432],[3.070959,42.106535]]]]}}]}