{"type":"FeatureCollection","name":"ICGC Àrees de poblament - Agullana","features":[{"type":"Feature","id":"170010_170010 AP01 AEM 3","properties":{"area_id":"170010_170010 AP01 AEM 3","nom":"Agullana","codi_icgc":"170010 AP01 AEM 3","categoria":"Àrees de poblament","codi_municipi":"170010","municipi":"Agullana","codi_comarca":"02","comarca":"Alt Empordà","provincia":"Girona","font":"ICGC Àrees de poblament v3r1 202602"},"geometry":{"type":"MultiPolygon","coordinates":[[[[2.845399,42.396907],[2.845519,42.396748],[2.845555,42.396701],[2.845589,42.396606],[2.845639,42.396522],[2.846108,42.396028],[2.846261,42.395858],[2.846285,42.395832],[2.846314,42.395796],[2.846519,42.395858],[2.846568,42.395873],[2.846576,42.395865],[2.846583,42.395858],[2.846626,42.395817],[2.846732,42.395696],[2.846743,42.395683],[2.846859,42.395546],[2.846891,42.395509],[2.847015,42.395528],[2.847019,42.395548],[2.847018,42.395579],[2.847012,42.395599],[2.846996,42.395634],[2.846966,42.395687],[2.84695,42.395705],[2.84694,42.395714],[2.84688,42.395781],[2.846839,42.395833],[2.846826,42.395858],[2.846822,42.395865],[2.846814,42.395899],[2.846813,42.395933],[2.846819,42.395967],[2.846833,42.396],[2.846839,42.396007],[2.846848,42.396021],[2.846758,42.39609],[2.846636,42.396284],[2.846842,42.396401],[2.847125,42.396534],[2.847238,42.39654],[2.847274,42.396498],[2.847331,42.396401],[2.847419,42.396288],[2.847488,42.396202],[2.84752,42.396113],[2.847525,42.39601],[2.847517,42.395922],[2.847476,42.395888],[2.847372,42.395858],[2.84738,42.395811],[2.847384,42.395766],[2.8474,42.395539],[2.8474,42.395534],[2.847421,42.395535],[2.847472,42.395539],[2.847501,42.395541],[2.847625,42.39555],[2.847645,42.395425],[2.847678,42.395387],[2.84768,42.395373],[2.847684,42.39535],[2.847714,42.395147],[2.847722,42.39512],[2.847961,42.395124],[2.848119,42.395275],[2.848146,42.395302],[2.848148,42.395305],[2.848175,42.395278],[2.848323,42.395154],[2.848328,42.39515],[2.848429,42.395071],[2.848486,42.395025],[2.848578,42.394933],[2.848609,42.394894],[2.84863,42.394847],[2.848636,42.39482],[2.848639,42.394794],[2.848636,42.394768],[2.848625,42.394742],[2.848614,42.39473],[2.848601,42.394721],[2.848574,42.394705],[2.848538,42.394693],[2.848531,42.394636],[2.848511,42.394588],[2.848491,42.394545],[2.848482,42.39454],[2.848604,42.394486],[2.848636,42.394472],[2.848676,42.394458],[2.849143,42.39422],[2.849144,42.39422],[2.849238,42.394174],[2.84934,42.394125],[2.849389,42.394108],[2.849591,42.394],[2.849726,42.393941],[2.849747,42.393929],[2.849818,42.39389],[2.849826,42.393886],[2.849844,42.393878],[2.849903,42.393812],[2.850016,42.39364],[2.850005,42.393606],[2.85,42.39359],[2.849946,42.393571],[2.849908,42.393558],[2.849802,42.393518],[2.849769,42.393507],[2.84956,42.393444],[2.84931,42.393371],[2.84917,42.393325],[2.849125,42.393311],[2.849076,42.393295],[2.849051,42.393288],[2.849028,42.393314],[2.848958,42.393301],[2.848941,42.393243],[2.848936,42.393241],[2.848965,42.39318],[2.848909,42.393167],[2.848914,42.393157],[2.848863,42.393146],[2.848862,42.393145],[2.848854,42.393144],[2.848872,42.393121],[2.848907,42.393103],[2.849052,42.393103],[2.849196,42.393121],[2.849256,42.393121],[2.849339,42.393098],[2.849234,42.392963],[2.849219,42.392964],[2.849217,42.392961],[2.849184,42.39292],[2.848983,42.392934],[2.848814,42.392952],[2.848714,42.392955],[2.848637,42.392931],[2.848549,42.392832],[2.848425,42.392701],[2.84826,42.392558],[2.84806,42.39243],[2.847907,42.392337],[2.847655,42.392227],[2.847492,42.392154],[2.847496,42.39215],[2.847627,42.392025],[2.847531,42.391976],[2.847673,42.391884],[2.847706,42.391861],[2.847749,42.391828],[2.847775,42.391822],[2.847805,42.391822],[2.847854,42.391842],[2.847935,42.391881],[2.848108,42.391976],[2.84834,42.392104],[2.848375,42.392114],[2.848414,42.392162],[2.848428,42.392175],[2.848447,42.392193],[2.848468,42.392207],[2.848495,42.392221],[2.848532,42.392238],[2.848571,42.392254],[2.848601,42.392262],[2.848632,42.392267],[2.848703,42.392269],[2.848773,42.392272],[2.848892,42.392279],[2.849011,42.392288],[2.848996,42.392477],[2.849342,42.392478],[2.849346,42.39238],[2.849348,42.392335],[2.849349,42.392313],[2.849351,42.392288],[2.849338,42.392283],[2.849334,42.392282],[2.849324,42.39228],[2.849313,42.392278],[2.849299,42.392277],[2.849286,42.392278],[2.849262,42.392278],[2.849238,42.392278],[2.849126,42.392273],[2.849014,42.392266],[2.848894,42.392258],[2.848775,42.39225],[2.848704,42.392247],[2.848635,42.392245],[2.848609,42.392241],[2.848583,42.392234],[2.848547,42.392219],[2.848511,42.392202],[2.848485,42.39219],[2.848462,42.392176],[2.848451,42.392167],[2.84843,42.392141],[2.848418,42.392125],[2.848431,42.392129],[2.848476,42.392155],[2.848515,42.392169],[2.848528,42.392171],[2.848551,42.392174],[2.848587,42.392175],[2.848906,42.392166],[2.848884,42.392133],[2.848924,42.392069],[2.849316,42.391832],[2.84963,42.39164],[2.849811,42.39151],[2.849848,42.391473],[2.849883,42.391452],[2.849886,42.391426],[2.849873,42.391421],[2.849489,42.391281],[2.849451,42.391329],[2.849398,42.391401],[2.849335,42.391416],[2.849322,42.391419],[2.849321,42.391411],[2.849232,42.391385],[2.849072,42.391255],[2.849044,42.391231],[2.848844,42.391039],[2.84881,42.391056],[2.848661,42.390938],[2.848612,42.390968],[2.848273,42.390666],[2.848159,42.390727],[2.847989,42.390589],[2.847731,42.390768],[2.847397,42.390508],[2.847622,42.39034],[2.847653,42.390317],[2.847868,42.390157],[2.847893,42.390141],[2.847891,42.390136],[2.847869,42.3901],[2.847865,42.390093],[2.847872,42.390097],[2.848148,42.389903],[2.848215,42.389832],[2.848224,42.389814],[2.84823,42.389804],[2.848231,42.389781],[2.848236,42.389737],[2.848224,42.389591],[2.848225,42.389562],[2.848237,42.389449],[2.84824,42.389437],[2.848249,42.389428],[2.848015,42.389371],[2.848015,42.389383],[2.847833,42.389344],[2.847645,42.389304],[2.847552,42.389275],[2.847509,42.389263],[2.847477,42.389254],[2.847364,42.389413],[2.847349,42.389426],[2.847261,42.389493],[2.847178,42.389551],[2.847133,42.389569],[2.846997,42.389669],[2.84683,42.389792],[2.846808,42.389808],[2.846804,42.38981],[2.846717,42.389856],[2.846705,42.389862],[2.846674,42.389878],[2.846686,42.389898],[2.846814,42.390106],[2.846814,42.390106],[2.846798,42.390147],[2.846665,42.390313],[2.846426,42.390661],[2.846398,42.390702],[2.846234,42.390717],[2.846181,42.390822],[2.846407,42.390932],[2.846486,42.390969],[2.846559,42.391003],[2.84657,42.390989],[2.846877,42.390618],[2.847064,42.3904],[2.84707,42.390397],[2.847085,42.390394],[2.847102,42.390394],[2.847114,42.390394],[2.847125,42.390395],[2.847137,42.390399],[2.847339,42.390574],[2.847329,42.390606],[2.847178,42.390909],[2.84722,42.391088],[2.847232,42.391092],[2.847237,42.39117],[2.847208,42.391297],[2.847093,42.391609],[2.847079,42.391633],[2.847037,42.391673],[2.847011,42.391696],[2.846954,42.391754],[2.846902,42.391841],[2.846887,42.39182],[2.846867,42.391793],[2.846848,42.391791],[2.846837,42.391783],[2.846806,42.391764],[2.846764,42.391744],[2.846718,42.391729],[2.846628,42.391708],[2.846538,42.391688],[2.846444,42.391666],[2.846351,42.391644],[2.846322,42.391639],[2.846292,42.391636],[2.846287,42.391636],[2.846216,42.391553],[2.846126,42.391591],[2.845933,42.391667],[2.845855,42.391791],[2.845833,42.391803],[2.845791,42.391826],[2.845598,42.391934],[2.845469,42.391829],[2.845427,42.391718],[2.845394,42.391632],[2.845393,42.39163],[2.845236,42.391437],[2.845194,42.391362],[2.845174,42.391327],[2.845159,42.3913],[2.845128,42.391248],[2.845114,42.391223],[2.845048,42.391291],[2.844953,42.391406],[2.844816,42.39157],[2.844712,42.39172],[2.844475,42.391648],[2.844429,42.391611],[2.844416,42.391601],[2.844391,42.391572],[2.844426,42.391519],[2.844514,42.391386],[2.84454,42.391262],[2.844489,42.391119],[2.844316,42.390923],[2.844192,42.390869],[2.844283,42.390724],[2.844718,42.390459],[2.844716,42.390429],[2.84499,42.390285],[2.845015,42.390272],[2.844989,42.390245],[2.844976,42.390199],[2.844806,42.390014],[2.844353,42.390244],[2.844051,42.390563],[2.844036,42.390577],[2.843994,42.390635],[2.843775,42.39091],[2.843327,42.391493],[2.843015,42.391898],[2.842802,42.391797],[2.842779,42.391786],[2.842578,42.391688],[2.842531,42.391673],[2.842397,42.391629],[2.842299,42.391584],[2.842292,42.391581],[2.842246,42.391612],[2.842021,42.391886],[2.841867,42.39207],[2.841783,42.392186],[2.841736,42.392238],[2.841731,42.392283],[2.841789,42.392328],[2.841897,42.392373],[2.842029,42.392419],[2.842029,42.392419],[2.842155,42.392474],[2.842287,42.392551],[2.842442,42.392643],[2.842565,42.392687],[2.842785,42.392763],[2.842841,42.39295],[2.842876,42.392962],[2.842915,42.392974],[2.842915,42.393001],[2.842915,42.393065],[2.842888,42.393096],[2.842837,42.393157],[2.842833,42.393162],[2.842887,42.393197],[2.84295,42.393269],[2.842967,42.393296],[2.842971,42.393303],[2.842977,42.393326],[2.842981,42.393496],[2.843015,42.393537],[2.843048,42.393578],[2.843053,42.393586],[2.843074,42.393619],[2.843109,42.393681],[2.843144,42.393743],[2.84314,42.39379],[2.843276,42.39379],[2.843353,42.393789],[2.843359,42.393803],[2.84346,42.393798],[2.843528,42.393834],[2.843882,42.394021],[2.844119,42.39414],[2.844324,42.394326],[2.844348,42.39436],[2.844466,42.394462],[2.844549,42.394514],[2.844546,42.394587],[2.84455,42.394588],[2.844565,42.394594],[2.84461,42.39461],[2.844702,42.394644],[2.844715,42.394651],[2.844723,42.394661],[2.844724,42.394674],[2.844719,42.394683],[2.844673,42.394895],[2.844669,42.394909],[2.844666,42.394923],[2.844665,42.394928],[2.84466,42.394953],[2.84464,42.395155],[2.844639,42.395268],[2.844639,42.395278],[2.844637,42.395339],[2.844637,42.395367],[2.844638,42.395396],[2.844643,42.395446],[2.844652,42.395495],[2.844665,42.395544],[2.844677,42.39559],[2.84468,42.395624],[2.84468,42.395659],[2.844679,42.395701],[2.844678,42.395742],[2.844678,42.395761],[2.84469,42.395786],[2.844712,42.395797],[2.844729,42.395801],[2.844743,42.395862],[2.844735,42.395977],[2.8446,42.396117],[2.844595,42.396128],[2.844567,42.396147],[2.844432,42.396261],[2.844432,42.396374],[2.844337,42.396633],[2.844341,42.396733],[2.844348,42.396805],[2.844356,42.396858],[2.84439,42.396921],[2.84445,42.396913],[2.844458,42.396914],[2.844517,42.396923],[2.844546,42.396927],[2.844627,42.396883],[2.844719,42.396871],[2.844814,42.396859],[2.845192,42.397011],[2.845253,42.397047],[2.845279,42.397054],[2.845399,42.396907]]]]}},{"type":"Feature","id":"170010_170010 AP03 AEM 2","properties":{"area_id":"170010_170010 AP03 AEM 2","nom":"Can Genís","codi_icgc":"170010 AP03 AEM 2","categoria":"Àrees de poblament","codi_municipi":"170010","municipi":"Agullana","codi_comarca":"02","comarca":"Alt Empordà","provincia":"Girona","font":"ICGC Àrees de poblament v3r1 202602"},"geometry":{"type":"MultiPolygon","coordinates":[[[[2.830067,42.381373],[2.830078,42.381395],[2.830095,42.381428],[2.830123,42.381453],[2.830155,42.381471],[2.830173,42.381478],[2.830193,42.381481],[2.830209,42.381483],[2.830224,42.381485],[2.830281,42.381508],[2.830299,42.381515],[2.830433,42.381638],[2.830425,42.381646],[2.830849,42.38186],[2.831022,42.381694],[2.830977,42.381676],[2.83088,42.381641],[2.830965,42.381528],[2.830932,42.381471],[2.831155,42.3813],[2.831172,42.381286],[2.831134,42.38125],[2.831004,42.381164],[2.830875,42.38126],[2.830837,42.381243],[2.830757,42.381221],[2.830686,42.38122],[2.830666,42.381222],[2.830644,42.381225],[2.830644,42.381225],[2.830629,42.381219],[2.830563,42.381228],[2.830499,42.381229],[2.830425,42.381192],[2.830405,42.381181],[2.830373,42.381143],[2.830357,42.381134],[2.83035,42.381024],[2.830313,42.381009],[2.8302,42.381134],[2.830141,42.38121],[2.83009,42.38129],[2.830059,42.38134],[2.830067,42.381373]]]]}},{"type":"Feature","id":"170010_170010 SI01 AEM 2","properties":{"area_id":"170010_170010 SI01 AEM 2","nom":"Trull d'Oli Or de l'Albera","codi_icgc":"170010 SI01 AEM 2","categoria":"Sector industrial","codi_municipi":"170010","municipi":"Agullana","codi_comarca":"02","comarca":"Alt Empordà","provincia":"Girona","font":"ICGC Àrees de poblament v3r1 202602"},"geometry":{"type":"MultiPolygon","coordinates":[[[[2.854759,42.389593],[2.854787,42.389926],[2.854871,42.389984],[2.854948,42.389988],[2.855099,42.389977],[2.855221,42.389953],[2.855298,42.389891],[2.855334,42.389829],[2.855337,42.389796],[2.855244,42.389565],[2.854759,42.389593]]]]}},{"type":"Feature","id":"170010_170010 AP04 AEM 2","properties":{"area_id":"170010_170010 AP04 AEM 2","nom":"el Riberal","codi_icgc":"170010 AP04 AEM 2","categoria":"Àrees de poblament","codi_municipi":"170010","municipi":"Agullana","codi_comarca":"02","comarca":"Alt Empordà","provincia":"Girona","font":"ICGC Àrees de poblament v3r1 202602"},"geometry":{"type":"MultiPolygon","coordinates":[[[[2.866938,42.387402],[2.866793,42.387332],[2.866756,42.387314],[2.866757,42.387313],[2.866728,42.387298],[2.866727,42.387299],[2.866712,42.387321],[2.866699,42.387358],[2.866696,42.387394],[2.866603,42.38734],[2.866478,42.387437],[2.866449,42.387455],[2.866616,42.387558],[2.866664,42.38756],[2.866843,42.387571],[2.866938,42.387402]]],[[[2.867301,42.388085],[2.867332,42.387973],[2.867243,42.387964],[2.867202,42.387965],[2.866971,42.387958],[2.866915,42.387939],[2.866915,42.387939],[2.86689,42.387958],[2.866869,42.387969],[2.866846,42.387979],[2.866825,42.387987],[2.866804,42.387992],[2.866776,42.387995],[2.866748,42.387998],[2.866722,42.387999],[2.866697,42.387996],[2.866665,42.387983],[2.866632,42.387968],[2.866594,42.387955],[2.866555,42.387943],[2.866521,42.387937],[2.866487,42.387933],[2.866458,42.387931],[2.866429,42.387931],[2.866402,42.387934],[2.866376,42.387941],[2.86636,42.387949],[2.866313,42.387981],[2.866192,42.38798],[2.866072,42.38799],[2.865942,42.387976],[2.865759,42.387913],[2.865695,42.387955],[2.865574,42.388034],[2.865522,42.388068],[2.865583,42.38812],[2.865614,42.388146],[2.865662,42.388187],[2.865675,42.388178],[2.865835,42.388069],[2.865839,42.388069],[2.866128,42.388096],[2.866144,42.388098],[2.866156,42.388105],[2.866345,42.388215],[2.866378,42.388236],[2.86665,42.388402],[2.866648,42.388502],[2.866641,42.388513],[2.866642,42.388514],[2.866673,42.388544],[2.866754,42.388626],[2.866933,42.388667],[2.866974,42.38867],[2.867011,42.388635],[2.867027,42.388599],[2.867056,42.388493],[2.866961,42.388472],[2.866894,42.388331],[2.866903,42.388299],[2.866923,42.388227],[2.866968,42.388113],[2.867007,42.388088],[2.867301,42.388085]]]]}},{"type":"Feature","id":"170010_170010 AP02 AEM 3","properties":{"area_id":"170010_170010 AP02 AEM 3","nom":"l'Estrada","codi_icgc":"170010 AP02 AEM 3","categoria":"Àrees de poblament","codi_municipi":"170010","municipi":"Agullana","codi_comarca":"02","comarca":"Alt Empordà","provincia":"Girona","font":"ICGC Àrees de poblament v3r1 202602"},"geometry":{"type":"MultiPolygon","coordinates":[[[[2.867693,42.391598],[2.867677,42.391592],[2.867642,42.391635],[2.867686,42.391666],[2.867674,42.391692],[2.867657,42.391742],[2.867635,42.391794],[2.867564,42.391863],[2.867464,42.39197],[2.867448,42.391944],[2.867377,42.391877],[2.867287,42.391825],[2.867284,42.391827],[2.86704,42.392027],[2.867058,42.392074],[2.867065,42.392091],[2.867086,42.392143],[2.867096,42.392168],[2.867192,42.392248],[2.867292,42.392244],[2.867298,42.392239],[2.867284,42.392301],[2.867278,42.392302],[2.867281,42.392314],[2.86729,42.392353],[2.867313,42.392367],[2.867335,42.392375],[2.867342,42.392386],[2.867389,42.392415],[2.867466,42.392445],[2.867633,42.392473],[2.867647,42.392478],[2.86742,42.392667],[2.86737,42.392701],[2.867313,42.392729],[2.867309,42.392731],[2.867271,42.392749],[2.866989,42.392877],[2.866678,42.393032],[2.866502,42.393111],[2.86647,42.393134],[2.866372,42.393207],[2.86635,42.393399],[2.86637,42.393408],[2.866384,42.393418],[2.866398,42.393435],[2.866406,42.393455],[2.866414,42.393482],[2.866419,42.39351],[2.866424,42.393565],[2.866425,42.393584],[2.866449,42.393606],[2.866483,42.39363],[2.866866,42.393911],[2.867077,42.393733],[2.867197,42.393627],[2.86719,42.39361],[2.867169,42.393573],[2.867143,42.393537],[2.867098,42.39347],[2.867053,42.393404],[2.867039,42.393386],[2.866999,42.393364],[2.866964,42.393353],[2.866931,42.393355],[2.867006,42.393314],[2.867058,42.393286],[2.867153,42.393235],[2.867222,42.393192],[2.867255,42.393168],[2.867285,42.393143],[2.867357,42.393075],[2.867429,42.393008],[2.86752,42.392925],[2.867604,42.392836],[2.867658,42.392784],[2.867712,42.392732],[2.867787,42.392656],[2.867859,42.39258],[2.867919,42.392518],[2.867983,42.392457],[2.868005,42.392441],[2.868029,42.392426],[2.868047,42.392416],[2.868065,42.392406],[2.86808,42.392394],[2.868097,42.392374],[2.868112,42.392354],[2.868149,42.392304],[2.868185,42.392252],[2.868221,42.392194],[2.86825,42.392133],[2.868277,42.392066],[2.868302,42.392],[2.868319,42.391953],[2.868322,42.391945],[2.868364,42.391634],[2.86835,42.39162],[2.868342,42.391615],[2.868331,42.391607],[2.868305,42.391597],[2.868266,42.391585],[2.868226,42.391576],[2.868196,42.391573],[2.868155,42.391575],[2.868138,42.391575],[2.868124,42.391571],[2.868109,42.391562],[2.868087,42.391545],[2.868069,42.391524],[2.868044,42.391486],[2.868017,42.391447],[2.868013,42.391443],[2.867999,42.391437],[2.867809,42.391642],[2.867695,42.391595],[2.867693,42.391598]]]]}}]}