{"type":"FeatureCollection","name":"ICGC Àrees de poblament - Cabanelles","features":[{"type":"Feature","id":"170314_170314 AP01 AEM 3","properties":{"area_id":"170314_170314 AP01 AEM 3","nom":"Cabanelles","codi_icgc":"170314 AP01 AEM 3","categoria":"Àrees de poblament","codi_municipi":"170314","municipi":"Cabanelles","codi_comarca":"02","comarca":"Alt Empordà","provincia":"Girona","font":"ICGC Àrees de poblament v3r1 202602"},"geometry":{"type":"MultiPolygon","coordinates":[[[[2.81995,42.229317],[2.819993,42.228979],[2.819985,42.228977],[2.819949,42.228973],[2.819858,42.228975],[2.819808,42.228976],[2.819686,42.228978],[2.819609,42.228976],[2.819597,42.228975],[2.819585,42.228976],[2.819506,42.228971],[2.819442,42.228968],[2.819434,42.228967],[2.819428,42.228967],[2.81942,42.229027],[2.819408,42.229124],[2.819401,42.229192],[2.81939,42.2293],[2.819417,42.229297],[2.819425,42.229298],[2.819418,42.229527],[2.819909,42.229543],[2.819902,42.229575],[2.819862,42.229834],[2.819854,42.22989],[2.819853,42.229901],[2.819852,42.229909],[2.819426,42.229898],[2.819426,42.229963],[2.819425,42.230009],[2.819421,42.230056],[2.819417,42.230087],[2.819414,42.230138],[2.81941,42.230229],[2.819385,42.230519],[2.819394,42.230588],[2.819393,42.230618],[2.819417,42.230698],[2.819394,42.230698],[2.819439,42.230826],[2.819439,42.230831],[2.819499,42.230998],[2.819547,42.231123],[2.819571,42.231241],[2.8196,42.231375],[2.819625,42.231447],[2.819681,42.231504],[2.819726,42.231575],[2.819839,42.231617],[2.819911,42.231644],[2.819975,42.231678],[2.820028,42.231717],[2.820072,42.231728],[2.820128,42.231732],[2.820164,42.231711],[2.820231,42.231656],[2.82028,42.231599],[2.820247,42.23146],[2.820242,42.231326],[2.820238,42.231189],[2.820251,42.231103],[2.820292,42.230999],[2.820421,42.230778],[2.82047,42.230633],[2.820548,42.230319],[2.820652,42.229907],[2.820649,42.229856],[2.820647,42.229799],[2.820609,42.229744],[2.820529,42.229707],[2.820439,42.229683],[2.820411,42.229665],[2.820319,42.229639],[2.820251,42.229626],[2.820138,42.229583],[2.820034,42.229506],[2.819977,42.22945],[2.819944,42.229393],[2.81995,42.229317]]]]}},{"type":"Feature","id":"170314_170314 AP02 AEM 3","properties":{"area_id":"170314_170314 AP02 AEM 3","nom":"Espinavessa","codi_icgc":"170314 AP02 AEM 3","categoria":"Àrees de poblament","codi_municipi":"170314","municipi":"Cabanelles","codi_comarca":"02","comarca":"Alt Empordà","provincia":"Girona","font":"ICGC Àrees de poblament v3r1 202602"},"geometry":{"type":"MultiPolygon","coordinates":[[[[2.84457,42.189269],[2.844707,42.189044],[2.844697,42.18904],[2.844696,42.188948],[2.844863,42.188928],[2.844865,42.188926],[2.844865,42.188911],[2.844849,42.188724],[2.844848,42.188695],[2.844827,42.188695],[2.844836,42.188621],[2.844836,42.188586],[2.844837,42.188551],[2.844847,42.188496],[2.844859,42.188441],[2.844887,42.188287],[2.844935,42.188176],[2.844943,42.188164],[2.844962,42.188137],[2.844872,42.188089],[2.84487,42.18808],[2.844866,42.188066],[2.844789,42.188023],[2.844771,42.188023],[2.844764,42.188026],[2.844759,42.188024],[2.844717,42.188011],[2.844805,42.187942],[2.844814,42.187935],[2.84483,42.187922],[2.844839,42.187906],[2.84484,42.187889],[2.844836,42.187879],[2.844819,42.187857],[2.844796,42.187838],[2.844738,42.187807],[2.844709,42.187794],[2.844679,42.187779],[2.844639,42.187761],[2.844564,42.187843],[2.84455,42.187858],[2.844415,42.188009],[2.844364,42.188084],[2.84435,42.188097],[2.84433,42.188119],[2.844321,42.188136],[2.844315,42.188165],[2.844313,42.188194],[2.844314,42.188242],[2.844313,42.188266],[2.844267,42.188387],[2.844245,42.188419],[2.84422,42.188449],[2.8442,42.188468],[2.844165,42.188495],[2.844135,42.188518],[2.84413,42.188522],[2.844103,42.188544],[2.844066,42.188566],[2.843891,42.188526],[2.843877,42.188525],[2.843871,42.188522],[2.843855,42.188518],[2.843811,42.188506],[2.843692,42.188475],[2.843673,42.18847],[2.843605,42.188455],[2.843536,42.18844],[2.843524,42.188435],[2.843512,42.188431],[2.843506,42.188432],[2.843496,42.188445],[2.843489,42.188463],[2.843475,42.1885],[2.843451,42.18855],[2.843426,42.1886],[2.843421,42.188616],[2.84339,42.188638],[2.843345,42.188686],[2.843299,42.188735],[2.843266,42.188752],[2.843272,42.188774],[2.84327,42.188777],[2.843272,42.188782],[2.843274,42.188786],[2.843276,42.188791],[2.843278,42.188796],[2.84328,42.1888],[2.843281,42.188805],[2.843283,42.18881],[2.843284,42.188815],[2.843284,42.18882],[2.843285,42.188825],[2.843286,42.18883],[2.843286,42.188841],[2.843286,42.188852],[2.843285,42.188862],[2.843285,42.188873],[2.843283,42.188885],[2.843282,42.188889],[2.84328,42.188893],[2.843278,42.188897],[2.843276,42.188899],[2.843274,42.188902],[2.84327,42.188905],[2.843267,42.188907],[2.843263,42.18891],[2.84326,42.188912],[2.843257,42.188915],[2.843254,42.188917],[2.843251,42.188921],[2.843248,42.188925],[2.843246,42.188928],[2.843244,42.188931],[2.843243,42.188934],[2.843242,42.188938],[2.843242,42.18894],[2.843242,42.188943],[2.843242,42.188946],[2.843243,42.188949],[2.843244,42.188951],[2.843246,42.188954],[2.843249,42.188958],[2.843251,42.18896],[2.843276,42.188978],[2.843339,42.189026],[2.843388,42.189063],[2.843395,42.189058],[2.843459,42.189088],[2.843485,42.189099],[2.843512,42.18911],[2.843572,42.189137],[2.843578,42.18914],[2.843629,42.189195],[2.84365,42.189202],[2.843654,42.189204],[2.843708,42.1892],[2.843834,42.189185],[2.844036,42.189209],[2.84404,42.189196],[2.844059,42.1892],[2.844087,42.189192],[2.844115,42.189183],[2.844137,42.189179],[2.84416,42.189179],[2.844207,42.189183],[2.844239,42.189186],[2.84427,42.189191],[2.84433,42.189206],[2.844388,42.189221],[2.844514,42.189258],[2.84456,42.189271],[2.84457,42.189269]]]]}},{"type":"Feature","id":"170314_170314 AP05 AEM 3","properties":{"area_id":"170314_170314 AP05 AEM 3","nom":"Queixàs","codi_icgc":"170314 AP05 AEM 3","categoria":"Àrees de poblament","codi_municipi":"170314","municipi":"Cabanelles","codi_comarca":"02","comarca":"Alt Empordà","provincia":"Girona","font":"ICGC Àrees de poblament v3r1 202602"},"geometry":{"type":"MultiPolygon","coordinates":[[[[2.796278,42.213273],[2.796138,42.213267],[2.796091,42.213276],[2.795991,42.213297],[2.795911,42.213323],[2.795899,42.213377],[2.795903,42.213442],[2.795921,42.213528],[2.795921,42.213574],[2.795921,42.213621],[2.795848,42.213656],[2.795848,42.213662],[2.795848,42.213686],[2.795849,42.213732],[2.795849,42.213773],[2.795929,42.213777],[2.796002,42.213782],[2.79611,42.213794],[2.796217,42.21381],[2.796254,42.21382],[2.796306,42.21384],[2.796338,42.213857],[2.796373,42.213824],[2.796366,42.213821],[2.796372,42.213819],[2.796388,42.21381],[2.796398,42.213797],[2.796399,42.21379],[2.796397,42.213788],[2.796399,42.213781],[2.796404,42.213746],[2.796447,42.213477],[2.796407,42.213452],[2.796348,42.213354],[2.796285,42.213283],[2.796278,42.213273]]],[[[2.798266,42.21442],[2.79829,42.214361],[2.798316,42.214364],[2.798457,42.21438],[2.798502,42.214232],[2.798486,42.214057],[2.798654,42.213973],[2.798872,42.213687],[2.798883,42.213667],[2.799005,42.213565],[2.799005,42.213513],[2.798906,42.213457],[2.798759,42.213365],[2.798746,42.213368],[2.798745,42.213368],[2.798585,42.213469],[2.798352,42.213598],[2.79822,42.21348],[2.798215,42.213461],[2.798211,42.213461],[2.798155,42.213447],[2.798077,42.213429],[2.798024,42.213416],[2.797973,42.213404],[2.797934,42.213439],[2.797887,42.213493],[2.7978,42.213602],[2.797723,42.213708],[2.797652,42.213816],[2.797628,42.213856],[2.797673,42.213884],[2.797679,42.213873],[2.797763,42.213897],[2.797868,42.213958],[2.79788,42.21406],[2.797902,42.2141],[2.797907,42.21411],[2.797979,42.214244],[2.79798,42.214245],[2.79804,42.214305],[2.798084,42.214421],[2.798085,42.214422],[2.798144,42.214429],[2.798258,42.214442],[2.798264,42.214426],[2.798266,42.21442]]],[[[2.795623,42.214279],[2.795547,42.214276],[2.795484,42.214281],[2.795474,42.214281],[2.79534,42.214331],[2.795298,42.214346],[2.795268,42.214357],[2.795268,42.214391],[2.795265,42.214529],[2.795265,42.214536],[2.795265,42.214564],[2.795283,42.214595],[2.795297,42.214619],[2.795271,42.214693],[2.795187,42.214799],[2.795127,42.214919],[2.795031,42.215113],[2.79487,42.215201],[2.794834,42.215286],[2.795337,42.215401],[2.795371,42.215409],[2.795555,42.215452],[2.795594,42.215438],[2.795594,42.215376],[2.795607,42.215333],[2.795618,42.215275],[2.795603,42.215236],[2.795609,42.215146],[2.795609,42.215048],[2.795726,42.214907],[2.795729,42.214903],[2.795728,42.214901],[2.79573,42.214892],[2.795726,42.214879],[2.79572,42.21485],[2.79572,42.21485],[2.795711,42.214812],[2.795703,42.214773],[2.795696,42.214733],[2.795696,42.214717],[2.795702,42.214704],[2.795704,42.214699],[2.79571,42.214686],[2.795712,42.214685],[2.795742,42.214591],[2.795732,42.214588],[2.795755,42.214551],[2.795804,42.214472],[2.79582,42.214417],[2.795781,42.214349],[2.795691,42.214289],[2.795623,42.214279]]]]}},{"type":"Feature","id":"170314_170314 AP04 AEM 3","properties":{"area_id":"170314_170314 AP04 AEM 3","nom":"Sant Martí Sesserres","codi_icgc":"170314 AP04 AEM 3","categoria":"Àrees de poblament","codi_municipi":"170314","municipi":"Cabanelles","codi_comarca":"02","comarca":"Alt Empordà","provincia":"Girona","font":"ICGC Àrees de poblament v3r1 202602"},"geometry":{"type":"MultiPolygon","coordinates":[[[[2.773926,42.259861],[2.774078,42.260055],[2.774334,42.260208],[2.774694,42.260075],[2.774925,42.259962],[2.774942,42.259921],[2.77495,42.259757],[2.774861,42.259704],[2.774752,42.259685],[2.774662,42.259651],[2.774399,42.259594],[2.774202,42.259533],[2.774051,42.25968],[2.773926,42.259861]]]]}},{"type":"Feature","id":"170314_170314 AP06 AEM 3","properties":{"area_id":"170314_170314 AP06 AEM 3","nom":"Sant Mateu","codi_icgc":"170314 AP06 AEM 3","categoria":"Àrees de poblament","codi_municipi":"170314","municipi":"Cabanelles","codi_comarca":"02","comarca":"Alt Empordà","provincia":"Girona","font":"ICGC Àrees de poblament v3r1 202602"},"geometry":{"type":"MultiPolygon","coordinates":[[[[2.794357,42.229174],[2.794514,42.229056],[2.794385,42.228884],[2.794305,42.228789],[2.794186,42.228816],[2.794016,42.228881],[2.79365,42.228998],[2.793514,42.229033],[2.793452,42.229038],[2.793381,42.22904],[2.793308,42.229073],[2.793204,42.229157],[2.793038,42.229296],[2.793026,42.229403],[2.793221,42.22957],[2.793329,42.229659],[2.793394,42.229679],[2.793458,42.229672],[2.793541,42.229637],[2.793593,42.229597],[2.793676,42.229514],[2.79382,42.229433],[2.794003,42.229362],[2.794171,42.22929],[2.794342,42.229185],[2.794357,42.229174]]]]}},{"type":"Feature","id":"170314_170314 AP03 AEM 3","properties":{"area_id":"170314_170314 AP03 AEM 3","nom":"l'Estela","codi_icgc":"170314 AP03 AEM 3","categoria":"Àrees de poblament","codi_municipi":"170314","municipi":"Cabanelles","codi_comarca":"02","comarca":"Alt Empordà","provincia":"Girona","font":"ICGC Àrees de poblament v3r1 202602"},"geometry":{"type":"MultiPolygon","coordinates":[[[[2.782343,42.283361],[2.78278,42.28324],[2.782785,42.2832],[2.782756,42.283098],[2.782669,42.282999],[2.78252,42.282939],[2.782436,42.28292],[2.782376,42.282905],[2.782332,42.282909],[2.782244,42.282924],[2.78222,42.282915],[2.782112,42.28284],[2.782015,42.282772],[2.781968,42.282697],[2.781888,42.282599],[2.781856,42.282584],[2.781796,42.282569],[2.781703,42.282574],[2.781643,42.282592],[2.781556,42.28263],[2.781548,42.282643],[2.781584,42.282803],[2.781622,42.282816],[2.781674,42.282851],[2.781734,42.282872],[2.781786,42.28295],[2.781834,42.28295],[2.781887,42.282908],[2.781935,42.282867],[2.781991,42.282846],[2.782035,42.282861],[2.782035,42.282915],[2.781947,42.282986],[2.78197,42.283049],[2.78205,42.283096],[2.782099,42.283108],[2.782162,42.283207],[2.782255,42.28333],[2.782343,42.283361]]]]}},{"type":"Feature","id":"170314_170314 AP07 AEM 2","properties":{"area_id":"170314_170314 AP07 AEM 2","nom":"la Palma","codi_icgc":"170314 AP07 AEM 2","categoria":"Àrees de poblament","codi_municipi":"170314","municipi":"Cabanelles","codi_comarca":"02","comarca":"Alt Empordà","provincia":"Girona","font":"ICGC Àrees de poblament v3r1 202602"},"geometry":{"type":"MultiPolygon","coordinates":[[[[2.854758,42.191036],[2.854862,42.19106],[2.854979,42.191078],[2.855127,42.191063],[2.855223,42.19101],[2.855384,42.190869],[2.855427,42.190812],[2.855473,42.190742],[2.855547,42.190711],[2.855567,42.190637],[2.85556,42.19058],[2.855522,42.190542],[2.855464,42.19053],[2.855368,42.190535],[2.855265,42.190518],[2.855227,42.19047],[2.855163,42.190494],[2.855064,42.190508],[2.854906,42.190516],[2.854814,42.190503],[2.854763,42.190465],[2.854734,42.190424],[2.854696,42.190396],[2.854571,42.190381],[2.854433,42.190383],[2.854346,42.190426],[2.854212,42.190452],[2.854118,42.190573],[2.854461,42.190622],[2.854388,42.190813],[2.854342,42.19101],[2.854479,42.191031],[2.854758,42.191036]]]]}}]}