{"type":"FeatureCollection","name":"ICGC Àrees de poblament - Campdevànol","features":[{"type":"Feature","id":"170366_170366 AP06 RIP 2","properties":{"area_id":"170366_170366 AP06 RIP 2","nom":"Bellavista","codi_icgc":"170366 AP06 RIP 2","categoria":"Àrees de poblament","codi_municipi":"170366","municipi":"Campdevànol","codi_comarca":"31","comarca":"Ripollès","provincia":"Girona","font":"ICGC Àrees de poblament v3r1 202602"},"geometry":{"type":"MultiPolygon","coordinates":[[[[2.171826,42.224383],[2.172089,42.224447],[2.172196,42.224336],[2.172277,42.224289],[2.17243,42.224266],[2.172494,42.224256],[2.172578,42.224268],[2.172582,42.22427],[2.172583,42.224271],[2.172674,42.224332],[2.172794,42.224343],[2.172879,42.224257],[2.172793,42.224173],[2.172732,42.224067],[2.172791,42.223975],[2.172774,42.22397],[2.172788,42.223948],[2.172814,42.223912],[2.172852,42.223925],[2.172907,42.223909],[2.17298,42.223802],[2.173014,42.223752],[2.172941,42.223674],[2.172897,42.223665],[2.172865,42.22367],[2.172839,42.223674],[2.172818,42.223677],[2.17276,42.223657],[2.172779,42.223631],[2.172798,42.223605],[2.172809,42.223589],[2.172823,42.223565],[2.172839,42.223541],[2.172854,42.223519],[2.172809,42.223471],[2.172804,42.223429],[2.172789,42.223312],[2.172774,42.223202],[2.172755,42.223044],[2.172746,42.222968],[2.172684,42.222972],[2.172623,42.222976],[2.17259,42.22298],[2.172558,42.222985],[2.172495,42.222996],[2.172451,42.223002],[2.172383,42.223005],[2.172343,42.223],[2.17225,42.223],[2.172245,42.223011],[2.172219,42.223044],[2.172198,42.223071],[2.172092,42.223118],[2.171877,42.223059],[2.171874,42.223058],[2.171828,42.223116],[2.171827,42.223171],[2.171734,42.223223],[2.171626,42.223254],[2.171585,42.223253],[2.171547,42.223252],[2.171471,42.223251],[2.171313,42.223227],[2.171216,42.223155],[2.171195,42.223039],[2.171145,42.223006],[2.171154,42.222752],[2.171082,42.222535],[2.170978,42.222541],[2.170893,42.222545],[2.170743,42.222553],[2.170741,42.222643],[2.170728,42.223217],[2.170687,42.224237],[2.170711,42.22424],[2.170675,42.224518],[2.17064,42.2248],[2.170517,42.225398],[2.170517,42.225399],[2.170516,42.2254],[2.17047,42.225513],[2.170481,42.225517],[2.170602,42.225553],[2.170614,42.225556],[2.170667,42.225412],[2.170684,42.225416],[2.170867,42.225461],[2.17108,42.225513],[2.17111,42.225505],[2.171304,42.225447],[2.171351,42.225433],[2.171643,42.225327],[2.171674,42.225316],[2.171705,42.225311],[2.171924,42.225273],[2.171924,42.22527],[2.171925,42.225193],[2.17186,42.225063],[2.171706,42.225006],[2.171476,42.224947],[2.171419,42.224904],[2.171287,42.224745],[2.17114,42.224675],[2.171123,42.224667],[2.170769,42.224571],[2.170794,42.224512],[2.170842,42.224295],[2.170896,42.224299],[2.170918,42.224126],[2.171071,42.224033],[2.171053,42.223884],[2.171112,42.223808],[2.171263,42.223805],[2.17126,42.223835],[2.17127,42.223905],[2.171293,42.224001],[2.171274,42.224046],[2.171306,42.224055],[2.17131,42.224071],[2.171293,42.224155],[2.1713,42.224338],[2.171416,42.224384],[2.171452,42.224398],[2.171481,42.22441],[2.171424,42.224492],[2.171565,42.224546],[2.171691,42.224545],[2.171826,42.224383]]]]}},{"type":"Feature","id":"170366_170366 AP01 RIP 3","properties":{"area_id":"170366_170366 AP01 RIP 3","nom":"Campdevànol","codi_icgc":"170366 AP01 RIP 3","categoria":"Àrees de poblament","codi_municipi":"170366","municipi":"Campdevànol","codi_comarca":"31","comarca":"Ripollès","provincia":"Girona","font":"ICGC Àrees de poblament v3r1 202602"},"geometry":{"type":"MultiPolygon","coordinates":[[[[2.167355,42.226482],[2.167339,42.226456],[2.167319,42.226418],[2.167289,42.226358],[2.16737,42.226348],[2.167209,42.225919],[2.167186,42.225876],[2.167213,42.225868],[2.167212,42.225865],[2.167212,42.225865],[2.167216,42.225864],[2.167303,42.225844],[2.167307,42.225843],[2.167318,42.22584],[2.167375,42.225827],[2.168437,42.225574],[2.168442,42.225574],[2.168532,42.225462],[2.168797,42.224916],[2.168797,42.224916],[2.168945,42.224925],[2.168949,42.224926],[2.168951,42.224926],[2.168968,42.224928],[2.168971,42.224928],[2.168973,42.224928],[2.169023,42.224926],[2.169028,42.224926],[2.169078,42.224923],[2.169082,42.224923],[2.16914,42.224915],[2.169144,42.224915],[2.169145,42.224915],[2.169199,42.224918],[2.169204,42.224918],[2.169215,42.224948],[2.169465,42.22499],[2.169635,42.225019],[2.16964,42.225019],[2.169672,42.224999],[2.169739,42.224846],[2.169803,42.224701],[2.169814,42.224697],[2.169863,42.224673],[2.169866,42.224671],[2.169907,42.224645],[2.169918,42.224636],[2.169939,42.224618],[2.169946,42.224612],[2.169999,42.224544],[2.17009,42.22442],[2.170093,42.224415],[2.170162,42.224276],[2.170197,42.224175],[2.170206,42.224168],[2.170203,42.224167],[2.170205,42.224079],[2.170216,42.223694],[2.170234,42.222999],[2.170149,42.22225],[2.170061,42.221868],[2.169876,42.221408],[2.169821,42.221249],[2.169805,42.221209],[2.169769,42.221105],[2.1697,42.220908],[2.16963,42.220709],[2.169597,42.220653],[2.169497,42.220473],[2.169452,42.220463],[2.169403,42.220376],[2.16935,42.220361],[2.169088,42.220288],[2.168858,42.220132],[2.168434,42.219833],[2.168311,42.219755],[2.168233,42.219708],[2.168072,42.219827],[2.168051,42.21983],[2.168031,42.219826],[2.168013,42.219818],[2.168002,42.21981],[2.167863,42.219713],[2.167681,42.219607],[2.167671,42.219601],[2.167558,42.219545],[2.167441,42.219495],[2.167321,42.21945],[2.16726,42.21943],[2.16696,42.21935],[2.166677,42.219305],[2.166707,42.21913],[2.166735,42.218871],[2.16674,42.218463],[2.166665,42.218171],[2.166272,42.218155],[2.166077,42.219711],[2.165793,42.219697],[2.165783,42.219696],[2.165743,42.219694],[2.1657,42.21969],[2.165402,42.219662],[2.165401,42.219663],[2.165398,42.219663],[2.16519,42.219757],[2.165178,42.219762],[2.165089,42.219795],[2.16507,42.219803],[2.16507,42.219805],[2.165026,42.219827],[2.164993,42.220055],[2.164941,42.220415],[2.164931,42.22051],[2.16487,42.220499],[2.164834,42.2206],[2.164921,42.220614],[2.16491,42.220644],[2.165038,42.220663],[2.165016,42.22075],[2.165018,42.220751],[2.165021,42.22075],[2.165305,42.220823],[2.165428,42.220835],[2.165431,42.220848],[2.165398,42.220992],[2.165263,42.221399],[2.165252,42.221531],[2.16525,42.22167],[2.165144,42.222427],[2.165086,42.222763],[2.16458,42.222884],[2.164093,42.222998],[2.16403,42.223012],[2.163996,42.223051],[2.163982,42.223163],[2.163846,42.223206],[2.163803,42.22322],[2.161662,42.223708],[2.161435,42.223754],[2.161478,42.223866],[2.161528,42.223974],[2.161578,42.224057],[2.161631,42.224155],[2.161669,42.224213],[2.161687,42.224268],[2.161655,42.224325],[2.161593,42.224382],[2.161486,42.224455],[2.161318,42.224537],[2.160961,42.224687],[2.160883,42.224715],[2.160932,42.224785],[2.16109,42.225022],[2.16143,42.22551],[2.16147,42.225523],[2.161487,42.225522],[2.16188,42.225367],[2.162087,42.225272],[2.162001,42.22535],[2.161869,42.225503],[2.161828,42.225541],[2.161789,42.225587],[2.161774,42.225635],[2.161777,42.225673],[2.161807,42.225687],[2.161823,42.225685],[2.1619,42.225672],[2.16192,42.225669],[2.162011,42.225618],[2.162143,42.225547],[2.162236,42.225503],[2.16245,42.225439],[2.162454,42.225438],[2.162537,42.225417],[2.162537,42.225417],[2.162676,42.225383],[2.162921,42.225327],[2.162942,42.225316],[2.163069,42.225252],[2.163078,42.225245],[2.16319,42.225161],[2.163212,42.225147],[2.163283,42.225097],[2.16335,42.225045],[2.163411,42.224991],[2.163468,42.224936],[2.16352,42.224881],[2.163572,42.224825],[2.163612,42.224783],[2.163651,42.224745],[2.163677,42.224724],[2.163694,42.224713],[2.163709,42.224705],[2.163725,42.224697],[2.163738,42.224691],[2.163773,42.224677],[2.163805,42.224666],[2.163837,42.224655],[2.163859,42.224649],[2.163883,42.224645],[2.163925,42.224643],[2.163971,42.224647],[2.164048,42.224657],[2.164096,42.22467],[2.164146,42.224685],[2.164247,42.224725],[2.164312,42.224755],[2.164359,42.224776],[2.164436,42.224812],[2.164559,42.22487],[2.164669,42.224923],[2.164799,42.224982],[2.164855,42.225007],[2.164874,42.225036],[2.164731,42.225188],[2.164838,42.225298],[2.164927,42.225418],[2.164944,42.225547],[2.164878,42.225666],[2.164882,42.225674],[2.164872,42.225699],[2.164884,42.225732],[2.164903,42.225732],[2.165082,42.225753],[2.165147,42.225749],[2.165301,42.225678],[2.165307,42.225696],[2.165308,42.225697],[2.165307,42.225747],[2.165307,42.225764],[2.165315,42.225775],[2.165345,42.225812],[2.16539,42.225839],[2.165402,42.225846],[2.165511,42.22587],[2.165579,42.225876],[2.165619,42.225879],[2.165626,42.225881],[2.165699,42.225889],[2.1657,42.225896],[2.165701,42.2259],[2.165855,42.225931],[2.165856,42.225931],[2.166067,42.225995],[2.166215,42.226032],[2.166253,42.226033],[2.16633,42.226016],[2.166345,42.2261],[2.166348,42.226114],[2.166357,42.226137],[2.166374,42.226157],[2.166397,42.226173],[2.16641,42.22618],[2.166423,42.226183],[2.16645,42.226186],[2.166461,42.226186],[2.16647,42.22624],[2.166593,42.226228],[2.166589,42.226205],[2.16662,42.226203],[2.166638,42.22624],[2.166705,42.2263],[2.166679,42.226317],[2.166718,42.22637],[2.166854,42.226288],[2.166908,42.226313],[2.166936,42.226323],[2.166992,42.226335],[2.167063,42.226342],[2.167159,42.226349],[2.167159,42.22635],[2.167172,42.226351],[2.167183,42.226377],[2.167224,42.226373],[2.167231,42.226413],[2.167248,42.22646],[2.16726,42.22648],[2.16729,42.22647],[2.167307,42.226498],[2.167309,42.226498],[2.167355,42.226482]]],[[[2.168255,42.232208],[2.168677,42.230853],[2.168922,42.230885],[2.169019,42.23082],[2.169139,42.230736],[2.16946,42.230542],[2.169623,42.23044],[2.16973,42.230371],[2.169767,42.230352],[2.169768,42.230294],[2.169716,42.230188],[2.170004,42.229991],[2.170113,42.229875],[2.170153,42.229827],[2.170161,42.229784],[2.170387,42.229824],[2.170407,42.229795],[2.170507,42.229469],[2.170469,42.229462],[2.170502,42.229344],[2.170553,42.229203],[2.170599,42.229077],[2.170805,42.22842],[2.170806,42.228382],[2.170805,42.228346],[2.170792,42.228322],[2.170762,42.228296],[2.170741,42.228269],[2.170738,42.228269],[2.170735,42.228268],[2.170676,42.228261],[2.170671,42.228261],[2.170551,42.228243],[2.170547,42.228242],[2.170404,42.228213],[2.170399,42.228212],[2.170124,42.228171],[2.17012,42.22817],[2.169969,42.228146],[2.169964,42.228146],[2.169919,42.228136],[2.169918,42.228136],[2.169852,42.228122],[2.169848,42.228122],[2.169764,42.228108],[2.169759,42.228107],[2.169637,42.228089],[2.169633,42.228089],[2.169631,42.228089],[2.169372,42.228023],[2.169367,42.228022],[2.169049,42.227961],[2.169045,42.22796],[2.168856,42.227904],[2.168852,42.227902],[2.168654,42.227851],[2.168547,42.227823],[2.168543,42.227822],[2.168394,42.227738],[2.168398,42.227734],[2.168262,42.227673],[2.168021,42.228228],[2.167841,42.228454],[2.167393,42.229565],[2.167366,42.229738],[2.167338,42.229802],[2.16711,42.230378],[2.167029,42.230581],[2.166934,42.230566],[2.166803,42.230546],[2.166662,42.230851],[2.166586,42.231097],[2.166541,42.231251],[2.166486,42.23136],[2.166367,42.231617],[2.166279,42.231723],[2.166201,42.231859],[2.166181,42.231947],[2.16617,42.232001],[2.166153,42.232076],[2.166697,42.232175],[2.166366,42.233313],[2.167065,42.233436],[2.166961,42.23382],[2.168034,42.233943],[2.168189,42.232887],[2.168255,42.232208]]]]}},{"type":"Feature","id":"170366_170366 SI06 RIP 2","properties":{"area_id":"170366_170366 SI06 RIP 2","nom":"Colònia Herand","codi_icgc":"170366 SI06 RIP 2","categoria":"Sector industrial","codi_municipi":"170366","municipi":"Campdevànol","codi_comarca":"31","comarca":"Ripollès","provincia":"Girona","font":"ICGC Àrees de poblament v3r1 202602"},"geometry":{"type":"MultiPolygon","coordinates":[[[[2.163884,42.24273],[2.163751,42.242694],[2.163713,42.242684],[2.163645,42.242687],[2.163633,42.242688],[2.163601,42.242689],[2.163591,42.242601],[2.163553,42.242507],[2.16345,42.242535],[2.163069,42.242628],[2.163105,42.242776],[2.163111,42.242803],[2.163185,42.243135],[2.16325,42.243469],[2.163307,42.243803],[2.163355,42.244138],[2.163395,42.244474],[2.163426,42.24481],[2.163439,42.244825],[2.163536,42.244895],[2.163718,42.245146],[2.163735,42.24517],[2.163862,42.245123],[2.163869,42.24512],[2.163922,42.245105],[2.163956,42.245091],[2.163998,42.245063],[2.164034,42.245032],[2.16407,42.244994],[2.164095,42.244964],[2.164107,42.244947],[2.164127,42.244918],[2.164138,42.244891],[2.164146,42.244865],[2.164151,42.244834],[2.164156,42.244805],[2.164187,42.244738],[2.164221,42.244665],[2.164232,42.244635],[2.164242,42.244591],[2.164246,42.244546],[2.164246,42.244546],[2.164252,42.244415],[2.164256,42.244283],[2.164257,42.244156],[2.164257,42.244029],[2.164257,42.243927],[2.164253,42.243824],[2.164245,42.243771],[2.164221,42.243695],[2.164191,42.243621],[2.164143,42.24351],[2.164116,42.243455],[2.164102,42.24343],[2.164037,42.243335],[2.164,42.243284],[2.164105,42.243261],[2.164126,42.243256],[2.163949,42.242843],[2.163988,42.242832],[2.163973,42.242748],[2.163905,42.242736],[2.163884,42.24273]]]]}},{"type":"Feature","id":"170366_170366 SI05 RIP 2","properties":{"area_id":"170366_170366 SI05 RIP 2","nom":"La Colònia Pernau","codi_icgc":"170366 SI05 RIP 2","categoria":"Sector industrial","codi_municipi":"170366","municipi":"Campdevànol","codi_comarca":"31","comarca":"Ripollès","provincia":"Girona","font":"ICGC Àrees de poblament v3r1 202602"},"geometry":{"type":"MultiPolygon","coordinates":[[[[2.165886,42.239931],[2.16589,42.239924],[2.165915,42.239886],[2.165915,42.239885],[2.165935,42.239872],[2.16652,42.239285],[2.166558,42.239298],[2.166647,42.239329],[2.167031,42.238907],[2.167036,42.238909],[2.16706,42.238877],[2.16705,42.238843],[2.166915,42.238711],[2.166772,42.238653],[2.166707,42.238629],[2.166695,42.238648],[2.166463,42.238635],[2.16646,42.238636],[2.166304,42.238642],[2.166111,42.238694],[2.165891,42.238753],[2.165856,42.23879],[2.165935,42.238838],[2.1657,42.239089],[2.16522,42.239622],[2.165247,42.239634],[2.165354,42.239661],[2.165363,42.2397],[2.165383,42.239733],[2.164037,42.241502],[2.164005,42.241544],[2.164003,42.241546],[2.164059,42.24165],[2.164269,42.242045],[2.164294,42.242068],[2.164353,42.242088],[2.164396,42.242091],[2.164435,42.242082],[2.164535,42.242043],[2.164565,42.24203],[2.164568,42.242029],[2.164566,42.241974],[2.164596,42.241825],[2.164663,42.241692],[2.164957,42.241352],[2.165915,42.24028],[2.165934,42.240259],[2.166046,42.240133],[2.165978,42.240066],[2.16598,42.240022],[2.16597,42.240003],[2.165962,42.239985],[2.165939,42.239969],[2.165909,42.239954],[2.165879,42.23994],[2.165886,42.239931]]]]}},{"type":"Feature","id":"170366_170366 SI07 RIP 2","properties":{"area_id":"170366_170366 SI07 RIP 2","nom":"Polígon industrial Comforsa","codi_icgc":"170366 SI07 RIP 2","categoria":"Sector industrial","codi_municipi":"170366","municipi":"Campdevànol","codi_comarca":"31","comarca":"Ripollès","provincia":"Girona","font":"ICGC Àrees de poblament v3r1 202602"},"geometry":{"type":"MultiPolygon","coordinates":[[[[2.168464,42.226673],[2.168554,42.226314],[2.16885,42.226358],[2.16911,42.226001],[2.169139,42.225947],[2.16918,42.225869],[2.169348,42.225588],[2.169563,42.225227],[2.16966,42.225027],[2.169634,42.225022],[2.169465,42.22499],[2.16921,42.224947],[2.169199,42.224918],[2.169144,42.224915],[2.16914,42.224915],[2.169082,42.224923],[2.169078,42.224923],[2.169028,42.224926],[2.169023,42.224926],[2.168973,42.224928],[2.168971,42.224928],[2.168968,42.224928],[2.168951,42.224926],[2.168777,42.225471],[2.168731,42.225517],[2.168678,42.225559],[2.16862,42.225597],[2.168557,42.22563],[2.168449,42.225652],[2.168436,42.225654],[2.167332,42.225943],[2.167333,42.225944],[2.167387,42.226077],[2.167491,42.226318],[2.167565,42.22665],[2.167585,42.226899],[2.167574,42.227099],[2.167547,42.227229],[2.167568,42.227245],[2.167574,42.227249],[2.167715,42.227274],[2.167818,42.227301],[2.167822,42.227302],[2.16788,42.227318],[2.167924,42.227218],[2.167974,42.227133],[2.168014,42.227086],[2.1681,42.227019],[2.168221,42.226975],[2.16826,42.226958],[2.168297,42.226941],[2.168366,42.226873],[2.168395,42.226835],[2.168464,42.226673]]],[[[2.169213,42.227921],[2.169225,42.227873],[2.169443,42.227916],[2.169447,42.227902],[2.169456,42.227914],[2.169453,42.22788],[2.169476,42.2278],[2.169643,42.227327],[2.170009,42.226143],[2.170058,42.225965],[2.170005,42.225913],[2.169708,42.22584],[2.169704,42.225839],[2.169698,42.225852],[2.169638,42.225967],[2.169477,42.226256],[2.169468,42.226275],[2.169431,42.226355],[2.169389,42.226407],[2.169386,42.226412],[2.169355,42.226455],[2.169325,42.226492],[2.169107,42.226781],[2.168996,42.22693],[2.168756,42.227262],[2.16872,42.227316],[2.168705,42.227332],[2.1687,42.22734],[2.168725,42.22739],[2.168486,42.227647],[2.168463,42.227669],[2.168454,42.227677],[2.16846,42.227676],[2.16847,42.227675],[2.168492,42.227693],[2.16852,42.227715],[2.16854,42.227729],[2.168573,42.227746],[2.16861,42.227758],[2.168684,42.227778],[2.168758,42.227798],[2.168899,42.227838],[2.169041,42.227877],[2.169127,42.227899],[2.169213,42.227921]]]]}},{"type":"Feature","id":"170366_170366 SI02 RIP 2","properties":{"area_id":"170366_170366 SI02 RIP 2","nom":"Polígon industrial El Molinou","codi_icgc":"170366 SI02 RIP 2","categoria":"Sector industrial","codi_municipi":"170366","municipi":"Campdevànol","codi_comarca":"31","comarca":"Ripollès","provincia":"Girona","font":"ICGC Àrees de poblament v3r1 202602"},"geometry":{"type":"MultiPolygon","coordinates":[[[[2.170717,42.227362],[2.170745,42.227268],[2.170776,42.227138],[2.170688,42.226963],[2.170693,42.226897],[2.170698,42.22688],[2.170725,42.226796],[2.170755,42.226716],[2.170774,42.226652],[2.170806,42.226537],[2.170829,42.226412],[2.170766,42.226365],[2.170533,42.226325],[2.170448,42.226307],[2.170444,42.226319],[2.170403,42.226428],[2.170259,42.226878],[2.170056,42.227482],[2.169942,42.227834],[2.169882,42.228022],[2.170518,42.228139],[2.170583,42.228149],[2.170648,42.228158],[2.170678,42.22816],[2.170724,42.228159],[2.170769,42.228151],[2.170788,42.228144],[2.170812,42.22813],[2.170829,42.228112],[2.170852,42.228073],[2.170871,42.228028],[2.170887,42.227991],[2.170907,42.227938],[2.170937,42.227824],[2.17096,42.227708],[2.170958,42.227708],[2.170959,42.227707],[2.170959,42.227707],[2.170646,42.227602],[2.170771,42.227556],[2.170869,42.227493],[2.170891,42.22739],[2.170717,42.227362]]]]}},{"type":"Feature","id":"170366_170366 SI04 RIP 2","properties":{"area_id":"170366_170366 SI04 RIP 2","nom":"Polígon industrial La Creu","codi_icgc":"170366 SI04 RIP 2","categoria":"Sector industrial","codi_municipi":"170366","municipi":"Campdevànol","codi_comarca":"31","comarca":"Ripollès","provincia":"Girona","font":"ICGC Àrees de poblament v3r1 202602"},"geometry":{"type":"MultiPolygon","coordinates":[[[[2.164907,42.22261],[2.165122,42.221502],[2.165345,42.220909],[2.165331,42.220882],[2.165353,42.220836],[2.165018,42.220751],[2.165016,42.22075],[2.165038,42.220663],[2.16491,42.220644],[2.164921,42.220614],[2.164834,42.2206],[2.16487,42.220499],[2.164931,42.22051],[2.164941,42.220415],[2.164993,42.220055],[2.165026,42.219827],[2.16507,42.219805],[2.16507,42.219803],[2.165089,42.219795],[2.165178,42.219762],[2.16519,42.219757],[2.165398,42.219663],[2.165401,42.219663],[2.165402,42.219662],[2.1657,42.21969],[2.165743,42.219694],[2.165783,42.219696],[2.165799,42.219586],[2.165961,42.218542],[2.165864,42.218539],[2.16557,42.218527],[2.165661,42.217925],[2.165574,42.217913],[2.165381,42.218076],[2.165357,42.218094],[2.1652,42.218083],[2.165132,42.218082],[2.165137,42.218107],[2.165144,42.218176],[2.165129,42.21832],[2.165117,42.218488],[2.165107,42.218553],[2.165089,42.218601],[2.165028,42.218736],[2.164938,42.2189],[2.164885,42.218996],[2.164778,42.219183],[2.16466,42.219381],[2.164524,42.219586],[2.16441,42.219799],[2.164394,42.219821],[2.164308,42.219932],[2.164232,42.220029],[2.164234,42.220046],[2.164311,42.22008],[2.164144,42.220332],[2.164119,42.220334],[2.164001,42.220523],[2.163932,42.220634],[2.163827,42.220776],[2.163821,42.220793],[2.163769,42.220795],[2.163567,42.221113],[2.163539,42.221162],[2.163351,42.2214],[2.163117,42.221741],[2.163013,42.221851],[2.16304,42.221907],[2.163291,42.221864],[2.163321,42.221952],[2.163332,42.221968],[2.163708,42.222886],[2.163981,42.222924],[2.164145,42.22291],[2.164845,42.222719],[2.164907,42.22261]]]]}},{"type":"Feature","id":"170366_170366 SI01 RIP 2","properties":{"area_id":"170366_170366 SI01 RIP 2","nom":"Polígon industrial Pla de Niubó","codi_icgc":"170366 SI01 RIP 2","categoria":"Sector industrial","codi_municipi":"170366","municipi":"Campdevànol","codi_comarca":"31","comarca":"Ripollès","provincia":"Girona","font":"ICGC Àrees de poblament v3r1 202602"},"geometry":{"type":"MultiPolygon","coordinates":[[[[2.147667,42.228567],[2.150498,42.227709],[2.150697,42.227597],[2.150843,42.227476],[2.150944,42.227372],[2.150974,42.227268],[2.150983,42.227188],[2.151067,42.227141],[2.151217,42.22708],[2.151357,42.227036],[2.151418,42.226986],[2.151415,42.226926],[2.151432,42.226887],[2.151504,42.22687],[2.152534,42.226538],[2.152639,42.226518],[2.152771,42.226495],[2.152865,42.226464],[2.15286,42.226429],[2.152851,42.226405],[2.152781,42.226319],[2.152711,42.226194],[2.152655,42.226187],[2.152608,42.226182],[2.152596,42.226174],[2.15168,42.226454],[2.150848,42.226696],[2.149102,42.227214],[2.146996,42.227863],[2.147213,42.228363],[2.147325,42.228424],[2.147534,42.228527],[2.147667,42.228567]]]]}},{"type":"Feature","id":"170366_170366 AP03 RIP 2","properties":{"area_id":"170366_170366 AP03 RIP 2","nom":"Pruners","codi_icgc":"170366 AP03 RIP 2","categoria":"Àrees de poblament","codi_municipi":"170366","municipi":"Campdevànol","codi_comarca":"31","comarca":"Ripollès","provincia":"Girona","font":"ICGC Àrees de poblament v3r1 202602"},"geometry":{"type":"MultiPolygon","coordinates":[[[[2.121579,42.244185],[2.121274,42.24403],[2.121043,42.244009],[2.120836,42.244122],[2.12081,42.244179],[2.12096,42.244428],[2.121163,42.244582],[2.121342,42.244678],[2.12134,42.244774],[2.121338,42.244945],[2.121309,42.245155],[2.121281,42.245345],[2.121279,42.245498],[2.121561,42.245538],[2.121741,42.245501],[2.12205,42.24537],[2.122105,42.245161],[2.122107,42.245008],[2.122058,42.244817],[2.121701,42.2447],[2.121548,42.244585],[2.121577,42.244337],[2.121579,42.244185]]]]}},{"type":"Feature","id":"170366_170366 AP09 RIP 3","properties":{"area_id":"170366_170366 AP09 RIP 3","nom":"Sant Llorenç","codi_icgc":"170366 AP09 RIP 3","categoria":"Àrees de poblament","codi_municipi":"170366","municipi":"Campdevànol","codi_comarca":"31","comarca":"Ripollès","provincia":"Girona","font":"ICGC Àrees de poblament v3r1 202602"},"geometry":{"type":"MultiPolygon","coordinates":[[[[2.127233,42.231155],[2.126876,42.231238],[2.126588,42.231243],[2.126511,42.231235],[2.126425,42.231156],[2.126339,42.231127],[2.126224,42.231119],[2.126051,42.231132],[2.125955,42.231117],[2.125763,42.231087],[2.125731,42.231315],[2.125556,42.231421],[2.125555,42.231514],[2.125583,42.231536],[2.125853,42.231523],[2.125978,42.231539],[2.125975,42.231696],[2.125772,42.231773],[2.125609,42.231772],[2.125522,42.2318],[2.12551,42.231943],[2.125576,42.232093],[2.125632,42.232151],[2.125719,42.232187],[2.12594,42.232182],[2.126115,42.232069],[2.126155,42.231955],[2.126184,42.231912],[2.126358,42.231885],[2.126598,42.231879],[2.126733,42.231845],[2.126801,42.231809],[2.126956,42.231746],[2.127025,42.231654],[2.127132,42.23154],[2.1272,42.231498],[2.127403,42.231414],[2.127577,42.231329],[2.127588,42.231265],[2.127446,42.231064],[2.127233,42.231155]]]]}},{"type":"Feature","id":"170366_170366 AP04 RIP 2","properties":{"area_id":"170366_170366 AP04 RIP 2","nom":"Sant Martí Vell","codi_icgc":"170366 AP04 RIP 2","categoria":"Àrees de poblament","codi_municipi":"170366","municipi":"Campdevànol","codi_comarca":"31","comarca":"Ripollès","provincia":"Girona","font":"ICGC Àrees de poblament v3r1 202602"},"geometry":{"type":"MultiPolygon","coordinates":[[[[2.164906,42.241862],[2.16476,42.24205],[2.164964,42.242137],[2.164997,42.242151],[2.165021,42.242161],[2.1652,42.24221],[2.165226,42.242192],[2.165265,42.242127],[2.165308,42.242075],[2.165515,42.241886],[2.16562,42.241754],[2.165621,42.241639],[2.165443,42.241562],[2.16511,42.241694],[2.164913,42.241832],[2.164906,42.241862]]]]}},{"type":"Feature","id":"170366_170366 AP13 RIP 2","properties":{"area_id":"170366_170366 AP13 RIP 2","nom":"Sant Martí d'Armàncies","codi_icgc":"170366 AP13 RIP 2","categoria":"Àrees de poblament","codi_municipi":"170366","municipi":"Campdevànol","codi_comarca":"31","comarca":"Ripollès","provincia":"Girona","font":"ICGC Àrees de poblament v3r1 202602"},"geometry":{"type":"MultiPolygon","coordinates":[[[[2.168549,42.237955],[2.168577,42.23777],[2.168353,42.237759],[2.168299,42.237925],[2.168327,42.237985],[2.168383,42.238032],[2.168472,42.23808],[2.168532,42.238063],[2.16855,42.238019],[2.168549,42.237955]]]]}},{"type":"Feature","id":"170366_170366 AP07 RIP 3","properties":{"area_id":"170366_170366 AP07 RIP 3","nom":"Sant Pere d'Auïra","codi_icgc":"170366 AP07 RIP 3","categoria":"Àrees de poblament","codi_municipi":"170366","municipi":"Campdevànol","codi_comarca":"31","comarca":"Ripollès","provincia":"Girona","font":"ICGC Àrees de poblament v3r1 202602"},"geometry":{"type":"MultiPolygon","coordinates":[[[[2.145855,42.247007],[2.145922,42.247016],[2.146166,42.246954],[2.146168,42.246915],[2.14616,42.246874],[2.14612,42.246826],[2.146085,42.246802],[2.146084,42.246802],[2.145837,42.246878],[2.145855,42.247007]]]]}},{"type":"Feature","id":"170366_170366 AP08 RIP 3","properties":{"area_id":"170366_170366 AP08 RIP 3","nom":"Sant Quintí de Puigrodon","codi_icgc":"170366 AP08 RIP 3","categoria":"Àrees de poblament","codi_municipi":"170366","municipi":"Campdevànol","codi_comarca":"31","comarca":"Ripollès","provincia":"Girona","font":"ICGC Àrees de poblament v3r1 202602"},"geometry":{"type":"MultiPolygon","coordinates":[[[[2.104504,42.229178],[2.104463,42.229204],[2.104463,42.229267],[2.104502,42.229312],[2.104608,42.229373],[2.104677,42.229425],[2.104742,42.229418],[2.10481,42.229388],[2.104892,42.229356],[2.104921,42.229307],[2.10492,42.229197],[2.10489,42.229058],[2.104834,42.228953],[2.104867,42.228853],[2.104959,42.228715],[2.105057,42.228564],[2.105098,42.228431],[2.105035,42.228325],[2.104914,42.228286],[2.104754,42.228261],[2.104638,42.228322],[2.104598,42.228374],[2.104462,42.228473],[2.104415,42.228606],[2.104395,42.228702],[2.104445,42.228812],[2.104583,42.228975],[2.104608,42.229027],[2.104607,42.229122],[2.104504,42.229178]]]]}},{"type":"Feature","id":"170366_170366 AP05 RIP 2","properties":{"area_id":"170366_170366 AP05 RIP 2","nom":"Xoriguera","codi_icgc":"170366 AP05 RIP 2","categoria":"Àrees de poblament","codi_municipi":"170366","municipi":"Campdevànol","codi_comarca":"31","comarca":"Ripollès","provincia":"Girona","font":"ICGC Àrees de poblament v3r1 202602"},"geometry":{"type":"MultiPolygon","coordinates":[[[[2.098709,42.245288],[2.098462,42.245234],[2.098458,42.245281],[2.098429,42.245324],[2.098408,42.245354],[2.098337,42.245448],[2.098287,42.245557],[2.098274,42.245611],[2.09829,42.245638],[2.098294,42.245645],[2.09833,42.245654],[2.098379,42.245651],[2.098424,42.245621],[2.098472,42.245588],[2.09863,42.245507],[2.098638,42.245503],[2.098746,42.245431],[2.098709,42.245288]]]]}},{"type":"Feature","id":"170366_170366 AP10 RIP 3","properties":{"area_id":"170366_170366 AP10 RIP 3","nom":"l'Herand","codi_icgc":"170366 AP10 RIP 3","categoria":"Àrees de poblament","codi_municipi":"170366","municipi":"Campdevànol","codi_comarca":"31","comarca":"Ripollès","provincia":"Girona","font":"ICGC Àrees de poblament v3r1 202602"},"geometry":{"type":"MultiPolygon","coordinates":[[[[2.164676,42.245202],[2.164637,42.245282],[2.164565,42.245276],[2.164486,42.245342],[2.164408,42.245403],[2.164187,42.245515],[2.164078,42.245577],[2.163969,42.245604],[2.163908,42.245678],[2.163839,42.245725],[2.163801,42.245815],[2.163769,42.24592],[2.163604,42.246077],[2.163475,42.246476],[2.163299,42.246945],[2.163342,42.2471],[2.163459,42.247346],[2.16351,42.247457],[2.163494,42.247529],[2.163551,42.247664],[2.163752,42.247719],[2.163877,42.247708],[2.163937,42.247721],[2.163973,42.247715],[2.164095,42.247668],[2.164079,42.24762],[2.164147,42.247366],[2.164247,42.247267],[2.164375,42.247141],[2.164429,42.247048],[2.16454,42.246885],[2.164655,42.246706],[2.164782,42.246495],[2.164828,42.24642],[2.165028,42.246159],[2.165036,42.246147],[2.16512,42.245654],[2.165107,42.245556],[2.165115,42.245472],[2.165029,42.245293],[2.165016,42.245153],[2.164723,42.245067],[2.164676,42.245202]]]]}},{"type":"Feature","id":"170366_170366 AP11 RIP 2","properties":{"area_id":"170366_170366 AP11 RIP 2","nom":"la Colònia Molinou","codi_icgc":"170366 AP11 RIP 2","categoria":"Àrees de poblament","codi_municipi":"170366","municipi":"Campdevànol","codi_comarca":"31","comarca":"Ripollès","provincia":"Girona","font":"ICGC Àrees de poblament v3r1 202602"},"geometry":{"type":"MultiPolygon","coordinates":[[[[2.167559,42.234608],[2.167782,42.234705],[2.167829,42.234739],[2.167805,42.235037],[2.167832,42.235043],[2.167818,42.235197],[2.167818,42.235205],[2.167957,42.235209],[2.168022,42.234637],[2.167898,42.23461],[2.167858,42.234446],[2.167817,42.234443],[2.167631,42.234379],[2.167628,42.234378],[2.167627,42.234378],[2.167626,42.234378],[2.167622,42.234378],[2.167459,42.234392],[2.167418,42.234394],[2.167375,42.23441],[2.167299,42.234457],[2.167092,42.234359],[2.167023,42.23448],[2.167174,42.234531],[2.167413,42.234535],[2.167559,42.234608]]]]}},{"type":"Feature","id":"170366_170366 SI03 RIP 2","properties":{"area_id":"170366_170366 SI03 RIP 2","nom":"la Colònia Molinou","codi_icgc":"170366 SI03 RIP 2","categoria":"Sector industrial","codi_municipi":"170366","municipi":"Campdevànol","codi_comarca":"31","comarca":"Ripollès","provincia":"Girona","font":"ICGC Àrees de poblament v3r1 202602"},"geometry":{"type":"MultiPolygon","coordinates":[[[[2.167329,42.23462],[2.166565,42.23469],[2.166539,42.234721],[2.166483,42.23478],[2.166473,42.23483],[2.166472,42.234882],[2.166485,42.234933],[2.166506,42.234976],[2.166563,42.235031],[2.166659,42.235108],[2.166808,42.235216],[2.166908,42.235288],[2.167413,42.235655],[2.167775,42.235918],[2.167948,42.236044],[2.167969,42.236059],[2.168055,42.236039],[2.167973,42.23574],[2.167945,42.235515],[2.167953,42.235245],[2.167835,42.235236],[2.167789,42.235215],[2.167706,42.234772],[2.167651,42.234661],[2.16762,42.234646],[2.167516,42.234653],[2.167502,42.234584],[2.167478,42.234581],[2.167373,42.234587],[2.167329,42.23462]]]]}},{"type":"Feature","id":"170366_170366 AP12 RIP 2","properties":{"area_id":"170366_170366 AP12 RIP 2","nom":"la Colònia Pernau","codi_icgc":"170366 AP12 RIP 2","categoria":"Àrees de poblament","codi_municipi":"170366","municipi":"Campdevànol","codi_comarca":"31","comarca":"Ripollès","provincia":"Girona","font":"ICGC Àrees de poblament v3r1 202602"},"geometry":{"type":"MultiPolygon","coordinates":[[[[2.167104,42.240033],[2.16722,42.239911],[2.1673,42.23984],[2.167385,42.239771],[2.167481,42.239703],[2.16753,42.239668],[2.167577,42.239631],[2.167668,42.239543],[2.16773,42.239474],[2.167717,42.239447],[2.167707,42.239424],[2.167719,42.23934],[2.167781,42.239061],[2.167783,42.239054],[2.167828,42.238889],[2.167832,42.238872],[2.167807,42.238864],[2.167731,42.238841],[2.167491,42.239097],[2.167211,42.238981],[2.16721,42.238981],[2.166818,42.239386],[2.16666,42.239333],[2.166647,42.239329],[2.166558,42.239298],[2.16652,42.239285],[2.165935,42.239872],[2.165915,42.239885],[2.165915,42.239886],[2.16589,42.239924],[2.165942,42.239947],[2.165985,42.239968],[2.165988,42.239986],[2.165997,42.240036],[2.166036,42.240041],[2.166055,42.24002],[2.166069,42.240026],[2.166203,42.240078],[2.165998,42.240308],[2.165998,42.240308],[2.166579,42.240593],[2.166627,42.240568],[2.166983,42.240162],[2.167044,42.2401],[2.167104,42.240033]]]]}},{"type":"Feature","id":"170366_170366 AP02 RIP 2","properties":{"area_id":"170366_170366 AP02 RIP 2","nom":"la Creu","codi_icgc":"170366 AP02 RIP 2","categoria":"Àrees de poblament","codi_municipi":"170366","municipi":"Campdevànol","codi_comarca":"31","comarca":"Ripollès","provincia":"Girona","font":"ICGC Àrees de poblament v3r1 202602"},"geometry":{"type":"MultiPolygon","coordinates":[[[[2.165362,42.216922],[2.165158,42.217008],[2.164961,42.217083],[2.164816,42.217151],[2.164741,42.217213],[2.164711,42.217282],[2.164713,42.217367],[2.164725,42.217427],[2.164712,42.217479],[2.16485,42.217609],[2.16494,42.21772],[2.16496,42.217783],[2.164999,42.217862],[2.165019,42.217913],[2.165059,42.217964],[2.165103,42.218011],[2.165132,42.218082],[2.1652,42.218083],[2.165357,42.218094],[2.165381,42.218076],[2.165574,42.217913],[2.165661,42.217925],[2.16557,42.218527],[2.165864,42.218539],[2.165961,42.218542],[2.166054,42.217933],[2.166081,42.217706],[2.166113,42.217428],[2.166137,42.217321],[2.166174,42.217216],[2.166191,42.217154],[2.166188,42.217109],[2.16616,42.217073],[2.166084,42.216994],[2.166011,42.216917],[2.16591,42.216833],[2.165852,42.216802],[2.165757,42.216782],[2.165689,42.216786],[2.165606,42.216807],[2.165471,42.216862],[2.165362,42.216922]]]]}}]}