{"type":"FeatureCollection","name":"ICGC Àrees de poblament - Queralbs","features":[{"type":"Feature","id":"170433_170433 AP05 RIP 3","properties":{"area_id":"170433_170433 AP05 RIP 3","nom":"Fustanyà","codi_icgc":"170433 AP05 RIP 3","categoria":"Àrees de poblament","codi_municipi":"170433","municipi":"Queralbs","codi_comarca":"31","comarca":"Ripollès","provincia":"Girona","font":"ICGC Àrees de poblament v3r1 202602"},"geometry":{"type":"MultiPolygon","coordinates":[[[[2.171155,42.342307],[2.171033,42.342239],[2.171043,42.342173],[2.170909,42.342136],[2.170816,42.34213],[2.17079,42.342097],[2.170791,42.342078],[2.170804,42.342052],[2.170836,42.342023],[2.170845,42.342003],[2.170845,42.341923],[2.170845,42.341871],[2.170835,42.341847],[2.170813,42.341835],[2.170714,42.341815],[2.170671,42.341815],[2.170646,42.34181],[2.170495,42.341816],[2.17038,42.341818],[2.17028,42.341831],[2.170193,42.341859],[2.170131,42.341894],[2.170082,42.341956],[2.170059,42.342063],[2.170071,42.342111],[2.170106,42.342135],[2.170135,42.342145],[2.170218,42.342133],[2.170273,42.342136],[2.170295,42.342153],[2.170304,42.342172],[2.170313,42.342195],[2.170323,42.342225],[2.17027,42.342289],[2.170285,42.342321],[2.170289,42.342353],[2.170334,42.342401],[2.170349,42.342437],[2.170355,42.34248],[2.170393,42.342501],[2.170537,42.342581],[2.17061,42.342639],[2.170636,42.342596],[2.170691,42.342558],[2.170788,42.342557],[2.170967,42.34256],[2.171122,42.342562],[2.17118,42.342548],[2.171231,42.342517],[2.171264,42.342453],[2.171291,42.342415],[2.171275,42.342367],[2.171221,42.342343],[2.171208,42.34234],[2.17116,42.342314],[2.171155,42.342307]]]]}},{"type":"Feature","id":"170433_170433 AP04 RIP 3","properties":{"area_id":"170433_170433 AP04 RIP 3","nom":"Núria","codi_icgc":"170433 AP04 RIP 3","categoria":"Àrees de poblament","codi_municipi":"170433","municipi":"Queralbs","codi_comarca":"31","comarca":"Ripollès","provincia":"Girona","font":"ICGC Àrees de poblament v3r1 202602"},"geometry":{"type":"MultiPolygon","coordinates":[[[[2.152712,42.395344],[2.152555,42.395571],[2.152191,42.395835],[2.152177,42.396884],[2.152531,42.397325],[2.153171,42.397577],[2.153734,42.397753],[2.154043,42.397755],[2.15433,42.397471],[2.154565,42.397149],[2.154648,42.396711],[2.154759,42.396121],[2.154404,42.395794],[2.153841,42.395562],[2.153778,42.395577],[2.153585,42.395529],[2.15338,42.39548],[2.153046,42.39542],[2.152764,42.395332],[2.15274,42.395359],[2.152712,42.395344]]]]}},{"type":"Feature","id":"170433_170433 AP01 RIP 3","properties":{"area_id":"170433_170433 AP01 RIP 3","nom":"Queralbs","codi_icgc":"170433 AP01 RIP 3","categoria":"Àrees de poblament","codi_municipi":"170433","municipi":"Queralbs","codi_comarca":"31","comarca":"Ripollès","provincia":"Girona","font":"ICGC Àrees de poblament v3r1 202602"},"geometry":{"type":"MultiPolygon","coordinates":[[[[2.164542,42.348892],[2.164509,42.348904],[2.164437,42.348925],[2.164388,42.348941],[2.164366,42.348951],[2.16428,42.348979],[2.164257,42.348974],[2.164194,42.349001],[2.164173,42.349014],[2.164167,42.349006],[2.164132,42.349014],[2.164086,42.349021],[2.164043,42.349034],[2.164017,42.349094],[2.164022,42.349182],[2.16405,42.349193],[2.16404,42.349212],[2.16401,42.349267],[2.164,42.349286],[2.163991,42.349298],[2.163941,42.349299],[2.163935,42.349298],[2.163838,42.349228],[2.163807,42.349203],[2.163778,42.349176],[2.16375,42.349148],[2.163735,42.349133],[2.163704,42.349106],[2.163672,42.349082],[2.163669,42.349079],[2.163666,42.349077],[2.163662,42.349074],[2.163624,42.349048],[2.163621,42.349046],[2.163618,42.349044],[2.163615,42.349041],[2.163613,42.349039],[2.16361,42.349037],[2.163608,42.349035],[2.163606,42.349033],[2.163603,42.349031],[2.163601,42.349029],[2.163599,42.349027],[2.163597,42.349025],[2.163593,42.349021],[2.163591,42.349019],[2.163589,42.349017],[2.163586,42.349014],[2.163584,42.349011],[2.163582,42.349008],[2.16358,42.349005],[2.163578,42.349003],[2.163576,42.349],[2.163575,42.348998],[2.163573,42.348995],[2.163572,42.348993],[2.16357,42.34899],[2.163568,42.348987],[2.163567,42.348984],[2.163566,42.348981],[2.163564,42.348978],[2.163563,42.348975],[2.163561,42.34897],[2.163548,42.348935],[2.163546,42.348931],[2.163544,42.348926],[2.163543,42.348923],[2.163542,42.34892],[2.163541,42.348917],[2.16354,42.348914],[2.163539,42.34891],[2.163538,42.348907],[2.163537,42.348904],[2.163536,42.348901],[2.163535,42.348897],[2.163534,42.348893],[2.163533,42.348889],[2.163533,42.348886],[2.163532,42.348882],[2.163531,42.348878],[2.163531,42.348874],[2.16353,42.348871],[2.16353,42.348868],[2.163529,42.348865],[2.163529,42.348862],[2.163529,42.348859],[2.163529,42.348856],[2.163528,42.348852],[2.163528,42.348848],[2.163528,42.348844],[2.163528,42.348841],[2.163528,42.348837],[2.163528,42.348834],[2.163528,42.348831],[2.163528,42.348828],[2.163528,42.348825],[2.163528,42.348822],[2.163529,42.348819],[2.163529,42.348816],[2.163529,42.348812],[2.16353,42.348808],[2.163649,42.348779],[2.163636,42.348699],[2.163619,42.348657],[2.163613,42.348634],[2.163562,42.348642],[2.163534,42.348612],[2.163518,42.348613],[2.163522,42.348652],[2.163522,42.348676],[2.16352,42.348695],[2.163513,42.348714],[2.163498,42.348733],[2.163471,42.348725],[2.163457,42.348752],[2.163441,42.348781],[2.163434,42.348796],[2.163408,42.348767],[2.163296,42.348641],[2.163273,42.348646],[2.163159,42.348524],[2.162869,42.348355],[2.162591,42.348242],[2.162362,42.348044],[2.162233,42.348006],[2.162134,42.348084],[2.161869,42.348017],[2.161939,42.347921],[2.161928,42.347837],[2.161282,42.347744],[2.161199,42.347726],[2.160951,42.347635],[2.160784,42.347527],[2.160774,42.347534],[2.16077,42.347531],[2.160767,42.347529],[2.160764,42.347526],[2.160761,42.347524],[2.160758,42.347521],[2.160754,42.347518],[2.160751,42.347515],[2.160748,42.347512],[2.160744,42.347509],[2.16074,42.347505],[2.160736,42.347502],[2.160644,42.347557],[2.160604,42.347522],[2.160596,42.347499],[2.160589,42.347478],[2.160527,42.347367],[2.160452,42.347256],[2.160438,42.347225],[2.160376,42.347191],[2.160297,42.347102],[2.160217,42.347012],[2.160152,42.347007],[2.160131,42.347009],[2.160069,42.347055],[2.160219,42.347135],[2.160449,42.347369],[2.160447,42.347488],[2.160605,42.347644],[2.160604,42.347769],[2.160596,42.34777],[2.16065,42.347895],[2.160673,42.347972],[2.160841,42.348075],[2.160952,42.348165],[2.161006,42.348326],[2.160957,42.348397],[2.160686,42.348241],[2.160393,42.347947],[2.160466,42.347834],[2.160255,42.347697],[2.160084,42.347832],[2.16032,42.347964],[2.160346,42.347999],[2.160347,42.348],[2.16035,42.348002],[2.160352,42.348004],[2.160355,42.348006],[2.160358,42.348008],[2.160361,42.34801],[2.160364,42.348012],[2.160367,42.348014],[2.160369,42.348016],[2.160372,42.348018],[2.160375,42.34802],[2.160378,42.348022],[2.160381,42.348024],[2.160383,42.348026],[2.160386,42.348029],[2.160389,42.348031],[2.160392,42.348033],[2.160394,42.348035],[2.160397,42.348037],[2.1604,42.348039],[2.160403,42.348041],[2.160405,42.348043],[2.160408,42.348045],[2.160411,42.348048],[2.160414,42.34805],[2.160416,42.348052],[2.160419,42.348054],[2.160422,42.348056],[2.160424,42.348058],[2.160427,42.348061],[2.16043,42.348063],[2.160432,42.348065],[2.160435,42.348067],[2.160438,42.348069],[2.16044,42.348071],[2.160443,42.348074],[2.160446,42.348076],[2.160448,42.348078],[2.160451,42.34808],[2.160453,42.348082],[2.160456,42.348085],[2.160459,42.348087],[2.160461,42.348089],[2.160464,42.348091],[2.160466,42.348094],[2.160469,42.348096],[2.160471,42.348098],[2.160474,42.3481],[2.160477,42.348103],[2.160479,42.348105],[2.160482,42.348107],[2.160484,42.348109],[2.160487,42.348112],[2.160489,42.348114],[2.160492,42.348116],[2.160494,42.348118],[2.160497,42.348121],[2.160499,42.348123],[2.160502,42.348125],[2.160504,42.348128],[2.160507,42.34813],[2.160509,42.348132],[2.16051,42.348133],[2.160576,42.348238],[2.160571,42.348242],[2.160581,42.348257],[2.160756,42.348426],[2.160688,42.348466],[2.160686,42.348474],[2.160673,42.34851],[2.160784,42.348612],[2.16082,42.348589],[2.160933,42.348517],[2.160923,42.34847],[2.160924,42.34844],[2.16093,42.348445],[2.160937,42.348449],[2.160944,42.348453],[2.16095,42.348458],[2.160957,42.348462],[2.160963,42.348467],[2.16097,42.348471],[2.160976,42.348475],[2.160983,42.34848],[2.16099,42.348484],[2.160996,42.348488],[2.161003,42.348493],[2.16101,42.348497],[2.161016,42.348502],[2.161023,42.348506],[2.161029,42.34851],[2.161036,42.348515],[2.161131,42.348584],[2.161133,42.348586],[2.161136,42.348588],[2.161138,42.348589],[2.161142,42.348592],[2.161145,42.348594],[2.161149,42.348597],[2.161151,42.348598],[2.161154,42.3486],[2.161157,42.348602],[2.161161,42.348605],[2.161165,42.348607],[2.161167,42.348609],[2.16117,42.34861],[2.161174,42.348613],[2.161177,42.348615],[2.16118,42.348617],[2.161183,42.348618],[2.161186,42.34862],[2.161189,42.348621],[2.161192,42.348623],[2.161195,42.348625],[2.161198,42.348627],[2.161202,42.348629],[2.161206,42.348631],[2.16121,42.348633],[2.161212,42.348634],[2.161215,42.348636],[2.161219,42.348638],[2.161223,42.34864],[2.161227,42.348642],[2.161231,42.348643],[2.16139,42.348718],[2.161256,42.348875],[2.161421,42.348982],[2.16147,42.348975],[2.161524,42.34897],[2.16158,42.348968],[2.161579,42.348986],[2.161572,42.348986],[2.161558,42.348986],[2.161564,42.349014],[2.161508,42.349067],[2.161651,42.349148],[2.161706,42.349097],[2.161827,42.349078],[2.161968,42.349206],[2.161972,42.349209],[2.161974,42.349211],[2.161977,42.349214],[2.16198,42.349217],[2.161983,42.34922],[2.161986,42.349223],[2.161989,42.349226],[2.161993,42.349229],[2.161996,42.349232],[2.161998,42.349235],[2.162,42.349237],[2.162003,42.34924],[2.162005,42.349242],[2.162007,42.349245],[2.162009,42.349247],[2.162012,42.34925],[2.162015,42.349254],[2.162017,42.349256],[2.162019,42.349258],[2.162022,42.349262],[2.162025,42.349265],[2.162027,42.349268],[2.162029,42.34927],[2.162032,42.349273],[2.162035,42.349277],[2.162037,42.34928],[2.16204,42.349284],[2.162042,42.349287],[2.162045,42.34929],[2.162048,42.349294],[2.162049,42.349296],[2.162051,42.349299],[2.162054,42.349303],[2.162056,42.349306],[2.162058,42.349309],[2.16206,42.349311],[2.162062,42.349315],[2.162064,42.349318],[2.162067,42.349322],[2.162069,42.349325],[2.16207,42.349328],[2.162072,42.349331],[2.162074,42.349333],[2.162075,42.349336],[2.162077,42.349339],[2.162078,42.349342],[2.16208,42.349344],[2.162081,42.349347],[2.162083,42.34935],[2.162084,42.349352],[2.162086,42.349356],[2.162088,42.349359],[2.162089,42.349362],[2.162091,42.349365],[2.162093,42.349369],[2.162094,42.349372],[2.162096,42.349374],[2.162097,42.349378],[2.162099,42.349382],[2.1621,42.349385],[2.162101,42.349387],[2.162103,42.34939],[2.162104,42.349393],[2.162105,42.349397],[2.162106,42.349399],[2.162312,42.349555],[2.162325,42.349583],[2.162343,42.349575],[2.162452,42.349892],[2.162477,42.349896],[2.162421,42.350006],[2.162424,42.350032],[2.162292,42.350132],[2.162301,42.35015],[2.16239,42.350212],[2.162447,42.350247],[2.1626,42.350341],[2.16271,42.350406],[2.162807,42.350464],[2.162894,42.350517],[2.162936,42.350541],[2.163,42.350578],[2.163064,42.350617],[2.163126,42.350652],[2.163148,42.350665],[2.163191,42.350691],[2.163262,42.350732],[2.163298,42.350754],[2.16331,42.350761],[2.163395,42.350831],[2.163431,42.350868],[2.163444,42.350895],[2.163467,42.350946],[2.163476,42.350981],[2.163477,42.351],[2.163437,42.351013],[2.163393,42.351029],[2.163377,42.351035],[2.163364,42.351176],[2.163369,42.351179],[2.163376,42.351182],[2.163393,42.351188],[2.163402,42.351191],[2.163424,42.351196],[2.163458,42.351201],[2.163466,42.351203],[2.163484,42.351206],[2.163498,42.351209],[2.163552,42.351221],[2.163562,42.351224],[2.163582,42.351231],[2.163588,42.351233],[2.163599,42.351239],[2.163607,42.351244],[2.163618,42.351253],[2.163623,42.351258],[2.163637,42.351274],[2.163643,42.351282],[2.163663,42.351312],[2.163669,42.351321],[2.16368,42.351339],[2.163689,42.351353],[2.16371,42.351382],[2.163722,42.3514],[2.163746,42.351436],[2.163762,42.351466],[2.163771,42.351486],[2.163774,42.351498],[2.163739,42.351506],[2.163797,42.351618],[2.163722,42.351846],[2.163729,42.351851],[2.163767,42.351874],[2.163789,42.351889],[2.163894,42.351926],[2.164025,42.351984],[2.164124,42.352017],[2.164126,42.352052],[2.164135,42.352085],[2.16415,42.352103],[2.164276,42.352122],[2.164292,42.352126],[2.164289,42.35202],[2.164298,42.351946],[2.164342,42.351761],[2.164377,42.351675],[2.164395,42.351677],[2.164408,42.351598],[2.164537,42.351587],[2.164626,42.351522],[2.164635,42.351445],[2.164652,42.351391],[2.164692,42.351368],[2.164781,42.351309],[2.164794,42.351169],[2.164746,42.35113],[2.164693,42.351087],[2.164667,42.351064],[2.164788,42.351004],[2.164784,42.351],[2.16477,42.350988],[2.164746,42.350963],[2.164728,42.350937],[2.164712,42.350901],[2.164726,42.350899],[2.164695,42.350809],[2.164741,42.350625],[2.164749,42.35057],[2.164736,42.350486],[2.164652,42.350336],[2.164444,42.35005],[2.164453,42.350043],[2.164366,42.349888],[2.16436,42.349751],[2.16457,42.349639],[2.164669,42.349562],[2.164484,42.349472],[2.164646,42.349354],[2.164696,42.349223],[2.164729,42.349152],[2.164778,42.34911],[2.16481,42.349105],[2.164858,42.349165],[2.164935,42.34915],[2.164935,42.349145],[2.16499,42.349129],[2.165032,42.349117],[2.165042,42.349105],[2.165028,42.349083],[2.16499,42.349023],[2.164961,42.34902],[2.164846,42.349012],[2.164862,42.348981],[2.164843,42.348949],[2.164821,42.348914],[2.164812,42.348856],[2.164805,42.348827],[2.164802,42.348788],[2.164793,42.348753],[2.164748,42.348717],[2.164713,42.348724],[2.164625,42.348793],[2.16459,42.34882],[2.164542,42.348851],[2.164558,42.348884],[2.164542,42.348892]]]]}},{"type":"Feature","id":"170433_170433 AP07 RIP 3","properties":{"area_id":"170433_170433 AP07 RIP 3","nom":"Rialb","codi_icgc":"170433 AP07 RIP 3","categoria":"Àrees de poblament","codi_municipi":"170433","municipi":"Queralbs","codi_comarca":"31","comarca":"Ripollès","provincia":"Girona","font":"ICGC Àrees de poblament v3r1 202602"},"geometry":{"type":"MultiPolygon","coordinates":[[[[2.17082,42.333845],[2.170627,42.33388],[2.170622,42.33428],[2.1706,42.334487],[2.170647,42.33453],[2.170675,42.334616],[2.170809,42.334696],[2.170847,42.334753],[2.170981,42.334783],[2.171135,42.334834],[2.171182,42.334877],[2.171298,42.334864],[2.171308,42.334814],[2.171367,42.334764],[2.171435,42.334693],[2.171445,42.334665],[2.171456,42.3346],[2.17138,42.334471],[2.171229,42.334277],[2.17082,42.333845]]]]}},{"type":"Feature","id":"170433_170433 AP02 RIP 3","properties":{"area_id":"170433_170433 AP02 RIP 3","nom":"Serrat","codi_icgc":"170433 AP02 RIP 3","categoria":"Àrees de poblament","codi_municipi":"170433","municipi":"Queralbs","codi_comarca":"31","comarca":"Ripollès","provincia":"Girona","font":"ICGC Àrees de poblament v3r1 202602"},"geometry":{"type":"MultiPolygon","coordinates":[[[[2.184093,42.342526],[2.184159,42.342572],[2.184333,42.342579],[2.184428,42.342572],[2.184761,42.342611],[2.184795,42.342611],[2.184824,42.342575],[2.184831,42.342536],[2.184852,42.342395],[2.184872,42.342356],[2.184876,42.34235],[2.184887,42.34235],[2.185064,42.342351],[2.185214,42.342445],[2.18528,42.342426],[2.18534,42.342409],[2.185368,42.342329],[2.18538,42.342288],[2.185731,42.342204],[2.185906,42.342215],[2.186046,42.342198],[2.18613,42.342176],[2.186133,42.342176],[2.186138,42.342175],[2.186191,42.342163],[2.186197,42.342162],[2.186245,42.342154],[2.186274,42.342152],[2.186302,42.342154],[2.186374,42.342167],[2.186445,42.342181],[2.186516,42.342195],[2.186586,42.342209],[2.186654,42.342218],[2.186717,42.342187],[2.186754,42.342169],[2.186822,42.342136],[2.186871,42.342094],[2.186921,42.34205],[2.186789,42.342028],[2.186689,42.342012],[2.186502,42.341997],[2.186334,42.341982],[2.186103,42.341932],[2.185924,42.341952],[2.185746,42.341974],[2.185586,42.341944],[2.185534,42.341924],[2.185335,42.341848],[2.185315,42.341745],[2.185312,42.341727],[2.185334,42.341684],[2.185352,42.34165],[2.185345,42.341647],[2.185338,42.341645],[2.185306,42.341645],[2.185272,42.341643],[2.185168,42.341644],[2.185144,42.341646],[2.185101,42.341647],[2.185073,42.341647],[2.185039,42.341645],[2.185031,42.341646],[2.185015,42.341612],[2.184978,42.341529],[2.184974,42.341528],[2.184964,42.341524],[2.184878,42.341545],[2.184847,42.341552],[2.184843,42.341549],[2.184761,42.341561],[2.184755,42.341561],[2.184749,42.341561],[2.184745,42.34156],[2.184726,42.341562],[2.184686,42.341572],[2.184642,42.341583],[2.184633,42.341576],[2.184623,42.341566],[2.184617,42.34156],[2.184613,42.341558],[2.184597,42.341561],[2.184573,42.341566],[2.184556,42.341569],[2.18454,42.341568],[2.184534,42.34157],[2.184534,42.341571],[2.184532,42.341576],[2.184531,42.341587],[2.184524,42.341597],[2.184515,42.341605],[2.184512,42.341612],[2.184512,42.341612],[2.184515,42.341622],[2.184518,42.341628],[2.184516,42.341641],[2.184512,42.341646],[2.184508,42.341656],[2.184508,42.341667],[2.184512,42.341673],[2.184447,42.341699],[2.184408,42.341715],[2.184406,42.341715],[2.184497,42.34184],[2.184506,42.341848],[2.184535,42.341875],[2.184543,42.341872],[2.184632,42.341927],[2.184646,42.341938],[2.184645,42.341939],[2.184638,42.341955],[2.184636,42.341956],[2.184612,42.34197],[2.184583,42.341983],[2.184538,42.341963],[2.184535,42.341958],[2.184531,42.341951],[2.184502,42.341938],[2.184516,42.341935],[2.184417,42.341885],[2.184294,42.341823],[2.184193,42.341759],[2.184143,42.341735],[2.184136,42.341735],[2.184133,42.341733],[2.184103,42.341735],[2.183938,42.341743],[2.183886,42.341756],[2.183695,42.341796],[2.183493,42.341838],[2.183497,42.341846],[2.183306,42.34197],[2.183292,42.341986],[2.183281,42.342041],[2.183285,42.342055],[2.183258,42.342071],[2.183184,42.342149],[2.183075,42.342222],[2.183061,42.342246],[2.183048,42.342246],[2.183011,42.342249],[2.182999,42.342251],[2.182985,42.342255],[2.182969,42.34226],[2.182961,42.342262],[2.182937,42.342268],[2.182929,42.342268],[2.182924,42.342267],[2.182911,42.34226],[2.182907,42.342256],[2.182904,42.342253],[2.182891,42.342215],[2.182872,42.342165],[2.182861,42.342136],[2.182857,42.342121],[2.182852,42.342103],[2.182844,42.342066],[2.18283,42.342014],[2.182822,42.34198],[2.182813,42.341949],[2.182809,42.341939],[2.1828,42.34192],[2.182787,42.341898],[2.182755,42.341867],[2.182532,42.341718],[2.182485,42.341686],[2.182418,42.341641],[2.182346,42.341613],[2.182378,42.341539],[2.18219,42.34146],[2.182189,42.341459],[2.182236,42.341335],[2.182138,42.341313],[2.182137,42.341311],[2.182133,42.341302],[2.181932,42.341254],[2.181869,42.341256],[2.181579,42.341261],[2.181401,42.341232],[2.181361,42.341196],[2.181284,42.341149],[2.181132,42.3411],[2.181107,42.34107],[2.180987,42.341027],[2.180869,42.340994],[2.180814,42.34098],[2.180792,42.340975],[2.180781,42.340972],[2.180774,42.340968],[2.180769,42.340965],[2.180765,42.34096],[2.180762,42.340952],[2.18076,42.340943],[2.18076,42.340941],[2.180755,42.340911],[2.180737,42.34089],[2.180702,42.34085],[2.180689,42.340825],[2.180687,42.340821],[2.180635,42.340812],[2.180582,42.340801],[2.180489,42.340826],[2.180472,42.340827],[2.180409,42.340879],[2.180445,42.340955],[2.180452,42.340971],[2.180455,42.340977],[2.18051,42.34096],[2.180562,42.340957],[2.180655,42.340957],[2.180712,42.340958],[2.180715,42.340981],[2.180897,42.341033],[2.180883,42.341196],[2.180881,42.341213],[2.180879,42.341235],[2.180876,42.341308],[2.180878,42.341361],[2.180874,42.341409],[2.180872,42.34143],[2.180865,42.341442],[2.180864,42.341444],[2.180843,42.341477],[2.180804,42.341497],[2.180758,42.341533],[2.180741,42.34156],[2.180717,42.341604],[2.180688,42.34164],[2.180595,42.341687],[2.180478,42.341725],[2.180409,42.341736],[2.180386,42.341755],[2.180326,42.341803],[2.180305,42.341818],[2.180291,42.341825],[2.180282,42.341865],[2.180301,42.341926],[2.180294,42.341927],[2.180314,42.342013],[2.180426,42.342002],[2.180477,42.341999],[2.180474,42.341981],[2.180487,42.341981],[2.180526,42.34198],[2.180595,42.341976],[2.180743,42.341969],[2.180721,42.34188],[2.180712,42.341753],[2.180757,42.341725],[2.180787,42.341715],[2.180832,42.341699],[2.180866,42.34169],[2.180889,42.341682],[2.180899,42.34168],[2.180911,42.341678],[2.180939,42.34168],[2.181003,42.341692],[2.181045,42.341699],[2.181105,42.341713],[2.181204,42.341734],[2.181267,42.341749],[2.18132,42.341764],[2.181369,42.341779],[2.181438,42.341805],[2.181495,42.341826],[2.181615,42.341613],[2.181691,42.341639],[2.181791,42.341677],[2.18189,42.341716],[2.182003,42.341764],[2.182114,42.341814],[2.182209,42.341862],[2.182306,42.34191],[2.182386,42.341948],[2.182466,42.341986],[2.1825,42.342003],[2.182529,42.342022],[2.182543,42.342036],[2.182556,42.342055],[2.18257,42.342076],[2.1826,42.34212],[2.182611,42.342137],[2.182629,42.342163],[2.18263,42.342165],[2.182692,42.342259],[2.182757,42.342353],[2.182773,42.342373],[2.18279,42.342391],[2.182809,42.342421],[2.182829,42.342452],[2.182844,42.342477],[2.182852,42.34249],[2.182861,42.342498],[2.182865,42.342502],[2.182875,42.342508],[2.18289,42.342511],[2.182893,42.342512],[2.182894,42.342512],[2.182913,42.342512],[2.182918,42.342511],[2.182951,42.342508],[2.182969,42.342502],[2.182982,42.342494],[2.183001,42.342475],[2.18302,42.342456],[2.183058,42.34244],[2.183093,42.342425],[2.183125,42.342411],[2.183158,42.342397],[2.183334,42.342397],[2.183348,42.342466],[2.183307,42.342519],[2.183211,42.342604],[2.183154,42.34274],[2.183139,42.342794],[2.183129,42.342819],[2.183119,42.342846],[2.183108,42.342865],[2.183089,42.342876],[2.183064,42.342885],[2.183042,42.342888],[2.18303,42.342889],[2.182999,42.34289],[2.182984,42.342891],[2.182981,42.342891],[2.182967,42.342891],[2.182949,42.342892],[2.182934,42.342894],[2.182901,42.342903],[2.18288,42.342912],[2.182844,42.34293],[2.182797,42.342952],[2.182758,42.342969],[2.182724,42.342978],[2.18271,42.34298],[2.182708,42.34298],[2.1827,42.342981],[2.182688,42.342977],[2.182687,42.342976],[2.182676,42.342969],[2.182654,42.342952],[2.182631,42.34293],[2.182534,42.342806],[2.182528,42.342797],[2.182475,42.34273],[2.182459,42.342707],[2.18243,42.342671],[2.182399,42.342632],[2.182383,42.342616],[2.182372,42.342605],[2.182341,42.342573],[2.182296,42.342532],[2.182256,42.342496],[2.18222,42.342465],[2.18218,42.342434],[2.182145,42.34241],[2.182106,42.342385],[2.182077,42.342368],[2.182056,42.342355],[2.182055,42.342355],[2.182041,42.342368],[2.181989,42.342415],[2.181969,42.342419],[2.181881,42.342501],[2.181823,42.34255],[2.181856,42.34259],[2.181903,42.342625],[2.182029,42.342718],[2.18204,42.342723],[2.18211,42.342761],[2.182179,42.3428],[2.182235,42.342829],[2.182287,42.342855],[2.18229,42.342858],[2.182325,42.342889],[2.182363,42.342916],[2.182403,42.342942],[2.182458,42.342971],[2.182513,42.342999],[2.182579,42.34303],[2.182587,42.343033],[2.18259,42.343034],[2.182603,42.343131],[2.182603,42.343134],[2.182602,42.343192],[2.182636,42.343214],[2.182664,42.343227],[2.182703,42.343245],[2.182727,42.343239],[2.182788,42.343197],[2.183028,42.343084],[2.183067,42.343053],[2.183084,42.342971],[2.183093,42.342953],[2.183104,42.342931],[2.183107,42.342928],[2.18311,42.342924],[2.183113,42.342922],[2.183115,42.34292],[2.183117,42.342918],[2.183121,42.342916],[2.183125,42.342913],[2.183128,42.34291],[2.183158,42.342893],[2.183176,42.342862],[2.183188,42.342832],[2.183198,42.342805],[2.183246,42.342634],[2.183258,42.342616],[2.183269,42.342604],[2.183278,42.342595],[2.183296,42.342587],[2.18333,42.342573],[2.183353,42.342562],[2.183377,42.342544],[2.18339,42.342522],[2.183393,42.342519],[2.183396,42.342515],[2.183399,42.342512],[2.183402,42.342509],[2.183406,42.342507],[2.183411,42.342504],[2.183416,42.342502],[2.183421,42.3425],[2.183425,42.342499],[2.183429,42.342498],[2.183434,42.342497],[2.183512,42.342489],[2.183515,42.342452],[2.183858,42.342448],[2.183985,42.342449],[2.184078,42.34245],[2.184094,42.342461],[2.184093,42.342526]]]]}},{"type":"Feature","id":"170433_170433 AP06 RIP 3","properties":{"area_id":"170433_170433 AP06 RIP 3","nom":"Vilamanya","codi_icgc":"170433 AP06 RIP 3","categoria":"Àrees de poblament","codi_municipi":"170433","municipi":"Queralbs","codi_comarca":"31","comarca":"Ripollès","provincia":"Girona","font":"ICGC Àrees de poblament v3r1 202602"},"geometry":{"type":"MultiPolygon","coordinates":[[[[2.164692,42.337141],[2.164693,42.337144],[2.164782,42.337142],[2.164825,42.337153],[2.16483,42.337167],[2.164868,42.337182],[2.164965,42.337172],[2.165023,42.337172],[2.165042,42.337169],[2.16508,42.337237],[2.165092,42.337275],[2.165147,42.337377],[2.165365,42.337253],[2.165471,42.337165],[2.16549,42.337154],[2.165505,42.337115],[2.165487,42.337054],[2.165434,42.337039],[2.165328,42.337021],[2.165217,42.337013],[2.165116,42.337012],[2.165035,42.336987],[2.164996,42.336993],[2.164935,42.3369],[2.165012,42.336858],[2.165069,42.336775],[2.165058,42.336763],[2.165075,42.336739],[2.165148,42.336674],[2.165172,42.336662],[2.164878,42.336481],[2.164577,42.336729],[2.164262,42.336888],[2.164108,42.33698],[2.164128,42.337059],[2.164253,42.337099],[2.164325,42.337121],[2.164328,42.337122],[2.164446,42.337136],[2.164483,42.337134],[2.164692,42.337141]]]]}},{"type":"Feature","id":"170433_170433 AP03 RIP 3","properties":{"area_id":"170433_170433 AP03 RIP 3","nom":"la Farga","codi_icgc":"170433 AP03 RIP 3","categoria":"Àrees de poblament","codi_municipi":"170433","municipi":"Queralbs","codi_comarca":"31","comarca":"Ripollès","provincia":"Girona","font":"ICGC Àrees de poblament v3r1 202602"},"geometry":{"type":"MultiPolygon","coordinates":[[[[2.170392,42.354818],[2.170332,42.355037],[2.170541,42.35551],[2.170515,42.355771],[2.170511,42.356116],[2.170757,42.356345],[2.17112,42.356423],[2.171329,42.356037],[2.171355,42.35581],[2.17121,42.355574],[2.171341,42.355137],[2.170392,42.354818]]]]}}]}