{"type":"FeatureCollection","name":"ICGC Àrees de poblament - Capmany","features":[{"type":"Feature","id":"170427_170427 AP04 AEM 2","properties":{"area_id":"170427_170427 AP04 AEM 2","nom":"Bosquerós","codi_icgc":"170427 AP04 AEM 2","categoria":"Àrees de poblament","codi_municipi":"170427","municipi":"Capmany","codi_comarca":"02","comarca":"Alt Empordà","provincia":"Girona","font":"ICGC Àrees de poblament v3r1 202602"},"geometry":{"type":"MultiPolygon","coordinates":[[[[2.872111,42.377176],[2.871712,42.377018],[2.871577,42.377004],[2.871515,42.377001],[2.871401,42.377018],[2.871279,42.377013],[2.871176,42.376997],[2.871064,42.37697],[2.870993,42.376939],[2.870923,42.376887],[2.87082,42.376801],[2.870749,42.376734],[2.870586,42.376731],[2.870589,42.376737],[2.870566,42.376799],[2.870548,42.376864],[2.87054,42.376938],[2.870536,42.376997],[2.870584,42.377055],[2.870625,42.3771],[2.870686,42.377164],[2.870735,42.377207],[2.870805,42.37725],[2.871003,42.377339],[2.871054,42.377349],[2.871141,42.37737],[2.871218,42.377382],[2.871327,42.377392],[2.871427,42.377397],[2.871494,42.377402],[2.871558,42.377414],[2.871623,42.377435],[2.871716,42.377466],[2.871761,42.377514],[2.871837,42.377648],[2.871883,42.377626],[2.8722,42.377439],[2.872289,42.377372],[2.872338,42.377325],[2.872357,42.377282],[2.872348,42.377253],[2.872297,42.377226],[2.872224,42.377186],[2.872156,42.377177],[2.872111,42.377176]]],[[[2.869329,42.377653],[2.869375,42.377576],[2.869406,42.377569],[2.869455,42.377518],[2.869642,42.377105],[2.869649,42.37705],[2.869623,42.377024],[2.869517,42.377053],[2.869411,42.377057],[2.869257,42.377062],[2.869029,42.377057],[2.868851,42.377039],[2.868725,42.377034],[2.868633,42.377016],[2.868576,42.377001],[2.868571,42.376982],[2.868551,42.37685],[2.868541,42.376787],[2.868582,42.376738],[2.868725,42.376623],[2.868715,42.376582],[2.868722,42.376525],[2.868734,42.376486],[2.868779,42.376445],[2.868814,42.376411],[2.868811,42.376376],[2.868784,42.37635],[2.868728,42.376311],[2.868632,42.37627],[2.868542,42.376249],[2.86837,42.376203],[2.86829,42.376186],[2.868254,42.37617],[2.868227,42.376146],[2.868208,42.376093],[2.868163,42.376143],[2.86807,42.376257],[2.867896,42.376208],[2.86775,42.376149],[2.867803,42.376105],[2.867797,42.376086],[2.867765,42.376063],[2.867729,42.37605],[2.86767,42.376061],[2.867583,42.376098],[2.867508,42.376025],[2.86744,42.375961],[2.867426,42.375963],[2.867352,42.375991],[2.867328,42.376018],[2.867397,42.376121],[2.867427,42.376169],[2.867406,42.376204],[2.86736,42.376274],[2.867365,42.376457],[2.867432,42.376479],[2.867434,42.37655],[2.867483,42.3766],[2.867576,42.37663],[2.867666,42.376661],[2.867754,42.376701],[2.867815,42.37673],[2.867846,42.376743],[2.867864,42.376772],[2.86784,42.376834],[2.867823,42.376899],[2.867815,42.376973],[2.86781,42.377032],[2.867789,42.377144],[2.867783,42.377208],[2.867816,42.377267],[2.867951,42.377343],[2.868065,42.377392],[2.868132,42.377417],[2.868159,42.377443],[2.86822,42.377529],[2.868264,42.377581],[2.868304,42.377612],[2.868358,42.37763],[2.868418,42.377637],[2.868466,42.377637],[2.86853,42.377626],[2.868625,42.377596],[2.868691,42.377576],[2.868693,42.377601],[2.86858,42.377773],[2.868888,42.377871],[2.868949,42.377904],[2.869125,42.377761],[2.86919,42.37771],[2.869249,42.377692],[2.869301,42.377673],[2.869329,42.377653]]]]}},{"type":"Feature","id":"170427_170427 AP01 AEM 3","properties":{"area_id":"170427_170427 AP01 AEM 3","nom":"Capmany","codi_icgc":"170427 AP01 AEM 3","categoria":"Àrees de poblament","codi_municipi":"170427","municipi":"Capmany","codi_comarca":"02","comarca":"Alt Empordà","provincia":"Girona","font":"ICGC Àrees de poblament v3r1 202602"},"geometry":{"type":"MultiPolygon","coordinates":[[[[2.918152,42.372052],[2.917983,42.371969],[2.917804,42.371885],[2.917656,42.371807],[2.917547,42.371725],[2.917441,42.371628],[2.917274,42.371458],[2.917158,42.371315],[2.917001,42.37116],[2.916882,42.37107],[2.917079,42.370879],[2.916828,42.370738],[2.91675,42.370818],[2.916673,42.370869],[2.916596,42.370905],[2.916527,42.370915],[2.916446,42.370941],[2.916436,42.370958],[2.915927,42.371427],[2.915731,42.37162],[2.915673,42.371667],[2.915721,42.371692],[2.915866,42.371768],[2.916019,42.37181],[2.916131,42.371899],[2.916163,42.371947],[2.916107,42.372012],[2.916396,42.372197],[2.916798,42.372323],[2.917143,42.372442],[2.917279,42.372442],[2.91785,42.372607],[2.917936,42.372626],[2.917902,42.372665],[2.917887,42.372687],[2.91782,42.372784],[2.91801,42.37283],[2.917926,42.372962],[2.917847,42.373089],[2.918195,42.373209],[2.918082,42.373303],[2.918009,42.373364],[2.917797,42.37331],[2.917469,42.373191],[2.917093,42.373505],[2.917006,42.373565],[2.917429,42.373742],[2.917436,42.373745],[2.917452,42.37375],[2.917294,42.373953],[2.917273,42.373985],[2.917086,42.374206],[2.917072,42.374224],[2.916941,42.374406],[2.916774,42.37461],[2.916761,42.374643],[2.916757,42.374668],[2.916756,42.374675],[2.91675,42.374717],[2.916747,42.374734],[2.916412,42.374707],[2.916354,42.374745],[2.916296,42.374833],[2.916276,42.374907],[2.916273,42.375076],[2.916192,42.375205],[2.916096,42.375245],[2.915942,42.375269],[2.915739,42.375266],[2.915556,42.375267],[2.914427,42.37504],[2.914211,42.375663],[2.91428,42.375713],[2.914416,42.375781],[2.91542,42.375997],[2.915584,42.375924],[2.915726,42.375784],[2.91588,42.37561],[2.915983,42.375502],[2.916105,42.37535],[2.916202,42.375286],[2.916417,42.375257],[2.916697,42.37521],[2.916957,42.375186],[2.917253,42.375167],[2.917257,42.37519],[2.917277,42.375266],[2.917314,42.375269],[2.91748,42.375334],[2.917547,42.375299],[2.917558,42.375296],[2.91759,42.375304],[2.918063,42.37543],[2.918093,42.375438],[2.918131,42.375449],[2.918259,42.375488],[2.918469,42.375533],[2.918513,42.375543],[2.918521,42.375544],[2.918539,42.375545],[2.918545,42.375546],[2.918803,42.375621],[2.918897,42.37566],[2.918878,42.375676],[2.918849,42.37575],[2.918832,42.375784],[2.918878,42.375813],[2.918866,42.375822],[2.918929,42.375873],[2.918538,42.376152],[2.918568,42.376175],[2.91901,42.376365],[2.919194,42.376407],[2.919194,42.376599],[2.919634,42.376606],[2.919697,42.3766],[2.919717,42.376598],[2.919758,42.376598],[2.919762,42.376426],[2.919763,42.376224],[2.91973,42.376116],[2.919676,42.37599],[2.919623,42.375867],[2.91969,42.375852],[2.919698,42.375827],[2.919706,42.375805],[2.92015,42.375874],[2.920179,42.375879],[2.920234,42.375889],[2.920715,42.375975],[2.92084,42.375778],[2.920849,42.375764],[2.920879,42.375762],[2.920889,42.375762],[2.920917,42.375753],[2.920934,42.375754],[2.921029,42.375837],[2.921112,42.375932],[2.921189,42.37609],[2.921327,42.376338],[2.921378,42.376435],[2.921462,42.376543],[2.92154,42.376524],[2.923109,42.375443],[2.922695,42.375128],[2.922608,42.375169],[2.922393,42.374992],[2.922323,42.374891],[2.922375,42.374851],[2.922407,42.374827],[2.922449,42.374795],[2.922458,42.374775],[2.922563,42.374545],[2.922656,42.374508],[2.922824,42.374672],[2.922875,42.374707],[2.922893,42.374719],[2.922929,42.374744],[2.923034,42.374793],[2.923606,42.374983],[2.923642,42.374995],[2.923641,42.375004],[2.923667,42.375013],[2.923702,42.375025],[2.924024,42.375136],[2.924057,42.375169],[2.924057,42.375121],[2.924055,42.375025],[2.924053,42.374805],[2.924049,42.374655],[2.924049,42.374514],[2.924049,42.37448],[2.924114,42.374501],[2.924438,42.374606],[2.924514,42.374587],[2.924589,42.374569],[2.92471,42.374548],[2.924819,42.374554],[2.924767,42.374473],[2.9251,42.374458],[2.925225,42.374316],[2.925293,42.374247],[2.925386,42.374051],[2.92539,42.373972],[2.925357,42.373434],[2.925356,42.373422],[2.925356,42.373414],[2.925314,42.373396],[2.925276,42.37338],[2.925132,42.373385],[2.925093,42.373388],[2.925013,42.373393],[2.924894,42.373401],[2.924816,42.373423],[2.924737,42.373445],[2.924689,42.373461],[2.924618,42.373488],[2.924548,42.373516],[2.924436,42.37356],[2.924379,42.373582],[2.924227,42.373655],[2.92417,42.373682],[2.92389,42.373811],[2.923816,42.373846],[2.923756,42.373875],[2.923654,42.373925],[2.92364,42.373932],[2.92337,42.374064],[2.923048,42.374187],[2.922669,42.374263],[2.922636,42.374222],[2.922625,42.374207],[2.922604,42.374136],[2.922476,42.37416],[2.922425,42.37418],[2.922341,42.374216],[2.922331,42.374221],[2.922253,42.374243],[2.921868,42.374415],[2.921718,42.374444],[2.921621,42.374456],[2.921637,42.374395],[2.921641,42.374334],[2.921473,42.374325],[2.921458,42.37438],[2.921443,42.374379],[2.921011,42.374304],[2.921037,42.374268],[2.92105,42.374247],[2.921096,42.374174],[2.921101,42.374166],[2.921108,42.374154],[2.921236,42.373973],[2.921277,42.373959],[2.92152,42.373646],[2.92217,42.373278],[2.92218,42.373219],[2.922211,42.373216],[2.922222,42.373215],[2.922308,42.373208],[2.922381,42.373209],[2.922453,42.373207],[2.922477,42.373205],[2.922501,42.373203],[2.922547,42.373233],[2.922771,42.37355],[2.922776,42.373558],[2.922846,42.373656],[2.922863,42.37368],[2.923371,42.373497],[2.923456,42.373469],[2.923463,42.373472],[2.923731,42.373389],[2.92403,42.373292],[2.92407,42.373268],[2.92408,42.373252],[2.92407,42.373236],[2.923896,42.373119],[2.923749,42.37303],[2.923669,42.37298],[2.923492,42.372872],[2.923468,42.372857],[2.923299,42.372753],[2.923073,42.372614],[2.923057,42.372605],[2.923043,42.372597],[2.922935,42.372535],[2.922797,42.372455],[2.922485,42.372259],[2.922336,42.37217],[2.921818,42.37178],[2.92166,42.371703],[2.921653,42.371699],[2.921392,42.372025],[2.920992,42.371914],[2.920876,42.371917],[2.920773,42.371925],[2.920706,42.371935],[2.920485,42.37193],[2.920448,42.37193],[2.920436,42.371929],[2.920437,42.37209],[2.920442,42.372175],[2.920447,42.372207],[2.920447,42.372275],[2.920471,42.372321],[2.920505,42.372389],[2.920493,42.372392],[2.920379,42.372421],[2.920341,42.372431],[2.920332,42.372432],[2.920235,42.372444],[2.920216,42.372324],[2.920034,42.37233],[2.919891,42.372341],[2.919628,42.372351],[2.919605,42.372352],[2.919539,42.372354],[2.919414,42.372348],[2.919253,42.372311],[2.919241,42.37231],[2.919154,42.372291],[2.919126,42.372278],[2.919114,42.37227],[2.919092,42.372243],[2.919063,42.372185],[2.91906,42.372151],[2.91907,42.372082],[2.919079,42.372013],[2.91908,42.372002],[2.919078,42.37199],[2.919074,42.371983],[2.919063,42.371974],[2.919049,42.371968],[2.918964,42.371946],[2.918879,42.371927],[2.918865,42.371923],[2.918858,42.371921],[2.918729,42.371877],[2.918529,42.371735],[2.918259,42.371957],[2.918155,42.372049],[2.918152,42.372052]]]]}},{"type":"Feature","id":"170427_170427 SI01 AEM 2","properties":{"area_id":"170427_170427 SI01 AEM 2","nom":"Celler Oliver Conti","codi_icgc":"170427 SI01 AEM 2","categoria":"Sector industrial","codi_municipi":"170427","municipi":"Capmany","codi_comarca":"02","comarca":"Alt Empordà","provincia":"Girona","font":"ICGC Àrees de poblament v3r1 202602"},"geometry":{"type":"MultiPolygon","coordinates":[[[[2.91489,42.364312],[2.915274,42.363911],[2.915286,42.363863],[2.915286,42.363829],[2.915273,42.363791],[2.915237,42.363765],[2.91521,42.363749],[2.91518,42.363733],[2.915157,42.363723],[2.915098,42.363701],[2.915035,42.363686],[2.914971,42.363676],[2.914905,42.363674],[2.914672,42.363977],[2.914661,42.363996],[2.914778,42.364046],[2.914633,42.364204],[2.91489,42.364312]]]]}},{"type":"Feature","id":"170427_170427 AP03 AEM 1","properties":{"area_id":"170427_170427 AP03 AEM 1","nom":"Mare de Déu de la Mercè","codi_icgc":"170427 AP03 AEM 1","categoria":"Àrees de poblament","codi_municipi":"170427","municipi":"Capmany","codi_comarca":"02","comarca":"Alt Empordà","provincia":"Girona","font":"ICGC Àrees de poblament v3r1 202602"},"geometry":{"type":"MultiPolygon","coordinates":[[[[2.895669,42.366123],[2.895681,42.366078],[2.895693,42.365969],[2.895699,42.365915],[2.895691,42.365848],[2.895506,42.36585],[2.895426,42.365848],[2.895307,42.365862],[2.895323,42.366153],[2.895319,42.366288],[2.895332,42.366415],[2.895344,42.366469],[2.895377,42.366517],[2.89545,42.366553],[2.895431,42.36667],[2.895521,42.366691],[2.895508,42.366771],[2.895493,42.366941],[2.895507,42.36708],[2.895549,42.367256],[2.895674,42.367623],[2.895754,42.367602],[2.89576,42.367552],[2.895745,42.367413],[2.895742,42.367287],[2.895751,42.367158],[2.895793,42.367063],[2.895813,42.367015],[2.895882,42.366902],[2.895994,42.366322],[2.895955,42.366315],[2.895869,42.366296],[2.8958,42.366287],[2.895735,42.366308],[2.895675,42.36633],[2.895671,42.366218],[2.895669,42.366123]]]]}},{"type":"Feature","id":"170427_170427 AP02 AEM 3","properties":{"area_id":"170427_170427 AP02 AEM 3","nom":"la Vall","codi_icgc":"170427 AP02 AEM 3","categoria":"Àrees de poblament","codi_municipi":"170427","municipi":"Capmany","codi_comarca":"02","comarca":"Alt Empordà","provincia":"Girona","font":"ICGC Àrees de poblament v3r1 202602"},"geometry":{"type":"MultiPolygon","coordinates":[[[[2.923649,42.365162],[2.923825,42.365195],[2.92376,42.365696],[2.923768,42.365696],[2.923772,42.365695],[2.923885,42.365691],[2.923972,42.365677],[2.924125,42.365661],[2.924257,42.365603],[2.924277,42.365569],[2.924346,42.36549],[2.924134,42.365376],[2.924083,42.365323],[2.923897,42.365113],[2.923936,42.365109],[2.923936,42.365109],[2.924042,42.365096],[2.92436,42.365037],[2.924456,42.364971],[2.924553,42.364866],[2.924553,42.364837],[2.924501,42.36479],[2.924354,42.364756],[2.924251,42.364727],[2.924007,42.364737],[2.923949,42.364722],[2.923891,42.36466],[2.923878,42.36462],[2.923583,42.364609],[2.923555,42.364609],[2.923499,42.364608],[2.923235,42.364798],[2.923277,42.364815],[2.923263,42.364826],[2.92323,42.364894],[2.923174,42.365006],[2.923263,42.365072],[2.923649,42.365162]]]]}}]}