{"type":"FeatureCollection","name":"ICGC Àrees de poblament - Colomers","features":[{"type":"Feature","id":"170558_170558 AP01 BEM 3","properties":{"area_id":"170558_170558 AP01 BEM 3","nom":"Colomers","codi_icgc":"170558 AP01 BEM 3","categoria":"Àrees de poblament","codi_municipi":"170558","municipi":"Colomers","codi_comarca":"10","comarca":"Baix Empordà","provincia":"Girona","font":"ICGC Àrees de poblament v3r1 202602"},"geometry":{"type":"MultiPolygon","coordinates":[[[[2.984402,42.08584],[2.984407,42.085882],[2.984407,42.086062],[2.984407,42.086072],[2.984407,42.08624],[2.984393,42.086465],[2.984387,42.086559],[2.984385,42.086691],[2.984385,42.086763],[2.984385,42.086811],[2.984391,42.086956],[2.984391,42.086971],[2.984389,42.087055],[2.984367,42.087133],[2.984364,42.08717],[2.984354,42.087218],[2.984327,42.08728],[2.984248,42.087455],[2.984235,42.087495],[2.984225,42.087543],[2.984227,42.0876],[2.984243,42.087676],[2.984264,42.087767],[2.984266,42.087774],[2.98428,42.087854],[2.984283,42.087876],[2.984295,42.087971],[2.984296,42.08798],[2.984303,42.088075],[2.984318,42.088162],[2.984346,42.088332],[2.984468,42.08832],[2.98456,42.088311],[2.984797,42.088288],[2.984843,42.088284],[2.985021,42.088274],[2.985069,42.088271],[2.985069,42.088296],[2.985069,42.088339],[2.985069,42.088351],[2.985356,42.088365],[2.985388,42.088366],[2.985613,42.088377],[2.985634,42.088379],[2.985655,42.08838],[2.985675,42.088382],[2.985683,42.088383],[2.98569,42.088384],[2.985698,42.088386],[2.985705,42.088387],[2.985746,42.088388],[2.98588,42.088389],[2.985912,42.08807],[2.985944,42.087869],[2.985956,42.087712],[2.985975,42.087714],[2.985992,42.087717],[2.986009,42.087719],[2.986026,42.087723],[2.986043,42.087726],[2.986046,42.087727],[2.98605,42.087728],[2.986054,42.087729],[2.986057,42.08773],[2.986061,42.087732],[2.986064,42.087733],[2.986068,42.087734],[2.986073,42.087737],[2.986076,42.087739],[2.986079,42.087741],[2.986082,42.087743],[2.9862,42.087744],[2.986213,42.087405],[2.986164,42.087406],[2.986159,42.087406],[2.986155,42.087406],[2.986151,42.087406],[2.986146,42.087405],[2.986142,42.087405],[2.986138,42.087405],[2.986133,42.087404],[2.98585,42.08736],[2.985834,42.087357],[2.985816,42.087354],[2.98582,42.087352],[2.985794,42.087352],[2.985769,42.087351],[2.985742,42.087344],[2.985702,42.08733],[2.985682,42.087325],[2.985661,42.087323],[2.985604,42.087326],[2.985517,42.087328],[2.985482,42.087326],[2.985422,42.08732],[2.985383,42.08732],[2.985333,42.08733],[2.985315,42.087346],[2.985307,42.087356],[2.985296,42.087373],[2.985291,42.087381],[2.985284,42.087409],[2.985286,42.087453],[2.985288,42.08749],[2.985287,42.087502],[2.985287,42.087514],[2.985276,42.087532],[2.985266,42.08755],[2.985261,42.087551],[2.985254,42.08755],[2.985214,42.087564],[2.985157,42.087549],[2.985157,42.087499],[2.985144,42.087313],[2.985134,42.087304],[2.985134,42.087247],[2.985176,42.087246],[2.985256,42.087252],[2.985329,42.087232],[2.985381,42.087202],[2.985416,42.087149],[2.985448,42.08703],[2.985499,42.086905],[2.985527,42.086844],[2.985573,42.086783],[2.985614,42.086738],[2.985688,42.086658],[2.985752,42.086597],[2.985775,42.086568],[2.985798,42.086539],[2.985806,42.086508],[2.985827,42.086461],[2.985842,42.086408],[2.986304,42.086277],[2.986261,42.086181],[2.985841,42.086192],[2.985844,42.085998],[2.985848,42.085919],[2.985866,42.085879],[2.985897,42.085881],[2.985897,42.085877],[2.986101,42.085883],[2.986178,42.085831],[2.986294,42.085793],[2.986425,42.08575],[2.986543,42.085712],[2.986423,42.085641],[2.986336,42.085568],[2.986248,42.085512],[2.986106,42.085408],[2.985921,42.085333],[2.985917,42.085302],[2.985854,42.085256],[2.98606,42.085177],[2.986098,42.08516],[2.986423,42.085014],[2.986587,42.084934],[2.986517,42.08479],[2.986692,42.084815],[2.986796,42.084831],[2.987012,42.084884],[2.987059,42.0849],[2.987115,42.084915],[2.987141,42.084948],[2.987134,42.084959],[2.987153,42.084964],[2.987189,42.084972],[2.987177,42.085006],[2.987175,42.085108],[2.987177,42.085269],[2.987342,42.085266],[2.987364,42.085387],[2.987403,42.085593],[2.987391,42.085846],[2.987386,42.086189],[2.987401,42.086191],[2.987414,42.086253],[2.9874,42.086258],[2.987263,42.086311],[2.987235,42.086321],[2.987035,42.086333],[2.986946,42.086286],[2.986664,42.08619],[2.986543,42.086457],[2.986534,42.086488],[2.986662,42.086519],[2.986796,42.086558],[2.986892,42.0866],[2.986991,42.086643],[2.987078,42.086681],[2.987151,42.086715],[2.987202,42.086727],[2.987247,42.086727],[2.987295,42.086717],[2.987356,42.086691],[2.987417,42.086641],[2.987516,42.086546],[2.987593,42.086469],[2.987622,42.086429],[2.987654,42.086374],[2.987669,42.086295],[2.987739,42.085933],[2.987755,42.08588],[2.987788,42.085845],[2.987995,42.085591],[2.988039,42.085542],[2.988469,42.08559],[2.988539,42.085581],[2.988581,42.085582],[2.988634,42.085575],[2.988653,42.085548],[2.988661,42.085503],[2.988637,42.085425],[2.988589,42.085336],[2.988544,42.085284],[2.988535,42.085261],[2.988697,42.085276],[2.988663,42.085111],[2.988634,42.08506],[2.988574,42.084949],[2.988588,42.084936],[2.988603,42.084923],[2.988607,42.084917],[2.988609,42.084911],[2.988612,42.0849],[2.988613,42.084889],[2.988613,42.084878],[2.988769,42.084905],[2.988791,42.084909],[2.988815,42.084904],[2.988856,42.084864],[2.988835,42.084721],[2.988819,42.084617],[2.988805,42.08457],[2.989138,42.084514],[2.989287,42.084487],[2.9893,42.084485],[2.989314,42.084481],[2.989306,42.084467],[2.98925,42.084366],[2.989218,42.08431],[2.989211,42.0843],[2.989198,42.084283],[2.989179,42.084283],[2.989145,42.084285],[2.989085,42.084288],[2.988865,42.084299],[2.988758,42.0843],[2.988757,42.0843],[2.988752,42.084166],[2.988739,42.084016],[2.988723,42.083792],[2.988746,42.083778],[2.988745,42.083774],[2.988783,42.083768],[2.988806,42.083716],[2.988844,42.083701],[2.988946,42.083699],[2.989126,42.083674],[2.989207,42.083669],[2.989305,42.083632],[2.989325,42.083569],[2.989353,42.083516],[2.989343,42.083478],[2.989286,42.083484],[2.989281,42.083476],[2.989275,42.083466],[2.98926,42.083456],[2.989241,42.083446],[2.989206,42.08345],[2.989121,42.083459],[2.989109,42.08346],[2.989122,42.083378],[2.989117,42.083377],[2.989078,42.083374],[2.989072,42.083373],[2.988973,42.083359],[2.988871,42.083344],[2.988709,42.08332],[2.988674,42.083315],[2.988654,42.083312],[2.988606,42.083306],[2.988532,42.083297],[2.988522,42.083296],[2.98837,42.08328],[2.988283,42.083273],[2.988271,42.083272],[2.988174,42.083269],[2.988076,42.083268],[2.988011,42.083268],[2.987991,42.08327],[2.987956,42.083276],[2.987799,42.083294],[2.987666,42.083318],[2.987573,42.083335],[2.987444,42.083358],[2.987292,42.083387],[2.987277,42.083389],[2.986928,42.083454],[2.986892,42.083461],[2.986881,42.083463],[2.986653,42.083506],[2.986618,42.083513],[2.986508,42.083533],[2.986453,42.083544],[2.986249,42.083584],[2.986178,42.083598],[2.986113,42.083611],[2.985932,42.083646],[2.985904,42.083652],[2.985702,42.083691],[2.985617,42.08371],[2.985521,42.083729],[2.985475,42.083738],[2.985331,42.083765],[2.98527,42.083776],[2.985189,42.083793],[2.985234,42.083914],[2.985045,42.08397],[2.985082,42.084192],[2.985083,42.084195],[2.984964,42.084232],[2.984959,42.084242],[2.984957,42.084257],[2.984962,42.084272],[2.984969,42.084293],[2.985144,42.084986],[2.98515,42.085037],[2.985156,42.085087],[2.985159,42.085106],[2.985158,42.085124],[2.985139,42.085162],[2.98512,42.0852],[2.98509,42.085265],[2.985059,42.085329],[2.985034,42.085397],[2.985014,42.085466],[2.984981,42.085605],[2.984971,42.085656],[2.984957,42.085706],[2.98494,42.085738],[2.984919,42.085757],[2.984915,42.08576],[2.984846,42.085768],[2.984651,42.08579],[2.984537,42.085797],[2.98447,42.085809],[2.984421,42.085829],[2.984402,42.08584]]]]}}]}