{"type":"FeatureCollection","name":"ICGC Àrees de poblament - Cervià de Ter","features":[{"type":"Feature","id":"170502_170502 AP01 GIR 3","properties":{"area_id":"170502_170502 AP01 GIR 3","nom":"Cervià de Ter","codi_icgc":"170502 AP01 GIR 3","categoria":"Àrees de poblament","codi_municipi":"170502","municipi":"Cervià de Ter","codi_comarca":"20","comarca":"Gironès","provincia":"Girona","font":"ICGC Àrees de poblament v3r1 202602"},"geometry":{"type":"MultiPolygon","coordinates":[[[[2.907869,42.071246],[2.907869,42.071201],[2.907918,42.070814],[2.907998,42.070415],[2.908023,42.070311],[2.908127,42.069984],[2.908331,42.069594],[2.907964,42.069489],[2.908012,42.069406],[2.908108,42.069233],[2.908168,42.069078],[2.908309,42.068863],[2.908841,42.068832],[2.90884,42.068827],[2.90884,42.068824],[2.908875,42.068825],[2.908945,42.068826],[2.90895,42.068826],[2.908962,42.068785],[2.908977,42.068736],[2.90899,42.068692],[2.908998,42.068616],[2.909347,42.068727],[2.909446,42.068534],[2.909865,42.068596],[2.909942,42.068587],[2.909945,42.068396],[2.910169,42.068053],[2.910331,42.068082],[2.910561,42.068164],[2.910552,42.068179],[2.910479,42.068312],[2.910455,42.068423],[2.910435,42.06852],[2.910437,42.068521],[2.910459,42.068574],[2.910507,42.068628],[2.910603,42.068653],[2.910699,42.068664],[2.910824,42.068667],[2.910867,42.068611],[2.910872,42.068612],[2.911091,42.068658],[2.911073,42.068899],[2.911077,42.0689],[2.911095,42.068902],[2.911472,42.068951],[2.911476,42.068952],[2.91148,42.06893],[2.911537,42.068582],[2.911573,42.068358],[2.911792,42.068352],[2.912396,42.068457],[2.912982,42.068555],[2.91356,42.068771],[2.913472,42.068934],[2.913393,42.069404],[2.913305,42.069665],[2.91332,42.069669],[2.913348,42.069678],[2.913921,42.069851],[2.914171,42.069926],[2.914187,42.069898],[2.914347,42.069607],[2.914837,42.069699],[2.914969,42.069248],[2.914967,42.069199],[2.914963,42.069015],[2.91496,42.068889],[2.914989,42.068815],[2.915126,42.068461],[2.915215,42.06823],[2.915049,42.068171],[2.915238,42.067872],[2.91525,42.067852],[2.915272,42.067831],[2.915774,42.06794],[2.916385,42.068032],[2.917297,42.06816],[2.91753,42.067565],[2.917103,42.067449],[2.917082,42.067443],[2.917227,42.067053],[2.917017,42.067027],[2.916831,42.067004],[2.916458,42.066957],[2.915758,42.06687],[2.915687,42.066861],[2.915141,42.066793],[2.915037,42.06678],[2.912872,42.066511],[2.912769,42.066498],[2.912762,42.066497],[2.912709,42.066491],[2.912579,42.066474],[2.912407,42.066453],[2.912361,42.066448],[2.912474,42.066127],[2.912563,42.065764],[2.912939,42.065865],[2.913026,42.06569],[2.912612,42.065581],[2.912648,42.065381],[2.912203,42.06527],[2.912041,42.065925],[2.911997,42.065905],[2.911646,42.065745],[2.911494,42.065883],[2.911343,42.066073],[2.910632,42.065989],[2.910644,42.065917],[2.910629,42.06575],[2.910632,42.065461],[2.910553,42.065434],[2.910245,42.065397],[2.910156,42.065711],[2.910045,42.065701],[2.909039,42.065562],[2.909122,42.065198],[2.907246,42.06486],[2.907244,42.06486],[2.906341,42.064711],[2.905678,42.064481],[2.905665,42.06448],[2.905651,42.064479],[2.905596,42.064475],[2.905357,42.064521],[2.904819,42.064398],[2.904648,42.064605],[2.904504,42.064685],[2.904469,42.064739],[2.904226,42.065116],[2.904192,42.065169],[2.904132,42.065279],[2.9041,42.065326],[2.904059,42.065346],[2.903942,42.065369],[2.903693,42.065449],[2.903672,42.065459],[2.903648,42.065502],[2.903675,42.065592],[2.90369,42.065652],[2.903731,42.065728],[2.903775,42.065851],[2.903859,42.06607],[2.904051,42.066113],[2.903997,42.066356],[2.903979,42.066433],[2.904098,42.066643],[2.904108,42.066649],[2.904252,42.06673],[2.904338,42.066945],[2.904368,42.06713],[2.904388,42.067138],[2.90462,42.067219],[2.904974,42.067214],[2.904966,42.067059],[2.905002,42.067032],[2.905222,42.067044],[2.905338,42.066991],[2.905594,42.067024],[2.905637,42.067366],[2.905438,42.067466],[2.905249,42.067533],[2.90507,42.067605],[2.904978,42.067641],[2.904944,42.067641],[2.904855,42.067547],[2.904768,42.067439],[2.904336,42.067618],[2.904475,42.067791],[2.904555,42.067888],[2.904846,42.067788],[2.904846,42.067789],[2.904947,42.068046],[2.904964,42.068106],[2.904665,42.068164],[2.905032,42.069225],[2.905042,42.069253],[2.905051,42.069275],[2.905192,42.069601],[2.905195,42.069607],[2.90531,42.069607],[2.905472,42.069607],[2.905508,42.0696],[2.905519,42.069594],[2.905491,42.069715],[2.905492,42.069729],[2.906031,42.069927],[2.906019,42.069948],[2.905915,42.070117],[2.905855,42.070251],[2.905829,42.070325],[2.905817,42.070361],[2.905823,42.070362],[2.905814,42.070417],[2.905804,42.070517],[2.905822,42.070553],[2.905846,42.070587],[2.905881,42.070623],[2.905922,42.070656],[2.905968,42.070685],[2.90602,42.070708],[2.906075,42.070726],[2.906172,42.070657],[2.906272,42.070591],[2.906308,42.07053],[2.906328,42.070494],[2.906337,42.070496],[2.90637,42.070421],[2.906448,42.070239],[2.906703,42.069767],[2.907135,42.069889],[2.907254,42.070225],[2.907115,42.070296],[2.907048,42.070364],[2.906999,42.070511],[2.907014,42.070604],[2.907052,42.070679],[2.90711,42.070733],[2.907162,42.070761],[2.90721,42.070779],[2.907268,42.070804],[2.907397,42.070815],[2.907349,42.071201],[2.907022,42.071186],[2.906988,42.071572],[2.906725,42.071639],[2.906753,42.071744],[2.906792,42.071887],[2.906833,42.07203],[2.906834,42.072031],[2.906932,42.072333],[2.907046,42.072414],[2.907089,42.072444],[2.907139,42.072475],[2.907162,42.072481],[2.90722,42.072499],[2.907249,42.072507],[2.907275,42.072518],[2.907306,42.072535],[2.907347,42.072564],[2.907366,42.072581],[2.90737,42.072586],[2.907391,42.072628],[2.907463,42.072609],[2.907511,42.072535],[2.907552,42.072452],[2.907578,42.072392],[2.907623,42.072273],[2.907687,42.072142],[2.907764,42.072016],[2.907841,42.071887],[2.907932,42.071709],[2.907965,42.071602],[2.908013,42.071424],[2.908042,42.071317],[2.908061,42.071267],[2.908019,42.071262],[2.907869,42.071246]]]]}},{"type":"Feature","id":"170502_170502 AP02 GIR 3","properties":{"area_id":"170502_170502 AP02 GIR 3","nom":"Raset","codi_icgc":"170502 AP02 GIR 3","categoria":"Àrees de poblament","codi_municipi":"170502","municipi":"Cervià de Ter","codi_comarca":"20","comarca":"Gironès","provincia":"Girona","font":"ICGC Àrees de poblament v3r1 202602"},"geometry":{"type":"MultiPolygon","coordinates":[[[[2.922981,42.074806],[2.922987,42.074377],[2.923,42.074233],[2.923033,42.07417],[2.92308,42.074136],[2.923138,42.074113],[2.923266,42.074104],[2.923392,42.074106],[2.923512,42.074115],[2.923596,42.074088],[2.923596,42.074088],[2.923612,42.074082],[2.923641,42.07408],[2.92367,42.074079],[2.923728,42.074077],[2.923759,42.074069],[2.923785,42.074053],[2.923799,42.074039],[2.923805,42.074023],[2.923805,42.07401],[2.923807,42.07401],[2.92394,42.073999],[2.924022,42.073212],[2.924814,42.073015],[2.92515,42.072962],[2.925294,42.072748],[2.925376,42.072554],[2.925381,42.072542],[2.925346,42.072545],[2.925302,42.072547],[2.925227,42.072552],[2.924992,42.072492],[2.924851,42.072418],[2.92486,42.07239],[2.924869,42.072365],[2.92499,42.072002],[2.925134,42.071674],[2.925194,42.071622],[2.925239,42.071584],[2.925316,42.071525],[2.92557,42.071603],[2.925638,42.071624],[2.925658,42.071621],[2.92565,42.071636],[2.925829,42.071683],[2.925972,42.07153],[2.926024,42.071558],[2.926461,42.071795],[2.926486,42.071801],[2.926822,42.071515],[2.926732,42.071313],[2.926964,42.071324],[2.927149,42.071347],[2.927309,42.071386],[2.927462,42.071462],[2.927712,42.071605],[2.927935,42.071734],[2.928095,42.071844],[2.928178,42.071872],[2.928306,42.071853],[2.928549,42.071811],[2.928773,42.071763],[2.928895,42.071821],[2.928901,42.071881],[2.928921,42.071942],[2.928734,42.071966],[2.92875,42.07201],[2.928578,42.072044],[2.928591,42.072079],[2.928602,42.072112],[2.928619,42.072109],[2.928623,42.072116],[2.92891,42.072052],[2.928959,42.072067],[2.928931,42.072084],[2.928721,42.07227],[2.928673,42.07235],[2.928591,42.072421],[2.9286,42.072511],[2.928525,42.072535],[2.928523,42.072615],[2.928515,42.072621],[2.928493,42.072653],[2.928166,42.07284],[2.92818,42.073006],[2.92818,42.073011],[2.928775,42.072967],[2.928995,42.072949],[2.929046,42.072946],[2.929046,42.072943],[2.929048,42.072746],[2.930013,42.072795],[2.930026,42.072796],[2.930105,42.0728],[2.930109,42.0728],[2.930105,42.072845],[2.930116,42.072939],[2.930328,42.072985],[2.930401,42.073007],[2.930488,42.073034],[2.930537,42.07305],[2.930579,42.073064],[2.930681,42.073101],[2.930781,42.073139],[2.930906,42.073189],[2.930935,42.073201],[2.930956,42.07318],[2.930986,42.07315],[2.931165,42.072726],[2.930896,42.072654],[2.930948,42.072492],[2.930756,42.07243],[2.930792,42.072341],[2.930827,42.072237],[2.930835,42.072212],[2.930532,42.072119],[2.930474,42.072114],[2.930385,42.072106],[2.930327,42.072105],[2.930263,42.072108],[2.930232,42.072068],[2.930219,42.07202],[2.930241,42.071996],[2.930334,42.071893],[2.930043,42.071746],[2.930025,42.071735],[2.930016,42.07173],[2.930016,42.071729],[2.930059,42.071684],[2.93017,42.071542],[2.930194,42.071511],[2.930123,42.071485],[2.930084,42.071474],[2.92993,42.07141],[2.92992,42.071411],[2.929899,42.071439],[2.929805,42.071534],[2.929754,42.071546],[2.929696,42.071625],[2.929629,42.071703],[2.929565,42.071765],[2.929501,42.071823],[2.929396,42.071796],[2.929271,42.071765],[2.929159,42.071732],[2.929057,42.071686],[2.928964,42.071641],[2.928834,42.071571],[2.928578,42.071437],[2.928186,42.071207],[2.927947,42.071058],[2.927751,42.07096],[2.927567,42.070873],[2.927423,42.070816],[2.92734,42.070797],[2.927324,42.070793],[2.927308,42.070782],[2.927302,42.070775],[2.927297,42.070767],[2.927294,42.070759],[2.927293,42.070754],[2.927294,42.070743],[2.927298,42.070734],[2.927306,42.070725],[2.927309,42.070673],[2.927299,42.070667],[2.927285,42.070678],[2.927157,42.070592],[2.927075,42.070537],[2.926841,42.070402],[2.926832,42.070412],[2.926753,42.070505],[2.92671,42.070556],[2.926626,42.070655],[2.926601,42.070685],[2.926532,42.070765],[2.926523,42.070775],[2.926241,42.070751],[2.925958,42.070722],[2.925958,42.070722],[2.925958,42.07072],[2.925962,42.070707],[2.926022,42.070573],[2.926036,42.070575],[2.926068,42.070579],[2.926129,42.070587],[2.92617,42.070594],[2.926177,42.070568],[2.926136,42.070562],[2.926158,42.070463],[2.926174,42.070388],[2.926196,42.070391],[2.926204,42.070351],[2.92622,42.070343],[2.92623,42.07033],[2.926233,42.070316],[2.926228,42.070302],[2.926217,42.07029],[2.926203,42.070284],[2.92603,42.070261],[2.926015,42.070324],[2.925838,42.070273],[2.925679,42.070231],[2.925603,42.07022],[2.925567,42.070229],[2.925464,42.070259],[2.92536,42.070357],[2.925296,42.070449],[2.925264,42.070541],[2.925252,42.070655],[2.924704,42.070541],[2.924676,42.070583],[2.924604,42.070758],[2.924594,42.070782],[2.924912,42.070856],[2.925138,42.070914],[2.925137,42.070953],[2.925131,42.070984],[2.925117,42.071035],[2.925103,42.071066],[2.92448,42.070935],[2.924436,42.071067],[2.924283,42.071044],[2.924221,42.071211],[2.92472,42.071386],[2.92471,42.071405],[2.924514,42.071444],[2.924491,42.071444],[2.924261,42.071416],[2.924216,42.071416],[2.924188,42.071437],[2.924156,42.071461],[2.923639,42.071856],[2.923621,42.07187],[2.923604,42.071883],[2.92347,42.071985],[2.923447,42.071993],[2.923347,42.072026],[2.923301,42.072041],[2.923253,42.072041],[2.923054,42.072031],[2.923016,42.072032],[2.922966,42.07204],[2.92296,42.072041],[2.922954,42.072242],[2.923456,42.072189],[2.923518,42.07226],[2.923668,42.072371],[2.923669,42.072373],[2.923786,42.072606],[2.923869,42.07281],[2.92352,42.072952],[2.923484,42.072952],[2.923405,42.072977],[2.92336,42.07301],[2.923285,42.073043],[2.923209,42.073085],[2.923156,42.073223],[2.92315,42.073268],[2.923137,42.073319],[2.923093,42.073383],[2.923049,42.073429],[2.923005,42.073459],[2.922974,42.073479],[2.92312,42.073537],[2.923241,42.073585],[2.923364,42.073633],[2.923298,42.073683],[2.923136,42.073788],[2.923146,42.073803],[2.923146,42.073804],[2.92306,42.073834],[2.922819,42.073875],[2.9228,42.073876],[2.92264,42.073883],[2.922282,42.073731],[2.922227,42.073708],[2.922221,42.073705],[2.922237,42.073658],[2.922229,42.073592],[2.922209,42.073462],[2.922138,42.073393],[2.922022,42.073347],[2.921865,42.073296],[2.921772,42.073364],[2.921661,42.073455],[2.921562,42.073522],[2.921479,42.073465],[2.921424,42.073467],[2.921375,42.073469],[2.921208,42.073521],[2.920963,42.073623],[2.920763,42.073704],[2.920735,42.073717],[2.920622,42.073757],[2.920523,42.073791],[2.920406,42.073835],[2.920357,42.073892],[2.920343,42.073971],[2.920367,42.074039],[2.920381,42.074089],[2.92042,42.07411],[2.920496,42.074135],[2.920664,42.074164],[2.921169,42.074168],[2.921253,42.074242],[2.92131,42.074338],[2.921368,42.074443],[2.921445,42.07453],[2.921506,42.07461],[2.921606,42.07487],[2.921641,42.074863],[2.921671,42.074858],[2.921673,42.074862],[2.92173,42.074851],[2.921948,42.074805],[2.921946,42.074801],[2.921916,42.074721],[2.921896,42.074668],[2.921895,42.074664],[2.921888,42.074632],[2.922009,42.074581],[2.922455,42.074667],[2.922484,42.075112],[2.922563,42.075111],[2.922915,42.075109],[2.922968,42.075105],[2.922981,42.074806]]]]}},{"type":"Feature","id":"170502_170502 SI01 GIR 2","properties":{"area_id":"170502_170502 SI01 GIR 2","nom":"SKW Gelatin & Specialities SL","codi_icgc":"170502 SI01 GIR 2","categoria":"Sector industrial","codi_municipi":"170502","municipi":"Cervià de Ter","codi_comarca":"20","comarca":"Gironès","provincia":"Girona","font":"ICGC Àrees de poblament v3r1 202602"},"geometry":{"type":"MultiPolygon","coordinates":[[[[2.88828,42.058259],[2.888458,42.058001],[2.88852,42.057918],[2.888565,42.057857],[2.888609,42.057823],[2.888255,42.057565],[2.888172,42.057493],[2.88802,42.057272],[2.887868,42.057089],[2.887849,42.057065],[2.887828,42.057038],[2.887765,42.056952],[2.88771,42.056856],[2.887682,42.056807],[2.88766,42.056763],[2.887605,42.056742],[2.887565,42.056726],[2.887498,42.056723],[2.887013,42.056703],[2.887054,42.056612],[2.886598,42.056492],[2.886597,42.056492],[2.886593,42.056491],[2.886163,42.056378],[2.886145,42.056373],[2.886018,42.056529],[2.885887,42.05654],[2.885755,42.056688],[2.885676,42.056803],[2.885658,42.056897],[2.885618,42.05711],[2.885463,42.057294],[2.886283,42.057643],[2.887438,42.058109],[2.887539,42.058148],[2.887568,42.058151],[2.887598,42.058149],[2.887627,42.058141],[2.887651,42.058128],[2.887658,42.058123],[2.887756,42.058161],[2.88785,42.058198],[2.887973,42.058246],[2.887984,42.05835],[2.888167,42.058423],[2.888243,42.058313],[2.88828,42.058259]]]]}}]}