{"type":"FeatureCollection","name":"ICGC Àrees de poblament - Darnius","features":[{"type":"Feature","id":"170600_170600 AP03 AEM 3","properties":{"area_id":"170600_170600 AP03 AEM 3","nom":"Barri del Pantà","codi_icgc":"170600 AP03 AEM 3","categoria":"Àrees de poblament","codi_municipi":"170600","municipi":"Darnius","codi_comarca":"02","comarca":"Alt Empordà","provincia":"Girona","font":"ICGC Àrees de poblament v3r1 202602"},"geometry":{"type":"MultiPolygon","coordinates":[[[[2.834879,42.343248],[2.834831,42.343361],[2.834846,42.343522],[2.834878,42.343528],[2.834935,42.343463],[2.835039,42.343403],[2.835114,42.343362],[2.835139,42.343377],[2.835328,42.34344],[2.835617,42.343631],[2.835824,42.343701],[2.835898,42.343726],[2.835996,42.343688],[2.83605,42.343667],[2.836203,42.343709],[2.83636,42.343815],[2.836518,42.34387],[2.836719,42.34393],[2.836765,42.343828],[2.836653,42.34368],[2.83646,42.343608],[2.836187,42.343536],[2.835963,42.343512],[2.835818,42.343452],[2.835722,42.343416],[2.835586,42.343333],[2.835489,42.343255],[2.835361,42.34316],[2.835196,42.343088],[2.835137,42.343088],[2.835079,42.343103],[2.835048,42.343177],[2.835018,42.343195],[2.834978,42.343218],[2.834879,42.343248]]]]}},{"type":"Feature","id":"170600_170600 AP06 AEM 2","properties":{"area_id":"170600_170600 AP06 AEM 2","nom":"Can Palau","codi_icgc":"170600 AP06 AEM 2","categoria":"Àrees de poblament","codi_municipi":"170600","municipi":"Darnius","codi_comarca":"02","comarca":"Alt Empordà","provincia":"Girona","font":"ICGC Àrees de poblament v3r1 202602"},"geometry":{"type":"MultiPolygon","coordinates":[[[[2.846834,42.366187],[2.846941,42.366313],[2.847081,42.366351],[2.847241,42.366342],[2.847334,42.366336],[2.847414,42.366301],[2.847471,42.36625],[2.847545,42.36622],[2.847869,42.366123],[2.84824,42.365997],[2.8483,42.365979],[2.84838,42.365958],[2.848473,42.365918],[2.848552,42.365877],[2.848579,42.365868],[2.848602,42.365829],[2.848624,42.365762],[2.848622,42.365655],[2.848541,42.365659],[2.848361,42.365681],[2.848127,42.365716],[2.847956,42.365749],[2.847783,42.365778],[2.847638,42.365796],[2.847496,42.36582],[2.847359,42.365705],[2.847266,42.365648],[2.847105,42.365598],[2.847012,42.365617],[2.846828,42.365702],[2.846786,42.365776],[2.846764,42.36584],[2.84677,42.365943],[2.846776,42.366029],[2.846792,42.36612],[2.846834,42.366187]]]]}},{"type":"Feature","id":"170600_170600 AP01 AEM 3","properties":{"area_id":"170600_170600 AP01 AEM 3","nom":"Darnius","codi_icgc":"170600 AP01 AEM 3","categoria":"Àrees de poblament","codi_municipi":"170600","municipi":"Darnius","codi_comarca":"02","comarca":"Alt Empordà","provincia":"Girona","font":"ICGC Àrees de poblament v3r1 202602"},"geometry":{"type":"MultiPolygon","coordinates":[[[[2.837127,42.367201],[2.837592,42.367111],[2.837705,42.367058],[2.837858,42.366955],[2.83806,42.366753],[2.838127,42.366668],[2.838414,42.366512],[2.838398,42.366366],[2.838567,42.366128],[2.83876,42.366033],[2.838809,42.365973],[2.838817,42.365914],[2.838817,42.365878],[2.838808,42.365851],[2.838795,42.365844],[2.838793,42.365835],[2.838782,42.365823],[2.838699,42.365747],[2.838617,42.36567],[2.838546,42.365598],[2.838476,42.365527],[2.838427,42.365481],[2.838393,42.365454],[2.838359,42.365426],[2.838344,42.365403],[2.838334,42.365383],[2.838331,42.365334],[2.838334,42.365333],[2.838343,42.365329],[2.838391,42.36531],[2.838402,42.365305],[2.838382,42.365286],[2.83835,42.365256],[2.838345,42.365251],[2.838118,42.365036],[2.838064,42.364985],[2.838008,42.364966],[2.837944,42.364965],[2.837867,42.364988],[2.837782,42.365032],[2.837744,42.365051],[2.837566,42.365142],[2.837534,42.365157],[2.837502,42.365171],[2.837469,42.365185],[2.837436,42.365198],[2.83729,42.365256],[2.837147,42.365317],[2.836882,42.365436],[2.836576,42.365567],[2.836516,42.365469],[2.836023,42.365659],[2.836001,42.365629],[2.83592,42.365524],[2.835917,42.365522],[2.835915,42.365519],[2.835912,42.365516],[2.83591,42.365514],[2.835907,42.365511],[2.835904,42.365509],[2.835901,42.365506],[2.835897,42.365503],[2.835894,42.365501],[2.835891,42.3655],[2.835888,42.365498],[2.835884,42.365496],[2.835881,42.365495],[2.835878,42.365494],[2.835874,42.365493],[2.835871,42.365492],[2.835857,42.36549],[2.835844,42.365487],[2.835831,42.365485],[2.835818,42.365484],[2.835805,42.365482],[2.835792,42.365481],[2.83577,42.36548],[2.835749,42.365479],[2.835727,42.365479],[2.835705,42.36548],[2.835684,42.36548],[2.835662,42.365482],[2.835646,42.365483],[2.835629,42.365483],[2.835612,42.365483],[2.835596,42.365483],[2.835579,42.365483],[2.835563,42.365482],[2.835546,42.36548],[2.83553,42.365478],[2.835513,42.365476],[2.835497,42.365473],[2.835481,42.36547],[2.835465,42.365467],[2.835433,42.36546],[2.835402,42.365451],[2.835371,42.365442],[2.835351,42.365435],[2.835341,42.365432],[2.835311,42.365421],[2.835281,42.36541],[2.835252,42.365397],[2.835214,42.36538],[2.835177,42.365361],[2.835144,42.365344],[2.83514,42.365342],[2.835133,42.365338],[2.835109,42.36537],[2.835018,42.365496],[2.834976,42.365556],[2.834933,42.365548],[2.834893,42.365539],[2.834698,42.365495],[2.834643,42.365483],[2.834392,42.365432],[2.834361,42.365505],[2.834299,42.365495],[2.834199,42.365702],[2.834171,42.365758],[2.834113,42.365898],[2.834104,42.365921],[2.834095,42.365921],[2.834053,42.365922],[2.834011,42.365926],[2.833853,42.365947],[2.833739,42.365965],[2.833731,42.365888],[2.833727,42.365838],[2.833713,42.365836],[2.833635,42.36575],[2.833524,42.365689],[2.833235,42.365539],[2.833115,42.365506],[2.833019,42.365491],[2.832939,42.365719],[2.832872,42.365693],[2.83281,42.365669],[2.832746,42.365654],[2.832712,42.36565],[2.832681,42.365645],[2.832614,42.365642],[2.832548,42.365644],[2.832482,42.365653],[2.832418,42.365666],[2.832356,42.365685],[2.832327,42.365697],[2.832294,42.365714],[2.832117,42.365804],[2.832053,42.365827],[2.832048,42.365829],[2.832043,42.365831],[2.832004,42.365844],[2.831964,42.365858],[2.831966,42.365883],[2.831976,42.365998],[2.831973,42.366023],[2.831969,42.366047],[2.831963,42.366076],[2.831951,42.366104],[2.83193,42.366137],[2.831927,42.366143],[2.831923,42.366149],[2.831894,42.366194],[2.83189,42.3662],[2.831865,42.366231],[2.831833,42.366257],[2.831797,42.36628],[2.831755,42.366298],[2.83171,42.366311],[2.831663,42.366318],[2.831616,42.36632],[2.831568,42.366315],[2.831454,42.366297],[2.83141,42.36629],[2.831288,42.36627],[2.831122,42.366242],[2.830979,42.366217],[2.830857,42.366197],[2.830846,42.366195],[2.830794,42.366186],[2.830697,42.366169],[2.830582,42.366152],[2.830562,42.36615],[2.830552,42.366148],[2.830541,42.366146],[2.830318,42.366113],[2.830308,42.366112],[2.8303,42.366111],[2.830293,42.36611],[2.830224,42.366102],[2.83014,42.366099],[2.830118,42.366099],[2.830093,42.3661],[2.830083,42.3661],[2.830055,42.366101],[2.829972,42.366109],[2.829889,42.366122],[2.829865,42.366128],[2.829769,42.366154],[2.829484,42.366266],[2.829456,42.366277],[2.829312,42.36634],[2.829142,42.366402],[2.829189,42.366433],[2.829202,42.366442],[2.829219,42.366454],[2.829259,42.366479],[2.829287,42.366519],[2.829503,42.366738],[2.829615,42.366846],[2.829707,42.366935],[2.829838,42.367072],[2.829841,42.367075],[2.829834,42.367093],[2.829821,42.367124],[2.829819,42.367128],[2.829806,42.367156],[2.829785,42.367199],[2.829763,42.367242],[2.829738,42.367283],[2.829713,42.367325],[2.829702,42.36734],[2.829693,42.367355],[2.829595,42.367487],[2.829434,42.367706],[2.829426,42.367709],[2.829287,42.367843],[2.829169,42.367878],[2.828892,42.367884],[2.828627,42.367833],[2.828131,42.367808],[2.828053,42.367811],[2.828052,42.367975],[2.828076,42.368168],[2.828128,42.368317],[2.828196,42.368413],[2.828348,42.368547],[2.828464,42.368613],[2.828533,42.368634],[2.828733,42.368658],[2.828938,42.368578],[2.829152,42.368468],[2.829465,42.368307],[2.829581,42.368243],[2.82974,42.368303],[2.829861,42.368403],[2.830135,42.368239],[2.830231,42.36831],[2.830276,42.368344],[2.830321,42.368377],[2.830356,42.368397],[2.830394,42.368413],[2.830476,42.368448],[2.830532,42.368468],[2.830455,42.368612],[2.830553,42.36904],[2.830529,42.369057],[2.830493,42.369076],[2.830441,42.3691],[2.830387,42.369121],[2.830336,42.36914],[2.830311,42.369148],[2.830286,42.369153],[2.830241,42.369153],[2.830193,42.369151],[2.830136,42.369151],[2.830051,42.369155],[2.830022,42.369157],[2.829936,42.369206],[2.829898,42.36921],[2.82986,42.369211],[2.829821,42.369211],[2.829796,42.369214],[2.829794,42.369217],[2.829795,42.369221],[2.829811,42.369236],[2.829826,42.369251],[2.829837,42.369262],[2.829847,42.369272],[2.829866,42.369294],[2.829875,42.369309],[2.829873,42.369324],[2.829865,42.369339],[2.829841,42.369391],[2.829811,42.369443],[2.829798,42.369462],[2.829782,42.36948],[2.829769,42.369491],[2.82974,42.369509],[2.829712,42.369526],[2.82965,42.369517],[2.829647,42.369516],[2.82953,42.36961],[2.829526,42.369625],[2.829488,42.369754],[2.829395,42.369736],[2.829339,42.36985],[2.829391,42.369947],[2.829539,42.36995],[2.829563,42.369968],[2.829488,42.370165],[2.829516,42.370213],[2.829489,42.37031],[2.829573,42.370336],[2.829689,42.370364],[2.829719,42.37041],[2.829764,42.370412],[2.829845,42.370398],[2.8299,42.370343],[2.829931,42.370266],[2.830006,42.370329],[2.830002,42.370339],[2.829982,42.370387],[2.829981,42.370391],[2.82986,42.370484],[2.829767,42.370616],[2.829942,42.370697],[2.829952,42.370684],[2.829959,42.370676],[2.830014,42.370659],[2.830073,42.370658],[2.830102,42.370654],[2.830123,42.37064],[2.830149,42.370607],[2.830155,42.37061],[2.830172,42.370618],[2.830181,42.370622],[2.830211,42.370637],[2.830355,42.370704],[2.830432,42.370741],[2.830487,42.370767],[2.830603,42.370637],[2.83067,42.370568],[2.830782,42.370514],[2.830982,42.370378],[2.831079,42.370309],[2.83113,42.370336],[2.831227,42.370333],[2.831317,42.370314],[2.8314,42.370291],[2.831474,42.37026],[2.831603,42.370239],[2.831385,42.370152],[2.831282,42.370114],[2.831133,42.370044],[2.83116,42.370008],[2.831161,42.370006],[2.831173,42.369985],[2.831256,42.369838],[2.831386,42.369604],[2.831422,42.369542],[2.831812,42.369522],[2.83185,42.36952],[2.831866,42.369519],[2.83188,42.369519],[2.832399,42.369492],[2.832436,42.369463],[2.832448,42.369453],[2.832459,42.369444],[2.832471,42.369434],[2.832478,42.369426],[2.832505,42.369354],[2.832509,42.369349],[2.832507,42.369337],[2.832497,42.369296],[2.832515,42.369151],[2.832517,42.369139],[2.832531,42.369024],[2.832547,42.368989],[2.83249,42.368975],[2.832516,42.36891],[2.832514,42.368863],[2.832517,42.368733],[2.83256,42.368672],[2.832545,42.368666],[2.832573,42.368627],[2.832595,42.368636],[2.832645,42.368566],[2.832616,42.368554],[2.832646,42.368511],[2.832739,42.368375],[2.832689,42.368354],[2.832645,42.368336],[2.832633,42.368305],[2.832636,42.368281],[2.83264,42.368268],[2.832648,42.368256],[2.832671,42.368227],[2.832725,42.36814],[2.832779,42.368054],[2.832795,42.368026],[2.832822,42.368003],[2.832879,42.368022],[2.832888,42.368008],[2.832906,42.368015],[2.83296,42.368037],[2.833033,42.368067],[2.833084,42.36809],[2.833323,42.367771],[2.833432,42.367869],[2.833717,42.367886],[2.83392,42.367746],[2.834047,42.367658],[2.834354,42.367659],[2.834422,42.36767],[2.834505,42.367528],[2.834545,42.367532],[2.834573,42.367534],[2.834894,42.367522],[2.835085,42.367518],[2.835134,42.36765],[2.83515,42.367693],[2.83516,42.367719],[2.835164,42.367731],[2.835528,42.367665],[2.835536,42.367663],[2.835544,42.367675],[2.835684,42.367954],[2.835827,42.368203],[2.835847,42.368339],[2.835859,42.368425],[2.835864,42.368689],[2.835983,42.368687],[2.835982,42.368728],[2.836047,42.368729],[2.836049,42.368686],[2.836069,42.368686],[2.836209,42.368685],[2.836432,42.368685],[2.83658,42.368701],[2.836614,42.368702],[2.836918,42.36866],[2.837044,42.368599],[2.837,42.368443],[2.837007,42.368441],[2.837015,42.368439],[2.837022,42.368436],[2.837029,42.368433],[2.837036,42.36843],[2.837105,42.3684],[2.837113,42.368397],[2.837119,42.368393],[2.837126,42.36839],[2.837133,42.368386],[2.837139,42.368382],[2.837145,42.368378],[2.837153,42.368373],[2.837162,42.368368],[2.837231,42.368329],[2.837295,42.368285],[2.837355,42.368237],[2.837409,42.368185],[2.83746,42.368137],[2.837503,42.368086],[2.83754,42.368033],[2.83757,42.367976],[2.83758,42.367953],[2.837157,42.367889],[2.837073,42.367677],[2.837101,42.367672],[2.83717,42.367669],[2.837126,42.367389],[2.837127,42.367201]]]]}},{"type":"Feature","id":"170600_170600 AP05 AEM 3","properties":{"area_id":"170600_170600 AP05 AEM 3","nom":"Santa Anna","codi_icgc":"170600 AP05 AEM 3","categoria":"Àrees de poblament","codi_municipi":"170600","municipi":"Darnius","codi_comarca":"02","comarca":"Alt Empordà","provincia":"Girona","font":"ICGC Àrees de poblament v3r1 202602"},"geometry":{"type":"MultiPolygon","coordinates":[[[[2.829484,42.356958],[2.829533,42.356984],[2.82959,42.356984],[2.829658,42.35697],[2.829696,42.356951],[2.829716,42.356913],[2.829719,42.356861],[2.829825,42.356849],[2.829906,42.356842],[2.829915,42.356892],[2.83042,42.35684],[2.830471,42.356828],[2.830405,42.356459],[2.830408,42.356345],[2.830408,42.356261],[2.830383,42.356204],[2.830331,42.35618],[2.830277,42.356178],[2.830177,42.356185],[2.829978,42.356208],[2.829918,42.355836],[2.830259,42.355791],[2.830201,42.35556],[2.830025,42.355441],[2.829688,42.355478],[2.829501,42.355497],[2.829479,42.355519],[2.829533,42.355788],[2.829063,42.35583],[2.829088,42.356138],[2.829014,42.356133],[2.828918,42.356116],[2.828831,42.356102],[2.828815,42.356118],[2.828796,42.356247],[2.828795,42.356337],[2.828815,42.356361],[2.828869,42.356397],[2.828879,42.356419],[2.828907,42.356473],[2.828927,42.356542],[2.828891,42.356571],[2.828881,42.356597],[2.828907,42.356671],[2.828945,42.356731],[2.828974,42.356738],[2.829064,42.356714],[2.829138,42.356712],[2.829208,42.356927],[2.829295,42.356946],[2.829407,42.356958],[2.829484,42.356958]]]]}},{"type":"Feature","id":"170600_170600 AP04 AEM 3","properties":{"area_id":"170600_170600 AP04 AEM 3","nom":"Veïnat d'Amunt","codi_icgc":"170600 AP04 AEM 3","categoria":"Àrees de poblament","codi_municipi":"170600","municipi":"Darnius","codi_comarca":"02","comarca":"Alt Empordà","provincia":"Girona","font":"ICGC Àrees de poblament v3r1 202602"},"geometry":{"type":"MultiPolygon","coordinates":[[[[2.809074,42.384206],[2.808853,42.384235],[2.808792,42.384261],[2.808786,42.384264],[2.808751,42.384278],[2.808597,42.38436],[2.808399,42.384511],[2.808186,42.384642],[2.808288,42.384759],[2.808349,42.384731],[2.808386,42.384713],[2.808586,42.38471],[2.808692,42.384696],[2.808851,42.384654],[2.808943,42.384618],[2.809002,42.384589],[2.809119,42.384529],[2.809122,42.384525],[2.809136,42.384479],[2.809141,42.384447],[2.809136,42.384397],[2.809139,42.384347],[2.809169,42.384343],[2.809171,42.384335],[2.80915,42.38421],[2.809074,42.384206]]]]}},{"type":"Feature","id":"170600_170600 AP02 AEM 2","properties":{"area_id":"170600_170600 AP02 AEM 2","nom":"Veïnat de Mont-roig","codi_icgc":"170600 AP02 AEM 2","categoria":"Àrees de poblament","codi_municipi":"170600","municipi":"Darnius","codi_comarca":"02","comarca":"Alt Empordà","provincia":"Girona","font":"ICGC Àrees de poblament v3r1 202602"},"geometry":{"type":"MultiPolygon","coordinates":[[[[2.874515,42.346693],[2.87429,42.34649],[2.874242,42.346514],[2.874001,42.34655],[2.873905,42.346597],[2.87384,42.346621],[2.873792,42.346681],[2.873888,42.346835],[2.87408,42.347062],[2.874321,42.347122],[2.874384,42.347622],[2.874625,42.347623],[2.874594,42.347396],[2.874659,42.346991],[2.874515,42.346693]]]]}}]}