{"type":"FeatureCollection","name":"ICGC Àrees de poblament - Espolla","features":[{"type":"Feature","id":"170643_170643 AP03 AEM 2","properties":{"area_id":"170643_170643 AP03 AEM 2","nom":"Baussitges","codi_icgc":"170643 AP03 AEM 2","categoria":"Àrees de poblament","codi_municipi":"170643","municipi":"Espolla","codi_comarca":"02","comarca":"Alt Empordà","provincia":"Girona","font":"ICGC Àrees de poblament v3r1 202602"},"geometry":{"type":"MultiPolygon","coordinates":[[[[3.008936,42.45026],[3.008807,42.45026],[3.00855,42.450413],[3.008563,42.450822],[3.008846,42.450861],[3.008936,42.450737],[3.008962,42.450556],[3.009026,42.45046],[3.009013,42.450327],[3.008936,42.45026]]],[[[3.006014,42.451347],[3.005216,42.451194],[3.005139,42.45128],[3.005165,42.451528],[3.005409,42.451671],[3.006117,42.451738],[3.006014,42.451347]]]]}},{"type":"Feature","id":"170643_170643 AP01 AEM 3","properties":{"area_id":"170643_170643 AP01 AEM 3","nom":"Espolla","codi_icgc":"170643 AP01 AEM 3","categoria":"Àrees de poblament","codi_municipi":"170643","municipi":"Espolla","codi_comarca":"02","comarca":"Alt Empordà","provincia":"Girona","font":"ICGC Àrees de poblament v3r1 202602"},"geometry":{"type":"MultiPolygon","coordinates":[[[[2.998826,42.393773],[2.998992,42.393765],[2.999051,42.393765],[2.999059,42.393785],[2.999087,42.393845],[2.999262,42.393807],[2.999262,42.393731],[2.999283,42.393615],[2.999292,42.39359],[2.999299,42.393582],[2.999302,42.393569],[2.999305,42.393556],[2.999317,42.393493],[2.999329,42.393429],[2.999339,42.393381],[2.999352,42.393333],[2.999356,42.393321],[2.999361,42.393309],[2.999369,42.393293],[2.999372,42.393286],[2.999372,42.39328],[2.99937,42.393276],[2.999358,42.393272],[2.999345,42.393268],[2.999367,42.393231],[2.999389,42.393194],[2.999395,42.393184],[2.999405,42.392923],[2.999429,42.392786],[2.999602,42.392295],[2.999766,42.392256],[2.9999,42.392204],[2.999925,42.392184],[2.999953,42.392162],[2.999982,42.392142],[3.000012,42.392121],[3.000043,42.392102],[3.000075,42.392083],[3.000137,42.392063],[3.000151,42.39206],[3.000165,42.392058],[3.000213,42.392086],[3.000241,42.392103],[3.000249,42.392107],[3.000446,42.392038],[3.000449,42.39204],[3.00046,42.392049],[3.000503,42.39208],[3.00062,42.392166],[3.000671,42.392204],[3.000674,42.392214],[3.000674,42.392227],[3.000668,42.39224],[3.00065,42.392269],[3.000629,42.392311],[3.000618,42.392356],[3.00062,42.392414],[3.000629,42.392471],[3.000643,42.392543],[3.000661,42.392615],[3.000679,42.392662],[3.000692,42.392688],[3.000704,42.392713],[3.000707,42.392723],[3.000711,42.392735],[3.00072,42.392747],[3.000725,42.392753],[3.000729,42.392758],[3.000755,42.392759],[3.000767,42.392759],[3.00078,42.39276],[3.000795,42.39276],[3.000868,42.392756],[3.00094,42.392752],[3.000997,42.39275],[3.001054,42.392748],[3.001074,42.392745],[3.001094,42.39274],[3.001129,42.392723],[3.00115,42.392704],[3.001166,42.392684],[3.001191,42.392645],[3.00123,42.392575],[3.001271,42.392507],[3.001275,42.392501],[3.001336,42.392417],[3.001408,42.39233],[3.001437,42.392297],[3.001468,42.392266],[3.001486,42.392251],[3.001505,42.392238],[3.001513,42.392235],[3.001522,42.392234],[3.001544,42.392237],[3.00159,42.39225],[3.001638,42.392264],[3.001781,42.392313],[3.001924,42.392362],[3.00199,42.392386],[3.002057,42.392409],[3.002105,42.392421],[3.002152,42.392432],[3.002195,42.392443],[3.002234,42.392457],[3.002243,42.392464],[3.002247,42.392469],[3.002318,42.392444],[3.002574,42.392502],[3.002632,42.392354],[3.002393,42.392293],[3.002427,42.392214],[3.002446,42.392171],[3.00247,42.392108],[3.002494,42.392046],[3.002527,42.391968],[3.002562,42.391889],[3.00259,42.391819],[3.002616,42.391747],[3.002625,42.391711],[3.002629,42.391674],[3.002627,42.391631],[3.002621,42.391609],[3.002613,42.391587],[3.002588,42.391548],[3.002548,42.391492],[3.002509,42.391437],[3.002481,42.391392],[3.002471,42.39137],[3.002464,42.391348],[3.002461,42.391301],[3.002464,42.391253],[3.002481,42.391114],[3.002499,42.390975],[3.002508,42.390915],[3.002517,42.390854],[3.002528,42.390746],[3.002538,42.390638],[3.002543,42.390582],[3.002547,42.390545],[3.00255,42.390493],[3.002544,42.390444],[3.002544,42.390438],[3.002541,42.390402],[3.002538,42.390358],[3.00253,42.390272],[3.002502,42.390104],[3.002484,42.389989],[3.002475,42.389936],[3.002457,42.389825],[3.002439,42.389713],[3.002435,42.389706],[3.002424,42.389688],[3.002411,42.389668],[3.002439,42.38966],[3.002621,42.389589],[3.002722,42.389562],[3.002849,42.38953],[3.0028,42.389421],[3.002773,42.389348],[3.002747,42.389289],[3.002723,42.389234],[3.002665,42.389257],[3.002243,42.389421],[3.00217,42.389451],[3.001742,42.389618],[3.001654,42.3896],[3.00168,42.388924],[3.001719,42.388714],[3.00172,42.388709],[3.001732,42.388711],[3.001753,42.388714],[3.001725,42.388471],[3.00172,42.388458],[3.001724,42.388402],[3.001726,42.388388],[3.00176,42.388206],[3.001796,42.388023],[3.00183,42.387854],[3.001848,42.387766],[3.001863,42.387697],[3.001823,42.387675],[3.001795,42.387658],[3.001547,42.387497],[3.00153,42.387487],[3.001477,42.387452],[3.001337,42.387601],[3.001194,42.387752],[3.00104,42.38791],[3.000885,42.388066],[3.000731,42.388224],[3.000577,42.388382],[3.000402,42.388558],[3.000252,42.388709],[3.000232,42.388734],[3.000148,42.388838],[3.000125,42.388868],[3.000138,42.388883],[3.000157,42.388904],[3.000153,42.388908],[3.000146,42.388944],[3.000166,42.389],[3.000199,42.389062],[3.000212,42.389084],[3.000254,42.389157],[3.000286,42.389191],[3.000296,42.389186],[3.000338,42.389257],[3.00049,42.389441],[3.000548,42.389537],[3.000671,42.38969],[3.000702,42.389677],[3.000772,42.389764],[3.000782,42.38976],[3.000872,42.38986],[3.000922,42.389904],[3.000944,42.389927],[3.000949,42.389966],[3.000865,42.390044],[3.00086,42.390049],[3.000779,42.390107],[3.000706,42.390154],[3.000698,42.390162],[3.000586,42.390262],[3.000419,42.390364],[3.000407,42.390376],[3.000371,42.390331],[3.000415,42.390281],[2.999994,42.389875],[2.999991,42.389872],[2.999866,42.389943],[2.999839,42.389897],[2.999799,42.389835],[2.999786,42.389811],[2.999768,42.389784],[2.99975,42.389759],[2.999698,42.389679],[2.999568,42.389734],[2.999381,42.389813],[2.999309,42.389621],[2.998777,42.389789],[2.998825,42.389935],[2.999265,42.389842],[2.999377,42.390158],[2.999602,42.390499],[2.999598,42.3905],[2.999561,42.390512],[2.999534,42.390518],[2.999525,42.390519],[2.999528,42.390527],[2.999533,42.39054],[2.999315,42.390592],[2.999361,42.390674],[2.999367,42.390685],[2.999371,42.390695],[2.99929,42.390712],[2.999307,42.390762],[2.999319,42.390797],[2.999344,42.390994],[2.999344,42.391113],[2.999285,42.391111],[2.999268,42.391111],[2.999238,42.391215],[2.999225,42.391268],[2.999167,42.391468],[2.999128,42.391626],[2.999104,42.3917],[2.999072,42.391795],[2.998968,42.392098],[2.998957,42.392113],[2.998809,42.392143],[2.998509,42.392129],[2.998423,42.392128],[2.998407,42.392128],[2.998272,42.392127],[2.998091,42.392128],[2.99781,42.392133],[2.997647,42.391938],[2.997611,42.391957],[2.996965,42.392251],[2.996931,42.392267],[2.997664,42.393221],[2.997756,42.393159],[2.997814,42.393138],[2.997915,42.393134],[2.998094,42.393113],[2.998229,42.393102],[2.998286,42.393088],[2.9984,42.393318],[2.998482,42.393482],[2.998516,42.393558],[2.998552,42.393638],[2.998551,42.393662],[2.998481,42.393669],[2.998444,42.393681],[2.998583,42.393939],[2.99881,42.393905],[2.998786,42.393787],[2.998826,42.393773]]]]}},{"type":"Feature","id":"170643_170643 AP02 AEM 3","properties":{"area_id":"170643_170643 AP02 AEM 3","nom":"els Vilars","codi_icgc":"170643 AP02 AEM 3","categoria":"Àrees de poblament","codi_municipi":"170643","municipi":"Espolla","codi_comarca":"02","comarca":"Alt Empordà","provincia":"Girona","font":"ICGC Àrees de poblament v3r1 202602"},"geometry":{"type":"MultiPolygon","coordinates":[[[[2.995768,42.41026],[2.995621,42.410329],[2.995543,42.410356],[2.995491,42.410417],[2.995464,42.410446],[2.995459,42.410452],[2.995454,42.410457],[2.99545,42.410463],[2.995446,42.410469],[2.995442,42.410475],[2.995438,42.410481],[2.99545,42.410492],[2.995466,42.410506],[2.995485,42.410523],[2.99552,42.410557],[2.995554,42.41059],[2.99583,42.410442],[2.995853,42.410448],[2.995944,42.4106],[2.995969,42.410584],[2.996229,42.410693],[2.996269,42.41075],[2.996326,42.410826],[2.996407,42.410843],[2.996451,42.410804],[2.996615,42.410815],[2.99668,42.41082],[2.996685,42.41082],[2.996721,42.410822],[2.996719,42.410797],[2.996721,42.410753],[2.996727,42.410729],[2.996738,42.410702],[2.99677,42.410655],[2.996802,42.410608],[2.99682,42.410581],[2.996839,42.410557],[2.996855,42.410544],[2.996881,42.410529],[2.996914,42.410516],[2.996958,42.410484],[2.996976,42.410471],[2.997003,42.410452],[2.99702,42.410438],[2.997036,42.410419],[2.997069,42.410372],[2.99708,42.410357],[2.997197,42.41022],[2.997264,42.410153],[2.997213,42.410125],[2.996946,42.409978],[2.996834,42.409912],[2.996915,42.409825],[2.996761,42.409755],[2.99663,42.409942],[2.996717,42.409997],[2.996729,42.410014],[2.996284,42.410183],[2.996212,42.410208],[2.996186,42.410217],[2.99607,42.410223],[2.99578,42.410254],[2.995768,42.41026]]]]}}]}