{"type":"FeatureCollection","name":"ICGC Àrees de poblament - Ger","features":[{"type":"Feature","id":"170789_170789 AP01 CER 3","properties":{"area_id":"170789_170789 AP01 CER 3","nom":"Ger","codi_icgc":"170789 AP01 CER 3","categoria":"Àrees de poblament","codi_municipi":"170789","municipi":"Ger","codi_comarca":"15","comarca":"Cerdanya","provincia":"Girona","font":"ICGC Àrees de poblament v3r1 202602"},"geometry":{"type":"MultiPolygon","coordinates":[[[[1.845298,42.408758],[1.845382,42.408749],[1.845452,42.408766],[1.845494,42.408783],[1.845561,42.408791],[1.84561,42.408775],[1.845665,42.408754],[1.84571,42.408733],[1.845794,42.408736],[1.845867,42.408749],[1.845899,42.408761],[1.845957,42.4088],[1.845972,42.408831],[1.846163,42.408769],[1.846313,42.408631],[1.846064,42.408353],[1.845964,42.408397],[1.845925,42.408361],[1.845886,42.408379],[1.845845,42.408393],[1.845802,42.408395],[1.845752,42.408382],[1.845687,42.408344],[1.84562,42.408309],[1.845548,42.408295],[1.845481,42.408309],[1.845344,42.408339],[1.845327,42.408388],[1.845241,42.408407],[1.845073,42.408422],[1.845089,42.408557],[1.845124,42.40861],[1.844804,42.40878],[1.84492,42.408938],[1.845052,42.408865],[1.845214,42.408792],[1.845298,42.408758]]],[[[1.846493,42.412746],[1.846512,42.412743],[1.846541,42.412747],[1.846569,42.412754],[1.846608,42.412765],[1.846627,42.412772],[1.846646,42.412775],[1.846676,42.412773],[1.84669,42.41277],[1.846781,42.412718],[1.846751,42.412568],[1.84675,42.412556],[1.846746,42.412506],[1.846743,42.412471],[1.846867,42.412464],[1.846827,42.412398],[1.846466,42.412083],[1.846564,42.411957],[1.846527,42.411895],[1.846415,42.411836],[1.846437,42.411745],[1.84656,42.411671],[1.846604,42.411644],[1.846815,42.411519],[1.846954,42.411451],[1.847129,42.411375],[1.847304,42.411315],[1.847373,42.411291],[1.847464,42.411266],[1.847644,42.411238],[1.847998,42.411203],[1.848039,42.4112],[1.848554,42.411199],[1.848617,42.411233],[1.848617,42.411236],[1.848616,42.411518],[1.848615,42.411816],[1.848607,42.411833],[1.848603,42.411842],[1.84846,42.411868],[1.848282,42.411911],[1.848124,42.411978],[1.847874,42.412029],[1.847628,42.412083],[1.847499,42.412129],[1.847243,42.412234],[1.847207,42.412314],[1.847167,42.412442],[1.84717,42.412573],[1.847157,42.412627],[1.847156,42.412642],[1.847154,42.41267],[1.847146,42.412767],[1.847157,42.412767],[1.847669,42.412765],[1.847771,42.412762],[1.848143,42.41275],[1.848161,42.412508],[1.848166,42.41252],[1.848419,42.412544],[1.848834,42.412555],[1.848986,42.41197],[1.849104,42.411988],[1.849113,42.412013],[1.849225,42.412022],[1.849239,42.412023],[1.84986,42.409787],[1.849749,42.409646],[1.849664,42.409536],[1.849601,42.409476],[1.849248,42.409591],[1.849279,42.409708],[1.849129,42.409757],[1.848923,42.409809],[1.848709,42.409861],[1.848475,42.409915],[1.848164,42.409943],[1.847262,42.410143],[1.846406,42.410337],[1.846299,42.410074],[1.847116,42.409905],[1.84853,42.409484],[1.848475,42.409402],[1.848338,42.4092],[1.848312,42.409164],[1.847799,42.409336],[1.846517,42.409709],[1.846157,42.409728],[1.846154,42.409708],[1.846064,42.409714],[1.845921,42.409712],[1.845915,42.409734],[1.845878,42.409806],[1.845838,42.409913],[1.845836,42.409939],[1.84584,42.410039],[1.845867,42.410111],[1.845843,42.410161],[1.845832,42.410159],[1.845719,42.41014],[1.845244,42.410058],[1.845166,42.410051],[1.8448,42.410022],[1.844788,42.410072],[1.844729,42.410066],[1.844408,42.410061],[1.844371,42.410099],[1.844327,42.410129],[1.844293,42.410151],[1.844213,42.410156],[1.844095,42.410145],[1.843984,42.410129],[1.843859,42.410093],[1.843734,42.410043],[1.843681,42.410004],[1.84371,42.409951],[1.843711,42.409903],[1.84366,42.409868],[1.843598,42.409858],[1.843539,42.409878],[1.843481,42.40997],[1.843403,42.410034],[1.843391,42.410039],[1.843225,42.410112],[1.843202,42.410126],[1.843162,42.410172],[1.842921,42.410226],[1.842317,42.41052],[1.842265,42.410553],[1.842258,42.410603],[1.842318,42.410726],[1.842418,42.410893],[1.842447,42.411042],[1.842462,42.411126],[1.842496,42.411454],[1.842495,42.411502],[1.842494,42.411573],[1.842468,42.41165],[1.84246,42.41165],[1.842354,42.411715],[1.842039,42.411825],[1.841708,42.411917],[1.841417,42.411967],[1.840797,42.412009],[1.840588,42.412018],[1.840242,42.412057],[1.840024,42.412084],[1.839904,42.412077],[1.839816,42.412028],[1.839716,42.411914],[1.839615,42.411782],[1.839551,42.411753],[1.839487,42.41174],[1.839413,42.411754],[1.8393,42.411793],[1.839154,42.411837],[1.839019,42.411862],[1.83889,42.41187],[1.838752,42.411869],[1.838633,42.41187],[1.838513,42.411902],[1.838525,42.411985],[1.838522,42.412012],[1.838522,42.412019],[1.838551,42.412133],[1.838649,42.41213],[1.838667,42.412197],[1.838687,42.412267],[1.838944,42.412264],[1.839112,42.412278],[1.839143,42.412281],[1.839349,42.412317],[1.839393,42.412322],[1.839435,42.412327],[1.8395,42.41233],[1.839564,42.412334],[1.839638,42.412343],[1.839714,42.412354],[1.839909,42.412374],[1.839941,42.412376],[1.839976,42.412377],[1.840034,42.412375],[1.840088,42.412369],[1.840137,42.412365],[1.840187,42.41236],[1.840261,42.41235],[1.840335,42.412339],[1.84042,42.412323],[1.840463,42.412316],[1.840506,42.41231],[1.840587,42.412307],[1.840669,42.412306],[1.840691,42.412306],[1.840714,42.412306],[1.840716,42.412303],[1.840714,42.412299],[1.840752,42.412305],[1.840792,42.412314],[1.840864,42.412313],[1.84088,42.412343],[1.840847,42.412384],[1.841554,42.412361],[1.8416,42.412362],[1.841623,42.412326],[1.841656,42.412298],[1.841747,42.412256],[1.841866,42.412224],[1.84205,42.412183],[1.842299,42.41215],[1.842466,42.412144],[1.842519,42.412143],[1.842529,42.41204],[1.842619,42.411944],[1.842624,42.411914],[1.842682,42.411889],[1.842854,42.411859],[1.843102,42.411841],[1.843258,42.411837],[1.843453,42.411849],[1.84352,42.41187],[1.843567,42.411903],[1.843594,42.411948],[1.843608,42.411994],[1.843391,42.411965],[1.843233,42.41199],[1.843267,42.412197],[1.843308,42.412257],[1.843444,42.412251],[1.843603,42.412217],[1.843682,42.412186],[1.843759,42.412205],[1.843829,42.41223],[1.84389,42.412259],[1.843938,42.412267],[1.844012,42.412234],[1.84408,42.412211],[1.844225,42.412163],[1.84432,42.412129],[1.844325,42.412116],[1.844387,42.412066],[1.844397,42.412019],[1.844393,42.412012],[1.844376,42.411977],[1.844398,42.411979],[1.844642,42.412003],[1.844644,42.41225],[1.844667,42.412316],[1.844698,42.41237],[1.844756,42.412499],[1.844876,42.412524],[1.844989,42.412548],[1.845044,42.41256],[1.84513,42.412385],[1.84525,42.412172],[1.845368,42.412204],[1.845289,42.412332],[1.845285,42.412387],[1.845342,42.412428],[1.845263,42.41264],[1.845335,42.412668],[1.845839,42.412899],[1.845684,42.413065],[1.845732,42.413089],[1.845871,42.413166],[1.84592,42.413116],[1.845963,42.413074],[1.845936,42.413029],[1.846114,42.412971],[1.8461,42.412948],[1.84612,42.412931],[1.846158,42.412905],[1.84621,42.412878],[1.846289,42.41284],[1.84637,42.412802],[1.84643,42.412773],[1.846493,42.412746]]]]}},{"type":"Feature","id":"170789_170789 AP05 CER 3","properties":{"area_id":"170789_170789 AP05 CER 3","nom":"Gréixer","codi_icgc":"170789 AP05 CER 3","categoria":"Àrees de poblament","codi_municipi":"170789","municipi":"Ger","codi_comarca":"15","comarca":"Cerdanya","provincia":"Girona","font":"ICGC Àrees de poblament v3r1 202602"},"geometry":{"type":"MultiPolygon","coordinates":[[[[1.824151,42.412096],[1.824599,42.412241],[1.824593,42.412252],[1.824518,42.41239],[1.824416,42.412363],[1.824347,42.412355],[1.824261,42.41251],[1.824251,42.412565],[1.823918,42.412549],[1.823756,42.412531],[1.823656,42.412516],[1.823383,42.412476],[1.823335,42.412469],[1.823191,42.412459],[1.823098,42.412451],[1.823049,42.412446],[1.823026,42.412549],[1.823018,42.41256],[1.823007,42.412575],[1.823004,42.412769],[1.823001,42.412813],[1.823003,42.412824],[1.823111,42.413071],[1.823126,42.413104],[1.823155,42.41311],[1.823164,42.413116],[1.823169,42.413124],[1.823241,42.413304],[1.82326,42.413333],[1.8233,42.41338],[1.823359,42.413446],[1.824702,42.413971],[1.824871,42.413973],[1.824979,42.413794],[1.824755,42.413696],[1.824686,42.413689],[1.824413,42.413663],[1.824368,42.413658],[1.824367,42.413658],[1.824052,42.413519],[1.823965,42.413463],[1.823898,42.413418],[1.823831,42.413373],[1.823782,42.413346],[1.823733,42.413322],[1.823667,42.413291],[1.82368,42.413272],[1.823756,42.413195],[1.823822,42.413127],[1.824064,42.413201],[1.824111,42.413036],[1.824125,42.412979],[1.824131,42.412959],[1.824136,42.41294],[1.824166,42.41291],[1.824198,42.412877],[1.824211,42.412867],[1.824235,42.412855],[1.82424,42.412853],[1.824263,42.412845],[1.824318,42.412829],[1.824346,42.412824],[1.824375,42.412823],[1.824439,42.412827],[1.824453,42.412828],[1.824541,42.412828],[1.824586,42.41275],[1.824628,42.412773],[1.824644,42.412757],[1.824697,42.412708],[1.824935,42.412782],[1.825159,42.412715],[1.825163,42.412696],[1.825171,42.41266],[1.825175,42.412642],[1.82518,42.412626],[1.825192,42.412602],[1.825212,42.41258],[1.825223,42.412569],[1.825235,42.412558],[1.825237,42.412585],[1.825244,42.412597],[1.82525,42.412611],[1.825253,42.412629],[1.825263,42.412647],[1.825276,42.412663],[1.825307,42.412689],[1.825376,42.412733],[1.825438,42.412774],[1.825498,42.412814],[1.825531,42.412844],[1.82556,42.412878],[1.825603,42.412881],[1.825742,42.412676],[1.825645,42.412616],[1.825429,42.412483],[1.82553,42.412361],[1.825451,42.412325],[1.825528,42.41225],[1.825678,42.412105],[1.825784,42.412035],[1.82584,42.411997],[1.825658,42.411932],[1.82568,42.41181],[1.825688,42.41172],[1.82568,42.411658],[1.825646,42.411574],[1.82563,42.411555],[1.825928,42.411606],[1.826097,42.411683],[1.826217,42.411718],[1.826276,42.411735],[1.826305,42.411717],[1.826271,42.411677],[1.826201,42.411639],[1.826279,42.411484],[1.826197,42.411436],[1.826148,42.411414],[1.826013,42.411377],[1.826001,42.411403],[1.825965,42.411393],[1.825961,42.411389],[1.825957,42.411383],[1.825956,42.411376],[1.825956,42.411364],[1.825959,42.41135],[1.825989,42.411292],[1.825938,42.411267],[1.825816,42.411252],[1.825814,42.411252],[1.825732,42.411241],[1.82544,42.411212],[1.825116,42.411199],[1.825144,42.411287],[1.825126,42.411305],[1.824891,42.411328],[1.824915,42.411444],[1.824872,42.411464],[1.824816,42.411479],[1.824778,42.411488],[1.824703,42.4115],[1.824644,42.411508],[1.824237,42.411504],[1.824135,42.411503],[1.824135,42.411481],[1.823872,42.411495],[1.823864,42.411568],[1.823849,42.411587],[1.823837,42.411606],[1.823825,42.411619],[1.823802,42.411634],[1.823773,42.411643],[1.823717,42.411651],[1.823661,42.411654],[1.823552,42.411657],[1.823422,42.411659],[1.823414,42.411716],[1.823386,42.411719],[1.823341,42.411722],[1.823294,42.411716],[1.823251,42.411703],[1.823206,42.411681],[1.823167,42.411654],[1.823115,42.411609],[1.823063,42.411565],[1.82305,42.411547],[1.82299,42.411497],[1.822925,42.411499],[1.822545,42.411512],[1.822484,42.411514],[1.822514,42.411739],[1.823227,42.411747],[1.823245,42.411754],[1.823293,42.411766],[1.823382,42.411775],[1.823471,42.411778],[1.823602,42.411776],[1.823734,42.411775],[1.823847,42.411772],[1.823961,42.41177],[1.824036,42.411772],[1.824131,42.411778],[1.824151,42.412096]]]]}},{"type":"Feature","id":"170789_170789 AP08 CER 3","properties":{"area_id":"170789_170789 AP08 CER 3","nom":"Mas de Sallent","codi_icgc":"170789 AP08 CER 3","categoria":"Àrees de poblament","codi_municipi":"170789","municipi":"Ger","codi_comarca":"15","comarca":"Cerdanya","provincia":"Girona","font":"ICGC Àrees de poblament v3r1 202602"},"geometry":{"type":"MultiPolygon","coordinates":[[[[1.863397,42.418643],[1.863256,42.419274],[1.863245,42.419322],[1.863235,42.419361],[1.863233,42.419369],[1.863219,42.419452],[1.863219,42.419456],[1.863212,42.419453],[1.862986,42.419482],[1.862759,42.419512],[1.862675,42.419524],[1.86255,42.419545],[1.862426,42.419568],[1.862339,42.419588],[1.862253,42.419611],[1.862108,42.419654],[1.861965,42.4197],[1.861861,42.419735],[1.861706,42.419792],[1.861631,42.419823],[1.861556,42.419855],[1.86146,42.419901],[1.861324,42.419976],[1.86119,42.420052],[1.861101,42.420108],[1.860975,42.420198],[1.860911,42.420242],[1.860845,42.420283],[1.860742,42.420358],[1.860646,42.420437],[1.860604,42.420474],[1.860564,42.420512],[1.860549,42.420526],[1.860544,42.420535],[1.860531,42.420557],[1.860523,42.420572],[1.860521,42.420592],[1.860524,42.420613],[1.860535,42.420661],[1.860557,42.420718],[1.860597,42.420773],[1.860602,42.42078],[1.860605,42.42078],[1.86061,42.420783],[1.860629,42.420795],[1.860661,42.420808],[1.860696,42.420817],[1.860734,42.420823],[1.860792,42.420828],[1.860821,42.420828],[1.86085,42.420826],[1.8609,42.420822],[1.860975,42.420814],[1.86105,42.420806],[1.861153,42.420792],[1.861181,42.420789],[1.861215,42.421202],[1.861216,42.421212],[1.861266,42.421211],[1.861508,42.4212],[1.861707,42.421199],[1.86183,42.421201],[1.861876,42.421194],[1.861967,42.421189],[1.862067,42.421188],[1.862079,42.421186],[1.862094,42.421186],[1.862121,42.421185],[1.862425,42.42117],[1.862703,42.421153],[1.862773,42.421149],[1.862868,42.421152],[1.863125,42.421156],[1.863146,42.421156],[1.863261,42.421163],[1.863444,42.421173],[1.863555,42.421182],[1.863665,42.421195],[1.863738,42.421209],[1.863808,42.421227],[1.863838,42.421235],[1.864079,42.421068],[1.864255,42.420947],[1.864441,42.420798],[1.86452,42.420667],[1.864641,42.420522],[1.86465,42.42051],[1.864656,42.420503],[1.864696,42.420272],[1.864745,42.419633],[1.864815,42.419613],[1.864829,42.419607],[1.864866,42.419587],[1.864898,42.419562],[1.864902,42.419559],[1.864929,42.419534],[1.86495,42.419505],[1.864959,42.419489],[1.864967,42.419464],[1.864966,42.419439],[1.864958,42.419408],[1.864938,42.419362],[1.864922,42.419337],[1.864909,42.419318],[1.864873,42.419275],[1.864833,42.419235],[1.864826,42.419229],[1.864773,42.419182],[1.864732,42.419153],[1.864696,42.419135],[1.864759,42.419067],[1.8647,42.418928],[1.864457,42.418491],[1.864269,42.418106],[1.864267,42.4181],[1.86392,42.418118],[1.863676,42.418139],[1.863504,42.418172],[1.863397,42.418643]]]]}},{"type":"Feature","id":"170789_170789 AP04 CER 3","properties":{"area_id":"170789_170789 AP04 CER 3","nom":"Molí de Ger","codi_icgc":"170789 AP04 CER 3","categoria":"Àrees de poblament","codi_municipi":"170789","municipi":"Ger","codi_comarca":"15","comarca":"Cerdanya","provincia":"Girona","font":"ICGC Àrees de poblament v3r1 202602"},"geometry":{"type":"MultiPolygon","coordinates":[[[[1.861218,42.400852],[1.861092,42.401066],[1.861079,42.401105],[1.861107,42.401123],[1.861295,42.401178],[1.861239,42.401308],[1.861232,42.401336],[1.861184,42.401443],[1.861327,42.401571],[1.861595,42.401812],[1.862145,42.401615],[1.862501,42.401728],[1.862506,42.401792],[1.862645,42.401874],[1.862724,42.401794],[1.86276,42.401747],[1.862776,42.401708],[1.862809,42.401685],[1.862837,42.401676],[1.86287,42.401659],[1.862913,42.401644],[1.862947,42.401623],[1.862907,42.401497],[1.862967,42.401391],[1.86262,42.401261],[1.862622,42.401243],[1.862333,42.401122],[1.862325,42.401132],[1.862319,42.401141],[1.862239,42.401226],[1.861875,42.401101],[1.861489,42.400918],[1.861456,42.40096],[1.861288,42.400884],[1.861218,42.400852]]]]}},{"type":"Feature","id":"170789_170789 AP03 CER 2","properties":{"area_id":"170789_170789 AP03 CER 2","nom":"Montmalús","codi_icgc":"170789 AP03 CER 2","categoria":"Àrees de poblament","codi_municipi":"170789","municipi":"Ger","codi_comarca":"15","comarca":"Cerdanya","provincia":"Girona","font":"ICGC Àrees de poblament v3r1 202602"},"geometry":{"type":"MultiPolygon","coordinates":[[[[1.822267,42.433884],[1.822369,42.433844],[1.822445,42.433811],[1.822403,42.433716],[1.822388,42.433714],[1.822315,42.433522],[1.822433,42.433455],[1.822351,42.433299],[1.822388,42.433272],[1.822282,42.433128],[1.822266,42.433137],[1.821979,42.433206],[1.821947,42.433211],[1.821962,42.433251],[1.821966,42.433297],[1.821955,42.433374],[1.821943,42.433485],[1.821937,42.43355],[1.821938,42.433586],[1.821942,42.433626],[1.821962,42.433674],[1.822002,42.433763],[1.82206,42.433872],[1.82208,42.433912],[1.822137,42.433921],[1.822267,42.433884]]]]}},{"type":"Feature","id":"170789_170789 AP06 CER 3","properties":{"area_id":"170789_170789 AP06 CER 3","nom":"Niula","codi_icgc":"170789 AP06 CER 3","categoria":"Àrees de poblament","codi_municipi":"170789","municipi":"Ger","codi_comarca":"15","comarca":"Cerdanya","provincia":"Girona","font":"ICGC Àrees de poblament v3r1 202602"},"geometry":{"type":"MultiPolygon","coordinates":[[[[1.847583,42.43054],[1.847732,42.430517],[1.847753,42.430557],[1.847842,42.430525],[1.847889,42.430502],[1.847935,42.430478],[1.847966,42.430462],[1.84801,42.430436],[1.848054,42.43041],[1.848087,42.430385],[1.848103,42.430372],[1.848122,42.430362],[1.848168,42.430352],[1.848239,42.430344],[1.848275,42.43034],[1.848309,42.430334],[1.848353,42.430324],[1.848397,42.430313],[1.848581,42.430253],[1.848766,42.430193],[1.849004,42.430123],[1.849068,42.430104],[1.84903,42.430058],[1.848791,42.429756],[1.848521,42.429847],[1.848451,42.429864],[1.848441,42.429867],[1.848391,42.429847],[1.84834,42.42984],[1.848322,42.429837],[1.848254,42.429837],[1.848243,42.429837],[1.847781,42.429898],[1.847407,42.429787],[1.847407,42.429785],[1.847095,42.429899],[1.847064,42.429887],[1.846925,42.429695],[1.846856,42.429723],[1.846536,42.42986],[1.846694,42.430016],[1.846777,42.430099],[1.846857,42.430149],[1.846616,42.430278],[1.846725,42.430348],[1.846669,42.430518],[1.846645,42.430617],[1.846671,42.430618],[1.84674,42.430626],[1.846765,42.430628],[1.846882,42.430621],[1.846956,42.430608],[1.847044,42.430595],[1.847142,42.430586],[1.847288,42.430578],[1.847362,42.430572],[1.847434,42.430563],[1.847583,42.43054]]]]}},{"type":"Feature","id":"170789_170789 SI01 CER 2","properties":{"area_id":"170789_170789 SI01 CER 2","nom":"Pous Agrocomercial","codi_icgc":"170789 SI01 CER 2","categoria":"Sector industrial","codi_municipi":"170789","municipi":"Ger","codi_comarca":"15","comarca":"Cerdanya","provincia":"Girona","font":"ICGC Àrees de poblament v3r1 202602"},"geometry":{"type":"MultiPolygon","coordinates":[[[[1.84309,42.405783],[1.843074,42.40593],[1.843674,42.405963],[1.843733,42.405898],[1.843774,42.405761],[1.843759,42.405741],[1.843761,42.405708],[1.843768,42.40568],[1.84377,42.405658],[1.84309,42.405783]]]]}},{"type":"Feature","id":"170789_170789 AP10 CER 3","properties":{"area_id":"170789_170789 AP10 CER 3","nom":"Saga","codi_icgc":"170789 AP10 CER 3","categoria":"Àrees de poblament","codi_municipi":"170789","municipi":"Ger","codi_comarca":"15","comarca":"Cerdanya","provincia":"Girona","font":"ICGC Àrees de poblament v3r1 202602"},"geometry":{"type":"MultiPolygon","coordinates":[[[[1.858812,42.416216],[1.858904,42.416308],[1.859003,42.416374],[1.859099,42.416437],[1.860018,42.416512],[1.860045,42.41645],[1.860162,42.416193],[1.860182,42.416188],[1.860275,42.416164],[1.860492,42.416178],[1.86055,42.416012],[1.860276,42.415983],[1.860314,42.415635],[1.860327,42.415626],[1.860526,42.41568],[1.860749,42.415773],[1.861152,42.415882],[1.861265,42.415905],[1.862356,42.416189],[1.862477,42.416233],[1.862656,42.415611],[1.862737,42.41545],[1.862484,42.415107],[1.862027,42.415147],[1.861435,42.41517],[1.860592,42.415209],[1.860476,42.415207],[1.860143,42.415206],[1.860136,42.415146],[1.860096,42.41511],[1.860044,42.41508],[1.859968,42.415061],[1.859864,42.415063],[1.859817,42.414988],[1.859909,42.414912],[1.859773,42.414891],[1.859178,42.414763],[1.859177,42.414763],[1.859117,42.414878],[1.858855,42.414815],[1.858802,42.414889],[1.859026,42.415042],[1.859048,42.415056],[1.859142,42.415099],[1.859267,42.415151],[1.8594,42.415188],[1.859467,42.415213],[1.859545,42.415243],[1.859536,42.415259],[1.859497,42.415332],[1.859486,42.415348],[1.85946,42.415374],[1.859444,42.415385],[1.859436,42.4154],[1.859356,42.415435],[1.859194,42.415505],[1.859003,42.415597],[1.85894,42.415627],[1.858931,42.415628],[1.858858,42.415656],[1.858806,42.415672],[1.858725,42.415688],[1.858684,42.415696],[1.858643,42.415706],[1.85861,42.415716],[1.858595,42.415723],[1.858582,42.415733],[1.858571,42.415747],[1.858566,42.415767],[1.85857,42.415788],[1.858588,42.415834],[1.85861,42.41588],[1.858661,42.415986],[1.85869,42.416038],[1.858709,42.416065],[1.858812,42.416216]]]]}},{"type":"Feature","id":"170789_170789 AP02 CER 2","properties":{"area_id":"170789_170789 AP02 CER 2","nom":"Sant Pere","codi_icgc":"170789 AP02 CER 2","categoria":"Àrees de poblament","codi_municipi":"170789","municipi":"Ger","codi_comarca":"15","comarca":"Cerdanya","provincia":"Girona","font":"ICGC Àrees de poblament v3r1 202602"},"geometry":{"type":"MultiPolygon","coordinates":[[[[1.834607,42.412865],[1.834672,42.412984],[1.834827,42.412935],[1.834953,42.412933],[1.835025,42.412952],[1.83516,42.41296],[1.835329,42.412962],[1.835397,42.412941],[1.835374,42.412837],[1.835375,42.41278],[1.8354,42.412773],[1.835405,42.412752],[1.835386,42.412752],[1.835392,42.412677],[1.835098,42.412659],[1.834914,42.412682],[1.834928,42.412726],[1.834888,42.412772],[1.834806,42.412792],[1.834786,42.412824],[1.834607,42.412865]]]]}},{"type":"Feature","id":"170789_170789 AP09 CER 3","properties":{"area_id":"170789_170789 AP09 CER 3","nom":"la Devesa de Saga","codi_icgc":"170789 AP09 CER 3","categoria":"Àrees de poblament","codi_municipi":"170789","municipi":"Ger","codi_comarca":"15","comarca":"Cerdanya","provincia":"Girona","font":"ICGC Àrees de poblament v3r1 202602"},"geometry":{"type":"MultiPolygon","coordinates":[[[[1.849539,42.411327],[1.849366,42.411928],[1.849435,42.411949],[1.850534,42.412288],[1.851456,42.412461],[1.851909,42.412546],[1.851957,42.412565],[1.852027,42.412594],[1.852048,42.412564],[1.852223,42.411954],[1.852272,42.411984],[1.852304,42.412004],[1.852467,42.412103],[1.852702,42.41223],[1.852888,42.41233],[1.852931,42.412294],[1.852956,42.412264],[1.853155,42.412024],[1.853177,42.411999],[1.853178,42.411996],[1.853312,42.41203],[1.853437,42.412042],[1.854035,42.41208],[1.854057,42.412086],[1.854111,42.412102],[1.854139,42.412123],[1.854145,42.412127],[1.853887,42.412535],[1.853879,42.412547],[1.853877,42.41255],[1.853673,42.412873],[1.853554,42.413061],[1.853522,42.4131],[1.85352,42.413103],[1.853504,42.413122],[1.853465,42.413145],[1.853407,42.413178],[1.853347,42.413204],[1.853285,42.41323],[1.853263,42.413235],[1.853184,42.413254],[1.853097,42.413261],[1.852991,42.413241],[1.852986,42.413239],[1.852648,42.413076],[1.852561,42.413034],[1.852524,42.413017],[1.852479,42.412997],[1.85247,42.413001],[1.852431,42.413022],[1.852462,42.413098],[1.852494,42.413152],[1.85267,42.413334],[1.852756,42.413418],[1.85289,42.413538],[1.852929,42.413574],[1.853107,42.413732],[1.853113,42.413742],[1.853242,42.413885],[1.853245,42.413887],[1.853253,42.413892],[1.85333,42.413942],[1.853352,42.413965],[1.85337,42.413985],[1.853378,42.413993],[1.853414,42.414121],[1.853428,42.414125],[1.853437,42.414126],[1.853481,42.414137],[1.853557,42.414157],[1.853577,42.414163],[1.85356,42.414194],[1.853489,42.414321],[1.853491,42.41434],[1.853494,42.41437],[1.853562,42.414423],[1.853594,42.414428],[1.853599,42.414432],[1.853601,42.414434],[1.853618,42.414435],[1.853726,42.414436],[1.853773,42.414439],[1.853794,42.41444],[1.853842,42.414433],[1.853868,42.414404],[1.853876,42.414394],[1.853879,42.414391],[1.853904,42.414355],[1.853915,42.41434],[1.853921,42.41433],[1.853968,42.414245],[1.853981,42.414206],[1.85399,42.414175],[1.854001,42.414134],[1.85399,42.414095],[1.853975,42.414044],[1.853993,42.414004],[1.853995,42.413999],[1.854116,42.414046],[1.854158,42.414063],[1.854164,42.414063],[1.854177,42.414062],[1.854182,42.414061],[1.854335,42.413948],[1.854353,42.413934],[1.854525,42.413622],[1.854527,42.413618],[1.854917,42.413627],[1.854928,42.413627],[1.854936,42.413623],[1.854994,42.413523],[1.855002,42.413512],[1.855117,42.413492],[1.855122,42.41349],[1.855236,42.413436],[1.855307,42.413394],[1.855331,42.413366],[1.855363,42.413319],[1.855408,42.413276],[1.8555,42.413188],[1.85555,42.413156],[1.855903,42.413053],[1.856164,42.412995],[1.85629,42.41302],[1.856297,42.412971],[1.856303,42.412925],[1.856307,42.412854],[1.856307,42.412747],[1.856306,42.41264],[1.856306,42.412535],[1.856305,42.412429],[1.856301,42.412371],[1.856292,42.412313],[1.85627,42.412198],[1.856249,42.412094],[1.856222,42.411992],[1.856191,42.411906],[1.856154,42.411822],[1.856072,42.411656],[1.856009,42.411538],[1.855939,42.411422],[1.855934,42.411414],[1.855925,42.411407],[1.855907,42.4114],[1.855888,42.411396],[1.855849,42.411396],[1.855828,42.411396],[1.855806,42.411399],[1.855792,42.411404],[1.855749,42.411428],[1.855715,42.41146],[1.855631,42.411562],[1.855621,42.411567],[1.855519,42.411612],[1.85551,42.411614],[1.855466,42.411626],[1.855128,42.411609],[1.854888,42.411618],[1.854874,42.411664],[1.854569,42.411628],[1.854527,42.411802],[1.854258,42.411767],[1.853565,42.411675],[1.85354,42.411725],[1.853405,42.411998],[1.853332,42.411991],[1.853188,42.41195],[1.853005,42.411904],[1.852843,42.411863],[1.852607,42.411819],[1.852498,42.411799],[1.852385,42.41178],[1.85227,42.411758],[1.852251,42.411755],[1.851876,42.411665],[1.851528,42.411583],[1.851899,42.410678],[1.851654,42.410615],[1.851544,42.410589],[1.851514,42.410563],[1.851562,42.410418],[1.851153,42.41029],[1.851121,42.410414],[1.851098,42.410459],[1.851082,42.410483],[1.851062,42.410497],[1.851039,42.410501],[1.850979,42.410489],[1.85077,42.410444],[1.850476,42.410381],[1.850159,42.410311],[1.849954,42.410262],[1.849819,42.410236],[1.84979,42.410248],[1.849764,42.410284],[1.849746,42.410362],[1.849581,42.410963],[1.849552,42.411052],[1.849547,42.411115],[1.849562,42.411137],[1.849588,42.411158],[1.849539,42.411327]]]]}},{"type":"Feature","id":"170789_170789 AP07 CER 3","properties":{"area_id":"170789_170789 AP07 CER 3","nom":"la Pleta","codi_icgc":"170789 AP07 CER 3","categoria":"Àrees de poblament","codi_municipi":"170789","municipi":"Ger","codi_comarca":"15","comarca":"Cerdanya","provincia":"Girona","font":"ICGC Àrees de poblament v3r1 202602"},"geometry":{"type":"MultiPolygon","coordinates":[[[[1.868632,42.417292],[1.868635,42.417231],[1.868386,42.417265],[1.867167,42.417466],[1.867089,42.417622],[1.867017,42.417886],[1.867001,42.41825],[1.866967,42.418543],[1.866961,42.41885],[1.86691,42.419],[1.866793,42.419092],[1.866662,42.419196],[1.866589,42.419399],[1.866761,42.41947],[1.867173,42.419682],[1.866862,42.419794],[1.866685,42.419949],[1.866691,42.420157],[1.866691,42.420635],[1.866675,42.420837],[1.866804,42.420885],[1.866839,42.420838],[1.866992,42.42063],[1.867039,42.420567],[1.868584,42.418469],[1.868616,42.417692],[1.868618,42.417631],[1.868632,42.417292]]]]}}]}