{"type":"FeatureCollection","name":"ICGC Àrees de poblament - Garriguella","features":[{"type":"Feature","id":"170773_170773 SI01 AEM 2","properties":{"area_id":"170773_170773 SI01 AEM 2","nom":"Bodegues Trobat","codi_icgc":"170773 SI01 AEM 2","categoria":"Sector industrial","codi_municipi":"170773","municipi":"Garriguella","codi_comarca":"02","comarca":"Alt Empordà","provincia":"Girona","font":"ICGC Àrees de poblament v3r1 202602"},"geometry":{"type":"MultiPolygon","coordinates":[[[[3.07685,42.326205],[3.075287,42.325543],[3.075165,42.325758],[3.07492,42.326189],[3.074833,42.326341],[3.075087,42.326593],[3.075237,42.326627],[3.075457,42.326832],[3.075531,42.326902],[3.075533,42.327018],[3.076008,42.327463],[3.076097,42.327332],[3.076391,42.326899],[3.07685,42.326205]]]]}},{"type":"Feature","id":"170773_170773 AP01 AEM 3","properties":{"area_id":"170773_170773 AP01 AEM 3","nom":"Garriguella","codi_icgc":"170773 AP01 AEM 3","categoria":"Àrees de poblament","codi_municipi":"170773","municipi":"Garriguella","codi_comarca":"02","comarca":"Alt Empordà","provincia":"Girona","font":"ICGC Àrees de poblament v3r1 202602"},"geometry":{"type":"MultiPolygon","coordinates":[[[[3.059516,42.345829],[3.059548,42.345621],[3.059445,42.345631],[3.059336,42.345629],[3.059301,42.34561],[3.059262,42.34556],[3.059249,42.34547],[3.059215,42.345381],[3.059092,42.345204],[3.058896,42.344985],[3.058735,42.344834],[3.058575,42.344701],[3.058389,42.344823],[3.058382,42.344876],[3.058424,42.344911],[3.058416,42.344952],[3.058195,42.345264],[3.058173,42.345462],[3.058184,42.345468],[3.058224,42.345491],[3.058435,42.345487],[3.05875,42.345419],[3.058735,42.34537],[3.058803,42.345363],[3.05883,42.345365],[3.058861,42.345376],[3.058884,42.345396],[3.058934,42.345449],[3.058996,42.345556],[3.059087,42.345712],[3.059153,42.345823],[3.059156,42.345823],[3.059218,42.34583],[3.059277,42.345837],[3.059516,42.345829]]],[[[3.065722,42.348073],[3.065865,42.348032],[3.06588,42.348009],[3.065905,42.347957],[3.065927,42.347905],[3.065963,42.34781],[3.065998,42.347715],[3.066021,42.347655],[3.066043,42.347596],[3.06607,42.347531],[3.0661,42.347467],[3.066161,42.347339],[3.066241,42.347161],[3.066319,42.346983],[3.066351,42.346899],[3.066378,42.346813],[3.066384,42.346772],[3.066383,42.346751],[3.066368,42.346647],[3.066404,42.346681],[3.066442,42.346678],[3.066471,42.346678],[3.066489,42.346677],[3.066521,42.346676],[3.066567,42.346672],[3.066936,42.346643],[3.067046,42.346666],[3.067218,42.346729],[3.067516,42.346848],[3.067533,42.346865],[3.067583,42.346891],[3.067627,42.346915],[3.067695,42.346951],[3.067762,42.346986],[3.067799,42.347008],[3.067834,42.347032],[3.067865,42.347057],[3.067894,42.347083],[3.067953,42.347142],[3.068006,42.347204],[3.068034,42.347244],[3.068071,42.347308],[3.068112,42.347372],[3.068132,42.347402],[3.068166,42.347446],[3.068173,42.347455],[3.068246,42.347437],[3.06828,42.347429],[3.068462,42.347386],[3.068582,42.347358],[3.068665,42.347344],[3.068788,42.347321],[3.068853,42.347309],[3.068852,42.347304],[3.068705,42.346834],[3.068691,42.346839],[3.068629,42.34686],[3.068642,42.346831],[3.068662,42.34681],[3.068678,42.346783],[3.068682,42.346754],[3.068681,42.346737],[3.068678,42.346721],[3.06866,42.346668],[3.068642,42.346616],[3.068608,42.346515],[3.068573,42.346414],[3.068539,42.346333],[3.068503,42.346253],[3.068469,42.346169],[3.068436,42.346083],[3.068399,42.345999],[3.068352,42.345916],[3.068285,42.345822],[3.068215,42.34573],[3.068124,42.345616],[3.068029,42.345504],[3.068002,42.345474],[3.06797,42.345445],[3.06795,42.345431],[3.06792,42.345414],[3.067901,42.345405],[3.067862,42.345387],[3.067832,42.345373],[3.067808,42.345359],[3.067784,42.345322],[3.06777,42.345301],[3.067766,42.345281],[3.067767,42.345254],[3.067782,42.345125],[3.067792,42.345046],[3.067794,42.345027],[3.067794,42.34502],[3.067796,42.344997],[3.067796,42.34497],[3.067796,42.344954],[3.067781,42.344932],[3.067757,42.34492],[3.06774,42.344914],[3.067743,42.344742],[3.067778,42.344742],[3.067769,42.344653],[3.067769,42.344645],[3.067541,42.344584],[3.06763,42.344279],[3.067255,42.34422],[3.067454,42.343729],[3.06742,42.343722],[3.067051,42.34367],[3.066897,42.343956],[3.066792,42.344151],[3.066651,42.344146],[3.066458,42.344123],[3.066336,42.344109],[3.066021,42.344047],[3.066053,42.343932],[3.066111,42.343818],[3.066216,42.343727],[3.066678,42.343107],[3.066775,42.342765],[3.066805,42.3427],[3.067044,42.342564],[3.067127,42.342523],[3.067092,42.342647],[3.067032,42.342902],[3.067235,42.342953],[3.067231,42.343007],[3.067247,42.343079],[3.067312,42.343183],[3.067421,42.34331],[3.067492,42.343436],[3.067566,42.343498],[3.067659,42.343545],[3.067985,42.343645],[3.068007,42.343626],[3.068252,42.343711],[3.06837,42.343751],[3.068404,42.343699],[3.068436,42.343651],[3.0685,42.343671],[3.068556,42.343569],[3.068451,42.343531],[3.068401,42.343512],[3.068361,42.3435],[3.068392,42.343486],[3.068449,42.343449],[3.068485,42.343417],[3.068529,42.343375],[3.068674,42.34327],[3.068735,42.343284],[3.068779,42.343293],[3.068877,42.343247],[3.068922,42.34322],[3.068999,42.343179],[3.069038,42.343154],[3.069075,42.343128],[3.069094,42.343109],[3.069108,42.34308],[3.069108,42.343054],[3.069103,42.343022],[3.069085,42.34293],[3.069068,42.342887],[3.069056,42.34286],[3.069035,42.342837],[3.068998,42.342819],[3.068991,42.342817],[3.068948,42.342805],[3.068819,42.342774],[3.068745,42.342761],[3.068711,42.342752],[3.06868,42.342746],[3.068595,42.342717],[3.068558,42.342656],[3.068378,42.34254],[3.068282,42.342458],[3.068179,42.34242],[3.068048,42.34239],[3.067778,42.342385],[3.067491,42.342385],[3.067402,42.342377],[3.067388,42.342297],[3.067389,42.342129],[3.067348,42.342132],[3.067343,42.342132],[3.066799,42.342217],[3.066776,42.342303],[3.066774,42.342199],[3.066773,42.342097],[3.066767,42.341935],[3.066445,42.341554],[3.066627,42.341504],[3.066736,42.341471],[3.066892,42.341465],[3.067021,42.341489],[3.067125,42.341554],[3.067334,42.341477],[3.067201,42.341256],[3.067061,42.341194],[3.066705,42.34131],[3.066562,42.341365],[3.066506,42.341383],[3.066473,42.341368],[3.066405,42.341332],[3.066349,42.341294],[3.066629,42.340796],[3.066745,42.34057],[3.066716,42.34048],[3.066376,42.34049],[3.0663,42.340248],[3.066623,42.340191],[3.066398,42.339494],[3.066365,42.339398],[3.066313,42.339431],[3.066203,42.339505],[3.066088,42.339575],[3.066035,42.339606],[3.065983,42.339637],[3.065976,42.339642],[3.065974,42.339644],[3.065971,42.339647],[3.065833,42.339729],[3.065809,42.339738],[3.065632,42.339835],[3.065541,42.339882],[3.065456,42.339936],[3.065312,42.339787],[3.065306,42.339778],[3.065297,42.339771],[3.065283,42.339766],[3.06527,42.339763],[3.065251,42.339761],[3.065233,42.339761],[3.065205,42.339764],[3.065178,42.33977],[3.065145,42.339778],[3.065113,42.339788],[3.065043,42.339813],[3.064974,42.339838],[3.064931,42.339854],[3.064888,42.33987],[3.064646,42.339983],[3.064622,42.339994],[3.064608,42.340001],[3.064533,42.340035],[3.064531,42.340036],[3.06417,42.34084],[3.063657,42.340936],[3.063454,42.341087],[3.063225,42.340929],[3.063119,42.340847],[3.062926,42.340762],[3.062738,42.340651],[3.062382,42.340487],[3.062324,42.340501],[3.061824,42.341509],[3.06205,42.341566],[3.06209,42.341629],[3.062078,42.341637],[3.061943,42.341734],[3.061874,42.341784],[3.06183,42.341812],[3.061718,42.341885],[3.06167,42.341918],[3.061613,42.341956],[3.061586,42.341974],[3.061452,42.342064],[3.061243,42.342201],[3.061226,42.342212],[3.061149,42.342262],[3.061002,42.342359],[3.060991,42.342366],[3.060986,42.34237],[3.060051,42.342071],[3.059748,42.342936],[3.059826,42.343011],[3.05986,42.343041],[3.059672,42.343166],[3.059543,42.34324],[3.05935,42.343315],[3.059212,42.343355],[3.05908,42.343398],[3.058932,42.34348],[3.058769,42.343546],[3.058701,42.343565],[3.058641,42.343572],[3.058623,42.343573],[3.058413,42.343502],[3.058192,42.343523],[3.058006,42.343509],[3.057829,42.343476],[3.057682,42.343418],[3.057608,42.343388],[3.057692,42.343255],[3.05712,42.343059],[3.057049,42.343036],[3.056979,42.343011],[3.05691,42.342985],[3.056883,42.342974],[3.056857,42.342963],[3.056849,42.342959],[3.056825,42.342949],[3.056463,42.342797],[3.0564,42.342767],[3.056254,42.342699],[3.056144,42.342651],[3.056016,42.3426],[3.055915,42.34256],[3.055838,42.34253],[3.055779,42.342513],[3.055734,42.3425],[3.055641,42.342272],[3.055448,42.342236],[3.055438,42.341972],[3.055171,42.34198],[3.055168,42.341903],[3.055159,42.3417],[3.055134,42.341697],[3.054901,42.341673],[3.054889,42.341672],[3.054889,42.341786],[3.054896,42.341859],[3.054908,42.341993],[3.05496,42.341988],[3.054963,42.342023],[3.054958,42.342151],[3.054918,42.342428],[3.054917,42.342435],[3.054911,42.342668],[3.054823,42.342722],[3.054714,42.342817],[3.054375,42.342824],[3.053928,42.342826],[3.053773,42.342827],[3.053801,42.343577],[3.053886,42.343833],[3.054083,42.343855],[3.054409,42.343885],[3.054633,42.3439],[3.055023,42.343912],[3.055129,42.343908],[3.055151,42.343873],[3.055247,42.343773],[3.055536,42.343497],[3.055552,42.343488],[3.055581,42.343489],[3.055608,42.343496],[3.055668,42.343523],[3.055586,42.343687],[3.055694,42.343732],[3.055951,42.343849],[3.055861,42.343961],[3.055843,42.343982],[3.056155,42.343975],[3.056164,42.344078],[3.056175,42.344081],[3.056249,42.344101],[3.056324,42.34412],[3.0564,42.344137],[3.056406,42.344138],[3.0564,42.34419],[3.056423,42.344266],[3.056455,42.344309],[3.05642,42.344343],[3.056397,42.344366],[3.056562,42.344473],[3.05663,42.34447],[3.056976,42.344154],[3.056991,42.344152],[3.057112,42.344136],[3.057302,42.34411],[3.057378,42.3441],[3.057454,42.344093],[3.05753,42.344087],[3.057634,42.344081],[3.057553,42.344273],[3.05791,42.344294],[3.058022,42.34406],[3.058093,42.343929],[3.058135,42.343862],[3.058167,42.343829],[3.058256,42.343814],[3.058444,42.343789],[3.05845,42.343787],[3.058531,42.343771],[3.058595,42.34377],[3.05864,42.343784],[3.058683,42.343815],[3.058707,42.343844],[3.058728,42.343859],[3.058785,42.343879],[3.05883,42.343886],[3.058866,42.343888],[3.058909,42.343881],[3.058956,42.343864],[3.059013,42.343838],[3.05905,42.343805],[3.059086,42.343765],[3.059127,42.343739],[3.059198,42.343717],[3.059404,42.343713],[3.059596,42.343712],[3.059834,42.34372],[3.059951,42.343724],[3.060072,42.343731],[3.060294,42.343744],[3.060423,42.343766],[3.060574,42.343792],[3.060669,42.343808],[3.060823,42.343834],[3.061379,42.343938],[3.061442,42.344125],[3.061665,42.344159],[3.061663,42.344219],[3.06165,42.344283],[3.061626,42.344376],[3.061598,42.34447],[3.061576,42.344548],[3.061554,42.344627],[3.061527,42.344714],[3.061518,42.344732],[3.061507,42.344742],[3.061485,42.34475],[3.061194,42.344704],[3.061141,42.344896],[3.061092,42.345074],[3.061039,42.345265],[3.060966,42.34553],[3.0609,42.345524],[3.060874,42.345518],[3.060605,42.345474],[3.060581,42.34556],[3.060427,42.346132],[3.061149,42.346238],[3.061152,42.346231],[3.061159,42.346213],[3.061317,42.34554],[3.06136,42.345479],[3.063365,42.345764],[3.063254,42.346143],[3.062406,42.346058],[3.062317,42.346378],[3.062341,42.346383],[3.062397,42.346393],[3.06242,42.346398],[3.062521,42.346412],[3.062625,42.346423],[3.062886,42.346459],[3.062968,42.346469],[3.06288,42.3467],[3.062924,42.346753],[3.062953,42.346835],[3.063469,42.346932],[3.06355,42.346774],[3.063593,42.346745],[3.063629,42.346749],[3.063683,42.346747],[3.063736,42.346743],[3.063849,42.346735],[3.063896,42.346732],[3.063962,42.346727],[3.064045,42.34672],[3.064129,42.346709],[3.064161,42.346701],[3.064207,42.346686],[3.064251,42.346667],[3.064283,42.346651],[3.064313,42.346634],[3.064361,42.346605],[3.064364,42.346603],[3.064367,42.346601],[3.064371,42.3466],[3.064375,42.346598],[3.064378,42.346596],[3.064382,42.346595],[3.064386,42.346593],[3.06439,42.346592],[3.064393,42.346591],[3.064397,42.34659],[3.064401,42.346589],[3.064405,42.346588],[3.064409,42.346587],[3.064414,42.346587],[3.064418,42.346586],[3.064422,42.346586],[3.064426,42.346585],[3.06443,42.346585],[3.064434,42.346585],[3.064439,42.346585],[3.064443,42.346585],[3.064998,42.346605],[3.064995,42.346616],[3.064987,42.346644],[3.064972,42.346742],[3.064817,42.347331],[3.064811,42.347355],[3.064726,42.347636],[3.064709,42.347682],[3.064672,42.347783],[3.064649,42.347857],[3.064581,42.348068],[3.064609,42.348068],[3.064739,42.348067],[3.065226,42.348065],[3.065457,42.348071],[3.065559,42.348072],[3.065722,42.348073]]]]}},{"type":"Feature","id":"170773_170773 AP02 AEM 2","properties":{"area_id":"170773_170773 AP02 AEM 2","nom":"Vent d'Empordà","codi_icgc":"170773 AP02 AEM 2","categoria":"Àrees de poblament","codi_municipi":"170773","municipi":"Garriguella","codi_comarca":"02","comarca":"Alt Empordà","provincia":"Girona","font":"ICGC Àrees de poblament v3r1 202602"},"geometry":{"type":"MultiPolygon","coordinates":[[[[3.069828,42.341338],[3.069899,42.341264],[3.069904,42.341267],[3.069976,42.3412],[3.069977,42.341199],[3.070052,42.341123],[3.070053,42.341122],[3.070053,42.341122],[3.069776,42.340889],[3.069841,42.340842],[3.069901,42.340799],[3.069977,42.340745],[3.070015,42.340723],[3.070059,42.340703],[3.070093,42.340692],[3.070131,42.340681],[3.07019,42.340651],[3.070242,42.340615],[3.070272,42.340588],[3.070324,42.340532],[3.070372,42.340475],[3.070407,42.34044],[3.070456,42.3404],[3.070475,42.340388],[3.070705,42.340601],[3.070705,42.340601],[3.071039,42.34073],[3.071039,42.34073],[3.071148,42.340785],[3.071148,42.340785],[3.071281,42.340841],[3.071281,42.340841],[3.071662,42.341006],[3.071724,42.340939],[3.071765,42.340887],[3.071624,42.340771],[3.071547,42.340707],[3.07164,42.340657],[3.07202,42.340454],[3.072232,42.340363],[3.072232,42.340363],[3.072232,42.340352],[3.072237,42.340303],[3.07225,42.340256],[3.072278,42.340038],[3.072272,42.340037],[3.072247,42.340033],[3.072216,42.340029],[3.072099,42.340034],[3.071918,42.340048],[3.071611,42.340062],[3.070825,42.340083],[3.070329,42.340012],[3.070294,42.340006],[3.070203,42.339993],[3.07011,42.339972],[3.069998,42.339951],[3.069765,42.339902],[3.069087,42.340297],[3.068549,42.340612],[3.068554,42.340616],[3.068582,42.34064],[3.06886,42.340876],[3.068642,42.341048],[3.068948,42.341327],[3.068972,42.341349],[3.069233,42.34119],[3.06925,42.341202],[3.069335,42.341262],[3.06942,42.341336],[3.069578,42.341461],[3.06962,42.341472],[3.069628,42.34147],[3.069659,42.341461],[3.069694,42.341435],[3.069828,42.341338]]]]}}]}