{"type":"FeatureCollection","name":"ICGC Àrees de poblament - Isòvol","features":[{"type":"Feature","id":"170849_170849 AP01 CER 3","properties":{"area_id":"170849_170849 AP01 CER 3","nom":"All","codi_icgc":"170849 AP01 CER 3","categoria":"Àrees de poblament","codi_municipi":"170849","municipi":"Isòvol","codi_comarca":"15","comarca":"Cerdanya","provincia":"Girona","font":"ICGC Àrees de poblament v3r1 202602"},"geometry":{"type":"MultiPolygon","coordinates":[[[[1.842781,42.399429],[1.842994,42.399114],[1.843063,42.398988],[1.842891,42.398912],[1.842619,42.39878],[1.842427,42.398703],[1.842135,42.398575],[1.842003,42.398524],[1.842013,42.398448],[1.842166,42.398209],[1.842183,42.398182],[1.842197,42.398164],[1.84225,42.398093],[1.842405,42.397855],[1.842407,42.397827],[1.842463,42.397689],[1.842472,42.397666],[1.842472,42.397666],[1.842472,42.397665],[1.842321,42.39754],[1.842035,42.39732],[1.841791,42.39712],[1.841555,42.396935],[1.841513,42.396902],[1.841463,42.396859],[1.841374,42.396768],[1.841374,42.396766],[1.841357,42.396714],[1.841356,42.396711],[1.841352,42.396707],[1.841318,42.396677],[1.841248,42.396671],[1.841241,42.396671],[1.841221,42.396672],[1.841187,42.396673],[1.841123,42.396674],[1.841059,42.396673],[1.840982,42.396672],[1.840904,42.396668],[1.840852,42.396663],[1.840771,42.396651],[1.84074,42.396646],[1.84063,42.396627],[1.840506,42.396604],[1.840382,42.396582],[1.840351,42.396579],[1.840321,42.396579],[1.840259,42.396586],[1.840219,42.396595],[1.840196,42.396601],[1.84017,42.396603],[1.840132,42.396618],[1.840081,42.396634],[1.840038,42.396651],[1.840038,42.396651],[1.839844,42.396494],[1.839689,42.396387],[1.839681,42.396392],[1.839679,42.396393],[1.839488,42.396283],[1.83931,42.396179],[1.839304,42.396182],[1.839162,42.396255],[1.839132,42.39627],[1.839114,42.39628],[1.839117,42.396334],[1.839112,42.39642],[1.839102,42.396498],[1.839093,42.396575],[1.839088,42.396623],[1.839011,42.396619],[1.83891,42.396577],[1.838789,42.396547],[1.838766,42.39656],[1.838676,42.39668],[1.838646,42.396668],[1.838564,42.39675],[1.8385,42.396895],[1.838017,42.396991],[1.837382,42.396904],[1.837231,42.396831],[1.837233,42.396819],[1.837202,42.396819],[1.837201,42.396821],[1.837192,42.396842],[1.837166,42.396889],[1.837133,42.396941],[1.837133,42.396946],[1.837124,42.397007],[1.837114,42.397067],[1.837105,42.397098],[1.837102,42.397103],[1.837095,42.397107],[1.837087,42.397107],[1.837076,42.397106],[1.837046,42.397094],[1.837024,42.397085],[1.836999,42.397055],[1.836973,42.397003],[1.836971,42.397001],[1.837106,42.396469],[1.837165,42.396282],[1.837159,42.396239],[1.837153,42.396196],[1.837141,42.396129],[1.837117,42.39603],[1.837086,42.395931],[1.837074,42.395902],[1.837058,42.395874],[1.83705,42.39586],[1.837019,42.395821],[1.836989,42.39579],[1.836959,42.395759],[1.836946,42.395742],[1.836938,42.395734],[1.836929,42.395728],[1.836918,42.395724],[1.836907,42.395719],[1.836858,42.395874],[1.836858,42.395874],[1.83684,42.395932],[1.836817,42.395997],[1.836783,42.396074],[1.836753,42.396132],[1.836721,42.396176],[1.836522,42.396429],[1.836494,42.396481],[1.836465,42.396532],[1.836459,42.396544],[1.83646,42.396566],[1.836459,42.396583],[1.836461,42.396605],[1.836464,42.396627],[1.83647,42.396649],[1.836481,42.396675],[1.836495,42.3967],[1.836511,42.396725],[1.836531,42.396747],[1.836566,42.396776],[1.836603,42.396803],[1.836641,42.396825],[1.836663,42.396836],[1.836814,42.396937],[1.836715,42.397064],[1.836683,42.397092],[1.836681,42.39708],[1.836673,42.397063],[1.83667,42.397059],[1.836652,42.397037],[1.836644,42.39706],[1.836632,42.397089],[1.836617,42.397113],[1.836584,42.397143],[1.836548,42.397173],[1.836455,42.397258],[1.836407,42.3973],[1.836355,42.39734],[1.836324,42.397359],[1.836292,42.397376],[1.836246,42.397396],[1.836223,42.397406],[1.836201,42.397419],[1.836189,42.397429],[1.836177,42.397447],[1.836171,42.397467],[1.836169,42.397488],[1.836171,42.39751],[1.836173,42.397524],[1.835979,42.397761],[1.836069,42.397828],[1.836067,42.39783],[1.836091,42.397847],[1.836111,42.397861],[1.836125,42.397863],[1.836235,42.397929],[1.836118,42.39798],[1.835995,42.398053],[1.835901,42.398092],[1.835865,42.39813],[1.835861,42.398178],[1.835921,42.398236],[1.836007,42.398279],[1.836109,42.398311],[1.836263,42.398327],[1.836401,42.398331],[1.83654,42.398304],[1.836737,42.398204],[1.836759,42.39827],[1.836767,42.3983],[1.836811,42.39839],[1.836816,42.398457],[1.836752,42.398595],[1.836741,42.398627],[1.836678,42.398733],[1.836835,42.398801],[1.836901,42.398852],[1.836966,42.398901],[1.836976,42.398893],[1.837016,42.398865],[1.836983,42.39884],[1.837034,42.398737],[1.837044,42.398697],[1.837092,42.398697],[1.8371,42.398698],[1.837124,42.398669],[1.837137,42.398654],[1.837148,42.398641],[1.837178,42.398592],[1.837723,42.398485],[1.837735,42.398504],[1.837975,42.398463],[1.837976,42.398464],[1.838106,42.398435],[1.838222,42.398423],[1.838418,42.398395],[1.838464,42.398389],[1.838466,42.398385],[1.838501,42.398366],[1.838525,42.398359],[1.838562,42.398318],[1.838444,42.398166],[1.838454,42.398133],[1.838558,42.398103],[1.838648,42.398075],[1.838702,42.398102],[1.838798,42.398148],[1.838868,42.398184],[1.838963,42.398214],[1.839271,42.398309],[1.839568,42.39838],[1.839749,42.398397],[1.839818,42.398392],[1.839836,42.398406],[1.839843,42.398412],[1.839848,42.398419],[1.83985,42.39844],[1.839849,42.398489],[1.839844,42.398537],[1.839827,42.39861],[1.839809,42.398682],[1.839792,42.398764],[1.839783,42.398846],[1.839782,42.398847],[1.839785,42.398878],[1.839792,42.398901],[1.839808,42.398935],[1.83983,42.398969],[1.839847,42.39899],[1.839869,42.399011],[1.839877,42.399018],[1.839888,42.399026],[1.839895,42.399031],[1.839912,42.39904],[1.839916,42.399043],[1.839936,42.39905],[1.839953,42.399057],[1.840011,42.39907],[1.84007,42.399076],[1.840098,42.399076],[1.840168,42.399068],[1.840213,42.399068],[1.840245,42.399063],[1.840319,42.399047],[1.840405,42.399024],[1.84049,42.399002],[1.840532,42.39899],[1.840601,42.398994],[1.840677,42.399102],[1.840754,42.399414],[1.840759,42.399435],[1.840794,42.399505],[1.840818,42.399541],[1.84109,42.399458],[1.841251,42.399406],[1.841425,42.399352],[1.841595,42.399315],[1.84176,42.399289],[1.842078,42.399263],[1.842154,42.399274],[1.842365,42.399282],[1.842747,42.399412],[1.842781,42.399429]]]]}},{"type":"Feature","id":"170849_170849 AP03 CER 3","properties":{"area_id":"170849_170849 AP03 CER 3","nom":"Isòvol","codi_icgc":"170849 AP03 CER 3","categoria":"Àrees de poblament","codi_municipi":"170849","municipi":"Isòvol","codi_comarca":"15","comarca":"Cerdanya","provincia":"Girona","font":"ICGC Àrees de poblament v3r1 202602"},"geometry":{"type":"MultiPolygon","coordinates":[[[[1.816119,42.377061],[1.816327,42.377249],[1.81649,42.377373],[1.816582,42.377503],[1.81662,42.377591],[1.816713,42.377703],[1.816673,42.377736],[1.816662,42.377746],[1.816579,42.377814],[1.816631,42.377878],[1.81673,42.377951],[1.816751,42.377987],[1.816927,42.378108],[1.817042,42.378139],[1.817136,42.378203],[1.817194,42.378228],[1.817302,42.378151],[1.817479,42.378286],[1.817499,42.378291],[1.817574,42.378514],[1.817611,42.378608],[1.81761,42.378661],[1.817602,42.378701],[1.817578,42.378719],[1.817522,42.378747],[1.817482,42.378759],[1.817443,42.378758],[1.817368,42.378733],[1.817368,42.378733],[1.817262,42.378704],[1.817192,42.378686],[1.817102,42.378736],[1.817064,42.378754],[1.81707,42.378771],[1.8171,42.378825],[1.81716,42.378886],[1.817244,42.378934],[1.817349,42.378967],[1.817406,42.378981],[1.817602,42.379135],[1.81784,42.379246],[1.817968,42.379185],[1.817968,42.379183],[1.817988,42.379042],[1.818161,42.378928],[1.818172,42.378921],[1.818601,42.37866],[1.818687,42.37861],[1.818741,42.378579],[1.819072,42.378446],[1.818942,42.378292],[1.818945,42.378291],[1.818938,42.378177],[1.818822,42.378029],[1.818827,42.378013],[1.818804,42.377997],[1.818855,42.377857],[1.818836,42.377688],[1.818817,42.377666],[1.818641,42.377565],[1.818595,42.377524],[1.818595,42.377483],[1.8186,42.377465],[1.818324,42.377352],[1.818072,42.377321],[1.817912,42.377329],[1.817676,42.37728],[1.817354,42.377166],[1.817033,42.377069],[1.816869,42.376956],[1.81676,42.376861],[1.816355,42.376544],[1.816208,42.376428],[1.815991,42.376337],[1.815911,42.376291],[1.815864,42.376226],[1.815693,42.376107],[1.815319,42.375851],[1.815051,42.375621],[1.814862,42.375725],[1.814992,42.375878],[1.815164,42.376086],[1.815603,42.3766],[1.815794,42.376772],[1.815869,42.376855],[1.815912,42.376882],[1.816005,42.376921],[1.816053,42.376959],[1.816094,42.376997],[1.816123,42.377044],[1.816119,42.377061]]]]}},{"type":"Feature","id":"170849_170849 AP04 CER 3","properties":{"area_id":"170849_170849 AP04 CER 3","nom":"Olopte","codi_icgc":"170849 AP04 CER 3","categoria":"Àrees de poblament","codi_municipi":"170849","municipi":"Isòvol","codi_comarca":"15","comarca":"Cerdanya","provincia":"Girona","font":"ICGC Àrees de poblament v3r1 202602"},"geometry":{"type":"MultiPolygon","coordinates":[[[[1.813009,42.391869],[1.813032,42.391994],[1.812856,42.391992],[1.812725,42.392134],[1.812989,42.392352],[1.813037,42.392478],[1.813039,42.392481],[1.813041,42.392483],[1.81307,42.392522],[1.813061,42.392644],[1.813067,42.392738],[1.813044,42.392853],[1.813414,42.393247],[1.813184,42.393481],[1.813317,42.39392],[1.813328,42.393922],[1.813336,42.393992],[1.813325,42.394065],[1.813265,42.3941],[1.813123,42.394393],[1.813082,42.394512],[1.812941,42.394684],[1.812851,42.394828],[1.812751,42.394914],[1.812473,42.395158],[1.812273,42.395381],[1.81226,42.395562],[1.812229,42.395627],[1.812074,42.395553],[1.811844,42.395819],[1.811793,42.39593],[1.811782,42.396025],[1.81178,42.396104],[1.811691,42.396132],[1.811748,42.396249],[1.811945,42.3962],[1.811898,42.396091],[1.812007,42.396012],[1.812048,42.39589],[1.812167,42.395811],[1.812246,42.395768],[1.812257,42.395718],[1.812307,42.395639],[1.81234,42.395472],[1.812371,42.395356],[1.81243,42.395328],[1.812622,42.395533],[1.81273,42.395541],[1.812805,42.395201],[1.812957,42.394906],[1.813057,42.394798],[1.813211,42.394894],[1.813432,42.395112],[1.813434,42.395174],[1.813529,42.395202],[1.813747,42.39553],[1.813796,42.395552],[1.813907,42.395336],[1.814086,42.395215],[1.814135,42.395179],[1.814516,42.395226],[1.814614,42.395198],[1.814723,42.395149],[1.814744,42.395033],[1.814756,42.394924],[1.814767,42.394852],[1.81478,42.394644],[1.814801,42.394646],[1.814896,42.394579],[1.815338,42.394626],[1.815348,42.39458],[1.815381,42.394448],[1.815382,42.394428],[1.815401,42.394281],[1.815435,42.394228],[1.815562,42.394186],[1.815569,42.394184],[1.815733,42.394234],[1.815793,42.394252],[1.815799,42.394249],[1.815854,42.394269],[1.816138,42.393868],[1.81616,42.393838],[1.816156,42.393812],[1.816206,42.39375],[1.816224,42.39368],[1.816086,42.39353],[1.816268,42.393377],[1.817296,42.393172],[1.817271,42.393105],[1.817106,42.393018],[1.816901,42.392968],[1.816114,42.393112],[1.815877,42.393323],[1.815811,42.393298],[1.815757,42.393295],[1.815638,42.393266],[1.815512,42.393243],[1.815157,42.393228],[1.81505,42.393224],[1.814811,42.393233],[1.814729,42.393236],[1.814721,42.393236],[1.81472,42.393235],[1.814514,42.393254],[1.814328,42.393245],[1.814113,42.393236],[1.814085,42.393192],[1.814016,42.393177],[1.813995,42.393065],[1.813887,42.393064],[1.813686,42.39233],[1.813681,42.392303],[1.813789,42.392275],[1.813887,42.392276],[1.813937,42.392297],[1.814022,42.392245],[1.814032,42.392165],[1.814035,42.392146],[1.814034,42.392028],[1.81403,42.391848],[1.814025,42.391669],[1.813977,42.391654],[1.813822,42.391648],[1.813736,42.391588],[1.813654,42.391592],[1.813405,42.391393],[1.813218,42.391386],[1.813178,42.391385],[1.81317,42.39151],[1.813154,42.391696],[1.813304,42.391765],[1.813146,42.39182],[1.813059,42.391851],[1.813009,42.391869]]]]}},{"type":"Feature","id":"170849_170849 AP02 CER 2","properties":{"area_id":"170849_170849 AP02 CER 2","nom":"els Prats de la Serra","codi_icgc":"170849 AP02 CER 2","categoria":"Àrees de poblament","codi_municipi":"170849","municipi":"Isòvol","codi_comarca":"15","comarca":"Cerdanya","provincia":"Girona","font":"ICGC Àrees de poblament v3r1 202602"},"geometry":{"type":"MultiPolygon","coordinates":[[[[1.843149,42.400286],[1.84301,42.400358],[1.842928,42.400413],[1.842726,42.400255],[1.842611,42.400171],[1.842523,42.40011],[1.842437,42.4002],[1.842386,42.400281],[1.842348,42.400314],[1.842244,42.400361],[1.842156,42.400398],[1.842026,42.400526],[1.84175,42.400667],[1.84175,42.400723],[1.84165,42.400716],[1.84155,42.400711],[1.841489,42.400705],[1.841487,42.400705],[1.841466,42.400719],[1.841424,42.400707],[1.841407,42.400754],[1.841494,42.400988],[1.841522,42.401065],[1.841654,42.401299],[1.841663,42.40131],[1.841747,42.401426],[1.841845,42.401561],[1.841848,42.401567],[1.841826,42.40158],[1.841891,42.40167],[1.841917,42.401724],[1.841923,42.401777],[1.841925,42.401806],[1.841925,42.401855],[1.842228,42.401832],[1.842601,42.4018],[1.842918,42.401775],[1.842913,42.401761],[1.843004,42.401726],[1.842995,42.401562],[1.843035,42.401366],[1.84317,42.400998],[1.843299,42.400755],[1.84334,42.400705],[1.843415,42.400789],[1.843699,42.400655],[1.843522,42.400459],[1.843559,42.400385],[1.843645,42.400332],[1.84356,42.400231],[1.84331,42.400179],[1.843149,42.400286]]]]}}]}