{"type":"FeatureCollection","name":"ICGC Àrees de poblament - Gualta","features":[{"type":"Feature","id":"170813_170813 AP01 BEM 3","properties":{"area_id":"170813_170813 AP01 BEM 3","nom":"Gualta","codi_icgc":"170813 AP01 BEM 3","categoria":"Àrees de poblament","codi_municipi":"170813","municipi":"Gualta","codi_comarca":"10","comarca":"Baix Empordà","provincia":"Girona","font":"ICGC Àrees de poblament v3r1 202602"},"geometry":{"type":"MultiPolygon","coordinates":[[[[3.103974,42.030229],[3.104068,42.030158],[3.104098,42.030129],[3.104121,42.03007],[3.10413,42.030018],[3.10413,42.030002],[3.104131,42.029984],[3.104101,42.02981],[3.104104,42.029739],[3.104146,42.029722],[3.104165,42.029632],[3.104151,42.029532],[3.104107,42.029455],[3.104121,42.029205],[3.104238,42.028889],[3.104254,42.028832],[3.104317,42.028636],[3.104321,42.028622],[3.104335,42.028581],[3.104369,42.028474],[3.104384,42.028429],[3.104405,42.028369],[3.10439,42.028365],[3.104294,42.028337],[3.104201,42.028311],[3.10419,42.028307],[3.104231,42.028243],[3.104255,42.028204],[3.104294,42.028142],[3.104341,42.028069],[3.104384,42.027991],[3.104393,42.027974],[3.104416,42.027933],[3.104438,42.027891],[3.104475,42.027824],[3.104478,42.02782],[3.104493,42.027793],[3.104448,42.027778],[3.10441,42.027765],[3.104548,42.027426],[3.104565,42.027341],[3.104539,42.027344],[3.1043,42.02737],[3.104294,42.027371],[3.10428,42.027372],[3.10428,42.027369],[3.10428,42.027365],[3.10428,42.027362],[3.10428,42.027359],[3.10428,42.027356],[3.10428,42.027353],[3.104281,42.02735],[3.104282,42.027347],[3.104283,42.027344],[3.104284,42.027341],[3.104291,42.027321],[3.104303,42.027287],[3.104314,42.027252],[3.104323,42.027218],[3.10433,42.027183],[3.104336,42.027147],[3.104385,42.026993],[3.104397,42.02696],[3.104416,42.026911],[3.104437,42.026855],[3.104317,42.026836],[3.10432,42.026795],[3.104307,42.026791],[3.104294,42.026787],[3.104294,42.026566],[3.104294,42.026557],[3.104272,42.026505],[3.104234,42.026418],[3.104294,42.026414],[3.104505,42.026401],[3.104522,42.0264],[3.104577,42.026396],[3.104607,42.026398],[3.10461,42.026391],[3.104636,42.026321],[3.104645,42.026206],[3.10465,42.026142],[3.104649,42.026134],[3.104617,42.025712],[3.104468,42.025718],[3.104473,42.025319],[3.104478,42.025254],[3.10447,42.025219],[3.104434,42.025138],[3.104424,42.025077],[3.104372,42.024949],[3.104331,42.024854],[3.1043,42.024812],[3.104268,42.024789],[3.104224,42.024524],[3.1042,42.024524],[3.104191,42.024516],[3.104041,42.02452],[3.104011,42.024521],[3.103971,42.024523],[3.103943,42.024523],[3.103952,42.024558],[3.103955,42.024618],[3.10396,42.02468],[3.103922,42.024679],[3.103738,42.024651],[3.103626,42.024694],[3.103274,42.02472],[3.103092,42.024737],[3.10294,42.024752],[3.10286,42.024746],[3.102242,42.024699],[3.102268,42.024895],[3.102353,42.025535],[3.102364,42.025598],[3.102348,42.025599],[3.102331,42.0256],[3.102288,42.025602],[3.102274,42.025603],[3.102138,42.025692],[3.102198,42.026071],[3.102201,42.026088],[3.102255,42.02608],[3.102255,42.026075],[3.102285,42.026078],[3.102562,42.026049],[3.102583,42.026155],[3.102632,42.026151],[3.10265,42.026298],[3.102767,42.026298],[3.102684,42.026624],[3.102249,42.026576],[3.102253,42.026617],[3.102255,42.026632],[3.102275,42.026752],[3.102275,42.026764],[3.102275,42.026773],[3.102451,42.026792],[3.102541,42.026803],[3.102553,42.026805],[3.102645,42.026813],[3.102708,42.02682],[3.102777,42.026832],[3.102802,42.026837],[3.10302,42.026874],[3.103072,42.026865],[3.103379,42.026903],[3.103374,42.026923],[3.103433,42.026931],[3.103415,42.02701],[3.103385,42.027095],[3.103361,42.027185],[3.103354,42.027189],[3.103329,42.027266],[3.103153,42.027248],[3.103154,42.027243],[3.103057,42.027234],[3.102919,42.027223],[3.102604,42.027195],[3.102275,42.027153],[3.102271,42.027152],[3.102238,42.027148],[3.10222,42.027148],[3.102108,42.027148],[3.101803,42.027112],[3.101793,42.027111],[3.101793,42.027148],[3.101794,42.027389],[3.101796,42.0274],[3.101653,42.027418],[3.101439,42.027445],[3.101439,42.027469],[3.101437,42.027515],[3.101437,42.027669],[3.101653,42.027659],[3.101656,42.027658],[3.101664,42.0275],[3.101697,42.027483],[3.101832,42.027482],[3.101852,42.027487],[3.102104,42.027525],[3.102466,42.027579],[3.102478,42.027581],[3.102971,42.027644],[3.102946,42.027795],[3.102912,42.027805],[3.102874,42.027859],[3.102517,42.028002],[3.102325,42.028212],[3.102302,42.02829],[3.102146,42.028238],[3.101751,42.029077],[3.102024,42.029104],[3.102007,42.029166],[3.101816,42.029773],[3.102063,42.029813],[3.102284,42.029841],[3.102312,42.029863],[3.102638,42.02988],[3.102624,42.029959],[3.102773,42.029991],[3.10273,42.030198],[3.102812,42.030202],[3.102994,42.030177],[3.103027,42.030237],[3.103051,42.030305],[3.103133,42.030362],[3.103195,42.030409],[3.10321,42.030427],[3.103304,42.030506],[3.103476,42.030451],[3.103577,42.030433],[3.103668,42.030398],[3.103912,42.030297],[3.103974,42.030229]]]]}},{"type":"Feature","id":"170813_170813 AP02 BEM 2","properties":{"area_id":"170813_170813 AP02 BEM 2","nom":"el Pedró","codi_icgc":"170813 AP02 BEM 2","categoria":"Àrees de poblament","codi_municipi":"170813","municipi":"Gualta","codi_comarca":"10","comarca":"Baix Empordà","provincia":"Girona","font":"ICGC Àrees de poblament v3r1 202602"},"geometry":{"type":"MultiPolygon","coordinates":[[[[3.100129,42.026614],[3.100088,42.026637],[3.1001,42.026683],[3.100167,42.026923],[3.100191,42.027011],[3.100202,42.027066],[3.100203,42.027092],[3.100199,42.027117],[3.10018,42.027119],[3.100187,42.027139],[3.099958,42.027193],[3.10005,42.027398],[3.100057,42.027414],[3.100081,42.027466],[3.100215,42.027764],[3.099715,42.027912],[3.099719,42.027914],[3.099729,42.027924],[3.099777,42.027983],[3.09993,42.028271],[3.100014,42.02836],[3.100112,42.028509],[3.100142,42.028558],[3.10011,42.028563],[3.100155,42.028631],[3.100302,42.028601],[3.10034,42.028765],[3.100372,42.028935],[3.100379,42.028968],[3.100383,42.02898],[3.100392,42.028995],[3.100403,42.029005],[3.100414,42.029009],[3.100442,42.02902],[3.100477,42.029026],[3.100647,42.029026],[3.100772,42.029025],[3.100841,42.02904],[3.100955,42.029035],[3.101155,42.028994],[3.101234,42.029228],[3.101653,42.029171],[3.101712,42.029025],[3.101709,42.029025],[3.101852,42.02868],[3.101204,42.028639],[3.101137,42.028607],[3.101071,42.028576],[3.101046,42.028566],[3.101018,42.02856],[3.100961,42.028551],[3.100925,42.028541],[3.100906,42.028531],[3.10089,42.028519],[3.100876,42.028505],[3.100856,42.028475],[3.100817,42.028398],[3.100793,42.028351],[3.10073,42.028228],[3.100624,42.027991],[3.100551,42.027832],[3.100543,42.027812],[3.100513,42.027725],[3.100704,42.02775],[3.100773,42.027754],[3.10071,42.027552],[3.10067,42.027547],[3.100444,42.027522],[3.100383,42.027368],[3.100357,42.027335],[3.100354,42.02733],[3.100333,42.027193],[3.100328,42.027158],[3.100297,42.02698],[3.100306,42.02698],[3.100323,42.026981],[3.100497,42.026989],[3.100551,42.026997],[3.100668,42.027003],[3.100697,42.026571],[3.100648,42.026569],[3.100215,42.026567],[3.100129,42.026614]]]]}},{"type":"Feature","id":"170813_170813 AP03 BEM 4","properties":{"area_id":"170813_170813 AP03 BEM 4","nom":"les Mirones","codi_icgc":"170813 AP03 BEM 4","categoria":"Àrees de poblament","codi_municipi":"170813","municipi":"Gualta","codi_comarca":"10","comarca":"Baix Empordà","provincia":"Girona","font":"ICGC Àrees de poblament v3r1 202602"},"geometry":{"type":"MultiPolygon","coordinates":[[[[3.134928,42.019058],[3.134971,42.01876],[3.13504,42.018479],[3.135155,42.018035],[3.13525,42.017745],[3.13539,42.017487],[3.135517,42.017239],[3.135498,42.017187],[3.135235,42.017011],[3.135158,42.016946],[3.13517,42.016894],[3.134921,42.016775],[3.13455,42.016613],[3.134495,42.016672],[3.1341,42.016499],[3.133985,42.01642],[3.133882,42.016297],[3.133812,42.016147],[3.133703,42.015892],[3.133587,42.015559],[3.133478,42.015216],[3.13326,42.014518],[3.133093,42.013994],[3.132799,42.014066],[3.132246,42.014216],[3.132109,42.014255],[3.132077,42.014305],[3.132048,42.014355],[3.131932,42.014698],[3.131704,42.015308],[3.131531,42.015767],[3.131392,42.016168],[3.131087,42.017007],[3.131055,42.017083],[3.130933,42.017064],[3.13088,42.017217],[3.13082,42.017426],[3.131316,42.017535],[3.131731,42.017648],[3.13184,42.017675],[3.131419,42.018796],[3.131698,42.018868],[3.131837,42.018889],[3.131889,42.018892],[3.131937,42.018878],[3.132009,42.018846],[3.132076,42.018849],[3.132469,42.018901],[3.132414,42.019122],[3.132339,42.019479],[3.132244,42.019881],[3.132712,42.019932],[3.132857,42.01995],[3.132858,42.019966],[3.132858,42.020109],[3.132839,42.020223],[3.13277,42.020476],[3.133019,42.020538],[3.133465,42.020726],[3.133637,42.020785],[3.133714,42.02079],[3.13381,42.020775],[3.133915,42.020754],[3.134308,42.020648],[3.134372,42.020622],[3.134512,42.020517],[3.134605,42.020431],[3.134694,42.02015],[3.134783,42.019821],[3.134827,42.01965],[3.134871,42.019359],[3.134928,42.019058]]]]}}]}