{"type":"FeatureCollection","name":"ICGC Àrees de poblament - Llançà","features":[{"type":"Feature","id":"170926_170926 AP05 AEM 2","properties":{"area_id":"170926_170926 AP05 AEM 2","nom":"Cap Ras","codi_icgc":"170926 AP05 AEM 2","categoria":"Àrees de poblament","codi_municipi":"170926","municipi":"Llançà","codi_comarca":"02","comarca":"Alt Empordà","provincia":"Girona","font":"ICGC Àrees de poblament v3r1 202602"},"geometry":{"type":"MultiPolygon","coordinates":[[[[3.155665,42.388759],[3.155893,42.388725],[3.155974,42.388726],[3.15623,42.388689],[3.156358,42.388653],[3.156464,42.388593],[3.156622,42.388495],[3.156706,42.388437],[3.156549,42.388339],[3.156673,42.388278],[3.156823,42.388253],[3.156917,42.388114],[3.157109,42.387988],[3.157407,42.387836],[3.157451,42.387804],[3.157507,42.387799],[3.157612,42.387794],[3.157619,42.387794],[3.157674,42.387793],[3.157701,42.387792],[3.157716,42.387791],[3.157722,42.38779],[3.157729,42.387788],[3.157736,42.387785],[3.157747,42.38778],[3.157753,42.387777],[3.157767,42.38777],[3.157812,42.387746],[3.157824,42.387739],[3.157851,42.387724],[3.157968,42.387658],[3.157993,42.387643],[3.157999,42.387639],[3.158005,42.387635],[3.158011,42.387629],[3.15802,42.38762],[3.158029,42.387609],[3.158034,42.387604],[3.158041,42.387593],[3.158043,42.387587],[3.158044,42.387581],[3.158045,42.387574],[3.158045,42.387562],[3.158044,42.38755],[3.158043,42.387544],[3.158039,42.387533],[3.158036,42.387529],[3.158031,42.387524],[3.158026,42.387519],[3.158009,42.387504],[3.158,42.387495],[3.157991,42.387485],[3.157959,42.387448],[3.15795,42.387438],[3.157936,42.387423],[3.157865,42.387353],[3.157845,42.387332],[3.158168,42.387187],[3.15817,42.387156],[3.158183,42.38711],[3.158205,42.387066],[3.158252,42.38699],[3.158301,42.386915],[3.15836,42.386839],[3.158388,42.386801],[3.158407,42.38676],[3.158419,42.386721],[3.159095,42.38653],[3.159081,42.386401],[3.159039,42.38632],[3.159014,42.386273],[3.15901,42.386266],[3.159076,42.386246],[3.159093,42.386236],[3.160092,42.385612],[3.160125,42.385591],[3.160149,42.385576],[3.160132,42.385568],[3.160105,42.385556],[3.160056,42.385529],[3.160022,42.385519],[3.159987,42.385509],[3.159911,42.385483],[3.159838,42.385451],[3.159767,42.385417],[3.159697,42.385381],[3.159593,42.385324],[3.159494,42.385261],[3.159461,42.385234],[3.15943,42.385206],[3.159375,42.385146],[3.159341,42.385104],[3.159301,42.385048],[3.159267,42.38499],[3.159249,42.384951],[3.159233,42.384899],[3.159222,42.384846],[3.159219,42.384811],[3.159219,42.384783],[3.15922,42.384753],[3.159216,42.384732],[3.159188,42.384697],[3.159165,42.384675],[3.159156,42.384667],[3.159086,42.384614],[3.158964,42.384521],[3.158846,42.384427],[3.15876,42.38435],[3.158676,42.384272],[3.158657,42.384253],[3.158641,42.384232],[3.158635,42.384219],[3.158635,42.384212],[3.158632,42.384209],[3.158684,42.383961],[3.158668,42.383943],[3.158649,42.383931],[3.15862,42.38392],[3.158592,42.383914],[3.158536,42.383907],[3.158472,42.3839],[3.158409,42.383892],[3.158367,42.383883],[3.158328,42.38387],[3.158306,42.383857],[3.1583,42.383853],[3.158286,42.38385],[3.158269,42.383881],[3.158239,42.383937],[3.157994,42.384398],[3.157986,42.384414],[3.157954,42.384474],[3.157951,42.384479],[3.15793,42.38451],[3.157906,42.384545],[3.157816,42.384677],[3.157762,42.384756],[3.157729,42.384804],[3.157593,42.385004],[3.157534,42.38509],[3.157516,42.385117],[3.157493,42.385096],[3.157469,42.385119],[3.157445,42.385141],[3.157394,42.385197],[3.15736,42.385241],[3.157267,42.385378],[3.157175,42.385516],[3.157083,42.385654],[3.157042,42.385723],[3.156883,42.386034],[3.156665,42.385909],[3.156617,42.385968],[3.156458,42.386109],[3.156471,42.386118],[3.156492,42.386132],[3.156681,42.386262],[3.156647,42.386287],[3.156572,42.386344],[3.156517,42.386509],[3.156512,42.386527],[3.156647,42.386647],[3.15659,42.386816],[3.156605,42.386845],[3.156611,42.386856],[3.156614,42.386862],[3.156583,42.387227],[3.156582,42.387247],[3.156576,42.387327],[3.156574,42.38738],[3.156574,42.387382],[3.156556,42.387393],[3.156433,42.387488],[3.156311,42.387582],[3.156285,42.387596],[3.156258,42.38761],[3.156229,42.387628],[3.156201,42.387648],[3.156164,42.387678],[3.156129,42.387709],[3.156067,42.387774],[3.156029,42.38782],[3.156015,42.387841],[3.156006,42.387864],[3.155997,42.387896],[3.155996,42.387927],[3.155992,42.387923],[3.155972,42.387912],[3.155971,42.387911],[3.155947,42.387906],[3.155922,42.387905],[3.155898,42.387911],[3.155878,42.387922],[3.155864,42.387937],[3.155856,42.387954],[3.155856,42.387973],[3.155863,42.38799],[3.155878,42.388005],[3.155881,42.388007],[3.155902,42.388021],[3.155923,42.388035],[3.155931,42.388043],[3.155936,42.388053],[3.155939,42.38808],[3.155943,42.388107],[3.155946,42.388136],[3.155947,42.388151],[3.155953,42.388248],[3.155958,42.388345],[3.155955,42.388385],[3.15595,42.388398],[3.155923,42.388423],[3.155538,42.388534],[3.155665,42.388759]]]]}},{"type":"Feature","id":"170926_170926 AP02 AEM 2","properties":{"area_id":"170926_170926 AP02 AEM 2","nom":"Cau del Lop","codi_icgc":"170926 AP02 AEM 2","categoria":"Àrees de poblament","codi_municipi":"170926","municipi":"Llançà","codi_comarca":"02","comarca":"Alt Empordà","provincia":"Girona","font":"ICGC Àrees de poblament v3r1 202602"},"geometry":{"type":"MultiPolygon","coordinates":[[[[3.165644,42.358762],[3.165583,42.35873],[3.165637,42.358688],[3.165712,42.358609],[3.165799,42.358512],[3.165985,42.358281],[3.166029,42.358218],[3.166062,42.358176],[3.166154,42.358056],[3.166242,42.357935],[3.166345,42.357787],[3.166449,42.35764],[3.166457,42.357625],[3.166458,42.357609],[3.166453,42.357598],[3.166451,42.357593],[3.166438,42.35758],[3.166419,42.357572],[3.166404,42.357569],[3.166318,42.357554],[3.16623,42.357545],[3.166142,42.357542],[3.166053,42.357544],[3.165965,42.357552],[3.165904,42.357561],[3.16561,42.357618],[3.165593,42.35764],[3.165586,42.357642],[3.165552,42.357654],[3.165468,42.357695],[3.165385,42.357735],[3.165261,42.357792],[3.165136,42.357848],[3.165006,42.357903],[3.164874,42.357956],[3.164757,42.357998],[3.164638,42.358034],[3.164611,42.358041],[3.164563,42.358047],[3.164525,42.358048],[3.164468,42.358042],[3.164413,42.35803],[3.164384,42.35802],[3.164381,42.358019],[3.164364,42.35801],[3.164339,42.357993],[3.16432,42.357971],[3.164308,42.357947],[3.164297,42.357911],[3.164285,42.357875],[3.164279,42.357852],[3.164278,42.357852],[3.164273,42.357841],[3.164261,42.357831],[3.164249,42.357828],[3.164232,42.357828],[3.164215,42.35783],[3.164095,42.357839],[3.163976,42.357847],[3.163722,42.357863],[3.163468,42.357879],[3.163342,42.357886],[3.163217,42.357893],[3.163189,42.357897],[3.163149,42.357913],[3.163111,42.357932],[3.163082,42.357949],[3.163073,42.357956],[3.16307,42.357959],[3.163062,42.357971],[3.163054,42.358],[3.163055,42.35803],[3.163056,42.358034],[3.163066,42.358169],[3.162688,42.358191],[3.162672,42.358209],[3.162592,42.358419],[3.162335,42.35863],[3.162261,42.358677],[3.162162,42.35874],[3.161967,42.358818],[3.161896,42.358859],[3.161958,42.358974],[3.16168,42.359009],[3.161622,42.359011],[3.161606,42.359011],[3.161544,42.35901],[3.161502,42.359009],[3.16146,42.359012],[3.161395,42.359021],[3.160963,42.359108],[3.160741,42.359231],[3.160481,42.35944],[3.16044,42.359489],[3.16047,42.359497],[3.161167,42.359672],[3.161193,42.359674],[3.161435,42.359745],[3.161329,42.359858],[3.161353,42.359859],[3.161767,42.359879],[3.161837,42.359883],[3.161897,42.359886],[3.161897,42.359936],[3.161946,42.360017],[3.162023,42.360129],[3.162142,42.360093],[3.16256,42.360259],[3.162577,42.360218],[3.162598,42.360191],[3.162626,42.360168],[3.162647,42.360154],[3.162686,42.360135],[3.162728,42.360123],[3.162756,42.360119],[3.162833,42.360114],[3.162912,42.360108],[3.162951,42.360104],[3.162988,42.3601],[3.163048,42.360094],[3.163108,42.360088],[3.163219,42.360077],[3.16333,42.360066],[3.163455,42.360051],[3.163579,42.360033],[3.163693,42.360014],[3.163807,42.359994],[3.163887,42.359978],[3.163967,42.359959],[3.164,42.359951],[3.164031,42.359938],[3.164047,42.359926],[3.164117,42.359913],[3.164197,42.359918],[3.164208,42.359921],[3.164208,42.359921],[3.164208,42.359921],[3.164268,42.35994],[3.164308,42.359944],[3.164339,42.359942],[3.164382,42.35993],[3.164504,42.359882],[3.16481,42.359734],[3.164943,42.359698],[3.165121,42.359665],[3.165357,42.359598],[3.165674,42.35948],[3.16585,42.359416],[3.166047,42.35937],[3.166354,42.35925],[3.166847,42.359064],[3.16694,42.358946],[3.167059,42.358922],[3.167309,42.358825],[3.167525,42.358701],[3.167621,42.358657],[3.167688,42.358613],[3.167708,42.358617],[3.167763,42.358592],[3.167898,42.358508],[3.167941,42.358484],[3.168054,42.358475],[3.168133,42.358458],[3.168171,42.35844],[3.168253,42.358382],[3.168493,42.358178],[3.168498,42.358161],[3.168498,42.358129],[3.168473,42.357985],[3.168437,42.357843],[3.168424,42.357791],[3.168394,42.357771],[3.16842,42.357742],[3.168588,42.357551],[3.168657,42.357481],[3.168754,42.357362],[3.168765,42.357355],[3.168777,42.357355],[3.168788,42.357356],[3.168811,42.357365],[3.168959,42.357552],[3.169105,42.35774],[3.169206,42.357858],[3.169267,42.357915],[3.16933,42.35795],[3.169336,42.357953],[3.169424,42.357985],[3.169502,42.358004],[3.169556,42.358009],[3.169564,42.358009],[3.16961,42.358007],[3.169668,42.357999],[3.169726,42.35797],[3.16978,42.357924],[3.169807,42.357871],[3.169819,42.357822],[3.169823,42.357752],[3.169839,42.357725],[3.169903,42.357674],[3.16996,42.357653],[3.16999,42.357646],[3.170006,42.357634],[3.170069,42.357629],[3.170085,42.357626],[3.170243,42.3576],[3.170351,42.3576],[3.170575,42.357695],[3.170767,42.357688],[3.170775,42.357685],[3.170825,42.357645],[3.170831,42.357638],[3.170835,42.357634],[3.170837,42.357632],[3.170839,42.357616],[3.170763,42.357499],[3.170745,42.35747],[3.170721,42.357439],[3.1707,42.357428],[3.170569,42.357375],[3.170508,42.357351],[3.170519,42.357264],[3.170523,42.357233],[3.170528,42.357205],[3.170534,42.357178],[3.170541,42.357159],[3.170553,42.357142],[3.170564,42.357133],[3.170595,42.357111],[3.170625,42.35709],[3.17074,42.357008],[3.1708,42.356969],[3.170939,42.356832],[3.171029,42.356751],[3.171176,42.356601],[3.171278,42.356503],[3.171377,42.356421],[3.171534,42.356286],[3.171509,42.356265],[3.171528,42.356252],[3.171657,42.356163],[3.17175,42.356111],[3.171822,42.35605],[3.171864,42.356005],[3.171883,42.355976],[3.171897,42.355945],[3.171902,42.355917],[3.171903,42.355865],[3.171895,42.355788],[3.171892,42.355766],[3.171273,42.355773],[3.171064,42.355891],[3.17088,42.355736],[3.170841,42.355702],[3.170828,42.355692],[3.170648,42.355789],[3.170384,42.355926],[3.170332,42.355946],[3.170328,42.355949],[3.170327,42.355948],[3.170327,42.355948],[3.169895,42.35574],[3.169757,42.355662],[3.169722,42.355632],[3.169715,42.355626],[3.169707,42.355635],[3.169669,42.355661],[3.169632,42.355687],[3.169587,42.355716],[3.16958,42.35572],[3.16954,42.355743],[3.169493,42.355766],[3.169444,42.355786],[3.16941,42.355795],[3.169381,42.355803],[3.169317,42.355812],[3.169243,42.355819],[3.169169,42.355822],[3.169114,42.355822],[3.169059,42.355822],[3.169045,42.355822],[3.168967,42.355823],[3.168875,42.355823],[3.168806,42.355828],[3.168738,42.355841],[3.168641,42.355867],[3.168547,42.355898],[3.168389,42.355954],[3.168233,42.356013],[3.168041,42.35609],[3.167849,42.356167],[3.167801,42.356185],[3.167693,42.356226],[3.167537,42.356285],[3.16752,42.356292],[3.167449,42.356321],[3.167361,42.356357],[3.167277,42.356386],[3.167202,42.356405],[3.167188,42.356408],[3.167175,42.35641],[3.16709,42.356407],[3.167089,42.356401],[3.167065,42.356411],[3.16702,42.356404],[3.166975,42.356397],[3.166937,42.356386],[3.166895,42.356373],[3.16685,42.356364],[3.166804,42.356358],[3.166745,42.356355],[3.166685,42.356358],[3.166658,42.356362],[3.166628,42.356371],[3.16661,42.356381],[3.166591,42.356396],[3.166582,42.356403],[3.166558,42.356435],[3.166542,42.35647],[3.16654,42.356482],[3.166523,42.356483],[3.166534,42.356512],[3.166533,42.356543],[3.16654,42.356579],[3.166546,42.356596],[3.166619,42.356749],[3.166693,42.356905],[3.166694,42.356906],[3.166744,42.357004],[3.166774,42.35707],[3.166791,42.35714],[3.166811,42.35722],[3.166814,42.35724],[3.166812,42.357276],[3.166804,42.357305],[3.166734,42.357526],[3.166691,42.357575],[3.166507,42.357776],[3.166774,42.357869],[3.166535,42.358238],[3.166533,42.358241],[3.166456,42.358331],[3.16637,42.35843],[3.166284,42.358528],[3.166215,42.358606],[3.166147,42.358685],[3.166116,42.35872],[3.166086,42.358756],[3.166075,42.35878],[3.166071,42.358805],[3.16607,42.358826],[3.166068,42.358847],[3.166065,42.358868],[3.166061,42.358889],[3.166056,42.358905],[3.166053,42.358921],[3.166052,42.358948],[3.166035,42.358941],[3.165667,42.358774],[3.165644,42.358762]]]]}},{"type":"Feature","id":"170926_170926 AP03 AEM 2","properties":{"area_id":"170926_170926 AP03 AEM 2","nom":"Fener de Baix","codi_icgc":"170926 AP03 AEM 2","categoria":"Àrees de poblament","codi_municipi":"170926","municipi":"Llançà","codi_comarca":"02","comarca":"Alt Empordà","provincia":"Girona","font":"ICGC Àrees de poblament v3r1 202602"},"geometry":{"type":"MultiPolygon","coordinates":[[[[3.164843,42.355741],[3.164727,42.355802],[3.164739,42.355822],[3.164543,42.355887],[3.164173,42.355657],[3.164096,42.355685],[3.163968,42.35573],[3.163944,42.355706],[3.163803,42.355561],[3.163362,42.355566],[3.163368,42.355323],[3.163443,42.355187],[3.163746,42.355078],[3.163933,42.354985],[3.163974,42.354977],[3.163974,42.354976],[3.163986,42.35495],[3.163864,42.354785],[3.163686,42.354543],[3.163634,42.354567],[3.163481,42.354423],[3.1632,42.354497],[3.163135,42.354535],[3.163022,42.354734],[3.162809,42.354898],[3.162736,42.355127],[3.162712,42.355222],[3.162707,42.355223],[3.162692,42.35523],[3.16265,42.355253],[3.162646,42.355255],[3.16263,42.355266],[3.162612,42.35528],[3.162567,42.355323],[3.162544,42.355346],[3.162514,42.355347],[3.162503,42.355348],[3.162491,42.35535],[3.162479,42.355353],[3.16246,42.355358],[3.162457,42.355359],[3.162439,42.355365],[3.162423,42.355375],[3.162416,42.35538],[3.162404,42.35539],[3.162387,42.355405],[3.162345,42.35544],[3.162303,42.355471],[3.162271,42.355488],[3.16224,42.355502],[3.162235,42.355504],[3.162194,42.355519],[3.162151,42.355535],[3.162096,42.355558],[3.162039,42.35558],[3.161957,42.355605],[3.161875,42.35563],[3.161762,42.355665],[3.161648,42.355699],[3.161534,42.35573],[3.16142,42.355759],[3.161308,42.355785],[3.161196,42.355809],[3.161112,42.355829],[3.161029,42.355849],[3.160979,42.355862],[3.160931,42.355877],[3.160917,42.355883],[3.160842,42.35599],[3.160828,42.356009],[3.160865,42.356155],[3.160845,42.356183],[3.160823,42.356215],[3.160699,42.356298],[3.16066,42.356347],[3.160631,42.356384],[3.160576,42.356445],[3.160542,42.356496],[3.160509,42.356546],[3.160483,42.356589],[3.160463,42.356633],[3.160455,42.356669],[3.160456,42.356707],[3.160461,42.356731],[3.160475,42.356771],[3.160488,42.356796],[3.160495,42.356809],[3.160512,42.356834],[3.160542,42.356875],[3.160545,42.356879],[3.160595,42.356921],[3.160631,42.35695],[3.160703,42.356971],[3.16076,42.356987],[3.160766,42.356989],[3.160844,42.357047],[3.160851,42.35706],[3.160918,42.357087],[3.160959,42.357154],[3.161103,42.357391],[3.161148,42.357649],[3.161158,42.357705],[3.161176,42.357713],[3.161176,42.357734],[3.16118,42.357754],[3.161189,42.357774],[3.161202,42.357792],[3.161221,42.357809],[3.161243,42.357824],[3.16127,42.357836],[3.161298,42.357844],[3.161277,42.357847],[3.161235,42.357849],[3.161207,42.357847],[3.161193,42.357846],[3.161185,42.357844],[3.161095,42.358219],[3.161074,42.358225],[3.161062,42.358229],[3.161051,42.358236],[3.161037,42.358252],[3.161034,42.358262],[3.161038,42.358273],[3.161054,42.358295],[3.161077,42.358315],[3.161103,42.358332],[3.161124,42.358342],[3.161148,42.358351],[3.161173,42.358354],[3.161213,42.358346],[3.161253,42.358333],[3.16135,42.35829],[3.16144,42.358244],[3.161499,42.358208],[3.161558,42.358171],[3.161577,42.35816],[3.161596,42.358153],[3.161601,42.358155],[3.161604,42.358158],[3.161597,42.358167],[3.161586,42.358177],[3.161549,42.358214],[3.161511,42.358251],[3.161477,42.358281],[3.161438,42.358307],[3.161387,42.358334],[3.161334,42.358359],[3.161266,42.358389],[3.161198,42.358418],[3.161126,42.358444],[3.161054,42.358469],[3.161008,42.358489],[3.160968,42.358516],[3.160952,42.358531],[3.16094,42.358547],[3.160923,42.35858],[3.160904,42.358633],[3.160896,42.358686],[3.160897,42.358711],[3.160904,42.358736],[3.160904,42.358737],[3.160912,42.358757],[3.160917,42.358775],[3.160888,42.358778],[3.160834,42.359037],[3.160821,42.359098],[3.160922,42.359057],[3.160955,42.359051],[3.161237,42.358996],[3.161271,42.358991],[3.161448,42.358965],[3.161549,42.358958],[3.161773,42.358861],[3.161872,42.358815],[3.161887,42.358808],[3.16205,42.358733],[3.162188,42.358666],[3.162321,42.358547],[3.162384,42.358491],[3.162485,42.358353],[3.162601,42.358216],[3.162675,42.358147],[3.162979,42.358125],[3.162978,42.358093],[3.162981,42.357956],[3.162982,42.357923],[3.163037,42.357886],[3.163065,42.357872],[3.163108,42.357858],[3.163152,42.357848],[3.163215,42.357839],[3.163278,42.357831],[3.163319,42.357827],[3.163365,42.357822],[3.164116,42.357771],[3.164188,42.357764],[3.16419,42.357764],[3.164191,42.357765],[3.164199,42.357763],[3.164237,42.357758],[3.16424,42.357764],[3.164289,42.357749],[3.164307,42.357745],[3.164352,42.357731],[3.164355,42.35773],[3.164407,42.357804],[3.164379,42.357838],[3.164378,42.357839],[3.164372,42.357852],[3.164368,42.357872],[3.164369,42.357893],[3.164374,42.357917],[3.164387,42.357942],[3.164408,42.357962],[3.164421,42.357968],[3.164436,42.357976],[3.164473,42.357985],[3.16451,42.357986],[3.16454,42.357984],[3.164564,42.357987],[3.164596,42.357977],[3.164616,42.357974],[3.164711,42.357952],[3.164734,42.357945],[3.164757,42.357939],[3.164803,42.357923],[3.164896,42.357884],[3.164905,42.35788],[3.164962,42.357862],[3.165383,42.357673],[3.165464,42.357639],[3.165712,42.357534],[3.165793,42.357515],[3.165891,42.357492],[3.165925,42.357486],[3.165977,42.357483],[3.166006,42.357483],[3.166029,42.357484],[3.166127,42.357486],[3.166225,42.357489],[3.166298,42.357491],[3.166372,42.357493],[3.166401,42.357493],[3.166444,42.357487],[3.166486,42.357473],[3.166486,42.357473],[3.166511,42.35746],[3.166539,42.357437],[3.166563,42.357409],[3.166582,42.357385],[3.166591,42.357372],[3.166601,42.357353],[3.166609,42.357333],[3.166618,42.357284],[3.166618,42.357234],[3.166612,42.357177],[3.16661,42.357163],[3.166595,42.357092],[3.166575,42.357031],[3.16656,42.356984],[3.16652,42.356878],[3.166518,42.356876],[3.166476,42.356785],[3.166432,42.356691],[3.166407,42.356618],[3.16639,42.356544],[3.166387,42.356499],[3.16639,42.356477],[3.166396,42.356455],[3.166404,42.356434],[3.166413,42.356412],[3.16641,42.356372],[3.166374,42.356281],[3.16637,42.356236],[3.166366,42.356191],[3.166358,42.356133],[3.166349,42.356076],[3.166338,42.356017],[3.166326,42.355959],[3.166321,42.355933],[3.166321,42.355906],[3.166325,42.355889],[3.166348,42.355841],[3.166376,42.355794],[3.166404,42.355749],[3.166432,42.355704],[3.166438,42.355695],[3.166439,42.355686],[3.166434,42.355683],[3.166424,42.355683],[3.166498,42.355518],[3.166524,42.355505],[3.166563,42.355485],[3.166617,42.355465],[3.166674,42.355453],[3.166705,42.35545],[3.166753,42.35545],[3.1668,42.355448],[3.166848,42.35544],[3.166893,42.355428],[3.166896,42.355427],[3.166983,42.355393],[3.167072,42.355359],[3.167161,42.355324],[3.167185,42.355315],[3.167298,42.355271],[3.167439,42.355221],[3.167472,42.355208],[3.167592,42.355163],[3.167653,42.355122],[3.167698,42.355072],[3.167457,42.354982],[3.16728,42.354813],[3.167115,42.354902],[3.167114,42.354901],[3.166959,42.354985],[3.166705,42.355064],[3.1665,42.355132],[3.166307,42.354897],[3.166129,42.354685],[3.165918,42.354797],[3.166057,42.354941],[3.16602,42.35496],[3.165571,42.355304],[3.165536,42.355328],[3.165534,42.35533],[3.165259,42.355504],[3.165162,42.355429],[3.165018,42.35556],[3.165057,42.355626],[3.164843,42.355741]]]]}},{"type":"Feature","id":"170926_170926 AP18 AEM 2","properties":{"area_id":"170926_170926 AP18 AEM 2","nom":"Fener de Dalt","codi_icgc":"170926 AP18 AEM 2","categoria":"Àrees de poblament","codi_municipi":"170926","municipi":"Llançà","codi_comarca":"02","comarca":"Alt Empordà","provincia":"Girona","font":"ICGC Àrees de poblament v3r1 202602"},"geometry":{"type":"MultiPolygon","coordinates":[[[[3.16685,42.353489],[3.16681,42.353482],[3.16677,42.353482],[3.166745,42.353486],[3.166691,42.353501],[3.16664,42.35352],[3.166608,42.353536],[3.166546,42.353575],[3.166543,42.353577],[3.166488,42.353616],[3.16641,42.353673],[3.166332,42.353729],[3.166268,42.35377],[3.1662,42.353807],[3.166186,42.353813],[3.166178,42.353818],[3.166156,42.353827],[3.166134,42.353835],[3.166,42.353886],[3.165752,42.353926],[3.166074,42.354301],[3.166125,42.354284],[3.166213,42.354256],[3.166291,42.354223],[3.166348,42.354191],[3.166363,42.354183],[3.166438,42.354132],[3.166509,42.354079],[3.166595,42.354011],[3.166682,42.353942],[3.166761,42.353879],[3.16684,42.353815],[3.166886,42.353773],[3.166927,42.353727],[3.166947,42.353691],[3.166959,42.353653],[3.166963,42.353619],[3.166958,42.353585],[3.166944,42.353556],[3.166921,42.353529],[3.166888,42.353506],[3.166876,42.3535],[3.16685,42.353489]]],[[[3.166985,42.35487],[3.167058,42.354835],[3.167061,42.354838],[3.167185,42.354779],[3.167309,42.354713],[3.167498,42.354621],[3.167313,42.354487],[3.16755,42.354421],[3.16734,42.354123],[3.167298,42.354134],[3.167208,42.354158],[3.167126,42.354183],[3.167106,42.354191],[3.167106,42.354191],[3.167048,42.354215],[3.166989,42.354242],[3.166933,42.354272],[3.166848,42.354322],[3.166763,42.354372],[3.166702,42.354407],[3.166638,42.354441],[3.166593,42.354461],[3.166577,42.354467],[3.166616,42.354516],[3.166807,42.354711],[3.166985,42.35487]]],[[[3.168706,42.355769],[3.168873,42.355738],[3.168959,42.355738],[3.169267,42.355738],[3.169395,42.355708],[3.169487,42.355668],[3.169582,42.355605],[3.16965,42.355544],[3.169492,42.355432],[3.169392,42.355372],[3.169022,42.355151],[3.168632,42.355436],[3.168462,42.355541],[3.168128,42.355573],[3.167872,42.355538],[3.167935,42.35568],[3.168123,42.355962],[3.168303,42.355905],[3.168493,42.355836],[3.168706,42.355769]]],[[[3.167739,42.355398],[3.167604,42.355232],[3.16756,42.355246],[3.167264,42.355378],[3.167091,42.355452],[3.16693,42.355495],[3.166824,42.355517],[3.166669,42.355538],[3.166578,42.355674],[3.166511,42.355773],[3.16647,42.355872],[3.166436,42.355953],[3.166496,42.356223],[3.166516,42.35624],[3.166542,42.356254],[3.166571,42.356262],[3.166592,42.356265],[3.166672,42.35627],[3.166752,42.356275],[3.166814,42.356281],[3.166907,42.356293],[3.166945,42.356299],[3.166999,42.356306],[3.167054,42.356312],[3.166695,42.355859],[3.167202,42.355664],[3.167702,42.355418],[3.167739,42.355398]]]]}},{"type":"Feature","id":"170926_170926 AP06 AEM 2","properties":{"area_id":"170926_170926 AP06 AEM 2","nom":"Grifeu","codi_icgc":"170926 AP06 AEM 2","categoria":"Àrees de poblament","codi_municipi":"170926","municipi":"Llançà","codi_comarca":"02","comarca":"Alt Empordà","provincia":"Girona","font":"ICGC Àrees de poblament v3r1 202602"},"geometry":{"type":"MultiPolygon","coordinates":[[[[3.154964,42.380956],[3.154928,42.380941],[3.154786,42.380879],[3.154722,42.380871],[3.154687,42.380867],[3.154359,42.380801],[3.154385,42.380739],[3.154385,42.380736],[3.154384,42.380724],[3.154376,42.380712],[3.154363,42.380702],[3.154348,42.380699],[3.154325,42.380699],[3.154303,42.380703],[3.154127,42.380737],[3.153712,42.380858],[3.153699,42.380863],[3.153052,42.380979],[3.152968,42.381055],[3.152934,42.381142],[3.152921,42.381188],[3.152908,42.381234],[3.152893,42.381287],[3.152878,42.381339],[3.152874,42.381363],[3.152867,42.381387],[3.152856,42.3814],[3.152833,42.381416],[3.152811,42.381431],[3.152796,42.381442],[3.152789,42.381456],[3.152789,42.381471],[3.152791,42.381477],[3.152801,42.38149],[3.152817,42.381499],[3.152836,42.381503],[3.152857,42.381501],[3.152874,42.381494],[3.152891,42.381483],[3.152895,42.381501],[3.152905,42.381536],[3.152914,42.381571],[3.152912,42.381587],[3.1529,42.381602],[3.15288,42.381616],[3.152859,42.381628],[3.152795,42.381664],[3.15273,42.3817],[3.152714,42.381714],[3.152646,42.381772],[3.15263,42.381811],[3.152606,42.38187],[3.152586,42.381919],[3.152562,42.381967],[3.152521,42.382143],[3.152519,42.382152],[3.15246,42.382349],[3.152317,42.382334],[3.152264,42.382365],[3.152214,42.382573],[3.152174,42.38274],[3.152128,42.382738],[3.152109,42.382795],[3.152037,42.383004],[3.152002,42.382998],[3.151928,42.383232],[3.152188,42.383285],[3.152136,42.383407],[3.152128,42.383441],[3.152127,42.383468],[3.152134,42.383502],[3.152137,42.383511],[3.152163,42.383576],[3.152165,42.383581],[3.15217,42.383594],[3.15218,42.383619],[3.152196,42.383658],[3.152243,42.383775],[3.152289,42.383892],[3.152312,42.38394],[3.152343,42.383986],[3.152367,42.384016],[3.152391,42.38404],[3.152423,42.384058],[3.152447,42.384065],[3.15248,42.38407],[3.152514,42.384072],[3.152581,42.384069],[3.152625,42.384063],[3.152751,42.384043],[3.152876,42.384021],[3.152918,42.384012],[3.15296,42.384],[3.153042,42.383978],[3.153096,42.383969],[3.153109,42.38397],[3.153122,42.383976],[3.153141,42.383995],[3.153148,42.384008],[3.15315,42.384021],[3.153143,42.384047],[3.15312,42.384105],[3.153097,42.384163],[3.153065,42.38424],[3.153034,42.384317],[3.153026,42.384348],[3.153025,42.384381],[3.153034,42.384446],[3.153045,42.384498],[3.153058,42.384549],[3.15309,42.384676],[3.153093,42.384684],[3.153128,42.384802],[3.153154,42.384874],[3.153182,42.384946],[3.153199,42.38499],[3.153213,42.385035],[3.153211,42.385051],[3.1532,42.385066],[3.153164,42.385093],[3.153133,42.385113],[3.153099,42.38513],[3.153031,42.385161],[3.15299,42.385184],[3.152969,42.3852],[3.152877,42.385282],[3.152788,42.385364],[3.152749,42.385404],[3.152711,42.385445],[3.152677,42.385471],[3.152666,42.385477],[3.152653,42.385478],[3.152627,42.385477],[3.152577,42.385457],[3.152581,42.385421],[3.152585,42.385386],[3.152587,42.385357],[3.152589,42.385329],[3.152591,42.385309],[3.152594,42.38529],[3.152598,42.385273],[3.152601,42.385257],[3.152602,42.385239],[3.152603,42.38522],[3.152604,42.385192],[3.152605,42.385165],[3.152566,42.385157],[3.152515,42.385144],[3.152464,42.385125],[3.152414,42.385104],[3.152347,42.385083],[3.15228,42.385064],[3.15222,42.38505],[3.15216,42.385035],[3.152125,42.385027],[3.15209,42.385017],[3.152087,42.385015],[3.152049,42.385],[3.152009,42.384982],[3.151968,42.384969],[3.151927,42.384956],[3.151884,42.385036],[3.151789,42.385213],[3.151856,42.385301],[3.151891,42.385312],[3.151944,42.385329],[3.151997,42.385345],[3.152102,42.385377],[3.152298,42.385438],[3.152492,42.385498],[3.152531,42.385511],[3.152567,42.385528],[3.152588,42.385542],[3.152593,42.385551],[3.152592,42.385561],[3.152581,42.385581],[3.152581,42.385581],[3.152584,42.385582],[3.152215,42.386019],[3.152136,42.386144],[3.152116,42.386176],[3.152107,42.386173],[3.151893,42.386509],[3.151889,42.386515],[3.151786,42.386668],[3.151779,42.386684],[3.151686,42.386834],[3.151646,42.386898],[3.151597,42.386969],[3.151543,42.38704],[3.151464,42.387144],[3.151326,42.387359],[3.151205,42.387513],[3.151065,42.387718],[3.151073,42.387733],[3.151103,42.387791],[3.1512,42.387998],[3.151232,42.388068],[3.151272,42.388137],[3.151357,42.388288],[3.151372,42.388314],[3.151454,42.388306],[3.151632,42.388159],[3.151632,42.388159],[3.15173,42.388152],[3.151741,42.388152],[3.151759,42.388153],[3.151818,42.388155],[3.151833,42.388156],[3.151906,42.388158],[3.151978,42.38816],[3.152123,42.388165],[3.152231,42.38817],[3.152339,42.388171],[3.152582,42.388197],[3.152659,42.388229],[3.152692,42.388224],[3.152739,42.388217],[3.153041,42.38817],[3.153073,42.387917],[3.153156,42.387884],[3.153245,42.388055],[3.153245,42.388055],[3.153319,42.388067],[3.153487,42.387924],[3.153497,42.38791],[3.153661,42.387673],[3.153705,42.387713],[3.153728,42.38773],[3.153753,42.387746],[3.153808,42.387773],[3.153847,42.387788],[3.153902,42.387806],[3.153988,42.387832],[3.154074,42.387853],[3.154133,42.387863],[3.154212,42.38787],[3.154276,42.387872],[3.154278,42.387876],[3.154299,42.387873],[3.154702,42.387882],[3.154707,42.387378],[3.15471,42.387319],[3.154715,42.387208],[3.154685,42.387079],[3.154686,42.387069],[3.154687,42.387045],[3.154688,42.387019],[3.154694,42.386946],[3.154696,42.386907],[3.154696,42.386847],[3.154695,42.38681],[3.154694,42.386788],[3.154691,42.386729],[3.154688,42.38667],[3.15468,42.386669],[3.154668,42.386663],[3.15466,42.386659],[3.154645,42.386647],[3.15463,42.386627],[3.154621,42.386605],[3.154611,42.386561],[3.154603,42.386517],[3.154601,42.386481],[3.154599,42.386445],[3.154592,42.38643],[3.154572,42.386409],[3.154544,42.386393],[3.154515,42.386384],[3.15448,42.386288],[3.154497,42.386276],[3.154564,42.386208],[3.15463,42.386141],[3.154711,42.386069],[3.154793,42.385997],[3.15488,42.385924],[3.154968,42.385851],[3.15488,42.38578],[3.154954,42.385666],[3.154955,42.385664],[3.154969,42.385653],[3.155128,42.38553],[3.155195,42.385483],[3.155407,42.385318],[3.155656,42.385121],[3.155742,42.385036],[3.155765,42.384951],[3.155777,42.384905],[3.155988,42.384737],[3.155991,42.384725],[3.155989,42.384705],[3.155986,42.384694],[3.155888,42.384556],[3.15586,42.384545],[3.155842,42.384544],[3.155829,42.384544],[3.155821,42.384545],[3.155815,42.384547],[3.155732,42.384605],[3.155766,42.384569],[3.155799,42.384533],[3.155814,42.38452],[3.155832,42.384508],[3.155873,42.38449],[3.1559,42.384481],[3.155906,42.384481],[3.156222,42.384386],[3.156338,42.384268],[3.156561,42.384196],[3.156757,42.384158],[3.156826,42.384369],[3.156975,42.384368],[3.15708,42.384399],[3.157086,42.384401],[3.157115,42.384409],[3.157242,42.384478],[3.157349,42.384486],[3.157615,42.384485],[3.157994,42.384398],[3.158239,42.383937],[3.158268,42.383881],[3.158287,42.383843],[3.158304,42.38381],[3.1583,42.383808],[3.158231,42.383735],[3.158167,42.383681],[3.158093,42.383638],[3.15806,42.383582],[3.158005,42.383579],[3.157749,42.383348],[3.157752,42.383319],[3.157753,42.383314],[3.157759,42.383275],[3.157758,42.383258],[3.157753,42.383242],[3.157736,42.383208],[3.157725,42.383185],[3.157709,42.383165],[3.157694,42.383154],[3.157667,42.383141],[3.157638,42.38313],[3.157595,42.383114],[3.157551,42.383099],[3.157541,42.383086],[3.157506,42.383051],[3.157496,42.38304],[3.157451,42.382998],[3.157426,42.38297],[3.157396,42.382925],[3.157374,42.382878],[3.157363,42.382836],[3.157358,42.382793],[3.157359,42.382765],[3.157367,42.382693],[3.157374,42.382619],[3.157378,42.382558],[3.157379,42.382495],[3.157371,42.382452],[3.157357,42.38241],[3.157322,42.382333],[3.157265,42.38221],[3.157204,42.382089],[3.15715,42.381994],[3.15712,42.381926],[3.157112,42.381897],[3.157215,42.381748],[3.157213,42.381739],[3.157195,42.381658],[3.15721,42.381587],[3.157075,42.381534],[3.157039,42.381531],[3.157002,42.381527],[3.156962,42.381524],[3.156921,42.381521],[3.156905,42.381517],[3.156882,42.381505],[3.156859,42.381495],[3.156848,42.381493],[3.156796,42.381483],[3.156759,42.381476],[3.15674,42.381475],[3.156721,42.381479],[3.1567,42.381487],[3.15668,42.381496],[3.156643,42.381513],[3.156606,42.381531],[3.156563,42.381553],[3.156538,42.381569],[3.156534,42.381571],[3.156443,42.381618],[3.156429,42.381629],[3.156408,42.381646],[3.156387,42.381651],[3.156368,42.381663],[3.156326,42.381682],[3.156265,42.381699],[3.156153,42.381672],[3.15602,42.381636],[3.155839,42.381558],[3.155726,42.381503],[3.155587,42.381492],[3.155513,42.381471],[3.155317,42.381344],[3.155216,42.381275],[3.155188,42.381184],[3.155152,42.381113],[3.155032,42.380986],[3.154964,42.380956]]]]}},{"type":"Feature","id":"170926_170926 AP01 AEM 3","properties":{"area_id":"170926_170926 AP01 AEM 3","nom":"Llançà","codi_icgc":"170926 AP01 AEM 3","categoria":"Àrees de poblament","codi_municipi":"170926","municipi":"Llançà","codi_comarca":"02","comarca":"Alt Empordà","provincia":"Girona","font":"ICGC Àrees de poblament v3r1 202602"},"geometry":{"type":"MultiPolygon","coordinates":[[[[3.15114,42.366366],[3.151171,42.366298],[3.151191,42.366305],[3.151476,42.366363],[3.151629,42.366126],[3.152009,42.366155],[3.152015,42.36614],[3.152033,42.365901],[3.152006,42.365837],[3.151988,42.365735],[3.152187,42.365553],[3.152214,42.365541],[3.152233,42.365533],[3.152944,42.36522],[3.152947,42.365219],[3.152951,42.365218],[3.152956,42.365217],[3.152961,42.365215],[3.153188,42.365137],[3.153278,42.365152],[3.153352,42.365181],[3.153513,42.365096],[3.153732,42.365237],[3.15381,42.365178],[3.153967,42.365061],[3.154036,42.365173],[3.154186,42.365428],[3.154057,42.365527],[3.153888,42.365687],[3.153735,42.365831],[3.153703,42.36586],[3.153682,42.365878],[3.154085,42.366077],[3.15449,42.366263],[3.154701,42.366157],[3.154712,42.366149],[3.154643,42.366046],[3.154757,42.366006],[3.155032,42.365917],[3.154917,42.365699],[3.155029,42.365603],[3.155085,42.365478],[3.15506,42.365275],[3.155092,42.365168],[3.155148,42.365132],[3.155464,42.36521],[3.15552,42.365016],[3.155469,42.365019],[3.155156,42.364966],[3.155096,42.36496],[3.15491,42.364924],[3.154862,42.364937],[3.154828,42.364976],[3.154801,42.365009],[3.154747,42.365023],[3.154693,42.36502],[3.15465,42.365009],[3.154625,42.364977],[3.154621,42.364944],[3.154646,42.364907],[3.154611,42.364766],[3.154632,42.364743],[3.154601,42.364537],[3.155034,42.364614],[3.1553,42.364662],[3.155417,42.364685],[3.155504,42.364695],[3.155621,42.364709],[3.155698,42.364694],[3.155766,42.364649],[3.155872,42.364539],[3.155906,42.364464],[3.155934,42.364359],[3.155958,42.364208],[3.155949,42.364067],[3.15594,42.36399],[3.1559,42.363697],[3.156126,42.363403],[3.156155,42.362659],[3.156886,42.36258],[3.157209,42.36259],[3.157256,42.362205],[3.157269,42.36214],[3.157095,42.362137],[3.15682,42.362048],[3.15654,42.361964],[3.156103,42.361919],[3.155319,42.361973],[3.155311,42.36197],[3.155294,42.361969],[3.155215,42.361972],[3.155138,42.361979],[3.155002,42.361998],[3.154868,42.362018],[3.154778,42.362034],[3.154729,42.362046],[3.15468,42.362057],[3.154633,42.362065],[3.154622,42.362067],[3.154585,42.362074],[3.154418,42.362105],[3.154251,42.362137],[3.154218,42.362145],[3.154185,42.362158],[3.15412,42.362187],[3.154077,42.362203],[3.154054,42.36221],[3.154027,42.362213],[3.153996,42.362209],[3.153994,42.362205],[3.153996,42.3622],[3.154015,42.36217],[3.153964,42.362162],[3.15369,42.362138],[3.153606,42.362131],[3.153464,42.362097],[3.153136,42.362105],[3.153138,42.362077],[3.153126,42.362076],[3.153145,42.361981],[3.153181,42.361801],[3.153178,42.361797],[3.153162,42.361786],[3.153146,42.361775],[3.153151,42.361714],[3.153149,42.361705],[3.153144,42.361698],[3.153138,42.361695],[3.153163,42.361525],[3.153169,42.361517],[3.153203,42.361167],[3.153263,42.360969],[3.153327,42.360904],[3.153373,42.360802],[3.153435,42.360663],[3.153509,42.360635],[3.153513,42.360635],[3.153617,42.360603],[3.153798,42.360582],[3.153898,42.360545],[3.154119,42.360408],[3.154257,42.360312],[3.154398,42.360215],[3.15455,42.360041],[3.154714,42.359865],[3.154931,42.359615],[3.155131,42.359385],[3.15526,42.359235],[3.155516,42.358954],[3.155747,42.3587],[3.155893,42.358542],[3.155934,42.358488],[3.155962,42.358462],[3.155964,42.358429],[3.155962,42.358395],[3.155954,42.358363],[3.155936,42.358319],[3.155892,42.35827],[3.155804,42.358219],[3.155663,42.358148],[3.15537,42.358025],[3.155092,42.357917],[3.154921,42.357848],[3.154432,42.357687],[3.153976,42.357532],[3.153863,42.357504],[3.153973,42.357207],[3.153684,42.357122],[3.153443,42.357061],[3.153192,42.357008],[3.152975,42.356973],[3.152707,42.357566],[3.152654,42.357552],[3.152572,42.357706],[3.152452,42.357971],[3.151768,42.357803],[3.151792,42.357943],[3.151792,42.358039],[3.151764,42.358118],[3.152163,42.358221],[3.152061,42.358726],[3.15209,42.358939],[3.152197,42.359136],[3.152371,42.35931],[3.152644,42.359475],[3.152558,42.359524],[3.15249,42.359594],[3.152471,42.359703],[3.152443,42.359853],[3.152468,42.359877],[3.152542,42.359884],[3.152616,42.359867],[3.152677,42.359846],[3.152761,42.359791],[3.152834,42.359765],[3.152992,42.35974],[3.152996,42.359753],[3.153025,42.359838],[3.153065,42.359961],[3.153086,42.360043],[3.153091,42.36007],[3.153113,42.360324],[3.153096,42.360414],[3.153097,42.360417],[3.153097,42.36042],[3.153097,42.360423],[3.153078,42.360512],[3.152998,42.360525],[3.152843,42.360578],[3.152583,42.3604],[3.152579,42.360376],[3.1526,42.360211],[3.152602,42.360171],[3.152264,42.360148],[3.152209,42.360148],[3.15219,42.360189],[3.152174,42.360229],[3.152126,42.360279],[3.152049,42.360365],[3.151981,42.360404],[3.151946,42.360399],[3.151795,42.360349],[3.151705,42.36032],[3.151653,42.360285],[3.151708,42.360208],[3.15172,42.360156],[3.151773,42.359832],[3.151776,42.359817],[3.151776,42.359817],[3.151816,42.359596],[3.151855,42.359382],[3.15158,42.359327],[3.151371,42.35913],[3.151319,42.359046],[3.15129,42.358936],[3.151294,42.358784],[3.151326,42.358597],[3.151149,42.358546],[3.15098,42.358493],[3.150803,42.358416],[3.15065,42.358338],[3.150377,42.358184],[3.150144,42.35805],[3.149963,42.357937],[3.149402,42.358495],[3.149506,42.358545],[3.149812,42.358708],[3.149832,42.358807],[3.149773,42.359066],[3.149761,42.359349],[3.149773,42.35946],[3.149489,42.359709],[3.149739,42.359859],[3.149701,42.359895],[3.149613,42.360023],[3.149577,42.360172],[3.14954,42.360373],[3.149484,42.360673],[3.149016,42.360618],[3.14782,42.360481],[3.147556,42.360448],[3.147118,42.360999],[3.146869,42.361337],[3.146818,42.361394],[3.146766,42.361403],[3.146744,42.361408],[3.146686,42.361389],[3.146496,42.361311],[3.146313,42.361235],[3.146126,42.361125],[3.146117,42.361102],[3.14651,42.360794],[3.146,42.360409],[3.145993,42.360403],[3.145974,42.360466],[3.145828,42.360833],[3.145799,42.36092],[3.145746,42.360894],[3.145302,42.360574],[3.14514,42.360467],[3.14505,42.360433],[3.14495,42.360408],[3.144891,42.360412],[3.144809,42.36042],[3.144788,42.360439],[3.144819,42.36053],[3.144879,42.360704],[3.144916,42.360838],[3.144906,42.360927],[3.144732,42.36097],[3.144651,42.360981],[3.144406,42.360686],[3.144084,42.360399],[3.143903,42.36024],[3.143882,42.36022],[3.143714,42.360214],[3.143612,42.3602],[3.143142,42.360162],[3.142923,42.360162],[3.143158,42.360316],[3.143469,42.360521],[3.14399,42.360887],[3.144327,42.361107],[3.144358,42.36113],[3.144364,42.361135],[3.144369,42.361139],[3.144375,42.361143],[3.144381,42.361147],[3.144394,42.361158],[3.14451,42.36123],[3.144861,42.361098],[3.144796,42.361206],[3.14474,42.3613],[3.144728,42.361307],[3.144662,42.361345],[3.144527,42.361441],[3.144503,42.361505],[3.144503,42.361549],[3.144543,42.361577],[3.144571,42.361642],[3.144602,42.361715],[3.144653,42.361796],[3.144772,42.361947],[3.144827,42.362012],[3.144909,42.362109],[3.144993,42.362176],[3.145115,42.362263],[3.145238,42.362259],[3.145572,42.362233],[3.145576,42.362263],[3.145692,42.362337],[3.146054,42.36247],[3.146445,42.362591],[3.146952,42.362753],[3.147514,42.36262],[3.147601,42.362653],[3.147623,42.362661],[3.147653,42.362673],[3.147692,42.362688],[3.147779,42.36272],[3.147831,42.362735],[3.148197,42.362834],[3.148672,42.362963],[3.148926,42.363039],[3.149096,42.363102],[3.149395,42.363172],[3.149665,42.363225],[3.150148,42.363333],[3.150156,42.363375],[3.15031,42.363424],[3.150297,42.363445],[3.150282,42.36347],[3.150354,42.363494],[3.150455,42.36355],[3.150497,42.363573],[3.150191,42.36395],[3.150355,42.364015],[3.150429,42.364045],[3.150442,42.36405],[3.150475,42.363998],[3.150525,42.363921],[3.150546,42.363925],[3.150676,42.363954],[3.15069,42.363939],[3.150733,42.363894],[3.150774,42.363852],[3.151054,42.363555],[3.151327,42.363696],[3.151192,42.363858],[3.151052,42.364055],[3.151048,42.364082],[3.151168,42.364096],[3.15149,42.3642],[3.151635,42.36428],[3.151795,42.364366],[3.152017,42.36445],[3.152314,42.364565],[3.152378,42.364577],[3.152402,42.364544],[3.152486,42.364431],[3.152526,42.364377],[3.152555,42.364371],[3.152599,42.364389],[3.152871,42.364696],[3.151386,42.365333],[3.151023,42.364916],[3.150946,42.364847],[3.15087,42.364798],[3.150745,42.364717],[3.150482,42.364569],[3.150294,42.36453],[3.150166,42.364501],[3.15011,42.364489],[3.150088,42.364483],[3.150058,42.364476],[3.150035,42.36447],[3.149806,42.364805],[3.149835,42.364864],[3.149825,42.36489],[3.14981,42.364934],[3.14982,42.36497],[3.149869,42.365026],[3.149944,42.365121],[3.14997,42.365159],[3.150016,42.365205],[3.15013,42.365298],[3.150087,42.365321],[3.1501,42.365332],[3.150144,42.365366],[3.15021,42.365417],[3.150275,42.365468],[3.150352,42.365529],[3.150429,42.365589],[3.150466,42.365622],[3.150501,42.365657],[3.150522,42.365681],[3.15054,42.365705],[3.150545,42.365715],[3.150542,42.365725],[3.150596,42.365768],[3.150712,42.365857],[3.15097,42.365968],[3.150849,42.366085],[3.150825,42.366081],[3.15081,42.366095],[3.150783,42.366098],[3.150716,42.366206],[3.150756,42.366299],[3.151077,42.366389],[3.151125,42.366402],[3.151138,42.366366],[3.15114,42.366366]]]]}},{"type":"Feature","id":"170926_170926 AP10 AEM 2","properties":{"area_id":"170926_170926 AP10 AEM 2","nom":"Sant Carles","codi_icgc":"170926 AP10 AEM 2","categoria":"Àrees de poblament","codi_municipi":"170926","municipi":"Llançà","codi_comarca":"02","comarca":"Alt Empordà","provincia":"Girona","font":"ICGC Àrees de poblament v3r1 202602"},"geometry":{"type":"MultiPolygon","coordinates":[[[[3.156486,42.374061],[3.157665,42.374519],[3.157918,42.374132],[3.158449,42.374314],[3.158685,42.374099],[3.158863,42.373888],[3.158973,42.373763],[3.159021,42.373648],[3.158987,42.373585],[3.158731,42.373492],[3.158647,42.373332],[3.158432,42.37297],[3.15834,42.372844],[3.158224,42.372658],[3.157914,42.372132],[3.157886,42.372089],[3.157748,42.37199],[3.157746,42.37199],[3.157741,42.371985],[3.157284,42.371501],[3.157272,42.371488],[3.156582,42.370978],[3.156443,42.370876],[3.15632,42.370785],[3.156087,42.37113],[3.156042,42.371198],[3.155921,42.371377],[3.155891,42.37154],[3.155937,42.371576],[3.156332,42.371884],[3.15666,42.372141],[3.156876,42.372325],[3.157075,42.372513],[3.15703,42.372532],[3.157022,42.372535],[3.156942,42.372571],[3.156896,42.372592],[3.156519,42.372717],[3.156504,42.373307],[3.156502,42.373326],[3.156433,42.373318],[3.156337,42.373302],[3.156317,42.373967],[3.156364,42.373993],[3.156486,42.374061]]]]}},{"type":"Feature","id":"170926_170926 AP07 AEM 2","properties":{"area_id":"170926_170926 AP07 AEM 2","nom":"Santa Isabel","codi_icgc":"170926 AP07 AEM 2","categoria":"Àrees de poblament","codi_municipi":"170926","municipi":"Llançà","codi_comarca":"02","comarca":"Alt Empordà","provincia":"Girona","font":"ICGC Àrees de poblament v3r1 202602"},"geometry":{"type":"MultiPolygon","coordinates":[[[[3.171049,42.355323],[3.171135,42.355225],[3.171177,42.355193],[3.171183,42.35517],[3.171217,42.355134],[3.171246,42.355121],[3.171285,42.355115],[3.171404,42.355151],[3.17163,42.355222],[3.171908,42.355308],[3.172181,42.355381],[3.172297,42.355399],[3.172403,42.355406],[3.172499,42.355402],[3.172571,42.35538],[3.172629,42.355355],[3.172726,42.355233],[3.172761,42.355185],[3.172807,42.355112],[3.172763,42.355082],[3.172559,42.354952],[3.172516,42.35502],[3.172437,42.355144],[3.172097,42.355126],[3.172093,42.355042],[3.172091,42.354979],[3.172079,42.35488],[3.172067,42.35488],[3.172065,42.354863],[3.17211,42.354856],[3.172134,42.354849],[3.172157,42.354838],[3.172182,42.35482],[3.172197,42.354804],[3.172213,42.354779],[3.172219,42.354753],[3.172216,42.354722],[3.172204,42.354677],[3.172184,42.354633],[3.17213,42.354546],[3.172071,42.354462],[3.172029,42.354408],[3.172005,42.354381],[3.171979,42.354356],[3.171978,42.354356],[3.171923,42.354316],[3.171869,42.354276],[3.171823,42.354239],[3.171809,42.354227],[3.171878,42.354212],[3.171979,42.354191],[3.171998,42.354187],[3.172021,42.354183],[3.172051,42.354177],[3.172079,42.354171],[3.172118,42.354164],[3.172164,42.354156],[3.17221,42.354152],[3.172305,42.354148],[3.172361,42.35415],[3.172417,42.354158],[3.172452,42.354165],[3.172516,42.354185],[3.172532,42.354191],[3.172577,42.354209],[3.172616,42.354227],[3.172693,42.354266],[3.172774,42.354306],[3.172829,42.35433],[3.172889,42.354355],[3.172954,42.354375],[3.173021,42.354389],[3.173025,42.354389],[3.173089,42.354398],[3.173158,42.3544],[3.173228,42.354397],[3.173296,42.354389],[3.173363,42.354375],[3.173427,42.354355],[3.173444,42.354349],[3.17346,42.354343],[3.173306,42.35385],[3.173255,42.353853],[3.173186,42.353849],[3.17305,42.353831],[3.17298,42.35382],[3.172893,42.353797],[3.172764,42.353755],[3.172617,42.353668],[3.172455,42.353559],[3.172326,42.353451],[3.172192,42.353329],[3.17211,42.35327],[3.172216,42.353083],[3.172242,42.353038],[3.172161,42.353024],[3.171987,42.352955],[3.171884,42.352908],[3.171784,42.352858],[3.171725,42.352821],[3.171668,42.352783],[3.171659,42.35279],[3.171561,42.352869],[3.171522,42.352846],[3.171447,42.352788],[3.171374,42.352727],[3.171356,42.352709],[3.171332,42.35268],[3.171319,42.352666],[3.171302,42.352653],[3.171275,42.35264],[3.171253,42.352633],[3.171177,42.352623],[3.171097,42.352613],[3.171089,42.352615],[3.171083,42.352619],[3.171078,42.352626],[3.17098,42.35273],[3.170879,42.352825],[3.170843,42.35284],[3.170776,42.352865],[3.170725,42.352882],[3.170649,42.352908],[3.170572,42.352932],[3.170423,42.352969],[3.170347,42.352986],[3.170272,42.353004],[3.170185,42.353026],[3.170144,42.353039],[3.170105,42.353055],[3.170094,42.353063],[3.170085,42.353079],[3.170079,42.353096],[3.170077,42.3531],[3.170079,42.353104],[3.170084,42.353114],[3.170056,42.353108],[3.169982,42.353092],[3.169774,42.353048],[3.169867,42.353173],[3.16994,42.353282],[3.170111,42.353516],[3.17012,42.353512],[3.170163,42.353568],[3.170201,42.35362],[3.170314,42.353742],[3.170337,42.353771],[3.170374,42.353828],[3.170397,42.353867],[3.17041,42.353898],[3.170419,42.35393],[3.170426,42.353977],[3.170429,42.353993],[3.170431,42.354018],[3.170429,42.354027],[3.170434,42.354133],[3.170442,42.354136],[3.170379,42.354184],[3.170353,42.354174],[3.170332,42.354167],[3.170241,42.354134],[3.170043,42.354061],[3.169844,42.353988],[3.169714,42.353941],[3.169583,42.353895],[3.169543,42.353885],[3.169481,42.353873],[3.169419,42.353867],[3.169394,42.353867],[3.169352,42.353873],[3.169308,42.353885],[3.169293,42.353891],[3.169283,42.353896],[3.169272,42.353902],[3.169244,42.353917],[3.169243,42.353919],[3.16923,42.353928],[3.169216,42.353941],[3.169205,42.353955],[3.169192,42.353982],[3.169183,42.35401],[3.169179,42.354045],[3.169183,42.35408],[3.169195,42.354115],[3.169203,42.354129],[3.169213,42.354143],[3.169257,42.354188],[3.169261,42.354191],[3.169261,42.354191],[3.169307,42.354231],[3.169406,42.354306],[3.169507,42.354382],[3.169625,42.354477],[3.169742,42.354571],[3.169874,42.354674],[3.170007,42.354778],[3.170074,42.354833],[3.17014,42.354892],[3.170163,42.354918],[3.170189,42.354959],[3.170205,42.355003],[3.170206,42.355007],[3.170293,42.35507],[3.170334,42.355034],[3.170543,42.355],[3.170568,42.354993],[3.170594,42.355009],[3.170654,42.355048],[3.17075,42.355111],[3.170845,42.355174],[3.170955,42.355252],[3.171049,42.355323]]]]}},{"type":"Feature","id":"170926_170926 AP04 AEM 2","properties":{"area_id":"170926_170926 AP04 AEM 2","nom":"Serradell","codi_icgc":"170926 AP04 AEM 2","categoria":"Àrees de poblament","codi_municipi":"170926","municipi":"Llançà","codi_comarca":"02","comarca":"Alt Empordà","provincia":"Girona","font":"ICGC Àrees de poblament v3r1 202602"},"geometry":{"type":"MultiPolygon","coordinates":[[[[3.159459,42.362585],[3.159554,42.362585],[3.159632,42.362587],[3.159667,42.36258],[3.159725,42.362577],[3.159762,42.362581],[3.159663,42.362646],[3.159579,42.362705],[3.159562,42.362849],[3.159568,42.363034],[3.159632,42.363058],[3.159923,42.363035],[3.160014,42.363028],[3.160144,42.363018],[3.160324,42.363003],[3.160282,42.363047],[3.160219,42.363103],[3.160156,42.363158],[3.160104,42.363202],[3.160092,42.363213],[3.160084,42.36322],[3.160059,42.363246],[3.160034,42.363284],[3.160026,42.363307],[3.160025,42.363342],[3.160033,42.363377],[3.160051,42.363428],[3.160069,42.363478],[3.160086,42.36353],[3.160101,42.363583],[3.160112,42.363637],[3.160118,42.363693],[3.160118,42.363719],[3.160113,42.363759],[3.160111,42.363799],[3.160115,42.363825],[3.160129,42.363863],[3.16014,42.363882],[3.160155,42.363899],[3.160181,42.363922],[3.160212,42.363941],[3.160236,42.363953],[3.160261,42.363964],[3.16028,42.363969],[3.160298,42.363973],[3.160314,42.363974],[3.16033,42.363971],[3.160366,42.363958],[3.1604,42.363941],[3.160433,42.363922],[3.160614,42.364055],[3.160627,42.364064],[3.161122,42.364285],[3.161172,42.364307],[3.161242,42.364336],[3.161248,42.364334],[3.161343,42.364302],[3.161391,42.364287],[3.16144,42.364274],[3.161588,42.364243],[3.161661,42.364228],[3.161734,42.36421],[3.161873,42.364172],[3.162012,42.364133],[3.162152,42.364094],[3.162223,42.364075],[3.162293,42.364055],[3.162322,42.364044],[3.162389,42.363962],[3.162701,42.36391],[3.162701,42.363908],[3.162701,42.363896],[3.162712,42.363828],[3.162727,42.363761],[3.162731,42.363716],[3.162728,42.36367],[3.162715,42.363624],[3.162702,42.363593],[3.162683,42.363556],[3.162663,42.363524],[3.162661,42.36352],[3.162614,42.36345],[3.162583,42.363387],[3.162568,42.36337],[3.162557,42.363364],[3.162521,42.36332],[3.162547,42.36326],[3.162671,42.363222],[3.16268,42.363214],[3.162682,42.363198],[3.162687,42.363184],[3.162701,42.363155],[3.162709,42.363141],[3.16272,42.363129],[3.162753,42.363099],[3.162785,42.36307],[3.163038,42.363012],[3.163137,42.36299],[3.163128,42.362975],[3.163016,42.362814],[3.163016,42.362814],[3.163235,42.362754],[3.163304,42.362737],[3.163362,42.362721],[3.163445,42.362693],[3.163527,42.36266],[3.16358,42.362633],[3.163627,42.3626],[3.163657,42.362576],[3.163698,42.362537],[3.163734,42.362495],[3.163756,42.362464],[3.163783,42.362417],[3.163803,42.362367],[3.163813,42.362327],[3.16382,42.362266],[3.163824,42.362235],[3.163832,42.362205],[3.163848,42.362165],[3.163869,42.362125],[3.163889,42.362098],[3.163891,42.362096],[3.163913,42.362066],[3.163921,42.362045],[3.163928,42.362015],[3.163931,42.361985],[3.16393,42.361952],[3.163923,42.361928],[3.163921,42.361919],[3.163911,42.361902],[3.163891,42.361879],[3.163865,42.361859],[3.163849,42.361851],[3.163699,42.361803],[3.163657,42.36179],[3.16357,42.361794],[3.163025,42.361761],[3.162787,42.361688],[3.162797,42.361663],[3.162615,42.361368],[3.162602,42.36125],[3.162595,42.36119],[3.162587,42.361185],[3.162535,42.361152],[3.162497,42.361125],[3.162471,42.361104],[3.162455,42.361088],[3.162437,42.361065],[3.162432,42.361054],[3.162429,42.361042],[3.162429,42.361015],[3.162436,42.360967],[3.162451,42.360894],[3.162452,42.360874],[3.161939,42.360878],[3.161819,42.36087],[3.161842,42.360823],[3.161851,42.360646],[3.161857,42.360532],[3.161886,42.360438],[3.161934,42.360323],[3.16194,42.360259],[3.16193,42.360207],[3.161898,42.360147],[3.161842,42.360052],[3.161836,42.360041],[3.161762,42.359904],[3.161524,42.359901],[3.161264,42.359902],[3.161278,42.359857],[3.160982,42.359967],[3.16089,42.35983],[3.160872,42.359803],[3.160825,42.359826],[3.160417,42.359954],[3.160459,42.360025],[3.160556,42.360193],[3.160662,42.360368],[3.160669,42.360387],[3.160684,42.360426],[3.16066,42.360477],[3.1606,42.360548],[3.160495,42.360641],[3.160435,42.360688],[3.160399,42.360721],[3.160334,42.360712],[3.159987,42.360779],[3.159345,42.361037],[3.159223,42.360804],[3.159093,42.360819],[3.159065,42.360823],[3.158973,42.360838],[3.158823,42.360862],[3.158889,42.361085],[3.158925,42.361211],[3.158933,42.361235],[3.158892,42.361254],[3.158713,42.36134],[3.158376,42.361402],[3.158396,42.361432],[3.158423,42.361472],[3.158493,42.361573],[3.158623,42.36167],[3.158563,42.361714],[3.158557,42.361719],[3.158266,42.361982],[3.158678,42.362277],[3.158646,42.362467],[3.15864,42.362496],[3.15864,42.362532],[3.159459,42.362585]]]]}},{"type":"Feature","id":"170926_170926 AP13 AEM 3","properties":{"area_id":"170926_170926 AP13 AEM 3","nom":"Setcases","codi_icgc":"170926 AP13 AEM 3","categoria":"Àrees de poblament","codi_municipi":"170926","municipi":"Llançà","codi_comarca":"02","comarca":"Alt Empordà","provincia":"Girona","font":"ICGC Àrees de poblament v3r1 202602"},"geometry":{"type":"MultiPolygon","coordinates":[[[[3.14879,42.366395],[3.148724,42.366329],[3.148588,42.366406],[3.148751,42.36653],[3.148804,42.366591],[3.14919,42.366909],[3.149978,42.367582],[3.150368,42.367897],[3.150655,42.367773],[3.150955,42.367644],[3.150985,42.36762],[3.151257,42.3676],[3.151472,42.367554],[3.151474,42.36732],[3.151429,42.367268],[3.151353,42.367151],[3.151157,42.366961],[3.150959,42.366758],[3.150242,42.365985],[3.150131,42.366023],[3.149656,42.366184],[3.149215,42.366393],[3.149171,42.366349],[3.149103,42.366282],[3.149092,42.36628],[3.149082,42.366276],[3.149068,42.366272],[3.149045,42.366265],[3.148837,42.3664],[3.148813,42.366382],[3.14879,42.366395]]]]}},{"type":"Feature","id":"170926_170926 AP15 AEM 3","properties":{"area_id":"170926_170926 AP15 AEM 3","nom":"Valleta","codi_icgc":"170926 AP15 AEM 3","categoria":"Àrees de poblament","codi_municipi":"170926","municipi":"Llançà","codi_comarca":"02","comarca":"Alt Empordà","provincia":"Girona","font":"ICGC Àrees de poblament v3r1 202602"},"geometry":{"type":"MultiPolygon","coordinates":[[[[3.109971,42.353055],[3.109936,42.353055],[3.109925,42.353055],[3.109914,42.353055],[3.109906,42.353052],[3.109902,42.353041],[3.1099,42.353031],[3.109894,42.353006],[3.109879,42.352942],[3.10986,42.352852],[3.109842,42.352768],[3.109825,42.352684],[3.109823,42.352668],[3.109823,42.352652],[3.109823,42.352637],[3.109829,42.352614],[3.109823,42.352614],[3.109128,42.352532],[3.10912,42.352532],[3.109106,42.352529],[3.109078,42.352527],[3.109064,42.352526],[3.109054,42.352525],[3.109002,42.352521],[3.108953,42.352517],[3.108818,42.352505],[3.108727,42.352499],[3.108637,42.352492],[3.108549,42.352481],[3.108461,42.352469],[3.108392,42.352459],[3.108322,42.352447],[3.108269,42.352435],[3.108191,42.352414],[3.108115,42.352389],[3.108055,42.35237],[3.107999,42.352346],[3.107986,42.352338],[3.107974,42.352332],[3.107931,42.352383],[3.107912,42.352406],[3.107842,42.352476],[3.107777,42.352639],[3.107747,42.352712],[3.10762,42.353027],[3.107622,42.353051],[3.107933,42.353027],[3.108036,42.353009],[3.10806,42.352986],[3.108149,42.353038],[3.108269,42.353044],[3.108336,42.353048],[3.108668,42.353067],[3.109072,42.353085],[3.109179,42.353121],[3.109182,42.353123],[3.109234,42.353123],[3.109101,42.353493],[3.109149,42.353505],[3.10917,42.353511],[3.109174,42.353502],[3.109203,42.353504],[3.109359,42.35353],[3.109437,42.353548],[3.109516,42.353565],[3.109661,42.353593],[3.109955,42.353654],[3.109952,42.353663],[3.10995,42.353686],[3.10995,42.353692],[3.109945,42.353757],[3.110047,42.353763],[3.110182,42.353774],[3.110239,42.353777],[3.110286,42.35378],[3.110426,42.353801],[3.110444,42.353803],[3.110578,42.353823],[3.110673,42.353842],[3.110834,42.353867],[3.110839,42.353867],[3.11089,42.353876],[3.110914,42.353788],[3.110927,42.353755],[3.110932,42.353742],[3.110933,42.35374],[3.110933,42.353736],[3.110934,42.353733],[3.110934,42.353731],[3.110933,42.353727],[3.110932,42.353724],[3.110932,42.353722],[3.11093,42.353719],[3.110929,42.353698],[3.11095,42.353657],[3.11097,42.353623],[3.11099,42.353583],[3.111095,42.353376],[3.111227,42.353167],[3.111227,42.353136],[3.111173,42.353079],[3.111156,42.353077],[3.111095,42.353093],[3.110967,42.353105],[3.11003,42.353092],[3.109971,42.353055]]]]}},{"type":"Feature","id":"170926_170926 SI01 AEM 2","properties":{"area_id":"170926_170926 SI01 AEM 2","nom":"Zona industrial Madres","codi_icgc":"170926 SI01 AEM 2","categoria":"Sector industrial","codi_municipi":"170926","municipi":"Llançà","codi_comarca":"02","comarca":"Alt Empordà","provincia":"Girona","font":"ICGC Àrees de poblament v3r1 202602"},"geometry":{"type":"MultiPolygon","coordinates":[[[[3.139264,42.36132],[3.139279,42.361132],[3.139289,42.361129],[3.139336,42.360717],[3.13973,42.360748],[3.139933,42.360764],[3.13999,42.360768],[3.140606,42.360794],[3.141063,42.360759],[3.141126,42.360753],[3.141135,42.360746],[3.141153,42.360732],[3.141149,42.360617],[3.141148,42.360583],[3.141041,42.360328],[3.141031,42.360312],[3.141017,42.360292],[3.140943,42.360259],[3.140698,42.360279],[3.140314,42.360387],[3.140227,42.360403],[3.139765,42.360371],[3.139419,42.360383],[3.139022,42.36036],[3.138103,42.360263],[3.138068,42.36025],[3.137051,42.360193],[3.136901,42.360183],[3.136759,42.360179],[3.136461,42.360217],[3.136571,42.360784],[3.136802,42.360763],[3.137201,42.360727],[3.13753,42.3608],[3.137623,42.361046],[3.137611,42.361164],[3.13777,42.361204],[3.138036,42.361252],[3.138179,42.361274],[3.138331,42.361275],[3.138443,42.361275],[3.138531,42.361274],[3.138844,42.361274],[3.139264,42.36132]]],[[[3.1385,42.362676],[3.138513,42.362674],[3.138526,42.362675],[3.138539,42.362676],[3.138623,42.362707],[3.138682,42.362729],[3.138781,42.362647],[3.138813,42.36262],[3.138923,42.362519],[3.138954,42.362541],[3.139027,42.362497],[3.13893,42.362425],[3.138724,42.36232],[3.138715,42.362314],[3.138646,42.362265],[3.138461,42.362137],[3.138348,42.362084],[3.13833,42.362088],[3.138316,42.362104],[3.138246,42.362192],[3.138175,42.362314],[3.138069,42.36229],[3.137901,42.362622],[3.137861,42.362721],[3.137939,42.362737],[3.138018,42.362753],[3.138068,42.362761],[3.138118,42.362769],[3.138297,42.362799],[3.138374,42.362812],[3.13842,42.36282],[3.138467,42.362828],[3.138517,42.362834],[3.138534,42.362836],[3.138542,42.36278],[3.138484,42.36277],[3.138475,42.362767],[3.138455,42.362747],[3.138442,42.362723],[3.138445,42.362713],[3.13845,42.362705],[3.138457,42.362696],[3.138466,42.362689],[3.138476,42.362683],[3.138488,42.362679],[3.1385,42.362676]]]]}},{"type":"Feature","id":"170926_170926 AP14 AEM 3","properties":{"area_id":"170926_170926 AP14 AEM 3","nom":"el Port","codi_icgc":"170926 AP14 AEM 3","categoria":"Àrees de poblament","codi_municipi":"170926","municipi":"Llançà","codi_comarca":"02","comarca":"Alt Empordà","provincia":"Girona","font":"ICGC Àrees de poblament v3r1 202602"},"geometry":{"type":"MultiPolygon","coordinates":[[[[3.162032,42.37102],[3.162343,42.371152],[3.162416,42.371187],[3.162481,42.3711],[3.16276,42.371212],[3.163192,42.371394],[3.163366,42.371471],[3.163379,42.371458],[3.163819,42.37165],[3.163945,42.371701],[3.164032,42.371749],[3.164056,42.371781],[3.164056,42.371907],[3.164087,42.371922],[3.16402,42.372016],[3.164082,42.372035],[3.164123,42.371993],[3.164164,42.372006],[3.164421,42.371992],[3.164493,42.37195],[3.164482,42.371626],[3.164405,42.371516],[3.164352,42.371506],[3.164328,42.371494],[3.164232,42.37143],[3.16423,42.371431],[3.164228,42.371429],[3.16423,42.371428],[3.164269,42.371409],[3.164343,42.371367],[3.164371,42.371327],[3.164462,42.371205],[3.164415,42.371153],[3.164568,42.371068],[3.164609,42.371027],[3.164713,42.370969],[3.16476,42.371021],[3.164853,42.371088],[3.165005,42.371116],[3.165129,42.371099],[3.165135,42.371078],[3.165191,42.370922],[3.165203,42.370889],[3.165215,42.370856],[3.165255,42.370806],[3.165318,42.370757],[3.165337,42.370694],[3.165325,42.370636],[3.165317,42.370626],[3.165288,42.370599],[3.165089,42.370509],[3.165088,42.37051],[3.165084,42.370508],[3.164984,42.370586],[3.164912,42.370622],[3.164823,42.370545],[3.164786,42.370513],[3.164626,42.37052],[3.164606,42.370508],[3.164337,42.370519],[3.164201,42.370517],[3.164087,42.370495],[3.163882,42.370424],[3.163881,42.370424],[3.163664,42.370349],[3.163557,42.370311],[3.163306,42.370388],[3.163249,42.370396],[3.163193,42.370403],[3.163156,42.370402],[3.163116,42.370395],[3.163077,42.370382],[3.162999,42.370355],[3.162894,42.370308],[3.162861,42.370281],[3.162836,42.370251],[3.16282,42.370224],[3.162804,42.370189],[3.162304,42.369976],[3.16228,42.369972],[3.162279,42.369971],[3.161894,42.369816],[3.161869,42.369806],[3.161812,42.369886],[3.161798,42.369906],[3.161773,42.36994],[3.161396,42.3698],[3.161334,42.369783],[3.161347,42.369765],[3.161802,42.369106],[3.161827,42.36907],[3.162041,42.368775],[3.162116,42.368668],[3.162667,42.367959],[3.162725,42.367884],[3.162911,42.367851],[3.162925,42.367851],[3.163038,42.367847],[3.163196,42.367846],[3.163113,42.367772],[3.162788,42.367506],[3.162732,42.36746],[3.162412,42.367275],[3.161988,42.367055],[3.161931,42.366985],[3.161948,42.366903],[3.162038,42.366787],[3.162038,42.366787],[3.162039,42.366786],[3.162186,42.366599],[3.162204,42.366576],[3.162394,42.366327],[3.162455,42.366225],[3.162423,42.366168],[3.162416,42.366157],[3.162044,42.366091],[3.162034,42.366097],[3.161895,42.36617],[3.160601,42.366858],[3.160502,42.366917],[3.160033,42.367224],[3.159891,42.367316],[3.159779,42.367389],[3.159636,42.367483],[3.159386,42.367643],[3.159015,42.36788],[3.158989,42.36787],[3.158815,42.367983],[3.158832,42.367994],[3.158761,42.368042],[3.158408,42.368282],[3.158293,42.36833],[3.158164,42.368364],[3.158045,42.368364],[3.157818,42.368329],[3.157728,42.36839],[3.157514,42.368507],[3.157509,42.36851],[3.157371,42.368585],[3.157312,42.368624],[3.157307,42.368626],[3.15728,42.368605],[3.15727,42.368598],[3.157058,42.368405],[3.157056,42.368402],[3.156723,42.367974],[3.156573,42.367769],[3.156558,42.367748],[3.156336,42.367843],[3.156218,42.367679],[3.156012,42.36775],[3.155933,42.367868],[3.156174,42.368091],[3.156274,42.368162],[3.156291,42.368174],[3.156307,42.368187],[3.156322,42.368199],[3.156337,42.368213],[3.156352,42.368226],[3.156365,42.36824],[3.156379,42.368254],[3.156391,42.368269],[3.156403,42.368283],[3.156636,42.368583],[3.156658,42.368611],[3.156907,42.368838],[3.15696,42.368878],[3.157023,42.368926],[3.157126,42.369004],[3.157284,42.369086],[3.157315,42.369102],[3.157346,42.369116],[3.157378,42.36913],[3.15741,42.369143],[3.157448,42.369158],[3.157486,42.369171],[3.157525,42.369183],[3.157551,42.369191],[3.157628,42.369214],[3.157663,42.369225],[3.157698,42.369237],[3.157732,42.369249],[3.157765,42.369263],[3.157801,42.369278],[3.157836,42.369294],[3.15787,42.369312],[3.157903,42.36933],[3.157936,42.369348],[3.157968,42.369368],[3.157998,42.369388],[3.158028,42.36941],[3.158057,42.369432],[3.158085,42.369454],[3.158112,42.369478],[3.158137,42.369502],[3.158162,42.369526],[3.158216,42.369582],[3.158218,42.369584],[3.158223,42.36959],[3.158267,42.369621],[3.15841,42.369734],[3.158379,42.36974],[3.158396,42.369786],[3.158439,42.369763],[3.158573,42.369905],[3.158553,42.369917],[3.158673,42.370024],[3.158821,42.370157],[3.158869,42.37021],[3.158424,42.370383],[3.158539,42.370619],[3.158558,42.370659],[3.158587,42.370717],[3.158603,42.370749],[3.158573,42.370863],[3.158512,42.370981],[3.158311,42.371],[3.158175,42.371142],[3.158184,42.371197],[3.158029,42.371203],[3.158219,42.371393],[3.158236,42.371411],[3.158224,42.371422],[3.158053,42.371567],[3.157885,42.371721],[3.15788,42.371726],[3.158485,42.37226],[3.158516,42.372245],[3.158589,42.37221],[3.158596,42.372162],[3.158602,42.372115],[3.159063,42.371782],[3.159246,42.371655],[3.159688,42.37144],[3.160217,42.371172],[3.160554,42.371046],[3.160851,42.370986],[3.161124,42.370962],[3.16155,42.370955],[3.162032,42.37102]]]]}},{"type":"Feature","id":"170926_170926 AP08 AEM 2","properties":{"area_id":"170926_170926 AP08 AEM 2","nom":"els Estanys-Sant Genís","codi_icgc":"170926 AP08 AEM 2","categoria":"Àrees de poblament","codi_municipi":"170926","municipi":"Llançà","codi_comarca":"02","comarca":"Alt Empordà","provincia":"Girona","font":"ICGC Àrees de poblament v3r1 202602"},"geometry":{"type":"MultiPolygon","coordinates":[[[[3.153102,42.380674],[3.153129,42.380698],[3.153207,42.380748],[3.153524,42.380613],[3.153647,42.380558],[3.153807,42.380757],[3.153812,42.380764],[3.153924,42.380727],[3.154085,42.380675],[3.154085,42.380674],[3.154198,42.380651],[3.154272,42.380641],[3.154382,42.380626],[3.154439,42.380611],[3.154522,42.380573],[3.154715,42.380529],[3.154826,42.380548],[3.154825,42.380551],[3.154794,42.380599],[3.154762,42.380647],[3.15475,42.38066],[3.154745,42.380667],[3.154743,42.380673],[3.154746,42.380679],[3.154758,42.380688],[3.154785,42.380699],[3.154847,42.380726],[3.154864,42.380701],[3.154912,42.380709],[3.154953,42.380704],[3.155047,42.380669],[3.155141,42.380635],[3.155157,42.380625],[3.155181,42.38057],[3.15519,42.380548],[3.155295,42.380302],[3.155208,42.380245],[3.154977,42.380224],[3.154909,42.380166],[3.154832,42.379981],[3.154889,42.379873],[3.155149,42.379737],[3.155467,42.379444],[3.155466,42.379329],[3.155456,42.379193],[3.155456,42.379093],[3.155311,42.379094],[3.154984,42.379144],[3.154675,42.379073],[3.154616,42.37868],[3.154731,42.378415],[3.154895,42.378272],[3.155396,42.378057],[3.155465,42.378042],[3.155906,42.377584],[3.156194,42.377241],[3.156433,42.376807],[3.156363,42.376147],[3.156263,42.375313],[3.156154,42.375222],[3.156134,42.375224],[3.15608,42.375228],[3.155994,42.375233],[3.155908,42.375237],[3.15578,42.375238],[3.155652,42.375239],[3.155567,42.37524],[3.15556,42.37524],[3.155521,42.375241],[3.155479,42.375243],[3.155468,42.375244],[3.155393,42.375251],[3.155329,42.375261],[3.15524,42.375279],[3.155241,42.375275],[3.15525,42.375256],[3.155254,42.375251],[3.154685,42.375378],[3.154559,42.37542],[3.15435,42.37549],[3.154238,42.375531],[3.154126,42.375573],[3.154067,42.375591],[3.154006,42.375608],[3.153969,42.375618],[3.15395,42.375624],[3.153908,42.375636],[3.153894,42.375641],[3.153783,42.375674],[3.15371,42.375696],[3.153701,42.375698],[3.153692,42.3757],[3.153669,42.375699],[3.153646,42.375698],[3.153631,42.3757],[3.153545,42.375728],[3.153459,42.375755],[3.153368,42.375778],[3.153157,42.37582],[3.153157,42.375835],[3.152955,42.375862],[3.152949,42.375866],[3.152806,42.375877],[3.152805,42.375933],[3.152808,42.375949],[3.152826,42.376041],[3.152712,42.376062],[3.152594,42.376077],[3.152588,42.376078],[3.15251,42.376092],[3.152433,42.376112],[3.152385,42.376129],[3.152339,42.376151],[3.152289,42.376183],[3.152247,42.376221],[3.152213,42.376262],[3.152187,42.376305],[3.152168,42.376347],[3.152155,42.37639],[3.152148,42.376448],[3.152149,42.376505],[3.152157,42.376586],[3.15216,42.376611],[3.152167,42.376667],[3.152183,42.376781],[3.152188,42.376816],[3.1522,42.376895],[3.152218,42.376979],[3.152237,42.377062],[3.152256,42.377153],[3.152257,42.37717],[3.152256,42.377183],[3.152253,42.377196],[3.152302,42.37732],[3.152352,42.377445],[3.152411,42.377589],[3.152474,42.377732],[3.152484,42.377751],[3.152497,42.377768],[3.152531,42.3778],[3.152559,42.37782],[3.152596,42.37784],[3.152634,42.377855],[3.152661,42.377862],[3.152696,42.377868],[3.152742,42.377869],[3.152788,42.377865],[3.152819,42.377858],[3.152856,42.377844],[3.152892,42.377825],[3.152904,42.377818],[3.152973,42.377818],[3.15292,42.377898],[3.15283,42.378011],[3.152689,42.378188],[3.152651,42.378339],[3.152761,42.378599],[3.15279,42.378657],[3.15282,42.378713],[3.152837,42.378746],[3.152865,42.378792],[3.152882,42.378814],[3.152902,42.378837],[3.15292,42.378849],[3.152941,42.378855],[3.152954,42.378853],[3.152957,42.378942],[3.152957,42.378981],[3.152963,42.37902],[3.15298,42.379097],[3.152992,42.379147],[3.153004,42.379197],[3.15303,42.379296],[3.153043,42.379363],[3.153055,42.379445],[3.153062,42.379527],[3.153068,42.379655],[3.153071,42.379783],[3.153072,42.379874],[3.153071,42.379965],[3.153068,42.380026],[3.153063,42.380108],[3.153057,42.380191],[3.153045,42.38021],[3.153038,42.380239],[3.153035,42.380269],[3.153022,42.380355],[3.153016,42.380398],[3.153009,42.38044],[3.152994,42.38048],[3.152986,42.380499],[3.152981,42.380519],[3.152982,42.380533],[3.152989,42.380553],[3.153018,42.380584],[3.153102,42.380674]]]]}},{"type":"Feature","id":"170926_170926 AP09 AEM 2","properties":{"area_id":"170926_170926 AP09 AEM 2","nom":"l'Argilera","codi_icgc":"170926 AP09 AEM 2","categoria":"Àrees de poblament","codi_municipi":"170926","municipi":"Llançà","codi_comarca":"02","comarca":"Alt Empordà","provincia":"Girona","font":"ICGC Àrees de poblament v3r1 202602"},"geometry":{"type":"MultiPolygon","coordinates":[[[[3.156384,42.374538],[3.156392,42.374695],[3.15641,42.374913],[3.156418,42.375026],[3.156424,42.375092],[3.156444,42.375208],[3.156472,42.375372],[3.156519,42.375655],[3.156553,42.376466],[3.156554,42.376572],[3.156571,42.376585],[3.156587,42.376592],[3.156593,42.376594],[3.156617,42.376598],[3.156626,42.376597],[3.156655,42.376583],[3.156774,42.376427],[3.156894,42.37627],[3.156894,42.376269],[3.156922,42.376244],[3.156967,42.376208],[3.157009,42.376171],[3.157052,42.376121],[3.157091,42.376069],[3.157095,42.376064],[3.157117,42.376053],[3.157223,42.376074],[3.157266,42.376093],[3.157326,42.376118],[3.157358,42.376131],[3.15747,42.376158],[3.15753,42.376172],[3.157582,42.376195],[3.157594,42.3762],[3.157654,42.376234],[3.157664,42.376241],[3.157694,42.376253],[3.157726,42.376259],[3.157759,42.376259],[3.157792,42.376254],[3.157822,42.376244],[3.157848,42.376228],[3.157869,42.376209],[3.157876,42.376199],[3.157976,42.375932],[3.158003,42.375863],[3.158047,42.375756],[3.158093,42.375717],[3.158097,42.375709],[3.158066,42.37556],[3.158023,42.375524],[3.157978,42.375482],[3.157903,42.375423],[3.157857,42.375373],[3.157844,42.375327],[3.157833,42.375297],[3.157828,42.375275],[3.157837,42.375256],[3.157848,42.375235],[3.157869,42.375194],[3.157894,42.375146],[3.158089,42.374769],[3.158092,42.374745],[3.158091,42.374745],[3.158017,42.374715],[3.156549,42.374124],[3.156479,42.374129],[3.156359,42.374197],[3.15636,42.374262],[3.156392,42.374538],[3.156384,42.374538]]]]}},{"type":"Feature","id":"170926_170926 AP16 AEM 3","properties":{"area_id":"170926_170926 AP16 AEM 3","nom":"la Bateria","codi_icgc":"170926 AP16 AEM 3","categoria":"Àrees de poblament","codi_municipi":"170926","municipi":"Llançà","codi_comarca":"02","comarca":"Alt Empordà","provincia":"Girona","font":"ICGC Àrees de poblament v3r1 202602"},"geometry":{"type":"MultiPolygon","coordinates":[[[[3.158816,42.363578],[3.158906,42.363478],[3.159423,42.362991],[3.159504,42.362906],[3.15952,42.362864],[3.159517,42.362821],[3.159512,42.3628],[3.159494,42.362787],[3.15933,42.362801],[3.159043,42.362826],[3.158967,42.362835],[3.158878,42.362889],[3.158834,42.362963],[3.158796,42.363027],[3.158737,42.363095],[3.158594,42.36318],[3.158511,42.363191],[3.158198,42.363156],[3.158197,42.363156],[3.158197,42.363156],[3.158196,42.363101],[3.158196,42.363091],[3.15822,42.362888],[3.158248,42.362501],[3.158252,42.362441],[3.157405,42.362386],[3.157396,42.362436],[3.157321,42.36267],[3.157216,42.362661],[3.157103,42.362651],[3.156936,42.36265],[3.15676,42.362658],[3.156661,42.362671],[3.156548,42.362682],[3.156435,42.362693],[3.156336,42.362705],[3.156238,42.36272],[3.156221,42.362727],[3.156206,42.362739],[3.156198,42.36275],[3.156195,42.362762],[3.156196,42.362777],[3.156197,42.362792],[3.156197,42.362867],[3.156198,42.362941],[3.156198,42.363037],[3.156197,42.363133],[3.156193,42.363213],[3.156182,42.363293],[3.156166,42.363369],[3.156154,42.363407],[3.156139,42.363444],[3.15611,42.3635],[3.156079,42.363559],[3.156041,42.363631],[3.156018,42.363676],[3.156011,42.363688],[3.155995,42.363722],[3.155987,42.363743],[3.155982,42.363774],[3.155983,42.363805],[3.155991,42.363866],[3.156,42.363927],[3.156014,42.363998],[3.156026,42.364069],[3.15603,42.364128],[3.15603,42.364186],[3.15603,42.364247],[3.156027,42.364308],[3.156021,42.364336],[3.156014,42.364365],[3.156012,42.364375],[3.156011,42.364397],[3.156004,42.364507],[3.155948,42.364569],[3.155842,42.364682],[3.155769,42.364757],[3.155702,42.364791],[3.155613,42.364804],[3.155112,42.364717],[3.154638,42.364621],[3.154636,42.364635],[3.154651,42.364728],[3.154645,42.36481],[3.154668,42.364878],[3.154675,42.364896],[3.154727,42.364883],[3.154935,42.364872],[3.15551,42.364973],[3.155525,42.364976],[3.155649,42.36497],[3.155696,42.364895],[3.155924,42.364971],[3.156022,42.365005],[3.155992,42.365061],[3.155978,42.365097],[3.155538,42.365345],[3.155533,42.365366],[3.155409,42.365724],[3.155407,42.365921],[3.155453,42.365954],[3.155697,42.365908],[3.155952,42.365808],[3.156001,42.366001],[3.155446,42.366173],[3.155482,42.366268],[3.155277,42.366326],[3.155019,42.36596],[3.154952,42.365975],[3.154922,42.365982],[3.154826,42.366018],[3.154807,42.366033],[3.154826,42.366066],[3.154924,42.366235],[3.154992,42.366353],[3.155062,42.366473],[3.155107,42.366527],[3.155236,42.366719],[3.155259,42.366741],[3.155283,42.366764],[3.155307,42.366786],[3.155335,42.366806],[3.155424,42.366868],[3.155519,42.366925],[3.155545,42.366939],[3.155571,42.366953],[3.155595,42.366948],[3.155596,42.366948],[3.15568,42.366995],[3.156148,42.367256],[3.156164,42.367266],[3.156199,42.367254],[3.156287,42.367225],[3.156307,42.367218],[3.157514,42.365857],[3.15753,42.36584],[3.157705,42.365677],[3.157717,42.365668],[3.158018,42.365438],[3.158205,42.365271],[3.158587,42.364931],[3.158703,42.364841],[3.158808,42.364761],[3.15885,42.36473],[3.158851,42.364729],[3.159176,42.364555],[3.159201,42.364541],[3.15928,42.364499],[3.159437,42.364407],[3.159475,42.364384],[3.159566,42.364309],[3.159625,42.364238],[3.159743,42.364094],[3.159766,42.364049],[3.159833,42.363685],[3.159818,42.363588],[3.159761,42.363502],[3.15963,42.363428],[3.159629,42.363427],[3.159588,42.363403],[3.159226,42.363773],[3.158816,42.363578]]]]}},{"type":"Feature","id":"170926_170926 AP17 AEM 3","properties":{"area_id":"170926_170926 AP17 AEM 3","nom":"la Coma","codi_icgc":"170926 AP17 AEM 3","categoria":"Àrees de poblament","codi_municipi":"170926","municipi":"Llançà","codi_comarca":"02","comarca":"Alt Empordà","provincia":"Girona","font":"ICGC Àrees de poblament v3r1 202602"},"geometry":{"type":"MultiPolygon","coordinates":[[[[3.158258,42.368221],[3.158294,42.368196],[3.15881,42.367837],[3.15953,42.367374],[3.159739,42.36724],[3.160062,42.367052],[3.160062,42.367033],[3.160077,42.367019],[3.160165,42.366926],[3.160171,42.366919],[3.160318,42.366754],[3.160338,42.366731],[3.16046,42.366586],[3.160466,42.36658],[3.160581,42.366438],[3.160583,42.366435],[3.160635,42.366366],[3.160685,42.366291],[3.160717,42.366236],[3.160759,42.366151],[3.160774,42.366116],[3.160796,42.366064],[3.160842,42.365944],[3.160875,42.36586],[3.16088,42.365843],[3.160893,42.365814],[3.160916,42.365755],[3.160958,42.365643],[3.161039,42.365428],[3.161047,42.365408],[3.161119,42.365214],[3.16108,42.365158],[3.161002,42.365046],[3.160948,42.364968],[3.160881,42.364872],[3.160564,42.36463],[3.160205,42.364265],[3.160093,42.364103],[3.159911,42.364008],[3.159819,42.364074],[3.1598,42.364088],[3.159764,42.364163],[3.159587,42.3644],[3.159494,42.36446],[3.158998,42.364732],[3.158996,42.364732],[3.15898,42.364744],[3.158731,42.364923],[3.158642,42.365005],[3.158536,42.365103],[3.158395,42.365226],[3.158255,42.365349],[3.158145,42.365443],[3.158034,42.365537],[3.157949,42.365601],[3.157944,42.365604],[3.157852,42.365669],[3.157787,42.365711],[3.157722,42.365753],[3.157697,42.365771],[3.157696,42.365772],[3.157674,42.365791],[3.157615,42.365848],[3.157556,42.365905],[3.157419,42.366067],[3.157281,42.366231],[3.15728,42.366232],[3.157071,42.366463],[3.15685,42.366708],[3.156841,42.366718],[3.156559,42.36705],[3.156557,42.367052],[3.156508,42.367107],[3.156379,42.367254],[3.156347,42.367368],[3.156336,42.367407],[3.157018,42.367785],[3.157041,42.367755],[3.157118,42.367798],[3.157116,42.367813],[3.157122,42.367832],[3.15713,42.367844],[3.157393,42.367983],[3.157847,42.368223],[3.157864,42.368228],[3.157883,42.368228],[3.157899,42.368222],[3.157904,42.368219],[3.158026,42.368249],[3.158056,42.368257],[3.158133,42.368257],[3.158255,42.368222],[3.158258,42.368221]]]]}},{"type":"Feature","id":"170926_170926 AP12 AEM 2","properties":{"area_id":"170926_170926 AP12 AEM 2","nom":"la Farella","codi_icgc":"170926 AP12 AEM 2","categoria":"Àrees de poblament","codi_municipi":"170926","municipi":"Llançà","codi_comarca":"02","comarca":"Alt Empordà","provincia":"Girona","font":"ICGC Àrees de poblament v3r1 202602"},"geometry":{"type":"MultiPolygon","coordinates":[[[[3.16049,42.366822],[3.160792,42.366657],[3.160884,42.366615],[3.160961,42.366565],[3.161084,42.366497],[3.161337,42.366359],[3.161524,42.366254],[3.161723,42.366131],[3.161825,42.366059],[3.161934,42.365986],[3.162008,42.365937],[3.162208,42.36579],[3.162185,42.365772],[3.16218,42.365768],[3.162299,42.365684],[3.162732,42.365381],[3.162846,42.365344],[3.162897,42.365328],[3.162933,42.36531],[3.162969,42.365291],[3.162993,42.365273],[3.163,42.365261],[3.162999,42.365249],[3.162998,42.365246],[3.163011,42.365237],[3.16299,42.365223],[3.162982,42.365196],[3.162956,42.365115],[3.162933,42.365033],[3.162926,42.365003],[3.162922,42.364971],[3.162922,42.364908],[3.162927,42.364866],[3.162937,42.364811],[3.162947,42.364775],[3.162929,42.364706],[3.162912,42.364636],[3.162903,42.364611],[3.162892,42.364587],[3.162863,42.364539],[3.16285,42.364518],[3.162833,42.364498],[3.162819,42.364486],[3.162813,42.364396],[3.16281,42.364375],[3.162798,42.364334],[3.162783,42.364212],[3.162767,42.36409],[3.162765,42.364084],[3.16215,42.36419],[3.162057,42.364208],[3.162076,42.364403],[3.162079,42.364434],[3.161929,42.364429],[3.161745,42.364441],[3.161655,42.36449],[3.161468,42.364646],[3.161458,42.364657],[3.161431,42.364712],[3.161293,42.365079],[3.161158,42.365436],[3.161107,42.36557],[3.161058,42.365692],[3.160949,42.365979],[3.160949,42.365979],[3.160949,42.365979],[3.160776,42.366411],[3.160449,42.36677],[3.160449,42.36677],[3.160433,42.366788],[3.160465,42.366807],[3.160465,42.366809],[3.160466,42.366808],[3.16049,42.366822]]]]}},{"type":"Feature","id":"170926_170926 AP11 AEM 2","properties":{"area_id":"170926_170926 AP11 AEM 2","nom":"les Carboneres","codi_icgc":"170926 AP11 AEM 2","categoria":"Àrees de poblament","codi_municipi":"170926","municipi":"Llançà","codi_comarca":"02","comarca":"Alt Empordà","provincia":"Girona","font":"ICGC Àrees de poblament v3r1 202602"},"geometry":{"type":"MultiPolygon","coordinates":[[[[3.16483,42.370477],[3.164927,42.370398],[3.164919,42.370392],[3.164921,42.37026],[3.164922,42.370222],[3.164922,42.370215],[3.165022,42.37012],[3.165164,42.369987],[3.165366,42.369811],[3.165467,42.369718],[3.165512,42.369669],[3.165527,42.369578],[3.165527,42.369576],[3.165523,42.369533],[3.16547,42.369487],[3.16538,42.369466],[3.165206,42.36936],[3.165159,42.369297],[3.165124,42.369132],[3.16514,42.369118],[3.165154,42.369106],[3.165159,42.369093],[3.165157,42.36908],[3.16515,42.369067],[3.165147,42.369051],[3.165195,42.369005],[3.16535,42.368923],[3.165469,42.36882],[3.1655,42.368677],[3.165675,42.368554],[3.165679,42.368551],[3.165784,42.368474],[3.16604,42.368285],[3.16606,42.368276],[3.166167,42.368232],[3.166181,42.368226],[3.166275,42.368218],[3.166318,42.368169],[3.166428,42.368123],[3.166438,42.368118],[3.166527,42.367851],[3.166477,42.367839],[3.166485,42.367784],[3.166498,42.367695],[3.166499,42.367687],[3.166497,42.367685],[3.166496,42.36762],[3.166505,42.367486],[3.16632,42.367353],[3.166319,42.367349],[3.166265,42.367232],[3.166211,42.367197],[3.166169,42.367188],[3.166131,42.367131],[3.166112,42.367124],[3.165943,42.366983],[3.165935,42.366949],[3.165869,42.366593],[3.165846,42.366523],[3.166,42.366415],[3.165964,42.366333],[3.165725,42.36639],[3.165477,42.366488],[3.165409,42.366507],[3.16537,42.366519],[3.165276,42.366546],[3.165159,42.366476],[3.16509,42.366423],[3.165073,42.36641],[3.164862,42.366253],[3.164803,42.36621],[3.164679,42.36613],[3.16467,42.365981],[3.164393,42.365913],[3.164357,42.365748],[3.164237,42.36569],[3.164215,42.365672],[3.164192,42.365654],[3.164182,42.365642],[3.164178,42.365628],[3.164181,42.365597],[3.164187,42.365566],[3.164195,42.365535],[3.164209,42.365472],[3.164217,42.365404],[3.164217,42.365334],[3.164216,42.365329],[3.164214,42.365322],[3.164204,42.365313],[3.164188,42.365308],[3.164173,42.365307],[3.164142,42.365309],[3.164112,42.365312],[3.1641,42.365313],[3.164051,42.365307],[3.164045,42.365305],[3.16401,42.365288],[3.163986,42.365281],[3.163964,42.365277],[3.163941,42.365276],[3.163928,42.365279],[3.163858,42.365312],[3.16379,42.365348],[3.163763,42.365365],[3.163673,42.365409],[3.163668,42.365411],[3.163665,42.36541],[3.16365,42.365412],[3.163366,42.365358],[3.163233,42.365316],[3.163154,42.365296],[3.16309,42.36529],[3.162948,42.365389],[3.162865,42.365447],[3.162407,42.365761],[3.162219,42.365894],[3.162191,42.365915],[3.16218,42.365923],[3.162163,42.36594],[3.162152,42.36596],[3.16215,42.365981],[3.162155,42.366002],[3.162167,42.366021],[3.162186,42.366037],[3.16221,42.366049],[3.162413,42.366093],[3.16262,42.366213],[3.162614,42.366221],[3.162592,42.366211],[3.162171,42.366743],[3.162008,42.366937],[3.162027,42.366988],[3.162053,42.367003],[3.162044,42.367029],[3.162466,42.367262],[3.162472,42.367265],[3.162993,42.367553],[3.163286,42.367802],[3.163374,42.367876],[3.163397,42.367877],[3.163479,42.367945],[3.163455,42.367957],[3.163455,42.367957],[3.163454,42.367959],[3.16341,42.367949],[3.163044,42.367971],[3.163041,42.367972],[3.162949,42.367975],[3.162887,42.367989],[3.162839,42.368015],[3.162837,42.368017],[3.162474,42.36846],[3.161772,42.369459],[3.161728,42.36944],[3.161504,42.369768],[3.161583,42.369801],[3.161611,42.369815],[3.161668,42.369836],[3.161812,42.369886],[3.161869,42.369806],[3.161894,42.369816],[3.162279,42.369971],[3.16228,42.369972],[3.162304,42.369976],[3.162401,42.369996],[3.162475,42.369878],[3.162566,42.369787],[3.162603,42.36975],[3.162796,42.370057],[3.162818,42.370092],[3.16285,42.370144],[3.162905,42.370215],[3.162963,42.370289],[3.162967,42.370294],[3.162969,42.370294],[3.162977,42.3703],[3.163014,42.37032],[3.163055,42.370335],[3.163073,42.370339],[3.163134,42.370345],[3.163195,42.370345],[3.163256,42.37034],[3.163317,42.370329],[3.163371,42.370313],[3.163543,42.370254],[3.163865,42.370364],[3.164048,42.37042],[3.164172,42.370454],[3.164328,42.37046],[3.1646,42.370457],[3.16483,42.370477],[3.16483,42.370477]]]]}}]}