{"type":"FeatureCollection","name":"ICGC Àrees de poblament - Llívia","features":[{"type":"Feature","id":"170947_170947 AP04 CER 3","properties":{"area_id":"170947_170947 AP04 CER 3","nom":"Cereja","codi_icgc":"170947 AP04 CER 3","categoria":"Àrees de poblament","codi_municipi":"170947","municipi":"Llívia","codi_comarca":"15","comarca":"Cerdanya","provincia":"Girona","font":"ICGC Àrees de poblament v3r1 202602"},"geometry":{"type":"MultiPolygon","coordinates":[[[[1.96681,42.476848],[1.966831,42.476866],[1.967054,42.47703],[1.967212,42.477169],[1.967257,42.477326],[1.967296,42.477459],[1.967328,42.477463],[1.967365,42.477467],[1.967397,42.477589],[1.967517,42.477607],[1.967886,42.477592],[1.967901,42.477573],[1.967858,42.477473],[1.967847,42.477451],[1.967863,42.477456],[1.967878,42.477465],[1.967902,42.477489],[1.967933,42.477531],[1.967951,42.477554],[1.967973,42.477574],[1.968011,42.477603],[1.968073,42.477641],[1.968138,42.477676],[1.96816,42.477686],[1.96818,42.477696],[1.968207,42.477701],[1.968224,42.4777],[1.968238,42.477694],[1.968306,42.477644],[1.968372,42.477595],[1.968447,42.47754],[1.968522,42.477487],[1.968589,42.477444],[1.968624,42.477427],[1.968662,42.477414],[1.96876,42.477389],[1.96886,42.477364],[1.968943,42.47734],[1.969047,42.477304],[1.969063,42.477299],[1.969078,42.477294],[1.969106,42.477285],[1.969099,42.477279],[1.96945,42.477148],[1.969874,42.476992],[1.970128,42.476928],[1.970241,42.476854],[1.970292,42.476821],[1.970348,42.476805],[1.970465,42.476772],[1.970497,42.476763],[1.970556,42.476767],[1.970563,42.476767],[1.970826,42.476783],[1.971295,42.476812],[1.971295,42.476806],[1.971297,42.476708],[1.971297,42.47667],[1.9713,42.476487],[1.971301,42.476463],[1.971301,42.476456],[1.971,42.476423],[1.970854,42.476374],[1.970279,42.476163],[1.970214,42.47615],[1.970164,42.47613],[1.970156,42.476126],[1.97015,42.476119],[1.970141,42.476106],[1.970124,42.476088],[1.970093,42.476066],[1.970081,42.476057],[1.970054,42.476037],[1.970013,42.476007],[1.969977,42.475988],[1.969936,42.475974],[1.969868,42.475957],[1.969798,42.475945],[1.969774,42.475943],[1.969748,42.475943],[1.969699,42.475946],[1.969736,42.475937],[1.969768,42.475927],[1.969791,42.475922],[1.969814,42.475919],[1.969863,42.475918],[1.969935,42.475921],[1.970007,42.47593],[1.970075,42.475943],[1.970141,42.475958],[1.970206,42.475976],[1.970269,42.475998],[1.970334,42.476024],[1.9704,42.476052],[1.970464,42.476075],[1.97048,42.476081],[1.97053,42.476101],[1.970565,42.476111],[1.970694,42.47612],[1.970717,42.476118],[1.970772,42.476109],[1.970801,42.476101],[1.970838,42.476083],[1.970855,42.47607],[1.97087,42.476055],[1.970878,42.476041],[1.970883,42.47602],[1.970881,42.476],[1.970874,42.475974],[1.970862,42.475949],[1.970847,42.475922],[1.970825,42.475896],[1.970798,42.475876],[1.970756,42.47585],[1.97071,42.47583],[1.970636,42.475802],[1.970624,42.475786],[1.970563,42.475771],[1.970549,42.475766],[1.970507,42.475756],[1.970452,42.475743],[1.970453,42.475693],[1.9703,42.475613],[1.970279,42.475444],[1.970112,42.475345],[1.970109,42.475327],[1.969955,42.475288],[1.969923,42.475272],[1.969944,42.475124],[1.969736,42.475084],[1.969716,42.475082],[1.969514,42.47504],[1.969507,42.47501],[1.969409,42.475027],[1.969258,42.475092],[1.969133,42.475146],[1.969092,42.475158],[1.969046,42.475175],[1.968937,42.475225],[1.968831,42.475276],[1.968726,42.475329],[1.968623,42.475384],[1.968529,42.475438],[1.968436,42.475492],[1.968295,42.475561],[1.968205,42.475605],[1.968115,42.475653],[1.968038,42.475694],[1.967904,42.475786],[1.967823,42.475837],[1.967752,42.475894],[1.967733,42.475916],[1.967695,42.47596],[1.967643,42.476015],[1.967613,42.475997],[1.967538,42.475968],[1.967535,42.475967],[1.96743,42.475995],[1.967378,42.476017],[1.967309,42.476173],[1.967107,42.47633],[1.967191,42.476358],[1.967242,42.476433],[1.967206,42.476521],[1.967262,42.476554],[1.967344,42.476568],[1.967357,42.476588],[1.967362,42.476596],[1.967345,42.476613],[1.967301,42.476662],[1.967253,42.47671],[1.967235,42.47673],[1.967221,42.476738],[1.967203,42.476745],[1.96716,42.476755],[1.967103,42.476767],[1.967065,42.476768],[1.967012,42.476784],[1.966849,42.476833],[1.966836,42.476838],[1.96682,42.476844],[1.96681,42.476848]]]]}},{"type":"Feature","id":"170947_170947 AP05 CER 3","properties":{"area_id":"170947_170947 AP05 CER 3","nom":"Gorguja","codi_icgc":"170947 AP05 CER 3","categoria":"Àrees de poblament","codi_municipi":"170947","municipi":"Llívia","codi_comarca":"15","comarca":"Cerdanya","provincia":"Girona","font":"ICGC Àrees de poblament v3r1 202602"},"geometry":{"type":"MultiPolygon","coordinates":[[[[2.003924,42.4566],[2.003839,42.4566],[2.003662,42.456596],[2.00344,42.456592],[2.003218,42.456589],[2.00315,42.456587],[2.003115,42.456583],[2.003082,42.456575],[2.003043,42.456559],[2.002993,42.456527],[2.002941,42.456498],[2.002851,42.456458],[2.00276,42.456419],[2.002705,42.456398],[2.002649,42.456378],[2.002628,42.456372],[2.002606,42.456369],[2.002613,42.456364],[2.002553,42.456369],[2.002537,42.456372],[2.002515,42.456379],[2.002478,42.456397],[2.002422,42.456426],[2.002394,42.456437],[2.002363,42.456443],[2.002344,42.456444],[2.002325,42.456444],[2.002287,42.45644],[2.002269,42.456437],[2.002253,42.45643],[2.002209,42.456404],[2.002186,42.456378],[2.002171,42.456365],[2.002115,42.456315],[2.002105,42.456309],[2.002096,42.456303],[2.002075,42.456294],[2.002044,42.45629],[2.001994,42.456291],[2.001944,42.456292],[2.001784,42.456379],[2.001744,42.456409],[2.001704,42.45644],[2.001674,42.456455],[2.00164,42.456466],[2.001598,42.456476],[2.001556,42.456481],[2.001493,42.456484],[2.001398,42.456484],[2.001304,42.456477],[2.001216,42.456466],[2.001172,42.456458],[2.001129,42.456447],[2.001112,42.456442],[2.001097,42.456434],[2.001082,42.456425],[2.001067,42.456415],[2.001017,42.456355],[2.000955,42.456303],[2.000888,42.456253],[2.000834,42.456212],[2.000762,42.456224],[2.000688,42.456202],[2.000654,42.456242],[2.000587,42.456341],[2.000453,42.456531],[2.000316,42.456635],[2.000332,42.456658],[2.000361,42.456713],[2.000373,42.456737],[2.000405,42.456775],[2.000773,42.457101],[2.000819,42.457132],[2.000884,42.457127],[2.000967,42.457553],[2.000972,42.457565],[2.001011,42.457659],[2.001015,42.457668],[2.001018,42.45767],[2.001276,42.457791],[2.001318,42.457775],[2.001328,42.457782],[2.001351,42.457799],[2.001463,42.457748],[2.001523,42.457721],[2.001623,42.457669],[2.001802,42.457567],[2.002097,42.4574],[2.002245,42.457323],[2.002241,42.457316],[2.002292,42.457287],[2.001973,42.456978],[2.00185,42.456862],[2.001938,42.456781],[2.002019,42.456716],[2.002075,42.456674],[2.002159,42.456621],[2.002237,42.456579],[2.002276,42.456608],[2.002458,42.456774],[2.002479,42.456762],[2.002728,42.456613],[2.002895,42.456537],[2.00293,42.456561],[2.002941,42.456568],[2.002976,42.456587],[2.003006,42.456602],[2.00304,42.456614],[2.003083,42.456625],[2.00312,42.456629],[2.00321,42.456637],[2.003299,42.456642],[2.003359,42.456644],[2.003461,42.456643],[2.003564,42.456642],[2.003632,42.456642],[2.003768,42.456645],[2.003903,42.456648],[2.003996,42.45665],[2.004096,42.456652],[2.004193,42.456651],[2.00425,42.45665],[2.004389,42.456642],[2.004396,42.456641],[2.004482,42.456639],[2.004658,42.456632],[2.004834,42.456626],[2.005064,42.456617],[2.005133,42.456614],[2.005179,42.456613],[2.005271,42.45661],[2.005912,42.456606],[2.006,42.456605],[2.006353,42.456595],[2.006341,42.456513],[2.006257,42.45636],[2.006092,42.456058],[2.005954,42.455843],[2.005892,42.455694],[2.005874,42.455661],[2.00555,42.455815],[2.005055,42.456045],[2.004577,42.456258],[2.004318,42.456384],[2.003997,42.45657],[2.003924,42.4566]]]]}},{"type":"Feature","id":"170947_170947 AP02 CER 2","properties":{"area_id":"170947_170947 AP02 CER 2","nom":"Gorguja Petita","codi_icgc":"170947 AP02 CER 2","categoria":"Àrees de poblament","codi_municipi":"170947","municipi":"Llívia","codi_comarca":"15","comarca":"Cerdanya","provincia":"Girona","font":"ICGC Àrees de poblament v3r1 202602"},"geometry":{"type":"MultiPolygon","coordinates":[[[[1.997552,42.45441],[1.997679,42.454322],[1.997816,42.454198],[1.997968,42.45406],[1.998105,42.453933],[1.998213,42.453837],[1.99832,42.453795],[1.998499,42.453732],[1.998922,42.453582],[1.998771,42.453367],[1.998513,42.453461],[1.998363,42.453517],[1.998437,42.45371],[1.998345,42.453735],[1.998253,42.453762],[1.99818,42.453805],[1.998102,42.45385],[1.997915,42.45366],[1.997754,42.453544],[1.997594,42.453596],[1.997434,42.453655],[1.997225,42.453707],[1.997007,42.454087],[1.997101,42.454238],[1.996761,42.454378],[1.997079,42.454703],[1.997127,42.454728],[1.99721,42.454668],[1.997269,42.454619],[1.997306,42.454683],[1.997382,42.454784],[1.997524,42.45496],[1.997772,42.45487],[1.997591,42.454689],[1.99756,42.454528],[1.997552,42.45441]]]]}},{"type":"Feature","id":"170947_170947 AP01 CER 3","properties":{"area_id":"170947_170947 AP01 CER 3","nom":"Llívia","codi_icgc":"170947 AP01 CER 3","categoria":"Àrees de poblament","codi_municipi":"170947","municipi":"Llívia","codi_comarca":"15","comarca":"Cerdanya","provincia":"Girona","font":"ICGC Àrees de poblament v3r1 202602"},"geometry":{"type":"MultiPolygon","coordinates":[[[[1.989681,42.464022],[1.989736,42.463856],[1.989758,42.4638],[1.989873,42.46354],[1.990079,42.463596],[1.990565,42.463721],[1.990752,42.463809],[1.991005,42.463951],[1.991178,42.464041],[1.991245,42.464056],[1.991318,42.464053],[1.991366,42.464036],[1.991459,42.463951],[1.991548,42.463852],[1.991572,42.463813],[1.991554,42.463759],[1.991521,42.463705],[1.991546,42.463659],[1.991288,42.463513],[1.990838,42.463266],[1.990328,42.463137],[1.990088,42.46307],[1.990001,42.46307],[1.989919,42.463094],[1.98986,42.46314],[1.989775,42.463296],[1.989735,42.463371],[1.989711,42.463403],[1.989653,42.463413],[1.989537,42.463376],[1.989316,42.463321],[1.989124,42.463258],[1.988999,42.463211],[1.988909,42.463164],[1.988827,42.463156],[1.988754,42.463177],[1.988691,42.463183],[1.988628,42.463175],[1.988563,42.463157],[1.98865,42.46305],[1.98888,42.462785],[1.98896,42.462642],[1.989024,42.46251],[1.989026,42.462505],[1.98893,42.462482],[1.988879,42.46247],[1.988817,42.462446],[1.988758,42.462427],[1.988747,42.462423],[1.988719,42.462411],[1.988682,42.462395],[1.988614,42.462371],[1.988557,42.462353],[1.9885,42.462335],[1.98845,42.462318],[1.9884,42.462301],[1.988355,42.462289],[1.98831,42.462278],[1.988264,42.462267],[1.988218,42.462258],[1.988162,42.462251],[1.988134,42.46225],[1.988106,42.462252],[1.98815,42.462224],[1.988177,42.462213],[1.988227,42.462188],[1.988274,42.462159],[1.988301,42.462139],[1.98831,42.462133],[1.98834,42.462104],[1.988373,42.462066],[1.988404,42.462029],[1.988442,42.461983],[1.988452,42.461975],[1.988494,42.461942],[1.988477,42.461961],[1.988473,42.46197],[1.988472,42.461979],[1.988476,42.461987],[1.988489,42.461997],[1.988506,42.462006],[1.988578,42.462039],[1.988686,42.462082],[1.988768,42.462113],[1.988803,42.462068],[1.988821,42.462075],[1.988982,42.46213],[1.989129,42.462139],[1.989417,42.462172],[1.989594,42.462173],[1.98971,42.462186],[1.989854,42.462179],[1.989878,42.462174],[1.989919,42.462172],[1.990014,42.462166],[1.990026,42.462104],[1.990067,42.461901],[1.990095,42.461635],[1.9901,42.461586],[1.990104,42.461567],[1.990113,42.46152],[1.99013,42.461421],[1.990145,42.461322],[1.990156,42.461223],[1.990168,42.461126],[1.990182,42.461032],[1.990197,42.460938],[1.990207,42.460878],[1.990216,42.460818],[1.990217,42.460799],[1.99021,42.460772],[1.9902,42.460745],[1.990178,42.46071],[1.990147,42.460677],[1.990133,42.460667],[1.990127,42.460662],[1.990094,42.460646],[1.990057,42.460634],[1.990026,42.460629],[1.989979,42.460628],[1.989933,42.460634],[1.989881,42.460649],[1.989833,42.460669],[1.989738,42.460721],[1.989645,42.460774],[1.989517,42.460851],[1.989509,42.460857],[1.98939,42.460928],[1.989236,42.461015],[1.98908,42.461101],[1.988987,42.461156],[1.988984,42.461158],[1.988894,42.46121],[1.988781,42.461269],[1.988667,42.461327],[1.988538,42.461394],[1.988409,42.461462],[1.988316,42.461514],[1.988228,42.461571],[1.988198,42.461593],[1.988159,42.46163],[1.988143,42.461651],[1.988134,42.461669],[1.988122,42.461707],[1.988104,42.461765],[1.988121,42.461772],[1.988171,42.461787],[1.988263,42.461813],[1.988364,42.461839],[1.988388,42.461848],[1.988408,42.461867],[1.988413,42.461874],[1.988415,42.461887],[1.988413,42.461897],[1.988373,42.461952],[1.988371,42.461955],[1.988335,42.461998],[1.988311,42.462027],[1.988305,42.462035],[1.988275,42.46207],[1.98825,42.462093],[1.988221,42.462114],[1.988178,42.46214],[1.988137,42.462135],[1.988086,42.462088],[1.988085,42.462079],[1.988082,42.46207],[1.988079,42.462061],[1.988075,42.462052],[1.988064,42.462039],[1.988054,42.462026],[1.988027,42.462008],[1.987974,42.46197],[1.987919,42.461935],[1.987878,42.461914],[1.987852,42.461903],[1.987825,42.461894],[1.987768,42.461882],[1.987729,42.461878],[1.987629,42.461871],[1.987529,42.461865],[1.987357,42.461858],[1.987186,42.461852],[1.987119,42.461849],[1.98707,42.46183],[1.987056,42.461826],[1.986848,42.461814],[1.986793,42.46181],[1.986638,42.4618],[1.986514,42.461789],[1.986278,42.461762],[1.986043,42.461732],[1.985899,42.461711],[1.985756,42.461687],[1.985675,42.461668],[1.985662,42.461665],[1.985421,42.4616],[1.985182,42.461532],[1.985122,42.461515],[1.98507,42.4615],[1.985067,42.461482],[1.985066,42.461479],[1.984872,42.461415],[1.984842,42.461423],[1.98432,42.461551],[1.984305,42.461555],[1.984301,42.461586],[1.984216,42.461638],[1.984168,42.461818],[1.983441,42.462274],[1.983452,42.462308],[1.98349,42.46241],[1.983343,42.462443],[1.983317,42.462449],[1.983237,42.462467],[1.983251,42.462735],[1.983251,42.462745],[1.98323,42.462771],[1.98322,42.462783],[1.983149,42.462792],[1.982926,42.462808],[1.982917,42.462809],[1.982625,42.462963],[1.982592,42.462992],[1.982502,42.46301],[1.981772,42.463175],[1.981706,42.463168],[1.981669,42.463164],[1.981666,42.463144],[1.981659,42.463098],[1.981655,42.463029],[1.981617,42.462624],[1.981619,42.46259],[1.98162,42.462584],[1.981625,42.462509],[1.981625,42.462504],[1.981191,42.462522],[1.981142,42.462524],[1.981124,42.462522],[1.981089,42.462519],[1.981084,42.462519],[1.981065,42.462514],[1.981045,42.462495],[1.98115,42.461642],[1.981214,42.461653],[1.981349,42.461665],[1.981439,42.461674],[1.981564,42.461677],[1.98164,42.461678],[1.981647,42.461587],[1.981667,42.461353],[1.98167,42.461307],[1.981547,42.461302],[1.98142,42.461297],[1.981414,42.461292],[1.98134,42.461223],[1.981096,42.460999],[1.981049,42.461103],[1.980678,42.461],[1.980408,42.460935],[1.980223,42.46089],[1.980225,42.460884],[1.980341,42.460541],[1.980453,42.460213],[1.980458,42.460199],[1.981024,42.460402],[1.981495,42.460571],[1.981553,42.460557],[1.981579,42.460457],[1.981591,42.460314],[1.981582,42.460246],[1.981569,42.460157],[1.981584,42.4601],[1.981727,42.459958],[1.98185,42.45982],[1.981914,42.459738],[1.98113,42.459563],[1.981189,42.459471],[1.98152,42.459016],[1.98142,42.458936],[1.981267,42.458846],[1.981181,42.458788],[1.981033,42.458686],[1.980932,42.458646],[1.980851,42.458613],[1.98074,42.458591],[1.980639,42.458586],[1.980552,42.458596],[1.980469,42.458617],[1.980425,42.458667],[1.979933,42.459835],[1.979764,42.460214],[1.979754,42.460293],[1.979723,42.460997],[1.979731,42.46109],[1.979709,42.461187],[1.979429,42.461156],[1.979259,42.461129],[1.979085,42.461103],[1.977908,42.460928],[1.978023,42.460714],[1.977983,42.460706],[1.977982,42.460708],[1.977458,42.460519],[1.977369,42.460481],[1.976961,42.461052],[1.976821,42.461253],[1.977113,42.461475],[1.977036,42.461596],[1.977009,42.461636],[1.976962,42.461632],[1.97691,42.461624],[1.976817,42.461588],[1.976109,42.46132],[1.976023,42.461287],[1.975935,42.461276],[1.975911,42.461268],[1.975892,42.461262],[1.975821,42.461238],[1.975752,42.461214],[1.975659,42.461177],[1.975564,42.461138],[1.975511,42.461116],[1.975407,42.461066],[1.975316,42.46102],[1.975231,42.460977],[1.97518,42.460949],[1.975077,42.460886],[1.974976,42.460823],[1.974916,42.460789],[1.974894,42.460777],[1.97485,42.460753],[1.974829,42.460741],[1.974742,42.460691],[1.974502,42.460575],[1.974372,42.460512],[1.974142,42.460397],[1.973887,42.460269],[1.973548,42.460109],[1.973057,42.459852],[1.972981,42.459811],[1.972642,42.459629],[1.972565,42.459578],[1.972521,42.459549],[1.972331,42.459424],[1.971886,42.459823],[1.973298,42.460756],[1.973747,42.461046],[1.973555,42.46123],[1.973487,42.461296],[1.973275,42.461492],[1.973177,42.461583],[1.972508,42.46121],[1.972072,42.461612],[1.971954,42.461745],[1.971874,42.461834],[1.971928,42.461866],[1.972179,42.462016],[1.972232,42.462047],[1.97323,42.462599],[1.973277,42.462629],[1.97332,42.462656],[1.97332,42.462666],[1.97332,42.462675],[1.973313,42.46269],[1.973293,42.462704],[1.973248,42.462744],[1.973208,42.462823],[1.973201,42.462836],[1.973193,42.462847],[1.973074,42.462999],[1.972719,42.463553],[1.972708,42.463569],[1.972674,42.463622],[1.972745,42.463635],[1.972721,42.463791],[1.972714,42.463835],[1.972698,42.463937],[1.972673,42.464066],[1.972682,42.464067],[1.972799,42.464077],[1.973221,42.464156],[1.973174,42.464302],[1.973895,42.464434],[1.973937,42.464263],[1.974462,42.464359],[1.974469,42.46435],[1.974479,42.464333],[1.975533,42.464517],[1.975452,42.464923],[1.976008,42.464908],[1.976014,42.464908],[1.976016,42.464699],[1.976016,42.464662],[1.976017,42.464657],[1.976025,42.464551],[1.976117,42.464556],[1.976821,42.464604],[1.976828,42.464617],[1.976831,42.464621],[1.976927,42.464761],[1.977186,42.465139],[1.977281,42.465284],[1.977301,42.465315],[1.977306,42.465323],[1.977356,42.465285],[1.977449,42.465214],[1.977507,42.465171],[1.977675,42.465084],[1.977784,42.465034],[1.978178,42.465463],[1.978206,42.465492],[1.97764,42.465628],[1.977698,42.465793],[1.977706,42.465818],[1.977713,42.46583],[1.97775,42.465948],[1.978403,42.465771],[1.97855,42.465731],[1.978554,42.465752],[1.978606,42.465748],[1.978623,42.465746],[1.978632,42.465746],[1.978727,42.46605],[1.978811,42.46632],[1.97882,42.466326],[1.978849,42.466345],[1.978883,42.466346],[1.978913,42.466343],[1.979012,42.466339],[1.979259,42.466734],[1.979427,42.466984],[1.979631,42.467299],[1.979799,42.467555],[1.979891,42.467684],[1.979934,42.467746],[1.979992,42.467833],[1.980019,42.467873],[1.980047,42.467913],[1.980182,42.46811],[1.980253,42.468055],[1.980282,42.468035],[1.980306,42.468018],[1.980358,42.467966],[1.980391,42.467923],[1.980392,42.467871],[1.980383,42.467777],[1.980503,42.46792],[1.980513,42.467918],[1.98052,42.467917],[1.98053,42.467907],[1.980545,42.467902],[1.980559,42.467897],[1.980583,42.467908],[1.980589,42.467913],[1.980698,42.468002],[1.980734,42.468031],[1.980749,42.468047],[1.980827,42.468096],[1.980844,42.468107],[1.980925,42.468126],[1.980945,42.468126],[1.980944,42.468123],[1.980986,42.46812],[1.98103,42.468107],[1.981067,42.468092],[1.981133,42.46806],[1.981185,42.46803],[1.981271,42.467981],[1.981258,42.468004],[1.981282,42.468091],[1.981756,42.468097],[1.981768,42.468086],[1.981799,42.468039],[1.981843,42.467974],[1.981867,42.467912],[1.981873,42.467876],[1.981878,42.467833],[1.981879,42.46779],[1.981867,42.467759],[1.981865,42.467755],[1.981861,42.467726],[1.981839,42.467596],[1.981839,42.467592],[1.98184,42.467455],[1.981885,42.467069],[1.98189,42.467039],[1.981898,42.466998],[1.981947,42.46683],[1.982104,42.466437],[1.982118,42.466406],[1.982183,42.466241],[1.982135,42.466186],[1.982043,42.466141],[1.982098,42.466019],[1.982224,42.465895],[1.98229,42.465836],[1.982444,42.465769],[1.982609,42.46572],[1.982665,42.465741],[1.982783,42.465704],[1.98289,42.465761],[1.983373,42.465512],[1.983254,42.465383],[1.983121,42.465431],[1.982904,42.465086],[1.982931,42.465078],[1.983085,42.465029],[1.983197,42.464946],[1.983259,42.464878],[1.98331,42.464836],[1.983475,42.464702],[1.983514,42.464657],[1.983562,42.464599],[1.983604,42.464552],[1.983646,42.464505],[1.983679,42.464471],[1.983715,42.464438],[1.983742,42.464417],[1.983785,42.46439],[1.983831,42.464366],[1.983899,42.464334],[1.983968,42.464304],[1.984077,42.46426],[1.984185,42.464216],[1.984285,42.464172],[1.984384,42.464126],[1.984451,42.464092],[1.984518,42.464056],[1.98459,42.464015],[1.984661,42.463973],[1.984745,42.463921],[1.984786,42.463894],[1.984826,42.463866],[1.984848,42.463844],[1.984861,42.463818],[1.984896,42.463721],[1.984906,42.463692],[1.984914,42.463669],[1.984926,42.463618],[1.984933,42.463574],[1.984937,42.463547],[1.984935,42.46352],[1.984929,42.463504],[1.984923,42.463498],[1.984915,42.463494],[1.9849,42.463493],[1.984941,42.463456],[1.984983,42.463419],[1.984993,42.463412],[1.985015,42.463404],[1.985092,42.463389],[1.985135,42.463371],[1.985158,42.463363],[1.98518,42.463359],[1.985206,42.46336],[1.985246,42.463369],[1.985285,42.463377],[1.985391,42.463391],[1.985469,42.463401],[1.985498,42.463422],[1.985504,42.463443],[1.985483,42.463461],[1.985404,42.463482],[1.985363,42.463506],[1.985458,42.463585],[1.985493,42.463593],[1.985506,42.463609],[1.98574,42.463572],[1.985729,42.463542],[1.985683,42.4635],[1.985666,42.463467],[1.985678,42.463432],[1.985694,42.463435],[1.985738,42.463439],[1.985805,42.463441],[1.985823,42.463441],[1.985872,42.463439],[1.985969,42.463432],[1.986017,42.463427],[1.986064,42.463421],[1.986159,42.463408],[1.98623,42.463395],[1.986204,42.463454],[1.986199,42.463466],[1.986218,42.463468],[1.986253,42.463468],[1.986463,42.463488],[1.986462,42.463517],[1.986477,42.463519],[1.986605,42.46352],[1.986599,42.463534],[1.986692,42.463538],[1.986691,42.463569],[1.986844,42.463576],[1.987016,42.463578],[1.987017,42.463554],[1.98694,42.463552],[1.986986,42.463455],[1.987008,42.463459],[1.987066,42.46347],[1.987091,42.463474],[1.987139,42.463481],[1.987532,42.463549],[1.988013,42.46363],[1.988175,42.463665],[1.988196,42.463666],[1.988476,42.463681],[1.988505,42.463682],[1.988544,42.463695],[1.98871,42.463752],[1.988953,42.463834],[1.989088,42.463892],[1.989226,42.463942],[1.989312,42.463964],[1.989492,42.463995],[1.989627,42.464012],[1.989681,42.464022]]]]}},{"type":"Feature","id":"170947_170947 AP03 CER 2","properties":{"area_id":"170947_170947 AP03 CER 2","nom":"Llívia Parc","codi_icgc":"170947 AP03 CER 2","categoria":"Àrees de poblament","codi_municipi":"170947","municipi":"Llívia","codi_comarca":"15","comarca":"Cerdanya","provincia":"Girona","font":"ICGC Àrees de poblament v3r1 202602"},"geometry":{"type":"MultiPolygon","coordinates":[[[[1.984534,42.460871],[1.98457,42.460896],[1.984586,42.460907],[1.984746,42.461019],[1.984953,42.461157],[1.985092,42.461204],[1.98517,42.461165],[1.985218,42.461152],[1.985231,42.461154],[1.985336,42.461189],[1.985441,42.461225],[1.985538,42.461258],[1.985615,42.461284],[1.985791,42.461342],[1.985881,42.461369],[1.985928,42.46138],[1.985977,42.461387],[1.986192,42.46141],[1.986407,42.461433],[1.986681,42.461463],[1.986955,42.461494],[1.987172,42.461516],[1.98739,42.461536],[1.987562,42.461548],[1.987646,42.461557],[1.987687,42.461563],[1.987726,42.461572],[1.987828,42.461549],[1.987863,42.461529],[1.987926,42.461486],[1.988003,42.461435],[1.988074,42.461387],[1.988113,42.461363],[1.988143,42.461347],[1.988196,42.461348],[1.988198,42.461348],[1.988272,42.461346],[1.988321,42.461317],[1.988394,42.461274],[1.988527,42.46119],[1.988616,42.461133],[1.988669,42.461102],[1.988726,42.461063],[1.988798,42.461005],[1.988842,42.46097],[1.988879,42.460938],[1.988887,42.460924],[1.988915,42.460885],[1.988917,42.460884],[1.988916,42.460883],[1.988908,42.460877],[1.988876,42.460838],[1.988875,42.460838],[1.988859,42.460818],[1.988888,42.460803],[1.98891,42.46079],[1.988858,42.46074],[1.988694,42.460557],[1.98867,42.460567],[1.988664,42.460561],[1.988799,42.46049],[1.988898,42.460438],[1.988864,42.460402],[1.988795,42.460332],[1.988684,42.460227],[1.988574,42.460121],[1.988491,42.460039],[1.988431,42.459979],[1.988409,42.459956],[1.988321,42.459864],[1.988233,42.45977],[1.988202,42.459746],[1.988165,42.459728],[1.988152,42.459724],[1.988137,42.459724],[1.988115,42.459727],[1.987869,42.459862],[1.987754,42.459935],[1.987724,42.459955],[1.987607,42.460033],[1.987594,42.460041],[1.987459,42.460131],[1.987353,42.4602],[1.987246,42.460269],[1.987165,42.460321],[1.987081,42.460371],[1.98706,42.460382],[1.987038,42.460391],[1.987023,42.460393],[1.986999,42.46039],[1.986974,42.460385],[1.986926,42.460368],[1.986872,42.460348],[1.986818,42.460327],[1.986735,42.4603],[1.986653,42.460273],[1.986576,42.46025],[1.986499,42.460228],[1.986428,42.460202],[1.986358,42.460171],[1.986323,42.460157],[1.986308,42.46015],[1.986296,42.460139],[1.986275,42.460114],[1.986254,42.460088],[1.986227,42.460053],[1.9862,42.460019],[1.986165,42.459976],[1.986129,42.459933],[1.986114,42.45991],[1.986103,42.459886],[1.9861,42.459871],[1.986103,42.459847],[1.986102,42.459834],[1.986097,42.459823],[1.98609,42.459817],[1.986085,42.459815],[1.986082,42.459816],[1.986084,42.45981],[1.986011,42.459751],[1.985807,42.459606],[1.98568,42.459509],[1.985528,42.459393],[1.98532,42.459225],[1.985178,42.459319],[1.985039,42.459419],[1.985007,42.459451],[1.984822,42.459594],[1.984471,42.459386],[1.984388,42.459361],[1.984219,42.459484],[1.984095,42.459543],[1.984081,42.459541],[1.984067,42.459536],[1.984053,42.459526],[1.984038,42.459512],[1.984027,42.4595],[1.984021,42.459493],[1.983925,42.459343],[1.983833,42.459373],[1.983804,42.459387],[1.983477,42.459554],[1.983257,42.459676],[1.983101,42.459731],[1.982984,42.459797],[1.982915,42.459807],[1.982911,42.45981],[1.982858,42.459848],[1.982882,42.459864],[1.982983,42.45992],[1.983084,42.459975],[1.983211,42.460044],[1.983339,42.460114],[1.983501,42.460202],[1.983663,42.46029],[1.983758,42.460341],[1.983851,42.460394],[1.98391,42.460431],[1.984059,42.460536],[1.984207,42.460642],[1.984371,42.460756],[1.984534,42.460871]]]]}}]}