{"type":"FeatureCollection","name":"ICGC Àrees de poblament - Olot","features":[{"type":"Feature","id":"171143_171143 AP06 GAX 3","properties":{"area_id":"171143_171143 AP06 GAX 3","nom":"Batet de la Serra","codi_icgc":"171143 AP06 GAX 3","categoria":"Àrees de poblament","codi_municipi":"171143","municipi":"Olot","codi_comarca":"19","comarca":"Garrotxa","provincia":"Girona","font":"ICGC Àrees de poblament v3r1 202602"},"geometry":{"type":"MultiPolygon","coordinates":[[[[2.5176,42.179239],[2.517625,42.179235],[2.517753,42.179227],[2.517815,42.179202],[2.517834,42.179195],[2.517836,42.179194],[2.517838,42.179193],[2.517877,42.179174],[2.517912,42.179157],[2.51804,42.179067],[2.518101,42.179019],[2.518105,42.179018],[2.518095,42.178981],[2.518092,42.178969],[2.518093,42.178944],[2.518094,42.17894],[2.518101,42.178929],[2.518139,42.178865],[2.518223,42.178757],[2.518291,42.178663],[2.518286,42.178651],[2.518284,42.178636],[2.518253,42.1786],[2.51825,42.178597],[2.518242,42.178588],[2.51826,42.178574],[2.518274,42.178562],[2.518253,42.178538],[2.518238,42.178521],[2.518123,42.178369],[2.518123,42.178346],[2.518135,42.17826],[2.518186,42.17821],[2.518282,42.178149],[2.518353,42.178095],[2.518366,42.178042],[2.518368,42.178033],[2.518396,42.178008],[2.518421,42.177987],[2.518542,42.177899],[2.518627,42.177871],[2.518704,42.17782],[2.518728,42.177805],[2.518762,42.177784],[2.518764,42.177773],[2.51877,42.177757],[2.518774,42.177741],[2.518776,42.177709],[2.518776,42.177701],[2.518772,42.177677],[2.518759,42.177645],[2.51874,42.177617],[2.518714,42.177591],[2.518705,42.177584],[2.518695,42.17757],[2.518675,42.177532],[2.518661,42.177491],[2.518655,42.17745],[2.518657,42.177409],[2.518688,42.177267],[2.518717,42.177193],[2.518782,42.177141],[2.518902,42.17709],[2.518933,42.177079],[2.51894,42.177059],[2.518817,42.177055],[2.518815,42.177055],[2.518743,42.177053],[2.518699,42.177043],[2.518654,42.177029],[2.518616,42.177015],[2.518583,42.177003],[2.51844,42.177033],[2.518388,42.177046],[2.518365,42.177051],[2.518087,42.177119],[2.518088,42.177547],[2.518088,42.177551],[2.517838,42.177475],[2.517634,42.177437],[2.517422,42.177345],[2.517344,42.177333],[2.517307,42.177357],[2.517301,42.177368],[2.517289,42.177405],[2.517289,42.177409],[2.517289,42.177433],[2.517288,42.177455],[2.517224,42.177482],[2.517342,42.177633],[2.517347,42.17764],[2.517306,42.177651],[2.517308,42.177666],[2.517311,42.177671],[2.517415,42.177807],[2.51739,42.177907],[2.517452,42.177934],[2.517438,42.177986],[2.51743,42.178016],[2.517426,42.178035],[2.51739,42.178151],[2.517383,42.178162],[2.517367,42.178185],[2.517363,42.178187],[2.517352,42.178273],[2.517327,42.178345],[2.517284,42.178369],[2.517221,42.178399],[2.517221,42.1784],[2.517167,42.178462],[2.517166,42.178559],[2.517174,42.178589],[2.517236,42.178789],[2.517336,42.178857],[2.517365,42.178929],[2.517383,42.178968],[2.517426,42.179026],[2.517488,42.179162],[2.517524,42.179249],[2.517542,42.179247],[2.5176,42.179239]]]]}},{"type":"Feature","id":"171143_171143 SI05 GAX 2","properties":{"area_id":"171143_171143 SI05 GAX 2","nom":"Can Gou","codi_icgc":"171143 SI05 GAX 2","categoria":"Sector industrial","codi_municipi":"171143","municipi":"Olot","codi_comarca":"19","comarca":"Garrotxa","provincia":"Girona","font":"ICGC Àrees de poblament v3r1 202602"},"geometry":{"type":"MultiPolygon","coordinates":[[[[2.484404,42.170619],[2.484365,42.17063],[2.484328,42.170645],[2.484319,42.17065],[2.484303,42.170658],[2.484263,42.170676],[2.48407,42.170757],[2.483957,42.170805],[2.483745,42.170901],[2.483852,42.171029],[2.483894,42.171079],[2.484075,42.171292],[2.484154,42.171394],[2.484356,42.171623],[2.484619,42.171921],[2.48462,42.171921],[2.484631,42.171934],[2.485486,42.171535],[2.485614,42.171484],[2.485484,42.17134],[2.485311,42.171129],[2.485119,42.17089],[2.484931,42.170685],[2.48487,42.170636],[2.484826,42.170611],[2.484749,42.170593],[2.484652,42.170585],[2.48456,42.170592],[2.484438,42.170615],[2.484404,42.170619]]]]}},{"type":"Feature","id":"171143_171143 AP01 GAX 3","properties":{"area_id":"171143_171143 AP01 GAX 3","nom":"Olot","codi_icgc":"171143 AP01 GAX 3","categoria":"Àrees de poblament","codi_municipi":"171143","municipi":"Olot","codi_comarca":"19","comarca":"Garrotxa","provincia":"Girona","font":"ICGC Àrees de poblament v3r1 202602"},"geometry":{"type":"MultiPolygon","coordinates":[[[[2.501938,42.193114],[2.501949,42.193076],[2.504049,42.193503],[2.504176,42.193434],[2.504619,42.192099],[2.502934,42.191795],[2.502861,42.191721],[2.50262,42.191677],[2.501941,42.191553],[2.501986,42.191437],[2.502087,42.191173],[2.502351,42.190495],[2.503249,42.190659],[2.503403,42.190218],[2.503603,42.189639],[2.504581,42.189809],[2.504474,42.190177],[2.504281,42.190818],[2.504271,42.190851],[2.504283,42.190854],[2.507883,42.191522],[2.508435,42.191624],[2.508944,42.191004],[2.508874,42.190998],[2.508887,42.190906],[2.508815,42.190798],[2.508744,42.190721],[2.508619,42.190643],[2.508212,42.190581],[2.508197,42.190558],[2.50815,42.190429],[2.508141,42.190322],[2.510262,42.189143],[2.510207,42.189088],[2.510221,42.189077],[2.510131,42.188995],[2.510001,42.18886],[2.509435,42.188872],[2.508612,42.188901],[2.508371,42.18891],[2.50811,42.189045],[2.507552,42.189294],[2.507512,42.189321],[2.507502,42.189347],[2.507544,42.189407],[2.507556,42.189467],[2.507552,42.189517],[2.507201,42.189417],[2.507121,42.189398],[2.507182,42.189243],[2.507275,42.189003],[2.506851,42.189019],[2.506657,42.189026],[2.506253,42.189028],[2.506249,42.189076],[2.50612,42.189096],[2.506099,42.189136],[2.50608,42.189146],[2.50601,42.189187],[2.50561,42.189191],[2.505254,42.189201],[2.505131,42.189206],[2.505015,42.189203],[2.504885,42.189184],[2.504667,42.189162],[2.504436,42.189138],[2.504132,42.189116],[2.503729,42.189081],[2.503695,42.189081],[2.503668,42.189082],[2.503646,42.189084],[2.503571,42.189081],[2.503515,42.189082],[2.503477,42.189082],[2.503487,42.188987],[2.503335,42.188973],[2.503279,42.188984],[2.503202,42.189001],[2.502997,42.189],[2.502751,42.188997],[2.502474,42.189009],[2.502267,42.189015],[2.501882,42.188989],[2.501799,42.188978],[2.501738,42.188969],[2.501677,42.188961],[2.501599,42.188939],[2.501521,42.188917],[2.501481,42.188905],[2.501443,42.18889],[2.501369,42.188857],[2.501321,42.188833],[2.50116,42.188752],[2.500999,42.188671],[2.500878,42.188619],[2.500757,42.188567],[2.500617,42.188512],[2.500475,42.188458],[2.5004,42.188427],[2.500326,42.188395],[2.500291,42.188377],[2.500262,42.188353],[2.500243,42.188328],[2.500229,42.188302],[2.500214,42.188259],[2.500197,42.188216],[2.500187,42.188197],[2.500166,42.18817],[2.50014,42.188144],[2.50008,42.188093],[2.500018,42.188043],[2.499942,42.187991],[2.499904,42.187966],[2.499868,42.187938],[2.4998,42.18788],[2.499732,42.187821],[2.499695,42.187788],[2.499658,42.187756],[2.499607,42.187715],[2.499551,42.187678],[2.499485,42.187645],[2.499418,42.187612],[2.499382,42.187593],[2.499242,42.187668],[2.499333,42.188029],[2.499308,42.188255],[2.499076,42.188446],[2.498711,42.188663],[2.498585,42.188715],[2.498319,42.188696],[2.498281,42.188626],[2.498009,42.188354],[2.497579,42.187934],[2.49733,42.187697],[2.498238,42.187132],[2.498654,42.186895],[2.498756,42.186846],[2.499055,42.186771],[2.499052,42.186753],[2.499045,42.186705],[2.499028,42.186574],[2.499018,42.186408],[2.499009,42.186242],[2.498992,42.185921],[2.498991,42.18591],[2.498984,42.185769],[2.498979,42.185671],[2.498975,42.185587],[2.498974,42.185568],[2.499286,42.185629],[2.49936,42.185644],[2.499406,42.18566],[2.49943,42.185644],[2.499439,42.185417],[2.499446,42.185237],[2.499662,42.185253],[2.499696,42.185256],[2.499697,42.185227],[2.499699,42.185168],[2.49953,42.184899],[2.499517,42.184851],[2.499491,42.184762],[2.499616,42.184547],[2.499628,42.18458],[2.499692,42.184572],[2.499846,42.184201],[2.499762,42.184112],[2.499753,42.184104],[2.499677,42.184025],[2.499506,42.183882],[2.499489,42.183877],[2.499494,42.183868],[2.499528,42.18381],[2.49955,42.183773],[2.499593,42.183695],[2.499636,42.183617],[2.499648,42.183606],[2.499664,42.183598],[2.499687,42.183594],[2.499698,42.183595],[2.499707,42.183599],[2.499754,42.183639],[2.4998,42.183679],[2.499817,42.183692],[2.499829,42.183662],[2.499856,42.183662],[2.499865,42.183662],[2.499898,42.183683],[2.49995,42.183683],[2.500272,42.183676],[2.500272,42.18367],[2.500273,42.183664],[2.5003,42.183443],[2.500352,42.183025],[2.500372,42.183021],[2.500398,42.183018],[2.500407,42.183018],[2.500435,42.182786],[2.500446,42.182602],[2.500636,42.182609],[2.500678,42.182143],[2.500678,42.182121],[2.500592,42.182003],[2.500684,42.181579],[2.500633,42.181566],[2.500598,42.181556],[2.500574,42.181549],[2.500561,42.181486],[2.500527,42.181408],[2.500519,42.181394],[2.500509,42.18138],[2.500498,42.181368],[2.500485,42.181356],[2.500471,42.181347],[2.50045,42.181336],[2.500408,42.181319],[2.500348,42.181307],[2.500293,42.181307],[2.500265,42.181312],[2.50025,42.181315],[2.500227,42.181325],[2.500194,42.181304],[2.500125,42.181256],[2.50018,42.18118],[2.500293,42.181021],[2.500196,42.180975],[2.500243,42.180903],[2.500067,42.180827],[2.499942,42.1808],[2.499859,42.180765],[2.499788,42.180733],[2.49969,42.180688],[2.49964,42.180672],[2.49961,42.180661],[2.499585,42.180652],[2.499524,42.180633],[2.499489,42.180687],[2.499379,42.180655],[2.499358,42.180647],[2.499322,42.180681],[2.49928,42.180663],[2.499248,42.180706],[2.499243,42.180715],[2.499218,42.18071],[2.499191,42.180707],[2.499175,42.180708],[2.499156,42.180709],[2.499141,42.180711],[2.499131,42.180714],[2.49912,42.180719],[2.499088,42.180734],[2.499071,42.180744],[2.499061,42.180752],[2.499045,42.180769],[2.499031,42.180786],[2.499002,42.180831],[2.498976,42.180875],[2.498949,42.180924],[2.498932,42.180955],[2.498925,42.180966],[2.498918,42.180976],[2.49891,42.180985],[2.498904,42.180992],[2.498897,42.180997],[2.498817,42.180941],[2.49874,42.180884],[2.49873,42.180875],[2.49869,42.180838],[2.498619,42.180766],[2.498582,42.180728],[2.498549,42.180694],[2.498505,42.180651],[2.498487,42.180611],[2.498441,42.180572],[2.498403,42.180541],[2.498395,42.180534],[2.498359,42.180505],[2.498267,42.180443],[2.498184,42.180387],[2.498144,42.180356],[2.498091,42.18032],[2.497931,42.180213],[2.497915,42.180202],[2.497737,42.180078],[2.497626,42.180001],[2.497582,42.179966],[2.497546,42.179884],[2.497587,42.179874],[2.49761,42.179869],[2.497585,42.17985],[2.497554,42.179824],[2.497528,42.179805],[2.497481,42.179769],[2.497409,42.179714],[2.497354,42.179675],[2.497299,42.179635],[2.497285,42.179626],[2.49721,42.179576],[2.497189,42.179562],[2.497179,42.179521],[2.497325,42.179454],[2.497348,42.179481],[2.497419,42.179449],[2.497489,42.17942],[2.497508,42.179412],[2.497577,42.179384],[2.497685,42.179338],[2.497965,42.179204],[2.498015,42.17918],[2.498089,42.179145],[2.49785,42.178857],[2.497777,42.178887],[2.497704,42.178791],[2.4975,42.178882],[2.496944,42.178201],[2.49661,42.178353],[2.496485,42.178199],[2.496481,42.178201],[2.496478,42.178187],[2.496452,42.178189],[2.496446,42.178181],[2.496441,42.178164],[2.496713,42.178],[2.496557,42.177901],[2.496407,42.177806],[2.496161,42.177602],[2.496175,42.177509],[2.496203,42.177514],[2.496241,42.177525],[2.496296,42.177545],[2.496351,42.177567],[2.496368,42.177574],[2.496413,42.17759],[2.496441,42.177603],[2.496464,42.177619],[2.496482,42.177637],[2.496513,42.17765],[2.496528,42.177665],[2.496579,42.177718],[2.496618,42.177759],[2.496657,42.1778],[2.496674,42.177816],[2.496704,42.177837],[2.496739,42.177856],[2.496759,42.177861],[2.49678,42.177861],[2.496808,42.177857],[2.49682,42.177853],[2.496832,42.177846],[2.496843,42.177833],[2.496852,42.177809],[2.496859,42.177784],[2.496873,42.177792],[2.497074,42.177871],[2.497235,42.177645],[2.496792,42.177484],[2.496661,42.177424],[2.49665,42.177432],[2.496608,42.177452],[2.496321,42.177345],[2.496309,42.177358],[2.496129,42.177301],[2.49578,42.176856],[2.495768,42.17684],[2.495798,42.176842],[2.495753,42.176792],[2.495679,42.176707],[2.495482,42.176475],[2.495444,42.17643],[2.495321,42.176283],[2.495311,42.176272],[2.495203,42.176325],[2.494678,42.176582],[2.494603,42.176499],[2.494447,42.176327],[2.494188,42.17604],[2.494168,42.175966],[2.494149,42.175897],[2.494349,42.175906],[2.494469,42.176048],[2.494644,42.176024],[2.494597,42.175667],[2.494584,42.17567],[2.494669,42.175441],[2.49467,42.175432],[2.494666,42.175417],[2.494654,42.175403],[2.494583,42.175362],[2.494547,42.175342],[2.494668,42.175229],[2.495788,42.174502],[2.495896,42.174431],[2.495913,42.174441],[2.495906,42.174454],[2.495905,42.174464],[2.495908,42.174474],[2.495921,42.174493],[2.49596,42.174542],[2.496002,42.174586],[2.496035,42.174613],[2.496097,42.174657],[2.496186,42.174728],[2.496272,42.174823],[2.496295,42.174848],[2.496545,42.174903],[2.496597,42.174918],[2.496662,42.174932],[2.496671,42.174934],[2.496852,42.174977],[2.496943,42.174996],[2.497035,42.17501],[2.497061,42.175013],[2.497161,42.175025],[2.497292,42.17504],[2.497435,42.17509],[2.497485,42.175117],[2.49749,42.175126],[2.497523,42.175134],[2.497526,42.175135],[2.497548,42.175141],[2.497705,42.175182],[2.497747,42.175185],[2.49783,42.17519],[2.497905,42.17511],[2.498032,42.175166],[2.498202,42.175165],[2.49824,42.175166],[2.498273,42.17516],[2.498746,42.175084],[2.498952,42.175144],[2.499312,42.175247],[2.499396,42.175271],[2.499489,42.175298],[2.499545,42.175301],[2.499592,42.175304],[2.499642,42.175219],[2.499636,42.175191],[2.499674,42.175101],[2.4997,42.175038],[2.49985,42.174681],[2.499794,42.174647],[2.499731,42.17461],[2.499734,42.17453],[2.499734,42.174439],[2.499733,42.174355],[2.499733,42.174337],[2.499765,42.174305],[2.499852,42.174244],[2.499864,42.174236],[2.499938,42.174183],[2.499994,42.174141],[2.500045,42.174095],[2.500068,42.17407],[2.500086,42.174044],[2.500093,42.174025],[2.500105,42.173976],[2.500116,42.173928],[2.500123,42.173894],[2.50013,42.17386],[2.500157,42.173776],[2.500188,42.173693],[2.500195,42.173676],[2.500223,42.173609],[2.500255,42.173525],[2.500277,42.173438],[2.500297,42.17335],[2.500325,42.173259],[2.500352,42.173168],[2.500371,42.173118],[2.500393,42.172903],[2.500395,42.172889],[2.500399,42.172849],[2.499704,42.172561],[2.499448,42.172474],[2.499257,42.17234],[2.499041,42.17213],[2.498722,42.171957],[2.498569,42.171794],[2.498301,42.171716],[2.498208,42.171684],[2.49559,42.17338],[2.494045,42.17436],[2.491948,42.17573],[2.491808,42.175841],[2.491691,42.175923],[2.491633,42.175937],[2.491582,42.175932],[2.491508,42.175898],[2.491435,42.175886],[2.491268,42.175899],[2.491213,42.175899],[2.490954,42.17585],[2.490798,42.175816],[2.490689,42.175771],[2.490401,42.175619],[2.489999,42.175409],[2.489314,42.175088],[2.489032,42.174937],[2.488569,42.174707],[2.488325,42.174574],[2.488173,42.174469],[2.488006,42.174315],[2.487846,42.174118],[2.48775,42.173994],[2.487722,42.173931],[2.487707,42.173873],[2.487716,42.173791],[2.487711,42.173723],[2.487688,42.173673],[2.487648,42.173637],[2.487597,42.17361],[2.48754,42.173596],[2.487464,42.173573],[2.487395,42.17354],[2.487344,42.173506],[2.487285,42.173452],[2.487158,42.173309],[2.487083,42.173194],[2.48648,42.172505],[2.486023,42.171962],[2.485685,42.171569],[2.485185,42.171809],[2.484719,42.172033],[2.484582,42.172086],[2.484507,42.172002],[2.484313,42.171775],[2.484063,42.171482],[2.483765,42.171114],[2.483632,42.170949],[2.483075,42.171216],[2.482979,42.171304],[2.482921,42.171445],[2.482895,42.171472],[2.482853,42.171465],[2.482669,42.171404],[2.482659,42.171399],[2.482576,42.171443],[2.482051,42.171674],[2.481879,42.171486],[2.481374,42.171454],[2.48114,42.171448],[2.481131,42.171438],[2.480946,42.171225],[2.48095,42.171107],[2.480962,42.170917],[2.480769,42.170908],[2.480658,42.170871],[2.480474,42.170763],[2.480355,42.170676],[2.480204,42.170467],[2.480054,42.170222],[2.479963,42.170162],[2.479715,42.17014],[2.479515,42.170128],[2.47941,42.170142],[2.479258,42.170159],[2.479225,42.170182],[2.479204,42.17006],[2.479187,42.169584],[2.479187,42.169576],[2.479274,42.169578],[2.47927,42.169562],[2.479394,42.16941],[2.479684,42.169051],[2.479716,42.169049],[2.479878,42.169081],[2.480094,42.169043],[2.480153,42.169034],[2.480252,42.169076],[2.480283,42.169104],[2.480284,42.169104],[2.480296,42.1691],[2.480298,42.169102],[2.480307,42.169108],[2.480586,42.169359],[2.480712,42.169466],[2.480719,42.169472],[2.480899,42.169356],[2.480909,42.16935],[2.480914,42.169354],[2.48092,42.16936],[2.481081,42.169266],[2.481084,42.169264],[2.481094,42.169258],[2.481097,42.169262],[2.481104,42.169267],[2.481337,42.16913],[2.481344,42.169126],[2.481349,42.169116],[2.481414,42.168962],[2.481369,42.168636],[2.481608,42.168549],[2.481617,42.168544],[2.481657,42.168529],[2.481989,42.168238],[2.482082,42.168165],[2.482094,42.168156],[2.482083,42.168128],[2.482081,42.168123],[2.481579,42.167812],[2.481451,42.167967],[2.481312,42.168094],[2.481238,42.168055],[2.480927,42.167863],[2.480754,42.167502],[2.480801,42.167346],[2.481043,42.167293],[2.481018,42.167224],[2.48132,42.166725],[2.481391,42.166674],[2.481391,42.166673],[2.481388,42.166667],[2.481386,42.166661],[2.481383,42.166655],[2.481381,42.166649],[2.48138,42.166643],[2.481378,42.166637],[2.481377,42.166631],[2.481376,42.166625],[2.481376,42.166618],[2.481375,42.166612],[2.481376,42.166606],[2.481376,42.1666],[2.481376,42.166597],[2.481376,42.166593],[2.481377,42.166587],[2.481379,42.166581],[2.48138,42.166575],[2.481382,42.166569],[2.481384,42.166563],[2.481386,42.166557],[2.481389,42.166551],[2.481392,42.166545],[2.481418,42.166442],[2.481445,42.166341],[2.481461,42.166287],[2.481472,42.166249],[2.481478,42.166163],[2.481478,42.166162],[2.481487,42.166076],[2.481513,42.165996],[2.481536,42.16596],[2.481551,42.165936],[2.481629,42.165688],[2.48162,42.165687],[2.481601,42.165683],[2.481371,42.165643],[2.481356,42.165641],[2.481335,42.165698],[2.481331,42.165741],[2.481335,42.165793],[2.481315,42.16585],[2.481315,42.165854],[2.481299,42.165898],[2.481296,42.165904],[2.481294,42.165908],[2.481291,42.165912],[2.481289,42.165915],[2.481286,42.165919],[2.481283,42.165921],[2.481279,42.165925],[2.481276,42.165927],[2.48127,42.165932],[2.481264,42.165935],[2.481257,42.165938],[2.481249,42.165941],[2.481237,42.165944],[2.481139,42.16621],[2.481124,42.166215],[2.481109,42.16622],[2.481094,42.166224],[2.480881,42.166296],[2.480865,42.166302],[2.480852,42.166309],[2.480842,42.166316],[2.480814,42.166329],[2.480788,42.166341],[2.480766,42.166351],[2.480737,42.166371],[2.480638,42.16644],[2.480624,42.166449],[2.480611,42.166459],[2.480397,42.166645],[2.480379,42.166653],[2.480344,42.166669],[2.480303,42.166688],[2.480205,42.166734],[2.480117,42.166774],[2.480081,42.166783],[2.48007,42.166786],[2.47995,42.166817],[2.479677,42.166893],[2.479661,42.1669],[2.479649,42.166905],[2.479537,42.166952],[2.479524,42.166951],[2.479403,42.16694],[2.479392,42.16694],[2.479388,42.166939],[2.479382,42.166939],[2.479371,42.166938],[2.479359,42.166935],[2.479277,42.166892],[2.479167,42.166843],[2.479144,42.166833],[2.478957,42.166735],[2.47895,42.166728],[2.478945,42.166722],[2.478937,42.166712],[2.478892,42.166693],[2.478903,42.166671],[2.478934,42.166604],[2.478959,42.166503],[2.478974,42.166367],[2.47896,42.166365],[2.478843,42.166354],[2.478845,42.166309],[2.478813,42.166309],[2.478668,42.166303],[2.478553,42.166291],[2.478439,42.166277],[2.478326,42.166261],[2.478218,42.166244],[2.478331,42.165965],[2.478351,42.165969],[2.478399,42.165867],[2.4784,42.165864],[2.478438,42.165782],[2.478515,42.165616],[2.478537,42.165562],[2.478538,42.165559],[2.478641,42.165582],[2.478655,42.165585],[2.478728,42.165419],[2.478652,42.165318],[2.478632,42.165291],[2.478738,42.165284],[2.478872,42.165376],[2.478966,42.165489],[2.479015,42.16553],[2.479026,42.165526],[2.479031,42.16553],[2.479068,42.165517],[2.479089,42.165527],[2.479149,42.165557],[2.479184,42.165567],[2.479277,42.16557],[2.479314,42.165571],[2.47947,42.165528],[2.479724,42.165477],[2.479976,42.165431],[2.480086,42.16539],[2.480484,42.165236],[2.480427,42.165142],[2.480449,42.165151],[2.480443,42.165142],[2.480411,42.165094],[2.480408,42.165089],[2.480377,42.165041],[2.480472,42.165006],[2.480372,42.164853],[2.480184,42.164563],[2.480161,42.164529],[2.480301,42.164476],[2.48035,42.164457],[2.480387,42.164442],[2.480458,42.164251],[2.480433,42.164214],[2.480433,42.164214],[2.480408,42.164177],[2.48042,42.164173],[2.480416,42.164167],[2.480483,42.164142],[2.480493,42.164138],[2.480703,42.164062],[2.480702,42.164061],[2.480786,42.164032],[2.480682,42.163867],[2.48084,42.163808],[2.480953,42.163541],[2.480972,42.163534],[2.480982,42.16353],[2.480977,42.163522],[2.480973,42.163516],[2.480903,42.163411],[2.480813,42.163287],[2.480952,42.163238],[2.480629,42.162742],[2.480505,42.162686],[2.480405,42.162779],[2.480298,42.162831],[2.480264,42.162819],[2.48007,42.162876],[2.480044,42.162883],[2.480026,42.162889],[2.479395,42.162765],[2.478896,42.162909],[2.478107,42.163173],[2.477934,42.162889],[2.477881,42.16289],[2.47779,42.16292],[2.47783,42.162993],[2.477811,42.163],[2.477396,42.163163],[2.47703,42.16329],[2.476095,42.163614],[2.4755,42.163293],[2.475486,42.163297],[2.475348,42.163244],[2.475264,42.163221],[2.475193,42.163229],[2.475163,42.163229],[2.475096,42.163288],[2.47507,42.163314],[2.474939,42.163386],[2.474902,42.163406],[2.474887,42.163411],[2.474719,42.163503],[2.474593,42.163553],[2.474432,42.16364],[2.474327,42.163763],[2.474184,42.163817],[2.473828,42.16396],[2.473687,42.164019],[2.47367,42.164026],[2.473511,42.164093],[2.473431,42.164125],[2.473338,42.164161],[2.473167,42.164221],[2.473167,42.164232],[2.473167,42.164267],[2.473604,42.164477],[2.47454,42.164925],[2.474646,42.164955],[2.474575,42.165031],[2.4743,42.165363],[2.474255,42.165418],[2.474162,42.16553],[2.474145,42.165534],[2.474098,42.165605],[2.474959,42.166026],[2.475118,42.166229],[2.475485,42.166422],[2.476066,42.166671],[2.476075,42.166675],[2.476068,42.166681],[2.475849,42.166884],[2.475786,42.166942],[2.475635,42.167056],[2.475579,42.166992],[2.475565,42.166977],[2.475432,42.16685],[2.475389,42.166814],[2.475341,42.166783],[2.475289,42.166756],[2.475232,42.166735],[2.475172,42.166718],[2.47511,42.166707],[2.475106,42.166706],[2.475087,42.166703],[2.475058,42.166699],[2.475009,42.166698],[2.47496,42.166703],[2.47496,42.166703],[2.474958,42.166703],[2.474957,42.166703],[2.474913,42.166713],[2.474868,42.166729],[2.474828,42.166749],[2.474407,42.16695],[2.474386,42.166964],[2.474364,42.166985],[2.474348,42.167009],[2.47434,42.167035],[2.47434,42.167046],[2.474352,42.16707],[2.474382,42.167111],[2.47447,42.16722],[2.474748,42.167529],[2.474625,42.167648],[2.473818,42.168013],[2.473675,42.167986],[2.473661,42.167952],[2.473652,42.167923],[2.473644,42.167894],[2.473637,42.167843],[2.473633,42.167678],[2.473629,42.167549],[2.473629,42.167514],[2.473628,42.167505],[2.473624,42.167374],[2.473622,42.167305],[2.473619,42.167235],[2.473617,42.167193],[2.473614,42.167108],[2.473614,42.167091],[2.47361,42.16698],[2.473607,42.166952],[2.473596,42.166925],[2.473579,42.1669],[2.473577,42.166898],[2.473544,42.166862],[2.473518,42.166823],[2.473499,42.166782],[2.473488,42.166739],[2.473485,42.166704],[2.473485,42.166696],[2.473489,42.166653],[2.473501,42.166611],[2.473512,42.166585],[2.473518,42.166569],[2.473524,42.166553],[2.473531,42.166521],[2.473532,42.166488],[2.473531,42.166461],[2.473525,42.166433],[2.473515,42.166398],[2.473141,42.165939],[2.473158,42.165888],[2.472967,42.165673],[2.472488,42.165137],[2.472244,42.165266],[2.472219,42.165819],[2.472201,42.166248],[2.472188,42.166569],[2.472188,42.16657],[2.472186,42.166609],[2.472643,42.166615],[2.472645,42.166615],[2.472661,42.166615],[2.472654,42.166704],[2.47263,42.167002],[2.472579,42.167722],[2.472577,42.167753],[2.472571,42.167753],[2.472561,42.167752],[2.472561,42.167752],[2.472555,42.167752],[2.471476,42.167702],[2.471476,42.167703],[2.471457,42.167893],[2.47144,42.168074],[2.471424,42.168073],[2.470361,42.168027],[2.47027,42.168023],[2.470254,42.168022],[2.469595,42.167992],[2.469542,42.168015],[2.469535,42.16805],[2.469505,42.168051],[2.469272,42.168201],[2.46927,42.168208],[2.469271,42.168266],[2.469246,42.168361],[2.469207,42.16843],[2.469191,42.16847],[2.46918,42.168584],[2.469218,42.168655],[2.469209,42.168738],[2.469206,42.168788],[2.469108,42.168833],[2.469104,42.168991],[2.469073,42.168995],[2.469047,42.169361],[2.469052,42.169435],[2.469051,42.169491],[2.46903,42.169517],[2.468936,42.169512],[2.468899,42.169511],[2.468795,42.169508],[2.468171,42.169488],[2.468169,42.169547],[2.468165,42.169653],[2.468164,42.169682],[2.468162,42.169685],[2.468159,42.169689],[2.468157,42.169692],[2.468155,42.169695],[2.468152,42.169699],[2.468149,42.169702],[2.468146,42.169705],[2.468143,42.169708],[2.46814,42.169711],[2.468136,42.169714],[2.468133,42.169716],[2.468129,42.169719],[2.468125,42.169722],[2.468122,42.169724],[2.468118,42.169726],[2.468113,42.169729],[2.468109,42.169731],[2.468105,42.169733],[2.468101,42.169735],[2.468096,42.169736],[2.468092,42.169738],[2.468087,42.16974],[2.468082,42.169741],[2.468077,42.169743],[2.468073,42.169744],[2.468068,42.169745],[2.468063,42.169746],[2.468058,42.169747],[2.468053,42.169747],[2.468048,42.169748],[2.468043,42.169748],[2.468038,42.169749],[2.468033,42.169749],[2.468028,42.169749],[2.468022,42.169749],[2.468017,42.169749],[2.468012,42.169748],[2.468007,42.169748],[2.468002,42.169747],[2.467997,42.169747],[2.467992,42.169746],[2.467987,42.169745],[2.467982,42.169744],[2.467978,42.169742],[2.467973,42.169741],[2.467968,42.16974],[2.467944,42.169732],[2.467908,42.169726],[2.467871,42.169727],[2.467835,42.169733],[2.467802,42.169744],[2.467772,42.169761],[2.467748,42.169781],[2.467731,42.169805],[2.46772,42.169831],[2.467717,42.169858],[2.467719,42.169875],[2.467833,42.170076],[2.467953,42.170287],[2.467957,42.170293],[2.467864,42.170377],[2.46798,42.170449],[2.468098,42.170522],[2.467776,42.170811],[2.4677,42.170882],[2.468172,42.171172],[2.468179,42.171176],[2.46811,42.171219],[2.468032,42.171302],[2.468153,42.171375],[2.468645,42.17168],[2.468807,42.171532],[2.46885,42.171555],[2.468896,42.171581],[2.469222,42.171774],[2.469217,42.171779],[2.46937,42.171869],[2.46945,42.171917],[2.469264,42.17209],[2.469348,42.172132],[2.469514,42.171993],[2.469914,42.172214],[2.469998,42.17226],[2.470024,42.17226],[2.470159,42.172258],[2.470274,42.172276],[2.47039,42.172294],[2.470471,42.172307],[2.470552,42.17232],[2.470623,42.172332],[2.470693,42.172347],[2.470831,42.172382],[2.470878,42.172395],[2.470951,42.172416],[2.471068,42.172455],[2.471138,42.172479],[2.471206,42.172506],[2.471248,42.172527],[2.471291,42.172554],[2.471315,42.172569],[2.471378,42.172612],[2.471381,42.172614],[2.471438,42.172655],[2.471498,42.172698],[2.471537,42.17272],[2.471545,42.172722],[2.471583,42.172734],[2.471665,42.17275],[2.471749,42.172758],[2.471806,42.172764],[2.471861,42.172764],[2.472031,42.172741],[2.472139,42.172711],[2.47216,42.17273],[2.472173,42.172726],[2.472183,42.17273],[2.47223,42.172752],[2.472329,42.172818],[2.472514,42.172987],[2.472528,42.172997],[2.472535,42.173002],[2.472549,42.173008],[2.472561,42.173012],[2.472574,42.173015],[2.472587,42.173017],[2.47268,42.173023],[2.472685,42.17304],[2.472716,42.173044],[2.472764,42.17305],[2.472872,42.173146],[2.472937,42.173219],[2.472957,42.17324],[2.472992,42.173276],[2.473089,42.173316],[2.473128,42.173328],[2.473337,42.173359],[2.473406,42.173145],[2.474681,42.173292],[2.474608,42.173558],[2.474635,42.173563],[2.47487,42.173611],[2.474945,42.173657],[2.47502,42.173704],[2.475079,42.173736],[2.47513,42.173774],[2.47518,42.173813],[2.475231,42.173851],[2.475245,42.173856],[2.475252,42.173856],[2.475256,42.173854],[2.475257,42.173843],[2.475269,42.17385],[2.475276,42.173855],[2.475287,42.173865],[2.475291,42.17387],[2.475294,42.173876],[2.475296,42.173884],[2.475298,42.173892],[2.475298,42.173899],[2.475299,42.17391],[2.475299,42.173919],[2.475298,42.173929],[2.475296,42.173944],[2.475295,42.173948],[2.475286,42.174043],[2.475284,42.17407],[2.475281,42.17413],[2.475281,42.174138],[2.475277,42.174202],[2.475274,42.174268],[2.47527,42.174388],[2.475271,42.1744],[2.475274,42.174455],[2.475275,42.17446],[2.475277,42.174467],[2.475122,42.174505],[2.475245,42.174702],[2.475191,42.17471],[2.475117,42.17473],[2.47507,42.174736],[2.475002,42.174748],[2.474967,42.174756],[2.474929,42.174761],[2.474881,42.174764],[2.474831,42.174765],[2.474733,42.17476],[2.474554,42.174743],[2.474524,42.17474],[2.47449,42.17473],[2.474465,42.17473],[2.474441,42.17473],[2.474435,42.17473],[2.474376,42.174727],[2.47431,42.174722],[2.474263,42.174719],[2.474151,42.17471],[2.474101,42.174701],[2.474053,42.174687],[2.473961,42.174654],[2.473884,42.174626],[2.473806,42.174598],[2.47376,42.174586],[2.473714,42.174576],[2.473619,42.174563],[2.473534,42.174557],[2.473527,42.174557],[2.473449,42.174558],[2.473414,42.174562],[2.473382,42.174571],[2.473283,42.174618],[2.473186,42.174664],[2.473052,42.17472],[2.472917,42.174774],[2.47277,42.174829],[2.472623,42.174884],[2.472476,42.174938],[2.472328,42.174991],[2.472265,42.17501],[2.472199,42.175025],[2.472165,42.175028],[2.472131,42.175027],[2.472109,42.175024],[2.472087,42.175018],[2.472104,42.175046],[2.47212,42.175072],[2.472142,42.175107],[2.472192,42.175192],[2.47221,42.175217],[2.472223,42.175217],[2.472263,42.175216],[2.472356,42.175207],[2.472448,42.175198],[2.472548,42.175189],[2.472648,42.175181],[2.472723,42.175174],[2.472798,42.175164],[2.472851,42.175153],[2.47293,42.175135],[2.473009,42.175117],[2.473104,42.175098],[2.473199,42.175078],[2.473244,42.175067],[2.473289,42.175053],[2.473324,42.175042],[2.473341,42.175036],[2.473354,42.175027],[2.473359,42.175022],[2.473364,42.17502],[2.473414,42.174903],[2.47343,42.174865],[2.473751,42.174862],[2.473751,42.174835],[2.473741,42.174752],[2.473734,42.174699],[2.4739,42.174703],[2.473937,42.174857],[2.473941,42.174896],[2.474014,42.174913],[2.474194,42.174959],[2.474405,42.174994],[2.474429,42.174979],[2.474431,42.174975],[2.474473,42.174882],[2.474654,42.174876],[2.474741,42.174878],[2.474913,42.174872],[2.475128,42.174868],[2.4754,42.175017],[2.475619,42.174845],[2.475639,42.174856],[2.475679,42.174879],[2.475738,42.174913],[2.475786,42.174939],[2.47579,42.174947],[2.475817,42.174959],[2.475843,42.17497],[2.475894,42.174992],[2.475906,42.174997],[2.475943,42.175036],[2.475971,42.175061],[2.476072,42.175156],[2.476164,42.175255],[2.476255,42.175364],[2.476339,42.175476],[2.476362,42.17551],[2.47639,42.175552],[2.476492,42.175709],[2.476496,42.175715],[2.476499,42.17572],[2.476502,42.175726],[2.476505,42.175732],[2.476609,42.175889],[2.476651,42.175951],[2.476693,42.176013],[2.476711,42.176042],[2.476715,42.176049],[2.476718,42.176054],[2.476724,42.176065],[2.476729,42.176076],[2.476742,42.176111],[2.476747,42.176129],[2.476751,42.176138],[2.476755,42.176146],[2.47676,42.176158],[2.476764,42.176166],[2.476769,42.176173],[2.476778,42.176181],[2.476784,42.176187],[2.476861,42.176248],[2.476924,42.176301],[2.476953,42.176323],[2.47698,42.176342],[2.476999,42.176354],[2.47702,42.176366],[2.477037,42.176374],[2.477059,42.176385],[2.477159,42.176427],[2.477216,42.17645],[2.477255,42.176463],[2.477276,42.176469],[2.477303,42.176476],[2.477325,42.176481],[2.477372,42.176488],[2.477394,42.176491],[2.477412,42.176493],[2.477485,42.1765],[2.477485,42.176577],[2.477488,42.176604],[2.47749,42.176654],[2.477856,42.17664],[2.477992,42.176635],[2.478067,42.176632],[2.478089,42.17663],[2.478255,42.176613],[2.478262,42.176624],[2.478269,42.176633],[2.478274,42.176639],[2.478276,42.176641],[2.478285,42.17665],[2.478317,42.176667],[2.478333,42.176674],[2.478352,42.176682],[2.478445,42.176778],[2.478485,42.176827],[2.478493,42.176821],[2.47855,42.176869],[2.478528,42.176883],[2.478605,42.176948],[2.478643,42.176984],[2.478723,42.17706],[2.478748,42.177088],[2.478779,42.177122],[2.478785,42.177129],[2.47896,42.177266],[2.479171,42.17739],[2.479265,42.177443],[2.479278,42.17745],[2.479442,42.177552],[2.479343,42.177643],[2.479356,42.177651],[2.479493,42.177733],[2.479454,42.177772],[2.479442,42.177784],[2.479646,42.177903],[2.479661,42.17789],[2.479706,42.177854],[2.479953,42.177963],[2.480036,42.178011],[2.480201,42.178107],[2.480264,42.178143],[2.480353,42.178195],[2.48029,42.178283],[2.480504,42.178405],[2.480571,42.17844],[2.48066,42.178511],[2.480692,42.178542],[2.480558,42.178573],[2.48046,42.178464],[2.480411,42.178532],[2.480387,42.178561],[2.480391,42.178565],[2.480352,42.178568],[2.480317,42.178576],[2.480284,42.178589],[2.480257,42.178607],[2.480234,42.178629],[2.480219,42.178654],[2.480215,42.178668],[2.480211,42.17868],[2.48021,42.178708],[2.480214,42.178748],[2.480213,42.17875],[2.480201,42.178811],[2.480186,42.178875],[2.480172,42.178928],[2.480156,42.178988],[2.480155,42.178995],[2.480151,42.179025],[2.480151,42.179039],[2.48015,42.179054],[2.48016,42.179082],[2.480165,42.179093],[2.480171,42.179109],[2.480176,42.179126],[2.480176,42.179134],[2.480173,42.179141],[2.480167,42.179147],[2.480158,42.179151],[2.480146,42.179149],[2.480119,42.179143],[2.480071,42.179268],[2.48003,42.179372],[2.479946,42.17936],[2.479949,42.179381],[2.479953,42.1794],[2.479958,42.179437],[2.479987,42.179618],[2.479985,42.179626],[2.479953,42.17976],[2.479952,42.179768],[2.479793,42.179737],[2.479741,42.179866],[2.479713,42.179938],[2.479645,42.180117],[2.479563,42.180194],[2.479485,42.180296],[2.479448,42.180335],[2.479117,42.180696],[2.479099,42.180715],[2.479064,42.180702],[2.479051,42.180697],[2.47899,42.180672],[2.478971,42.180661],[2.478937,42.18064],[2.478911,42.180622],[2.478886,42.180603],[2.478872,42.180605],[2.478822,42.180613],[2.478759,42.180623],[2.478719,42.180625],[2.47871,42.180624],[2.478678,42.180623],[2.478631,42.180616],[2.478607,42.180612],[2.478584,42.180611],[2.478576,42.180611],[2.478499,42.180615],[2.478414,42.180626],[2.478362,42.180634],[2.478309,42.180643],[2.478259,42.180751],[2.478132,42.180778],[2.478087,42.180794],[2.478073,42.180793],[2.477971,42.18079],[2.477964,42.18079],[2.477837,42.180794],[2.477769,42.180801],[2.477712,42.180807],[2.477703,42.180806],[2.477634,42.1808],[2.477588,42.180779],[2.477561,42.180752],[2.477549,42.180755],[2.477534,42.18076],[2.477344,42.180816],[2.477314,42.180821],[2.477141,42.180853],[2.477033,42.180919],[2.47702,42.180985],[2.477087,42.181107],[2.47709,42.181112],[2.477112,42.181154],[2.477137,42.181239],[2.477126,42.181321],[2.477119,42.181353],[2.47711,42.181391],[2.477068,42.18146],[2.477023,42.181504],[2.477007,42.181519],[2.476994,42.181537],[2.476972,42.181553],[2.476925,42.181599],[2.47686,42.181663],[2.476843,42.18168],[2.476814,42.181728],[2.476791,42.181766],[2.476771,42.18189],[2.476779,42.181996],[2.476692,42.182075],[2.476404,42.182136],[2.476168,42.1822],[2.47613,42.182224],[2.475986,42.182314],[2.475987,42.182363],[2.475978,42.182369],[2.476008,42.182445],[2.476141,42.182728],[2.476162,42.182772],[2.476203,42.182908],[2.476199,42.182912],[2.476061,42.183045],[2.476057,42.183049],[2.476015,42.183146],[2.475919,42.183265],[2.475917,42.183267],[2.475911,42.183275],[2.47591,42.183277],[2.475909,42.183277],[2.475861,42.183272],[2.475721,42.183255],[2.475687,42.183251],[2.475222,42.183196],[2.475106,42.183197],[2.474724,42.183178],[2.474581,42.183178],[2.47468,42.182929],[2.474502,42.182842],[2.473717,42.182799],[2.473762,42.182593],[2.473546,42.182561],[2.472986,42.182455],[2.473023,42.182368],[2.473008,42.182319],[2.472951,42.182306],[2.472881,42.182287],[2.472864,42.182282],[2.472885,42.182261],[2.472907,42.182238],[2.472932,42.18222],[2.472972,42.1822],[2.473015,42.182161],[2.473061,42.182029],[2.473076,42.181987],[2.47307,42.181985],[2.473055,42.181982],[2.473025,42.181975],[2.472899,42.181946],[2.472911,42.181841],[2.472485,42.181739],[2.472403,42.181814],[2.47238,42.181764],[2.472358,42.181727],[2.472351,42.181629],[2.472317,42.181635],[2.4723,42.181604],[2.472258,42.18159],[2.471203,42.181317],[2.470661,42.181185],[2.470389,42.181115],[2.470041,42.181032],[2.469814,42.180965],[2.469558,42.180894],[2.469302,42.180843],[2.46884,42.181012],[2.468675,42.181138],[2.468465,42.181304],[2.468392,42.181334],[2.468208,42.181393],[2.468157,42.181457],[2.467997,42.181719],[2.467911,42.181709],[2.467847,42.181747],[2.467703,42.181767],[2.467594,42.181759],[2.467486,42.181753],[2.467359,42.181755],[2.467231,42.181763],[2.467124,42.181775],[2.467017,42.181791],[2.466879,42.181818],[2.466743,42.18185],[2.466644,42.18188],[2.466549,42.181918],[2.466524,42.181929],[2.466518,42.181935],[2.466495,42.181947],[2.466447,42.181979],[2.466417,42.182004],[2.46633,42.182086],[2.466247,42.18217],[2.466194,42.182225],[2.466142,42.18228],[2.466136,42.182285],[2.466106,42.182312],[2.46607,42.182345],[2.46606,42.18236],[2.466056,42.182377],[2.466053,42.182412],[2.466054,42.182428],[2.466054,42.182445],[2.466049,42.182454],[2.466024,42.182482],[2.466006,42.182484],[2.465997,42.182485],[2.465965,42.182483],[2.465945,42.182502],[2.46594,42.182506],[2.465933,42.182506],[2.46582,42.182497],[2.465692,42.182486],[2.465606,42.182473],[2.465559,42.182464],[2.465559,42.182467],[2.465553,42.18254],[2.465549,42.182581],[2.465546,42.182613],[2.465196,42.18259],[2.464687,42.182603],[2.464266,42.182651],[2.463941,42.182718],[2.463435,42.182907],[2.463062,42.183015],[2.462864,42.183112],[2.462812,42.183186],[2.462942,42.183419],[2.463287,42.183322],[2.463866,42.18311],[2.464104,42.183403],[2.464207,42.183523],[2.464567,42.184049],[2.464715,42.184002],[2.464892,42.183982],[2.46502,42.183977],[2.465663,42.184117],[2.465704,42.184108],[2.465772,42.184058],[2.465917,42.184078],[2.466808,42.184313],[2.466831,42.184317],[2.466835,42.184318],[2.466863,42.184316],[2.466877,42.184313],[2.466889,42.184309],[2.466911,42.184298],[2.466872,42.18433],[2.466869,42.184332],[2.466729,42.184399],[2.466701,42.184414],[2.466677,42.184428],[2.466667,42.184434],[2.466664,42.184436],[2.466689,42.184457],[2.466769,42.184523],[2.466832,42.184588],[2.466885,42.184619],[2.46689,42.184622],[2.467133,42.184509],[2.467186,42.184484],[2.467325,42.184419],[2.467512,42.184332],[2.467618,42.184352],[2.467619,42.184345],[2.467768,42.184346],[2.468082,42.184427],[2.468174,42.184507],[2.46841,42.184786],[2.468779,42.184874],[2.468836,42.184748],[2.468882,42.184772],[2.468942,42.184799],[2.469228,42.184927],[2.469231,42.18492],[2.46932,42.184994],[2.469307,42.185023],[2.469241,42.18518],[2.469187,42.18532],[2.469133,42.185462],[2.469117,42.185459],[2.469092,42.185455],[2.46887,42.185421],[2.468703,42.185526],[2.468686,42.185565],[2.468668,42.185591],[2.468629,42.18569],[2.468506,42.185639],[2.468456,42.185618],[2.468349,42.185562],[2.468365,42.185546],[2.468067,42.18537],[2.468032,42.18535],[2.468022,42.185348],[2.468003,42.185343],[2.467957,42.185415],[2.467861,42.185568],[2.468004,42.185639],[2.468081,42.185701],[2.468164,42.185797],[2.468216,42.185875],[2.468282,42.185996],[2.468277,42.186016],[2.468276,42.186021],[2.468418,42.186116],[2.468123,42.186368],[2.468406,42.186565],[2.46854,42.186643],[2.468547,42.186647],[2.46857,42.18666],[2.468614,42.186686],[2.469035,42.186448],[2.469063,42.186432],[2.469386,42.18652],[2.469583,42.186538],[2.46966,42.186545],[2.469713,42.18655],[2.469727,42.186552],[2.469984,42.186103],[2.470284,42.185578],[2.47032,42.185586],[2.470411,42.185608],[2.470423,42.185611],[2.470524,42.185636],[2.470662,42.185669],[2.470724,42.185684],[2.470823,42.185707],[2.471007,42.185753],[2.470975,42.185825],[2.471503,42.185952],[2.471608,42.18598],[2.471746,42.186018],[2.471613,42.186324],[2.471565,42.186436],[2.471564,42.186436],[2.472318,42.186662],[2.472322,42.186666],[2.472324,42.186666],[2.472333,42.18667],[2.472401,42.186692],[2.472465,42.186713],[2.472483,42.186719],[2.472634,42.186774],[2.472802,42.186835],[2.473006,42.186907],[2.472839,42.18717],[2.472838,42.187172],[2.472678,42.187444],[2.472651,42.187537],[2.472656,42.187569],[2.472732,42.187593],[2.472717,42.18762],[2.472693,42.187659],[2.472644,42.187718],[2.47263,42.187747],[2.472426,42.187716],[2.472178,42.188096],[2.472818,42.188256],[2.472847,42.188263],[2.47286,42.188238],[2.472882,42.188206],[2.472905,42.188176],[2.472938,42.188135],[2.472979,42.188102],[2.473045,42.18805],[2.473085,42.188015],[2.47312,42.187979],[2.473173,42.18791],[2.473221,42.18784],[2.473264,42.187768],[2.473306,42.187697],[2.473332,42.187661],[2.473362,42.187626],[2.47339,42.187599],[2.473405,42.187585],[2.473418,42.187569],[2.473435,42.187536],[2.473441,42.187526],[2.473462,42.187482],[2.473493,42.187416],[2.473524,42.18735],[2.473569,42.187264],[2.473595,42.187222],[2.473624,42.187182],[2.473636,42.187171],[2.473652,42.187163],[2.473654,42.187163],[2.473666,42.187145],[2.47374,42.187149],[2.474134,42.187168],[2.474187,42.187147],[2.474289,42.187109],[2.474392,42.187078],[2.474455,42.187061],[2.47452,42.187049],[2.474593,42.187044],[2.47463,42.187045],[2.474666,42.187049],[2.474877,42.187081],[2.475087,42.187114],[2.475227,42.187136],[2.475366,42.187159],[2.475467,42.187176],[2.475566,42.187197],[2.475681,42.187228],[2.475795,42.187261],[2.475864,42.187282],[2.475932,42.187303],[2.475959,42.18731],[2.47598,42.187314],[2.476029,42.187319],[2.476075,42.187322],[2.476105,42.187322],[2.476139,42.18732],[2.476181,42.187318],[2.476364,42.1873],[2.476547,42.187277],[2.476702,42.187254],[2.476829,42.187232],[2.476856,42.187227],[2.476881,42.187222],[2.476905,42.187214],[2.476919,42.18721],[2.476952,42.187196],[2.47696,42.187191],[2.476961,42.187191],[2.476961,42.187191],[2.477017,42.186954],[2.477385,42.186979],[2.477466,42.186375],[2.47739,42.186369],[2.477151,42.186345],[2.477155,42.186328],[2.477181,42.186202],[2.477198,42.186124],[2.477267,42.18613],[2.477337,42.186136],[2.477444,42.186146],[2.477552,42.186155],[2.477631,42.18616],[2.477701,42.186161],[2.477711,42.186161],[2.47773,42.186159],[2.477748,42.186155],[2.477783,42.186142],[2.477811,42.186126],[2.477826,42.186114],[2.477834,42.186108],[2.477845,42.186094],[2.477872,42.186052],[2.477899,42.18601],[2.477962,42.185911],[2.478025,42.185813],[2.47807,42.185738],[2.478161,42.185591],[2.478255,42.185702],[2.478613,42.185907],[2.47895,42.185515],[2.478333,42.185289],[2.478247,42.185257],[2.478329,42.185116],[2.478331,42.185111],[2.47848,42.184885],[2.478573,42.184184],[2.479022,42.184204],[2.479036,42.185027],[2.479072,42.185032],[2.479072,42.185032],[2.479261,42.185053],[2.479346,42.185056],[2.479358,42.185058],[2.479382,42.185062],[2.479405,42.185066],[2.479452,42.185073],[2.479495,42.185083],[2.479842,42.185186],[2.479851,42.185218],[2.479876,42.18531],[2.479746,42.18539],[2.480118,42.185708],[2.480153,42.185738],[2.480155,42.185735],[2.48015,42.185803],[2.479876,42.186293],[2.479856,42.186329],[2.479851,42.186338],[2.479846,42.186346],[2.479817,42.186398],[2.479669,42.186566],[2.479636,42.186603],[2.479494,42.186764],[2.479444,42.186821],[2.479443,42.186822],[2.479434,42.186828],[2.479443,42.186853],[2.479321,42.186935],[2.479279,42.186976],[2.479281,42.187062],[2.479261,42.187107],[2.479261,42.187107],[2.479261,42.187107],[2.479261,42.187108],[2.479259,42.187112],[2.479256,42.187118],[2.479234,42.187158],[2.479029,42.187412],[2.478999,42.187464],[2.478988,42.187477],[2.478976,42.187514],[2.479047,42.187536],[2.479099,42.187551],[2.47914,42.187556],[2.4792,42.187564],[2.479578,42.186846],[2.479646,42.186879],[2.479689,42.186899],[2.480213,42.187287],[2.480221,42.187294],[2.480292,42.187346],[2.480293,42.187347],[2.480239,42.187379],[2.479945,42.187552],[2.479959,42.187567],[2.480537,42.188147],[2.480557,42.188127],[2.480854,42.187818],[2.480658,42.187624],[2.480633,42.187599],[2.480527,42.187494],[2.480905,42.187238],[2.480928,42.187222],[2.480967,42.187196],[2.481005,42.18717],[2.481151,42.187071],[2.481173,42.187056],[2.481275,42.186987],[2.48148,42.186804],[2.481688,42.186619],[2.481519,42.186466],[2.481628,42.186391],[2.482359,42.185927],[2.483299,42.185317],[2.483307,42.185311],[2.483807,42.18574],[2.483778,42.185782],[2.483736,42.185809],[2.483734,42.18581],[2.48298,42.186299],[2.482973,42.186316],[2.482972,42.186318],[2.482969,42.186326],[2.483092,42.186442],[2.483107,42.186432],[2.483109,42.186431],[2.483888,42.185919],[2.483907,42.185919],[2.48394,42.185951],[2.483966,42.185983],[2.483978,42.186016],[2.483978,42.186064],[2.483971,42.186106],[2.483974,42.186157],[2.484002,42.186195],[2.484037,42.186226],[2.48411,42.186252],[2.484152,42.186265],[2.484129,42.186319],[2.4841,42.186455],[2.48408,42.186541],[2.484102,42.186659],[2.484225,42.1867],[2.484302,42.186679],[2.484728,42.186422],[2.484765,42.186399],[2.484888,42.186325],[2.484939,42.186294],[2.485005,42.186255],[2.485035,42.186275],[2.485198,42.186389],[2.485226,42.18638],[2.48527,42.186365],[2.485375,42.186328],[2.485501,42.186245],[2.485412,42.186171],[2.485437,42.186153],[2.485412,42.186137],[2.485329,42.186085],[2.48553,42.185971],[2.485565,42.185952],[2.485669,42.186016],[2.486602,42.186587],[2.486641,42.18661],[2.486719,42.186659],[2.487115,42.186324],[2.487199,42.186306],[2.487258,42.186286],[2.487311,42.186257],[2.487356,42.186223],[2.487396,42.186182],[2.487428,42.186116],[2.487437,42.186064],[2.487698,42.185838],[2.487688,42.185832],[2.487865,42.185681],[2.487874,42.185673],[2.487921,42.185694],[2.487967,42.185715],[2.487995,42.185726],[2.488025,42.185734],[2.488088,42.185746],[2.488138,42.185753],[2.488198,42.185761],[2.488378,42.185753],[2.488967,42.1855],[2.489802,42.185111],[2.489914,42.185043],[2.489942,42.185038],[2.489958,42.185038],[2.489988,42.185041],[2.490006,42.185041],[2.490007,42.185132],[2.490007,42.185229],[2.490008,42.18531],[2.490005,42.185475],[2.490264,42.185473],[2.490274,42.18531],[2.490357,42.18531],[2.490877,42.18531],[2.490877,42.185298],[2.49105,42.185295],[2.491087,42.185294],[2.490985,42.185141],[2.491036,42.185139],[2.491051,42.185138],[2.490947,42.184963],[2.490993,42.184871],[2.491024,42.184807],[2.491119,42.184681],[2.491168,42.184615],[2.491181,42.184599],[2.491201,42.184575],[2.491282,42.184467],[2.491338,42.184497],[2.491432,42.184563],[2.491503,42.184609],[2.491573,42.184671],[2.491659,42.184751],[2.491735,42.184823],[2.491802,42.184888],[2.491956,42.184836],[2.49197,42.184867],[2.491978,42.184865],[2.491989,42.184883],[2.492014,42.184928],[2.492028,42.184959],[2.492072,42.185077],[2.492072,42.185087],[2.492074,42.185252],[2.492139,42.185316],[2.49214,42.185334],[2.49214,42.185344],[2.492103,42.185348],[2.492116,42.185488],[2.492128,42.185612],[2.492127,42.185655],[2.492135,42.185762],[2.492135,42.185805],[2.492116,42.185875],[2.492115,42.185883],[2.492095,42.186095],[2.492038,42.186094],[2.492031,42.186187],[2.492009,42.186216],[2.491983,42.186252],[2.491972,42.186322],[2.491958,42.186412],[2.491957,42.18642],[2.491951,42.18646],[2.491947,42.186494],[2.491937,42.18657],[2.491888,42.186567],[2.491635,42.186557],[2.491633,42.186598],[2.491691,42.186633],[2.491696,42.186731],[2.4917,42.186768],[2.49175,42.186791],[2.491806,42.186791],[2.491961,42.186884],[2.492019,42.186892],[2.492077,42.186898],[2.492105,42.186899],[2.492038,42.187756],[2.491791,42.188121],[2.491765,42.18837],[2.491746,42.188558],[2.491915,42.188578],[2.491963,42.188584],[2.491987,42.188577],[2.491984,42.188564],[2.491984,42.188545],[2.491993,42.188498],[2.492006,42.188428],[2.492019,42.188358],[2.492038,42.188262],[2.492056,42.188165],[2.49208,42.188037],[2.492103,42.187909],[2.492109,42.187862],[2.492118,42.187793],[2.492126,42.187733],[2.492127,42.187724],[2.492139,42.187657],[2.492148,42.187618],[2.492152,42.187602],[2.492156,42.187591],[2.492159,42.187582],[2.492169,42.187537],[2.492183,42.18747],[2.492207,42.187359],[2.492233,42.187238],[2.492255,42.187117],[2.492264,42.187036],[2.492267,42.18696],[2.492267,42.18694],[2.492261,42.186907],[2.492268,42.186908],[2.492275,42.186908],[2.49238,42.186248],[2.492396,42.186176],[2.492416,42.186076],[2.49242,42.186051],[2.492423,42.186039],[2.492426,42.186032],[2.49243,42.186026],[2.492434,42.18602],[2.492439,42.186015],[2.492448,42.186007],[2.492458,42.186001],[2.492463,42.185999],[2.492567,42.186003],[2.492652,42.186008],[2.492838,42.186019],[2.492842,42.186022],[2.492938,42.186095],[2.493043,42.186022],[2.493048,42.186023],[2.493059,42.186025],[2.493066,42.186027],[2.493072,42.186028],[2.493078,42.186031],[2.493085,42.186034],[2.493088,42.186037],[2.493094,42.186041],[2.493334,42.186239],[2.493339,42.186245],[2.493342,42.186249],[2.493343,42.186254],[2.493344,42.186262],[2.493346,42.186271],[2.493324,42.186354],[2.493273,42.186535],[2.493258,42.186591],[2.493253,42.186608],[2.493185,42.186795],[2.493223,42.186825],[2.493491,42.187021],[2.493579,42.187088],[2.493513,42.187135],[2.493708,42.187286],[2.493694,42.187296],[2.493854,42.18742],[2.493831,42.187471],[2.493944,42.187564],[2.493422,42.187955],[2.49385,42.188318],[2.494288,42.188686],[2.494315,42.188705],[2.494415,42.188774],[2.49442,42.188777],[2.49444,42.188782],[2.49451,42.188785],[2.494715,42.188794],[2.495,42.188617],[2.495046,42.188589],[2.49516,42.188519],[2.495207,42.188493],[2.495283,42.188533],[2.495484,42.188636],[2.495711,42.188777],[2.495738,42.188792],[2.4959,42.188873],[2.495935,42.189021],[2.496074,42.189111],[2.496222,42.189177],[2.496258,42.189156],[2.496413,42.189246],[2.496469,42.189375],[2.496399,42.189502],[2.496503,42.189595],[2.49667,42.189673],[2.496794,42.189733],[2.496958,42.189713],[2.497101,42.189911],[2.497384,42.19015],[2.497476,42.190142],[2.497584,42.190094],[2.49771,42.190039],[2.497862,42.190158],[2.497898,42.190132],[2.498084,42.190276],[2.498067,42.190286],[2.49809,42.190308],[2.498042,42.190336],[2.498123,42.190413],[2.498183,42.190379],[2.498252,42.190444],[2.498379,42.19037],[2.498486,42.190418],[2.498512,42.190434],[2.498566,42.190474],[2.498619,42.190515],[2.49867,42.190558],[2.498719,42.190602],[2.498765,42.190648],[2.49881,42.190694],[2.498851,42.19074],[2.498891,42.190787],[2.498928,42.190834],[2.498963,42.190883],[2.498996,42.190932],[2.499026,42.190982],[2.499055,42.191033],[2.499081,42.191084],[2.499105,42.191136],[2.499214,42.191384],[2.499446,42.192032],[2.499586,42.192405],[2.499613,42.192479],[2.49963,42.192525],[2.499679,42.192633],[2.499718,42.192725],[2.499761,42.192837],[2.499765,42.19285],[2.4998,42.192953],[2.499822,42.193015],[2.499834,42.193053],[2.499776,42.193062],[2.499657,42.193068],[2.499635,42.193114],[2.499585,42.193116],[2.499518,42.193118],[2.499479,42.193127],[2.499449,42.193135],[2.499436,42.193325],[2.499527,42.193344],[2.499587,42.193357],[2.499971,42.193397],[2.500154,42.193417],[2.500153,42.193418],[2.500221,42.193424],[2.500136,42.193842],[2.500592,42.193919],[2.5006,42.194015],[2.500739,42.195155],[2.501159,42.195169],[2.501356,42.195184],[2.501496,42.195178],[2.501645,42.195139],[2.501713,42.195104],[2.50176,42.195074],[2.501795,42.194978],[2.50181,42.194937],[2.502084,42.194123],[2.501616,42.194081],[2.501645,42.193984],[2.501895,42.193251],[2.501938,42.193114]],[[2.495548,42.184926],[2.49539,42.184828],[2.495311,42.184767],[2.495279,42.184706],[2.495214,42.184722],[2.49509,42.184599],[2.494996,42.18459],[2.49491,42.18451],[2.494888,42.184519],[2.494783,42.184445],[2.494673,42.184342],[2.494627,42.184289],[2.494549,42.184231],[2.494415,42.184131],[2.494218,42.183972],[2.494161,42.183935],[2.494083,42.183827],[2.494162,42.183795],[2.494103,42.183648],[2.494066,42.183502],[2.493968,42.183445],[2.49396,42.183309],[2.493975,42.183296],[2.49398,42.183016],[2.494047,42.183015],[2.494445,42.183013],[2.49453,42.183006],[2.494646,42.183018],[2.494748,42.183052],[2.494866,42.183119],[2.49499,42.183194],[2.495357,42.183438],[2.495691,42.183661],[2.495981,42.183859],[2.496236,42.184032],[2.496437,42.184166],[2.496536,42.184224],[2.496644,42.184279],[2.496711,42.184308],[2.497082,42.184443],[2.497001,42.184551],[2.496911,42.184681],[2.496862,42.184783],[2.496775,42.184883],[2.49675,42.184914],[2.496722,42.184955],[2.49672,42.184967],[2.496729,42.184978],[2.496731,42.184999],[2.496722,42.185019],[2.496702,42.185043],[2.496625,42.185133],[2.496523,42.185254],[2.496352,42.185205],[2.496045,42.185102],[2.495863,42.18504],[2.495658,42.184975],[2.495548,42.184926]],[[2.480904,42.184558],[2.481116,42.184615],[2.481117,42.184615],[2.481121,42.184616],[2.481125,42.184614],[2.481132,42.184617],[2.481142,42.184619],[2.481234,42.184637],[2.481359,42.184661],[2.481834,42.184755],[2.481814,42.184796],[2.481813,42.184799],[2.481557,42.185317],[2.48149,42.185494],[2.481486,42.185506],[2.481478,42.185526],[2.481441,42.185623],[2.481256,42.185728],[2.481028,42.185858],[2.481016,42.185856],[2.480932,42.185837],[2.48092,42.185834],[2.480914,42.185833],[2.480366,42.185678],[2.480352,42.185674],[2.480253,42.185645],[2.480876,42.184605],[2.480878,42.184601],[2.480902,42.184562],[2.480902,42.184561],[2.480904,42.184558]],[[2.490721,42.178022],[2.490771,42.177849],[2.49091,42.177452],[2.490759,42.177418],[2.490789,42.177348],[2.490798,42.177329],[2.490799,42.177328],[2.49101,42.176869],[2.491058,42.176865],[2.491183,42.176672],[2.49121,42.176626],[2.491315,42.176561],[2.491317,42.17656],[2.491408,42.176503],[2.491846,42.176972],[2.491935,42.177068],[2.491945,42.177097],[2.49195,42.177116],[2.491805,42.177636],[2.491795,42.177646],[2.491376,42.177558],[2.491379,42.17758],[2.491492,42.17812],[2.491465,42.178168],[2.491442,42.178194],[2.491395,42.178232],[2.491331,42.17822],[2.491055,42.178167],[2.490889,42.178134],[2.490764,42.17812],[2.490695,42.178112],[2.490719,42.178031],[2.490721,42.178022]]]]}},{"type":"Feature","id":"171143_171143 SI04 GAX 2","properties":{"area_id":"171143_171143 SI04 GAX 2","nom":"Polígon Industrial \"Sant Roc\"","codi_icgc":"171143 SI04 GAX 2","categoria":"Sector industrial","codi_municipi":"171143","municipi":"Olot","codi_comarca":"19","comarca":"Garrotxa","provincia":"Girona","font":"ICGC Àrees de poblament v3r1 202602"},"geometry":{"type":"MultiPolygon","coordinates":[[[[2.47155,42.164111],[2.471507,42.164188],[2.471425,42.164324],[2.471365,42.16448],[2.47131,42.164587],[2.471256,42.164669],[2.4712,42.164737],[2.471162,42.164797],[2.471147,42.164853],[2.471139,42.164978],[2.471126,42.1651],[2.471082,42.165195],[2.471062,42.165309],[2.471037,42.165398],[2.471013,42.165438],[2.470969,42.165507],[2.470898,42.1656],[2.470863,42.16566],[2.470818,42.165762],[2.470795,42.165831],[2.470782,42.165917],[2.470781,42.166014],[2.470781,42.166115],[2.470754,42.166198],[2.470735,42.166285],[2.470711,42.166378],[2.470684,42.166491],[2.470649,42.166536],[2.470585,42.166562],[2.470523,42.166565],[2.470488,42.166584],[2.470389,42.166719],[2.470274,42.16685],[2.470217,42.166967],[2.470208,42.167005],[2.470191,42.167312],[2.470181,42.167504],[2.470294,42.167512],[2.47026,42.16794],[2.471298,42.167986],[2.47133,42.167617],[2.472459,42.167657],[2.472512,42.166676],[2.472177,42.166665],[2.472054,42.166655],[2.47205,42.166548],[2.472152,42.165282],[2.472156,42.165215],[2.472377,42.165107],[2.47241,42.165092],[2.472146,42.164781],[2.471692,42.164211],[2.471599,42.164106],[2.471567,42.164092],[2.47155,42.164111]]]]}},{"type":"Feature","id":"171143_171143 SI14 GAX 2","properties":{"area_id":"171143_171143 SI14 GAX 2","nom":"Polígon industrial La Canya-Cuní","codi_icgc":"171143 SI14 GAX 2","categoria":"Sector industrial","codi_municipi":"171143","municipi":"Olot","codi_comarca":"19","comarca":"Garrotxa","provincia":"Girona","font":"ICGC Àrees de poblament v3r1 202602"},"geometry":{"type":"MultiPolygon","coordinates":[[[[2.49545,42.201502],[2.495504,42.201436],[2.495543,42.201224],[2.495537,42.201185],[2.495402,42.200386],[2.495304,42.199734],[2.495321,42.199552],[2.495366,42.19908],[2.495434,42.198314],[2.495548,42.198305],[2.495561,42.198153],[2.495561,42.198142],[2.495589,42.197835],[2.495648,42.197186],[2.495587,42.197185],[2.495165,42.197182],[2.49489,42.197174],[2.494885,42.197355],[2.4941,42.197816],[2.494122,42.198021],[2.494149,42.198641],[2.494259,42.201233],[2.494251,42.201265],[2.49425,42.201298],[2.494257,42.201331],[2.494271,42.201363],[2.494291,42.201392],[2.494318,42.201419],[2.494351,42.201441],[2.494388,42.20146],[2.494428,42.201474],[2.494471,42.201482],[2.494516,42.201485],[2.49456,42.201483],[2.494604,42.201475],[2.49545,42.201502]]]]}},{"type":"Feature","id":"171143_171143 SI16 GAX 2","properties":{"area_id":"171143_171143 SI16 GAX 2","nom":"Polígon industrial La Canya-Escola Llar","codi_icgc":"171143 SI16 GAX 2","categoria":"Sector industrial","codi_municipi":"171143","municipi":"Olot","codi_comarca":"19","comarca":"Garrotxa","provincia":"Girona","font":"ICGC Àrees de poblament v3r1 202602"},"geometry":{"type":"MultiPolygon","coordinates":[[[[2.49852,42.19752],[2.498567,42.197778],[2.498626,42.198086],[2.496735,42.19784],[2.496523,42.197817],[2.496348,42.197814],[2.495589,42.197835],[2.495561,42.198142],[2.495561,42.198153],[2.495548,42.198305],[2.495434,42.198314],[2.495366,42.19908],[2.495321,42.199552],[2.495304,42.199734],[2.495402,42.200386],[2.495537,42.201185],[2.496713,42.201061],[2.498133,42.201212],[2.49821,42.200858],[2.498264,42.200611],[2.498896,42.198121],[2.498898,42.198113],[2.498928,42.198117],[2.499061,42.197491],[2.498827,42.197464],[2.498726,42.197465],[2.49867,42.19747],[2.498607,42.197487],[2.498557,42.1975],[2.49852,42.19752]]]]}},{"type":"Feature","id":"171143_171143 SI15 GAX 2","properties":{"area_id":"171143_171143 SI15 GAX 2","nom":"Polígon industrial La Canya-Molí d'en Noc","codi_icgc":"171143 SI15 GAX 2","categoria":"Sector industrial","codi_municipi":"171143","municipi":"Olot","codi_comarca":"19","comarca":"Garrotxa","provincia":"Girona","font":"ICGC Àrees de poblament v3r1 202602"},"geometry":{"type":"MultiPolygon","coordinates":[[[[2.499632,42.199933],[2.499653,42.199924],[2.499664,42.199925],[2.49968,42.199927],[2.499703,42.199934],[2.499714,42.199936],[2.499761,42.199932],[2.499794,42.199917],[2.499977,42.199832],[2.500327,42.199634],[2.500348,42.199622],[2.500386,42.199594],[2.500417,42.199562],[2.50044,42.199526],[2.500455,42.199488],[2.500461,42.199449],[2.500461,42.199439],[2.500457,42.199407],[2.500448,42.199376],[2.500435,42.199349],[2.500433,42.199346],[2.500376,42.199269],[2.500175,42.199006],[2.500127,42.198944],[2.500029,42.198815],[2.499986,42.198758],[2.499927,42.198625],[2.499886,42.19849],[2.499862,42.198442],[2.499858,42.198433],[2.499857,42.198422],[2.499822,42.198095],[2.499804,42.197927],[2.499802,42.197913],[2.499796,42.197851],[2.499795,42.197839],[2.499754,42.197834],[2.499766,42.197798],[2.499786,42.197737],[2.499813,42.19767],[2.499841,42.197603],[2.499853,42.197556],[2.499863,42.197483],[2.499869,42.197447],[2.49988,42.197412],[2.499906,42.197342],[2.499934,42.197271],[2.499957,42.197213],[2.499566,42.197137],[2.4994,42.197078],[2.499378,42.197109],[2.499359,42.197139],[2.499352,42.197152],[2.499347,42.197161],[2.499338,42.197182],[2.499338,42.197182],[2.499314,42.197239],[2.499297,42.197281],[2.499292,42.197294],[2.499259,42.197407],[2.499234,42.197521],[2.49921,42.197656],[2.499186,42.197791],[2.499214,42.197795],[2.499194,42.19785],[2.49919,42.197859],[2.499189,42.197862],[2.499177,42.197892],[2.499176,42.197898],[2.499041,42.198464],[2.498924,42.198889],[2.498886,42.199027],[2.498783,42.199439],[2.498781,42.199451],[2.498671,42.199965],[2.498591,42.200357],[2.498513,42.200725],[2.498834,42.200755],[2.498888,42.200619],[2.498951,42.200485],[2.499,42.200392],[2.499054,42.2003],[2.499139,42.20022],[2.499189,42.200197],[2.499585,42.199968],[2.499632,42.199933]]]]}},{"type":"Feature","id":"171143_171143 SI02 GAX 2","properties":{"area_id":"171143_171143 SI02 GAX 2","nom":"Polígon industrial La Guardiola","codi_icgc":"171143 SI02 GAX 2","categoria":"Sector industrial","codi_municipi":"171143","municipi":"Olot","codi_comarca":"19","comarca":"Garrotxa","provincia":"Girona","font":"ICGC Àrees de poblament v3r1 202602"},"geometry":{"type":"MultiPolygon","coordinates":[[[[2.473736,42.190334],[2.473735,42.190333],[2.473725,42.19032],[2.473703,42.190291],[2.473515,42.190024],[2.473512,42.190019],[2.473528,42.190011],[2.473648,42.189955],[2.473797,42.189899],[2.473869,42.189811],[2.473878,42.1898],[2.473888,42.189789],[2.473973,42.189659],[2.473977,42.189651],[2.473981,42.189642],[2.473391,42.189449],[2.4737,42.188876],[2.473739,42.188803],[2.473747,42.188788],[2.473734,42.188784],[2.473755,42.188719],[2.472794,42.188417],[2.472738,42.188399],[2.471932,42.188146],[2.469885,42.18749],[2.469849,42.187534],[2.469839,42.187557],[2.469823,42.187595],[2.469759,42.187621],[2.469691,42.187641],[2.469622,42.187655],[2.469613,42.187657],[2.469473,42.18788],[2.469197,42.188321],[2.469175,42.188356],[2.469106,42.188427],[2.469076,42.188504],[2.469009,42.188673],[2.46901,42.188674],[2.469097,42.188715],[2.469195,42.188764],[2.469289,42.188818],[2.469434,42.188905],[2.469574,42.188995],[2.469717,42.189101],[2.469861,42.189208],[2.469982,42.189293],[2.470103,42.189375],[2.47023,42.189467],[2.470359,42.189559],[2.470427,42.189604],[2.470578,42.189697],[2.470579,42.189697],[2.47058,42.189698],[2.470672,42.189755],[2.47074,42.189792],[2.470833,42.189842],[2.470926,42.189893],[2.471027,42.189944],[2.47108,42.189967],[2.471134,42.189989],[2.471238,42.190026],[2.471342,42.190064],[2.471452,42.190104],[2.471564,42.190144],[2.471694,42.190176],[2.471822,42.190207],[2.471945,42.190237],[2.472069,42.190267],[2.47219,42.190289],[2.472372,42.190313],[2.472553,42.190333],[2.472709,42.190351],[2.472865,42.190369],[2.473336,42.19042],[2.473526,42.190442],[2.47362,42.190455],[2.473725,42.190473],[2.473861,42.190497],[2.474006,42.190534],[2.474202,42.19059],[2.474395,42.190649],[2.474586,42.190713],[2.474774,42.190782],[2.474956,42.190853],[2.475038,42.190887],[2.475764,42.189628],[2.475691,42.189655],[2.474543,42.190082],[2.474083,42.190267],[2.473807,42.190376],[2.473757,42.190362],[2.47375,42.190353],[2.473736,42.190334]]]]}},{"type":"Feature","id":"171143_171143 SI10 GAX 2","properties":{"area_id":"171143_171143 SI10 GAX 2","nom":"Polígon industrial Les Mates","codi_icgc":"171143 SI10 GAX 2","categoria":"Sector industrial","codi_municipi":"171143","municipi":"Olot","codi_comarca":"19","comarca":"Garrotxa","provincia":"Girona","font":"ICGC Àrees de poblament v3r1 202602"},"geometry":{"type":"MultiPolygon","coordinates":[[[[2.501736,42.193945],[2.502221,42.194032],[2.502262,42.194056],[2.501907,42.195149],[2.501954,42.195132],[2.502041,42.1951],[2.502118,42.195071],[2.502202,42.19503],[2.502305,42.194986],[2.502432,42.194928],[2.502549,42.194879],[2.502692,42.19483],[2.502838,42.194771],[2.503285,42.19464],[2.503498,42.194586],[2.503624,42.194555],[2.503774,42.194518],[2.504293,42.194427],[2.504682,42.194386],[2.505197,42.194347],[2.505729,42.194332],[2.505846,42.194327],[2.506422,42.1943],[2.506623,42.194284],[2.506892,42.194241],[2.507075,42.1942],[2.507227,42.194162],[2.507392,42.194114],[2.507503,42.194071],[2.50765,42.194018],[2.507766,42.19397],[2.507872,42.19392],[2.507974,42.19386],[2.508288,42.193635],[2.508354,42.19359],[2.50844,42.193504],[2.508643,42.193309],[2.508811,42.193116],[2.508962,42.192917],[2.508831,42.192876],[2.508025,42.192721],[2.507359,42.192593],[2.507367,42.192569],[2.507377,42.19254],[2.50656,42.192383],[2.506503,42.192419],[2.504859,42.192134],[2.504593,42.192903],[2.504371,42.193642],[2.504315,42.193636],[2.504203,42.193624],[2.501958,42.193244],[2.501736,42.193945]]]]}},{"type":"Feature","id":"171143_171143 SI01 GAX 2","properties":{"area_id":"171143_171143 SI01 GAX 2","nom":"Polígon industrial Pla de Baix","codi_icgc":"171143 SI01 GAX 2","categoria":"Sector industrial","codi_municipi":"171143","municipi":"Olot","codi_comarca":"19","comarca":"Garrotxa","provincia":"Girona","font":"ICGC Àrees de poblament v3r1 202602"},"geometry":{"type":"MultiPolygon","coordinates":[[[[2.477878,42.191629],[2.478201,42.191681],[2.478534,42.191769],[2.478832,42.19183],[2.478914,42.191848],[2.478969,42.191859],[2.479016,42.191868],[2.479057,42.191861],[2.47914,42.191809],[2.479286,42.191751],[2.479449,42.191661],[2.479451,42.191663],[2.480235,42.192376],[2.480363,42.1923],[2.481152,42.193006],[2.481291,42.192947],[2.481546,42.193181],[2.481591,42.193223],[2.4816,42.193231],[2.481612,42.193225],[2.481693,42.193187],[2.481822,42.193126],[2.481925,42.193077],[2.481953,42.193064],[2.482042,42.193022],[2.482057,42.193026],[2.482125,42.193047],[2.482211,42.193115],[2.482223,42.193107],[2.482238,42.193099],[2.482272,42.193086],[2.482309,42.193078],[2.482348,42.193076],[2.482385,42.19308],[2.482422,42.19309],[2.482454,42.193104],[2.482483,42.193124],[2.482505,42.193147],[2.482467,42.193177],[2.482606,42.193301],[2.482745,42.193424],[2.482815,42.193482],[2.482927,42.193564],[2.483043,42.193644],[2.483161,42.193724],[2.483285,42.1938],[2.483413,42.193871],[2.483546,42.193939],[2.483689,42.194009],[2.483762,42.194042],[2.483837,42.194072],[2.483963,42.194121],[2.484089,42.19417],[2.484111,42.194132],[2.484305,42.194197],[2.484287,42.194239],[2.48477,42.194386],[2.484801,42.194335],[2.485188,42.194443],[2.485574,42.194551],[2.48604,42.194683],[2.486506,42.194816],[2.486531,42.194823],[2.48671,42.194796],[2.489635,42.194352],[2.48973,42.194338],[2.489735,42.194337],[2.489704,42.193761],[2.489689,42.193584],[2.489687,42.193565],[2.489651,42.193131],[2.489639,42.192828],[2.489578,42.192816],[2.48952,42.192798],[2.489465,42.192775],[2.489415,42.192747],[2.48937,42.192714],[2.489337,42.192683],[2.489309,42.19265],[2.48928,42.192607],[2.48926,42.192561],[2.489248,42.192513],[2.489245,42.192465],[2.48925,42.192417],[2.489263,42.192369],[2.489244,42.192343],[2.489221,42.192323],[2.489208,42.192316],[2.489193,42.192311],[2.489064,42.192281],[2.488933,42.192253],[2.488671,42.192198],[2.488408,42.192144],[2.488386,42.19214],[2.488378,42.192129],[2.488369,42.192137],[2.488352,42.192134],[2.488296,42.192125],[2.488283,42.192124],[2.488271,42.192124],[2.488249,42.19213],[2.48823,42.192141],[2.488192,42.192178],[2.488155,42.192215],[2.488074,42.192284],[2.487989,42.19235],[2.487961,42.19237],[2.487892,42.192416],[2.48779,42.192478],[2.487673,42.192543],[2.487551,42.192604],[2.487539,42.192609],[2.487424,42.192658],[2.487292,42.192705],[2.487177,42.19274],[2.487058,42.192768],[2.486894,42.192798],[2.486728,42.192823],[2.486626,42.192835],[2.486531,42.192843],[2.48653,42.192843],[2.486524,42.192844],[2.486438,42.192847],[2.486309,42.192847],[2.486239,42.192843],[2.485852,42.192797],[2.485619,42.192749],[2.485548,42.192734],[2.485516,42.192746],[2.484888,42.193558],[2.484575,42.193451],[2.484457,42.193426],[2.48418,42.193245],[2.484063,42.193122],[2.48395,42.192996],[2.483849,42.192875],[2.483749,42.192754],[2.483684,42.192669],[2.483619,42.192584],[2.483597,42.192561],[2.483556,42.192531],[2.483217,42.192178],[2.483213,42.19217],[2.483209,42.192165],[2.483175,42.19213],[2.483115,42.192075],[2.482925,42.19191],[2.48265,42.191669],[2.482402,42.191455],[2.482166,42.191246],[2.481933,42.191036],[2.481872,42.190982],[2.481808,42.190929],[2.481802,42.190926],[2.48179,42.190926],[2.481778,42.190929],[2.481766,42.190933],[2.48166,42.190841],[2.48166,42.19084],[2.481663,42.190817],[2.481662,42.190802],[2.481663,42.190795],[2.481659,42.19079],[2.48165,42.190789],[2.481641,42.19079],[2.481633,42.19079],[2.481624,42.19079],[2.481609,42.190791],[2.481271,42.190471],[2.481246,42.190447],[2.481055,42.190284],[2.480446,42.189764],[2.480121,42.189578],[2.480086,42.189561],[2.48007,42.189553],[2.480052,42.189545],[2.479983,42.189512],[2.479916,42.189483],[2.479811,42.189443],[2.479759,42.189427],[2.479838,42.189325],[2.480086,42.189003],[2.480199,42.188841],[2.48036,42.188636],[2.480315,42.188553],[2.480409,42.188493],[2.480407,42.188442],[2.480571,42.18827],[2.480194,42.187959],[2.480063,42.187841],[2.479302,42.187596],[2.478989,42.18816],[2.478823,42.18846],[2.478803,42.188482],[2.478689,42.188702],[2.478595,42.188891],[2.478378,42.188842],[2.47826,42.188806],[2.478025,42.188734],[2.47797,42.188837],[2.477952,42.188866],[2.477952,42.188866],[2.477803,42.18882],[2.477287,42.189021],[2.477093,42.189376],[2.477013,42.18952],[2.477024,42.189523],[2.477015,42.189534],[2.477653,42.189721],[2.478024,42.189826],[2.478039,42.189866],[2.478045,42.189906],[2.478044,42.189947],[2.478034,42.189987],[2.478016,42.190026],[2.47799,42.190062],[2.477958,42.190095],[2.477919,42.190124],[2.477875,42.190148],[2.477827,42.190168],[2.477741,42.190165],[2.477688,42.190144],[2.477665,42.190097],[2.477646,42.19005],[2.47755,42.189986],[2.476956,42.189819],[2.476903,42.189808],[2.476859,42.189832],[2.476772,42.189979],[2.476611,42.190257],[2.47625,42.190888],[2.476143,42.191031],[2.476267,42.191074],[2.476594,42.191162],[2.476934,42.191267],[2.477187,42.191454],[2.477878,42.191629]]]]}},{"type":"Feature","id":"171143_171143 AP07 GAX 2","properties":{"area_id":"171143_171143 AP07 GAX 2","nom":"Sant Andreu","codi_icgc":"171143 AP07 GAX 2","categoria":"Àrees de poblament","codi_municipi":"171143","municipi":"Olot","codi_comarca":"19","comarca":"Garrotxa","provincia":"Girona","font":"ICGC Àrees de poblament v3r1 202602"},"geometry":{"type":"MultiPolygon","coordinates":[[[[2.47402,42.189564],[2.474433,42.189683],[2.474793,42.18905],[2.474044,42.188806],[2.473949,42.188773],[2.473583,42.18944],[2.47402,42.189564]]]]}},{"type":"Feature","id":"171143_171143 AP05 GAX 3","properties":{"area_id":"171143_171143 AP05 GAX 3","nom":"Sant Cristòfol les Fonts","codi_icgc":"171143 AP05 GAX 3","categoria":"Àrees de poblament","codi_municipi":"171143","municipi":"Olot","codi_comarca":"19","comarca":"Garrotxa","provincia":"Girona","font":"ICGC Àrees de poblament v3r1 202602"},"geometry":{"type":"MultiPolygon","coordinates":[[[[2.500274,42.168234],[2.500271,42.168124],[2.500267,42.167903],[2.500275,42.167703],[2.500272,42.167588],[2.500259,42.167488],[2.500175,42.167216],[2.500114,42.16703],[2.500076,42.166887],[2.500034,42.166826],[2.500015,42.166798],[2.499423,42.166924],[2.498863,42.167186],[2.498767,42.16726],[2.498737,42.16731],[2.498732,42.167339],[2.498629,42.167407],[2.498451,42.167554],[2.498362,42.167482],[2.498327,42.167491],[2.498198,42.167553],[2.498095,42.167648],[2.498011,42.167769],[2.497956,42.167859],[2.49792,42.167899],[2.497578,42.167857],[2.497346,42.167535],[2.496963,42.167714],[2.496993,42.167924],[2.497078,42.168122],[2.497382,42.16827],[2.497184,42.168573],[2.496914,42.168795],[2.496902,42.168836],[2.497072,42.169081],[2.497506,42.168866],[2.497985,42.168564],[2.498104,42.168465],[2.498145,42.168489],[2.498483,42.168349],[2.498607,42.16826],[2.498746,42.168413],[2.498858,42.168504],[2.499367,42.168196],[2.499437,42.168254],[2.49951,42.168318],[2.49955,42.168381],[2.499614,42.168481],[2.499642,42.168521],[2.499686,42.168575],[2.499789,42.168704],[2.499684,42.168779],[2.499631,42.168819],[2.499363,42.169026],[2.499631,42.169142],[2.499902,42.168962],[2.500056,42.168817],[2.500138,42.168638],[2.500192,42.168508],[2.500265,42.168284],[2.500274,42.168234]]],[[[2.500545,42.172109],[2.500587,42.1719],[2.50064,42.171773],[2.50077,42.171586],[2.500839,42.171473],[2.500843,42.171389],[2.500808,42.171312],[2.500744,42.171255],[2.500934,42.171107],[2.501003,42.170958],[2.501209,42.170849],[2.501215,42.170788],[2.501229,42.170696],[2.501233,42.170661],[2.501237,42.170644],[2.501246,42.170628],[2.501281,42.170587],[2.501319,42.170548],[2.50136,42.170501],[2.501288,42.170448],[2.501345,42.170392],[2.501634,42.170262],[2.501775,42.170179],[2.501855,42.17012],[2.501964,42.17001],[2.502163,42.169761],[2.502179,42.169693],[2.502172,42.169627],[2.50214,42.169576],[2.502108,42.169543],[2.502112,42.169525],[2.502296,42.169613],[2.502399,42.169546],[2.502399,42.169546],[2.502405,42.169529],[2.502408,42.169522],[2.502411,42.169515],[2.502415,42.169509],[2.502419,42.169502],[2.502423,42.169496],[2.502427,42.169489],[2.502431,42.169483],[2.502436,42.169477],[2.502441,42.169471],[2.502447,42.169464],[2.502452,42.169461],[2.502456,42.169458],[2.502461,42.169455],[2.502465,42.169453],[2.502469,42.169451],[2.502474,42.169448],[2.502489,42.169442],[2.502501,42.169438],[2.502513,42.169432],[2.502525,42.169426],[2.502537,42.16942],[2.502548,42.169413],[2.50256,42.169406],[2.502564,42.169404],[2.502569,42.169402],[2.502574,42.169401],[2.502775,42.169284],[2.503033,42.169402],[2.503139,42.169349],[2.503144,42.169323],[2.503157,42.16929],[2.503173,42.169258],[2.50319,42.169237],[2.503254,42.169174],[2.503323,42.169116],[2.50335,42.169095],[2.503403,42.169054],[2.503464,42.169006],[2.503471,42.169001],[2.503482,42.168992],[2.503556,42.168935],[2.503589,42.168909],[2.503598,42.168902],[2.50363,42.168877],[2.503684,42.168831],[2.503734,42.168781],[2.503777,42.168725],[2.503329,42.168332],[2.500197,42.17038],[2.500253,42.170523],[2.500323,42.170557],[2.500559,42.170653],[2.500623,42.17073],[2.500699,42.170816],[2.500454,42.171027],[2.500259,42.171293],[2.499955,42.171692],[2.499617,42.171567],[2.49928,42.172032],[2.499701,42.172191],[2.499831,42.172011],[2.500406,42.172233],[2.500487,42.172266],[2.50052,42.172213],[2.500545,42.172109]]]]}},{"type":"Feature","id":"171143_171143 SI12 GAX 2","properties":{"area_id":"171143_171143 SI12 GAX 2","nom":"Sòl industrial \"Carrer de Cervantes\"","codi_icgc":"171143 SI12 GAX 2","categoria":"Sector industrial","codi_municipi":"171143","municipi":"Olot","codi_comarca":"19","comarca":"Garrotxa","provincia":"Girona","font":"ICGC Àrees de poblament v3r1 202602"},"geometry":{"type":"MultiPolygon","coordinates":[[[[2.482026,42.186873],[2.482418,42.187189],[2.483238,42.186655],[2.482881,42.186357],[2.48282,42.186283],[2.483667,42.185739],[2.483297,42.18541],[2.481656,42.186472],[2.481678,42.186495],[2.48191,42.186701],[2.481854,42.186737],[2.481792,42.186788],[2.481798,42.186799],[2.481956,42.186918],[2.482026,42.186873]]]]}},{"type":"Feature","id":"171143_171143 SI11 GAX 2","properties":{"area_id":"171143_171143 SI11 GAX 2","nom":"Sòl industrial \"Carretera La Canya\"","codi_icgc":"171143 SI11 GAX 2","categoria":"Sector industrial","codi_municipi":"171143","municipi":"Olot","codi_comarca":"19","comarca":"Garrotxa","provincia":"Girona","font":"ICGC Àrees de poblament v3r1 202602"},"geometry":{"type":"MultiPolygon","coordinates":[[[[2.497438,42.195525],[2.497322,42.19558],[2.497162,42.195636],[2.496966,42.195706],[2.497669,42.196636],[2.497801,42.19661],[2.498813,42.196452],[2.498882,42.196401],[2.498972,42.196335],[2.499069,42.196251],[2.499161,42.196164],[2.499248,42.196073],[2.499329,42.195981],[2.499405,42.195885],[2.499635,42.195264],[2.499846,42.194315],[2.500048,42.193444],[2.499517,42.193374],[2.499511,42.193393],[2.499415,42.193766],[2.499333,42.193754],[2.499273,42.194038],[2.499142,42.194022],[2.499111,42.194032],[2.499094,42.194046],[2.499084,42.194068],[2.498967,42.194577],[2.499101,42.194589],[2.498832,42.194915],[2.498409,42.195201],[2.498222,42.195345],[2.498203,42.195368],[2.498182,42.19539],[2.498207,42.195436],[2.498133,42.195509],[2.498075,42.195537],[2.497963,42.19557],[2.497898,42.195606],[2.497831,42.195634],[2.497732,42.195634],[2.497652,42.195583],[2.497539,42.195518],[2.497438,42.195525]]]]}},{"type":"Feature","id":"171143_171143 SI08 GAX 2","properties":{"area_id":"171143_171143 SI08 GAX 2","nom":"Sòl industrial \"La Rodona\"","codi_icgc":"171143 SI08 GAX 2","categoria":"Sector industrial","codi_municipi":"171143","municipi":"Olot","codi_comarca":"19","comarca":"Garrotxa","provincia":"Girona","font":"ICGC Àrees de poblament v3r1 202602"},"geometry":{"type":"MultiPolygon","coordinates":[[[[2.498341,42.187207],[2.498272,42.187242],[2.497492,42.187723],[2.498526,42.188658],[2.499186,42.188239],[2.498878,42.187986],[2.498707,42.187815],[2.498687,42.187792],[2.498912,42.187655],[2.498441,42.187156],[2.498395,42.18718],[2.498341,42.187207]]]]}},{"type":"Feature","id":"171143_171143 SI13 GAX 2","properties":{"area_id":"171143_171143 SI13 GAX 2","nom":"Sòl industrial \"Pont de la Ceràmica\"","codi_icgc":"171143 SI13 GAX 2","categoria":"Sector industrial","codi_municipi":"171143","municipi":"Olot","codi_comarca":"19","comarca":"Garrotxa","provincia":"Girona","font":"ICGC Àrees de poblament v3r1 202602"},"geometry":{"type":"MultiPolygon","coordinates":[[[[2.481813,42.184799],[2.481814,42.184796],[2.481809,42.184798],[2.481813,42.184791],[2.481239,42.184695],[2.480956,42.184637],[2.480378,42.185664],[2.480948,42.185833],[2.481473,42.185528],[2.481478,42.185526],[2.481486,42.185506],[2.48149,42.185494],[2.481557,42.185317],[2.481813,42.184799]]]]}},{"type":"Feature","id":"171143_171143 SI03 GAX 2","properties":{"area_id":"171143_171143 SI03 GAX 2","nom":"Sòl industrial \"Sant Andreu\"","codi_icgc":"171143 SI03 GAX 2","categoria":"Sector industrial","codi_municipi":"171143","municipi":"Olot","codi_comarca":"19","comarca":"Garrotxa","provincia":"Girona","font":"ICGC Àrees de poblament v3r1 202602"},"geometry":{"type":"MultiPolygon","coordinates":[[[[2.474448,42.190041],[2.475473,42.189635],[2.475574,42.189604],[2.475664,42.189569],[2.475676,42.189552],[2.475741,42.189453],[2.475751,42.189438],[2.475769,42.189408],[2.475767,42.189377],[2.475578,42.189317],[2.475395,42.189254],[2.475214,42.189189],[2.475091,42.189149],[2.47496,42.189111],[2.474859,42.189077],[2.474839,42.189118],[2.474817,42.189161],[2.474803,42.189187],[2.474716,42.189333],[2.474434,42.189803],[2.474417,42.18983],[2.474357,42.189936],[2.473878,42.1898],[2.473869,42.189811],[2.473797,42.189899],[2.473648,42.189955],[2.473528,42.190011],[2.473512,42.190019],[2.473515,42.190024],[2.473703,42.190291],[2.473725,42.19032],[2.473735,42.190333],[2.473736,42.190334],[2.473992,42.190232],[2.474448,42.190041],[2.474448,42.190041]]]]}},{"type":"Feature","id":"171143_171143 SI06 GAX 2","properties":{"area_id":"171143_171143 SI06 GAX 2","nom":"Sòl industrial \"c/. Maragall\"","codi_icgc":"171143 SI06 GAX 2","categoria":"Sector industrial","codi_municipi":"171143","municipi":"Olot","codi_comarca":"19","comarca":"Garrotxa","provincia":"Girona","font":"ICGC Àrees de poblament v3r1 202602"},"geometry":{"type":"MultiPolygon","coordinates":[[[[2.491317,42.17656],[2.491315,42.176561],[2.49121,42.176626],[2.491183,42.176672],[2.491058,42.176865],[2.49101,42.176869],[2.490799,42.177328],[2.49093,42.177356],[2.490933,42.177357],[2.49091,42.177452],[2.490771,42.177849],[2.490721,42.178022],[2.490719,42.178031],[2.491033,42.178085],[2.491303,42.178125],[2.491301,42.178077],[2.491266,42.177951],[2.491399,42.177932],[2.491345,42.177668],[2.491312,42.177533],[2.491342,42.177432],[2.491362,42.177441],[2.491648,42.177503],[2.491789,42.177173],[2.491809,42.17711],[2.491317,42.17656]]]]}},{"type":"Feature","id":"171143_171143 SI07 GAX 2","properties":{"area_id":"171143_171143 SI07 GAX 2","nom":"Sòl industrial \"c/. Terrassa\"","codi_icgc":"171143 SI07 GAX 2","categoria":"Sector industrial","codi_municipi":"171143","municipi":"Olot","codi_comarca":"19","comarca":"Garrotxa","provincia":"Girona","font":"ICGC Àrees de poblament v3r1 202602"},"geometry":{"type":"MultiPolygon","coordinates":[[[[2.494452,42.18303],[2.494321,42.183203],[2.49429,42.183261],[2.494289,42.183303],[2.494339,42.183447],[2.494371,42.183516],[2.494475,42.18371],[2.494513,42.183764],[2.494578,42.183831],[2.494702,42.183932],[2.494921,42.184093],[2.495124,42.184246],[2.495186,42.184298],[2.495252,42.18437],[2.495296,42.184407],[2.495339,42.184444],[2.495425,42.184489],[2.495575,42.184562],[2.49574,42.184642],[2.495918,42.184729],[2.496032,42.18478],[2.496195,42.184857],[2.496321,42.184909],[2.496482,42.184964],[2.496615,42.185002],[2.496649,42.184982],[2.496692,42.184928],[2.496736,42.184867],[2.49698,42.184515],[2.496545,42.184353],[2.496461,42.184316],[2.495718,42.183817],[2.4946,42.183092],[2.494531,42.183062],[2.494452,42.18303]]]]}},{"type":"Feature","id":"171143_171143 AP02 GAX 2","properties":{"area_id":"171143_171143 AP02 GAX 2","nom":"el Morrot","codi_icgc":"171143 AP02 GAX 2","categoria":"Àrees de poblament","codi_municipi":"171143","municipi":"Olot","codi_comarca":"19","comarca":"Garrotxa","provincia":"Girona","font":"ICGC Àrees de poblament v3r1 202602"},"geometry":{"type":"MultiPolygon","coordinates":[[[[2.483336,42.192115],[2.483346,42.192124],[2.483505,42.192059],[2.483602,42.192069],[2.483725,42.192202],[2.483781,42.19228],[2.483886,42.192428],[2.484213,42.192902],[2.484119,42.192957],[2.484121,42.19296],[2.484125,42.192966],[2.484395,42.193252],[2.484467,42.193286],[2.484951,42.193127],[2.484964,42.193123],[2.485024,42.193181],[2.485597,42.192488],[2.485698,42.192514],[2.485779,42.192534],[2.485781,42.192535],[2.485961,42.192568],[2.486076,42.19259],[2.486299,42.192632],[2.486301,42.192452],[2.486301,42.192418],[2.48637,42.192409],[2.486797,42.192358],[2.486743,42.192194],[2.486739,42.192182],[2.486716,42.192113],[2.486825,42.192092],[2.487159,42.191901],[2.48744,42.191714],[2.487595,42.191732],[2.487708,42.191788],[2.487978,42.191924],[2.488058,42.191963],[2.488089,42.191978],[2.488305,42.192033],[2.488944,42.192164],[2.489472,42.191808],[2.489048,42.191281],[2.489103,42.191246],[2.489189,42.191191],[2.489306,42.191116],[2.489299,42.191065],[2.489289,42.190984],[2.489252,42.190943],[2.489158,42.190863],[2.489113,42.190827],[2.489025,42.190755],[2.488899,42.19076],[2.488732,42.190708],[2.488186,42.190748],[2.488202,42.190788],[2.488204,42.190793],[2.488204,42.190804],[2.488197,42.190815],[2.488184,42.190821],[2.48753,42.190952],[2.487529,42.190952],[2.487512,42.190952],[2.487497,42.190946],[2.487486,42.190936],[2.487483,42.190924],[2.487404,42.190727],[2.487407,42.190714],[2.487417,42.190704],[2.487426,42.190699],[2.487492,42.190689],[2.487477,42.190653],[2.487472,42.190639],[2.487413,42.190494],[2.487056,42.190569],[2.486763,42.190523],[2.486758,42.19051],[2.486735,42.190445],[2.486516,42.190484],[2.486231,42.190439],[2.486246,42.190361],[2.486149,42.190361],[2.486075,42.190105],[2.486314,42.190161],[2.486334,42.190125],[2.486757,42.190056],[2.486788,42.190069],[2.486865,42.190071],[2.486941,42.190073],[2.487011,42.190078],[2.487081,42.19009],[2.487152,42.190109],[2.487223,42.190128],[2.487303,42.190146],[2.487385,42.190158],[2.487455,42.190161],[2.487461,42.19016],[2.487474,42.19016],[2.487525,42.190157],[2.487537,42.190155],[2.487606,42.190148],[2.487687,42.190137],[2.487786,42.190119],[2.487883,42.190096],[2.487942,42.190077],[2.487967,42.190069],[2.488048,42.190039],[2.488207,42.189973],[2.488283,42.189941],[2.488356,42.189906],[2.488403,42.18988],[2.488435,42.189859],[2.488464,42.189836],[2.488512,42.189789],[2.488516,42.189786],[2.488549,42.189753],[2.488577,42.189719],[2.48859,42.189694],[2.488608,42.189648],[2.488626,42.189602],[2.488718,42.189364],[2.48864,42.189316],[2.488526,42.189359],[2.48825,42.189391],[2.488178,42.1894],[2.487975,42.189424],[2.487848,42.189437],[2.487721,42.189452],[2.487634,42.189467],[2.487548,42.189486],[2.487536,42.189489],[2.487474,42.189506],[2.487379,42.189531],[2.487122,42.1896],[2.486866,42.189668],[2.486576,42.189725],[2.486365,42.189764],[2.486282,42.189569],[2.485858,42.189646],[2.485849,42.189625],[2.485832,42.18959],[2.485816,42.189554],[2.485812,42.189533],[2.485811,42.1895],[2.485812,42.189468],[2.485813,42.18944],[2.485813,42.189423],[2.485815,42.189378],[2.485813,42.18936],[2.485809,42.189328],[2.485806,42.189307],[2.485808,42.189271],[2.485813,42.189206],[2.485815,42.189079],[2.485818,42.188952],[2.485821,42.188797],[2.485824,42.188643],[2.485825,42.188546],[2.485825,42.188541],[2.485792,42.188536],[2.485529,42.188495],[2.485418,42.188477],[2.484982,42.187909],[2.484853,42.187742],[2.484809,42.187684],[2.484751,42.187735],[2.484718,42.187723],[2.484388,42.187598],[2.484375,42.187594],[2.484368,42.187591],[2.484372,42.187588],[2.484374,42.187587],[2.484764,42.187322],[2.484786,42.187307],[2.484769,42.187287],[2.484546,42.187035],[2.484532,42.18702],[2.484274,42.187164],[2.484046,42.187291],[2.484044,42.187299],[2.484042,42.187308],[2.484021,42.187325],[2.483709,42.187526],[2.483291,42.187815],[2.483563,42.188067],[2.483769,42.188256],[2.483971,42.188433],[2.483948,42.188446],[2.483866,42.188492],[2.483836,42.188465],[2.483768,42.188493],[2.483701,42.188521],[2.483672,42.188532],[2.483625,42.188543],[2.483577,42.188547],[2.483528,42.188546],[2.483479,42.188542],[2.483404,42.188533],[2.483329,42.188525],[2.483288,42.188528],[2.483246,42.188531],[2.483225,42.188532],[2.48319,42.188531],[2.483156,42.188532],[2.483134,42.188537],[2.48312,42.188544],[2.483101,42.188559],[2.483085,42.188577],[2.483072,42.188598],[2.48307,42.188604],[2.483062,42.188631],[2.483062,42.188663],[2.483068,42.188692],[2.483086,42.188737],[2.483094,42.188759],[2.483098,42.188782],[2.483096,42.188821],[2.48309,42.18884],[2.483081,42.18886],[2.483066,42.188879],[2.483038,42.188903],[2.483021,42.188913],[2.483005,42.188919],[2.483002,42.18892],[2.48298,42.188923],[2.482945,42.188919],[2.482928,42.188918],[2.482912,42.188921],[2.482878,42.188933],[2.482844,42.188944],[2.482841,42.189079],[2.482862,42.189192],[2.482873,42.189248],[2.48286,42.189264],[2.482856,42.189269],[2.482621,42.189425],[2.482505,42.189502],[2.482657,42.189637],[2.482471,42.189797],[2.482421,42.189841],[2.482413,42.189843],[2.482223,42.189886],[2.48214,42.1899],[2.482012,42.189895],[2.481847,42.189869],[2.481717,42.189884],[2.481666,42.189884],[2.481595,42.189855],[2.48151,42.189853],[2.481238,42.190026],[2.481089,42.19012],[2.481122,42.190149],[2.48113,42.190157],[2.481121,42.190171],[2.481125,42.190175],[2.481424,42.190421],[2.48214,42.191072],[2.482402,42.1913],[2.483336,42.192115]]]]}},{"type":"Feature","id":"171143_171143 AP10 GAX 2","properties":{"area_id":"171143_171143 AP10 GAX 2","nom":"el Salt de les Bigues","codi_icgc":"171143 AP10 GAX 2","categoria":"Àrees de poblament","codi_municipi":"171143","municipi":"Olot","codi_comarca":"19","comarca":"Garrotxa","provincia":"Girona","font":"ICGC Àrees de poblament v3r1 202602"},"geometry":{"type":"MultiPolygon","coordinates":[[[[2.481512,42.164841],[2.482096,42.164641],[2.482302,42.16454],[2.482447,42.164417],[2.482644,42.164198],[2.482722,42.16408],[2.482851,42.164004],[2.48303,42.163995],[2.483178,42.163962],[2.483212,42.16371],[2.483142,42.16361],[2.483073,42.163485],[2.483067,42.16339],[2.483062,42.163295],[2.482953,42.163266],[2.482793,42.163265],[2.482665,42.163283],[2.48251,42.16334],[2.482312,42.163349],[2.482036,42.163385],[2.481869,42.163447],[2.48165,42.16355],[2.481496,42.163626],[2.481354,42.163773],[2.481308,42.163944],[2.481312,42.16414],[2.481334,42.164262],[2.481327,42.164328],[2.481281,42.1644],[2.481324,42.164428],[2.481385,42.164511],[2.481435,42.1646],[2.481457,42.164667],[2.481474,42.164748],[2.481467,42.16484],[2.481512,42.164841]]]]}},{"type":"Feature","id":"171143_171143 AP09 GAX 2","properties":{"area_id":"171143_171143 AP09 GAX 2","nom":"el Triai","codi_icgc":"171143 AP09 GAX 2","categoria":"Àrees de poblament","codi_municipi":"171143","municipi":"Olot","codi_comarca":"19","comarca":"Garrotxa","provincia":"Girona","font":"ICGC Àrees de poblament v3r1 202602"},"geometry":{"type":"MultiPolygon","coordinates":[[[[2.493255,42.168357],[2.493286,42.168336],[2.493213,42.168275],[2.493081,42.168163],[2.492917,42.167998],[2.492879,42.16796],[2.492842,42.167922],[2.492805,42.167891],[2.492774,42.16787],[2.49267,42.167816],[2.492544,42.167754],[2.492417,42.167694],[2.492266,42.167627],[2.492262,42.167625],[2.492252,42.167621],[2.492242,42.167617],[2.492116,42.167561],[2.492027,42.167519],[2.491941,42.167473],[2.491826,42.167405],[2.491709,42.167339],[2.491628,42.167297],[2.491551,42.167319],[2.491541,42.167322],[2.491533,42.167324],[2.491548,42.167514],[2.491552,42.167565],[2.491566,42.167682],[2.491587,42.167818],[2.491705,42.167897],[2.491681,42.167929],[2.49201,42.168175],[2.492224,42.16828],[2.492361,42.168398],[2.492341,42.168411],[2.49243,42.168488],[2.492456,42.168475],[2.492527,42.168429],[2.49261,42.168375],[2.492527,42.168295],[2.492557,42.168279],[2.492746,42.168149],[2.492787,42.168122],[2.492908,42.16805],[2.492974,42.168116],[2.492877,42.168187],[2.492883,42.168214],[2.492915,42.168329],[2.492928,42.168327],[2.492928,42.168343],[2.492962,42.168338],[2.492976,42.168385],[2.493013,42.168523],[2.493022,42.168517],[2.49324,42.168367],[2.493255,42.168357]]]]}},{"type":"Feature","id":"171143_171143 AP03 GAX 2","properties":{"area_id":"171143_171143 AP03 GAX 2","nom":"l'Hostal del Sol","codi_icgc":"171143 AP03 GAX 2","categoria":"Àrees de poblament","codi_municipi":"171143","municipi":"Olot","codi_comarca":"19","comarca":"Garrotxa","provincia":"Girona","font":"ICGC Àrees de poblament v3r1 202602"},"geometry":{"type":"MultiPolygon","coordinates":[[[[2.477616,42.193964],[2.477686,42.193908],[2.477729,42.19392],[2.477791,42.193881],[2.477846,42.193844],[2.477917,42.193805],[2.477994,42.193758],[2.477991,42.193731],[2.477961,42.193723],[2.477836,42.193591],[2.477848,42.193567],[2.477638,42.193375],[2.477609,42.193346],[2.477447,42.193185],[2.477439,42.193121],[2.477348,42.193002],[2.477271,42.192923],[2.477185,42.192845],[2.477178,42.192838],[2.477085,42.192763],[2.477023,42.192715],[2.476908,42.192635],[2.476817,42.192587],[2.47681,42.192583],[2.476724,42.19254],[2.476629,42.192502],[2.476533,42.192466],[2.476326,42.192817],[2.476354,42.192824],[2.47632,42.192889],[2.476296,42.192883],[2.476148,42.193158],[2.476175,42.193166],[2.476144,42.193224],[2.476075,42.193356],[2.476019,42.193462],[2.475896,42.193475],[2.475744,42.193446],[2.47574,42.193446],[2.475726,42.193445],[2.475588,42.193438],[2.475328,42.193406],[2.474843,42.193348],[2.474793,42.193356],[2.474763,42.19336],[2.474728,42.193365],[2.474678,42.193374],[2.474619,42.193357],[2.474532,42.193342],[2.474476,42.193332],[2.474241,42.193294],[2.474195,42.193303],[2.474069,42.19329],[2.474041,42.193287],[2.473957,42.19329],[2.473948,42.193294],[2.473928,42.193302],[2.47388,42.193321],[2.473863,42.19335],[2.473927,42.193371],[2.474037,42.19342],[2.474034,42.193437],[2.474074,42.193448],[2.474151,42.193494],[2.474319,42.193572],[2.474371,42.193601],[2.474501,42.193674],[2.474606,42.193676],[2.474749,42.193758],[2.474893,42.193815],[2.475012,42.193851],[2.475123,42.193881],[2.475196,42.193963],[2.475391,42.19398],[2.475503,42.193988],[2.475565,42.194004],[2.475587,42.194012],[2.475591,42.194001],[2.475609,42.19396],[2.47566,42.193855],[2.475607,42.19384],[2.475634,42.19384],[2.47566,42.19384],[2.475676,42.193837],[2.47569,42.193832],[2.475703,42.193825],[2.475729,42.19381],[2.475742,42.193797],[2.475753,42.19378],[2.475775,42.193737],[2.475798,42.193695],[2.475812,42.193675],[2.475835,42.193647],[2.475854,42.19363],[2.475874,42.193615],[2.475866,42.193633],[2.475798,42.193791],[2.475836,42.193802],[2.476183,42.193908],[2.476427,42.193973],[2.476638,42.193957],[2.476658,42.193956],[2.476708,42.193964],[2.476762,42.193962],[2.476925,42.193946],[2.476938,42.193945],[2.476986,42.193948],[2.477081,42.193954],[2.477082,42.193951],[2.477224,42.193977],[2.47736,42.194013],[2.477425,42.19403],[2.477651,42.194089],[2.477654,42.19409],[2.47766,42.194085],[2.477668,42.194079],[2.47765,42.193976],[2.477636,42.193969],[2.477616,42.193964]]]]}},{"type":"Feature","id":"171143_171143 AP08 GAX 2","properties":{"area_id":"171143_171143 AP08 GAX 2","nom":"la Canal","codi_icgc":"171143 AP08 GAX 2","categoria":"Àrees de poblament","codi_municipi":"171143","municipi":"Olot","codi_comarca":"19","comarca":"Garrotxa","provincia":"Girona","font":"ICGC Àrees de poblament v3r1 202602"},"geometry":{"type":"MultiPolygon","coordinates":[[[[2.464146,42.181819],[2.463749,42.181646],[2.463388,42.182185],[2.463626,42.182412],[2.464334,42.18207],[2.46436,42.181948],[2.464277,42.181876],[2.464146,42.181819]]]]}},{"type":"Feature","id":"171143_171143 AP04 GAX 2","properties":{"area_id":"171143_171143 AP04 GAX 2","nom":"les Planotes","codi_icgc":"171143 AP04 GAX 2","categoria":"Àrees de poblament","codi_municipi":"171143","municipi":"Olot","codi_comarca":"19","comarca":"Garrotxa","provincia":"Girona","font":"ICGC Àrees de poblament v3r1 202602"},"geometry":{"type":"MultiPolygon","coordinates":[[[[2.462567,42.183484],[2.462454,42.183379],[2.462398,42.183327],[2.462372,42.183333],[2.462363,42.183336],[2.462284,42.183377],[2.462266,42.183387],[2.46225,42.183391],[2.462053,42.183441],[2.461751,42.183496],[2.461425,42.183554],[2.461118,42.183608],[2.46081,42.183661],[2.460735,42.183674],[2.460659,42.183685],[2.460576,42.183692],[2.460492,42.183696],[2.460027,42.183717],[2.459562,42.183738],[2.459263,42.183752],[2.459016,42.183763],[2.458984,42.183764],[2.458949,42.183765],[2.458886,42.183764],[2.458809,42.18376],[2.458772,42.183758],[2.458743,42.183756],[2.458678,42.183751],[2.458593,42.183742],[2.458569,42.183739],[2.458544,42.183737],[2.45854,42.183736],[2.458418,42.183725],[2.458408,42.18373],[2.458402,42.183724],[2.458397,42.183723],[2.458313,42.183716],[2.458228,42.183709],[2.458172,42.1837],[2.458135,42.183691],[2.458049,42.183664],[2.457995,42.183645],[2.457966,42.183631],[2.457911,42.183604],[2.457841,42.183562],[2.457771,42.183516],[2.457585,42.183391],[2.457397,42.183267],[2.457228,42.183161],[2.457184,42.183133],[2.457174,42.183134],[2.457161,42.183118],[2.457056,42.183054],[2.457023,42.183081],[2.456967,42.183041],[2.456775,42.183198],[2.456483,42.183456],[2.45654,42.183484],[2.456532,42.183491],[2.456742,42.183581],[2.456885,42.183643],[2.457048,42.183714],[2.457083,42.18374],[2.457099,42.183752],[2.457104,42.183755],[2.456901,42.183897],[2.456841,42.183941],[2.456827,42.183952],[2.456819,42.183957],[2.456812,42.183962],[2.457078,42.184163],[2.457306,42.184309],[2.457443,42.184398],[2.457496,42.184423],[2.45762,42.184482],[2.457776,42.18435],[2.458009,42.184164],[2.45811,42.184088],[2.45821,42.184013],[2.458242,42.183992],[2.458275,42.183973],[2.458282,42.18397],[2.45828,42.183967],[2.458305,42.183959],[2.458351,42.183937],[2.458444,42.183902],[2.45849,42.183889],[2.458541,42.183875],[2.458586,42.183865],[2.458622,42.183857],[2.458647,42.183854],[2.458691,42.183848],[2.458744,42.183842],[2.458791,42.18384],[2.458799,42.18384],[2.45882,42.183871],[2.458843,42.183906],[2.458887,42.183973],[2.458961,42.184093],[2.459036,42.184214],[2.459154,42.184401],[2.459273,42.184588],[2.459397,42.18478],[2.45952,42.184972],[2.459631,42.185152],[2.45974,42.185333],[2.459821,42.185463],[2.459906,42.185592],[2.459953,42.185653],[2.46001,42.185711],[2.460079,42.185765],[2.460128,42.185796],[2.460141,42.185806],[2.460146,42.185808],[2.46051,42.185937],[2.460528,42.185944],[2.460546,42.185945],[2.460814,42.185957],[2.461218,42.185973],[2.461456,42.185983],[2.461488,42.185984],[2.46162,42.185938],[2.461647,42.185928],[2.461788,42.185879],[2.461817,42.185869],[2.461915,42.185758],[2.461952,42.185716],[2.462019,42.185639],[2.462065,42.185603],[2.462111,42.185568],[2.462167,42.18553],[2.462227,42.185494],[2.462336,42.185431],[2.462445,42.185368],[2.462465,42.185353],[2.462474,42.185343],[2.462476,42.185343],[2.462508,42.185286],[2.462769,42.185195],[2.462885,42.185191],[2.46291,42.18519],[2.462969,42.185157],[2.46316,42.185047],[2.463281,42.184978],[2.46367,42.185042],[2.463689,42.184959],[2.463703,42.184897],[2.463736,42.184754],[2.462819,42.184585],[2.462717,42.184546],[2.462524,42.18456],[2.462473,42.184489],[2.462463,42.184475],[2.462445,42.184424],[2.463053,42.184213],[2.463087,42.184177],[2.463133,42.184129],[2.462967,42.183896],[2.46292,42.183843],[2.462771,42.183673],[2.462567,42.183484]]]]}},{"type":"Feature","id":"171143_171143 SI09 GAX 2","properties":{"area_id":"171143_171143 SI09 GAX 2","nom":"les Tries","codi_icgc":"171143 SI09 GAX 2","categoria":"Sector industrial","codi_municipi":"171143","municipi":"Olot","codi_comarca":"19","comarca":"Garrotxa","provincia":"Girona","font":"ICGC Àrees de poblament v3r1 202602"},"geometry":{"type":"MultiPolygon","coordinates":[[[[2.502083,42.191455],[2.502145,42.191469],[2.504026,42.191811],[2.505613,42.192099],[2.506746,42.192313],[2.507802,42.192499],[2.508339,42.192597],[2.5085,42.192157],[2.508627,42.191712],[2.504122,42.190889],[2.504413,42.189958],[2.503609,42.189807],[2.503283,42.190732],[2.502392,42.190587],[2.502385,42.190613],[2.502083,42.191455]]]]}}]}