{"type":"FeatureCollection","name":"ICGC Àrees de poblament - Pals","features":[{"type":"Feature","id":"171241_171241 SI01 BEM 2","properties":{"area_id":"171241_171241 SI01 BEM 2","nom":"Arròs Molí de Pals SL","codi_icgc":"171241 SI01 BEM 2","categoria":"Sector industrial","codi_municipi":"171241","municipi":"Pals","codi_comarca":"10","comarca":"Baix Empordà","provincia":"Girona","font":"ICGC Àrees de poblament v3r1 202602"},"geometry":{"type":"MultiPolygon","coordinates":[[[[3.150181,41.997962],[3.150201,41.998384],[3.150216,41.998463],[3.15022,41.998484],[3.150773,41.998488],[3.151009,41.998485],[3.151128,41.998477],[3.151182,41.998474],[3.151479,41.998447],[3.151465,41.997901],[3.150181,41.997962]]]]}},{"type":"Feature","id":"171241_171241 AP01 BEM 3","properties":{"area_id":"171241_171241 AP01 BEM 3","nom":"Pals","codi_icgc":"171241 AP01 BEM 3","categoria":"Àrees de poblament","codi_municipi":"171241","municipi":"Pals","codi_comarca":"10","comarca":"Baix Empordà","provincia":"Girona","font":"ICGC Àrees de poblament v3r1 202602"},"geometry":{"type":"MultiPolygon","coordinates":[[[[3.152548,41.977382],[3.152654,41.977227],[3.152461,41.977106],[3.152438,41.977132],[3.152399,41.977176],[3.1523,41.977287],[3.152161,41.977007],[3.152131,41.976917],[3.152115,41.976861],[3.152102,41.976823],[3.152093,41.976772],[3.152089,41.976721],[3.152087,41.976652],[3.152086,41.976584],[3.152088,41.976521],[3.152089,41.976458],[3.152088,41.976403],[3.152085,41.976348],[3.152076,41.976279],[3.152063,41.976211],[3.152039,41.976113],[3.152015,41.976015],[3.151973,41.975826],[3.151966,41.975798],[3.151968,41.975633],[3.151967,41.975561],[3.151925,41.975371],[3.151809,41.974975],[3.15178,41.974882],[3.151742,41.974818],[3.151712,41.974756],[3.151669,41.974595],[3.151579,41.974336],[3.151573,41.974314],[3.151556,41.974255],[3.151551,41.974244],[3.151523,41.974176],[3.151482,41.974116],[3.151424,41.974057],[3.15139,41.973986],[3.151368,41.973839],[3.151224,41.97366],[3.150916,41.973456],[3.150908,41.973448],[3.15096,41.973415],[3.151492,41.973118],[3.151508,41.97311],[3.151711,41.972996],[3.151783,41.972957],[3.151856,41.972917],[3.151924,41.972879],[3.151992,41.97284],[3.152057,41.972802],[3.152121,41.972765],[3.152167,41.972736],[3.152212,41.972705],[3.152274,41.97266],[3.152333,41.972614],[3.152386,41.972568],[3.152438,41.972521],[3.152481,41.972479],[3.152522,41.972436],[3.152556,41.972397],[3.152586,41.972356],[3.152618,41.97231],[3.152647,41.972263],[3.15268,41.97221],[3.152708,41.972155],[3.152728,41.972105],[3.152745,41.972055],[3.152759,41.972011],[3.152679,41.972002],[3.152395,41.971996],[3.152408,41.97175],[3.152392,41.971718],[3.152336,41.971695],[3.152213,41.971682],[3.152075,41.971705],[3.151771,41.971664],[3.151812,41.971479],[3.151628,41.971448],[3.151619,41.971348],[3.151497,41.971334],[3.151544,41.970884],[3.151555,41.970493],[3.151583,41.970057],[3.151588,41.969985],[3.151598,41.969962],[3.151624,41.969944],[3.151688,41.969939],[3.152361,41.969945],[3.152361,41.969942],[3.152365,41.969866],[3.152369,41.969788],[3.152823,41.969263],[3.152823,41.969203],[3.152807,41.969129],[3.152687,41.968932],[3.151831,41.968892],[3.15164,41.968883],[3.15164,41.968882],[3.151558,41.968879],[3.151487,41.968877],[3.15138,41.968875],[3.151255,41.968869],[3.151182,41.968866],[3.151151,41.968849],[3.151123,41.968841],[3.151104,41.968839],[3.151022,41.968824],[3.150891,41.968813],[3.150931,41.968761],[3.151027,41.968667],[3.151107,41.968612],[3.151234,41.968523],[3.15127,41.968502],[3.151282,41.968477],[3.15139,41.968259],[3.151444,41.968061],[3.151468,41.967971],[3.15052,41.967908],[3.150552,41.967813],[3.15056,41.967789],[3.150587,41.967707],[3.149512,41.967645],[3.149399,41.967645],[3.149328,41.967644],[3.149239,41.967643],[3.149082,41.967514],[3.149071,41.96751],[3.14895,41.96745],[3.148807,41.96738],[3.148736,41.967338],[3.148736,41.967316],[3.148695,41.967296],[3.148596,41.967247],[3.148471,41.967415],[3.148388,41.967523],[3.148349,41.967591],[3.148318,41.967662],[3.148294,41.967733],[3.148278,41.967807],[3.148272,41.967858],[3.148268,41.967866],[3.148261,41.967875],[3.148248,41.967884],[3.148225,41.967895],[3.148107,41.967893],[3.148033,41.967891],[3.14795,41.967887],[3.14795,41.967747],[3.147931,41.967663],[3.147846,41.967662],[3.147513,41.967679],[3.147506,41.967726],[3.147503,41.96774],[3.147341,41.96773],[3.147333,41.967781],[3.14733,41.967798],[3.147105,41.967882],[3.14707,41.9681],[3.147063,41.9681],[3.147054,41.9681],[3.147042,41.968182],[3.146977,41.968183],[3.146851,41.968183],[3.146818,41.968187],[3.146593,41.968215],[3.146477,41.968215],[3.146291,41.968295],[3.146261,41.968407],[3.145962,41.968461],[3.14591,41.96847],[3.145868,41.968769],[3.145832,41.969024],[3.145814,41.969154],[3.145773,41.969233],[3.145496,41.96944],[3.14565,41.969694],[3.145547,41.969778],[3.14568,41.969985],[3.145698,41.970013],[3.145758,41.970002],[3.145722,41.97002],[3.145686,41.970039],[3.145665,41.970048],[3.145647,41.970054],[3.145629,41.970058],[3.145604,41.970062],[3.145513,41.970071],[3.145422,41.97008],[3.145244,41.970098],[3.145067,41.970118],[3.144864,41.970145],[3.144662,41.970172],[3.144605,41.970181],[3.144549,41.97019],[3.144512,41.970191],[3.144483,41.970187],[3.144454,41.970179],[3.144398,41.970162],[3.144435,41.970167],[3.144474,41.970169],[3.144528,41.970166],[3.144583,41.970156],[3.144601,41.970149],[3.144615,41.970138],[3.144621,41.970125],[3.144622,41.970102],[3.144613,41.970067],[3.144609,41.970049],[3.144611,41.970032],[3.144616,41.970016],[3.144627,41.970002],[3.144641,41.969994],[3.144664,41.969988],[3.144687,41.96998],[3.144719,41.969965],[3.144728,41.969959],[3.144774,41.969901],[3.144777,41.969885],[3.144776,41.969861],[3.144768,41.969824],[3.144754,41.969787],[3.144736,41.969747],[3.144722,41.969729],[3.144703,41.969712],[3.144684,41.969701],[3.144654,41.969689],[3.144622,41.969683],[3.144544,41.969674],[3.144467,41.969664],[3.144312,41.96965],[3.144166,41.969636],[3.144123,41.969648],[3.14405,41.969654],[3.144,41.969692],[3.143987,41.96969],[3.143985,41.969694],[3.143983,41.969697],[3.143981,41.969701],[3.143976,41.96971],[3.143959,41.969742],[3.143941,41.969736],[3.143859,41.969706],[3.143833,41.969694],[3.143762,41.969663],[3.143712,41.969661],[3.143708,41.969655],[3.143701,41.969643],[3.143705,41.969586],[3.14371,41.969529],[3.1437,41.969492],[3.143691,41.969455],[3.143688,41.969447],[3.143676,41.969434],[3.143649,41.969419],[3.143618,41.969407],[3.143604,41.969403],[3.143581,41.969401],[3.14357,41.969403],[3.143561,41.969407],[3.143536,41.969422],[3.143512,41.969437],[3.143474,41.969484],[3.143436,41.96953],[3.143424,41.969551],[3.143413,41.969584],[3.143406,41.969619],[3.143403,41.969646],[3.143404,41.969673],[3.143408,41.969685],[3.14341,41.969689],[3.143403,41.969695],[3.143382,41.96973],[3.143373,41.969718],[3.143368,41.969697],[3.143363,41.969687],[3.143354,41.969678],[3.143335,41.969668],[3.143316,41.969662],[3.143301,41.969659],[3.143279,41.969658],[3.143257,41.969661],[3.143198,41.969681],[3.143169,41.969694],[3.143141,41.969709],[3.143097,41.969735],[3.143056,41.969763],[3.143003,41.969808],[3.142979,41.969832],[3.142956,41.969858],[3.14294,41.969881],[3.142933,41.969905],[3.142935,41.969923],[3.142941,41.969932],[3.14295,41.96994],[3.142974,41.969953],[3.14301,41.969962],[3.143048,41.969967],[3.143101,41.969976],[3.143155,41.969983],[3.143202,41.969985],[3.143248,41.969982],[3.143355,41.969965],[3.143377,41.969996],[3.143336,41.970002],[3.143288,41.970012],[3.143206,41.970032],[3.143172,41.970046],[3.143165,41.970047],[3.143084,41.970066],[3.14306,41.970089],[3.143032,41.970118],[3.142995,41.970166],[3.14298,41.970191],[3.142968,41.970217],[3.142936,41.970305],[3.14292,41.970349],[3.142902,41.970393],[3.142877,41.970446],[3.142777,41.970417],[3.142723,41.97069],[3.142645,41.970784],[3.142565,41.970881],[3.142568,41.970882],[3.142619,41.970899],[3.142664,41.970914],[3.142702,41.970927],[3.142778,41.970953],[3.142774,41.970959],[3.142727,41.971043],[3.142714,41.97107],[3.14271,41.971084],[3.142701,41.971121],[3.142685,41.971278],[3.142662,41.9714],[3.142637,41.971522],[3.142629,41.971556],[3.142622,41.971581],[3.142605,41.971617],[3.14258,41.971653],[3.142564,41.97167],[3.14255,41.97168],[3.142499,41.971717],[3.142468,41.971749],[3.142461,41.971796],[3.142469,41.971848],[3.142482,41.971921],[3.142482,41.971977],[3.142479,41.972035],[3.1425,41.972072],[3.14253,41.972105],[3.142577,41.972116],[3.142594,41.972285],[3.142821,41.972277],[3.142829,41.972226],[3.142838,41.972229],[3.142951,41.972245],[3.143079,41.972253],[3.143073,41.972294],[3.143228,41.972309],[3.14338,41.972294],[3.143424,41.972288],[3.143379,41.972197],[3.143508,41.972165],[3.143509,41.972043],[3.143511,41.972045],[3.143616,41.972156],[3.143693,41.97217],[3.143722,41.972179],[3.143718,41.972191],[3.143712,41.972207],[3.143709,41.972222],[3.143706,41.972236],[3.143703,41.972251],[3.143702,41.972265],[3.143701,41.97228],[3.1437,41.972295],[3.143701,41.972309],[3.143702,41.972324],[3.143707,41.972394],[3.14371,41.972464],[3.143711,41.972489],[3.143713,41.972515],[3.143716,41.97254],[3.143718,41.972549],[3.143743,41.972575],[3.143762,41.972585],[3.143794,41.972589],[3.14383,41.972581],[3.143874,41.972561],[3.143961,41.972426],[3.143975,41.972373],[3.143996,41.972275],[3.144027,41.9722],[3.14434,41.97211],[3.144401,41.972124],[3.144436,41.972126],[3.144543,41.972062],[3.14456,41.972034],[3.14462,41.97198],[3.144821,41.971835],[3.144965,41.971838],[3.145252,41.971812],[3.145257,41.971837],[3.14528,41.971975],[3.145283,41.971983],[3.145317,41.972073],[3.145325,41.972071],[3.145414,41.972043],[3.145378,41.972125],[3.145024,41.972145],[3.145041,41.972234],[3.145093,41.972271],[3.145127,41.972271],[3.145152,41.972282],[3.145382,41.972248],[3.145388,41.972262],[3.145398,41.972288],[3.145477,41.972406],[3.145541,41.972492],[3.145741,41.972629],[3.145812,41.972576],[3.145815,41.972579],[3.145842,41.972617],[3.145854,41.972633],[3.145884,41.972674],[3.145962,41.972781],[3.146031,41.972876],[3.146166,41.972806],[3.146318,41.972727],[3.146325,41.972784],[3.146327,41.972824],[3.146335,41.972861],[3.146342,41.972903],[3.146355,41.972934],[3.146372,41.972964],[3.146505,41.972914],[3.146684,41.973173],[3.14673,41.973161],[3.146878,41.973121],[3.146926,41.973108],[3.147054,41.973074],[3.147042,41.973059],[3.147003,41.973042],[3.146957,41.973013],[3.146898,41.972962],[3.146887,41.972939],[3.146838,41.972843],[3.146807,41.972772],[3.146779,41.972699],[3.146754,41.972626],[3.146732,41.972551],[3.146725,41.972523],[3.14672,41.972494],[3.147102,41.972455],[3.147173,41.972448],[3.147447,41.97242],[3.147701,41.972394],[3.147829,41.972469],[3.147922,41.972442],[3.147878,41.972333],[3.14786,41.97229],[3.148368,41.97195],[3.148374,41.971946],[3.148378,41.97194],[3.14838,41.971937],[3.148382,41.971933],[3.148384,41.971927],[3.148385,41.971917],[3.148383,41.971899],[3.14838,41.971891],[3.148372,41.971882],[3.148365,41.971875],[3.148353,41.971868],[3.148345,41.971864],[3.148345,41.97186],[3.148556,41.971844],[3.148588,41.971735],[3.14886,41.971729],[3.148892,41.97175],[3.148916,41.971878],[3.148932,41.971886],[3.148945,41.971885],[3.148952,41.971924],[3.149025,41.971928],[3.149026,41.971938],[3.149062,41.972124],[3.149085,41.972247],[3.149093,41.972293],[3.1491,41.972328],[3.149732,41.972264],[3.150015,41.972575],[3.149292,41.972929],[3.149371,41.973085],[3.149496,41.973232],[3.149656,41.973387],[3.150058,41.973741],[3.150184,41.973818],[3.150268,41.973871],[3.150403,41.973953],[3.150498,41.97402],[3.150559,41.974079],[3.150619,41.974146],[3.150722,41.974234],[3.150772,41.974315],[3.150796,41.974353],[3.150866,41.974484],[3.150913,41.97456],[3.151053,41.974964],[3.15091,41.974992],[3.150413,41.975031],[3.150444,41.975257],[3.151233,41.97574],[3.151258,41.975755],[3.151398,41.976237],[3.151417,41.976302],[3.151257,41.976377],[3.150794,41.976522],[3.150943,41.976904],[3.150959,41.976933],[3.150994,41.977036],[3.151015,41.97703],[3.151621,41.976865],[3.151623,41.97687],[3.151811,41.97742],[3.152275,41.977357],[3.152332,41.977419],[3.152467,41.977491],[3.152467,41.977491],[3.152473,41.977489],[3.152548,41.977382]]]]}},{"type":"Feature","id":"171241_171241 AP10 BEM 3","properties":{"area_id":"171241_171241 AP10 BEM 3","nom":"Palsmar","codi_icgc":"171241 AP10 BEM 3","categoria":"Àrees de poblament","codi_municipi":"171241","municipi":"Pals","codi_comarca":"10","comarca":"Baix Empordà","provincia":"Girona","font":"ICGC Àrees de poblament v3r1 202602"},"geometry":{"type":"MultiPolygon","coordinates":[[[[3.19753,41.983688],[3.197483,41.983685],[3.196844,41.983645],[3.196308,41.983632],[3.196265,41.983629],[3.196221,41.983718],[3.19618,41.983735],[3.196135,41.983795],[3.196104,41.983926],[3.196056,41.984112],[3.195965,41.984324],[3.195882,41.984581],[3.195743,41.984877],[3.195622,41.985082],[3.195489,41.985336],[3.19532,41.985753],[3.195226,41.986118],[3.195131,41.986456],[3.19503,41.986789],[3.194998,41.986904],[3.195506,41.987027],[3.195591,41.987048],[3.195952,41.987134],[3.195971,41.987117],[3.196089,41.986975],[3.196163,41.986828],[3.196387,41.986217],[3.196425,41.986078],[3.196452,41.985969],[3.19651,41.98589],[3.196631,41.985826],[3.196755,41.985816],[3.196995,41.985846],[3.197035,41.985851],[3.197545,41.985955],[3.197596,41.985901],[3.19771,41.985715],[3.197925,41.985385],[3.198058,41.985181],[3.198277,41.984746],[3.198363,41.984563],[3.198549,41.984166],[3.198608,41.984029],[3.198656,41.98393],[3.198671,41.983892],[3.198655,41.983877],[3.198389,41.983853],[3.198136,41.98383],[3.198049,41.983727],[3.19753,41.983688]]]]}},{"type":"Feature","id":"171241_171241 AP09 BEM 3","properties":{"area_id":"171241_171241 AP09 BEM 3","nom":"Puigsaguilla","codi_icgc":"171241 AP09 BEM 3","categoria":"Àrees de poblament","codi_municipi":"171241","municipi":"Pals","codi_comarca":"10","comarca":"Baix Empordà","provincia":"Girona","font":"ICGC Àrees de poblament v3r1 202602"},"geometry":{"type":"MultiPolygon","coordinates":[[[[3.196146,41.983621],[3.196145,41.983598],[3.196861,41.983618],[3.19687,41.983539],[3.196847,41.983377],[3.19677,41.983229],[3.196673,41.982991],[3.196402,41.983077],[3.196122,41.983176],[3.196121,41.983167],[3.196016,41.983214],[3.195518,41.983415],[3.195179,41.983544],[3.19449,41.983953],[3.194493,41.984009],[3.194463,41.98427],[3.194451,41.984331],[3.194425,41.984446],[3.194412,41.984506],[3.194375,41.98468],[3.194338,41.984883],[3.194302,41.985086],[3.194271,41.985248],[3.194242,41.985343],[3.194238,41.985358],[3.194221,41.985409],[3.194199,41.985468],[3.194171,41.985535],[3.194124,41.985639],[3.194078,41.985743],[3.194052,41.985814],[3.193996,41.985981],[3.193879,41.986309],[3.193872,41.986328],[3.193836,41.98643],[3.193805,41.986493],[3.19374,41.986618],[3.193667,41.986769],[3.193592,41.98692],[3.193534,41.987029],[3.193475,41.987138],[3.193454,41.987186],[3.193435,41.987235],[3.193408,41.987335],[3.193381,41.987473],[3.193361,41.987613],[3.193346,41.987748],[3.19333,41.987883],[3.19331,41.988021],[3.193287,41.988158],[3.19327,41.988247],[3.193262,41.988286],[3.193233,41.988412],[3.193216,41.988477],[3.193201,41.988532],[3.193167,41.988651],[3.193113,41.988824],[3.193059,41.988996],[3.193013,41.98915],[3.19298,41.989262],[3.192967,41.989304],[3.192958,41.989346],[3.192952,41.989389],[3.192952,41.989475],[3.192963,41.989533],[3.192984,41.98959],[3.193004,41.989628],[3.193044,41.98969],[3.193089,41.989749],[3.193121,41.989787],[3.193168,41.989838],[3.193194,41.989866],[3.193216,41.989889],[3.193251,41.989926],[3.193287,41.989963],[3.193314,41.989995],[3.193442,41.989972],[3.193542,41.989929],[3.193656,41.989835],[3.193684,41.98978],[3.193716,41.989644],[3.193795,41.989382],[3.193953,41.98884],[3.194064,41.988506],[3.194235,41.988073],[3.194336,41.987775],[3.194472,41.987434],[3.194571,41.987288],[3.194829,41.986937],[3.194882,41.98682],[3.195003,41.986443],[3.195088,41.986152],[3.195202,41.985684],[3.195325,41.9854],[3.195701,41.984666],[3.195774,41.984518],[3.195795,41.984455],[3.195975,41.98396],[3.196018,41.983764],[3.196151,41.983621],[3.196146,41.983621]]]]}},{"type":"Feature","id":"171241_171241 AP06 BEM 3","properties":{"area_id":"171241_171241 AP06 BEM 3","nom":"Puigvermell","codi_icgc":"171241 AP06 BEM 3","categoria":"Àrees de poblament","codi_municipi":"171241","municipi":"Pals","codi_comarca":"10","comarca":"Baix Empordà","provincia":"Girona","font":"ICGC Àrees de poblament v3r1 202602"},"geometry":{"type":"MultiPolygon","coordinates":[[[[3.199162,41.979638],[3.199554,41.979713],[3.199881,41.979682],[3.20021,41.979681],[3.200292,41.979428],[3.20073,41.97954],[3.200698,41.97958],[3.200799,41.979609],[3.200939,41.97974],[3.201012,41.979793],[3.201158,41.979916],[3.201234,41.980027],[3.201502,41.980604],[3.201487,41.980651],[3.201473,41.980823],[3.201587,41.981004],[3.201579,41.981015],[3.201546,41.981059],[3.20152,41.981091],[3.201496,41.981119],[3.201478,41.981138],[3.201475,41.981142],[3.20146,41.98118],[3.201411,41.981307],[3.201202,41.981697],[3.20117,41.981962],[3.201049,41.982252],[3.20085,41.982426],[3.200373,41.982476],[3.200317,41.982702],[3.200779,41.982788],[3.200724,41.98297],[3.200653,41.983101],[3.200629,41.983237],[3.200713,41.98324],[3.201,41.983294],[3.201428,41.983439],[3.201572,41.983457],[3.2017,41.983448],[3.201811,41.983427],[3.201879,41.983421],[3.201983,41.98343],[3.202425,41.983641],[3.202576,41.983494],[3.203419,41.98322],[3.203806,41.983097],[3.20395,41.983061],[3.204041,41.983052],[3.204169,41.983099],[3.204337,41.9832],[3.204414,41.983138],[3.204692,41.983327],[3.204985,41.983505],[3.205023,41.98348],[3.205086,41.983509],[3.205458,41.982908],[3.205539,41.982768],[3.205577,41.982775],[3.205729,41.982532],[3.205701,41.982521],[3.206049,41.981949],[3.206541,41.981194],[3.206581,41.981138],[3.20616,41.980966],[3.20612,41.981015],[3.206064,41.981084],[3.205273,41.980767],[3.205377,41.980687],[3.205403,41.980654],[3.205396,41.980623],[3.205356,41.980599],[3.205281,41.9806],[3.204981,41.980666],[3.204614,41.980783],[3.204148,41.98098],[3.204008,41.981025],[3.203777,41.981085],[3.203677,41.981064],[3.203513,41.980993],[3.203189,41.980818],[3.203017,41.98075],[3.202899,41.980677],[3.202811,41.980572],[3.202771,41.980459],[3.202751,41.980361],[3.202815,41.98017],[3.202813,41.980162],[3.202789,41.979998],[3.202707,41.979708],[3.202525,41.979742],[3.202331,41.9798],[3.202372,41.979603],[3.202404,41.979583],[3.202399,41.979488],[3.202179,41.97928],[3.201976,41.979063],[3.201918,41.978967],[3.201906,41.97897],[3.201811,41.97883],[3.201755,41.978684],[3.201733,41.978614],[3.201717,41.978568],[3.201693,41.978478],[3.201709,41.978428],[3.201768,41.97839],[3.201818,41.978352],[3.201829,41.978063],[3.201821,41.977916],[3.201818,41.977902],[3.201803,41.977797],[3.201566,41.977827],[3.201315,41.977522],[3.201305,41.977513],[3.201127,41.977355],[3.200896,41.977312],[3.200656,41.977322],[3.200559,41.977354],[3.200452,41.977389],[3.200359,41.977406],[3.200271,41.977421],[3.200196,41.977435],[3.200194,41.977435],[3.200191,41.977215],[3.200159,41.976843],[3.19951,41.976866],[3.198897,41.976886],[3.198844,41.97689],[3.198834,41.976909],[3.198852,41.97697],[3.198845,41.976998],[3.198854,41.977243],[3.198912,41.978885],[3.198866,41.978914],[3.198916,41.97902],[3.199016,41.979273],[3.199049,41.979357],[3.19915,41.979414],[3.199153,41.979482],[3.199155,41.979516],[3.199162,41.979638]]]]}},{"type":"Feature","id":"171241_171241 AP05 BEM 1","properties":{"area_id":"171241_171241 AP05 BEM 1","nom":"Residencial els Masos","codi_icgc":"171241 AP05 BEM 1","categoria":"Àrees de poblament","codi_municipi":"171241","municipi":"Pals","codi_comarca":"10","comarca":"Baix Empordà","provincia":"Girona","font":"ICGC Àrees de poblament v3r1 202602"},"geometry":{"type":"MultiPolygon","coordinates":[[[[3.169178,41.981045],[3.169101,41.981033],[3.169072,41.981033],[3.168581,41.980971],[3.168566,41.981006],[3.168551,41.981044],[3.16849,41.981218],[3.168803,41.981283],[3.168797,41.9813],[3.168597,41.981912],[3.168587,41.981947],[3.168583,41.981984],[3.168588,41.98202],[3.168596,41.982042],[3.1686,41.982055],[3.16862,41.982089],[3.168638,41.98211],[3.168646,41.98212],[3.16865,41.982124],[3.168427,41.982587],[3.168395,41.982693],[3.168704,41.982761],[3.168728,41.982766],[3.168794,41.982782],[3.168768,41.982857],[3.168758,41.982888],[3.168775,41.9829],[3.168631,41.983184],[3.168528,41.983566],[3.168509,41.983715],[3.168505,41.983849],[3.168497,41.984078],[3.168832,41.984146],[3.169141,41.984209],[3.169307,41.98424],[3.169461,41.98427],[3.169614,41.9843],[3.169791,41.984334],[3.169966,41.98437],[3.17007,41.984396],[3.170177,41.984423],[3.170291,41.984448],[3.170409,41.98447],[3.170457,41.984475],[3.170507,41.984474],[3.170542,41.98447],[3.170618,41.984449],[3.170687,41.98442],[3.17073,41.984398],[3.170799,41.984357],[3.170777,41.984423],[3.170739,41.984515],[3.170704,41.984609],[3.170657,41.984761],[3.170612,41.984908],[3.170714,41.984932],[3.171193,41.985046],[3.17121,41.984999],[3.171361,41.984601],[3.171566,41.983919],[3.171568,41.983911],[3.171643,41.983666],[3.171747,41.983683],[3.171748,41.983676],[3.171801,41.983258],[3.171812,41.983032],[3.17182,41.982954],[3.171851,41.982664],[3.171878,41.982416],[3.171906,41.982236],[3.171907,41.982229],[3.171826,41.982173],[3.17168,41.982041],[3.171637,41.982001],[3.171424,41.981837],[3.171294,41.981732],[3.170899,41.982015],[3.170523,41.981766],[3.170407,41.981703],[3.169983,41.981597],[3.169744,41.981552],[3.16942,41.981499],[3.169208,41.981476],[3.169324,41.981068],[3.169178,41.981045]]]]}},{"type":"Feature","id":"171241_171241 AP02 BEM 3","properties":{"area_id":"171241_171241 AP02 BEM 3","nom":"el Mas Tomasí","codi_icgc":"171241 AP02 BEM 3","categoria":"Àrees de poblament","codi_municipi":"171241","municipi":"Pals","codi_comarca":"10","comarca":"Baix Empordà","provincia":"Girona","font":"ICGC Àrees de poblament v3r1 202602"},"geometry":{"type":"MultiPolygon","coordinates":[[[[3.165888,41.979796],[3.165903,41.9798],[3.165986,41.979865],[3.165972,41.979907],[3.165968,41.979918],[3.16594,41.98002],[3.165918,41.980123],[3.165902,41.980227],[3.165908,41.980255],[3.165922,41.980281],[3.165943,41.980305],[3.165969,41.980325],[3.165992,41.980337],[3.166467,41.980576],[3.166515,41.980598],[3.166567,41.980615],[3.166613,41.980626],[3.167211,41.980763],[3.167576,41.980851],[3.167661,41.980862],[3.167747,41.980867],[3.167758,41.980868],[3.167957,41.980866],[3.168101,41.980859],[3.168344,41.980849],[3.168631,41.980849],[3.168667,41.980861],[3.169002,41.980904],[3.169032,41.9809],[3.169462,41.980976],[3.169737,41.981009],[3.170377,41.981056],[3.170369,41.980922],[3.170331,41.980786],[3.17029,41.98064],[3.170267,41.980455],[3.170262,41.980419],[3.170142,41.979285],[3.17014,41.979263],[3.170144,41.979256],[3.170325,41.978928],[3.170577,41.978359],[3.170587,41.978338],[3.17062,41.978264],[3.170669,41.978107],[3.170674,41.978071],[3.170681,41.978021],[3.170686,41.977974],[3.170688,41.977958],[3.170691,41.977926],[3.170694,41.977908],[3.170696,41.977899],[3.170712,41.977858],[3.1707,41.977855],[3.170704,41.977811],[3.170725,41.977656],[3.170748,41.977491],[3.170717,41.977204],[3.170519,41.977165],[3.170487,41.977144],[3.170454,41.977123],[3.170447,41.977112],[3.170445,41.977099],[3.170452,41.97708],[3.170459,41.977061],[3.170456,41.977042],[3.170445,41.977023],[3.170431,41.977009],[3.170417,41.976998],[3.170384,41.976978],[3.170324,41.976947],[3.170304,41.976939],[3.170286,41.976931],[3.170264,41.976921],[3.170261,41.97692],[3.170245,41.976915],[3.170219,41.976906],[3.170192,41.976898],[3.170165,41.976893],[3.170148,41.976892],[3.170113,41.976891],[3.170079,41.976891],[3.170038,41.976739],[3.170014,41.976651],[3.169994,41.97652],[3.169963,41.976313],[3.169837,41.976057],[3.16969,41.976203],[3.169692,41.976171],[3.169696,41.976144],[3.169702,41.976117],[3.16972,41.976056],[3.169736,41.975992],[3.169748,41.975919],[3.169758,41.975846],[3.169766,41.975785],[3.169774,41.975724],[3.169781,41.975672],[3.16979,41.97562],[3.169795,41.975597],[3.169801,41.975576],[3.169806,41.975566],[3.169813,41.97556],[3.169826,41.975552],[3.169845,41.97554],[3.169865,41.975525],[3.169884,41.975507],[3.169893,41.975493],[3.169986,41.975553],[3.170009,41.975568],[3.170357,41.975549],[3.170363,41.975566],[3.170381,41.975565],[3.170427,41.976369],[3.170462,41.976375],[3.170486,41.976382],[3.170575,41.976395],[3.170792,41.976391],[3.170925,41.976355],[3.170907,41.976333],[3.170928,41.976309],[3.170939,41.976287],[3.170947,41.976267],[3.170956,41.976239],[3.170965,41.976213],[3.170979,41.976183],[3.170992,41.976153],[3.171019,41.976091],[3.171048,41.976029],[3.17106,41.975998],[3.171069,41.975965],[3.171066,41.975951],[3.171055,41.975938],[3.17105,41.97593],[3.171047,41.97592],[3.17105,41.975909],[3.171057,41.975898],[3.171065,41.975885],[3.171084,41.975858],[3.171111,41.975816],[3.171137,41.975773],[3.171147,41.975753],[3.171155,41.975725],[3.17116,41.975696],[3.17116,41.975673],[3.171153,41.97565],[3.171145,41.975634],[3.171141,41.975626],[3.171148,41.975619],[3.171172,41.975599],[3.171199,41.975576],[3.171214,41.975557],[3.171229,41.975538],[3.171249,41.975508],[3.171265,41.975477],[3.171277,41.975446],[3.171291,41.975416],[3.171307,41.975392],[3.171311,41.975385],[3.171315,41.975386],[3.17133,41.975392],[3.171361,41.9754],[3.171408,41.975413],[3.171455,41.975427],[3.171523,41.975447],[3.171591,41.975467],[3.171647,41.975484],[3.171702,41.975502],[3.171754,41.975521],[3.171802,41.975546],[3.171832,41.975564],[3.171863,41.97559],[3.171894,41.975619],[3.171918,41.975638],[3.171946,41.975655],[3.171971,41.975671],[3.171975,41.975675],[3.171977,41.975678],[3.171977,41.975681],[3.171975,41.975688],[3.171971,41.9757],[3.171966,41.975714],[3.171959,41.975731],[3.17193,41.975778],[3.171894,41.975837],[3.171873,41.975867],[3.171851,41.975897],[3.171842,41.975909],[3.171827,41.975922],[3.171823,41.975923],[3.171892,41.975957],[3.1719,41.975967],[3.171955,41.975996],[3.172028,41.976034],[3.172061,41.976049],[3.172089,41.976062],[3.172114,41.976071],[3.172285,41.976129],[3.172327,41.976143],[3.172385,41.976158],[3.172512,41.976242],[3.172517,41.976253],[3.172524,41.976262],[3.172543,41.976279],[3.172552,41.976285],[3.172566,41.976291],[3.172594,41.976298],[3.172624,41.976306],[3.172671,41.976315],[3.172684,41.976317],[3.172795,41.97633],[3.172852,41.97616],[3.172892,41.976042],[3.172929,41.97577],[3.173014,41.975776],[3.173043,41.975778],[3.173096,41.97549],[3.173096,41.975487],[3.173123,41.975338],[3.173879,41.975424],[3.173929,41.975457],[3.173954,41.97546],[3.17447,41.975525],[3.174556,41.975533],[3.174614,41.975538],[3.174648,41.975539],[3.174678,41.975542],[3.174773,41.975549],[3.174886,41.97556],[3.174983,41.975575],[3.174981,41.975609],[3.175026,41.975672],[3.175189,41.97575],[3.175686,41.975857],[3.176059,41.97582],[3.176414,41.975406],[3.176497,41.975303],[3.176592,41.975185],[3.176716,41.975072],[3.176722,41.975068],[3.176904,41.974922],[3.176927,41.974902],[3.177095,41.974762],[3.177106,41.974744],[3.177115,41.974728],[3.177224,41.974542],[3.177227,41.974533],[3.177331,41.974169],[3.177433,41.973912],[3.177455,41.973757],[3.177468,41.973673],[3.177272,41.973558],[3.177241,41.97354],[3.177204,41.973517],[3.176671,41.973212],[3.176601,41.973172],[3.176606,41.973152],[3.176639,41.973008],[3.176649,41.972972],[3.176654,41.972953],[3.176665,41.972932],[3.176662,41.972924],[3.176686,41.972836],[3.176584,41.972694],[3.176532,41.972622],[3.176531,41.972608],[3.176524,41.972594],[3.176509,41.972582],[3.176501,41.972549],[3.176492,41.972515],[3.176482,41.972485],[3.176469,41.972456],[3.176439,41.972402],[3.1764,41.972335],[3.176363,41.972269],[3.176341,41.972225],[3.176317,41.972177],[3.176282,41.972127],[3.17624,41.97208],[3.176201,41.972045],[3.176186,41.972034],[3.176178,41.972021],[3.176164,41.972018],[3.176157,41.972013],[3.176106,41.971982],[3.176054,41.971954],[3.176014,41.971937],[3.175971,41.971922],[3.175907,41.971907],[3.175844,41.971895],[3.175748,41.971881],[3.175656,41.971867],[3.175606,41.971855],[3.175558,41.971839],[3.175529,41.971828],[3.175496,41.971814],[3.175462,41.971806],[3.175424,41.971802],[3.175396,41.971804],[3.175326,41.971824],[3.175322,41.971826],[3.175263,41.971848],[3.175251,41.971854],[3.175241,41.971815],[3.175206,41.971679],[3.174869,41.971693],[3.174616,41.9717],[3.174611,41.971699],[3.174243,41.971696],[3.174202,41.971699],[3.174022,41.971711],[3.173935,41.971717],[3.173713,41.971755],[3.173503,41.971807],[3.173494,41.971809],[3.173234,41.971901],[3.173195,41.971914],[3.17302,41.971992],[3.172945,41.972025],[3.172676,41.972095],[3.17267,41.972071],[3.172644,41.971988],[3.172619,41.971907],[3.172614,41.971878],[3.172612,41.971833],[3.172615,41.971787],[3.172622,41.971732],[3.172635,41.971677],[3.172644,41.971652],[3.172665,41.971614],[3.172693,41.97158],[3.172791,41.971485],[3.172895,41.971394],[3.172976,41.971326],[3.173045,41.971269],[3.173074,41.971278],[3.173419,41.971379],[3.173471,41.971377],[3.173516,41.9713],[3.173537,41.971262],[3.173618,41.97111],[3.173632,41.971082],[3.17342,41.971023],[3.17318,41.970958],[3.172917,41.970885],[3.172723,41.970818],[3.172464,41.970728],[3.172447,41.970722],[3.172216,41.970642],[3.172009,41.97057],[3.171795,41.970496],[3.171689,41.97064],[3.171632,41.970719],[3.171924,41.970842],[3.172019,41.970877],[3.172157,41.971078],[3.172161,41.971082],[3.172297,41.971209],[3.172436,41.97134],[3.172514,41.971413],[3.17259,41.971487],[3.172618,41.971518],[3.172646,41.97155],[3.172654,41.97156],[3.172623,41.971599],[3.1726,41.97164],[3.172589,41.971669],[3.172575,41.971727],[3.172568,41.971785],[3.172565,41.971833],[3.172567,41.971881],[3.172573,41.971913],[3.172589,41.971964],[3.172396,41.971973],[3.172237,41.971965],[3.172227,41.971963],[3.172197,41.971955],[3.171715,41.971885],[3.171096,41.971775],[3.171033,41.972169],[3.170983,41.972164],[3.170884,41.972153],[3.170835,41.972149],[3.17083,41.972139],[3.170824,41.972129],[3.170815,41.972119],[3.170805,41.972111],[3.170793,41.972103],[3.170779,41.972097],[3.170763,41.972093],[3.170747,41.97209],[3.170729,41.972092],[3.170712,41.972097],[3.170697,41.972105],[3.170686,41.972115],[3.170678,41.972128],[3.170674,41.972141],[3.170675,41.972155],[3.17068,41.972168],[3.170687,41.972176],[3.170696,41.972184],[3.170706,41.97219],[3.170718,41.972195],[3.170731,41.972198],[3.170745,41.9722],[3.170758,41.972199],[3.170771,41.972197],[3.17082,41.972205],[3.170872,41.972217],[3.170971,41.972228],[3.170976,41.972228],[3.170961,41.972347],[3.170948,41.972466],[3.170885,41.972457],[3.170675,41.972438],[3.170624,41.972745],[3.170552,41.972739],[3.170307,41.972717],[3.170228,41.972851],[3.17021,41.972938],[3.170209,41.972941],[3.170083,41.973343],[3.170057,41.973455],[3.169994,41.973462],[3.16958,41.973508],[3.169445,41.973213],[3.169429,41.973179],[3.169155,41.973252],[3.168899,41.97332],[3.168908,41.973334],[3.168854,41.973346],[3.168867,41.973365],[3.168875,41.973384],[3.168882,41.973404],[3.168893,41.973448],[3.1689,41.973479],[3.16891,41.97353],[3.168915,41.97358],[3.168914,41.973658],[3.168912,41.973738],[3.168912,41.973818],[3.168912,41.973858],[3.168912,41.973897],[3.168912,41.97395],[3.168912,41.974003],[3.168912,41.974039],[3.168919,41.974071],[3.168926,41.974091],[3.168963,41.974171],[3.168972,41.97419],[3.168979,41.9742],[3.168987,41.974209],[3.16904,41.97425],[3.169093,41.974284],[3.169153,41.974322],[3.169178,41.974336],[3.169108,41.974446],[3.16905,41.97452],[3.169044,41.974528],[3.168966,41.974653],[3.16888,41.974825],[3.1688,41.974958],[3.16872,41.975089],[3.169117,41.975232],[3.169259,41.975283],[3.169516,41.975368],[3.169552,41.975379],[3.169504,41.975573],[3.169487,41.975645],[3.169415,41.975878],[3.169406,41.975906],[3.169295,41.97605],[3.169285,41.976078],[3.169273,41.976079],[3.169257,41.976101],[3.169065,41.976349],[3.169034,41.976389],[3.168816,41.976714],[3.168708,41.976691],[3.168672,41.976684],[3.167741,41.976498],[3.167699,41.97649],[3.167601,41.976827],[3.167477,41.977253],[3.167381,41.977528],[3.167462,41.977981],[3.167464,41.977995],[3.16734,41.978214],[3.167331,41.978239],[3.167311,41.978287],[3.16727,41.978353],[3.167229,41.978411],[3.167033,41.978431],[3.167032,41.978427],[3.166989,41.978432],[3.166989,41.978435],[3.166886,41.978446],[3.166845,41.97845],[3.166714,41.978463],[3.166717,41.97847],[3.166746,41.978525],[3.166821,41.978671],[3.166798,41.978679],[3.166784,41.978684],[3.166757,41.978698],[3.166738,41.978711],[3.166712,41.97873],[3.166684,41.978754],[3.166435,41.978666],[3.166395,41.978662],[3.166357,41.978715],[3.166309,41.978777],[3.166242,41.978843],[3.166172,41.978898],[3.166128,41.978951],[3.166086,41.978999],[3.166054,41.979018],[3.165997,41.979051],[3.165933,41.979089],[3.165885,41.97913],[3.165806,41.97923],[3.165755,41.979309],[3.165579,41.979713],[3.165888,41.979796]]]]}},{"type":"Feature","id":"171241_171241 AP04 BEM 1","properties":{"area_id":"171241_171241 AP04 BEM 1","nom":"els Arenals de Mar","codi_icgc":"171241 AP04 BEM 1","categoria":"Àrees de poblament","codi_municipi":"171241","municipi":"Pals","codi_comarca":"10","comarca":"Baix Empordà","provincia":"Girona","font":"ICGC Àrees de poblament v3r1 202602"},"geometry":{"type":"MultiPolygon","coordinates":[[[[3.193962,41.990108],[3.194088,41.990021],[3.194367,41.989848],[3.194453,41.989801],[3.194629,41.989728],[3.194739,41.989692],[3.195268,41.989564],[3.195512,41.989488],[3.195595,41.989449],[3.195787,41.989324],[3.196293,41.988937],[3.196783,41.988527],[3.196811,41.988503],[3.197032,41.988314],[3.197083,41.988268],[3.197139,41.988221],[3.197149,41.988212],[3.197154,41.988208],[3.197293,41.988092],[3.198719,41.98688],[3.198923,41.986711],[3.199052,41.986605],[3.199128,41.986542],[3.199193,41.986547],[3.199216,41.986549],[3.199209,41.986545],[3.1992,41.986542],[3.199333,41.986431],[3.199347,41.986418],[3.199395,41.986375],[3.199412,41.986359],[3.199467,41.986301],[3.19954,41.986211],[3.199573,41.986164],[3.199603,41.986117],[3.199728,41.9859],[3.19985,41.985683],[3.200031,41.98535],[3.200211,41.985016],[3.200288,41.984883],[3.20035,41.984786],[3.20055,41.984497],[3.200599,41.984433],[3.200628,41.984404],[3.200664,41.984378],[3.200725,41.984351],[3.200789,41.984329],[3.200863,41.98431],[3.200867,41.984309],[3.200906,41.984299],[3.200926,41.984291],[3.200943,41.984283],[3.200958,41.984271],[3.200968,41.984259],[3.201,41.984222],[3.201028,41.984182],[3.201081,41.984106],[3.201092,41.98409],[3.201111,41.984075],[3.201129,41.984059],[3.201158,41.984036],[3.201185,41.984011],[3.2012,41.983994],[3.201229,41.983947],[3.201256,41.9839],[3.201316,41.983792],[3.201377,41.983683],[3.201406,41.98364],[3.201443,41.983599],[3.201469,41.983577],[3.201402,41.983486],[3.201183,41.983408],[3.200925,41.983372],[3.200729,41.983345],[3.20055,41.983355],[3.200518,41.983435],[3.200078,41.983364],[3.200109,41.983219],[3.200113,41.983165],[3.200024,41.983146],[3.199231,41.982976],[3.199054,41.983377],[3.199071,41.983395],[3.19892,41.983477],[3.198862,41.983425],[3.198479,41.983464],[3.198494,41.98376],[3.19882,41.98378],[3.198773,41.98387],[3.198492,41.984506],[3.198359,41.984814],[3.19828,41.984984],[3.198244,41.985074],[3.197954,41.98556],[3.197731,41.985893],[3.197539,41.986228],[3.197363,41.986205],[3.197114,41.986153],[3.196666,41.98607],[3.196577,41.986089],[3.196548,41.986108],[3.19652,41.986161],[3.196371,41.986639],[3.196225,41.986997],[3.196066,41.9872],[3.195566,41.987725],[3.1946,41.987423],[3.19458,41.98746],[3.194476,41.987724],[3.194385,41.98795],[3.194298,41.988194],[3.19405,41.988908],[3.193973,41.989156],[3.19393,41.98932],[3.193917,41.98943],[3.193902,41.989556],[3.19387,41.989739],[3.193849,41.989795],[3.193833,41.989839],[3.193806,41.989891],[3.193752,41.989954],[3.19371,41.989978],[3.193662,41.989996],[3.1936,41.990007],[3.193567,41.990019],[3.193525,41.990054],[3.193474,41.990077],[3.193379,41.990105],[3.193296,41.990099],[3.193248,41.990096],[3.193208,41.990093],[3.193153,41.990087],[3.193099,41.990078],[3.192991,41.990061],[3.192874,41.990049],[3.192757,41.990036],[3.192621,41.990021],[3.192485,41.990005],[3.192394,41.989994],[3.192332,41.98999],[3.19227,41.989988],[3.192145,41.989991],[3.19212,41.989991],[3.192101,41.989995],[3.192096,41.989995],[3.192087,41.990004],[3.192084,41.990014],[3.192083,41.990024],[3.192073,41.990067],[3.192064,41.990111],[3.192036,41.990272],[3.191984,41.990523],[3.191959,41.990643],[3.191905,41.991035],[3.1919,41.991066],[3.191893,41.991125],[3.192046,41.991138],[3.192557,41.991181],[3.193197,41.991235],[3.193233,41.991236],[3.193302,41.991237],[3.193365,41.991145],[3.193418,41.991049],[3.193461,41.99095],[3.193486,41.990841],[3.193517,41.990734],[3.193564,41.990643],[3.193613,41.990554],[3.193654,41.990494],[3.193681,41.990432],[3.193681,41.990428],[3.193687,41.990368],[3.193691,41.990324],[3.193692,41.990316],[3.193693,41.990305],[3.193758,41.990295],[3.193816,41.990271],[3.193862,41.990235],[3.193893,41.990192],[3.193903,41.990162],[3.193903,41.990157],[3.193903,41.990148],[3.193962,41.990108]]],[[[3.196095,42.000899],[3.196251,42.000389],[3.196283,42.000285],[3.196285,42.000279],[3.196294,42.00028],[3.197418,42.00047],[3.197797,41.999246],[3.197901,41.99891],[3.197985,41.99864],[3.199037,41.995552],[3.199068,41.995463],[3.19909,41.995397],[3.199087,41.995394],[3.198527,41.995014],[3.19844,41.994954],[3.198333,41.994933],[3.198097,41.994884],[3.197885,41.994841],[3.197878,41.99484],[3.197596,41.994787],[3.19722,41.994716],[3.196843,41.994644],[3.196704,41.994617],[3.196441,41.99456],[3.196471,41.994402],[3.196479,41.994358],[3.196481,41.994346],[3.196482,41.994339],[3.196052,41.994269],[3.195669,41.994212],[3.195662,41.994211],[3.195651,41.994317],[3.19565,41.994379],[3.195671,41.994445],[3.195704,41.99451],[3.195776,41.994637],[3.195998,41.995113],[3.196025,41.99518],[3.196041,41.995249],[3.196039,41.995294],[3.196018,41.995359],[3.195988,41.995423],[3.195903,41.995577],[3.195894,41.995626],[3.195902,41.995676],[3.195913,41.995701],[3.195949,41.995758],[3.195992,41.995801],[3.196084,41.995862],[3.196142,41.995886],[3.196185,41.995894],[3.196261,41.995894],[3.196568,41.995857],[3.196714,41.995859],[3.196803,41.995869],[3.19686,41.995875],[3.196953,41.995897],[3.197123,41.995946],[3.197292,41.995995],[3.197099,41.996506],[3.197006,41.996762],[3.196749,41.997478],[3.196748,41.99748],[3.196324,41.998661],[3.196204,41.998996],[3.195925,41.999129],[3.195333,41.99941],[3.195016,41.999561],[3.194906,41.999614],[3.194855,41.999576],[3.194641,41.99968],[3.194553,41.999586],[3.194244,41.999738],[3.193665,42.000024],[3.193644,42.000035],[3.193344,42.000183],[3.193261,42.000224],[3.193025,42.00022],[3.192785,42.000179],[3.19224,42.000087],[3.192141,42.000387],[3.192121,42.000438],[3.192092,42.000523],[3.191618,42.000442],[3.191503,42.000421],[3.191362,42.000396],[3.19135,42.000393],[3.191391,42.000188],[3.191462,41.999985],[3.191547,41.999818],[3.191848,41.999849],[3.192266,41.999647],[3.192377,41.999583],[3.192442,41.999261],[3.192592,41.998526],[3.192563,41.998124],[3.19252,41.997219],[3.192519,41.997199],[3.192049,41.997187],[3.192046,41.997199],[3.191897,41.99784],[3.191836,41.9981],[3.19166,41.998848],[3.191496,41.999569],[3.191622,41.999599],[3.19162,41.999612],[3.191611,41.999621],[3.191573,41.999642],[3.191538,41.999665],[3.191509,41.999695],[3.191489,41.999728],[3.191476,41.999761],[3.191449,41.999838],[3.191423,41.999914],[3.191384,42.000024],[3.191376,42.000047],[3.191328,42.00018],[3.19131,42.000228],[3.191272,42.000339],[3.191263,42.000359],[3.191258,42.000368],[3.191248,42.000373],[3.191236,42.000374],[3.190874,42.000303],[3.190899,42.000285],[3.190841,42.000204],[3.190758,42.000085],[3.190753,42.000078],[3.190715,42.000024],[3.190537,41.999771],[3.190434,41.999624],[3.190421,41.999607],[3.190629,41.998854],[3.190785,41.998287],[3.190806,41.99821],[3.190813,41.998187],[3.190824,41.998145],[3.191177,41.99687],[3.191344,41.996262],[3.191465,41.99582],[3.191492,41.99572],[3.191549,41.995618],[3.1921,41.994164],[3.192112,41.994133],[3.192225,41.993823],[3.192357,41.99346],[3.192363,41.993457],[3.192414,41.993308],[3.192432,41.993266],[3.192429,41.993259],[3.192424,41.99324],[3.192423,41.993235],[3.19242,41.993201],[3.192429,41.993169],[3.192436,41.993149],[3.192453,41.993123],[3.19246,41.993117],[3.192492,41.993034],[3.192523,41.992952],[3.192535,41.992916],[3.192545,41.992867],[3.192548,41.992852],[3.192561,41.992755],[3.19257,41.992707],[3.192582,41.992659],[3.192635,41.992512],[3.192657,41.992458],[3.192526,41.992421],[3.19251,41.992434],[3.192197,41.992366],[3.191835,41.992275],[3.191575,41.992784],[3.191534,41.992903],[3.191465,41.993103],[3.191462,41.99311],[3.191123,41.993047],[3.191129,41.993006],[3.190395,41.992943],[3.190348,41.992939],[3.190288,41.992904],[3.190271,41.992919],[3.190248,41.992948],[3.190165,41.993052],[3.190122,41.993105],[3.189765,41.99302],[3.189227,41.992925],[3.189197,41.99292],[3.188937,41.992861],[3.188923,41.992882],[3.188785,41.993234],[3.188369,41.993173],[3.188398,41.99341],[3.188468,41.993438],[3.188717,41.993478],[3.188705,41.993504],[3.1897,41.993634],[3.189888,41.993658],[3.189862,41.993787],[3.18986,41.993797],[3.189466,41.994795],[3.189421,41.994907],[3.189409,41.994975],[3.189361,41.995152],[3.189264,41.995401],[3.189217,41.995522],[3.189072,41.995891],[3.188917,41.996275],[3.188745,41.996776],[3.189708,41.996996],[3.189581,41.997445],[3.189624,41.997451],[3.189608,41.997526],[3.189464,41.998224],[3.189403,41.998559],[3.189398,41.998589],[3.189398,41.998593],[3.189392,41.998626],[3.189362,41.998812],[3.189355,41.998854],[3.189321,41.999079],[3.189325,41.999119],[3.189343,41.999197],[3.189369,41.999275],[3.189392,41.99932],[3.189513,41.999507],[3.189698,41.999799],[3.189748,41.999887],[3.189779,41.99995],[3.189805,42.000013],[3.189807,42.000023],[3.189759,42.000049],[3.189752,42.000054],[3.189816,42.000066],[3.190275,42.000145],[3.190287,42.000177],[3.190289,42.000183],[3.190295,42.000214],[3.190326,42.000219],[3.190409,42.000299],[3.196005,42.001257],[3.19606,42.001013],[3.196095,42.000899]]]]}},{"type":"Feature","id":"171241_171241 AP03 BEM 3","properties":{"area_id":"171241_171241 AP03 BEM 3","nom":"els Masos de Pals","codi_icgc":"171241 AP03 BEM 3","categoria":"Àrees de poblament","codi_municipi":"171241","municipi":"Pals","codi_comarca":"10","comarca":"Baix Empordà","provincia":"Girona","font":"ICGC Àrees de poblament v3r1 202602"},"geometry":{"type":"MultiPolygon","coordinates":[[[[3.17197,41.980565],[3.171795,41.980543],[3.171767,41.980538],[3.171684,41.980526],[3.1716,41.980519],[3.171516,41.980519],[3.171507,41.98052],[3.171423,41.980537],[3.17134,41.980559],[3.17126,41.980586],[3.171224,41.980598],[3.171175,41.980608],[3.171125,41.980613],[3.171074,41.980612],[3.171024,41.980605],[3.170769,41.980559],[3.170735,41.980553],[3.170771,41.980367],[3.170826,41.980188],[3.170961,41.979751],[3.171005,41.979588],[3.171084,41.979277],[3.171111,41.979266],[3.171134,41.979253],[3.171152,41.979227],[3.171151,41.979205],[3.17114,41.97918],[3.17112,41.97916],[3.171094,41.97915],[3.171058,41.979149],[3.171038,41.979149],[3.171011,41.979115],[3.170979,41.979097],[3.170916,41.979076],[3.170783,41.979048],[3.170631,41.979016],[3.170523,41.978993],[3.170456,41.978976],[3.170413,41.978966],[3.170397,41.97899],[3.170295,41.979143],[3.170279,41.97918],[3.170275,41.979192],[3.170264,41.979226],[3.17026,41.97928],[3.170264,41.979435],[3.170284,41.979613],[3.17029,41.979909],[3.170294,41.979951],[3.170363,41.980183],[3.170409,41.980581],[3.170444,41.980653],[3.170448,41.980839],[3.170458,41.98091],[3.170464,41.980932],[3.170493,41.980944],[3.170541,41.980943],[3.170614,41.98096],[3.170665,41.981017],[3.170791,41.981142],[3.170819,41.981169],[3.170996,41.981325],[3.171002,41.98133],[3.171051,41.981365],[3.171106,41.981407],[3.171218,41.981502],[3.171273,41.981549],[3.171328,41.981595],[3.171491,41.981726],[3.171523,41.981755],[3.171537,41.98176],[3.171543,41.98176],[3.171644,41.98187],[3.171689,41.981886],[3.171718,41.981909],[3.171741,41.981927],[3.171949,41.982094],[3.172122,41.982233],[3.172156,41.982261],[3.172298,41.982384],[3.172391,41.982423],[3.172587,41.982511],[3.172723,41.982573],[3.172745,41.982596],[3.172772,41.982614],[3.172791,41.982625],[3.172815,41.982635],[3.172889,41.982667],[3.172899,41.982671],[3.172914,41.982678],[3.17296,41.982694],[3.173041,41.982726],[3.173201,41.982799],[3.173221,41.982791],[3.173269,41.982729],[3.173344,41.982638],[3.173369,41.982638],[3.173378,41.982629],[3.173434,41.982564],[3.173482,41.9825],[3.173838,41.982637],[3.173861,41.982637],[3.174052,41.98237],[3.174403,41.982074],[3.174581,41.981923],[3.174771,41.981652],[3.174656,41.981605],[3.174561,41.981569],[3.174544,41.981595],[3.174499,41.981578],[3.17414,41.981436],[3.17416,41.981365],[3.174201,41.981244],[3.174236,41.981129],[3.174285,41.980956],[3.174311,41.980867],[3.174335,41.980784],[3.174361,41.980699],[3.174368,41.980687],[3.174385,41.980645],[3.174405,41.980601],[3.17444,41.980537],[3.174484,41.980476],[3.174533,41.980417],[3.174624,41.980317],[3.174717,41.980226],[3.174679,41.980215],[3.174549,41.980181],[3.173401,41.979877],[3.173318,41.979688],[3.173181,41.979676],[3.173185,41.979656],[3.173197,41.979612],[3.173193,41.979611],[3.173251,41.9793],[3.173038,41.979289],[3.1729,41.979521],[3.172882,41.979518],[3.172458,41.979452],[3.172352,41.979417],[3.172315,41.979417],[3.172283,41.979436],[3.172266,41.979457],[3.172272,41.979494],[3.172297,41.979543],[3.172301,41.979571],[3.172285,41.979634],[3.172253,41.979746],[3.172078,41.980208],[3.171972,41.980557],[3.17197,41.980565]]]]}},{"type":"Feature","id":"171241_171241 AP13 BEM 2","properties":{"area_id":"171241_171241 AP13 BEM 2","nom":"els Vinyers","codi_icgc":"171241 AP13 BEM 2","categoria":"Àrees de poblament","codi_municipi":"171241","municipi":"Pals","codi_comarca":"10","comarca":"Baix Empordà","provincia":"Girona","font":"ICGC Àrees de poblament v3r1 202602"},"geometry":{"type":"MultiPolygon","coordinates":[[[[3.166427,41.980745],[3.166313,41.980742],[3.166236,41.980871],[3.166102,41.981318],[3.166256,41.981353],[3.166548,41.981421],[3.166595,41.981432],[3.166527,41.981546],[3.166543,41.981558],[3.166458,41.98169],[3.166353,41.981823],[3.166244,41.981955],[3.166175,41.982045],[3.166009,41.982232],[3.165758,41.982169],[3.165562,41.982449],[3.165319,41.982365],[3.165155,41.982639],[3.165092,41.982738],[3.165065,41.982775],[3.165024,41.982842],[3.165003,41.982883],[3.165117,41.982913],[3.165087,41.982955],[3.165046,41.982997],[3.164994,41.983046],[3.164894,41.983146],[3.164825,41.983209],[3.164784,41.983243],[3.164688,41.983316],[3.16459,41.983389],[3.16453,41.983443],[3.164432,41.983541],[3.164335,41.98364],[3.164245,41.983685],[3.164286,41.983466],[3.164315,41.983311],[3.164322,41.983285],[3.16432,41.983284],[3.164321,41.983277],[3.16337,41.983001],[3.163372,41.982998],[3.163314,41.982984],[3.163304,41.982981],[3.163224,41.98305],[3.163219,41.983076],[3.163189,41.983231],[3.163161,41.983387],[3.163159,41.983411],[3.163161,41.983436],[3.163174,41.983484],[3.163189,41.983514],[3.163235,41.983592],[3.16328,41.983667],[3.1633,41.983708],[3.163316,41.983749],[3.163319,41.983783],[3.163313,41.983818],[3.163305,41.983842],[3.163275,41.983917],[3.163275,41.983918],[3.163245,41.983995],[3.163239,41.984013],[3.163361,41.984051],[3.163584,41.984045],[3.163759,41.984057],[3.164257,41.984158],[3.164635,41.984215],[3.164639,41.984207],[3.164826,41.983856],[3.164608,41.983811],[3.164288,41.983745],[3.16429,41.983743],[3.164373,41.983661],[3.164395,41.983639],[3.165143,41.982988],[3.165603,41.982806],[3.165782,41.982806],[3.165974,41.98293],[3.166408,41.983024],[3.166791,41.982919],[3.166952,41.982919],[3.167014,41.982919],[3.167091,41.982919],[3.167162,41.982918],[3.168172,41.983298],[3.168319,41.982788],[3.16727,41.98246],[3.167456,41.981988],[3.167523,41.981981],[3.167656,41.981995],[3.167821,41.981339],[3.167904,41.981008],[3.16785,41.980982],[3.167827,41.980971],[3.167743,41.98097],[3.167385,41.980928],[3.167298,41.98091],[3.167127,41.980872],[3.167002,41.980844],[3.166901,41.980814],[3.166562,41.98073],[3.166427,41.980745]]]]}},{"type":"Feature","id":"171241_171241 AP11 BEM 2","properties":{"area_id":"171241_171241 AP11 BEM 2","nom":"la Font","codi_icgc":"171241 AP11 BEM 2","categoria":"Àrees de poblament","codi_municipi":"171241","municipi":"Pals","codi_comarca":"10","comarca":"Baix Empordà","provincia":"Girona","font":"ICGC Àrees de poblament v3r1 202602"},"geometry":{"type":"MultiPolygon","coordinates":[[[[3.147927,41.973855],[3.147881,41.973976],[3.147856,41.974042],[3.147761,41.97442],[3.14766,41.974445],[3.147584,41.974509],[3.147531,41.974584],[3.14744,41.974552],[3.147116,41.974894],[3.14733,41.975091],[3.147595,41.97497],[3.147604,41.974992],[3.147743,41.975113],[3.147916,41.975249],[3.147792,41.975395],[3.147525,41.975767],[3.147306,41.975798],[3.147257,41.975805],[3.146929,41.975837],[3.146981,41.976119],[3.147171,41.976161],[3.147221,41.97617],[3.147696,41.976149],[3.147839,41.976076],[3.147856,41.975985],[3.147851,41.975881],[3.14832,41.976027],[3.148251,41.976279],[3.148212,41.976437],[3.148426,41.976485],[3.148859,41.976258],[3.148818,41.975934],[3.148607,41.975755],[3.149109,41.97534],[3.14941,41.975036],[3.149587,41.974889],[3.149721,41.974742],[3.149754,41.974671],[3.149625,41.974607],[3.149806,41.974461],[3.149799,41.974443],[3.149576,41.974317],[3.149199,41.974661],[3.149122,41.9747],[3.149045,41.97469],[3.148772,41.974565],[3.148479,41.974379],[3.148467,41.9743],[3.148428,41.974149],[3.14843,41.97412],[3.148086,41.974065],[3.14813,41.973904],[3.147927,41.973855]]]]}},{"type":"Feature","id":"171241_171241 AP12 BEM 2","properties":{"area_id":"171241_171241 AP12 BEM 2","nom":"la Llevadora","codi_icgc":"171241 AP12 BEM 2","categoria":"Àrees de poblament","codi_municipi":"171241","municipi":"Pals","codi_comarca":"10","comarca":"Baix Empordà","provincia":"Girona","font":"ICGC Àrees de poblament v3r1 202602"},"geometry":{"type":"MultiPolygon","coordinates":[[[[3.165548,41.979838],[3.16542,41.979796],[3.165552,41.979332],[3.165554,41.979325],[3.165396,41.979275],[3.164979,41.979151],[3.164658,41.979081],[3.164657,41.979072],[3.164646,41.978948],[3.164661,41.978747],[3.164669,41.97869],[3.164668,41.978424],[3.164668,41.978193],[3.164632,41.978193],[3.164168,41.978229],[3.16408,41.978233],[3.16407,41.978226],[3.164017,41.978186],[3.16401,41.978181],[3.164015,41.978176],[3.16409,41.978089],[3.164102,41.978055],[3.16415,41.977912],[3.16416,41.977884],[3.164155,41.977864],[3.164156,41.977861],[3.164156,41.9778],[3.164156,41.977778],[3.164149,41.977739],[3.164135,41.977695],[3.164132,41.977685],[3.164129,41.977666],[3.164137,41.977653],[3.164144,41.977648],[3.164151,41.977643],[3.164169,41.977638],[3.164177,41.977634],[3.164214,41.977625],[3.164214,41.977625],[3.164284,41.977608],[3.164299,41.977574],[3.16431,41.977215],[3.1643,41.977211],[3.1643,41.977203],[3.164243,41.977182],[3.164094,41.977129],[3.164007,41.977098],[3.163634,41.976977],[3.163434,41.976912],[3.163262,41.977187],[3.163241,41.977218],[3.163194,41.977296],[3.163088,41.977393],[3.162964,41.977466],[3.16289,41.977529],[3.162792,41.977683],[3.162792,41.977683],[3.162774,41.977743],[3.162762,41.977812],[3.162752,41.977881],[3.162739,41.977984],[3.162724,41.978087],[3.162707,41.978177],[3.162706,41.978179],[3.16273,41.978293],[3.162591,41.97828],[3.162512,41.978272],[3.162447,41.978268],[3.162407,41.978264],[3.161454,41.97817],[3.161448,41.97822],[3.161336,41.978208],[3.161337,41.978203],[3.161344,41.978176],[3.161385,41.978029],[3.16139,41.977986],[3.161403,41.977987],[3.161411,41.977935],[3.161448,41.977939],[3.161486,41.977692],[3.161403,41.977685],[3.16094,41.977655],[3.160921,41.977744],[3.160915,41.977744],[3.160731,41.97773],[3.160626,41.977728],[3.160616,41.977728],[3.160537,41.97772],[3.160483,41.97772],[3.160247,41.977722],[3.160256,41.977707],[3.160271,41.977683],[3.16028,41.977669],[3.16037,41.97756],[3.160392,41.977534],[3.160409,41.977523],[3.160451,41.977497],[3.160472,41.977482],[3.160502,41.977454],[3.160538,41.977406],[3.160555,41.977382],[3.160572,41.977358],[3.160648,41.977253],[3.160725,41.977147],[3.160753,41.977107],[3.16078,41.977066],[3.160797,41.977035],[3.160805,41.977011],[3.16081,41.976973],[3.160808,41.976954],[3.160802,41.976936],[3.160783,41.976891],[3.16077,41.976859],[3.160778,41.976857],[3.160745,41.976846],[3.16073,41.976842],[3.160616,41.976868],[3.16057,41.976881],[3.160529,41.976896],[3.16049,41.976914],[3.160432,41.976967],[3.160402,41.976994],[3.160402,41.976994],[3.160424,41.977039],[3.160443,41.977085],[3.160469,41.97718],[3.160479,41.977226],[3.160484,41.977272],[3.160483,41.977302],[3.160472,41.977348],[3.160451,41.977394],[3.160432,41.977423],[3.160334,41.977543],[3.160233,41.977662],[3.160017,41.977906],[3.159949,41.977991],[3.159914,41.978041],[3.159901,41.978061],[3.159889,41.978081],[3.159866,41.97811],[3.15984,41.978139],[3.15983,41.978145],[3.159815,41.978147],[3.159784,41.978149],[3.159751,41.978149],[3.159718,41.978147],[3.159713,41.978145],[3.159661,41.97819],[3.15934,41.978279],[3.159155,41.978295],[3.159151,41.978305],[3.159129,41.978335],[3.159065,41.978396],[3.158997,41.978454],[3.158925,41.978511],[3.158671,41.97846],[3.157888,41.978401],[3.157814,41.978607],[3.157635,41.978545],[3.157456,41.978483],[3.157373,41.978455],[3.157299,41.978429],[3.15716,41.97838],[3.156969,41.978319],[3.157086,41.977944],[3.156858,41.977735],[3.156648,41.97754],[3.156608,41.977497],[3.156485,41.977364],[3.156411,41.977121],[3.156396,41.977092],[3.156387,41.977098],[3.156368,41.977104],[3.156361,41.977104],[3.156355,41.977102],[3.156317,41.977078],[3.156284,41.97705],[3.156187,41.976958],[3.156095,41.976864],[3.156021,41.976776],[3.155948,41.976686],[3.155903,41.976633],[3.155877,41.976608],[3.155848,41.976583],[3.155817,41.976566],[3.155759,41.976542],[3.155671,41.976511],[3.155629,41.976494],[3.155589,41.976475],[3.155335,41.976335],[3.155286,41.976308],[3.155233,41.976309],[3.155047,41.976504],[3.155114,41.976539],[3.155294,41.976633],[3.15536,41.976667],[3.155341,41.976696],[3.155186,41.976839],[3.155069,41.976946],[3.154832,41.977398],[3.154762,41.977505],[3.154707,41.977903],[3.154688,41.978014],[3.154683,41.978047],[3.15432,41.97803],[3.154218,41.978026],[3.153536,41.977995],[3.152962,41.977989],[3.152484,41.977968],[3.15233,41.978092],[3.152285,41.978117],[3.152292,41.978128],[3.152281,41.97814],[3.152267,41.978169],[3.15226,41.978199],[3.15226,41.978229],[3.152268,41.978259],[3.152284,41.978287],[3.152306,41.978313],[3.152307,41.978314],[3.152325,41.978325],[3.152353,41.978334],[3.152374,41.978336],[3.152401,41.978333],[3.152408,41.978332],[3.1525,41.978492],[3.152477,41.978496],[3.152443,41.978502],[3.152416,41.978509],[3.152404,41.978513],[3.152398,41.978516],[3.152389,41.978523],[3.152383,41.978531],[3.152381,41.978535],[3.152378,41.97854],[3.152483,41.978858],[3.152673,41.978821],[3.152733,41.979005],[3.152789,41.979],[3.153015,41.979396],[3.15306,41.979474],[3.153071,41.979494],[3.154401,41.979606],[3.154397,41.979624],[3.154361,41.979789],[3.154327,41.979943],[3.154327,41.979947],[3.154326,41.980192],[3.154326,41.980208],[3.154324,41.980263],[3.154319,41.980402],[3.1547,41.980514],[3.154867,41.980533],[3.154893,41.980534],[3.155122,41.980545],[3.155489,41.980539],[3.155542,41.980517],[3.155579,41.980472],[3.155697,41.980268],[3.155834,41.980209],[3.155876,41.98024],[3.156113,41.980264],[3.156138,41.980266],[3.156138,41.980269],[3.1563,41.980286],[3.156266,41.980689],[3.156583,41.980718],[3.156682,41.980725],[3.156972,41.980165],[3.157258,41.979612],[3.157472,41.979141],[3.157496,41.97909],[3.157528,41.979024],[3.157559,41.978959],[3.15759,41.978906],[3.157625,41.978856],[3.157653,41.978826],[3.157684,41.978799],[3.157733,41.978767],[3.157757,41.978756],[3.157783,41.978744],[3.1578,41.978737],[3.157835,41.978729],[3.157895,41.978724],[3.157957,41.978723],[3.158126,41.978732],[3.158297,41.978742],[3.158372,41.978744],[3.158484,41.978739],[3.158595,41.978728],[3.158658,41.978719],[3.158704,41.978709],[3.158772,41.97869],[3.158838,41.978664],[3.158902,41.978629],[3.158947,41.978602],[3.15901,41.978558],[3.159061,41.978527],[3.159131,41.978474],[3.159175,41.978433],[3.159229,41.978395],[3.159283,41.978369],[3.1593,41.97849],[3.159223,41.978699],[3.159164,41.978867],[3.159156,41.979074],[3.159142,41.979192],[3.159107,41.979489],[3.159511,41.979575],[3.159523,41.97958],[3.160927,41.980076],[3.161008,41.980107],[3.161386,41.98025],[3.161413,41.980261],[3.161365,41.980315],[3.160998,41.980732],[3.160796,41.981016],[3.160837,41.98103],[3.160931,41.981061],[3.16132,41.981193],[3.161878,41.981324],[3.1617,41.981631],[3.161917,41.981687],[3.161981,41.981703],[3.162511,41.981839],[3.162464,41.98199],[3.162294,41.982113],[3.162143,41.982221],[3.162655,41.982318],[3.163095,41.982424],[3.163405,41.982522],[3.163571,41.982574],[3.163607,41.982512],[3.163808,41.982317],[3.164021,41.981899],[3.163867,41.98181],[3.163272,41.981634],[3.162724,41.981448],[3.162764,41.981358],[3.162783,41.981315],[3.16281,41.981285],[3.16308,41.980986],[3.163119,41.98094],[3.1634,41.980613],[3.163492,41.980548],[3.163613,41.980462],[3.163715,41.980495],[3.163935,41.980568],[3.164625,41.980718],[3.165007,41.980722],[3.165025,41.980715],[3.165246,41.980629],[3.165566,41.980505],[3.165868,41.980391],[3.165864,41.980381],[3.165792,41.98022],[3.165816,41.980107],[3.165824,41.979951],[3.165548,41.979838]]]]}},{"type":"Feature","id":"171241_171241 AP08 BEM 3","properties":{"area_id":"171241_171241 AP08 BEM 3","nom":"la Pineda de Pals","codi_icgc":"171241 AP08 BEM 3","categoria":"Àrees de poblament","codi_municipi":"171241","municipi":"Pals","codi_comarca":"10","comarca":"Baix Empordà","provincia":"Girona","font":"ICGC Àrees de poblament v3r1 202602"},"geometry":{"type":"MultiPolygon","coordinates":[[[[3.197925,41.978082],[3.198034,41.977903],[3.198629,41.978037],[3.198733,41.978057],[3.198725,41.977908],[3.198717,41.977751],[3.198712,41.977664],[3.198703,41.977534],[3.198699,41.977467],[3.198307,41.977456],[3.198158,41.977454],[3.198122,41.977451],[3.198033,41.977282],[3.198021,41.977259],[3.198014,41.977246],[3.197977,41.97718],[3.197826,41.976907],[3.197756,41.976727],[3.197699,41.976581],[3.197643,41.976437],[3.197632,41.97641],[3.1976,41.976275],[3.197688,41.976265],[3.197699,41.976262],[3.197716,41.976259],[3.197741,41.976248],[3.197762,41.976233],[3.197778,41.976213],[3.197787,41.976192],[3.197788,41.976169],[3.197784,41.976151],[3.197781,41.976013],[3.197781,41.976011],[3.197773,41.975734],[3.197773,41.975716],[3.19777,41.975624],[3.197674,41.975552],[3.197695,41.975425],[3.197698,41.97537],[3.197543,41.975295],[3.197233,41.975171],[3.196999,41.975057],[3.196936,41.975186],[3.196902,41.975361],[3.196873,41.97555],[3.196863,41.97562],[3.196833,41.975885],[3.196828,41.976028],[3.196841,41.976098],[3.196851,41.976153],[3.196857,41.976241],[3.196864,41.976292],[3.196752,41.976303],[3.196723,41.976305],[3.19662,41.976314],[3.196387,41.976338],[3.1964,41.976369],[3.196434,41.976451],[3.196467,41.976532],[3.196473,41.976549],[3.196508,41.976638],[3.196532,41.976705],[3.196565,41.976797],[3.196577,41.976829],[3.196624,41.976956],[3.196639,41.976994],[3.196656,41.977038],[3.196666,41.977061],[3.196837,41.977544],[3.196906,41.977915],[3.196919,41.978008],[3.19692,41.978018],[3.196934,41.978126],[3.196938,41.978197],[3.196939,41.978227],[3.196941,41.97833],[3.196946,41.978496],[3.196952,41.97858],[3.196962,41.978655],[3.196996,41.978693],[3.197011,41.978707],[3.19704,41.978726],[3.197071,41.978745],[3.197115,41.978768],[3.197185,41.978798],[3.197221,41.97881],[3.197258,41.978819],[3.19735,41.978831],[3.197444,41.978839],[3.197534,41.978843],[3.197534,41.978843],[3.197532,41.978198],[3.19781,41.978111],[3.197925,41.978082]]],[[[3.197086,41.982686],[3.19732,41.982593],[3.197308,41.982533],[3.197304,41.98241],[3.197304,41.982407],[3.1973,41.982287],[3.197295,41.982046],[3.197293,41.981895],[3.197293,41.981892],[3.19729,41.981867],[3.197253,41.981287],[3.197245,41.981176],[3.197243,41.981138],[3.197213,41.981014],[3.197179,41.980875],[3.197175,41.98086],[3.197139,41.980707],[3.197131,41.980672],[3.19712,41.980615],[3.197116,41.980592],[3.197102,41.980477],[3.197096,41.980371],[3.197093,41.980338],[3.197089,41.980265],[3.197089,41.980053],[3.197108,41.979821],[3.196994,41.979827],[3.196905,41.979832],[3.196739,41.979838],[3.196502,41.979845],[3.196471,41.979847],[3.196462,41.979848],[3.196033,41.979877],[3.195884,41.979887],[3.195854,41.979851],[3.195848,41.979845],[3.195834,41.979721],[3.195825,41.979662],[3.195827,41.979665],[3.195804,41.979468],[3.195747,41.979192],[3.19569,41.978916],[3.195585,41.978547],[3.195448,41.978063],[3.195426,41.977992],[3.195399,41.977849],[3.195385,41.977742],[3.195365,41.977594],[3.19525,41.977597],[3.195151,41.977608],[3.195146,41.977607],[3.195129,41.97761],[3.195066,41.977622],[3.195004,41.977638],[3.194948,41.977657],[3.194896,41.977669],[3.194842,41.977681],[3.194785,41.977692],[3.194777,41.977693],[3.1946,41.977702],[3.194505,41.977709],[3.194357,41.97772],[3.194341,41.977722],[3.194083,41.977752],[3.193799,41.977786],[3.193695,41.977796],[3.193734,41.97792],[3.19374,41.977953],[3.19375,41.978019],[3.193762,41.978034],[3.193789,41.978201],[3.193815,41.978308],[3.193836,41.978423],[3.193857,41.978538],[3.193889,41.97868],[3.193937,41.978884],[3.194004,41.979146],[3.194016,41.979191],[3.194072,41.979408],[3.194098,41.979511],[3.194121,41.979613],[3.194135,41.979704],[3.194141,41.979796],[3.194147,41.979983],[3.194158,41.980108],[3.194189,41.980325],[3.19422,41.980541],[3.194245,41.980701],[3.194269,41.980862],[3.194296,41.981088],[3.194317,41.981314],[3.194332,41.981489],[3.194333,41.981502],[3.194343,41.981529],[3.194336,41.981534],[3.19434,41.981595],[3.194075,41.981589],[3.194073,41.981612],[3.19406,41.981682],[3.194039,41.981752],[3.194011,41.98182],[3.193976,41.981886],[3.193934,41.981949],[3.193885,41.98201],[3.193831,41.981973],[3.193622,41.981825],[3.193366,41.98208],[3.193464,41.98222],[3.193502,41.982274],[3.193467,41.98229],[3.193391,41.98232],[3.193311,41.982345],[3.193229,41.982364],[3.193145,41.982378],[3.19306,41.982386],[3.193022,41.982387],[3.193056,41.982619],[3.193085,41.982617],[3.193103,41.982715],[3.193082,41.982739],[3.193066,41.982788],[3.193198,41.982822],[3.193338,41.982861],[3.193444,41.982893],[3.193553,41.98293],[3.193643,41.982961],[3.193654,41.982965],[3.193646,41.982979],[3.193655,41.982981],[3.193619,41.983054],[3.193473,41.983217],[3.193462,41.983224],[3.193455,41.983231],[3.193413,41.983259],[3.193325,41.983312],[3.193232,41.983361],[3.193215,41.983369],[3.193135,41.983405],[3.193034,41.983443],[3.19293,41.983477],[3.192823,41.983505],[3.192791,41.983512],[3.192714,41.983528],[3.192759,41.983937],[3.192769,41.984039],[3.19279,41.984248],[3.192797,41.984246],[3.192962,41.984196],[3.192982,41.984195],[3.193351,41.984079],[3.193384,41.984068],[3.19423,41.9838],[3.194961,41.983517],[3.195008,41.9835],[3.195243,41.983414],[3.195389,41.98337],[3.19543,41.983355],[3.195589,41.983292],[3.195825,41.983194],[3.196061,41.983096],[3.196143,41.983063],[3.196434,41.982946],[3.196506,41.982917],[3.196796,41.982801],[3.197018,41.982713],[3.197086,41.982686]]]]}},{"type":"Feature","id":"171241_171241 AP07 BEM 3","properties":{"area_id":"171241_171241 AP07 BEM 3","nom":"sa Punta","codi_icgc":"171241 AP07 BEM 3","categoria":"Àrees de poblament","codi_municipi":"171241","municipi":"Pals","codi_comarca":"10","comarca":"Baix Empordà","provincia":"Girona","font":"ICGC Àrees de poblament v3r1 202602"},"geometry":{"type":"MultiPolygon","coordinates":[[[[3.202944,41.978951],[3.202836,41.97912],[3.202738,41.979283],[3.20272,41.979311],[3.202586,41.979276],[3.202547,41.979104],[3.20254,41.978949],[3.20252,41.97849],[3.202522,41.978261],[3.202528,41.978018],[3.202559,41.977913],[3.202611,41.977708],[3.201898,41.977798],[3.201918,41.977922],[3.201917,41.978074],[3.201916,41.978272],[3.201899,41.978428],[3.201869,41.97852],[3.201837,41.978571],[3.201801,41.978596],[3.201733,41.978614],[3.201755,41.978684],[3.201811,41.97883],[3.201906,41.97897],[3.201918,41.978967],[3.201976,41.979063],[3.202179,41.97928],[3.202399,41.979488],[3.202404,41.979583],[3.202372,41.979603],[3.202331,41.9798],[3.202525,41.979742],[3.202707,41.979708],[3.2028,41.979694],[3.202834,41.979827],[3.202883,41.980006],[3.202909,41.980218],[3.202903,41.980325],[3.20286,41.980469],[3.202871,41.980543],[3.202941,41.980624],[3.203091,41.980707],[3.203296,41.980762],[3.203363,41.980788],[3.203449,41.980826],[3.203507,41.980876],[3.203619,41.980935],[3.20375,41.980961],[3.203919,41.980965],[3.204034,41.980929],[3.204566,41.980698],[3.20464,41.980658],[3.204655,41.980652],[3.204749,41.980617],[3.205447,41.980473],[3.205172,41.980229],[3.204881,41.9803],[3.204731,41.980328],[3.204652,41.980341],[3.204311,41.980282],[3.204199,41.980227],[3.20403,41.980127],[3.203953,41.980057],[3.203828,41.979928],[3.203712,41.979811],[3.203611,41.979689],[3.203558,41.979579],[3.203491,41.979475],[3.203411,41.979274],[3.203319,41.979078],[3.203344,41.979068],[3.203277,41.978958],[3.203219,41.978929],[3.203129,41.978919],[3.203008,41.978924],[3.202962,41.978931],[3.202944,41.978951]]]]}}]}