{"type":"FeatureCollection","name":"ICGC Àrees de poblament - Portbou","features":[{"type":"Feature","id":"171387_171387 AP01 AEM 3","properties":{"area_id":"171387_171387 AP01 AEM 3","nom":"Portbou","codi_icgc":"171387 AP01 AEM 3","categoria":"Àrees de poblament","codi_municipi":"171387","municipi":"Portbou","codi_comarca":"02","comarca":"Alt Empordà","provincia":"Girona","font":"ICGC Àrees de poblament v3r1 202602"},"geometry":{"type":"MultiPolygon","coordinates":[[[[3.154641,42.426671],[3.154703,42.426646],[3.15481,42.426767],[3.154945,42.426689],[3.155176,42.426592],[3.155084,42.42647],[3.155421,42.426355],[3.155087,42.426207],[3.155089,42.426196],[3.155127,42.426151],[3.154094,42.42547],[3.153201,42.424881],[3.153035,42.424774],[3.152536,42.424435],[3.151831,42.423984],[3.151662,42.42388],[3.151513,42.423773],[3.151361,42.423749],[3.151161,42.423731],[3.151046,42.423859],[3.150926,42.423981],[3.150888,42.424019],[3.150851,42.424059],[3.150808,42.424105],[3.150761,42.424158],[3.150725,42.424198],[3.150676,42.424255],[3.150604,42.424291],[3.150562,42.424312],[3.15049,42.42435],[3.150464,42.424365],[3.150397,42.424399],[3.150249,42.424477],[3.15014,42.424501],[3.150049,42.42452],[3.149966,42.424797],[3.149968,42.424824],[3.149971,42.424855],[3.149972,42.424874],[3.149973,42.424884],[3.149973,42.424892],[3.149974,42.424931],[3.150048,42.424919],[3.150171,42.424888],[3.150291,42.424853],[3.150399,42.424821],[3.150452,42.424802],[3.150503,42.424779],[3.150619,42.424716],[3.150735,42.424654],[3.15084,42.424598],[3.150946,42.424542],[3.150995,42.424512],[3.151062,42.424462],[3.15111,42.424422],[3.151191,42.424507],[3.151315,42.424491],[3.151557,42.424468],[3.151602,42.424466],[3.151615,42.424465],[3.151656,42.424463],[3.15173,42.42448],[3.151754,42.424486],[3.151813,42.424511],[3.151909,42.424561],[3.151982,42.424615],[3.152066,42.424642],[3.152139,42.424683],[3.152247,42.42475],[3.152233,42.424765],[3.152222,42.424772],[3.152216,42.424779],[3.152329,42.424854],[3.152337,42.424847],[3.152468,42.424911],[3.152629,42.424947],[3.152765,42.424964],[3.152806,42.425025],[3.152803,42.425028],[3.152919,42.425104],[3.152909,42.425113],[3.153038,42.425202],[3.153056,42.425188],[3.153086,42.425188],[3.153305,42.425339],[3.153319,42.425328],[3.153386,42.425373],[3.153455,42.425422],[3.153495,42.425454],[3.153542,42.425502],[3.153673,42.425679],[3.153707,42.425729],[3.153751,42.425764],[3.153799,42.425804],[3.153833,42.425847],[3.153717,42.42595],[3.153911,42.426379],[3.153945,42.426447],[3.153984,42.42649],[3.154013,42.426561],[3.154066,42.426661],[3.154134,42.426786],[3.154173,42.426815],[3.154241,42.426847],[3.154313,42.426861],[3.154448,42.426861],[3.154641,42.426671]]],[[[3.159595,42.43047],[3.159589,42.430469],[3.159571,42.430469],[3.159588,42.430441],[3.159618,42.430389],[3.159681,42.43031],[3.159782,42.430169],[3.159789,42.430161],[3.159816,42.430126],[3.159896,42.430026],[3.159946,42.429927],[3.159965,42.429909],[3.160001,42.429868],[3.160021,42.42984],[3.16008,42.42975],[3.16014,42.42966],[3.160171,42.429617],[3.160187,42.429594],[3.160217,42.429533],[3.160379,42.429491],[3.160507,42.429472],[3.160642,42.429448],[3.160762,42.429435],[3.16098,42.429503],[3.161076,42.429336],[3.161003,42.429301],[3.160838,42.429256],[3.160714,42.42925],[3.160545,42.429277],[3.160366,42.429314],[3.160053,42.429404],[3.159856,42.429461],[3.1596,42.429281],[3.159846,42.428985],[3.159852,42.428978],[3.159869,42.428986],[3.159884,42.428987],[3.159898,42.428987],[3.159916,42.428978],[3.159946,42.428946],[3.160046,42.428848],[3.160132,42.428767],[3.160206,42.428698],[3.16028,42.428636],[3.160364,42.428593],[3.160396,42.428607],[3.160521,42.428559],[3.160473,42.42849],[3.160412,42.42849],[3.160373,42.428483],[3.160341,42.428467],[3.160313,42.428434],[3.16028,42.428354],[3.160248,42.42829],[3.160344,42.428113],[3.160371,42.428063],[3.160406,42.427995],[3.160398,42.427964],[3.160391,42.427933],[3.160387,42.427923],[3.160382,42.427912],[3.160365,42.42789],[3.160325,42.427846],[3.160293,42.427807],[3.160257,42.427768],[3.160226,42.427746],[3.160221,42.427743],[3.16025,42.427688],[3.160304,42.427586],[3.160374,42.427452],[3.160413,42.427383],[3.160481,42.427282],[3.160557,42.427184],[3.160618,42.427112],[3.160834,42.42692],[3.160987,42.426819],[3.161056,42.426774],[3.161071,42.426764],[3.161087,42.426755],[3.161103,42.426746],[3.16112,42.426737],[3.161137,42.426729],[3.161154,42.426721],[3.161171,42.426714],[3.161189,42.426707],[3.161207,42.426701],[3.161226,42.426695],[3.161245,42.426689],[3.161264,42.426684],[3.161283,42.42668],[3.161302,42.426676],[3.161634,42.42661],[3.161698,42.426597],[3.161858,42.426565],[3.161971,42.426544],[3.162074,42.426525],[3.162176,42.426506],[3.162229,42.426494],[3.162302,42.426479],[3.162336,42.426501],[3.162362,42.42653],[3.162384,42.426549],[3.162442,42.426596],[3.162478,42.426627],[3.162459,42.426711],[3.16243,42.426811],[3.162398,42.426837],[3.162433,42.426894],[3.162479,42.426918],[3.16262,42.426875],[3.162703,42.426834],[3.162687,42.426865],[3.1627,42.426899],[3.16272,42.426932],[3.162758,42.426944],[3.16281,42.426944],[3.162881,42.426944],[3.16289,42.42692],[3.162932,42.426915],[3.162961,42.426898],[3.163009,42.426862],[3.163035,42.426803],[3.16306,42.426772],[3.163131,42.426722],[3.163269,42.426645],[3.163514,42.426771],[3.163809,42.426485],[3.163693,42.426421],[3.163821,42.426304],[3.163657,42.426216],[3.163776,42.426118],[3.163705,42.426075],[3.163541,42.425999],[3.163502,42.426002],[3.163429,42.426123],[3.163352,42.426233],[3.163262,42.42634],[3.163223,42.426369],[3.163153,42.426376],[3.163104,42.426379],[3.16305,42.426362],[3.163034,42.426336],[3.162949,42.426197],[3.162821,42.426078],[3.162668,42.425982],[3.16245,42.425807],[3.162369,42.425712],[3.162345,42.425608],[3.162352,42.425351],[3.162368,42.425026],[3.162375,42.424854],[3.162419,42.424746],[3.16257,42.424584],[3.16257,42.424544],[3.162472,42.424473],[3.162351,42.424471],[3.162258,42.424477],[3.162155,42.424489],[3.162055,42.424508],[3.162016,42.424352],[3.161911,42.424358],[3.161638,42.424364],[3.161512,42.424385],[3.161435,42.42441],[3.161387,42.424434],[3.161363,42.424492],[3.161308,42.42462],[3.161213,42.424772],[3.161132,42.424915],[3.161113,42.424943],[3.161093,42.424962],[3.161075,42.424981],[3.161032,42.425016],[3.160982,42.425045],[3.160905,42.425091],[3.160883,42.425103],[3.16075,42.42507],[3.16072,42.425063],[3.160705,42.425066],[3.160645,42.42508],[3.160587,42.425094],[3.160574,42.425106],[3.160566,42.42512],[3.160554,42.425214],[3.1605,42.425213],[3.160496,42.425213],[3.160481,42.425057],[3.160292,42.424942],[3.160246,42.424903],[3.160209,42.424927],[3.16011,42.424996],[3.160031,42.424851],[3.159979,42.424756],[3.159951,42.424705],[3.159951,42.424664],[3.159896,42.424381],[3.159888,42.424353],[3.159773,42.424367],[3.15972,42.424252],[3.159648,42.424151],[3.159584,42.424078],[3.159519,42.424004],[3.159456,42.423921],[3.159427,42.423879],[3.159401,42.423837],[3.159377,42.423794],[3.159342,42.42373],[3.159325,42.423697],[3.159308,42.423664],[3.159264,42.423575],[3.159219,42.423486],[3.159197,42.423465],[3.159156,42.423369],[3.159143,42.423364],[3.159078,42.4233],[3.159016,42.423237],[3.158954,42.423176],[3.158948,42.423169],[3.15887,42.423185],[3.158894,42.423254],[3.158876,42.423257],[3.158859,42.423264],[3.158846,42.42327],[3.158837,42.423278],[3.158831,42.423289],[3.158828,42.423301],[3.158763,42.423567],[3.158697,42.423833],[3.158658,42.423988],[3.158618,42.424142],[3.1586,42.4242],[3.158594,42.424217],[3.158565,42.42429],[3.158505,42.424437],[3.158435,42.424647],[3.158364,42.424857],[3.158346,42.424901],[3.158341,42.424911],[3.158323,42.424945],[3.15828,42.42505],[3.158252,42.425091],[3.158163,42.42522],[3.158028,42.425504],[3.157985,42.425595],[3.157871,42.425832],[3.157839,42.4259],[3.157772,42.426102],[3.157708,42.426298],[3.157665,42.426413],[3.157662,42.426429],[3.157911,42.426476],[3.157879,42.426607],[3.157887,42.426666],[3.157959,42.426696],[3.158474,42.426725],[3.158434,42.426862],[3.157992,42.426857],[3.157992,42.426875],[3.158028,42.428245],[3.157816,42.42867],[3.157823,42.428669],[3.157823,42.428705],[3.157848,42.428853],[3.157862,42.428932],[3.157863,42.428938],[3.15787,42.428983],[3.157874,42.42901],[3.158117,42.429698],[3.158097,42.429701],[3.158101,42.429709],[3.158087,42.429775],[3.158087,42.42979],[3.158088,42.429851],[3.158001,42.429848],[3.157949,42.429846],[3.157917,42.429849],[3.157908,42.429849],[3.157879,42.429849],[3.15785,42.429853],[3.157839,42.429855],[3.157793,42.429865],[3.157743,42.429878],[3.157695,42.429894],[3.157665,42.429908],[3.157592,42.429948],[3.157524,42.429992],[3.157475,42.430027],[3.157429,42.430063],[3.157412,42.430083],[3.157396,42.430105],[3.157383,42.430117],[3.157349,42.430141],[3.157315,42.430164],[3.157245,42.430249],[3.157194,42.430264],[3.157143,42.430279],[3.15705,42.430368],[3.157056,42.430371],[3.157063,42.430373],[3.157131,42.430403],[3.157255,42.430462],[3.157489,42.430279],[3.157673,42.430153],[3.157717,42.430132],[3.157787,42.430113],[3.157928,42.430112],[3.158093,42.43011],[3.158144,42.43011],[3.158144,42.430155],[3.158142,42.430253],[3.158142,42.430326],[3.158184,42.430371],[3.158317,42.430514],[3.158509,42.430605],[3.158527,42.430613],[3.158545,42.430621],[3.158563,42.430628],[3.158582,42.430635],[3.158601,42.430641],[3.15862,42.430647],[3.158639,42.430652],[3.158659,42.430657],[3.158679,42.430661],[3.158699,42.430665],[3.158719,42.430668],[3.15874,42.430671],[3.15876,42.430673],[3.158781,42.430675],[3.158801,42.430676],[3.158822,42.430677],[3.158843,42.430677],[3.15896,42.430676],[3.158981,42.430676],[3.159001,42.430675],[3.159021,42.430673],[3.159041,42.430672],[3.159061,42.430669],[3.159081,42.430666],[3.159101,42.430663],[3.159121,42.430659],[3.15914,42.430655],[3.15916,42.430651],[3.159179,42.430645],[3.159258,42.430618],[3.159344,42.430593],[3.159429,42.430568],[3.159511,42.430539],[3.159591,42.430506],[3.1596,42.430502],[3.159605,42.430499],[3.159608,42.430495],[3.15961,42.430491],[3.159611,42.430487],[3.15961,42.430484],[3.159609,42.430481],[3.159607,42.430478],[3.159605,42.430475],[3.159602,42.430473],[3.159598,42.430471],[3.159595,42.43047]]]]}},{"type":"Feature","id":"171387_171387 AP02 AEM 2","properties":{"area_id":"171387_171387 AP02 AEM 2","nom":"Vil.la Antònia","codi_icgc":"171387 AP02 AEM 2","categoria":"Àrees de poblament","codi_municipi":"171387","municipi":"Portbou","codi_comarca":"02","comarca":"Alt Empordà","provincia":"Girona","font":"ICGC Àrees de poblament v3r1 202602"},"geometry":{"type":"MultiPolygon","coordinates":[[[[3.149269,42.424774],[3.149292,42.424809],[3.149488,42.424757],[3.149527,42.424612],[3.149297,42.424355],[3.149123,42.424277],[3.14902,42.424281],[3.14902,42.423824],[3.14902,42.423751],[3.149011,42.423744],[3.148852,42.423549],[3.148207,42.423194],[3.147757,42.423375],[3.147941,42.423564],[3.147496,42.423773],[3.147507,42.423802],[3.147487,42.424048],[3.147006,42.424112],[3.146789,42.424202],[3.146789,42.424263],[3.147957,42.424458],[3.147929,42.424622],[3.14775,42.424608],[3.14775,42.424719],[3.148218,42.424729],[3.148288,42.424503],[3.148403,42.424452],[3.148484,42.424421],[3.148599,42.424404],[3.1487,42.424394],[3.148833,42.424405],[3.148885,42.424418],[3.148988,42.424451],[3.149052,42.424479],[3.14913,42.42455],[3.149186,42.424624],[3.149269,42.424774]]]]}}]}