{"type":"FeatureCollection","name":"ICGC Àrees de poblament - les Planes d'Hostoles","features":[{"type":"Feature","id":"171334_171334 AP04 GAX 3","properties":{"area_id":"171334_171334 AP04 GAX 3","nom":"Cogolls","codi_icgc":"171334 AP04 GAX 3","categoria":"Àrees de poblament","codi_municipi":"171334","municipi":"les Planes d'Hostoles","codi_comarca":"19","comarca":"Garrotxa","provincia":"Girona","font":"ICGC Àrees de poblament v3r1 202602"},"geometry":{"type":"MultiPolygon","coordinates":[[[[2.541798,42.085568],[2.541803,42.085497],[2.542089,42.085492],[2.54212,42.085485],[2.542129,42.085476],[2.542161,42.085432],[2.542192,42.085341],[2.54218,42.085309],[2.542151,42.085276],[2.542119,42.085247],[2.542119,42.085247],[2.542119,42.085247],[2.542107,42.085237],[2.542096,42.085226],[2.542098,42.085173],[2.542099,42.085169],[2.542099,42.085158],[2.542047,42.085168],[2.542034,42.085169],[2.541982,42.085173],[2.541947,42.085174],[2.541926,42.085172],[2.541906,42.085168],[2.541868,42.085161],[2.54182,42.085149],[2.541778,42.085135],[2.541778,42.085134],[2.541778,42.085134],[2.541753,42.085131],[2.541687,42.085121],[2.541685,42.085122],[2.541652,42.085138],[2.541551,42.085288],[2.541529,42.085321],[2.541221,42.085327],[2.541221,42.085328],[2.541241,42.085444],[2.541249,42.085494],[2.541327,42.085493],[2.54137,42.085493],[2.541372,42.085508],[2.541374,42.085543],[2.541457,42.085542],[2.5416,42.08554],[2.541605,42.085607],[2.541609,42.085648],[2.541793,42.085654],[2.541798,42.085568]]]]}},{"type":"Feature","id":"171334_171334 SI01 GAX 3","properties":{"area_id":"171334_171334 SI01 GAX 3","nom":"Colònia Dusol","codi_icgc":"171334 SI01 GAX 3","categoria":"Sector industrial","codi_municipi":"171334","municipi":"les Planes d'Hostoles","codi_comarca":"19","comarca":"Garrotxa","provincia":"Girona","font":"ICGC Àrees de poblament v3r1 202602"},"geometry":{"type":"MultiPolygon","coordinates":[[[[2.548065,42.048531],[2.547904,42.048624],[2.547911,42.048811],[2.548042,42.048847],[2.548325,42.048895],[2.548484,42.048997],[2.548595,42.049128],[2.54877,42.049207],[2.549049,42.049249],[2.549207,42.049566],[2.549222,42.049631],[2.549435,42.049587],[2.549345,42.049274],[2.549489,42.049245],[2.549529,42.049198],[2.549602,42.049115],[2.549626,42.049031],[2.549675,42.048906],[2.549708,42.048865],[2.549708,42.048811],[2.549637,42.048578],[2.549358,42.048278],[2.549314,42.048294],[2.548989,42.048406],[2.548791,42.048444],[2.548683,42.048481],[2.548599,42.048455],[2.548492,42.048446],[2.548065,42.048531]]]]}},{"type":"Feature","id":"171334_171334 SI02 GAX 2","properties":{"area_id":"171334_171334 SI02 GAX 2","nom":"Industrial de l'Estació","codi_icgc":"171334 SI02 GAX 2","categoria":"Sector industrial","codi_municipi":"171334","municipi":"les Planes d'Hostoles","codi_comarca":"19","comarca":"Garrotxa","provincia":"Girona","font":"ICGC Àrees de poblament v3r1 202602"},"geometry":{"type":"MultiPolygon","coordinates":[[[[2.546164,42.055025],[2.545671,42.054871],[2.545636,42.054898],[2.545339,42.055197],[2.545336,42.055201],[2.545287,42.055241],[2.545281,42.055238],[2.545257,42.055262],[2.545241,42.055285],[2.545231,42.055311],[2.545229,42.055337],[2.545235,42.055364],[2.545237,42.055369],[2.545259,42.055432],[2.545289,42.055492],[2.545325,42.055551],[2.545369,42.055607],[2.545419,42.055659],[2.545475,42.055709],[2.545534,42.055752],[2.545481,42.05591],[2.54527,42.056149],[2.545291,42.05616],[2.545012,42.056507],[2.544872,42.056683],[2.544648,42.056966],[2.544637,42.056981],[2.544632,42.056998],[2.544636,42.057015],[2.544647,42.05703],[2.544662,42.057041],[2.544662,42.057041],[2.544667,42.057048],[2.544685,42.05706],[2.544707,42.057067],[2.544712,42.057068],[2.544731,42.057069],[2.544744,42.05707],[2.544847,42.057078],[2.544951,42.057079],[2.545085,42.057076],[2.545222,42.057068],[2.545321,42.057054],[2.545399,42.057043],[2.54561,42.057013],[2.545787,42.057006],[2.54595,42.056789],[2.545614,42.056664],[2.545827,42.056497],[2.546384,42.056127],[2.54639,42.056126],[2.54646,42.056092],[2.546526,42.056056],[2.546627,42.055997],[2.546691,42.05596],[2.546552,42.05589],[2.546811,42.055754],[2.546974,42.055611],[2.547015,42.055545],[2.547023,42.055509],[2.547018,42.055485],[2.546993,42.055459],[2.546934,42.05543],[2.546886,42.055392],[2.546605,42.05524],[2.546351,42.055085],[2.546164,42.055025]]]]}},{"type":"Feature","id":"171334_171334 AP06 GAX 2","properties":{"area_id":"171334_171334 AP06 GAX 2","nom":"Paulí","codi_icgc":"171334 AP06 GAX 2","categoria":"Àrees de poblament","codi_municipi":"171334","municipi":"les Planes d'Hostoles","codi_comarca":"19","comarca":"Garrotxa","provincia":"Girona","font":"ICGC Àrees de poblament v3r1 202602"},"geometry":{"type":"MultiPolygon","coordinates":[[[[2.53188,42.061581],[2.53176,42.061704],[2.532145,42.062028],[2.532213,42.062035],[2.532308,42.062048],[2.532557,42.061971],[2.532645,42.06196],[2.532702,42.061865],[2.532709,42.061745],[2.532642,42.061592],[2.532313,42.061649],[2.532262,42.061647],[2.532219,42.061625],[2.532163,42.061604],[2.532058,42.061516],[2.53188,42.061581]]]]}},{"type":"Feature","id":"171334_171334 AP07 GAX 3","properties":{"area_id":"171334_171334 AP07 GAX 3","nom":"Planjuí","codi_icgc":"171334 AP07 GAX 3","categoria":"Àrees de poblament","codi_municipi":"171334","municipi":"les Planes d'Hostoles","codi_comarca":"19","comarca":"Garrotxa","provincia":"Girona","font":"ICGC Àrees de poblament v3r1 202602"},"geometry":{"type":"MultiPolygon","coordinates":[[[[2.557145,42.052368],[2.557335,42.052173],[2.557529,42.052242],[2.557717,42.052015],[2.557573,42.051924],[2.557343,42.051837],[2.557228,42.05186],[2.557203,42.051865],[2.557199,42.051865],[2.557087,42.05193],[2.557068,42.05194],[2.556977,42.051993],[2.556823,42.052186],[2.556793,42.052264],[2.556947,42.052327],[2.556972,42.052337],[2.557042,42.052365],[2.557145,42.052368]]],[[[2.559478,42.052363],[2.55921,42.051878],[2.558995,42.051923],[2.558965,42.051868],[2.558914,42.051766],[2.558865,42.051664],[2.558824,42.051569],[2.558784,42.051473],[2.558762,42.051433],[2.558734,42.051394],[2.558704,42.051365],[2.55867,42.051338],[2.558619,42.051304],[2.558569,42.051269],[2.558539,42.05124],[2.558517,42.051206],[2.558501,42.051166],[2.559116,42.051091],[2.559326,42.051065],[2.559468,42.051073],[2.559592,42.051059],[2.559594,42.051059],[2.559599,42.051058],[2.559651,42.051053],[2.559688,42.051033],[2.55969,42.051032],[2.559714,42.051019],[2.559714,42.051018],[2.559734,42.051003],[2.559768,42.050972],[2.559792,42.050956],[2.559808,42.050949],[2.559867,42.050937],[2.559927,42.050932],[2.559968,42.050933],[2.560103,42.050944],[2.560238,42.050958],[2.560328,42.05097],[2.560458,42.050994],[2.560524,42.050999],[2.560523,42.051002],[2.560507,42.051113],[2.560504,42.051135],[2.560598,42.051414],[2.560663,42.051614],[2.560826,42.051672],[2.561009,42.051573],[2.561008,42.051568],[2.560925,42.051222],[2.560918,42.051002],[2.560917,42.050965],[2.560913,42.050941],[2.56091,42.050923],[2.560814,42.05091],[2.560692,42.050895],[2.560565,42.050879],[2.560439,42.050864],[2.560305,42.050838],[2.56017,42.05081],[2.560085,42.050799],[2.55987,42.050784],[2.559834,42.050782],[2.559672,42.050767],[2.559451,42.05073],[2.559308,42.050715],[2.559163,42.050836],[2.558923,42.050857],[2.558539,42.050941],[2.558376,42.050848],[2.558348,42.050776],[2.558336,42.050776],[2.558312,42.050775],[2.558051,42.050768],[2.557982,42.050932],[2.557991,42.051089],[2.558114,42.051283],[2.558334,42.051448],[2.558524,42.051685],[2.558733,42.05195],[2.558818,42.052136],[2.55888,42.052398],[2.558883,42.052412],[2.558885,42.052418],[2.558943,42.052441],[2.558989,42.052451],[2.559151,42.052488],[2.559459,42.05241],[2.559478,42.052363]]]]}},{"type":"Feature","id":"171334_171334 AP02 GAX 3","properties":{"area_id":"171334_171334 AP02 GAX 3","nom":"Pocafarina","codi_icgc":"171334 AP02 GAX 3","categoria":"Àrees de poblament","codi_municipi":"171334","municipi":"les Planes d'Hostoles","codi_comarca":"19","comarca":"Garrotxa","provincia":"Girona","font":"ICGC Àrees de poblament v3r1 202602"},"geometry":{"type":"MultiPolygon","coordinates":[[[[2.547826,42.058793],[2.547907,42.058868],[2.5481,42.058935],[2.548229,42.058744],[2.548237,42.058746],[2.548375,42.058465],[2.549142,42.058599],[2.549013,42.058927],[2.549027,42.058932],[2.549003,42.059033],[2.548897,42.059218],[2.548833,42.059337],[2.548816,42.059426],[2.548784,42.059455],[2.54878,42.059491],[2.548561,42.0597],[2.548419,42.059918],[2.548214,42.059965],[2.547821,42.059952],[2.547598,42.059814],[2.547447,42.0597],[2.547278,42.05942],[2.547113,42.059425],[2.547009,42.059431],[2.546953,42.059436],[2.546953,42.05949],[2.546872,42.059567],[2.546824,42.059638],[2.546799,42.059704],[2.546767,42.059775],[2.546678,42.059906],[2.546574,42.059953],[2.54647,42.059977],[2.546318,42.059994],[2.546054,42.059921],[2.545975,42.059918],[2.54592,42.059952],[2.545859,42.060207],[2.546073,42.060257],[2.54622,42.060256],[2.546348,42.060256],[2.546559,42.060216],[2.546729,42.060131],[2.546858,42.060055],[2.546896,42.060008],[2.547458,42.060124],[2.547414,42.060519],[2.547802,42.060552],[2.548328,42.06052],[2.548762,42.060498],[2.549025,42.060393],[2.549122,42.060309],[2.549242,42.060208],[2.549363,42.060012],[2.549421,42.059857],[2.549509,42.05975],[2.549582,42.059655],[2.54955,42.059572],[2.549535,42.059447],[2.549536,42.059399],[2.549552,42.059369],[2.549632,42.059352],[2.549625,42.059173],[2.549647,42.05895],[2.549629,42.058894],[2.549566,42.058798],[2.54967,42.058493],[2.549676,42.05844],[2.548832,42.058234],[2.548858,42.058032],[2.548899,42.057842],[2.54898,42.057663],[2.549037,42.05761],[2.549085,42.057503],[2.549142,42.057378],[2.549223,42.05733],[2.549311,42.057325],[2.549359,42.057277],[2.549423,42.057224],[2.549463,42.057206],[2.549687,42.057231],[2.549847,42.057261],[2.549926,42.057274],[2.550078,42.057274],[2.55011,42.057322],[2.549933,42.057494],[2.549804,42.057613],[2.549651,42.057803],[2.549651,42.057839],[2.54969,42.057946],[2.549721,42.057997],[2.550143,42.057994],[2.55039,42.057706],[2.550359,42.057602],[2.550483,42.057517],[2.550672,42.057811],[2.550775,42.05784],[2.550992,42.057841],[2.551106,42.057725],[2.55112,42.057662],[2.551123,42.057646],[2.551133,42.057587],[2.551124,42.057566],[2.551108,42.057528],[2.550816,42.057322],[2.5508,42.057309],[2.550825,42.057293],[2.550907,42.057227],[2.550894,42.057173],[2.550872,42.056994],[2.550832,42.056929],[2.550762,42.05672],[2.550684,42.05644],[2.550653,42.056302],[2.550709,42.056257],[2.550757,42.056255],[2.551515,42.056222],[2.551445,42.05636],[2.55127,42.056526],[2.551314,42.056561],[2.5516,42.056871],[2.551817,42.056768],[2.551761,42.056688],[2.55177,42.056629],[2.551828,42.056307],[2.551812,42.056247],[2.551805,42.056158],[2.551805,42.05611],[2.552111,42.055867],[2.552119,42.055838],[2.552103,42.055778],[2.552056,42.055721],[2.552007,42.055664],[2.551997,42.055593],[2.552005,42.05539],[2.551843,42.054999],[2.551215,42.055201],[2.550883,42.05521],[2.550663,42.055232],[2.550684,42.055331],[2.550675,42.055343],[2.550603,42.055409],[2.550308,42.05533],[2.550235,42.055485],[2.550147,42.055478],[2.550043,42.055469],[2.549933,42.0555],[2.54988,42.055554],[2.549873,42.055624],[2.549854,42.055661],[2.549763,42.055776],[2.549737,42.055882],[2.549706,42.056041],[2.549735,42.056113],[2.549731,42.05617],[2.549562,42.056267],[2.5493,42.056491],[2.549001,42.056695],[2.548926,42.056619],[2.548647,42.056694],[2.548558,42.056786],[2.548333,42.057003],[2.548244,42.057163],[2.548167,42.057255],[2.548146,42.057351],[2.54804,42.057767],[2.548056,42.057932],[2.548054,42.058189],[2.548014,42.058382],[2.547946,42.058607],[2.547826,42.058793]]]]}},{"type":"Feature","id":"171334_171334 AP03 GAX 3","properties":{"area_id":"171334_171334 AP03 GAX 3","nom":"Santa Maria de les Encies","codi_icgc":"171334 AP03 GAX 3","categoria":"Àrees de poblament","codi_municipi":"171334","municipi":"les Planes d'Hostoles","codi_comarca":"19","comarca":"Garrotxa","provincia":"Girona","font":"ICGC Àrees de poblament v3r1 202602"},"geometry":{"type":"MultiPolygon","coordinates":[[[[2.576336,42.066088],[2.576331,42.066063],[2.576303,42.066031],[2.576261,42.066006],[2.57621,42.065993],[2.576159,42.065986],[2.576139,42.065985],[2.576103,42.065984],[2.576137,42.065806],[2.576131,42.065804],[2.575751,42.065743],[2.575115,42.065835],[2.57512,42.065916],[2.575061,42.065914],[2.575,42.065915],[2.574962,42.065913],[2.574925,42.065915],[2.574852,42.065923],[2.574823,42.065927],[2.574825,42.065948],[2.574827,42.065962],[2.574835,42.066047],[2.574838,42.066072],[2.574918,42.066076],[2.574999,42.06608],[2.575082,42.066086],[2.575164,42.066092],[2.575256,42.066098],[2.575348,42.0661],[2.575434,42.066096],[2.575519,42.066091],[2.575565,42.066088],[2.575586,42.066086],[2.575652,42.066077],[2.57538,42.066437],[2.575378,42.066438],[2.575382,42.06644],[2.57537,42.066451],[2.575233,42.066576],[2.575192,42.066635],[2.575178,42.066679],[2.575225,42.066699],[2.575223,42.066702],[2.575389,42.06677],[2.575442,42.066792],[2.575495,42.06689],[2.57562,42.066866],[2.575709,42.066848],[2.575673,42.066698],[2.575916,42.066346],[2.575945,42.06629],[2.576089,42.066283],[2.576233,42.066255],[2.576265,42.066235],[2.576303,42.06621],[2.576307,42.066204],[2.576319,42.066171],[2.576326,42.066138],[2.576331,42.066113],[2.576336,42.066088]]]]}},{"type":"Feature","id":"171334_171334 SI03 GAX 2","properties":{"area_id":"171334_171334 SI03 GAX 2","nom":"Sociedad Anónima Ducilsa","codi_icgc":"171334 SI03 GAX 2","categoria":"Sector industrial","codi_municipi":"171334","municipi":"les Planes d'Hostoles","codi_comarca":"19","comarca":"Garrotxa","provincia":"Girona","font":"ICGC Àrees de poblament v3r1 202602"},"geometry":{"type":"MultiPolygon","coordinates":[[[[2.55565,42.056555],[2.555572,42.056594],[2.555246,42.057037],[2.556124,42.057714],[2.556235,42.057697],[2.556788,42.057424],[2.556851,42.057306],[2.556837,42.057252],[2.556775,42.057223],[2.556403,42.056972],[2.555757,42.056573],[2.555726,42.056557],[2.55565,42.056555]]]]}},{"type":"Feature","id":"171334_171334 AP05 GAX 1","properties":{"area_id":"171334_171334 AP05 GAX 1","nom":"la Costa","codi_icgc":"171334 AP05 GAX 1","categoria":"Àrees de poblament","codi_municipi":"171334","municipi":"les Planes d'Hostoles","codi_comarca":"19","comarca":"Garrotxa","provincia":"Girona","font":"ICGC Àrees de poblament v3r1 202602"},"geometry":{"type":"MultiPolygon","coordinates":[[[[2.537336,42.042449],[2.537255,42.042609],[2.537247,42.042704],[2.537534,42.042747],[2.537654,42.042748],[2.537703,42.042665],[2.537719,42.042593],[2.537736,42.042522],[2.537336,42.042449]]]]}},{"type":"Feature","id":"171334_171334 AP01 GAX 3","properties":{"area_id":"171334_171334 AP01 GAX 3","nom":"les Planes d'Hostoles","codi_icgc":"171334 AP01 GAX 3","categoria":"Àrees de poblament","codi_municipi":"171334","municipi":"les Planes d'Hostoles","codi_comarca":"19","comarca":"Garrotxa","provincia":"Girona","font":"ICGC Àrees de poblament v3r1 202602"},"geometry":{"type":"MultiPolygon","coordinates":[[[[2.54196,42.054417],[2.541917,42.054473],[2.541886,42.05449],[2.541837,42.054498],[2.541727,42.054502],[2.541612,42.054485],[2.541516,42.054488],[2.541338,42.054525],[2.541149,42.054558],[2.54093,42.054593],[2.540708,42.054601],[2.540562,42.054606],[2.540522,42.054616],[2.540393,42.054657],[2.540272,42.054694],[2.540165,42.054717],[2.539907,42.054756],[2.539725,42.054767],[2.5396,42.05478],[2.539503,42.054795],[2.539395,42.054802],[2.539308,42.054792],[2.539229,42.054786],[2.539183,42.05484],[2.539115,42.054967],[2.539053,42.055093],[2.53896,42.055207],[2.538896,42.055201],[2.538871,42.055174],[2.538868,42.055179],[2.53873,42.055037],[2.538593,42.054896],[2.538578,42.054891],[2.538518,42.054835],[2.537501,42.055393],[2.537316,42.055253],[2.537262,42.055206],[2.537227,42.055226],[2.537197,42.055253],[2.537016,42.055175],[2.53677,42.055069],[2.536691,42.055034],[2.53657,42.05498],[2.536524,42.054962],[2.536377,42.054909],[2.536379,42.054849],[2.536392,42.054837],[2.536456,42.054777],[2.536487,42.054747],[2.536487,42.054699],[2.537201,42.054864],[2.537361,42.054862],[2.537512,42.054576],[2.537181,42.054473],[2.537173,42.054474],[2.537168,42.054473],[2.537128,42.054559],[2.537096,42.05455],[2.536974,42.054526],[2.536847,42.054515],[2.536859,42.054381],[2.536406,42.054358],[2.536351,42.054443],[2.53633,42.054476],[2.536215,42.054655],[2.536172,42.054722],[2.536145,42.054763],[2.536075,42.054861],[2.536066,42.054874],[2.536058,42.054883],[2.53604,42.054878],[2.536025,42.054873],[2.536009,42.054867],[2.535994,42.054861],[2.535979,42.054855],[2.535965,42.054849],[2.535951,42.054842],[2.535937,42.054835],[2.535914,42.054822],[2.535892,42.054809],[2.535869,42.054796],[2.535849,42.054781],[2.535841,42.054775],[2.535833,42.054769],[2.535825,42.054763],[2.535818,42.054757],[2.53581,42.054751],[2.535804,42.054744],[2.535798,42.054737],[2.535793,42.05473],[2.535789,42.054725],[2.535759,42.05453],[2.535658,42.05443],[2.535418,42.054395],[2.535379,42.05439],[2.535368,42.054389],[2.535357,42.054388],[2.535346,42.054388],[2.535335,42.054387],[2.535324,42.054387],[2.535317,42.054388],[2.535311,42.054388],[2.535304,42.054389],[2.535298,42.054389],[2.535291,42.05439],[2.535285,42.054391],[2.535278,42.054392],[2.535272,42.054394],[2.535266,42.054395],[2.535259,42.054397],[2.535253,42.054399],[2.535185,42.054421],[2.535117,42.054461],[2.535107,42.054466],[2.535088,42.054475],[2.534997,42.05448],[2.534917,42.054527],[2.534668,42.054569],[2.534642,42.054577],[2.534599,42.054591],[2.534199,42.054585],[2.534198,42.05464],[2.534196,42.054696],[2.534197,42.054739],[2.534206,42.054783],[2.53423,42.054845],[2.534268,42.054887],[2.53434,42.054912],[2.53448,42.054966],[2.5345,42.054977],[2.534423,42.055065],[2.534538,42.055138],[2.534643,42.055054],[2.534719,42.055108],[2.534836,42.055204],[2.534926,42.055274],[2.534856,42.055381],[2.534852,42.055486],[2.534862,42.05553],[2.534956,42.055612],[2.534997,42.055608],[2.535039,42.05554],[2.535127,42.055386],[2.535188,42.055396],[2.535234,42.055341],[2.53524,42.05531],[2.535202,42.055274],[2.535139,42.055215],[2.535175,42.055196],[2.535178,42.055194],[2.535178,42.055192],[2.535236,42.055152],[2.535239,42.05515],[2.535479,42.055218],[2.535532,42.055233],[2.535557,42.055239],[2.535597,42.055134],[2.535669,42.054961],[2.535816,42.05499],[2.53603,42.055027],[2.536135,42.055044],[2.536231,42.055082],[2.536301,42.055121],[2.536336,42.055149],[2.536326,42.055202],[2.536239,42.055398],[2.536255,42.055402],[2.536341,42.055423],[2.536419,42.055441],[2.536461,42.055451],[2.536063,42.055906],[2.536126,42.055931],[2.536235,42.055974],[2.535973,42.056374],[2.535955,42.056402],[2.535965,42.056406],[2.536,42.056421],[2.536075,42.05645],[2.536097,42.056468],[2.536125,42.05649],[2.536151,42.05651],[2.536155,42.056511],[2.536159,42.056515],[2.536162,42.056517],[2.536165,42.056519],[2.53617,42.056521],[2.536175,42.056523],[2.536179,42.056524],[2.536183,42.056525],[2.536197,42.056529],[2.536503,42.056604],[2.536496,42.056618],[2.536486,42.056639],[2.536474,42.056659],[2.536462,42.05668],[2.536448,42.0567],[2.536434,42.05672],[2.536419,42.056739],[2.536332,42.056848],[2.536312,42.056872],[2.536291,42.056896],[2.536269,42.056919],[2.536247,42.056942],[2.53618,42.057002],[2.535944,42.05693],[2.535837,42.057034],[2.535723,42.056988],[2.53549,42.056893],[2.535487,42.056892],[2.535457,42.056885],[2.535345,42.057035],[2.535297,42.057098],[2.535231,42.057187],[2.534736,42.057032],[2.534715,42.057025],[2.534574,42.057382],[2.534572,42.057387],[2.534901,42.057483],[2.53493,42.057491],[2.534863,42.057587],[2.534689,42.057819],[2.53474,42.057841],[2.534952,42.057932],[2.534963,42.057936],[2.534973,42.05794],[2.535235,42.05804],[2.535188,42.058148],[2.535109,42.058187],[2.535105,42.058189],[2.535102,42.058191],[2.534999,42.058265],[2.534981,42.058276],[2.534852,42.05837],[2.534735,42.05844],[2.534656,42.058487],[2.534511,42.058556],[2.534447,42.058591],[2.534378,42.058629],[2.53432,42.058675],[2.534313,42.058682],[2.534285,42.058709],[2.534412,42.058805],[2.534528,42.058862],[2.534632,42.058892],[2.53474,42.058889],[2.534952,42.05884],[2.535092,42.058784],[2.535249,42.058689],[2.535357,42.058633],[2.535553,42.058541],[2.535662,42.058491],[2.535754,42.05842],[2.535798,42.058453],[2.535822,42.058518],[2.535813,42.058581],[2.535784,42.058682],[2.535856,42.058742],[2.535924,42.058784],[2.536314,42.05889],[2.536276,42.058958],[2.536374,42.059005],[2.536568,42.05916],[2.536799,42.059295],[2.53682,42.059307],[2.536908,42.059359],[2.536911,42.059361],[2.53714,42.059495],[2.537213,42.059536],[2.537445,42.059342],[2.537777,42.059099],[2.537749,42.059071],[2.537494,42.05887],[2.537652,42.058756],[2.537782,42.058845],[2.537827,42.058814],[2.537948,42.058874],[2.538009,42.058865],[2.538151,42.058962],[2.538206,42.059002],[2.538342,42.058902],[2.538392,42.058939],[2.538808,42.059243],[2.539187,42.058986],[2.539634,42.059129],[2.539777,42.058848],[2.539503,42.058747],[2.539511,42.058718],[2.539104,42.058476],[2.539014,42.058434],[2.539063,42.058285],[2.539076,42.058214],[2.539114,42.058188],[2.539251,42.058106],[2.539297,42.058072],[2.539319,42.058052],[2.539345,42.058026],[2.539501,42.057879],[2.53957,42.057832],[2.53965,42.057825],[2.53973,42.057811],[2.539871,42.057735],[2.539949,42.057679],[2.539975,42.057612],[2.539972,42.057576],[2.540174,42.057432],[2.540382,42.057281],[2.540298,42.057212],[2.540303,42.057209],[2.54029,42.057165],[2.54041,42.05708],[2.540382,42.05704],[2.54081,42.056767],[2.540934,42.056871],[2.541233,42.056658],[2.542014,42.056107],[2.542069,42.056137],[2.542272,42.056302],[2.542461,42.056191],[2.54262,42.056098],[2.542547,42.05603],[2.542582,42.056012],[2.542603,42.056002],[2.54262,42.055995],[2.542641,42.055988],[2.542906,42.056059],[2.543094,42.056201],[2.543207,42.056195],[2.543349,42.056119],[2.543367,42.056094],[2.543386,42.056067],[2.54339,42.056061],[2.543404,42.056041],[2.543404,42.056023],[2.54339,42.056007],[2.543316,42.055951],[2.543242,42.055895],[2.543242,42.055874],[2.543243,42.055865],[2.543258,42.055659],[2.543203,42.055511],[2.543006,42.055526],[2.542772,42.055677],[2.542724,42.055659],[2.542337,42.055337],[2.542357,42.055323],[2.542403,42.055289],[2.542416,42.055279],[2.542423,42.055274],[2.543061,42.054807],[2.543232,42.054941],[2.543365,42.054829],[2.543409,42.054865],[2.543513,42.055028],[2.543685,42.055114],[2.543793,42.055158],[2.543934,42.055158],[2.544036,42.055159],[2.54409,42.055148],[2.5441,42.055149],[2.544311,42.05519],[2.54433,42.055194],[2.544362,42.055221],[2.544374,42.055232],[2.544817,42.055499],[2.544977,42.055602],[2.544869,42.05568],[2.544807,42.055722],[2.544758,42.055811],[2.54461,42.05608],[2.544563,42.05614],[2.544325,42.05641],[2.544321,42.056408],[2.544305,42.056436],[2.54392,42.056937],[2.544181,42.057035],[2.544189,42.057035],[2.544195,42.057038],[2.544444,42.057035],[2.54483,42.056541],[2.54508,42.056229],[2.545365,42.055867],[2.545222,42.055767],[2.545194,42.05571],[2.54518,42.055617],[2.54521,42.055517],[2.545086,42.055442],[2.545124,42.055407],[2.545111,42.055335],[2.545231,42.055169],[2.545357,42.054962],[2.545386,42.054894],[2.545653,42.054771],[2.545724,42.05468],[2.546366,42.05486],[2.546391,42.0548],[2.547077,42.05497],[2.54687,42.055118],[2.548242,42.055532],[2.548514,42.05495],[2.548531,42.054911],[2.548213,42.054784],[2.548214,42.054736],[2.54858,42.054482],[2.548377,42.054328],[2.548942,42.053901],[2.54929,42.053648],[2.549062,42.053492],[2.549494,42.053159],[2.549365,42.053064],[2.549583,42.052903],[2.549263,42.052665],[2.549581,42.052423],[2.549417,42.052293],[2.549732,42.052052],[2.549612,42.051959],[2.54977,42.051849],[2.549417,42.051589],[2.549422,42.051535],[2.549412,42.05147],[2.549391,42.051403],[2.549345,42.051341],[2.549306,42.0513],[2.54927,42.051246],[2.549231,42.051169],[2.549206,42.051089],[2.549212,42.051035],[2.549214,42.051002],[2.549205,42.050976],[2.549147,42.050909],[2.549072,42.050848],[2.548954,42.050762],[2.548907,42.050729],[2.548573,42.050985],[2.548398,42.050857],[2.548541,42.050747],[2.548032,42.050345],[2.547797,42.05051],[2.547797,42.05051],[2.547745,42.050545],[2.54769,42.050585],[2.547579,42.050667],[2.547349,42.050846],[2.54699,42.051117],[2.546902,42.051187],[2.547278,42.051462],[2.546784,42.051815],[2.546412,42.051543],[2.546046,42.051798],[2.546145,42.051859],[2.545626,42.052236],[2.545395,42.052089],[2.545275,42.052013],[2.54522,42.051953],[2.545341,42.051721],[2.545327,42.05153],[2.545279,42.051441],[2.544761,42.051189],[2.544575,42.051179],[2.544295,42.051438],[2.543989,42.051724],[2.543817,42.051891],[2.544633,42.052447],[2.544326,42.052857],[2.543627,42.053373],[2.543921,42.053618],[2.543696,42.053778],[2.5431,42.054145],[2.54263,42.054547],[2.542572,42.054551],[2.542183,42.05424],[2.542093,42.054241],[2.542049,42.0543],[2.54196,42.054417]]]]}}]}