{"type":"FeatureCollection","name":"ICGC Àrees de poblament - Ribes de Freser","features":[{"type":"Feature","id":"171450_171450 AP05 RIP 3","properties":{"area_id":"171450_171450 AP05 RIP 3","nom":"Armàncies","codi_icgc":"171450 AP05 RIP 3","categoria":"Àrees de poblament","codi_municipi":"171450","municipi":"Ribes de Freser","codi_comarca":"31","comarca":"Ripollès","provincia":"Girona","font":"ICGC Àrees de poblament v3r1 202602"},"geometry":{"type":"MultiPolygon","coordinates":[[[[2.159818,42.268325],[2.160171,42.267661],[2.159499,42.267489],[2.159312,42.267708],[2.159238,42.267851],[2.159315,42.268096],[2.159248,42.26831],[2.159212,42.268577],[2.159218,42.268703],[2.159386,42.26874],[2.159531,42.268717],[2.15962,42.268628],[2.159689,42.268537],[2.159818,42.268325]]]]}},{"type":"Feature","id":"171450_171450 AP07 RIP 3","properties":{"area_id":"171450_171450 AP07 RIP 3","nom":"Batet","codi_icgc":"171450 AP07 RIP 3","categoria":"Àrees de poblament","codi_municipi":"171450","municipi":"Ribes de Freser","codi_comarca":"31","comarca":"Ripollès","provincia":"Girona","font":"ICGC Àrees de poblament v3r1 202602"},"geometry":{"type":"MultiPolygon","coordinates":[[[[2.165323,42.326762],[2.16514,42.326577],[2.164958,42.326393],[2.165061,42.326155],[2.165039,42.326093],[2.164953,42.325825],[2.164922,42.325665],[2.164633,42.325717],[2.164633,42.32576],[2.164651,42.325836],[2.164669,42.325922],[2.164629,42.326032],[2.164685,42.326189],[2.164667,42.326515],[2.164681,42.326545],[2.164896,42.326777],[2.165034,42.326978],[2.165052,42.327069],[2.165032,42.327095],[2.164967,42.327178],[2.164908,42.327263],[2.164933,42.32732],[2.165087,42.327336],[2.165154,42.327317],[2.165178,42.32731],[2.165331,42.327063],[2.165428,42.326919],[2.165482,42.326939],[2.165585,42.326782],[2.165587,42.326779],[2.16559,42.326777],[2.165593,42.326775],[2.165597,42.326773],[2.1656,42.326771],[2.165603,42.326769],[2.165608,42.326768],[2.165611,42.326767],[2.165615,42.326766],[2.165619,42.326765],[2.165624,42.326764],[2.165628,42.326764],[2.165632,42.326764],[2.165636,42.326764],[2.16564,42.326764],[2.165644,42.326765],[2.16565,42.326766],[2.165656,42.326767],[2.165662,42.326769],[2.165666,42.326771],[2.16567,42.326773],[2.165675,42.326776],[2.165678,42.326779],[2.165681,42.326782],[2.165684,42.326785],[2.165687,42.326789],[2.165689,42.326793],[2.165691,42.326795],[2.165708,42.326841],[2.166238,42.326787],[2.166241,42.326787],[2.166348,42.326702],[2.166419,42.326693],[2.166489,42.326741],[2.166533,42.326803],[2.166542,42.326816],[2.166607,42.326909],[2.166669,42.326996],[2.167017,42.32686],[2.167104,42.326826],[2.166985,42.326611],[2.166993,42.326596],[2.167131,42.326481],[2.167133,42.326335],[2.166958,42.326233],[2.166874,42.326068],[2.166812,42.326021],[2.166795,42.325942],[2.166777,42.325842],[2.166785,42.325742],[2.166619,42.325714],[2.166538,42.32573],[2.166534,42.325736],[2.166521,42.325769],[2.166443,42.325802],[2.166315,42.325829],[2.166249,42.325919],[2.166119,42.326019],[2.166021,42.326166],[2.165833,42.326269],[2.16573,42.326283],[2.165645,42.326459],[2.165516,42.326486],[2.165392,42.326609],[2.165326,42.32676],[2.165323,42.326762]]]]}},{"type":"Feature","id":"171450_171450 AP08 RIP 3","properties":{"area_id":"171450_171450 AP08 RIP 3","nom":"Bruguera","codi_icgc":"171450 AP08 RIP 3","categoria":"Àrees de poblament","codi_municipi":"171450","municipi":"Ribes de Freser","codi_comarca":"31","comarca":"Ripollès","provincia":"Girona","font":"ICGC Àrees de poblament v3r1 202602"},"geometry":{"type":"MultiPolygon","coordinates":[[[[2.184567,42.276373],[2.18465,42.276392],[2.184675,42.276419],[2.184733,42.276484],[2.184776,42.276532],[2.184813,42.276708],[2.184728,42.276839],[2.184653,42.276956],[2.184586,42.277089],[2.18446,42.277343],[2.184625,42.277571],[2.184679,42.277589],[2.184998,42.277691],[2.185072,42.277716],[2.185076,42.277719],[2.18508,42.277721],[2.185083,42.277723],[2.185087,42.277726],[2.185091,42.277728],[2.185094,42.277729],[2.185099,42.277732],[2.185104,42.277735],[2.18511,42.277738],[2.185116,42.277741],[2.185123,42.277745],[2.185129,42.277747],[2.185133,42.277749],[2.185136,42.277751],[2.185141,42.277753],[2.185147,42.277756],[2.185153,42.277758],[2.185157,42.27776],[2.185161,42.277761],[2.185164,42.277763],[2.18517,42.277765],[2.185174,42.277766],[2.185177,42.277768],[2.185182,42.277769],[2.185187,42.277771],[2.185191,42.277772],[2.185197,42.277774],[2.185201,42.277775],[2.185215,42.27778],[2.18522,42.277781],[2.185225,42.277783],[2.185229,42.277784],[2.185233,42.277786],[2.18524,42.277788],[2.185244,42.27779],[2.18526,42.277796],[2.185266,42.277798],[2.185271,42.2778],[2.185276,42.277802],[2.185284,42.277804],[2.18529,42.277807],[2.185296,42.277809],[2.185302,42.27781],[2.185306,42.277812],[2.185314,42.277814],[2.185321,42.277816],[2.185325,42.277817],[2.185332,42.27782],[2.185341,42.277825],[2.185355,42.277825],[2.18536,42.277826],[2.185365,42.277828],[2.185735,42.277872],[2.185991,42.277962],[2.185984,42.278024],[2.185979,42.278072],[2.185866,42.278182],[2.18577,42.278275],[2.185611,42.278348],[2.185491,42.278464],[2.185213,42.278645],[2.184885,42.278819],[2.184637,42.278956],[2.184536,42.279102],[2.184495,42.279241],[2.184474,42.27943],[2.18464,42.279425],[2.184766,42.27944],[2.184923,42.279454],[2.184924,42.279444],[2.184921,42.279393],[2.184922,42.27934],[2.184925,42.279321],[2.184924,42.279315],[2.184918,42.279311],[2.184912,42.279307],[2.184951,42.279243],[2.185082,42.279249],[2.185069,42.279091],[2.185176,42.27895],[2.185188,42.278908],[2.185171,42.278834],[2.185228,42.278826],[2.185286,42.278815],[2.185332,42.278805],[2.185438,42.278727],[2.185615,42.278651],[2.185552,42.278571],[2.185601,42.278558],[2.185661,42.278539],[2.18572,42.278521],[2.185758,42.278508],[2.185781,42.2785],[2.185844,42.278462],[2.185892,42.278432],[2.185931,42.278409],[2.185969,42.278385],[2.186011,42.278363],[2.186059,42.278334],[2.186094,42.278315],[2.186118,42.278302],[2.186141,42.278294],[2.186161,42.278288],[2.186185,42.278284],[2.186212,42.278282],[2.186239,42.278284],[2.186268,42.278288],[2.186302,42.278295],[2.186343,42.2783],[2.186368,42.278298],[2.186393,42.278292],[2.186419,42.278285],[2.186471,42.278254],[2.186507,42.278228],[2.18654,42.278184],[2.186577,42.278133],[2.186616,42.278093],[2.186645,42.278059],[2.186667,42.27803],[2.186679,42.278007],[2.186691,42.277977],[2.186697,42.277947],[2.1867,42.277929],[2.186699,42.277896],[2.186696,42.277867],[2.186689,42.277828],[2.186681,42.277797],[2.186676,42.277785],[2.186675,42.27778],[2.186677,42.277773],[2.18668,42.277766],[2.18669,42.277744],[2.186692,42.277741],[2.186707,42.277719],[2.186787,42.277876],[2.186817,42.277828],[2.187019,42.277919],[2.187126,42.277804],[2.187197,42.277742],[2.187212,42.277751],[2.187435,42.277596],[2.187464,42.277616],[2.187625,42.277514],[2.187551,42.277445],[2.187598,42.277407],[2.187624,42.277391],[2.187679,42.277355],[2.187735,42.277319],[2.18779,42.277277],[2.187842,42.277234],[2.188033,42.277016],[2.188056,42.276977],[2.188092,42.276917],[2.188128,42.276853],[2.18816,42.276793],[2.188191,42.276741],[2.188221,42.276691],[2.188255,42.276632],[2.18827,42.276603],[2.188118,42.276593],[2.188111,42.276594],[2.188103,42.276595],[2.188096,42.276595],[2.188092,42.276595],[2.188086,42.276596],[2.188082,42.276597],[2.188077,42.276597],[2.188071,42.276599],[2.188063,42.2766],[2.188055,42.276602],[2.18805,42.276603],[2.188045,42.276604],[2.188033,42.276607],[2.188028,42.276608],[2.188021,42.276609],[2.188015,42.27661],[2.18801,42.27661],[2.188003,42.276611],[2.187995,42.276612],[2.187985,42.276612],[2.187973,42.276612],[2.187969,42.276613],[2.187963,42.276614],[2.187959,42.276616],[2.187954,42.276617],[2.187951,42.276618],[2.187944,42.27662],[2.187939,42.276621],[2.187932,42.276623],[2.187929,42.276624],[2.187925,42.276625],[2.187921,42.276627],[2.187918,42.276629],[2.187911,42.276632],[2.187908,42.276634],[2.187905,42.276635],[2.1879,42.276637],[2.187895,42.276639],[2.18789,42.27664],[2.187882,42.276643],[2.187878,42.276644],[2.187874,42.276645],[2.18787,42.276647],[2.187865,42.276649],[2.187861,42.276651],[2.187856,42.276653],[2.187845,42.276659],[2.187791,42.276676],[2.187692,42.276692],[2.187659,42.276695],[2.187615,42.276692],[2.18754,42.276696],[2.187496,42.27673],[2.187479,42.276745],[2.187441,42.276783],[2.187353,42.27678],[2.18734,42.276779],[2.187328,42.276776],[2.187313,42.276774],[2.187289,42.276774],[2.187272,42.276774],[2.187256,42.276775],[2.187238,42.276777],[2.187233,42.276778],[2.187226,42.276778],[2.187219,42.276776],[2.187206,42.276773],[2.18718,42.27676],[2.187145,42.276745],[2.186745,42.27657],[2.186747,42.276568],[2.186749,42.276566],[2.186751,42.276563],[2.186753,42.276561],[2.186755,42.276559],[2.186757,42.276556],[2.186759,42.276554],[2.186761,42.276552],[2.186763,42.276549],[2.186765,42.276547],[2.186767,42.276545],[2.186769,42.276542],[2.186771,42.27654],[2.186773,42.276538],[2.186775,42.276536],[2.186777,42.276533],[2.186779,42.276531],[2.186781,42.276529],[2.186784,42.276526],[2.186786,42.276524],[2.186788,42.276522],[2.18679,42.27652],[2.186792,42.276517],[2.186794,42.276515],[2.186796,42.276513],[2.186799,42.276511],[2.186801,42.276508],[2.186803,42.276506],[2.186805,42.276504],[2.186807,42.276502],[2.186809,42.276499],[2.186812,42.276497],[2.186814,42.276495],[2.186816,42.276493],[2.186818,42.27649],[2.18682,42.276488],[2.186823,42.276486],[2.186825,42.276484],[2.186827,42.276482],[2.18683,42.276479],[2.186832,42.276477],[2.186834,42.276475],[2.186836,42.276473],[2.186839,42.276471],[2.186841,42.276469],[2.186843,42.276466],[2.186846,42.276464],[2.186848,42.276462],[2.18685,42.27646],[2.186853,42.276458],[2.186855,42.276456],[2.186857,42.276453],[2.18686,42.276451],[2.186862,42.276449],[2.186864,42.276447],[2.186867,42.276445],[2.186869,42.276443],[2.186871,42.276441],[2.186874,42.276438],[2.186876,42.276436],[2.186879,42.276434],[2.186881,42.276432],[2.186883,42.27643],[2.186886,42.276428],[2.186888,42.276426],[2.186891,42.276424],[2.186893,42.276422],[2.186896,42.27642],[2.186898,42.276418],[2.186901,42.276416],[2.186903,42.276413],[2.186906,42.276411],[2.186908,42.276409],[2.186911,42.276407],[2.186913,42.276405],[2.186916,42.276403],[2.186918,42.276401],[2.186921,42.276399],[2.186923,42.276397],[2.186926,42.276395],[2.186928,42.276393],[2.186931,42.276391],[2.186933,42.276389],[2.186936,42.276387],[2.186939,42.276385],[2.186941,42.276383],[2.186944,42.276381],[2.186946,42.276379],[2.186949,42.276377],[2.186951,42.276375],[2.186954,42.276373],[2.186957,42.276371],[2.186959,42.276369],[2.186962,42.276367],[2.186965,42.276365],[2.186967,42.276363],[2.18697,42.276361],[2.186973,42.276359],[2.186975,42.276358],[2.186978,42.276356],[2.186981,42.276354],[2.186983,42.276352],[2.186986,42.27635],[2.186989,42.276348],[2.186991,42.276346],[2.186994,42.276344],[2.186997,42.276342],[2.186999,42.27634],[2.187002,42.276339],[2.187005,42.276337],[2.187009,42.276334],[2.187012,42.276332],[2.187015,42.27633],[2.187018,42.276328],[2.18702,42.276327],[2.187025,42.276324],[2.187029,42.276322],[2.187032,42.27632],[2.187035,42.276318],[2.18704,42.276316],[2.187043,42.276314],[2.187046,42.276313],[2.18705,42.276311],[2.187054,42.27631],[2.187058,42.276308],[2.187063,42.276306],[2.187066,42.276305],[2.187071,42.276303],[2.187075,42.276301],[2.187079,42.2763],[2.187084,42.276298],[2.187089,42.276297],[2.187094,42.276295],[2.187098,42.276294],[2.187101,42.276293],[2.187106,42.276292],[2.187112,42.276291],[2.187117,42.27629],[2.187122,42.276289],[2.187126,42.276288],[2.18713,42.276287],[2.187005,42.276188],[2.186897,42.276173],[2.186813,42.276169],[2.186815,42.276138],[2.186841,42.276107],[2.186859,42.276076],[2.1868,42.276046],[2.186768,42.276024],[2.186738,42.276008],[2.186723,42.276001],[2.186688,42.27599],[2.186626,42.275973],[2.186556,42.275956],[2.186213,42.275786],[2.18623,42.275744],[2.186257,42.275708],[2.186238,42.27568],[2.186218,42.275642],[2.186203,42.275629],[2.186179,42.275616],[2.186115,42.27557],[2.185851,42.27554],[2.185697,42.27552],[2.18565,42.275573],[2.185627,42.2756],[2.185652,42.275767],[2.18566,42.27582],[2.185663,42.275842],[2.185652,42.275865],[2.185627,42.275921],[2.185602,42.275973],[2.185385,42.276118],[2.185256,42.276164],[2.185177,42.276264],[2.184958,42.276135],[2.184821,42.276113],[2.184683,42.276095],[2.184682,42.276096],[2.184646,42.276086],[2.184557,42.276139],[2.184476,42.27621],[2.184459,42.276252],[2.18449,42.276335],[2.184571,42.276362],[2.184567,42.276373]]]]}},{"type":"Feature","id":"171450_171450 SI03 RIP 2","properties":{"area_id":"171450_171450 SI03 RIP 2","nom":"Fontaga, SA","codi_icgc":"171450 SI03 RIP 2","categoria":"Sector industrial","codi_municipi":"171450","municipi":"Ribes de Freser","codi_comarca":"31","comarca":"Ripollès","provincia":"Girona","font":"ICGC Àrees de poblament v3r1 202602"},"geometry":{"type":"MultiPolygon","coordinates":[[[[2.159524,42.273037],[2.159523,42.273068],[2.159563,42.273212],[2.159655,42.273405],[2.159719,42.273531],[2.159789,42.273655],[2.15994,42.273879],[2.159977,42.273879],[2.160188,42.274206],[2.160229,42.274201],[2.160562,42.273987],[2.160483,42.273838],[2.160465,42.273779],[2.160474,42.273716],[2.160284,42.273146],[2.16019,42.273079],[2.160161,42.27299],[2.160185,42.272939],[2.160156,42.272773],[2.160035,42.272716],[2.159924,42.272453],[2.159732,42.272413],[2.159593,42.272852],[2.159524,42.273037]]]]}},{"type":"Feature","id":"171450_171450 SI02 RIP 2","properties":{"area_id":"171450_171450 SI02 RIP 2","nom":"Max-plàstic, SA","codi_icgc":"171450 SI02 RIP 2","categoria":"Sector industrial","codi_municipi":"171450","municipi":"Ribes de Freser","codi_comarca":"31","comarca":"Ripollès","provincia":"Girona","font":"ICGC Àrees de poblament v3r1 202602"},"geometry":{"type":"MultiPolygon","coordinates":[[[[2.169756,42.311539],[2.169638,42.311777],[2.169518,42.311981],[2.169247,42.312429],[2.169197,42.312512],[2.169165,42.312585],[2.169091,42.312637],[2.169052,42.312652],[2.16903,42.31266],[2.168992,42.312712],[2.168975,42.312729],[2.16884,42.312669],[2.168761,42.312739],[2.16869,42.312676],[2.168687,42.312673],[2.168073,42.31313],[2.168034,42.31319],[2.16797,42.313283],[2.16794,42.313336],[2.167843,42.313407],[2.167683,42.313513],[2.167548,42.313557],[2.16746,42.313596],[2.167297,42.313566],[2.167066,42.313529],[2.16706,42.313589],[2.167156,42.313616],[2.167126,42.313745],[2.167035,42.314091],[2.166869,42.314179],[2.166889,42.314187],[2.166873,42.314207],[2.167236,42.314552],[2.167321,42.314667],[2.167232,42.314859],[2.16721,42.31496],[2.167247,42.315025],[2.167356,42.315057],[2.167721,42.315022],[2.167755,42.315013],[2.167789,42.314678],[2.167801,42.314593],[2.167818,42.314554],[2.167919,42.314291],[2.168025,42.314051],[2.168088,42.313894],[2.168125,42.313877],[2.168149,42.313866],[2.168177,42.313855],[2.16837,42.313467],[2.168478,42.313285],[2.168494,42.313265],[2.168576,42.313188],[2.168695,42.31308],[2.168866,42.312927],[2.16903,42.312781],[2.16907,42.312757],[2.169142,42.312761],[2.169245,42.312791],[2.169324,42.312793],[2.169404,42.312779],[2.169878,42.312569],[2.169999,42.312519],[2.17066,42.312187],[2.170829,42.312088],[2.170922,42.312028],[2.171001,42.311945],[2.17104,42.311869],[2.171065,42.311749],[2.171049,42.311593],[2.170999,42.311489],[2.170881,42.311272],[2.170599,42.310813],[2.170519,42.310816],[2.17048,42.310694],[2.170264,42.310721],[2.170115,42.310741],[2.170078,42.311017],[2.170012,42.311108],[2.169902,42.311279],[2.169759,42.311535],[2.169756,42.311539]]]]}},{"type":"Feature","id":"171450_171450 AP01 RIP 3","properties":{"area_id":"171450_171450 AP01 RIP 3","nom":"Ribes de Freser","codi_icgc":"171450 AP01 RIP 3","categoria":"Àrees de poblament","codi_municipi":"171450","municipi":"Ribes de Freser","codi_comarca":"31","comarca":"Ripollès","provincia":"Girona","font":"ICGC Àrees de poblament v3r1 202602"},"geometry":{"type":"MultiPolygon","coordinates":[[[[2.175715,42.312576],[2.175776,42.312521],[2.175801,42.312497],[2.175823,42.31247],[2.175857,42.312425],[2.175894,42.312371],[2.175935,42.312311],[2.176115,42.312059],[2.175968,42.312042],[2.17586,42.312032],[2.175704,42.312017],[2.175663,42.312012],[2.175515,42.311996],[2.175404,42.311981],[2.175406,42.311979],[2.17531,42.311964],[2.17522,42.311945],[2.175224,42.31194],[2.175132,42.311893],[2.175083,42.311862],[2.17501,42.311806],[2.175005,42.31181],[2.1749,42.311717],[2.174896,42.311714],[2.174893,42.311712],[2.174891,42.31171],[2.174888,42.311708],[2.174886,42.311706],[2.174883,42.311704],[2.174881,42.311702],[2.174877,42.311699],[2.174874,42.311697],[2.174871,42.311695],[2.174869,42.311693],[2.174866,42.311691],[2.174862,42.311689],[2.174858,42.311686],[2.174855,42.311685],[2.174852,42.311683],[2.174849,42.311681],[2.174847,42.31168],[2.174844,42.311678],[2.17484,42.311676],[2.174835,42.311673],[2.174832,42.311672],[2.174827,42.311669],[2.174795,42.311636],[2.174529,42.311452],[2.174509,42.311447],[2.174184,42.311364],[2.174169,42.311292],[2.174158,42.311231],[2.174142,42.311146],[2.174126,42.311077],[2.174111,42.311031],[2.174097,42.310993],[2.174085,42.310965],[2.174073,42.310941],[2.174053,42.310906],[2.174003,42.310838],[2.173966,42.310795],[2.173901,42.310712],[2.173862,42.310658],[2.173816,42.310595],[2.173815,42.310594],[2.173892,42.310538],[2.173693,42.310277],[2.173658,42.310188],[2.173611,42.310129],[2.173578,42.310091],[2.173529,42.310026],[2.173519,42.31003],[2.173477,42.309987],[2.17348,42.309985],[2.173361,42.309885],[2.173364,42.309881],[2.173314,42.309834],[2.173203,42.309763],[2.173119,42.309737],[2.17305,42.309737],[2.172803,42.309762],[2.172664,42.309797],[2.172563,42.309775],[2.172453,42.309746],[2.172427,42.309738],[2.172365,42.30971],[2.172327,42.309684],[2.172312,42.30967],[2.17221,42.309572],[2.17206,42.309405],[2.171826,42.309223],[2.171809,42.30921],[2.171801,42.309198],[2.171833,42.309117],[2.171915,42.309141],[2.171961,42.309159],[2.172005,42.309196],[2.172037,42.309221],[2.172135,42.309285],[2.172355,42.309427],[2.172482,42.309373],[2.172606,42.30943],[2.172618,42.309434],[2.172706,42.309344],[2.172521,42.309191],[2.172362,42.309128],[2.172268,42.308927],[2.171941,42.308434],[2.171285,42.307486],[2.171384,42.307272],[2.171424,42.307172],[2.171401,42.306957],[2.171742,42.306901],[2.171613,42.30662],[2.171591,42.306572],[2.171545,42.306473],[2.171451,42.306263],[2.17139,42.306127],[2.17192,42.305997],[2.171881,42.305939],[2.171871,42.305917],[2.171844,42.3058],[2.171782,42.305731],[2.171958,42.305717],[2.171942,42.305609],[2.171991,42.305604],[2.171999,42.30538],[2.172034,42.305264],[2.172048,42.305215],[2.171958,42.305105],[2.171949,42.305025],[2.171909,42.305003],[2.17189,42.304979],[2.171704,42.304951],[2.171585,42.304919],[2.171509,42.304717],[2.171502,42.304718],[2.171495,42.304681],[2.171484,42.304621],[2.171474,42.304622],[2.171135,42.304636],[2.171015,42.304527],[2.170979,42.304506],[2.170925,42.304349],[2.170791,42.304223],[2.170521,42.304226],[2.170517,42.304224],[2.1704,42.304108],[2.170342,42.304006],[2.170571,42.303956],[2.170525,42.303759],[2.170509,42.303415],[2.170541,42.303411],[2.170473,42.302952],[2.170488,42.302897],[2.170451,42.302883],[2.17026,42.302811],[2.17023,42.302837],[2.170213,42.302821],[2.170193,42.302807],[2.170188,42.302803],[2.170165,42.302791],[2.17014,42.30278],[2.170113,42.302772],[2.170104,42.302722],[2.170088,42.302673],[2.170065,42.302626],[2.170035,42.302581],[2.169999,42.302538],[2.169958,42.302499],[2.169886,42.302459],[2.16983,42.302427],[2.169676,42.302388],[2.169561,42.302392],[2.16949,42.302396],[2.169427,42.302412],[2.169389,42.302427],[2.169074,42.302657],[2.169057,42.302657],[2.169039,42.302656],[2.169022,42.302652],[2.169006,42.302647],[2.168991,42.30264],[2.168977,42.30263],[2.168965,42.302619],[2.168956,42.302606],[2.168947,42.302562],[2.168947,42.302561],[2.16894,42.302521],[2.16894,42.302517],[2.16891,42.302301],[2.168876,42.302029],[2.16887,42.301823],[2.168877,42.3015],[2.168524,42.301487],[2.168523,42.30164],[2.168469,42.301664],[2.168419,42.30167],[2.168324,42.301691],[2.168192,42.301727],[2.168041,42.301752],[2.167971,42.301748],[2.167789,42.301727],[2.167628,42.301635],[2.167457,42.301591],[2.167462,42.301581],[2.167489,42.301519],[2.16749,42.30146],[2.167484,42.301385],[2.167458,42.301302],[2.167404,42.301154],[2.167323,42.300958],[2.167198,42.300787],[2.167142,42.300724],[2.167091,42.300672],[2.166999,42.300539],[2.166766,42.299977],[2.166659,42.299758],[2.166578,42.299622],[2.166566,42.299607],[2.166554,42.299591],[2.166472,42.299603],[2.16644,42.299614],[2.166393,42.299626],[2.166262,42.299658],[2.166266,42.299669],[2.166283,42.299724],[2.166332,42.299881],[2.166362,42.299977],[2.166381,42.300033],[2.166415,42.300132],[2.166474,42.300305],[2.1665,42.300346],[2.166498,42.300389],[2.166507,42.300418],[2.166554,42.300663],[2.166625,42.300882],[2.166639,42.300918],[2.166658,42.301058],[2.16668,42.301171],[2.166707,42.301301],[2.166716,42.301369],[2.166743,42.301522],[2.166749,42.30154],[2.166759,42.301563],[2.166812,42.30166],[2.166798,42.301711],[2.166784,42.301782],[2.166588,42.301732],[2.166514,42.301719],[2.166469,42.30188],[2.166438,42.302027],[2.166439,42.302064],[2.166441,42.302126],[2.166459,42.30213],[2.166443,42.302167],[2.166601,42.302203],[2.166572,42.302264],[2.166536,42.30234],[2.166493,42.302432],[2.166416,42.302598],[2.1664,42.30263],[2.166385,42.302679],[2.166228,42.302679],[2.166209,42.302821],[2.166208,42.30289],[2.166212,42.302906],[2.166238,42.302976],[2.166257,42.303042],[2.166255,42.303065],[2.166255,42.303088],[2.166277,42.30314],[2.166287,42.30316],[2.166339,42.303238],[2.166359,42.303302],[2.166364,42.303331],[2.166377,42.303331],[2.166514,42.303771],[2.166555,42.303904],[2.166621,42.304169],[2.166628,42.3042],[2.166642,42.304267],[2.166637,42.304288],[2.166719,42.304573],[2.166679,42.304586],[2.166679,42.304609],[2.166676,42.304637],[2.166688,42.304712],[2.166701,42.304824],[2.166671,42.304825],[2.166678,42.304863],[2.166694,42.304954],[2.166695,42.304957],[2.166698,42.30496],[2.166703,42.304963],[2.166711,42.304967],[2.166715,42.304971],[2.166716,42.304977],[2.166715,42.304995],[2.166723,42.304994],[2.166723,42.305063],[2.166704,42.305063],[2.166704,42.305093],[2.166662,42.30508],[2.166658,42.305096],[2.166549,42.305061],[2.166472,42.305212],[2.166556,42.305216],[2.166548,42.305288],[2.166615,42.305289],[2.166634,42.30529],[2.166649,42.305315],[2.166662,42.305343],[2.166669,42.30537],[2.166662,42.305405],[2.166645,42.305442],[2.166611,42.305484],[2.166548,42.305534],[2.16646,42.305583],[2.166451,42.305589],[2.166436,42.305603],[2.166429,42.305615],[2.166423,42.305626],[2.1664,42.305674],[2.166248,42.305802],[2.166334,42.305864],[2.166272,42.305904],[2.166256,42.305898],[2.166214,42.305961],[2.166218,42.305963],[2.166183,42.306011],[2.166176,42.306025],[2.166185,42.30603],[2.16617,42.306045],[2.166159,42.306038],[2.166108,42.306088],[2.166116,42.306092],[2.166114,42.306094],[2.16605,42.306153],[2.166125,42.306196],[2.166007,42.306292],[2.166075,42.306362],[2.165931,42.306459],[2.165882,42.3065],[2.16589,42.306506],[2.166006,42.306574],[2.16591,42.306666],[2.165673,42.306899],[2.165755,42.306969],[2.165732,42.306981],[2.165833,42.307067],[2.165429,42.307345],[2.165099,42.307573],[2.165009,42.30751],[2.164955,42.307389],[2.164932,42.307395],[2.164795,42.307431],[2.164598,42.307518],[2.164475,42.307579],[2.164371,42.307662],[2.164293,42.307749],[2.164234,42.307825],[2.164218,42.30788],[2.164425,42.308014],[2.16496,42.307665],[2.164964,42.307671],[2.165062,42.307751],[2.165472,42.30747],[2.165684,42.307311],[2.165776,42.307472],[2.165943,42.30739],[2.166081,42.307316],[2.16616,42.307272],[2.166287,42.3072],[2.166311,42.307227],[2.166363,42.307228],[2.166362,42.307231],[2.166362,42.307233],[2.166362,42.307236],[2.166363,42.307239],[2.166365,42.307242],[2.166368,42.307245],[2.166371,42.307247],[2.166417,42.307273],[2.166441,42.307251],[2.166445,42.307251],[2.166467,42.307225],[2.166458,42.307221],[2.166465,42.307211],[2.166455,42.307206],[2.166458,42.307202],[2.166462,42.307174],[2.166411,42.307154],[2.166441,42.307118],[2.16651,42.30715],[2.166562,42.30712],[2.166569,42.307124],[2.166588,42.307107],[2.166582,42.307104],[2.166602,42.307087],[2.166609,42.307091],[2.166652,42.307064],[2.166842,42.306948],[2.166859,42.306966],[2.167011,42.306867],[2.166975,42.306826],[2.167036,42.306783],[2.167172,42.306689],[2.167291,42.306626],[2.167382,42.306585],[2.16742,42.306579],[2.167479,42.30658],[2.167561,42.306593],[2.167604,42.306603],[2.167639,42.306618],[2.167683,42.30664],[2.167933,42.306777],[2.168125,42.306876],[2.16826,42.306955],[2.168452,42.307045],[2.168607,42.30713],[2.168699,42.307181],[2.168821,42.307289],[2.168932,42.307403],[2.169011,42.307454],[2.169007,42.307457],[2.169233,42.307582],[2.169245,42.307602],[2.169252,42.307613],[2.169293,42.307615],[2.169307,42.307721],[2.169303,42.307721],[2.169335,42.307799],[2.169351,42.307795],[2.169358,42.307808],[2.169356,42.307813],[2.169367,42.30783],[2.169367,42.307836],[2.169373,42.30786],[2.169413,42.30785],[2.169448,42.30784],[2.169536,42.307804],[2.169543,42.307801],[2.169614,42.307787],[2.169604,42.307899],[2.169605,42.307906],[2.169601,42.308011],[2.169597,42.308141],[2.169595,42.308196],[2.169613,42.308196],[2.16961,42.308274],[2.169608,42.308367],[2.169607,42.308404],[2.169608,42.308456],[2.169658,42.308712],[2.169662,42.308734],[2.169671,42.308784],[2.169702,42.308948],[2.169711,42.309002],[2.169736,42.309038],[2.169813,42.309197],[2.169813,42.309209],[2.169813,42.309223],[2.169821,42.309225],[2.169854,42.309225],[2.169861,42.309206],[2.169902,42.309188],[2.169844,42.309473],[2.169688,42.309503],[2.169658,42.309556],[2.169587,42.30991],[2.169584,42.310017],[2.169598,42.310116],[2.169587,42.310117],[2.169593,42.31016],[2.169611,42.310247],[2.169666,42.310572],[2.169673,42.310641],[2.169676,42.310768],[2.169677,42.310787],[2.169675,42.310799],[2.169677,42.31084],[2.169681,42.310896],[2.169682,42.31091],[2.169691,42.310913],[2.169696,42.310953],[2.169777,42.310962],[2.169961,42.310958],[2.169965,42.310899],[2.16995,42.310526],[2.170054,42.31038],[2.1702,42.3104],[2.170362,42.310425],[2.170676,42.310609],[2.170662,42.310685],[2.170712,42.310754],[2.170713,42.310755],[2.171082,42.310703],[2.171321,42.310681],[2.171294,42.310931],[2.171603,42.310931],[2.171608,42.310835],[2.171597,42.310802],[2.171553,42.310613],[2.171415,42.310019],[2.171639,42.31006],[2.171864,42.310031],[2.172041,42.310274],[2.172175,42.310469],[2.172266,42.310597],[2.172184,42.310707],[2.172147,42.310748],[2.172127,42.310808],[2.172027,42.310956],[2.172016,42.311126],[2.172,42.311193],[2.171967,42.311273],[2.171831,42.311391],[2.171766,42.31141],[2.171562,42.311842],[2.171489,42.312004],[2.171799,42.312368],[2.172059,42.312122],[2.172436,42.311753],[2.172481,42.311739],[2.172603,42.311591],[2.172655,42.311543],[2.172712,42.311487],[2.172776,42.311435],[2.172827,42.311373],[2.172859,42.311341],[2.172905,42.311322],[2.172918,42.311316],[2.172959,42.311304],[2.173019,42.311292],[2.17305,42.311287],[2.173123,42.311279],[2.173145,42.311279],[2.173167,42.311282],[2.173193,42.31129],[2.173245,42.311313],[2.173379,42.311363],[2.173412,42.311373],[2.173424,42.311379],[2.173488,42.31141],[2.173559,42.311462],[2.173663,42.311547],[2.173671,42.311546],[2.173677,42.311544],[2.173717,42.311655],[2.174065,42.311864],[2.174168,42.311917],[2.174433,42.312064],[2.174437,42.312061],[2.174478,42.312093],[2.174572,42.312163],[2.174675,42.312243],[2.174673,42.312245],[2.174712,42.312269],[2.174745,42.312289],[2.174777,42.31231],[2.174774,42.312313],[2.174771,42.312316],[2.174806,42.312338],[2.174838,42.312359],[2.17495,42.312413],[2.175035,42.312453],[2.175084,42.312477],[2.175133,42.3125],[2.175157,42.312512],[2.175182,42.312523],[2.17522,42.312542],[2.175231,42.312534],[2.175308,42.312584],[2.175384,42.312635],[2.175476,42.312697],[2.175601,42.312772],[2.175766,42.312611],[2.175715,42.312576]]]]}},{"type":"Feature","id":"171450_171450 AP09 RIP 3","properties":{"area_id":"171450_171450 AP09 RIP 3","nom":"Ribesaltes","codi_icgc":"171450 AP09 RIP 3","categoria":"Àrees de poblament","codi_municipi":"171450","municipi":"Ribes de Freser","codi_comarca":"31","comarca":"Ripollès","provincia":"Girona","font":"ICGC Àrees de poblament v3r1 202602"},"geometry":{"type":"MultiPolygon","coordinates":[[[[2.1848,42.316575],[2.184782,42.31646],[2.184832,42.316325],[2.184821,42.316158],[2.184513,42.316151],[2.184449,42.316129],[2.184411,42.316088],[2.184393,42.316005],[2.18413,42.316022],[2.18411,42.31605],[2.184166,42.31621],[2.184277,42.316256],[2.184322,42.316295],[2.184295,42.316392],[2.184291,42.316459],[2.1843,42.316495],[2.184204,42.316496],[2.18413,42.316496],[2.184042,42.316555],[2.183978,42.316579],[2.18398,42.316651],[2.183975,42.316746],[2.184026,42.316777],[2.184315,42.316813],[2.184625,42.316849],[2.184643,42.316774],[2.184785,42.316739],[2.184798,42.316684],[2.1848,42.316575]]],[[[2.181017,42.319292],[2.181041,42.319246],[2.181112,42.319263],[2.181178,42.319195],[2.181298,42.319128],[2.181325,42.319128],[2.181353,42.31912],[2.181434,42.319053],[2.181426,42.319042],[2.181372,42.318927],[2.181293,42.318793],[2.181269,42.318641],[2.181261,42.318557],[2.181252,42.318469],[2.18124,42.318409],[2.181206,42.318361],[2.181075,42.318303],[2.180912,42.318254],[2.180806,42.318227],[2.180684,42.318236],[2.180571,42.318259],[2.180465,42.318277],[2.180356,42.318277],[2.18026,42.31824],[2.180164,42.318188],[2.180073,42.318106],[2.179991,42.318015],[2.179937,42.317982],[2.179866,42.317957],[2.179766,42.317939],[2.179636,42.317914],[2.179484,42.317858],[2.179381,42.317778],[2.179201,42.3176],[2.179014,42.317427],[2.178805,42.317237],[2.178729,42.317127],[2.178599,42.317052],[2.178481,42.316985],[2.178494,42.316937],[2.178475,42.316892],[2.178434,42.316856],[2.178357,42.316836],[2.178264,42.316819],[2.178217,42.316797],[2.17816,42.316739],[2.178079,42.316646],[2.177944,42.316641],[2.177881,42.316655],[2.177804,42.316705],[2.17737,42.316741],[2.177244,42.316754],[2.177252,42.316876],[2.177308,42.31703],[2.177312,42.317116],[2.177277,42.317183],[2.177214,42.317226],[2.176977,42.317317],[2.17686,42.317383],[2.176805,42.317533],[2.176813,42.317661],[2.176894,42.317744],[2.177008,42.317892],[2.177133,42.317932],[2.177412,42.317945],[2.177628,42.317946],[2.17775,42.317897],[2.177953,42.317813],[2.178175,42.317782],[2.178387,42.317766],[2.178556,42.317767],[2.178815,42.317815],[2.178927,42.317874],[2.178982,42.318009],[2.179061,42.318057],[2.179185,42.318138],[2.179364,42.318194],[2.179562,42.318236],[2.179677,42.318284],[2.179881,42.318386],[2.180038,42.318456],[2.180172,42.318497],[2.180287,42.318524],[2.180458,42.318523],[2.180643,42.318591],[2.180873,42.31865],[2.180943,42.318684],[2.180991,42.318753],[2.181003,42.318823],[2.180981,42.318902],[2.180884,42.318949],[2.180884,42.319014],[2.180955,42.319039],[2.180955,42.31911],[2.180914,42.319158],[2.180896,42.31917],[2.180776,42.319123],[2.180712,42.319165],[2.180639,42.319238],[2.180611,42.319279],[2.180608,42.31933],[2.180633,42.319383],[2.180672,42.31941],[2.180715,42.319428],[2.180757,42.319437],[2.180834,42.319434],[2.180884,42.319422],[2.18094,42.319395],[2.180981,42.319351],[2.181001,42.319311],[2.181017,42.319292]]]]}},{"type":"Feature","id":"171450_171450 SI01 RIP 2","properties":{"area_id":"171450_171450 SI01 RIP 2","nom":"Rigat Tèxtil, SL","codi_icgc":"171450 SI01 RIP 2","categoria":"Sector industrial","codi_municipi":"171450","municipi":"Ribes de Freser","codi_comarca":"31","comarca":"Ripollès","provincia":"Girona","font":"ICGC Àrees de poblament v3r1 202602"},"geometry":{"type":"MultiPolygon","coordinates":[[[[2.165621,42.306949],[2.165525,42.306898],[2.165832,42.306556],[2.165723,42.3065],[2.165292,42.30673],[2.165162,42.306789],[2.164967,42.306921],[2.164703,42.307134],[2.16468,42.307121],[2.164602,42.307168],[2.164555,42.307124],[2.164473,42.307174],[2.164513,42.307217],[2.16448,42.307277],[2.164359,42.307389],[2.164231,42.307451],[2.163959,42.307572],[2.163685,42.307624],[2.163696,42.307652],[2.163705,42.307678],[2.163068,42.307811],[2.162587,42.307911],[2.162403,42.307942],[2.16277,42.307986],[2.162884,42.308007],[2.163111,42.308052],[2.163277,42.308068],[2.163443,42.308072],[2.163571,42.308073],[2.163682,42.308059],[2.16379,42.308028],[2.16386,42.307994],[2.163921,42.307954],[2.163996,42.307898],[2.164135,42.307769],[2.164219,42.307645],[2.164238,42.307624],[2.16439,42.307465],[2.164639,42.307356],[2.164649,42.307354],[2.164805,42.307301],[2.1649,42.307281],[2.164956,42.307273],[2.16503,42.30742],[2.165142,42.307428],[2.165185,42.307426],[2.165563,42.307176],[2.165644,42.30709],[2.165754,42.307016],[2.165621,42.306949]]]]}},{"type":"Feature","id":"171450_171450 AP03 RIP 2","properties":{"area_id":"171450_171450 AP03 RIP 2","nom":"Roques Blanques","codi_icgc":"171450 AP03 RIP 2","categoria":"Àrees de poblament","codi_municipi":"171450","municipi":"Ribes de Freser","codi_comarca":"31","comarca":"Ripollès","provincia":"Girona","font":"ICGC Àrees de poblament v3r1 202602"},"geometry":{"type":"MultiPolygon","coordinates":[[[[2.147479,42.31301],[2.147507,42.313085],[2.147518,42.313185],[2.147536,42.313271],[2.147471,42.313333],[2.147344,42.313401],[2.147341,42.313404],[2.14733,42.313414],[2.147309,42.313432],[2.147294,42.313444],[2.147272,42.313467],[2.147259,42.313482],[2.147249,42.313493],[2.147241,42.3135],[2.147234,42.313507],[2.147233,42.313516],[2.147234,42.313519],[2.147179,42.313583],[2.147185,42.313645],[2.147287,42.313651],[2.147429,42.313618],[2.147614,42.313596],[2.147616,42.313596],[2.147653,42.313602],[2.147679,42.313604],[2.147706,42.313605],[2.147742,42.313602],[2.147802,42.313597],[2.147847,42.313592],[2.147909,42.31358],[2.14795,42.313567],[2.147995,42.31355],[2.148022,42.313538],[2.148073,42.313509],[2.148113,42.313485],[2.148145,42.313469],[2.148168,42.313461],[2.148193,42.313454],[2.148204,42.313453],[2.148224,42.313457],[2.148264,42.313469],[2.148312,42.313485],[2.148331,42.313493],[2.148359,42.313498],[2.14836,42.313498],[2.148361,42.313498],[2.148363,42.313498],[2.148364,42.313499],[2.148365,42.313499],[2.148366,42.313499],[2.148368,42.313499],[2.148369,42.313499],[2.14837,42.313499],[2.148372,42.3135],[2.148373,42.3135],[2.148374,42.3135],[2.148376,42.3135],[2.148377,42.3135],[2.14844,42.313506],[2.148441,42.313506],[2.148442,42.313506],[2.148442,42.313506],[2.148443,42.313506],[2.148444,42.313506],[2.148444,42.313506],[2.148445,42.313506],[2.148446,42.313506],[2.148446,42.313506],[2.148447,42.313506],[2.148448,42.313506],[2.148448,42.313506],[2.148449,42.313506],[2.14845,42.313506],[2.14845,42.313506],[2.148451,42.313506],[2.148452,42.313506],[2.148452,42.313506],[2.148453,42.313506],[2.148454,42.313506],[2.148454,42.313506],[2.148455,42.313506],[2.148455,42.313506],[2.148456,42.313506],[2.148457,42.313505],[2.148457,42.313505],[2.148458,42.313505],[2.148459,42.313505],[2.148459,42.313505],[2.14846,42.313505],[2.148461,42.313505],[2.148461,42.313505],[2.148462,42.313504],[2.148462,42.313504],[2.148463,42.313504],[2.148464,42.313504],[2.148464,42.313504],[2.148465,42.313504],[2.148466,42.313503],[2.148466,42.313503],[2.148467,42.313503],[2.148467,42.313503],[2.148468,42.313503],[2.148469,42.313502],[2.148469,42.313502],[2.14847,42.313502],[2.14847,42.313502],[2.148471,42.313501],[2.148471,42.313501],[2.148472,42.313501],[2.148473,42.313501],[2.148473,42.3135],[2.148474,42.3135],[2.148474,42.3135],[2.148475,42.3135],[2.148475,42.313499],[2.148476,42.313499],[2.148476,42.313499],[2.148477,42.313498],[2.148477,42.313498],[2.148478,42.313498],[2.148478,42.313497],[2.148479,42.313497],[2.148479,42.313497],[2.14848,42.313496],[2.148489,42.31349],[2.148502,42.313479],[2.148587,42.313465],[2.148659,42.313384],[2.148716,42.313423],[2.148747,42.313471],[2.148837,42.313495],[2.148869,42.313476],[2.148954,42.313401],[2.149102,42.313354],[2.149112,42.313313],[2.149151,42.313323],[2.149221,42.31335],[2.14928,42.31336],[2.149339,42.313361],[2.149423,42.313357],[2.149422,42.313245],[2.149418,42.313204],[2.149406,42.313143],[2.149356,42.313123],[2.149384,42.313034],[2.149443,42.312847],[2.149403,42.31284],[2.149403,42.312832],[2.148994,42.312772],[2.149324,42.312608],[2.149396,42.312508],[2.149507,42.312356],[2.149598,42.31227],[2.149644,42.312243],[2.149721,42.312225],[2.149837,42.312216],[2.149991,42.312203],[2.150114,42.312085],[2.150022,42.311822],[2.149887,42.311826],[2.149675,42.311838],[2.149449,42.311932],[2.149313,42.311988],[2.149073,42.312153],[2.148906,42.312243],[2.148818,42.312188],[2.148812,42.311952],[2.148151,42.312033],[2.147978,42.311996],[2.147269,42.312058],[2.147254,42.312174],[2.147667,42.312245],[2.147821,42.312278],[2.148003,42.312322],[2.148109,42.312326],[2.148152,42.312355],[2.148195,42.312416],[2.148194,42.312492],[2.14798,42.312615],[2.147801,42.312689],[2.147638,42.312602],[2.147122,42.312716],[2.147068,42.312766],[2.147156,42.312988],[2.147262,42.312996],[2.147392,42.312993],[2.147479,42.31301]]]]}},{"type":"Feature","id":"171450_171450 AP06 RIP 3","properties":{"area_id":"171450_171450 AP06 RIP 3","nom":"Ventolà","codi_icgc":"171450 AP06 RIP 3","categoria":"Àrees de poblament","codi_municipi":"171450","municipi":"Ribes de Freser","codi_comarca":"31","comarca":"Ripollès","provincia":"Girona","font":"ICGC Àrees de poblament v3r1 202602"},"geometry":{"type":"MultiPolygon","coordinates":[[[[2.135634,42.318662],[2.135636,42.318517],[2.135669,42.318445],[2.135744,42.318401],[2.135828,42.31837],[2.136098,42.318318],[2.136169,42.318304],[2.136211,42.31828],[2.136215,42.318245],[2.136183,42.318206],[2.136119,42.318168],[2.136076,42.318146],[2.13605,42.318061],[2.136,42.318057],[2.135841,42.318069],[2.135672,42.318065],[2.135668,42.317942],[2.135776,42.317938],[2.13589,42.317925],[2.135963,42.317911],[2.136027,42.317892],[2.136194,42.317932],[2.136344,42.317968],[2.13645,42.317991],[2.136544,42.318013],[2.136577,42.317983],[2.136583,42.317983],[2.136671,42.317914],[2.136795,42.317843],[2.136932,42.31779],[2.137087,42.317748],[2.137104,42.317775],[2.137329,42.317745],[2.137553,42.317736],[2.137678,42.317732],[2.137732,42.317741],[2.137749,42.317719],[2.137768,42.317563],[2.137767,42.317538],[2.137593,42.317514],[2.137532,42.317497],[2.137544,42.317389],[2.137529,42.317385],[2.137523,42.317374],[2.137443,42.317326],[2.137339,42.317303],[2.137254,42.317335],[2.137092,42.317471],[2.136893,42.317534],[2.136876,42.317534],[2.136707,42.31763],[2.136527,42.31774],[2.136526,42.317733],[2.136483,42.317694],[2.136426,42.317641],[2.136378,42.317666],[2.136323,42.317691],[2.13629,42.317703],[2.136234,42.317721],[2.136219,42.317724],[2.136199,42.317728],[2.136154,42.317726],[2.136082,42.31772],[2.136083,42.317719],[2.135954,42.317718],[2.135738,42.317698],[2.13543,42.317656],[2.135387,42.317631],[2.135422,42.317549],[2.135284,42.317387],[2.135387,42.317383],[2.135386,42.317381],[2.135531,42.317247],[2.135383,42.317145],[2.135345,42.317118],[2.135204,42.317258],[2.135161,42.317229],[2.135077,42.317078],[2.135065,42.317066],[2.135044,42.317044],[2.13503,42.31703],[2.135017,42.317023],[2.135005,42.317023],[2.134993,42.317025],[2.134985,42.317032],[2.134963,42.317049],[2.134942,42.31706],[2.134887,42.317098],[2.134767,42.317194],[2.134763,42.317198],[2.13476,42.3172],[2.134757,42.317203],[2.134754,42.317207],[2.134751,42.31721],[2.134748,42.317213],[2.134746,42.317215],[2.134744,42.317218],[2.134741,42.317221],[2.134739,42.317224],[2.134738,42.317227],[2.134707,42.317276],[2.134684,42.317307],[2.134682,42.31731],[2.13468,42.317313],[2.134678,42.317316],[2.134676,42.31732],[2.134674,42.317323],[2.134672,42.317326],[2.134671,42.317329],[2.13467,42.317333],[2.134668,42.317337],[2.134666,42.317341],[2.134665,42.317346],[2.134648,42.317415],[2.134642,42.317455],[2.134639,42.317498],[2.134639,42.317535],[2.134644,42.317581],[2.134662,42.317633],[2.134744,42.317763],[2.134769,42.317785],[2.134787,42.317828],[2.134812,42.317876],[2.134856,42.317924],[2.134907,42.317977],[2.13497,42.318044],[2.135014,42.318169],[2.135044,42.318286],[2.134993,42.318386],[2.134911,42.318441],[2.134847,42.318448],[2.134784,42.318436],[2.134734,42.318409],[2.134662,42.318357],[2.134618,42.31833],[2.134588,42.31832],[2.134525,42.318313],[2.134248,42.318311],[2.134206,42.318311],[2.134181,42.318325],[2.134082,42.318387],[2.134077,42.318392],[2.134084,42.318488],[2.134072,42.318527],[2.134071,42.318642],[2.134072,42.318665],[2.134183,42.318656],[2.134302,42.318646],[2.134371,42.318639],[2.134435,42.318649],[2.134468,42.318653],[2.134517,42.318657],[2.134641,42.318677],[2.134783,42.318724],[2.134811,42.31874],[2.134856,42.31878],[2.134921,42.318803],[2.134966,42.318801],[2.13501,42.318776],[2.135023,42.318768],[2.135038,42.318751],[2.135046,42.318732],[2.13509,42.318656],[2.135102,42.318768],[2.135107,42.318837],[2.135143,42.318913],[2.135169,42.318971],[2.135209,42.31898],[2.135231,42.31894],[2.135259,42.318899],[2.135271,42.31888],[2.135321,42.318851],[2.135437,42.318807],[2.135517,42.318788],[2.135564,42.318774],[2.135617,42.318738],[2.135637,42.31871],[2.135634,42.318662]]],[[[2.134287,42.319316],[2.134116,42.319239],[2.133871,42.319183],[2.133706,42.319167],[2.133675,42.319212],[2.133641,42.319246],[2.133592,42.319274],[2.133558,42.319283],[2.133491,42.319278],[2.133394,42.319252],[2.13323,42.319192],[2.133086,42.319176],[2.133026,42.319185],[2.132975,42.319198],[2.132941,42.319224],[2.132901,42.319263],[2.13288,42.319281],[2.132826,42.319311],[2.13278,42.319327],[2.132573,42.319562],[2.132461,42.319616],[2.132364,42.31966],[2.13237,42.319666],[2.132375,42.319672],[2.132383,42.319678],[2.132389,42.319683],[2.132397,42.319688],[2.132406,42.319694],[2.132412,42.319697],[2.132421,42.319701],[2.132427,42.319704],[2.132433,42.319706],[2.132441,42.319709],[2.132449,42.319712],[2.132456,42.319714],[2.132463,42.319716],[2.132481,42.319721],[2.132551,42.319732],[2.132558,42.319733],[2.132574,42.319736],[2.13258,42.319737],[2.132588,42.319738],[2.1326,42.31974],[2.13261,42.319741],[2.132617,42.319742],[2.132628,42.319744],[2.132634,42.319744],[2.132647,42.319745],[2.132653,42.319746],[2.132659,42.319746],[2.132666,42.319747],[2.132674,42.319748],[2.132887,42.319775],[2.132987,42.319787],[2.133011,42.319794],[2.133024,42.319801],[2.133047,42.319811],[2.133072,42.319822],[2.133086,42.319828],[2.133111,42.319842],[2.133164,42.319896],[2.133206,42.319934],[2.133263,42.31996],[2.133388,42.319993],[2.133532,42.320008],[2.13365,42.32001],[2.13374,42.319992],[2.133824,42.319963],[2.133886,42.319931],[2.133948,42.319917],[2.134022,42.31991],[2.134235,42.319896],[2.134308,42.319859],[2.13449,42.319735],[2.134441,42.319642],[2.134481,42.319547],[2.134379,42.319479],[2.13431,42.319369],[2.134287,42.319316]]]]}},{"type":"Feature","id":"171450_171450 AP02 RIP 2","properties":{"area_id":"171450_171450 AP02 RIP 2","nom":"el Solà","codi_icgc":"171450 AP02 RIP 2","categoria":"Àrees de poblament","codi_municipi":"171450","municipi":"Ribes de Freser","codi_comarca":"31","comarca":"Ripollès","provincia":"Girona","font":"ICGC Àrees de poblament v3r1 202602"},"geometry":{"type":"MultiPolygon","coordinates":[[[[2.125137,42.316841],[2.125183,42.316886],[2.125243,42.316941],[2.125276,42.317089],[2.125332,42.31724],[2.125362,42.317342],[2.125377,42.31745],[2.125372,42.317543],[2.125388,42.317593],[2.125423,42.317656],[2.125386,42.317721],[2.125721,42.317815],[2.125798,42.317659],[2.125815,42.317556],[2.125811,42.317461],[2.125737,42.317407],[2.125665,42.317424],[2.125603,42.317431],[2.125521,42.317421],[2.12547,42.317405],[2.125432,42.317367],[2.125425,42.317342],[2.125441,42.317298],[2.125463,42.317216],[2.125484,42.317112],[2.125485,42.317016],[2.125472,42.316919],[2.12544,42.31687],[2.125373,42.31677],[2.125393,42.316727],[2.125408,42.316703],[2.125315,42.316608],[2.125189,42.316484],[2.125141,42.316496],[2.124999,42.316406],[2.124957,42.316453],[2.124817,42.316608],[2.124834,42.316631],[2.124928,42.316691],[2.125014,42.316746],[2.125111,42.316823],[2.125137,42.316841]]]]}},{"type":"Feature","id":"171450_171450 AP04 RIP 2","properties":{"area_id":"171450_171450 AP04 RIP 2","nom":"la Massana","codi_icgc":"171450 AP04 RIP 2","categoria":"Àrees de poblament","codi_municipi":"171450","municipi":"Ribes de Freser","codi_comarca":"31","comarca":"Ripollès","provincia":"Girona","font":"ICGC Àrees de poblament v3r1 202602"},"geometry":{"type":"MultiPolygon","coordinates":[[[[2.171551,42.301176],[2.171588,42.301221],[2.171832,42.301346],[2.17187,42.30135],[2.172011,42.301351],[2.172101,42.301313],[2.172154,42.301199],[2.17209,42.301151],[2.171848,42.301064],[2.171644,42.300929],[2.17144,42.300832],[2.171416,42.300717],[2.171417,42.300603],[2.171445,42.300441],[2.171447,42.300298],[2.171538,42.300232],[2.171513,42.300118],[2.171425,42.299974],[2.171069,42.299714],[2.171006,42.299647],[2.170903,42.299646],[2.170897,42.29965],[2.170828,42.299725],[2.170577,42.299914],[2.170449,42.299919],[2.170353,42.299895],[2.170279,42.299853],[2.170266,42.299846],[2.170183,42.299755],[2.170121,42.299555],[2.170097,42.29945],[2.170112,42.299408],[2.170151,42.299381],[2.170223,42.299358],[2.17024,42.299292],[2.170162,42.299155],[2.170106,42.299136],[2.170017,42.29916],[2.169985,42.299195],[2.169777,42.299264],[2.169753,42.299266],[2.169533,42.299341],[2.16939,42.299502],[2.169363,42.299625],[2.169413,42.299731],[2.169541,42.29976],[2.169696,42.299704],[2.169901,42.299715],[2.170053,42.299859],[2.17005,42.300088],[2.170048,42.30025],[2.170046,42.300421],[2.170071,42.300479],[2.17016,42.300489],[2.170352,42.300576],[2.170349,42.300786],[2.17045,42.300939],[2.170615,42.301045],[2.170705,42.301055],[2.170835,42.30097],[2.171002,42.300962],[2.171322,42.300993],[2.171551,42.301176]]]]}}]}