{"type":"FeatureCollection","name":"ICGC Àrees de poblament - Riells i Viabrea","features":[{"type":"Feature","id":"171463_171463 AP08 SEL 3","properties":{"area_id":"171463_171463 AP08 SEL 3","nom":"Alba de Liste","codi_icgc":"171463 AP08 SEL 3","categoria":"Àrees de poblament","codi_municipi":"171463","municipi":"Riells i Viabrea","codi_comarca":"34","comarca":"Selva","provincia":"Girona","font":"ICGC Àrees de poblament v3r1 202602"},"geometry":{"type":"MultiPolygon","coordinates":[[[[2.548082,41.719574],[2.547628,41.719342],[2.547566,41.719392],[2.547546,41.719408],[2.547414,41.719476],[2.547561,41.71971],[2.547643,41.71981],[2.547876,41.720093],[2.547985,41.72029],[2.547992,41.720463],[2.547942,41.720707],[2.547852,41.721048],[2.547875,41.721054],[2.547917,41.721065],[2.547982,41.721082],[2.548026,41.721091],[2.548135,41.72112],[2.548854,41.721297],[2.550294,41.721681],[2.551623,41.722033],[2.55169,41.722052],[2.551843,41.722092],[2.552015,41.72214],[2.552476,41.722266],[2.552936,41.722389],[2.552909,41.722361],[2.552882,41.722333],[2.552848,41.722291],[2.552807,41.722222],[2.552785,41.722189],[2.552765,41.722167],[2.552748,41.722151],[2.552735,41.722129],[2.552505,41.721933],[2.55246,41.721893],[2.55135,41.721268],[2.548378,41.719726],[2.548082,41.719574]]]]}},{"type":"Feature","id":"171463_171463 AP04 SEL 3","properties":{"area_id":"171463_171463 AP04 SEL 3","nom":"Ca n'Hoste","codi_icgc":"171463 AP04 SEL 3","categoria":"Àrees de poblament","codi_municipi":"171463","municipi":"Riells i Viabrea","codi_comarca":"34","comarca":"Selva","provincia":"Girona","font":"ICGC Àrees de poblament v3r1 202602"},"geometry":{"type":"MultiPolygon","coordinates":[[[[2.54589,41.735716],[2.545771,41.735712],[2.545633,41.735711],[2.54557,41.735718],[2.545465,41.735746],[2.545365,41.735796],[2.54525,41.73587],[2.545189,41.735724],[2.544837,41.735536],[2.543929,41.735327],[2.54392,41.735343],[2.543833,41.73536],[2.543684,41.735307],[2.543408,41.735349],[2.543366,41.735345],[2.542788,41.735405],[2.542819,41.735542],[2.543086,41.735506],[2.543164,41.735516],[2.543307,41.735579],[2.543494,41.735696],[2.543504,41.735702],[2.543526,41.735698],[2.543635,41.735767],[2.543793,41.735877],[2.543961,41.736022],[2.544017,41.736077],[2.544103,41.736125],[2.544161,41.736157],[2.5443,41.736234],[2.544508,41.736347],[2.544488,41.736366],[2.544468,41.736387],[2.544426,41.73643],[2.544364,41.736494],[2.544217,41.736476],[2.544087,41.736449],[2.543992,41.736427],[2.543929,41.736415],[2.54385,41.736391],[2.543788,41.73637],[2.543733,41.736363],[2.543635,41.73637],[2.543529,41.736391],[2.543514,41.736371],[2.543491,41.73634],[2.543475,41.736316],[2.543452,41.736295],[2.543426,41.736276],[2.543377,41.736253],[2.543338,41.736242],[2.54327,41.73623],[2.543203,41.736221],[2.54313,41.736215],[2.543056,41.736211],[2.543004,41.736211],[2.542931,41.736215],[2.542901,41.736217],[2.542846,41.736278],[2.542863,41.73628],[2.542879,41.736368],[2.542864,41.736435],[2.542836,41.736478],[2.542805,41.736507],[2.542798,41.736514],[2.542771,41.736544],[2.542741,41.736589],[2.542714,41.736659],[2.542621,41.736794],[2.54295,41.736974],[2.543072,41.736948],[2.543126,41.736977],[2.543183,41.737001],[2.543244,41.737019],[2.543308,41.737033],[2.543372,41.73704],[2.543437,41.737042],[2.543502,41.737038],[2.543545,41.737033],[2.543697,41.737012],[2.543768,41.737116],[2.543831,41.737155],[2.543933,41.737197],[2.544064,41.737303],[2.54419,41.737394],[2.544258,41.737444],[2.544298,41.73746],[2.544339,41.737462],[2.544388,41.737458],[2.544392,41.737456],[2.544503,41.737444],[2.544585,41.737502],[2.544608,41.73752],[2.544609,41.737528],[2.544607,41.737538],[2.5446,41.737552],[2.544585,41.737569],[2.54456,41.73759],[2.544532,41.737605],[2.5445,41.737616],[2.544429,41.737633],[2.544285,41.737659],[2.544141,41.737682],[2.544007,41.7377],[2.543872,41.737719],[2.543746,41.73774],[2.54362,41.737766],[2.543556,41.737784],[2.543495,41.737808],[2.543456,41.737827],[2.543407,41.737855],[2.543339,41.737906],[2.543293,41.73795],[2.543178,41.738089],[2.543155,41.738118],[2.543011,41.7383],[2.542986,41.738336],[2.542968,41.738364],[2.542953,41.738383],[2.542929,41.738415],[2.542895,41.738461],[2.542862,41.738508],[2.542844,41.738539],[2.542829,41.738571],[2.542802,41.738635],[2.542787,41.738672],[2.542775,41.738711],[2.542767,41.738754],[2.542758,41.738796],[2.542735,41.738867],[2.542707,41.738938],[2.542691,41.738972],[2.542674,41.739004],[2.542654,41.739029],[2.54263,41.739058],[2.54256,41.73911],[2.542485,41.739155],[2.542459,41.739171],[2.542432,41.739188],[2.542341,41.739233],[2.542163,41.73932],[2.542014,41.739389],[2.542042,41.739416],[2.542069,41.739442],[2.542107,41.739537],[2.542145,41.739698],[2.542166,41.739829],[2.542194,41.739899],[2.542228,41.739952],[2.542282,41.739986],[2.542342,41.740016],[2.542389,41.740026],[2.54246,41.740035],[2.542927,41.739876],[2.543007,41.739917],[2.543164,41.739885],[2.543489,41.739757],[2.543516,41.739747],[2.543579,41.739723],[2.543669,41.739687],[2.543674,41.739684],[2.543713,41.739712],[2.543823,41.739845],[2.543839,41.739898],[2.543718,41.739967],[2.54365,41.740038],[2.543631,41.740116],[2.543652,41.740138],[2.543914,41.740238],[2.543995,41.740269],[2.544072,41.740163],[2.544091,41.740142],[2.544301,41.740251],[2.544684,41.740463],[2.544694,41.740455],[2.544734,41.74042],[2.544976,41.740172],[2.545097,41.740208],[2.545262,41.740278],[2.545271,41.740259],[2.54528,41.74023],[2.545296,41.740201],[2.54533,41.740123],[2.545371,41.740028],[2.545389,41.739986],[2.545417,41.739933],[2.545422,41.739922],[2.545443,41.739889],[2.545535,41.73978],[2.545573,41.739746],[2.545616,41.739712],[2.545717,41.73964],[2.545819,41.73957],[2.54589,41.739526],[2.545977,41.739474],[2.54609,41.739407],[2.546288,41.739289],[2.546372,41.739238],[2.546409,41.739213],[2.546453,41.739184],[2.546497,41.739143],[2.546515,41.739124],[2.546563,41.73907],[2.546634,41.738988],[2.546711,41.738909],[2.546794,41.738833],[2.546855,41.73878],[2.546937,41.738717],[2.547024,41.738658],[2.547116,41.738603],[2.547212,41.738553],[2.547312,41.738508],[2.547341,41.738495],[2.547537,41.738405],[2.547602,41.738378],[2.547626,41.738368],[2.547763,41.738311],[2.547767,41.738309],[2.547838,41.738274],[2.547904,41.738236],[2.547931,41.738216],[2.548318,41.737885],[2.548337,41.737868],[2.548538,41.737686],[2.548543,41.737682],[2.548572,41.737658],[2.548616,41.737621],[2.548646,41.737598],[2.548696,41.737566],[2.548745,41.737535],[2.54879,41.737504],[2.548832,41.73747],[2.548896,41.737405],[2.548958,41.73734],[2.548987,41.737309],[2.54901,41.737285],[2.549062,41.73723],[2.549084,41.737211],[2.54912,41.737185],[2.549159,41.737162],[2.549181,41.737151],[2.54921,41.737135],[2.549262,41.737108],[2.549551,41.736964],[2.549863,41.736848],[2.549811,41.73682],[2.549636,41.736727],[2.549533,41.736659],[2.549346,41.736537],[2.549341,41.73654],[2.549314,41.736559],[2.549292,41.736546],[2.549171,41.736489],[2.548954,41.736366],[2.548699,41.736215],[2.548639,41.736179],[2.548626,41.736171],[2.54833,41.735973],[2.548305,41.735949],[2.548279,41.735926],[2.548248,41.735897],[2.548214,41.73587],[2.548174,41.735845],[2.548134,41.73582],[2.548105,41.735802],[2.548075,41.735783],[2.548045,41.735769],[2.548016,41.735755],[2.54801,41.735721],[2.547997,41.735687],[2.547992,41.73568],[2.547985,41.735676],[2.547864,41.735557],[2.547822,41.735528],[2.547764,41.735489],[2.547729,41.735466],[2.54753,41.735389],[2.547488,41.73542],[2.547417,41.735476],[2.547243,41.735626],[2.547072,41.735777],[2.546883,41.735946],[2.546695,41.736115],[2.546665,41.736133],[2.546646,41.736144],[2.546633,41.736148],[2.546613,41.736151],[2.546594,41.736154],[2.546582,41.736155],[2.546572,41.736154],[2.546554,41.736146],[2.546548,41.736143],[2.546525,41.736132],[2.546517,41.736128],[2.546498,41.736119],[2.546482,41.73611],[2.54652,41.736075],[2.546559,41.73604],[2.546603,41.735998],[2.546644,41.735954],[2.546665,41.735928],[2.546689,41.735888],[2.546699,41.735848],[2.546698,41.735812],[2.54669,41.73578],[2.546678,41.735739],[2.546666,41.735705],[2.546651,41.735654],[2.546632,41.73558],[2.546354,41.735433],[2.545995,41.735748],[2.54589,41.735716]]]]}},{"type":"Feature","id":"171463_171463 AP09 SEL 3","properties":{"area_id":"171463_171463 AP09 SEL 3","nom":"Can Plana","codi_icgc":"171463 AP09 SEL 3","categoria":"Àrees de poblament","codi_municipi":"171463","municipi":"Riells i Viabrea","codi_comarca":"34","comarca":"Selva","provincia":"Girona","font":"ICGC Àrees de poblament v3r1 202602"},"geometry":{"type":"MultiPolygon","coordinates":[[[[2.543012,41.73148],[2.543061,41.73145],[2.543048,41.731364],[2.543156,41.731308],[2.543319,41.731201],[2.543499,41.731095],[2.543567,41.731041],[2.543648,41.730914],[2.543865,41.730606],[2.543977,41.730458],[2.544098,41.730241],[2.544115,41.73016],[2.544119,41.730074],[2.544096,41.729964],[2.543972,41.729507],[2.54391,41.729334],[2.543894,41.729251],[2.543923,41.729158],[2.543984,41.729004],[2.54404,41.728897],[2.544149,41.728718],[2.544486,41.728241],[2.544635,41.728051],[2.544695,41.727967],[2.544731,41.727875],[2.544829,41.72761],[2.54493,41.727361],[2.54495,41.727259],[2.544971,41.727164],[2.544967,41.727102],[2.544917,41.727054],[2.544901,41.727039],[2.54488,41.727019],[2.544802,41.726953],[2.544692,41.726861],[2.54453,41.726728],[2.544474,41.726675],[2.544307,41.726483],[2.544112,41.726263],[2.544079,41.726225],[2.543884,41.726024],[2.543841,41.725979],[2.543743,41.725881],[2.543668,41.725807],[2.543424,41.725543],[2.543342,41.725447],[2.543274,41.725366],[2.543128,41.725208],[2.543059,41.725149],[2.54305,41.725144],[2.54296,41.725091],[2.542881,41.725045],[2.542758,41.724989],[2.542658,41.724982],[2.542597,41.724993],[2.542513,41.725026],[2.54252,41.725002],[2.542585,41.724801],[2.542591,41.724784],[2.542507,41.724816],[2.542413,41.724855],[2.542329,41.724837],[2.542036,41.724773],[2.541832,41.725043],[2.541712,41.725714],[2.540655,41.726711],[2.540577,41.726871],[2.540505,41.726967],[2.54048,41.727002],[2.540421,41.727085],[2.540391,41.727142],[2.540391,41.727182],[2.540402,41.727224],[2.54041,41.727257],[2.5405,41.727465],[2.540507,41.72748],[2.540603,41.727738],[2.540638,41.727908],[2.540642,41.727928],[2.540684,41.728053],[2.540768,41.728234],[2.540788,41.728279],[2.540839,41.728389],[2.54086,41.728433],[2.54087,41.728453],[2.540889,41.728493],[2.540894,41.728556],[2.540894,41.72856],[2.540883,41.728625],[2.540864,41.728686],[2.540844,41.728748],[2.540777,41.728856],[2.540729,41.728916],[2.540666,41.728961],[2.540651,41.728969],[2.540623,41.728982],[2.540581,41.728988],[2.540413,41.729029],[2.540406,41.729031],[2.540391,41.729034],[2.540327,41.729059],[2.540274,41.729095],[2.540237,41.729132],[2.540225,41.729151],[2.540207,41.729178],[2.540196,41.729195],[2.540123,41.729308],[2.540036,41.729442],[2.540029,41.729455],[2.539941,41.729636],[2.539933,41.729654],[2.53981,41.729922],[2.539809,41.729927],[2.539731,41.730078],[2.539647,41.730193],[2.539634,41.730211],[2.539626,41.730222],[2.53958,41.730281],[2.539508,41.730331],[2.539313,41.730428],[2.539271,41.73045],[2.539266,41.730453],[2.539238,41.730472],[2.539224,41.730501],[2.539202,41.730583],[2.539203,41.730633],[2.539231,41.730673],[2.539248,41.730695],[2.539265,41.730717],[2.53942,41.730899],[2.539452,41.730924],[2.53949,41.730958],[2.539738,41.731229],[2.539819,41.731269],[2.539852,41.731315],[2.539882,41.731364],[2.539899,41.731404],[2.539914,41.731466],[2.53992,41.731528],[2.539917,41.731586],[2.539905,41.731644],[2.539892,41.731681],[2.539865,41.731734],[2.539831,41.731785],[2.539805,41.731817],[2.539784,41.73184],[2.539747,41.73187],[2.539726,41.731882],[2.539702,41.731891],[2.53961,41.731919],[2.539518,41.731947],[2.539472,41.731929],[2.539426,41.73191],[2.539366,41.731892],[2.539303,41.731881],[2.539222,41.731874],[2.539141,41.731872],[2.539036,41.731873],[2.538932,41.731878],[2.538868,41.731882],[2.538804,41.731892],[2.538762,41.731901],[2.538736,41.731908],[2.538719,41.731915],[2.538712,41.731918],[2.538667,41.731944],[2.538639,41.731964],[2.538597,41.731999],[2.538563,41.732037],[2.538545,41.732065],[2.538523,41.73211],[2.538506,41.732155],[2.538492,41.732198],[2.538485,41.732219],[2.53847,41.732284],[2.538461,41.732355],[2.538462,41.732425],[2.538465,41.732469],[2.538469,41.732515],[2.538479,41.732604],[2.538498,41.732748],[2.538517,41.732892],[2.53852,41.732918],[2.538529,41.733008],[2.538537,41.733124],[2.538538,41.733196],[2.538535,41.733229],[2.538532,41.733268],[2.538523,41.733311],[2.538506,41.733352],[2.538489,41.733378],[2.538452,41.733427],[2.538414,41.733476],[2.538389,41.733508],[2.538363,41.73354],[2.538316,41.733591],[2.538267,41.733641],[2.538231,41.733667],[2.538224,41.733672],[2.538195,41.733694],[2.538168,41.733727],[2.538148,41.733762],[2.53814,41.733786],[2.538133,41.733821],[2.538128,41.73384],[2.538118,41.733895],[2.538108,41.733948],[2.538103,41.733985],[2.5381,41.734001],[2.538098,41.734068],[2.538106,41.734135],[2.53811,41.734153],[2.538127,41.734234],[2.538148,41.734333],[2.538152,41.73435],[2.538177,41.734467],[2.538205,41.734601],[2.538214,41.734656],[2.53822,41.734712],[2.538221,41.734824],[2.538217,41.734859],[2.538207,41.734894],[2.538201,41.734909],[2.538197,41.734916],[2.538161,41.734979],[2.538125,41.735041],[2.538089,41.735108],[2.53793,41.735193],[2.537985,41.735288],[2.537996,41.735308],[2.537955,41.735412],[2.537934,41.735458],[2.537913,41.735496],[2.537885,41.735532],[2.537844,41.735574],[2.537798,41.735614],[2.537738,41.735662],[2.537689,41.735702],[2.537579,41.735788],[2.53746,41.735875],[2.537299,41.73597],[2.537274,41.735984],[2.537261,41.735989],[2.53723,41.736001],[2.537199,41.736014],[2.537147,41.736038],[2.537133,41.736045],[2.537097,41.736063],[2.537085,41.736069],[2.536987,41.736121],[2.537099,41.736248],[2.537185,41.736345],[2.537255,41.736417],[2.537298,41.736461],[2.537603,41.73624],[2.537656,41.736202],[2.537697,41.736169],[2.537874,41.736034],[2.538052,41.735901],[2.538144,41.735831],[2.538237,41.73576],[2.53827,41.735733],[2.538305,41.7357],[2.538322,41.73568],[2.538332,41.735666],[2.538377,41.735697],[2.538408,41.735673],[2.538601,41.735529],[2.538681,41.735576],[2.538785,41.735708],[2.538876,41.735891],[2.538926,41.735931],[2.538978,41.735943],[2.538944,41.736063],[2.538914,41.73615],[2.539346,41.736221],[2.539468,41.736297],[2.539637,41.736404],[2.539714,41.736449],[2.539842,41.736518],[2.539898,41.736511],[2.54002,41.736487],[2.540116,41.736472],[2.540262,41.736449],[2.540374,41.736428],[2.540525,41.736379],[2.540555,41.736366],[2.540617,41.736336],[2.54071,41.73628],[2.540797,41.736225],[2.540853,41.736188],[2.54098,41.736102],[2.541039,41.73606],[2.541105,41.736012],[2.541227,41.735914],[2.541342,41.735811],[2.54144,41.735717],[2.541463,41.735696],[2.541581,41.73558],[2.541629,41.735531],[2.541679,41.73548],[2.541712,41.735438],[2.541721,41.735424],[2.541738,41.735421],[2.541834,41.735414],[2.541843,41.735412],[2.54187,41.735411],[2.541899,41.735408],[2.54227,41.73538],[2.542286,41.735374],[2.54228,41.73534],[2.542275,41.735277],[2.542259,41.735044],[2.542306,41.734911],[2.542351,41.734598],[2.542417,41.734364],[2.542361,41.734158],[2.542318,41.734001],[2.542336,41.733991],[2.542349,41.733978],[2.542356,41.733961],[2.542357,41.733944],[2.542354,41.733936],[2.54232,41.733819],[2.542294,41.733665],[2.542269,41.733511],[2.542245,41.733368],[2.542222,41.733225],[2.542195,41.733081],[2.542168,41.73294],[2.542159,41.732866],[2.542158,41.732791],[2.542168,41.732667],[2.542188,41.732542],[2.542209,41.73244],[2.542231,41.732337],[2.542436,41.732399],[2.542656,41.732111],[2.542661,41.732104],[2.542436,41.731978],[2.542716,41.731687],[2.543012,41.73148]]]]}},{"type":"Feature","id":"171463_171463 AP01 SEL 3","properties":{"area_id":"171463_171463 AP01 SEL 3","nom":"Can Salvà","codi_icgc":"171463 AP01 SEL 3","categoria":"Àrees de poblament","codi_municipi":"171463","municipi":"Riells i Viabrea","codi_comarca":"34","comarca":"Selva","provincia":"Girona","font":"ICGC Àrees de poblament v3r1 202602"},"geometry":{"type":"MultiPolygon","coordinates":[[[[2.555598,41.723972],[2.555102,41.724191],[2.555108,41.724211],[2.555089,41.724219],[2.555076,41.724226],[2.554984,41.724277],[2.554954,41.724267],[2.554902,41.724333],[2.554319,41.72464],[2.553634,41.724804],[2.552901,41.72498],[2.552344,41.725151],[2.552008,41.725376],[2.55144,41.725797],[2.550705,41.726294],[2.550237,41.726623],[2.550208,41.726643],[2.551493,41.726966],[2.55154,41.726979],[2.551627,41.727002],[2.551898,41.727076],[2.551971,41.727096],[2.552405,41.727195],[2.552469,41.727184],[2.552576,41.727138],[2.552801,41.727021],[2.553368,41.726728],[2.554139,41.726343],[2.554503,41.726163],[2.554682,41.726143],[2.555066,41.725941],[2.555547,41.725691],[2.55562,41.725659],[2.555726,41.725619],[2.555836,41.725585],[2.555949,41.725555],[2.556064,41.725532],[2.55618,41.725514],[2.556298,41.725501],[2.556417,41.725494],[2.556614,41.725506],[2.556674,41.725528],[2.55669,41.725534],[2.556613,41.72566],[2.556606,41.725674],[2.556583,41.725712],[2.556565,41.72574],[2.556469,41.725903],[2.556394,41.725894],[2.556312,41.72589],[2.55623,41.725891],[2.556148,41.725898],[2.556068,41.725911],[2.555989,41.72593],[2.555914,41.725953],[2.555641,41.726107],[2.555615,41.726124],[2.555569,41.726159],[2.555529,41.726198],[2.555494,41.72624],[2.555467,41.726285],[2.555447,41.726332],[2.555434,41.72638],[2.555429,41.726429],[2.555432,41.726478],[2.555442,41.726527],[2.555444,41.726535],[2.555453,41.726567],[2.555475,41.726603],[2.55542,41.726617],[2.555493,41.726851],[2.555525,41.727013],[2.555593,41.72736],[2.555649,41.727372],[2.55564,41.727399],[2.555637,41.727433],[2.555642,41.727466],[2.555654,41.727498],[2.555805,41.727704],[2.55583,41.727737],[2.555873,41.727785],[2.555922,41.727829],[2.555978,41.727869],[2.556352,41.728133],[2.556361,41.72814],[2.556383,41.728157],[2.556398,41.728176],[2.556407,41.728198],[2.556408,41.728221],[2.556402,41.728243],[2.5564,41.728245],[2.5562,41.728185],[2.555896,41.7281],[2.555786,41.728233],[2.55568,41.728361],[2.555678,41.728364],[2.555596,41.728452],[2.555584,41.728465],[2.555548,41.728503],[2.555413,41.728648],[2.555286,41.728785],[2.555281,41.728792],[2.555134,41.728987],[2.55509,41.728971],[2.554993,41.729136],[2.554958,41.729124],[2.554913,41.729187],[2.554908,41.729194],[2.554852,41.729271],[2.554842,41.729284],[2.55484,41.729288],[2.554825,41.729286],[2.554829,41.729423],[2.55488,41.729697],[2.554882,41.729707],[2.554844,41.729777],[2.554848,41.729821],[2.554845,41.729821],[2.554847,41.729914],[2.554362,41.729972],[2.553912,41.729985],[2.553849,41.729988],[2.55363,41.729999],[2.55301,41.730037],[2.553007,41.730037],[2.552429,41.730105],[2.552404,41.730112],[2.550563,41.731277],[2.550586,41.7313],[2.550615,41.731328],[2.550645,41.731358],[2.550747,41.731453],[2.550805,41.731507],[2.550932,41.731503],[2.551097,41.731456],[2.55112,41.731466],[2.551147,41.731474],[2.551165,41.731476],[2.551187,41.731475],[2.551216,41.731466],[2.551271,41.731443],[2.551289,41.731434],[2.551309,41.731418],[2.551333,41.731393],[2.551353,41.731362],[2.551371,41.731311],[2.551389,41.73126],[2.551399,41.731224],[2.551409,41.731204],[2.551421,41.731188],[2.551455,41.731156],[2.551487,41.731127],[2.551535,41.731097],[2.551611,41.73105],[2.551637,41.731036],[2.55168,41.731019],[2.551726,41.731011],[2.551827,41.731002],[2.551928,41.730993],[2.552022,41.730984],[2.552117,41.730975],[2.552154,41.730969],[2.552206,41.730951],[2.552256,41.730927],[2.552314,41.730889],[2.55234,41.730868],[2.552361,41.730844],[2.552417,41.73077],[2.55245,41.730725],[2.552472,41.730696],[2.552541,41.730604],[2.552609,41.730512],[2.552629,41.730489],[2.552665,41.730458],[2.552708,41.730429],[2.552751,41.730408],[2.552775,41.7304],[2.552799,41.730395],[2.552837,41.73039],[2.552894,41.730388],[2.552928,41.730391],[2.552951,41.730393],[2.553079,41.730415],[2.553207,41.730437],[2.553389,41.730469],[2.553572,41.7305],[2.553641,41.73051],[2.553746,41.730521],[2.553851,41.730528],[2.553913,41.730529],[2.554006,41.730524],[2.554098,41.730512],[2.554162,41.7305],[2.554254,41.730477],[2.554345,41.730449],[2.554422,41.730419],[2.5545,41.730387],[2.554549,41.730371],[2.554599,41.730361],[2.554612,41.730362],[2.554624,41.730367],[2.554632,41.730376],[2.554632,41.730385],[2.554603,41.730419],[2.554568,41.73045],[2.554473,41.730527],[2.554374,41.730602],[2.554267,41.730678],[2.554155,41.730751],[2.553976,41.730855],[2.553928,41.730883],[2.553893,41.730903],[2.553744,41.730737],[2.553128,41.730841],[2.55302,41.730853],[2.552956,41.730875],[2.552863,41.73091],[2.552794,41.730947],[2.552756,41.730988],[2.552744,41.731026],[2.552749,41.731061],[2.552791,41.731129],[2.552895,41.73129],[2.552946,41.731384],[2.552974,41.731392],[2.552954,41.731399],[2.552928,41.731446],[2.55292,41.731464],[2.552907,41.731497],[2.5529,41.731535],[2.5529,41.73154],[2.552899,41.731579],[2.552904,41.731613],[2.552908,41.731627],[2.552913,41.731645],[2.552952,41.731729],[2.552956,41.731734],[2.552762,41.732021],[2.553171,41.732098],[2.553582,41.732032],[2.553713,41.732011],[2.554055,41.731956],[2.554266,41.73209],[2.554318,41.732112],[2.554322,41.732114],[2.55434,41.732108],[2.554464,41.732085],[2.554546,41.732031],[2.554568,41.732017],[2.55463,41.731949],[2.554689,41.731885],[2.554766,41.731802],[2.554981,41.731715],[2.554996,41.73171],[2.555117,41.731661],[2.555145,41.731523],[2.555156,41.731518],[2.555348,41.731418],[2.555552,41.731312],[2.555581,41.731298],[2.555832,41.73118],[2.556087,41.73106],[2.556265,41.730928],[2.556351,41.730865],[2.556365,41.730852],[2.556424,41.730798],[2.556548,41.73075],[2.556638,41.730723],[2.556701,41.730719],[2.556829,41.730722],[2.556914,41.730724],[2.557174,41.730705],[2.55723,41.730701],[2.557452,41.730684],[2.557499,41.730637],[2.557526,41.730628],[2.557518,41.730618],[2.557598,41.730537],[2.557693,41.730442],[2.557718,41.730433],[2.557769,41.730414],[2.557902,41.730365],[2.557931,41.73035],[2.557992,41.73032],[2.558038,41.730298],[2.558141,41.730245],[2.558188,41.730223],[2.558366,41.730134],[2.558686,41.729847],[2.558689,41.729843],[2.558731,41.729785],[2.558836,41.729627],[2.558876,41.729554],[2.558899,41.729518],[2.558942,41.729473],[2.55895,41.729465],[2.559181,41.729194],[2.559186,41.729189],[2.559196,41.729176],[2.559242,41.729114],[2.559279,41.729028],[2.559302,41.728906],[2.559318,41.728816],[2.559323,41.728789],[2.559329,41.728756],[2.559347,41.728704],[2.559352,41.728693],[2.559371,41.728658],[2.559492,41.728518],[2.559503,41.728493],[2.559526,41.728436],[2.55955,41.72824],[2.559635,41.728089],[2.559636,41.728086],[2.559652,41.728095],[2.559701,41.727973],[2.559747,41.727891],[2.559747,41.727914],[2.559788,41.727839],[2.559821,41.727795],[2.559807,41.727785],[2.559359,41.727505],[2.558769,41.727197],[2.558942,41.727049],[2.558967,41.727023],[2.55898,41.726964],[2.559309,41.726528],[2.559378,41.726427],[2.559565,41.726491],[2.55962,41.726497],[2.559705,41.72636],[2.559305,41.726218],[2.559378,41.726118],[2.559738,41.725594],[2.559778,41.725538],[2.559822,41.725474],[2.558866,41.725094],[2.558441,41.724965],[2.55841,41.72495],[2.558359,41.724929],[2.558283,41.724901],[2.558187,41.724866],[2.55806,41.724819],[2.558015,41.724803],[2.5579,41.724762],[2.557717,41.724696],[2.557535,41.724631],[2.556663,41.724298],[2.556525,41.724246],[2.555714,41.723943],[2.555598,41.723972]]]]}},{"type":"Feature","id":"171463_171463 AP06 SEL 3","properties":{"area_id":"171463_171463 AP06 SEL 3","nom":"Fogueres de Montsoriu","codi_icgc":"171463 AP06 SEL 3","categoria":"Àrees de poblament","codi_municipi":"171463","municipi":"Riells i Viabrea","codi_comarca":"34","comarca":"Selva","provincia":"Girona","font":"ICGC Àrees de poblament v3r1 202602"},"geometry":{"type":"MultiPolygon","coordinates":[[[[2.526174,41.779397],[2.526112,41.779359],[2.525998,41.779318],[2.525918,41.779303],[2.5257,41.779258],[2.525545,41.779229],[2.525479,41.779218],[2.525438,41.779211],[2.5254,41.779195],[2.52537,41.779182],[2.525329,41.779174],[2.52526,41.779159],[2.525087,41.779143],[2.52496,41.779131],[2.524833,41.779108],[2.524784,41.7791],[2.524673,41.779108],[2.524638,41.779113],[2.524562,41.779127],[2.524496,41.77914],[2.52441,41.77915],[2.524355,41.779148],[2.524256,41.779142],[2.524177,41.779134],[2.524084,41.779128],[2.524052,41.779127],[2.523988,41.77914],[2.523934,41.779163],[2.523903,41.779207],[2.523757,41.779225],[2.523756,41.779228],[2.523716,41.77923],[2.523648,41.779301],[2.523619,41.779375],[2.523569,41.7795],[2.523508,41.779654],[2.523472,41.77972],[2.523436,41.779785],[2.52342,41.779812],[2.523403,41.779838],[2.523362,41.779888],[2.523331,41.77992],[2.523286,41.77996],[2.523248,41.779989],[2.523209,41.780016],[2.523074,41.780103],[2.523045,41.780122],[2.523013,41.780143],[2.522958,41.780181],[2.522904,41.780219],[2.522778,41.780304],[2.522587,41.780434],[2.522578,41.78044],[2.521989,41.780937],[2.521906,41.781033],[2.521895,41.781046],[2.52184,41.781087],[2.521783,41.781136],[2.521483,41.78139],[2.521137,41.781506],[2.520945,41.781534],[2.520833,41.781551],[2.520743,41.781564],[2.520522,41.781596],[2.520232,41.781638],[2.519844,41.781694],[2.519768,41.781709],[2.519647,41.781736],[2.519564,41.781753],[2.519265,41.781775],[2.51928,41.78172],[2.519301,41.781678],[2.519376,41.781522],[2.519414,41.781428],[2.519418,41.781418],[2.519422,41.781408],[2.519202,41.781391],[2.519137,41.781382],[2.519147,41.781356],[2.519195,41.781226],[2.519155,41.781191],[2.519121,41.781185],[2.519086,41.781178],[2.519007,41.781162],[2.518923,41.781156],[2.51887,41.781152],[2.518829,41.781157],[2.518751,41.781167],[2.518625,41.781183],[2.518266,41.781329],[2.518262,41.781334],[2.518262,41.78134],[2.51828,41.781365],[2.518279,41.781373],[2.518275,41.781379],[2.518205,41.78141],[2.518104,41.781454],[2.518056,41.781476],[2.518003,41.781507],[2.51798,41.781533],[2.517955,41.781594],[2.517943,41.781638],[2.517933,41.781682],[2.517918,41.781789],[2.517911,41.781849],[2.517905,41.781895],[2.5179,41.781958],[2.517898,41.782025],[2.517903,41.782055],[2.517918,41.782084],[2.517953,41.78213],[2.517995,41.782166],[2.518045,41.782194],[2.518087,41.782207],[2.518202,41.782227],[2.518314,41.782241],[2.518509,41.78226],[2.518578,41.782267],[2.518827,41.782289],[2.518814,41.782428],[2.518804,41.782541],[2.518656,41.782734],[2.518489,41.782939],[2.518494,41.782967],[2.518497,41.782987],[2.519032,41.783049],[2.519065,41.783053],[2.5192,41.783069],[2.519406,41.783101],[2.519383,41.783115],[2.5192,41.78318],[2.51911,41.783209],[2.519069,41.783226],[2.519059,41.783235],[2.519072,41.78325],[2.519207,41.7833],[2.51973,41.78343],[2.520192,41.783225],[2.520426,41.782655],[2.520364,41.78259],[2.520479,41.782533],[2.520589,41.782487],[2.520643,41.782472],[2.520675,41.782463],[2.520697,41.782466],[2.520737,41.782474],[2.520748,41.782478],[2.520777,41.7825],[2.520813,41.782561],[2.520872,41.782712],[2.520928,41.782855],[2.520969,41.782955],[2.521037,41.783125],[2.521077,41.783228],[2.521117,41.783278],[2.521146,41.783296],[2.521217,41.783332],[2.521264,41.783352],[2.521338,41.783378],[2.521355,41.78339],[2.521376,41.783357],[2.521582,41.783043],[2.52164,41.782955],[2.521933,41.783068],[2.522237,41.782626],[2.522259,41.782595],[2.522322,41.782619],[2.522427,41.78266],[2.522434,41.782662],[2.52272,41.782775],[2.522929,41.782857],[2.522952,41.782825],[2.523048,41.782685],[2.523068,41.782656],[2.523074,41.782648],[2.523098,41.782613],[2.523228,41.782426],[2.523465,41.782521],[2.523577,41.782394],[2.523676,41.782275],[2.523788,41.782141],[2.523819,41.782104],[2.523836,41.782077],[2.523948,41.782118],[2.524101,41.782179],[2.52422,41.782212],[2.524352,41.78222],[2.5245,41.782211],[2.524827,41.782161],[2.525214,41.782087],[2.525508,41.782021],[2.525901,41.781947],[2.525965,41.781933],[2.526142,41.781893],[2.526337,41.781856],[2.526536,41.781826],[2.526626,41.781824],[2.526717,41.781824],[2.52678,41.781819],[2.526841,41.781808],[2.526876,41.781796],[2.526897,41.781786],[2.526908,41.78178],[2.526939,41.781761],[2.526966,41.781739],[2.527004,41.781698],[2.527038,41.781655],[2.527116,41.781548],[2.527119,41.781543],[2.527191,41.781488],[2.527216,41.78147],[2.527275,41.781413],[2.527303,41.781352],[2.527297,41.781308],[2.527286,41.781222],[2.527262,41.781102],[2.527244,41.781013],[2.527228,41.780932],[2.527212,41.780854],[2.527195,41.780772],[2.527181,41.780696],[2.527167,41.780623],[2.527144,41.780498],[2.527112,41.780373],[2.5271,41.780327],[2.527059,41.780227],[2.527019,41.780157],[2.526955,41.78009],[2.526883,41.780011],[2.52684,41.779956],[2.526784,41.779881],[2.526739,41.779818],[2.526702,41.779763],[2.526671,41.779715],[2.526641,41.779695],[2.526576,41.779653],[2.526532,41.779627],[2.526465,41.779587],[2.526424,41.779559],[2.526251,41.779445],[2.526174,41.779397]]]]}},{"type":"Feature","id":"171463_171463 AP07 SEL 3","properties":{"area_id":"171463_171463 AP07 SEL 3","nom":"Junior Park","codi_icgc":"171463 AP07 SEL 3","categoria":"Àrees de poblament","codi_municipi":"171463","municipi":"Riells i Viabrea","codi_comarca":"34","comarca":"Selva","provincia":"Girona","font":"ICGC Àrees de poblament v3r1 202602"},"geometry":{"type":"MultiPolygon","coordinates":[[[[2.533153,41.735163],[2.53318,41.735307],[2.533282,41.735692],[2.53329,41.735691],[2.533343,41.735683],[2.53342,41.73567],[2.533498,41.735658],[2.533643,41.735634],[2.533788,41.735609],[2.533901,41.735588],[2.534014,41.735566],[2.534147,41.735543],[2.53428,41.735521],[2.534413,41.735497],[2.534546,41.735473],[2.534674,41.735451],[2.534801,41.735431],[2.534946,41.735414],[2.535018,41.735406],[2.53509,41.735396],[2.535215,41.735372],[2.53534,41.735346],[2.53549,41.735314],[2.535641,41.73528],[2.535747,41.735252],[2.535853,41.735222],[2.535952,41.735198],[2.536053,41.735179],[2.536144,41.735169],[2.536236,41.735162],[2.536368,41.735159],[2.5365,41.735157],[2.53667,41.73516],[2.536839,41.735162],[2.536981,41.73516],[2.536995,41.73516],[2.537151,41.735153],[2.537237,41.735147],[2.537323,41.735137],[2.537369,41.735127],[2.537412,41.735109],[2.537443,41.735091],[2.537455,41.735081],[2.537462,41.735075],[2.537468,41.735068],[2.537473,41.735061],[2.537477,41.735044],[2.537476,41.735024],[2.537514,41.735036],[2.537553,41.735047],[2.537604,41.73506],[2.537655,41.735072],[2.537764,41.735103],[2.537874,41.735135],[2.537899,41.735141],[2.537924,41.735148],[2.537933,41.735149],[2.537942,41.735147],[2.537959,41.735138],[2.537973,41.735126],[2.537981,41.735115],[2.537991,41.73509],[2.538006,41.735052],[2.538021,41.735014],[2.538039,41.734978],[2.538049,41.734956],[2.538056,41.734941],[2.538079,41.734888],[2.538096,41.734833],[2.538101,41.734805],[2.538103,41.734777],[2.538097,41.734721],[2.538083,41.734646],[2.538067,41.734584],[2.538064,41.73457],[2.538029,41.73446],[2.537991,41.73435],[2.537969,41.734298],[2.537943,41.734246],[2.537934,41.73423],[2.537938,41.734196],[2.537942,41.734162],[2.537949,41.734113],[2.537958,41.734064],[2.537974,41.734013],[2.537992,41.733962],[2.538019,41.733846],[2.538026,41.733818],[2.538033,41.733787],[2.538048,41.733729],[2.538076,41.733645],[2.538104,41.733561],[2.53812,41.733502],[2.538137,41.733442],[2.538163,41.733405],[2.5382,41.73335],[2.538279,41.733204],[2.538316,41.733122],[2.538332,41.733086],[2.538352,41.732997],[2.538357,41.732925],[2.538361,41.732874],[2.538358,41.732751],[2.538357,41.732685],[2.538356,41.732566],[2.538353,41.73248],[2.538365,41.732349],[2.538367,41.73234],[2.53841,41.732137],[2.538386,41.732125],[2.538434,41.73203],[2.53846,41.73198],[2.538511,41.731896],[2.538561,41.731827],[2.538606,41.731791],[2.538659,41.731768],[2.53869,41.731762],[2.538708,41.731744],[2.538716,41.731712],[2.538763,41.731719],[2.538987,41.731755],[2.539005,41.731758],[2.539176,41.731786],[2.539237,41.731796],[2.539445,41.731828],[2.539511,41.731837],[2.539516,41.731814],[2.539533,41.731747],[2.539601,41.73148],[2.539592,41.731479],[2.539618,41.731419],[2.539425,41.731381],[2.539174,41.731326],[2.539258,41.73101],[2.539189,41.730999],[2.539113,41.730987],[2.539072,41.730962],[2.539057,41.730932],[2.539054,41.730906],[2.539052,41.730881],[2.539043,41.730751],[2.539043,41.730718],[2.539043,41.730648],[2.539054,41.730578],[2.539098,41.730446],[2.539242,41.730358],[2.539413,41.730268],[2.539462,41.730226],[2.539505,41.730163],[2.539587,41.730019],[2.539703,41.729816],[2.539764,41.729692],[2.539871,41.729474],[2.539877,41.729465],[2.539961,41.729336],[2.540072,41.729195],[2.540108,41.72915],[2.540187,41.72905],[2.540238,41.729004],[2.540292,41.728958],[2.540334,41.728943],[2.540464,41.728912],[2.540596,41.728881],[2.540664,41.728847],[2.540703,41.728813],[2.54072,41.728798],[2.540753,41.728726],[2.540766,41.728655],[2.540759,41.72858],[2.540715,41.728481],[2.540711,41.728475],[2.540658,41.728389],[2.54061,41.728249],[2.540575,41.728151],[2.540473,41.728153],[2.540348,41.728156],[2.540368,41.727989],[2.540281,41.727975],[2.54013,41.727949],[2.540115,41.727947],[2.539978,41.727933],[2.539964,41.727932],[2.53995,41.72793],[2.539941,41.727926],[2.539935,41.727918],[2.539935,41.727909],[2.539936,41.727905],[2.53994,41.727891],[2.539948,41.727872],[2.539955,41.727858],[2.539967,41.727833],[2.539985,41.727794],[2.540019,41.727717],[2.540038,41.727673],[2.540052,41.72764],[2.540063,41.727608],[2.540069,41.727575],[2.540071,41.727437],[2.540076,41.727321],[2.540074,41.727248],[2.540074,41.727176],[2.540081,41.72714],[2.540092,41.727104],[2.540125,41.727035],[2.540148,41.72699],[2.540201,41.726888],[2.540263,41.726789],[2.540333,41.726692],[2.540409,41.726599],[2.540465,41.72654],[2.540547,41.726465],[2.540598,41.726425],[2.540645,41.72639],[2.540693,41.726357],[2.540789,41.726291],[2.540846,41.726254],[2.540902,41.726216],[2.540928,41.726193],[2.54095,41.726167],[2.540986,41.72611],[2.541013,41.726075],[2.541033,41.726057],[2.541084,41.726018],[2.541135,41.72598],[2.541178,41.725907],[2.541259,41.725767],[2.541279,41.725734],[2.541303,41.725677],[2.54132,41.725602],[2.541322,41.725566],[2.541323,41.725531],[2.541317,41.725436],[2.541315,41.725392],[2.541313,41.725347],[2.541328,41.725264],[2.541345,41.725202],[2.541415,41.724957],[2.541018,41.724883],[2.541048,41.724824],[2.541065,41.72479],[2.54107,41.724781],[2.541078,41.724765],[2.541086,41.72475],[2.541137,41.724653],[2.541166,41.724603],[2.541203,41.724556],[2.541209,41.72455],[2.54124,41.72452],[2.541842,41.724652],[2.541914,41.724661],[2.541983,41.724595],[2.54207,41.724528],[2.542015,41.724508],[2.542181,41.724366],[2.542341,41.724403],[2.54236,41.724429],[2.542365,41.724438],[2.542396,41.724404],[2.542407,41.724395],[2.542549,41.724311],[2.542691,41.724225],[2.542846,41.724123],[2.542999,41.72402],[2.543073,41.72397],[2.543145,41.723919],[2.543185,41.723885],[2.543225,41.72385],[2.543295,41.72379],[2.543365,41.72373],[2.543426,41.723688],[2.54349,41.723648],[2.543545,41.723613],[2.543599,41.723579],[2.543709,41.72351],[2.54382,41.72344],[2.543899,41.723388],[2.543977,41.723335],[2.544055,41.723287],[2.544138,41.723245],[2.544201,41.723217],[2.544261,41.723192],[2.544263,41.72319],[2.544284,41.723161],[2.544367,41.723142],[2.544479,41.722894],[2.543981,41.721787],[2.543975,41.721774],[2.543965,41.721778],[2.543945,41.721761],[2.543871,41.721647],[2.543708,41.721313],[2.543687,41.721259],[2.543438,41.721269],[2.543407,41.721278],[2.543275,41.721312],[2.543139,41.721341],[2.542958,41.721379],[2.542821,41.721405],[2.542719,41.721423],[2.542564,41.721444],[2.542408,41.721459],[2.542209,41.721468],[2.542009,41.721476],[2.541466,41.721491],[2.541195,41.721499],[2.540923,41.72151],[2.540362,41.721538],[2.540194,41.721546],[2.539599,41.721577],[2.539547,41.72158],[2.539397,41.721589],[2.539189,41.721603],[2.538878,41.721629],[2.538567,41.721657],[2.538369,41.721678],[2.538172,41.721702],[2.538008,41.721725],[2.537846,41.721751],[2.537737,41.721771],[2.537684,41.721783],[2.537631,41.721798],[2.537601,41.721811],[2.537562,41.721835],[2.537526,41.721864],[2.537442,41.721938],[2.53732,41.722053],[2.537262,41.722112],[2.537207,41.722173],[2.537129,41.722271],[2.537057,41.722371],[2.536966,41.722511],[2.536882,41.722654],[2.536832,41.722756],[2.536793,41.72286],[2.536787,41.722883],[2.536762,41.722977],[2.536747,41.723039],[2.536734,41.723094],[2.536704,41.723195],[2.536685,41.723245],[2.536663,41.723294],[2.536644,41.723323],[2.536608,41.723362],[2.536563,41.723396],[2.53648,41.723447],[2.536428,41.723476],[2.536395,41.723495],[2.536265,41.723561],[2.536063,41.723653],[2.535963,41.723701],[2.535866,41.723752],[2.535825,41.723779],[2.53577,41.723824],[2.535765,41.723829],[2.535724,41.723874],[2.535657,41.723964],[2.535593,41.724056],[2.535517,41.724168],[2.535466,41.724243],[2.535342,41.724431],[2.535294,41.724504],[2.535245,41.724581],[2.535147,41.724731],[2.535075,41.724859],[2.53503,41.72495],[2.53499,41.725073],[2.534937,41.725337],[2.534921,41.725456],[2.534889,41.72561],[2.534873,41.725665],[2.534828,41.725925],[2.534833,41.725988],[2.534841,41.726094],[2.534841,41.726096],[2.534838,41.72611],[2.534785,41.726301],[2.534754,41.726369],[2.534703,41.726478],[2.534697,41.72649],[2.534658,41.726629],[2.534526,41.727023],[2.534515,41.727097],[2.534494,41.72716],[2.534485,41.7272],[2.534481,41.727241],[2.534481,41.727268],[2.534486,41.727339],[2.534492,41.727409],[2.5345,41.727495],[2.534508,41.727582],[2.534509,41.727618],[2.534506,41.727653],[2.534491,41.727724],[2.534462,41.727815],[2.534426,41.727904],[2.534376,41.728009],[2.534375,41.728012],[2.534319,41.72812],[2.534225,41.728286],[2.534132,41.728452],[2.534059,41.72859],[2.533993,41.728729],[2.533957,41.728824],[2.53393,41.728908],[2.533902,41.728992],[2.533879,41.729055],[2.533857,41.729118],[2.533844,41.72915],[2.533821,41.729195],[2.533819,41.729198],[2.533792,41.729246],[2.533772,41.729276],[2.533737,41.729317],[2.533695,41.729356],[2.533636,41.7294],[2.53357,41.729438],[2.533459,41.729492],[2.533344,41.729541],[2.533279,41.729564],[2.533175,41.729596],[2.533071,41.729631],[2.533013,41.729652],[2.532982,41.729666],[2.532954,41.729684],[2.532914,41.729719],[2.532882,41.729754],[2.532829,41.729814],[2.532776,41.729874],[2.532723,41.729934],[2.532672,41.729997],[2.53264,41.73004],[2.532599,41.730105],[2.532563,41.73017],[2.532514,41.730262],[2.532465,41.730354],[2.53243,41.730419],[2.532392,41.730483],[2.53236,41.730528],[2.532306,41.730593],[2.532277,41.730625],[2.532249,41.730659],[2.532196,41.730725],[2.532169,41.73076],[2.532146,41.730796],[2.532104,41.730876],[2.532061,41.730955],[2.532041,41.73099],[2.531959,41.73113],[2.531866,41.731299],[2.531803,41.731406],[2.53176,41.731389],[2.531677,41.731381],[2.531636,41.731387],[2.531605,41.73138],[2.531572,41.731347],[2.531495,41.731264],[2.531488,41.731195],[2.531486,41.731178],[2.531457,41.731128],[2.531374,41.731033],[2.531369,41.731028],[2.531326,41.730942],[2.531281,41.730872],[2.531271,41.730857],[2.531253,41.73081],[2.531259,41.730757],[2.531277,41.730712],[2.531301,41.730668],[2.531312,41.73062],[2.531312,41.73055],[2.531294,41.730518],[2.531253,41.730508],[2.531216,41.730514],[2.530934,41.730598],[2.530682,41.730675],[2.530709,41.73076],[2.530738,41.730879],[2.530759,41.730926],[2.530786,41.730978],[2.53086,41.731073],[2.530959,41.731197],[2.531301,41.731679],[2.531526,41.731998],[2.531725,41.732272],[2.531788,41.732374],[2.532265,41.73255],[2.532131,41.732766],[2.531974,41.733031],[2.531932,41.733129],[2.531924,41.733192],[2.531944,41.733297],[2.532019,41.733417],[2.532163,41.733597],[2.532291,41.73379],[2.532485,41.734036],[2.53254,41.734097],[2.53265,41.734168],[2.532836,41.734285],[2.533032,41.734416],[2.533059,41.734601],[2.533086,41.734775],[2.533107,41.734926],[2.533153,41.735163]]]]}},{"type":"Feature","id":"171463_171463 AP12 SEL 3","properties":{"area_id":"171463_171463 AP12 SEL 3","nom":"Ordenació Riells i Viabrea","codi_icgc":"171463 AP12 SEL 3","categoria":"Àrees de poblament","codi_municipi":"171463","municipi":"Riells i Viabrea","codi_comarca":"34","comarca":"Selva","provincia":"Girona","font":"ICGC Àrees de poblament v3r1 202602"},"geometry":{"type":"MultiPolygon","coordinates":[[[[2.543541,41.731501],[2.543589,41.731469],[2.543651,41.731512],[2.543695,41.73148],[2.543785,41.73141],[2.543868,41.731343],[2.543949,41.731276],[2.544055,41.731182],[2.544158,41.731085],[2.544223,41.731018],[2.544305,41.730925],[2.544383,41.730831],[2.544529,41.730642],[2.544625,41.730512],[2.544721,41.730383],[2.544747,41.730353],[2.544772,41.730323],[2.544787,41.73031],[2.544853,41.730338],[2.545022,41.730499],[2.545069,41.730543],[2.545454,41.730442],[2.545468,41.730438],[2.545735,41.730361],[2.545867,41.730311],[2.545894,41.730346],[2.546106,41.730206],[2.546135,41.730188],[2.546346,41.730062],[2.546351,41.73006],[2.546548,41.729953],[2.546667,41.729889],[2.546724,41.729853],[2.546745,41.72984],[2.546757,41.729799],[2.546707,41.729748],[2.546816,41.72967],[2.547002,41.729536],[2.547021,41.729522],[2.547374,41.729318],[2.547386,41.729311],[2.547495,41.729245],[2.547555,41.729195],[2.547575,41.729173],[2.547624,41.729118],[2.547663,41.729063],[2.547702,41.729028],[2.547742,41.729006],[2.547757,41.728963],[2.54775,41.728928],[2.547737,41.728915],[2.54771,41.72889],[2.547634,41.728833],[2.547703,41.728795],[2.547782,41.728751],[2.547827,41.728734],[2.547874,41.72872],[2.547971,41.728701],[2.548213,41.728661],[2.548204,41.728601],[2.5482,41.728572],[2.548168,41.728503],[2.548147,41.728486],[2.54801,41.728466],[2.54792,41.728456],[2.547838,41.728444],[2.547834,41.728444],[2.547717,41.728416],[2.547598,41.728374],[2.547547,41.728372],[2.547486,41.728384],[2.547332,41.728431],[2.547271,41.728447],[2.547204,41.728447],[2.547112,41.728447],[2.547012,41.728466],[2.546971,41.728479],[2.546938,41.728489],[2.54683,41.728531],[2.546765,41.72856],[2.546641,41.728615],[2.546542,41.728664],[2.546534,41.728668],[2.546445,41.728712],[2.546377,41.728739],[2.546312,41.728754],[2.546294,41.728755],[2.546246,41.728758],[2.546154,41.728757],[2.545941,41.728739],[2.545925,41.72869],[2.545908,41.728658],[2.545816,41.728659],[2.545728,41.72867],[2.545668,41.728705],[2.545613,41.72877],[2.54559,41.728844],[2.545555,41.728889],[2.545528,41.728902],[2.545516,41.72891],[2.54544,41.728933],[2.545365,41.728935],[2.545298,41.728934],[2.54519,41.728932],[2.545121,41.728942],[2.545056,41.72897],[2.545022,41.729002],[2.544997,41.729058],[2.544978,41.729118],[2.544952,41.729195],[2.544945,41.729215],[2.544937,41.729214],[2.544889,41.729205],[2.544864,41.729195],[2.544848,41.729189],[2.544811,41.729168],[2.544779,41.729142],[2.544751,41.729113],[2.544736,41.729093],[2.544713,41.729055],[2.544695,41.729017],[2.544688,41.728993],[2.54468,41.728947],[2.54468,41.728903],[2.54469,41.728851],[2.544705,41.728799],[2.544719,41.728765],[2.544761,41.728682],[2.544809,41.728601],[2.544845,41.72855],[2.544885,41.728501],[2.544913,41.728472],[2.544977,41.728417],[2.545048,41.728366],[2.545098,41.728335],[2.545195,41.72828],[2.545276,41.728238],[2.545293,41.728228],[2.54536,41.728197],[2.54546,41.728155],[2.545561,41.728117],[2.54563,41.728095],[2.545782,41.728053],[2.545936,41.728015],[2.546039,41.727992],[2.546301,41.727938],[2.546564,41.727884],[2.546648,41.727867],[2.546682,41.72786],[2.547281,41.727725],[2.547598,41.727719],[2.548376,41.727781],[2.548486,41.727789],[2.548639,41.727783],[2.548744,41.727776],[2.548886,41.727742],[2.549149,41.727679],[2.549815,41.72753],[2.551319,41.727194],[2.551301,41.727148],[2.551043,41.726953],[2.55052,41.726817],[2.550166,41.726735],[2.550098,41.726719],[2.54976,41.726941],[2.549592,41.726985],[2.549098,41.727101],[2.548859,41.727149],[2.547929,41.727179],[2.547511,41.727228],[2.546759,41.727378],[2.546184,41.727486],[2.545794,41.727568],[2.545623,41.727652],[2.545518,41.727697],[2.545369,41.727738],[2.545165,41.727837],[2.545141,41.727834],[2.545135,41.727849],[2.545059,41.727874],[2.544946,41.72793],[2.544817,41.728004],[2.544738,41.728073],[2.544573,41.728263],[2.544498,41.728367],[2.544388,41.728514],[2.544127,41.728891],[2.544103,41.728942],[2.544073,41.729004],[2.544067,41.729019],[2.54406,41.729036],[2.544062,41.729038],[2.544047,41.729089],[2.544039,41.729161],[2.544046,41.729277],[2.544046,41.72928],[2.544108,41.729489],[2.544158,41.72973],[2.544208,41.729966],[2.544215,41.730085],[2.544212,41.730142],[2.544206,41.730246],[2.544144,41.730341],[2.544021,41.730531],[2.543764,41.730869],[2.543665,41.731048],[2.543651,41.731072],[2.543634,41.731084],[2.543531,41.73116],[2.543351,41.731276],[2.543308,41.731301],[2.543252,41.731338],[2.543486,41.731536],[2.543541,41.731501]]],[[[2.546489,41.735198],[2.54677,41.734991],[2.546954,41.735154],[2.546989,41.735138],[2.547516,41.734847],[2.547653,41.73477],[2.547924,41.734615],[2.548128,41.734498],[2.548133,41.734495],[2.548347,41.734393],[2.548382,41.734381],[2.548671,41.734285],[2.548714,41.734272],[2.54879,41.734249],[2.548947,41.734202],[2.54919,41.734128],[2.549252,41.734107],[2.549264,41.734102],[2.549404,41.734017],[2.549412,41.734012],[2.54958,41.733907],[2.549662,41.733855],[2.549772,41.733799],[2.549963,41.733702],[2.550173,41.733595],[2.550276,41.733543],[2.550361,41.733492],[2.550595,41.733351],[2.550661,41.733297],[2.550677,41.733266],[2.550643,41.733201],[2.550611,41.733161],[2.550563,41.73312],[2.550519,41.733107],[2.550417,41.733082],[2.550282,41.733054],[2.550304,41.733045],[2.55039,41.733011],[2.550514,41.73297],[2.550569,41.732946],[2.55062,41.732916],[2.550651,41.732891],[2.55072,41.732821],[2.550783,41.732751],[2.550871,41.73265],[2.55096,41.73255],[2.550997,41.732511],[2.551093,41.73239],[2.551101,41.732375],[2.551105,41.732362],[2.551108,41.732344],[2.551107,41.732331],[2.551103,41.732319],[2.551093,41.732303],[2.551076,41.732285],[2.551062,41.732279],[2.551045,41.732276],[2.551032,41.732278],[2.551016,41.73228],[2.55099,41.732199],[2.550888,41.732258],[2.550877,41.732239],[2.550873,41.732231],[2.550854,41.732206],[2.550847,41.7322],[2.550822,41.732178],[2.550766,41.732137],[2.55072,41.732105],[2.550367,41.731982],[2.550232,41.731972],[2.550228,41.731865],[2.550221,41.7318],[2.550166,41.731686],[2.550067,41.731587],[2.550615,41.731328],[2.550586,41.7313],[2.550563,41.731277],[2.552404,41.730112],[2.552429,41.730105],[2.553007,41.730037],[2.55301,41.730037],[2.55301,41.730037],[2.55363,41.729999],[2.553849,41.729988],[2.553853,41.729938],[2.554422,41.729871],[2.554409,41.729711],[2.554444,41.729683],[2.554464,41.729657],[2.554473,41.729614],[2.554416,41.729197],[2.554713,41.729164],[2.554727,41.728958],[2.554842,41.728642],[2.554843,41.728639],[2.554849,41.728571],[2.554855,41.728498],[2.554856,41.72835],[2.554887,41.728106],[2.554901,41.728007],[2.554919,41.72788],[2.554925,41.727847],[2.554939,41.727765],[2.554946,41.727726],[2.554958,41.72757],[2.554973,41.727382],[2.554974,41.727369],[2.554974,41.727256],[2.55497,41.727164],[2.55495,41.727082],[2.554865,41.726914],[2.554745,41.726684],[2.554617,41.726486],[2.554499,41.72624],[2.554479,41.72625],[2.554159,41.726404],[2.553679,41.726638],[2.553125,41.726919],[2.552918,41.727024],[2.552844,41.727065],[2.552551,41.727229],[2.552396,41.727256],[2.552302,41.727284],[2.552254,41.727311],[2.552246,41.727316],[2.552068,41.727407],[2.551882,41.727502],[2.55079,41.728014],[2.550727,41.728043],[2.550684,41.727988],[2.550615,41.727898],[2.550578,41.727856],[2.550541,41.727813],[2.550526,41.727801],[2.550506,41.727794],[2.550478,41.727793],[2.55045,41.727796],[2.550394,41.72781],[2.550336,41.72783],[2.550279,41.727849],[2.550206,41.727874],[2.550131,41.727895],[2.55008,41.727903],[2.549896,41.727914],[2.549712,41.727925],[2.549518,41.727947],[2.549523,41.727998],[2.549407,41.728017],[2.549352,41.728022],[2.549313,41.728026],[2.549318,41.72812],[2.54933,41.728382],[2.549345,41.728392],[2.549325,41.728425],[2.549273,41.72851],[2.549164,41.728636],[2.549164,41.728645],[2.549161,41.728656],[2.549157,41.728663],[2.549153,41.728669],[2.549144,41.728682],[2.549089,41.728756],[2.549033,41.72883],[2.549003,41.728865],[2.548978,41.728889],[2.548935,41.728923],[2.548887,41.728955],[2.548845,41.728976],[2.54878,41.729004],[2.548711,41.729027],[2.548577,41.729061],[2.548442,41.729093],[2.548363,41.729114],[2.548256,41.729147],[2.548247,41.72915],[2.548191,41.72917],[2.548134,41.729194],[2.548132,41.729195],[2.548088,41.729219],[2.548057,41.729241],[2.548015,41.729278],[2.547976,41.729317],[2.547928,41.729373],[2.547908,41.729402],[2.5479,41.729416],[2.547892,41.729433],[2.547853,41.729533],[2.547814,41.729634],[2.547771,41.72975],[2.547728,41.729866],[2.547711,41.729898],[2.547694,41.729922],[2.547663,41.729954],[2.547628,41.729984],[2.547505,41.73008],[2.547382,41.730175],[2.547205,41.73031],[2.547025,41.730443],[2.54694,41.7305],[2.546805,41.730579],[2.546671,41.730661],[2.546617,41.730696],[2.546542,41.730752],[2.546509,41.730783],[2.546478,41.730816],[2.546423,41.730888],[2.54637,41.730961],[2.546274,41.731094],[2.546256,41.73112],[2.546244,41.731139],[2.546229,41.731161],[2.546184,41.731228],[2.546133,41.731319],[2.546064,41.731458],[2.546019,41.731552],[2.545902,41.73155],[2.545763,41.731551],[2.545583,41.731542],[2.545553,41.731541],[2.545274,41.731957],[2.545033,41.732717],[2.545016,41.732773],[2.544954,41.732784],[2.544913,41.732772],[2.544867,41.732736],[2.544764,41.732622],[2.544582,41.732443],[2.544409,41.732275],[2.544329,41.732203],[2.544214,41.732099],[2.544016,41.732202],[2.543879,41.73228],[2.543809,41.73232],[2.543692,41.732391],[2.543671,41.73243],[2.543691,41.732463],[2.54374,41.732509],[2.543992,41.732752],[2.544046,41.732832],[2.544121,41.732958],[2.544156,41.73299],[2.544235,41.733064],[2.544322,41.733131],[2.544338,41.733144],[2.54437,41.733168],[2.544565,41.733327],[2.544823,41.733606],[2.544848,41.733642],[2.544856,41.733643],[2.544888,41.733678],[2.544894,41.733684],[2.544906,41.733698],[2.544934,41.733728],[2.544937,41.733731],[2.544973,41.733778],[2.544952,41.733805],[2.544856,41.733928],[2.544788,41.734015],[2.544744,41.734071],[2.544624,41.734173],[2.544467,41.734301],[2.544418,41.734338],[2.544187,41.734558],[2.544131,41.734598],[2.544035,41.73466],[2.543943,41.734726],[2.543876,41.734779],[2.543768,41.734866],[2.543691,41.734972],[2.543688,41.734976],[2.544049,41.735055],[2.544146,41.735074],[2.544223,41.73502],[2.545166,41.735389],[2.54525,41.735413],[2.545676,41.735559],[2.545796,41.735556],[2.545942,41.735532],[2.546038,41.735497],[2.546214,41.73539],[2.5463,41.735326],[2.546489,41.735198]]]]}},{"type":"Feature","id":"171463_171463 SI01 SEL 2","properties":{"area_id":"171463_171463 SI01 SEL 2","nom":"Polígon industrial del Sud-oest","codi_icgc":"171463 SI01 SEL 2","categoria":"Sector industrial","codi_municipi":"171463","municipi":"Riells i Viabrea","codi_comarca":"34","comarca":"Selva","provincia":"Girona","font":"ICGC Àrees de poblament v3r1 202602"},"geometry":{"type":"MultiPolygon","coordinates":[[[[2.571279,41.726294],[2.571232,41.726282],[2.570811,41.726264],[2.570398,41.726243],[2.570288,41.726236],[2.570269,41.726229],[2.570166,41.726207],[2.569988,41.726141],[2.569817,41.726087],[2.569605,41.726085],[2.569437,41.726117],[2.569404,41.726124],[2.569383,41.726129],[2.568508,41.725619],[2.56735,41.725271],[2.566694,41.724863],[2.566473,41.724789],[2.56634,41.724794],[2.565934,41.724806],[2.565478,41.724774],[2.564541,41.724768],[2.564416,41.724719],[2.564162,41.724634],[2.56376,41.724483],[2.563343,41.724322],[2.563258,41.724284],[2.563079,41.724204],[2.562713,41.724021],[2.562602,41.723954],[2.562539,41.723911],[2.56252,41.723863],[2.562537,41.723808],[2.562581,41.72371],[2.562642,41.723645],[2.562695,41.723583],[2.562716,41.723521],[2.562676,41.723486],[2.562564,41.723453],[2.562419,41.723412],[2.562271,41.72337],[2.561981,41.723296],[2.561754,41.723233],[2.561391,41.723142],[2.561135,41.723088],[2.560927,41.723095],[2.560706,41.723106],[2.560596,41.723083],[2.560483,41.723038],[2.560323,41.722979],[2.560058,41.722884],[2.559904,41.722837],[2.559629,41.72277],[2.559334,41.722695],[2.559175,41.722662],[2.559107,41.722663],[2.558808,41.722672],[2.558694,41.722663],[2.558573,41.722656],[2.558452,41.72267],[2.558355,41.722689],[2.558248,41.722712],[2.558083,41.722746],[2.557982,41.722769],[2.557903,41.722816],[2.557877,41.722837],[2.558256,41.721994],[2.55817,41.722048],[2.558026,41.72204],[2.557854,41.722001],[2.557442,41.721883],[2.557193,41.721821],[2.556803,41.721717],[2.556038,41.721524],[2.555071,41.721273],[2.554524,41.721138],[2.553845,41.720976],[2.553399,41.72086],[2.553004,41.720744],[2.552638,41.720654],[2.552074,41.720511],[2.551599,41.720364],[2.551383,41.720327],[2.551282,41.720304],[2.551118,41.720257],[2.550374,41.720084],[2.549816,41.719941],[2.549766,41.719925],[2.548953,41.719719],[2.54883,41.71988],[2.549523,41.720188],[2.549539,41.720201],[2.549669,41.720257],[2.550075,41.72051],[2.550143,41.720547],[2.551215,41.721076],[2.551762,41.721348],[2.552399,41.721673],[2.552763,41.721838],[2.55295,41.721939],[2.553283,41.722105],[2.553556,41.722235],[2.553721,41.722347],[2.553814,41.722393],[2.554077,41.722464],[2.554821,41.722653],[2.555507,41.722823],[2.556431,41.723061],[2.556855,41.723157],[2.556931,41.723155],[2.55705,41.723123],[2.557126,41.723123],[2.557222,41.723226],[2.557366,41.723305],[2.557243,41.723383],[2.557879,41.723566],[2.558835,41.72381],[2.559673,41.724023],[2.560884,41.724346],[2.561725,41.724544],[2.56229,41.724694],[2.563264,41.724962],[2.564975,41.725433],[2.565784,41.725619],[2.56647,41.725819],[2.566659,41.725868],[2.567861,41.726177],[2.568678,41.726376],[2.568785,41.726402],[2.569504,41.726591],[2.57101,41.727023],[2.571145,41.726772],[2.571251,41.726522],[2.571353,41.726333],[2.571394,41.72631],[2.571321,41.726304],[2.571279,41.726294]]]]}},{"type":"Feature","id":"171463_171463 AP11 SEL 2","properties":{"area_id":"171463_171463 AP11 SEL 2","nom":"Residencial Riells I","codi_icgc":"171463 AP11 SEL 2","categoria":"Àrees de poblament","codi_municipi":"171463","municipi":"Riells i Viabrea","codi_comarca":"34","comarca":"Selva","provincia":"Girona","font":"ICGC Àrees de poblament v3r1 202602"},"geometry":{"type":"MultiPolygon","coordinates":[[[[2.561872,41.729034],[2.561966,41.729094],[2.56242,41.729381],[2.562481,41.72941],[2.563136,41.729722],[2.563573,41.72983],[2.563934,41.729904],[2.564039,41.729926],[2.564199,41.729903],[2.564327,41.729808],[2.564435,41.729704],[2.564816,41.729337],[2.565069,41.729022],[2.564194,41.728246],[2.565294,41.72774],[2.564502,41.727335],[2.564093,41.72756],[2.56366,41.7278],[2.563498,41.727818],[2.562527,41.727929],[2.562448,41.727717],[2.5621,41.727705],[2.562183,41.727968],[2.562181,41.727968],[2.561684,41.728164],[2.561163,41.728371],[2.561132,41.728312],[2.561152,41.728244],[2.561296,41.728013],[2.560362,41.727662],[2.5597,41.728847],[2.560577,41.729088],[2.560721,41.728824],[2.56076,41.728821],[2.560812,41.728814],[2.560836,41.728774],[2.560894,41.728653],[2.560965,41.728544],[2.56101,41.728535],[2.561057,41.728557],[2.561872,41.729034]]]]}},{"type":"Feature","id":"171463_171463 AP02 SEL 2","properties":{"area_id":"171463_171463 AP02 SEL 2","nom":"Residencial Riells II","codi_icgc":"171463 AP02 SEL 2","categoria":"Àrees de poblament","codi_municipi":"171463","municipi":"Riells i Viabrea","codi_comarca":"34","comarca":"Selva","provincia":"Girona","font":"ICGC Àrees de poblament v3r1 202602"},"geometry":{"type":"MultiPolygon","coordinates":[[[[2.543973,41.741355],[2.544052,41.741252],[2.544259,41.74099],[2.543705,41.740755],[2.543475,41.741044],[2.54343,41.741101],[2.543444,41.741218],[2.543366,41.741282],[2.543353,41.741288],[2.543346,41.741297],[2.543346,41.741332],[2.543346,41.741365],[2.543352,41.741444],[2.543357,41.741484],[2.543357,41.741507],[2.543345,41.741824],[2.54334,41.741938],[2.54334,41.741961],[2.543342,41.74197],[2.543348,41.741995],[2.543361,41.74203],[2.543381,41.742062],[2.543393,41.742075],[2.543408,41.742087],[2.543483,41.742132],[2.54356,41.742177],[2.543599,41.7422],[2.543609,41.742205],[2.543852,41.741912],[2.544039,41.74199],[2.544074,41.742004],[2.544297,41.742097],[2.544372,41.742131],[2.544446,41.742169],[2.54447,41.742185],[2.544488,41.742205],[2.544495,41.742219],[2.544498,41.742237],[2.544497,41.742256],[2.544485,41.742292],[2.544472,41.742315],[2.544397,41.742431],[2.544319,41.742545],[2.544162,41.742766],[2.544006,41.742988],[2.543785,41.743312],[2.543563,41.743636],[2.543433,41.743818],[2.543303,41.743999],[2.543219,41.744122],[2.543065,41.744357],[2.542989,41.744473],[2.54291,41.744592],[2.542577,41.744424],[2.542413,41.74453],[2.542309,41.744605],[2.542112,41.744845],[2.541974,41.744935],[2.542048,41.745058],[2.542075,41.74509],[2.54227,41.745286],[2.542274,41.74529],[2.542402,41.745394],[2.542471,41.745454],[2.542537,41.745518],[2.542602,41.745584],[2.542608,41.74559],[2.54262,41.745583],[2.542628,41.74558],[2.542635,41.745575],[2.54266,41.745562],[2.542687,41.745548],[2.542712,41.745534],[2.542759,41.745508],[2.542764,41.745505],[2.542766,41.745503],[2.543227,41.745452],[2.543245,41.74545],[2.543271,41.745444],[2.543297,41.745437],[2.543331,41.74543],[2.543365,41.745423],[2.543406,41.745415],[2.543447,41.745408],[2.543466,41.745406],[2.543472,41.745405],[2.543496,41.745402],[2.543523,41.7454],[2.543618,41.745393],[2.543685,41.745389],[2.543798,41.74538],[2.543911,41.745372],[2.544013,41.745367],[2.544114,41.745363],[2.544137,41.745363],[2.544182,41.745361],[2.544187,41.745361],[2.54426,41.745359],[2.54437,41.745356],[2.544478,41.745355],[2.544606,41.745352],[2.544733,41.745349],[2.544862,41.745345],[2.544969,41.745342],[2.544992,41.745341],[2.545907,41.745357],[2.54625,41.745334],[2.546253,41.745333],[2.547025,41.745298],[2.54722,41.745268],[2.547298,41.745266],[2.547574,41.745258],[2.547617,41.745256],[2.547981,41.74526],[2.548267,41.745261],[2.548424,41.745264],[2.548414,41.745247],[2.548468,41.745247],[2.548562,41.745246],[2.548716,41.745251],[2.548801,41.745249],[2.549039,41.745257],[2.549341,41.745243],[2.549366,41.745253],[2.549369,41.745254],[2.549407,41.745333],[2.549448,41.74539],[2.549493,41.745414],[2.549551,41.745423],[2.549666,41.745421],[2.54978,41.745405],[2.549839,41.745396],[2.549881,41.745455],[2.54991,41.745454],[2.549912,41.745454],[2.550005,41.745431],[2.550151,41.745409],[2.550262,41.745387],[2.550382,41.745347],[2.550472,41.745303],[2.550553,41.745233],[2.550565,41.745225],[2.550582,41.745216],[2.550582,41.745216],[2.550601,41.745211],[2.550622,41.745207],[2.550664,41.745203],[2.550693,41.745201],[2.550758,41.745194],[2.550823,41.745189],[2.550865,41.74519],[2.550903,41.745196],[2.550939,41.745205],[2.550976,41.745214],[2.551019,41.745224],[2.551073,41.745236],[2.551197,41.745237],[2.551442,41.745214],[2.551232,41.744709],[2.551234,41.744697],[2.55134,41.744633],[2.551506,41.744585],[2.551662,41.744615],[2.551801,41.744722],[2.551857,41.744891],[2.551917,41.745251],[2.551948,41.745254],[2.552001,41.745258],[2.552072,41.745245],[2.552116,41.745225],[2.552212,41.745162],[2.552321,41.745158],[2.552382,41.745143],[2.552426,41.745104],[2.552442,41.745071],[2.552453,41.745047],[2.552452,41.745008],[2.552436,41.744951],[2.552381,41.744787],[2.552342,41.744734],[2.552338,41.744729],[2.552233,41.744605],[2.552021,41.744523],[2.551855,41.744507],[2.551728,41.744512],[2.551604,41.744537],[2.551347,41.744479],[2.551165,41.744485],[2.550822,41.744502],[2.550574,41.744503],[2.550492,41.744504],[2.550327,41.744505],[2.550117,41.744508],[2.549907,41.744511],[2.549818,41.744511],[2.549729,41.744511],[2.549551,41.744511],[2.549413,41.744516],[2.549348,41.744524],[2.549316,41.744525],[2.54914,41.744533],[2.548997,41.744534],[2.5489,41.744532],[2.548768,41.744532],[2.548666,41.744528],[2.548661,41.744528],[2.548637,41.744872],[2.548492,41.744866],[2.548409,41.744863],[2.548257,41.744852],[2.548147,41.744841],[2.548036,41.744829],[2.547905,41.744816],[2.547774,41.744805],[2.547701,41.744803],[2.547426,41.744792],[2.547152,41.744781],[2.547121,41.744777],[2.547096,41.744771],[2.547053,41.744755],[2.546992,41.744721],[2.546933,41.744686],[2.546872,41.744645],[2.546787,41.744579],[2.546742,41.744548],[2.546692,41.744523],[2.546553,41.744466],[2.546413,41.744411],[2.546313,41.744376],[2.546263,41.744357],[2.546213,41.744336],[2.546203,41.744328],[2.54594,41.744124],[2.545844,41.744054],[2.545753,41.743983],[2.545746,41.743974],[2.545742,41.743964],[2.545741,41.743941],[2.545747,41.743926],[2.545759,41.743908],[2.545769,41.7439],[2.545783,41.743895],[2.545867,41.743876],[2.54595,41.743857],[2.546044,41.743856],[2.546106,41.743857],[2.546251,41.743863],[2.546396,41.743869],[2.5465,41.743874],[2.546604,41.74388],[2.546662,41.743886],[2.546719,41.743895],[2.546834,41.743914],[2.546911,41.743924],[2.547053,41.743938],[2.547195,41.743953],[2.547336,41.743967],[2.54744,41.743978],[2.547477,41.743981],[2.547563,41.743987],[2.547648,41.743987],[2.547705,41.743983],[2.547952,41.743968],[2.548198,41.743954],[2.548379,41.743942],[2.548651,41.743923],[2.548923,41.743904],[2.549291,41.743881],[2.54966,41.743857],[2.549671,41.744158],[2.549691,41.744158],[2.549806,41.744159],[2.549922,41.744158],[2.549993,41.744152],[2.550098,41.744136],[2.550316,41.744091],[2.550793,41.743993],[2.550907,41.74392],[2.551222,41.743954],[2.551258,41.743954],[2.551294,41.743954],[2.551315,41.743952],[2.551349,41.743938],[2.55137,41.743932],[2.551393,41.743913],[2.551403,41.743905],[2.551412,41.743896],[2.551418,41.74389],[2.551428,41.743877],[2.551432,41.74387],[2.551434,41.743859],[2.55144,41.743775],[2.551442,41.743737],[2.551414,41.743716],[2.551399,41.743724],[2.551315,41.743761],[2.551247,41.743777],[2.551126,41.743764],[2.551045,41.743752],[2.550862,41.743724],[2.550774,41.743722],[2.550724,41.74374],[2.550698,41.743757],[2.550692,41.743769],[2.550648,41.743852],[2.550414,41.74382],[2.549988,41.743719],[2.549708,41.743637],[2.549614,41.743617],[2.5496,41.743614],[2.54958,41.74361],[2.549539,41.743603],[2.549499,41.743597],[2.549462,41.743592],[2.549436,41.743589],[2.549373,41.743581],[2.549211,41.743562],[2.54891,41.743529],[2.54871,41.743503],[2.548698,41.743501],[2.548681,41.743499],[2.548664,41.743496],[2.548641,41.743494],[2.548617,41.743492],[2.548591,41.743489],[2.548565,41.743485],[2.548537,41.743481],[2.548537,41.743481],[2.54851,41.743476],[2.548486,41.743472],[2.548462,41.743469],[2.548442,41.743467],[2.548437,41.743467],[2.548377,41.743458],[2.548247,41.743438],[2.548185,41.743426],[2.548134,41.743417],[2.548127,41.743415],[2.548151,41.743444],[2.548171,41.743475],[2.548179,41.743497],[2.54818,41.743503],[2.548185,41.743533],[2.548186,41.74357],[2.548182,41.743593],[2.54817,41.743623],[2.548148,41.743656],[2.548127,41.743689],[2.547852,41.743657],[2.547813,41.743655],[2.547742,41.743651],[2.547667,41.743646],[2.547591,41.743641],[2.547395,41.743624],[2.547361,41.743621],[2.547126,41.743592],[2.546941,41.74357],[2.546851,41.74356],[2.546679,41.743531],[2.546622,41.743514],[2.546429,41.743457],[2.546294,41.743414],[2.546273,41.743407],[2.546273,41.743403],[2.546284,41.743299],[2.546294,41.743201],[2.546336,41.74279],[2.546337,41.742779],[2.545968,41.742668],[2.545866,41.742639],[2.54521,41.742434],[2.545151,41.74232],[2.545128,41.742272],[2.545102,41.742218],[2.544973,41.742118],[2.544632,41.741862],[2.544619,41.741857],[2.544531,41.741778],[2.54432,41.741706],[2.543973,41.741355]]]]}},{"type":"Feature","id":"171463_171463 AP13 SEL 3","properties":{"area_id":"171463_171463 AP13 SEL 3","nom":"Riells","codi_icgc":"171463 AP13 SEL 3","categoria":"Àrees de poblament","codi_municipi":"171463","municipi":"Riells i Viabrea","codi_comarca":"34","comarca":"Selva","provincia":"Girona","font":"ICGC Àrees de poblament v3r1 202602"},"geometry":{"type":"MultiPolygon","coordinates":[[[[2.515587,41.776189],[2.515899,41.775998],[2.515855,41.775965],[2.515749,41.775889],[2.515586,41.775764],[2.515579,41.775765],[2.515561,41.775774],[2.51552,41.775793],[2.515365,41.775889],[2.515088,41.775924],[2.515061,41.775935],[2.51511,41.776121],[2.515352,41.776107],[2.515371,41.776129],[2.515435,41.776202],[2.515435,41.776202],[2.515472,41.776246],[2.515587,41.776189]]],[[[2.512387,41.776794],[2.512421,41.776789],[2.512431,41.77679],[2.512511,41.776788],[2.512577,41.776783],[2.512626,41.776776],[2.512697,41.776758],[2.512717,41.776751],[2.512752,41.776746],[2.512851,41.776708],[2.512964,41.776665],[2.513038,41.776652],[2.513146,41.776633],[2.513215,41.776634],[2.51323,41.776667],[2.513317,41.776634],[2.51333,41.776634],[2.513408,41.776599],[2.513449,41.776581],[2.513497,41.776527],[2.513503,41.776478],[2.513741,41.776519],[2.514045,41.776663],[2.514089,41.776627],[2.514088,41.776626],[2.514207,41.776528],[2.514267,41.776479],[2.514236,41.77636],[2.514096,41.776321],[2.513995,41.776273],[2.513976,41.776225],[2.513926,41.77613],[2.513907,41.776025],[2.51394,41.775901],[2.513985,41.77583],[2.514173,41.775722],[2.513995,41.775523],[2.513983,41.77553],[2.513896,41.775493],[2.513793,41.775448],[2.513702,41.775412],[2.513608,41.77538],[2.513497,41.775346],[2.513386,41.775311],[2.513281,41.775278],[2.513175,41.775247],[2.513076,41.775223],[2.512975,41.7752],[2.512878,41.775178],[2.512781,41.775156],[2.512708,41.775142],[2.512635,41.775133],[2.512595,41.775132],[2.512555,41.775136],[2.512529,41.775142],[2.512513,41.77515],[2.512499,41.775159],[2.512476,41.77518],[2.512466,41.775195],[2.512461,41.77521],[2.512462,41.775221],[2.512478,41.775257],[2.512498,41.775294],[2.512522,41.775331],[2.512547,41.775367],[2.512568,41.77539],[2.512603,41.775415],[2.512642,41.775435],[2.512718,41.775469],[2.512795,41.7755],[2.512883,41.775533],[2.512901,41.77554],[2.512776,41.775542],[2.512609,41.775527],[2.512529,41.775513],[2.512112,41.775665],[2.512237,41.775879],[2.512213,41.775887],[2.512193,41.775893],[2.512103,41.775921],[2.511994,41.775955],[2.511888,41.775992],[2.511821,41.776017],[2.511771,41.776036],[2.511758,41.776022],[2.511679,41.775936],[2.511646,41.775899],[2.511613,41.775862],[2.511547,41.775787],[2.511486,41.775718],[2.511439,41.775666],[2.511438,41.775656],[2.511434,41.775643],[2.511426,41.775631],[2.5114,41.775606],[2.511368,41.775585],[2.511335,41.775566],[2.5113,41.775551],[2.511273,41.775543],[2.511248,41.775539],[2.511345,41.775415],[2.511327,41.77538],[2.511245,41.775343],[2.511098,41.775267],[2.510946,41.775163],[2.510817,41.775041],[2.510651,41.775114],[2.51068,41.775146],[2.510734,41.775204],[2.510739,41.775208],[2.51072,41.775218],[2.510709,41.775225],[2.510697,41.77523],[2.510568,41.775285],[2.510697,41.775526],[2.510709,41.77554],[2.510733,41.77553],[2.510761,41.775566],[2.510818,41.775577],[2.510985,41.775628],[2.511016,41.775639],[2.511104,41.77566],[2.511214,41.775714],[2.511304,41.775808],[2.511204,41.775974],[2.51148,41.776093],[2.511535,41.776116],[2.511579,41.776068],[2.511668,41.775967],[2.511731,41.776036],[2.51181,41.776122],[2.511846,41.776163],[2.511878,41.7762],[2.511947,41.776279],[2.511986,41.776318],[2.512033,41.77635],[2.512102,41.776394],[2.512137,41.776414],[2.512171,41.776434],[2.512205,41.776454],[2.512216,41.776462],[2.512224,41.776472],[2.512258,41.776484],[2.512289,41.776484],[2.512366,41.776563],[2.512367,41.776603],[2.512372,41.776718],[2.512371,41.776769],[2.512366,41.776775],[2.512364,41.776778],[2.512355,41.776784],[2.512387,41.776786],[2.512387,41.776794]]]]}},{"type":"Feature","id":"171463_171463 AP10 SEL 1","properties":{"area_id":"171463_171463 AP10 SEL 1","nom":"Sant Llop de Viabrea","codi_icgc":"171463 AP10 SEL 1","categoria":"Àrees de poblament","codi_municipi":"171463","municipi":"Riells i Viabrea","codi_comarca":"34","comarca":"Selva","provincia":"Girona","font":"ICGC Àrees de poblament v3r1 202602"},"geometry":{"type":"MultiPolygon","coordinates":[[[[2.540263,41.746617],[2.539853,41.74692],[2.539891,41.746996],[2.540018,41.747054],[2.540183,41.747064],[2.540311,41.747027],[2.540426,41.74697],[2.540515,41.746913],[2.540529,41.746799],[2.540339,41.746607],[2.540263,41.746617]]]]}},{"type":"Feature","id":"171463_171463 AP05 SEL 3","properties":{"area_id":"171463_171463 AP05 SEL 3","nom":"Viabrea","codi_icgc":"171463 AP05 SEL 3","categoria":"Àrees de poblament","codi_municipi":"171463","municipi":"Riells i Viabrea","codi_comarca":"34","comarca":"Selva","provincia":"Girona","font":"ICGC Àrees de poblament v3r1 202602"},"geometry":{"type":"MultiPolygon","coordinates":[[[[2.568988,41.726913],[2.567122,41.726479],[2.566748,41.72653],[2.566631,41.726546],[2.566479,41.726766],[2.566572,41.727016],[2.566629,41.727216],[2.566785,41.727249],[2.566787,41.727334],[2.566633,41.727297],[2.566542,41.727276],[2.566331,41.727225],[2.566321,41.727225],[2.566304,41.727225],[2.566289,41.727227],[2.566268,41.727233],[2.56625,41.727241],[2.566225,41.727252],[2.565958,41.727239],[2.565685,41.727576],[2.565669,41.727602],[2.565654,41.727626],[2.566241,41.727843],[2.56646,41.727976],[2.56626,41.728083],[2.565913,41.728228],[2.566067,41.728586],[2.566178,41.728891],[2.566234,41.72926],[2.566614,41.729286],[2.5667,41.729292],[2.566572,41.729399],[2.567018,41.729574],[2.567067,41.729595],[2.567266,41.729654],[2.567274,41.729657],[2.567291,41.729659],[2.567296,41.72966],[2.56732,41.729659],[2.567341,41.729651],[2.567358,41.729639],[2.567369,41.729623],[2.567472,41.729412],[2.567479,41.729403],[2.567853,41.729496],[2.568085,41.729131],[2.568198,41.72897],[2.568541,41.72871],[2.568901,41.728496],[2.569418,41.728195],[2.569523,41.728123],[2.569482,41.728117],[2.56898,41.728041],[2.568975,41.727914],[2.56897,41.727813],[2.568953,41.727419],[2.569034,41.727378],[2.569273,41.727258],[2.569527,41.727131],[2.569537,41.727094],[2.569512,41.727034],[2.568988,41.726913]]]]}},{"type":"Feature","id":"171463_171463 AP03 SEL 3","properties":{"area_id":"171463_171463 AP03 SEL 3","nom":"el Bosc de la Batllòria","codi_icgc":"171463 AP03 SEL 3","categoria":"Àrees de poblament","codi_municipi":"171463","municipi":"Riells i Viabrea","codi_comarca":"34","comarca":"Selva","provincia":"Girona","font":"ICGC Àrees de poblament v3r1 202602"},"geometry":{"type":"MultiPolygon","coordinates":[[[[2.545141,41.727834],[2.545165,41.727837],[2.545369,41.727738],[2.545518,41.727697],[2.545623,41.727652],[2.545794,41.727568],[2.546184,41.727486],[2.546759,41.727378],[2.547511,41.727228],[2.547929,41.727179],[2.548859,41.727149],[2.549098,41.727101],[2.549592,41.726985],[2.54976,41.726941],[2.550098,41.726719],[2.550122,41.726703],[2.550208,41.726643],[2.550237,41.726623],[2.550705,41.726294],[2.55144,41.725797],[2.552008,41.725376],[2.552344,41.725151],[2.552901,41.72498],[2.553634,41.724804],[2.554319,41.72464],[2.554902,41.724333],[2.554954,41.724267],[2.554984,41.724277],[2.555076,41.724226],[2.555089,41.724219],[2.555108,41.724211],[2.555102,41.724191],[2.555598,41.723972],[2.555633,41.723957],[2.555694,41.723931],[2.554348,41.723419],[2.553648,41.723169],[2.553572,41.723141],[2.553272,41.723031],[2.553197,41.723],[2.553126,41.722964],[2.55306,41.722924],[2.552999,41.722879],[2.552982,41.722864],[2.552944,41.72283],[2.552852,41.722768],[2.552769,41.722718],[2.552727,41.72269],[2.552709,41.722684],[2.552655,41.722666],[2.552629,41.72266],[2.552562,41.722644],[2.552401,41.722605],[2.552241,41.722565],[2.552215,41.722558],[2.552023,41.722512],[2.552008,41.722509],[2.551888,41.72248],[2.551717,41.722438],[2.551554,41.722398],[2.551334,41.722343],[2.551084,41.722281],[2.550988,41.722258],[2.550834,41.72222],[2.550671,41.722179],[2.550512,41.722142],[2.549715,41.721947],[2.549531,41.721904],[2.549416,41.721877],[2.549298,41.721849],[2.549112,41.721804],[2.548997,41.721778],[2.54887,41.721749],[2.548498,41.721666],[2.548415,41.721646],[2.548368,41.721749],[2.548292,41.721916],[2.548248,41.722012],[2.548259,41.722059],[2.548278,41.722136],[2.548419,41.722567],[2.54822,41.722566],[2.547766,41.722594],[2.547671,41.722588],[2.547631,41.722618],[2.547249,41.722652],[2.547181,41.722328],[2.547174,41.722295],[2.547166,41.722259],[2.547159,41.722263],[2.547113,41.722288],[2.547,41.722349],[2.546887,41.722409],[2.546829,41.722434],[2.546825,41.722436],[2.546816,41.722411],[2.546778,41.722381],[2.546703,41.722358],[2.546631,41.722348],[2.546502,41.722349],[2.546438,41.722354],[2.546379,41.72236],[2.546253,41.722409],[2.546195,41.722432],[2.546161,41.722448],[2.545988,41.722526],[2.545858,41.722606],[2.545764,41.722679],[2.545485,41.722928],[2.545407,41.722982],[2.54536,41.723016],[2.545261,41.723048],[2.545069,41.72308],[2.544856,41.723121],[2.544759,41.723143],[2.544638,41.723172],[2.544378,41.723242],[2.544337,41.723265],[2.544249,41.723314],[2.543901,41.723685],[2.543812,41.723805],[2.543682,41.723945],[2.543681,41.723958],[2.543677,41.724017],[2.543757,41.724111],[2.54388,41.724254],[2.543966,41.724354],[2.543969,41.724357],[2.544088,41.724498],[2.544194,41.724622],[2.544215,41.724647],[2.544437,41.724898],[2.544532,41.72501],[2.544613,41.725106],[2.54463,41.725124],[2.544793,41.725294],[2.544833,41.725335],[2.544933,41.725421],[2.544988,41.725443],[2.545032,41.72545],[2.54506,41.725449],[2.545078,41.725448],[2.545105,41.72544],[2.545061,41.725472],[2.545029,41.725531],[2.54513,41.725556],[2.545086,41.725592],[2.545112,41.725617],[2.545557,41.726034],[2.54558,41.726082],[2.545648,41.726215],[2.545631,41.72627],[2.545632,41.726321],[2.545558,41.726392],[2.545271,41.726657],[2.545273,41.726659],[2.545277,41.726671],[2.545202,41.726727],[2.54517,41.726763],[2.545133,41.726837],[2.54513,41.726843],[2.545082,41.727009],[2.545073,41.727196],[2.545071,41.727201],[2.545031,41.727311],[2.544976,41.727469],[2.544934,41.72758],[2.544908,41.72765],[2.544888,41.727714],[2.544851,41.727804],[2.544827,41.727875],[2.544815,41.727929],[2.544814,41.727936],[2.544843,41.727929],[2.544959,41.727869],[2.545046,41.727821],[2.545141,41.727834]]]]}}]}