{"type":"FeatureCollection","name":"ICGC Àrees de poblament - Sales de Llierca","features":[{"type":"Feature","id":"171544_171544 AP03 GAX 3","properties":{"area_id":"171544_171544 AP03 GAX 3","nom":"Gitarriu","codi_icgc":"171544 AP03 GAX 3","categoria":"Àrees de poblament","codi_municipi":"171544","municipi":"Sales de Llierca","codi_comarca":"19","comarca":"Garrotxa","provincia":"Girona","font":"ICGC Àrees de poblament v3r1 202602"},"geometry":{"type":"MultiPolygon","coordinates":[[[[2.621134,42.286984],[2.621047,42.286962],[2.620845,42.28699],[2.620834,42.287112],[2.620892,42.287148],[2.621171,42.287149],[2.621134,42.286984]]],[[[2.618136,42.287346],[2.618235,42.287329],[2.618276,42.28733],[2.618381,42.287383],[2.618434,42.28744],[2.618583,42.287423],[2.618713,42.28738],[2.618613,42.287233],[2.618508,42.28709],[2.618167,42.287028],[2.618061,42.286992],[2.617998,42.287024],[2.617969,42.287092],[2.618021,42.287206],[2.617882,42.287224],[2.617722,42.287338],[2.617904,42.287442],[2.617953,42.28741],[2.618035,42.287371],[2.618136,42.287346]]]]}},{"type":"Feature","id":"171544_171544 AP02 GAX 3","properties":{"area_id":"171544_171544 AP02 GAX 3","nom":"Monteia","codi_icgc":"171544 AP02 GAX 3","categoria":"Àrees de poblament","codi_municipi":"171544","municipi":"Sales de Llierca","codi_comarca":"19","comarca":"Garrotxa","provincia":"Girona","font":"ICGC Àrees de poblament v3r1 202602"},"geometry":{"type":"MultiPolygon","coordinates":[[[[2.651414,42.268987],[2.651534,42.268909],[2.651576,42.26888],[2.651634,42.268841],[2.651651,42.268807],[2.651665,42.26878],[2.651675,42.268718],[2.651661,42.268682],[2.651637,42.268656],[2.651577,42.26859],[2.651525,42.268531],[2.651452,42.268465],[2.651351,42.268445],[2.651239,42.268485],[2.651037,42.268574],[2.6511,42.268886],[2.65113,42.268907],[2.651271,42.269001],[2.651414,42.268987]]]]}},{"type":"Feature","id":"171544_171544 AP04 GAX 3","properties":{"area_id":"171544_171544 AP04 GAX 3","nom":"Sadernes","codi_icgc":"171544 AP04 GAX 3","categoria":"Àrees de poblament","codi_municipi":"171544","municipi":"Sales de Llierca","codi_comarca":"19","comarca":"Garrotxa","provincia":"Girona","font":"ICGC Àrees de poblament v3r1 202602"},"geometry":{"type":"MultiPolygon","coordinates":[[[[2.5966,42.270187],[2.596628,42.270167],[2.596636,42.270096],[2.59658,42.270034],[2.596457,42.269986],[2.596293,42.26994],[2.596217,42.269921],[2.596201,42.269869],[2.596185,42.269827],[2.595899,42.269837],[2.59591,42.269921],[2.595795,42.269951],[2.595739,42.269978],[2.59575,42.270044],[2.595815,42.270169],[2.595851,42.270177],[2.595936,42.270183],[2.596052,42.270174],[2.596117,42.270176],[2.596219,42.270183],[2.596433,42.27019],[2.596555,42.270196],[2.5966,42.270187]]],[[[2.596114,42.271605],[2.595836,42.271532],[2.595759,42.271539],[2.595303,42.271556],[2.595257,42.271608],[2.5952,42.271672],[2.595171,42.271758],[2.595199,42.271901],[2.59522,42.271904],[2.595961,42.271916],[2.59622,42.271936],[2.596245,42.27194],[2.596262,42.271943],[2.596278,42.271944],[2.596287,42.271941],[2.596311,42.271931],[2.596315,42.271929],[2.596325,42.271905],[2.596386,42.271702],[2.596221,42.271633],[2.596143,42.271619],[2.596114,42.271605]]]]}},{"type":"Feature","id":"171544_171544 AP01 GAX 3","properties":{"area_id":"171544_171544 AP01 GAX 3","nom":"Sales de Llierca","codi_icgc":"171544 AP01 GAX 3","categoria":"Àrees de poblament","codi_municipi":"171544","municipi":"Sales de Llierca","codi_comarca":"19","comarca":"Garrotxa","provincia":"Girona","font":"ICGC Àrees de poblament v3r1 202602"},"geometry":{"type":"MultiPolygon","coordinates":[[[[2.651402,42.235534],[2.65129,42.235683],[2.651291,42.235832],[2.651171,42.235816],[2.651112,42.23582],[2.651026,42.235767],[2.650903,42.235495],[2.650935,42.235483],[2.650928,42.235462],[2.651118,42.23538],[2.650898,42.235073],[2.65066,42.235073],[2.650653,42.235033],[2.650627,42.234888],[2.650598,42.234726],[2.650584,42.234648],[2.650034,42.234706],[2.649934,42.234717],[2.649924,42.234761],[2.649869,42.234999],[2.649126,42.234928],[2.648932,42.235328],[2.648587,42.235287],[2.648545,42.235282],[2.648438,42.235268],[2.648382,42.235261],[2.648353,42.235257],[2.648323,42.235254],[2.64817,42.235235],[2.648019,42.235222],[2.647867,42.235214],[2.647766,42.235211],[2.647691,42.23521],[2.647616,42.235211],[2.647565,42.235212],[2.647472,42.235218],[2.647377,42.23523],[2.647353,42.235235],[2.647332,42.235239],[2.647332,42.235218],[2.647334,42.235214],[2.647342,42.235206],[2.647356,42.235198],[2.647401,42.23518],[2.647447,42.235161],[2.647494,42.235138],[2.647539,42.235114],[2.647572,42.235097],[2.647588,42.235086],[2.647598,42.235071],[2.647603,42.235035],[2.647607,42.235001],[2.64761,42.234965],[2.647615,42.23493],[2.64763,42.23489],[2.647645,42.234849],[2.647666,42.234791],[2.647688,42.234732],[2.647695,42.234704],[2.647697,42.23468],[2.647713,42.234676],[2.647707,42.23466],[2.64767,42.234569],[2.647636,42.234572],[2.647155,42.234676],[2.647078,42.234726],[2.647122,42.234955],[2.647029,42.23499],[2.64672,42.235039],[2.646191,42.235166],[2.645837,42.23519],[2.64586,42.235317],[2.645836,42.23532],[2.645465,42.235376],[2.645224,42.235026],[2.645041,42.235054],[2.644883,42.235044],[2.644647,42.235037],[2.644268,42.235004],[2.64422,42.235],[2.644069,42.234989],[2.643948,42.235006],[2.643847,42.235043],[2.643727,42.235118],[2.643721,42.235133],[2.64372,42.235063],[2.643694,42.234651],[2.643433,42.234626],[2.64326,42.234628],[2.643187,42.234678],[2.643186,42.23472],[2.643185,42.234979],[2.64296,42.234969],[2.642836,42.234953],[2.642764,42.234932],[2.642656,42.234929],[2.642567,42.234932],[2.642499,42.234913],[2.642427,42.234881],[2.642336,42.234827],[2.642147,42.234808],[2.641803,42.234742],[2.641458,42.234708],[2.641354,42.234713],[2.641274,42.234749],[2.641088,42.234978],[2.640975,42.235114],[2.64089,42.235245],[2.640838,42.235304],[2.640878,42.235337],[2.640922,42.235349],[2.64115,42.235401],[2.641438,42.235464],[2.641806,42.235546],[2.642043,42.235582],[2.642255,42.235598],[2.642283,42.235562],[2.64247,42.235226],[2.642562,42.235125],[2.642654,42.235167],[2.642778,42.235263],[2.64295,42.235305],[2.64307,42.235326],[2.643443,42.235393],[2.643392,42.235577],[2.643393,42.235577],[2.643434,42.235594],[2.643565,42.235649],[2.643625,42.235674],[2.643651,42.235685],[2.643656,42.235687],[2.643711,42.236103],[2.643744,42.236147],[2.643825,42.23626],[2.644017,42.236339],[2.644092,42.236371],[2.644142,42.236433],[2.644218,42.236476],[2.644333,42.236569],[2.644516,42.236606],[2.644651,42.23657],[2.644649,42.236521],[2.644647,42.236464],[2.644583,42.236223],[2.644509,42.236134],[2.644577,42.236034],[2.644788,42.236034],[2.645006,42.236046],[2.645074,42.236349],[2.645097,42.236434],[2.645113,42.23645],[2.64552,42.236422],[2.645631,42.236412],[2.645745,42.236391],[2.645757,42.236388],[2.645948,42.236328],[2.646076,42.236273],[2.646077,42.236107],[2.646173,42.235966],[2.646065,42.235553],[2.647285,42.23538],[2.647459,42.235399],[2.647471,42.235398],[2.647524,42.235883],[2.648099,42.23589],[2.64808,42.235987],[2.648112,42.23599],[2.648286,42.236003],[2.648252,42.236144],[2.648298,42.236445],[2.648291,42.237178],[2.64892,42.237189],[2.64967,42.237163],[2.649843,42.237164],[2.6498,42.236683],[2.649868,42.236542],[2.650004,42.236349],[2.650168,42.236239],[2.650313,42.236169],[2.650339,42.235955],[2.650431,42.236013],[2.650717,42.236141],[2.65086,42.236181],[2.651169,42.236271],[2.651175,42.236271],[2.651257,42.236271],[2.651356,42.236272],[2.651455,42.236272],[2.651548,42.236272],[2.651641,42.236271],[2.651743,42.23627],[2.651846,42.236269],[2.651957,42.236268],[2.652068,42.236268],[2.652183,42.236263],[2.652297,42.236254],[2.652383,42.236247],[2.652469,42.23624],[2.652526,42.236234],[2.652583,42.236225],[2.65262,42.236215],[2.652653,42.2362],[2.652678,42.236184],[2.652286,42.235764],[2.652229,42.235721],[2.652183,42.235582],[2.652374,42.235529],[2.652427,42.235469],[2.652437,42.235354],[2.652328,42.235129],[2.652178,42.235197],[2.652,42.235271],[2.651681,42.235397],[2.651402,42.235534]]]]}}]}