{"type":"FeatureCollection","name":"ICGC Àrees de poblament - Sant Miquel de Campmajor","features":[{"type":"Feature","id":"171740_171740 AP02 PES 3","properties":{"area_id":"171740_171740 AP02 PES 3","nom":"Falgons","codi_icgc":"171740 AP02 PES 3","categoria":"Àrees de poblament","codi_municipi":"171740","municipi":"Sant Miquel de Campmajor","codi_comarca":"28","comarca":"Pla de l'Estany","provincia":"Girona","font":"ICGC Àrees de poblament v3r1 202602"},"geometry":{"type":"MultiPolygon","coordinates":[[[[2.660786,42.108107],[2.660641,42.108173],[2.66059,42.108196],[2.660539,42.108221],[2.66051,42.108241],[2.660486,42.108266],[2.660473,42.10829],[2.66047,42.108315],[2.660475,42.108332],[2.660488,42.108356],[2.6605,42.108377],[2.660528,42.108413],[2.660593,42.10848],[2.660658,42.108547],[2.660672,42.108563],[2.66069,42.108594],[2.660712,42.108644],[2.660724,42.108668],[2.660738,42.108691],[2.660783,42.108752],[2.660832,42.10881],[2.660865,42.108845],[2.660873,42.108852],[2.660919,42.108896],[2.660922,42.108898],[2.660942,42.108919],[2.661014,42.108896],[2.661015,42.108896],[2.661048,42.108886],[2.661114,42.108864],[2.66113,42.108858],[2.661115,42.108758],[2.661035,42.108657],[2.661064,42.108646],[2.660896,42.108461],[2.660896,42.108461],[2.660901,42.108439],[2.660805,42.108358],[2.660783,42.108323],[2.660778,42.108296],[2.660781,42.108275],[2.660786,42.108248],[2.660809,42.108218],[2.660827,42.108193],[2.661078,42.108064],[2.66109,42.108068],[2.661141,42.108081],[2.661186,42.108091],[2.661234,42.108099],[2.661253,42.1081],[2.661299,42.108059],[2.661353,42.108012],[2.661492,42.10789],[2.661519,42.107866],[2.661429,42.1078],[2.661426,42.107799],[2.66138,42.1078],[2.661284,42.107742],[2.661245,42.107732],[2.661203,42.107715],[2.661166,42.107694],[2.661134,42.107668],[2.661108,42.107639],[2.661092,42.107626],[2.661078,42.107607],[2.661071,42.107586],[2.661073,42.107564],[2.66118,42.107501],[2.661059,42.107377],[2.661009,42.107325],[2.661006,42.107327],[2.660884,42.107384],[2.660823,42.107429],[2.660822,42.10745],[2.660819,42.107464],[2.660815,42.107499],[2.660814,42.107539],[2.660837,42.1076],[2.660856,42.107642],[2.660849,42.107673],[2.660859,42.107717],[2.66086,42.107745],[2.660869,42.107806],[2.660907,42.107865],[2.660993,42.107998],[2.660994,42.108003],[2.660962,42.108018],[2.660786,42.108107]]]]}},{"type":"Feature","id":"171740_171740 AP03 PES 3","properties":{"area_id":"171740_171740 AP03 PES 3","nom":"Sant Martí de Campmajor","codi_icgc":"171740 AP03 PES 3","categoria":"Àrees de poblament","codi_municipi":"171740","municipi":"Sant Miquel de Campmajor","codi_comarca":"28","comarca":"Pla de l'Estany","provincia":"Girona","font":"ICGC Àrees de poblament v3r1 202602"},"geometry":{"type":"MultiPolygon","coordinates":[[[[2.683369,42.127065],[2.683378,42.127067],[2.683379,42.127067],[2.683417,42.127074],[2.683647,42.127093],[2.68366,42.127097],[2.683883,42.12713],[2.68393,42.127086],[2.684121,42.126906],[2.684122,42.126906],[2.684123,42.126907],[2.684623,42.127199],[2.685023,42.126838],[2.685224,42.126656],[2.685302,42.126606],[2.685416,42.126576],[2.685418,42.126576],[2.685507,42.126548],[2.685516,42.126542],[2.685549,42.12652],[2.685618,42.12644],[2.685642,42.126347],[2.685641,42.126232],[2.68562,42.126098],[2.685604,42.125993],[2.685567,42.125874],[2.685221,42.125951],[2.685056,42.125988],[2.685045,42.125962],[2.68499,42.125761],[2.684936,42.125721],[2.684689,42.125673],[2.684609,42.125679],[2.684596,42.125575],[2.684591,42.125528],[2.683841,42.125577],[2.683732,42.125594],[2.683633,42.125617],[2.683629,42.125618],[2.683608,42.125624],[2.683534,42.12567],[2.683499,42.125736],[2.683502,42.125858],[2.683547,42.126009],[2.68357,42.126056],[2.683617,42.126189],[2.683643,42.126275],[2.683642,42.126382],[2.683642,42.126486],[2.683637,42.126536],[2.683607,42.126689],[2.683517,42.126815],[2.683475,42.126865],[2.683369,42.127065]]]]}},{"type":"Feature","id":"171740_171740 AP01 PES 3","properties":{"area_id":"171740_171740 AP01 PES 3","nom":"Sant Miquel de Campmajor","codi_icgc":"171740 AP01 PES 3","categoria":"Àrees de poblament","codi_municipi":"171740","municipi":"Sant Miquel de Campmajor","codi_comarca":"28","comarca":"Pla de l'Estany","provincia":"Girona","font":"ICGC Àrees de poblament v3r1 202602"},"geometry":{"type":"MultiPolygon","coordinates":[[[[2.679528,42.135853],[2.679489,42.135835],[2.679456,42.135813],[2.679437,42.135796],[2.679421,42.135776],[2.679411,42.135753],[2.679399,42.135705],[2.679387,42.135675],[2.679374,42.135658],[2.679364,42.135648],[2.679351,42.13564],[2.679341,42.135637],[2.679301,42.135636],[2.679261,42.135637],[2.679184,42.135639],[2.679166,42.13564],[2.679173,42.135459],[2.678571,42.135404],[2.678423,42.135401],[2.678299,42.135392],[2.678142,42.135385],[2.678019,42.135367],[2.677971,42.135355],[2.677751,42.135249],[2.677748,42.135248],[2.67771,42.13528],[2.677658,42.135324],[2.677643,42.135364],[2.677658,42.135382],[2.677664,42.13539],[2.677672,42.135397],[2.67768,42.135401],[2.677696,42.135413],[2.677715,42.135425],[2.677734,42.135437],[2.677724,42.135478],[2.677709,42.13553],[2.677707,42.13554],[2.677688,42.135654],[2.677683,42.135711],[2.67768,42.135769],[2.677682,42.135792],[2.677684,42.135797],[2.677676,42.135817],[2.677454,42.135932],[2.677447,42.135959],[2.677438,42.135993],[2.677428,42.136029],[2.677505,42.13614],[2.677382,42.136208],[2.67752,42.136377],[2.677577,42.13637],[2.677605,42.136363],[2.677692,42.136336],[2.677777,42.136303],[2.677885,42.136256],[2.677935,42.136229],[2.677983,42.136198],[2.678023,42.136164],[2.678072,42.136111],[2.678116,42.136053],[2.67814,42.136017],[2.67817,42.135964],[2.678197,42.135909],[2.678198,42.135905],[2.678197,42.1359],[2.678192,42.135899],[2.678186,42.1359],[2.678286,42.135826],[2.678323,42.135807],[2.678438,42.135742],[2.678476,42.135736],[2.678543,42.135717],[2.678641,42.135695],[2.67869,42.135689],[2.67874,42.135688],[2.678833,42.135691],[2.678855,42.135692],[2.67888,42.135692],[2.678903,42.135698],[2.678923,42.135708],[2.678937,42.135723],[2.678945,42.13574],[2.678945,42.135758],[2.678943,42.135762],[2.678949,42.135808],[2.678955,42.135854],[2.678968,42.135956],[2.678983,42.136058],[2.678991,42.136095],[2.679005,42.136133],[2.679016,42.136148],[2.679037,42.136166],[2.679062,42.13618],[2.679137,42.136206],[2.679209,42.13623],[2.67924,42.136243],[2.679286,42.136266],[2.679334,42.136289],[2.679383,42.136307],[2.679435,42.13632],[2.679474,42.136323],[2.679514,42.136319],[2.679537,42.136311],[2.679557,42.136299],[2.679569,42.136287],[2.679578,42.136273],[2.679583,42.136253],[2.679583,42.136232],[2.679576,42.136194],[2.679569,42.136156],[2.679565,42.136126],[2.67956,42.136095],[2.679558,42.136002],[2.679555,42.135861],[2.679528,42.135853]]]]}},{"type":"Feature","id":"171740_171740 AP04 PES 3","properties":{"area_id":"171740_171740 AP04 PES 3","nom":"Ventatjol","codi_icgc":"171740 AP04 PES 3","categoria":"Àrees de poblament","codi_municipi":"171740","municipi":"Sant Miquel de Campmajor","codi_comarca":"28","comarca":"Pla de l'Estany","provincia":"Girona","font":"ICGC Àrees de poblament v3r1 202602"},"geometry":{"type":"MultiPolygon","coordinates":[[[[2.666317,42.155036],[2.666253,42.155198],[2.666547,42.155294],[2.666624,42.155208],[2.666637,42.155104],[2.666317,42.155036]]]]}}]}