{"type":"FeatureCollection","name":"ICGC Àrees de poblament - la Selva de Mar","features":[{"type":"Feature","id":"171886_171886 AP01 AEM 3","properties":{"area_id":"171886_171886 AP01 AEM 3","nom":"la Selva de Mar","codi_icgc":"171886 AP01 AEM 3","categoria":"Àrees de poblament","codi_municipi":"171886","municipi":"la Selva de Mar","codi_comarca":"02","comarca":"Alt Empordà","provincia":"Girona","font":"ICGC Àrees de poblament v3r1 202602"},"geometry":{"type":"MultiPolygon","coordinates":[[[[3.190335,42.325468],[3.190386,42.325298],[3.190446,42.325089],[3.19047,42.325009],[3.190493,42.32491],[3.189538,42.324826],[3.189035,42.324767],[3.189064,42.324718],[3.189141,42.324711],[3.189182,42.324701],[3.189211,42.324673],[3.189311,42.324442],[3.189361,42.32445],[3.189419,42.324447],[3.189523,42.324431],[3.189574,42.324423],[3.189727,42.324372],[3.189849,42.32432],[3.189894,42.324248],[3.189919,42.324158],[3.190087,42.324238],[3.190318,42.324367],[3.190569,42.32449],[3.190923,42.324533],[3.191006,42.324264],[3.191022,42.324266],[3.191121,42.324272],[3.191308,42.324277],[3.191468,42.324283],[3.191616,42.324292],[3.19168,42.324304],[3.191812,42.324363],[3.191903,42.324411],[3.192036,42.324451],[3.192157,42.32446],[3.192285,42.324456],[3.19238,42.324439],[3.192455,42.324417],[3.192614,42.324729],[3.192635,42.324776],[3.192578,42.324789],[3.192588,42.324823],[3.192237,42.3248],[3.191727,42.324728],[3.191715,42.324726],[3.191674,42.324886],[3.191682,42.324953],[3.192057,42.325049],[3.19225,42.325095],[3.192407,42.325121],[3.192546,42.325134],[3.192724,42.325132],[3.192755,42.32513],[3.192836,42.325122],[3.192914,42.325113],[3.193023,42.325204],[3.193212,42.325347],[3.193354,42.325457],[3.19346,42.325429],[3.193489,42.325419],[3.193518,42.325411],[3.193548,42.325402],[3.193578,42.325395],[3.193596,42.325391],[3.193587,42.325217],[3.193573,42.325155],[3.193569,42.325134],[3.193567,42.325125],[3.193563,42.325106],[3.19356,42.325087],[3.193557,42.325067],[3.193556,42.325048],[3.193555,42.325028],[3.193555,42.325009],[3.193556,42.324989],[3.193558,42.32497],[3.193561,42.32495],[3.193562,42.324943],[3.193563,42.324935],[3.193563,42.324927],[3.193563,42.32492],[3.193562,42.324912],[3.193562,42.324908],[3.193562,42.324903],[3.193562,42.324899],[3.193548,42.324827],[3.193525,42.324822],[3.193652,42.324523],[3.193385,42.324466],[3.193408,42.324398],[3.193447,42.324283],[3.193467,42.324221],[3.193487,42.324159],[3.193491,42.324101],[3.193497,42.324047],[3.193505,42.324006],[3.19352,42.323966],[3.193533,42.32395],[3.19355,42.323934],[3.19359,42.3239],[3.193615,42.323875],[3.193646,42.323833],[3.19366,42.32381],[3.193668,42.323797],[3.193702,42.323798],[3.193708,42.323799],[3.193723,42.3238],[3.193722,42.323787],[3.19372,42.323775],[3.193725,42.323766],[3.193717,42.323755],[3.193706,42.323749],[3.193688,42.323736],[3.193675,42.323728],[3.193669,42.323721],[3.193655,42.323701],[3.19365,42.323693],[3.193638,42.323683],[3.193615,42.323664],[3.193585,42.323647],[3.19355,42.323637],[3.19353,42.323631],[3.193514,42.323623],[3.193505,42.323555],[3.193481,42.323462],[3.193479,42.323457],[3.193478,42.323452],[3.193477,42.323448],[3.193476,42.323443],[3.193475,42.323438],[3.193474,42.323434],[3.193474,42.323429],[3.193473,42.323424],[3.193467,42.32341],[3.193352,42.323398],[3.193342,42.323396],[3.193189,42.323366],[3.193202,42.323414],[3.193217,42.32347],[3.193213,42.323482],[3.193274,42.323696],[3.193275,42.3237],[3.193273,42.323704],[3.193266,42.323707],[3.193255,42.323713],[3.193217,42.323733],[3.19316,42.323771],[3.193109,42.323811],[3.193078,42.32384],[3.193042,42.323872],[3.193017,42.323894],[3.193009,42.323902],[3.192988,42.32392],[3.192926,42.323976],[3.192905,42.323993],[3.192881,42.324007],[3.192768,42.323946],[3.192553,42.323839],[3.192352,42.323994],[3.192347,42.323994],[3.192331,42.324004],[3.1922,42.324079],[3.192072,42.324055],[3.192066,42.324054],[3.192061,42.324052],[3.192056,42.324051],[3.192051,42.324049],[3.192046,42.324047],[3.192042,42.324045],[3.192038,42.324043],[3.191963,42.324011],[3.191686,42.323948],[3.191588,42.323962],[3.19149,42.323975],[3.191435,42.32398],[3.191379,42.323981],[3.191267,42.323977],[3.19113,42.323973],[3.190992,42.323969],[3.190717,42.323907],[3.190375,42.323798],[3.190132,42.323764],[3.190112,42.323818],[3.18999,42.323808],[3.189916,42.32379],[3.189789,42.323747],[3.189782,42.323748],[3.189772,42.323749],[3.189768,42.323749],[3.189754,42.323751],[3.189741,42.323752],[3.189728,42.323755],[3.189715,42.323757],[3.189703,42.32376],[3.189694,42.323764],[3.189651,42.323781],[3.189483,42.323847],[3.18939,42.323875],[3.18938,42.323877],[3.18937,42.323879],[3.18936,42.323882],[3.18935,42.323884],[3.18934,42.323886],[3.18933,42.323889],[3.189321,42.323892],[3.189312,42.323896],[3.189302,42.3239],[3.189293,42.323903],[3.189285,42.323907],[3.189276,42.323912],[3.189268,42.323916],[3.189259,42.323921],[3.189252,42.323926],[3.189244,42.323931],[3.189236,42.323936],[3.189211,42.323954],[3.189186,42.323971],[3.18916,42.323987],[3.189133,42.324003],[3.189105,42.324018],[3.189093,42.324025],[3.18908,42.324031],[3.189068,42.324036],[3.189055,42.324041],[3.189042,42.324046],[3.189028,42.324051],[3.189015,42.324055],[3.189001,42.324059],[3.188987,42.324063],[3.188973,42.324066],[3.188958,42.324069],[3.188944,42.324071],[3.18893,42.324073],[3.188915,42.324075],[3.1889,42.324076],[3.188886,42.324077],[3.188871,42.324078],[3.188856,42.324078],[3.188841,42.324078],[3.188827,42.324077],[3.188812,42.324076],[3.188797,42.324075],[3.188381,42.324038],[3.188375,42.324038],[3.188374,42.324051],[3.187894,42.323942],[3.187849,42.323931],[3.187812,42.323926],[3.18772,42.324065],[3.18751,42.323909],[3.187465,42.323911],[3.187426,42.323882],[3.1873,42.323816],[3.187224,42.323874],[3.187215,42.323881],[3.187145,42.323927],[3.187057,42.323751],[3.187082,42.323732],[3.186992,42.323639],[3.186975,42.323657],[3.186814,42.323538],[3.186769,42.323502],[3.186763,42.323497],[3.186582,42.323347],[3.186538,42.323314],[3.18647,42.323195],[3.186557,42.323196],[3.186557,42.323169],[3.186616,42.32317],[3.186611,42.323079],[3.186607,42.323032],[3.186605,42.323004],[3.186604,42.322976],[3.186605,42.322948],[3.186607,42.32292],[3.18661,42.322893],[3.186615,42.322865],[3.186631,42.32272],[3.186631,42.322718],[3.186631,42.322702],[3.186572,42.322694],[3.186579,42.322673],[3.186631,42.32251],[3.186643,42.322471],[3.186664,42.322408],[3.186626,42.32226],[3.186597,42.322254],[3.186484,42.32241],[3.186463,42.322435],[3.186444,42.322458],[3.186439,42.322457],[3.186439,42.322442],[3.186442,42.322428],[3.186449,42.322412],[3.186457,42.322395],[3.186465,42.322374],[3.186475,42.322352],[3.186478,42.322329],[3.186474,42.322308],[3.186468,42.322286],[3.186462,42.322264],[3.186455,42.322247],[3.186447,42.322231],[3.186435,42.322214],[3.186419,42.3222],[3.186398,42.322183],[3.186375,42.322168],[3.186355,42.322157],[3.186332,42.322147],[3.186301,42.322139],[3.18627,42.322135],[3.186244,42.322134],[3.186217,42.322139],[3.186198,42.322146],[3.186181,42.322153],[3.186162,42.322162],[3.186153,42.322164],[3.186139,42.322166],[3.186125,42.322165],[3.186034,42.322057],[3.186022,42.322041],[3.186038,42.32178],[3.186041,42.321762],[3.186046,42.321733],[3.186052,42.321685],[3.186052,42.32168],[3.186052,42.321674],[3.186052,42.321669],[3.186051,42.321663],[3.18605,42.321657],[3.186049,42.321652],[3.186047,42.321645],[3.186045,42.321641],[3.186043,42.321636],[3.186041,42.321634],[3.186039,42.321631],[3.186035,42.321628],[3.186032,42.321625],[3.186029,42.321622],[3.186025,42.32162],[3.186021,42.321618],[3.186017,42.321616],[3.186011,42.321614],[3.185999,42.321611],[3.185995,42.32161],[3.185989,42.321609],[3.185985,42.321609],[3.185979,42.321609],[3.185973,42.321609],[3.185968,42.32161],[3.185964,42.321611],[3.18596,42.321611],[3.185957,42.321613],[3.185953,42.321614],[3.18595,42.321616],[3.185946,42.321617],[3.185943,42.321619],[3.185941,42.321621],[3.185938,42.321623],[3.185934,42.321627],[3.18593,42.321631],[3.185924,42.321638],[3.185917,42.321645],[3.185912,42.321652],[3.185906,42.32166],[3.185901,42.321668],[3.185896,42.321675],[3.185891,42.321683],[3.185887,42.321691],[3.185883,42.321699],[3.18588,42.321708],[3.185877,42.321716],[3.185874,42.321724],[3.185871,42.321733],[3.185868,42.321742],[3.185861,42.32174],[3.185851,42.321767],[3.185756,42.32202],[3.185736,42.322071],[3.185729,42.322088],[3.185766,42.322233],[3.186117,42.32264],[3.18595,42.322658],[3.18594,42.322659],[3.185886,42.322687],[3.185897,42.322816],[3.185572,42.323026],[3.185548,42.323041],[3.185642,42.323108],[3.185553,42.32323],[3.185421,42.32346],[3.185428,42.32347],[3.18532,42.323642],[3.185297,42.323671],[3.185188,42.32387],[3.18513,42.323849],[3.185044,42.323896],[3.185155,42.323972],[3.185275,42.324037],[3.185285,42.324038],[3.185322,42.324049],[3.185303,42.324078],[3.185333,42.324086],[3.185394,42.324103],[3.185419,42.32421],[3.1855,42.324271],[3.185549,42.324276],[3.185676,42.324287],[3.185659,42.324406],[3.185662,42.324452],[3.18567,42.324597],[3.185697,42.324655],[3.18572,42.324686],[3.185776,42.324783],[3.185794,42.324816],[3.185995,42.324987],[3.186178,42.32505],[3.186276,42.325084],[3.186304,42.325094],[3.186468,42.325134],[3.186651,42.325194],[3.18674,42.325231],[3.186816,42.325272],[3.18682,42.325266],[3.186837,42.325226],[3.186851,42.325195],[3.186889,42.325119],[3.1871,42.325165],[3.187121,42.325085],[3.187289,42.325098],[3.187416,42.325107],[3.187484,42.325113],[3.187516,42.325],[3.187627,42.325019],[3.187631,42.32502],[3.187738,42.325037],[3.187809,42.325052],[3.187829,42.325056],[3.187878,42.325065],[3.187905,42.325073],[3.187922,42.325077],[3.188107,42.325137],[3.188277,42.325179],[3.188365,42.3252],[3.188362,42.325206],[3.188281,42.32541],[3.188271,42.325437],[3.188274,42.325436],[3.189192,42.325482],[3.189236,42.325484],[3.189255,42.325457],[3.189403,42.325511],[3.189544,42.325549],[3.189681,42.325579],[3.189821,42.325603],[3.189998,42.325608],[3.190162,42.325587],[3.190275,42.325536],[3.190335,42.325468]]]]}}]}