{"type":"FeatureCollection","name":"ICGC Àrees de poblament - Santa Pau","features":[{"type":"Feature","id":"171848_171848 AP08 GAX 3","properties":{"area_id":"171848_171848 AP08 GAX 3","nom":"Can Blanc","codi_icgc":"171848 AP08 GAX 3","categoria":"Àrees de poblament","codi_municipi":"171848","municipi":"Santa Pau","codi_comarca":"19","comarca":"Garrotxa","provincia":"Girona","font":"ICGC Àrees de poblament v3r1 202602"},"geometry":{"type":"MultiPolygon","coordinates":[[[[2.512071,42.160558],[2.51238,42.160226],[2.512844,42.159717],[2.513177,42.159341],[2.513146,42.159326],[2.511978,42.158749],[2.511876,42.158706],[2.511493,42.158504],[2.511078,42.158293],[2.510822,42.158175],[2.510568,42.158062],[2.510355,42.15827],[2.510285,42.158284],[2.510279,42.158286],[2.510208,42.158313],[2.510136,42.15834],[2.510073,42.158364],[2.510011,42.158391],[2.509983,42.158408],[2.509969,42.158422],[2.509502,42.158314],[2.509405,42.158447],[2.509327,42.158595],[2.509275,42.158776],[2.509261,42.158909],[2.509285,42.159062],[2.509337,42.159198],[2.509371,42.159244],[2.509379,42.159255],[2.509393,42.159275],[2.509449,42.159352],[2.509486,42.159402],[2.509622,42.159589],[2.509595,42.159617],[2.509377,42.15984],[2.509296,42.159923],[2.509262,42.15996],[2.509565,42.160161],[2.509669,42.16023],[2.509669,42.160409],[2.509669,42.160421],[2.50967,42.160541],[2.50989,42.160579],[2.51006,42.160493],[2.510071,42.160506],[2.510084,42.160514],[2.51009,42.160516],[2.51009,42.160519],[2.510096,42.160551],[2.510102,42.160576],[2.510241,42.16064],[2.510323,42.16096],[2.510324,42.160966],[2.510342,42.161026],[2.51027,42.161238],[2.510998,42.161562],[2.511108,42.161611],[2.511427,42.161253],[2.511721,42.160939],[2.512071,42.160558]]]]}},{"type":"Feature","id":"171848_171848 AP10 GAX 3","properties":{"area_id":"171848_171848 AP10 GAX 3","nom":"Can Font","codi_icgc":"171848 AP10 GAX 3","categoria":"Àrees de poblament","codi_municipi":"171848","municipi":"Santa Pau","codi_comarca":"19","comarca":"Garrotxa","provincia":"Girona","font":"ICGC Àrees de poblament v3r1 202602"},"geometry":{"type":"MultiPolygon","coordinates":[[[[2.571469,42.138302],[2.571472,42.138299],[2.571485,42.138279],[2.571498,42.138259],[2.57152,42.138235],[2.571546,42.138211],[2.571562,42.138193],[2.571578,42.138174],[2.571583,42.138164],[2.571585,42.138163],[2.571584,42.138162],[2.571586,42.138158],[2.571588,42.138155],[2.571586,42.138134],[2.571569,42.13811],[2.571551,42.138089],[2.571522,42.138058],[2.571517,42.138054],[2.571484,42.138031],[2.57144,42.13802],[2.571397,42.138013],[2.571354,42.138006],[2.571312,42.137999],[2.571256,42.137992],[2.571203,42.137985],[2.571174,42.137974],[2.571135,42.137977],[2.571012,42.137986],[2.571021,42.13822],[2.571065,42.138237],[2.571192,42.138251],[2.57144,42.138297],[2.571456,42.1383],[2.571456,42.1383],[2.571469,42.138302]]]]}},{"type":"Feature","id":"171848_171848 AP13 GAX 3","properties":{"area_id":"171848_171848 AP13 GAX 3","nom":"Can Jofre","codi_icgc":"171848 AP13 GAX 3","categoria":"Àrees de poblament","codi_municipi":"171848","municipi":"Santa Pau","codi_comarca":"19","comarca":"Garrotxa","provincia":"Girona","font":"ICGC Àrees de poblament v3r1 202602"},"geometry":{"type":"MultiPolygon","coordinates":[[[[2.512432,42.15639],[2.51198,42.156379],[2.511726,42.15634],[2.511662,42.156268],[2.511654,42.156221],[2.511632,42.1561],[2.511632,42.156029],[2.511622,42.155959],[2.511528,42.15598],[2.511444,42.156009],[2.511209,42.156075],[2.511176,42.156082],[2.511115,42.156094],[2.51102,42.156113],[2.511002,42.156118],[2.510985,42.156127],[2.510953,42.156146],[2.51093,42.156156],[2.510876,42.156171],[2.51082,42.156185],[2.510785,42.156197],[2.510737,42.156218],[2.510688,42.156238],[2.510685,42.156243],[2.510667,42.15625],[2.510655,42.156254],[2.510641,42.156259],[2.51063,42.156264],[2.510539,42.156298],[2.510533,42.1563],[2.510528,42.156301],[2.510525,42.156302],[2.510522,42.156304],[2.510518,42.156305],[2.510515,42.156307],[2.510512,42.156308],[2.510509,42.15631],[2.510507,42.156311],[2.510504,42.156313],[2.510501,42.156315],[2.510498,42.156317],[2.510496,42.156319],[2.510493,42.156321],[2.510491,42.156323],[2.510489,42.156325],[2.510486,42.156327],[2.510484,42.156329],[2.510482,42.156331],[2.510481,42.156334],[2.510477,42.156337],[2.510282,42.156526],[2.510281,42.156583],[2.510282,42.156602],[2.510288,42.156742],[2.510294,42.156876],[2.510295,42.15689],[2.510312,42.157275],[2.509959,42.157579],[2.509952,42.157585],[2.510196,42.157719],[2.510592,42.157442],[2.510581,42.157614],[2.511772,42.157576],[2.511784,42.157297],[2.512169,42.157284],[2.512191,42.156877],[2.512422,42.156857],[2.512432,42.15639]]]]}},{"type":"Feature","id":"171848_171848 AP14 GAX 3","properties":{"area_id":"171848_171848 AP14 GAX 3","nom":"Can Potxa","codi_icgc":"171848 AP14 GAX 3","categoria":"Àrees de poblament","codi_municipi":"171848","municipi":"Santa Pau","codi_comarca":"19","comarca":"Garrotxa","provincia":"Girona","font":"ICGC Àrees de poblament v3r1 202602"},"geometry":{"type":"MultiPolygon","coordinates":[[[[2.512071,42.158684],[2.513247,42.159265],[2.513604,42.158889],[2.513914,42.158552],[2.51432,42.158117],[2.514719,42.157669],[2.514661,42.157623],[2.514469,42.157475],[2.514291,42.157336],[2.514178,42.157233],[2.5141,42.157162],[2.514077,42.157149],[2.514015,42.157097],[2.513962,42.157054],[2.513901,42.157005],[2.513834,42.156961],[2.513784,42.156937],[2.513677,42.156891],[2.513642,42.156875],[2.513637,42.156873],[2.51363,42.15687],[2.513605,42.156851],[2.513596,42.156844],[2.51358,42.156843],[2.513574,42.156843],[2.51352,42.156841],[2.513433,42.156936],[2.51321,42.156827],[2.513074,42.15676],[2.512688,42.157171],[2.512301,42.157577],[2.511933,42.157997],[2.511779,42.157925],[2.511645,42.157888],[2.51153,42.157867],[2.511319,42.157773],[2.51099,42.158143],[2.511545,42.158424],[2.511947,42.158648],[2.512071,42.158684]]]]}},{"type":"Feature","id":"171848_171848 AP07 GAX 3","properties":{"area_id":"171848_171848 AP07 GAX 3","nom":"Can Xell","codi_icgc":"171848 AP07 GAX 3","categoria":"Àrees de poblament","codi_municipi":"171848","municipi":"Santa Pau","codi_comarca":"19","comarca":"Garrotxa","provincia":"Girona","font":"ICGC Àrees de poblament v3r1 202602"},"geometry":{"type":"MultiPolygon","coordinates":[[[[2.533002,42.149304],[2.533229,42.149342],[2.533351,42.149347],[2.533507,42.149354],[2.533525,42.149354],[2.533535,42.149345],[2.533575,42.149306],[2.533583,42.149298],[2.533587,42.149295],[2.533855,42.149037],[2.534013,42.148885],[2.533991,42.148879],[2.534063,42.148799],[2.533867,42.148695],[2.533835,42.148717],[2.533722,42.148663],[2.533721,42.14866],[2.533719,42.148657],[2.533718,42.148654],[2.533716,42.14865],[2.533715,42.148647],[2.533713,42.148644],[2.533711,42.148641],[2.533708,42.148638],[2.533706,42.148635],[2.533704,42.148633],[2.533701,42.14863],[2.533699,42.148627],[2.533744,42.148582],[2.533798,42.148528],[2.533817,42.14851],[2.533907,42.148421],[2.534068,42.148269],[2.534066,42.148265],[2.534074,42.148258],[2.53406,42.148251],[2.534058,42.148246],[2.533675,42.14806],[2.533748,42.148004],[2.533486,42.147737],[2.533305,42.147771],[2.533122,42.148157],[2.533028,42.148351],[2.532995,42.148357],[2.532847,42.14835],[2.532551,42.148335],[2.532255,42.14832],[2.532206,42.148309],[2.532211,42.148261],[2.532216,42.148213],[2.532214,42.148194],[2.532203,42.148176],[2.532181,42.148155],[2.532144,42.148129],[2.532104,42.148105],[2.532059,42.14808],[2.532014,42.148055],[2.531987,42.148039],[2.531959,42.148023],[2.531949,42.148018],[2.531939,42.148013],[2.532087,42.147868],[2.532026,42.147798],[2.531983,42.14775],[2.531973,42.147739],[2.53197,42.147734],[2.531968,42.147731],[2.531966,42.147728],[2.531964,42.147724],[2.531962,42.147721],[2.531961,42.147717],[2.531956,42.147703],[2.531954,42.147694],[2.531952,42.14769],[2.53195,42.147685],[2.531948,42.147682],[2.531945,42.147676],[2.531942,42.147672],[2.531938,42.147668],[2.531904,42.147684],[2.531861,42.147701],[2.531815,42.147714],[2.531762,42.147726],[2.531709,42.147738],[2.531713,42.147734],[2.531713,42.147726],[2.531709,42.147718],[2.531684,42.147669],[2.531663,42.147632],[2.531624,42.147579],[2.531601,42.147553],[2.531573,42.147528],[2.531339,42.14742],[2.530983,42.147504],[2.530835,42.147544],[2.530838,42.14756],[2.530862,42.147677],[2.530871,42.147732],[2.530879,42.147815],[2.530879,42.147819],[2.530879,42.147872],[2.530879,42.147925],[2.530874,42.147945],[2.530865,42.14796],[2.530845,42.14798],[2.530821,42.147998],[2.530789,42.148013],[2.530738,42.148027],[2.530713,42.148035],[2.530662,42.14807],[2.530649,42.148072],[2.530642,42.148076],[2.530632,42.14808],[2.530623,42.148086],[2.530614,42.148098],[2.530606,42.148109],[2.530602,42.148119],[2.530598,42.148129],[2.530597,42.148134],[2.530596,42.148138],[2.530595,42.148143],[2.530598,42.148148],[2.530598,42.148151],[2.530602,42.148168],[2.530603,42.14817],[2.530604,42.148173],[2.530605,42.148175],[2.530606,42.148178],[2.530607,42.14818],[2.530608,42.148183],[2.530609,42.148185],[2.530611,42.148188],[2.530612,42.14819],[2.530614,42.148193],[2.530616,42.148195],[2.530618,42.148197],[2.530663,42.148263],[2.53071,42.148331],[2.530729,42.148342],[2.530791,42.148356],[2.530755,42.148373],[2.530722,42.148394],[2.530709,42.148405],[2.530513,42.148605],[2.530461,42.148661],[2.530409,42.148717],[2.530383,42.148748],[2.530346,42.148792],[2.530342,42.148797],[2.530322,42.148825],[2.530496,42.14883],[2.530585,42.14887],[2.530785,42.148992],[2.531084,42.149173],[2.531277,42.14929],[2.531293,42.149299],[2.531297,42.149302],[2.531405,42.149308],[2.531624,42.149319],[2.531452,42.149303],[2.531707,42.149323],[2.531712,42.149323],[2.531726,42.149321],[2.53181,42.149309],[2.531823,42.149309],[2.532036,42.149276],[2.53211,42.149272],[2.532339,42.149259],[2.53248,42.149259],[2.532573,42.14926],[2.533002,42.149304]]]]}},{"type":"Feature","id":"171848_171848 SI01 GAX 2","properties":{"area_id":"171848_171848 SI01 GAX 2","nom":"Cooperativa La Fageda","codi_icgc":"171848 SI01 GAX 2","categoria":"Sector industrial","codi_municipi":"171848","municipi":"Santa Pau","codi_comarca":"19","comarca":"Garrotxa","provincia":"Girona","font":"ICGC Àrees de poblament v3r1 202602"},"geometry":{"type":"MultiPolygon","coordinates":[[[[2.522648,42.140263],[2.52266,42.14022],[2.522952,42.139996],[2.523125,42.139881],[2.523128,42.139877],[2.523279,42.13967],[2.523425,42.139346],[2.523167,42.139255],[2.523153,42.139126],[2.523144,42.139066],[2.523144,42.139016],[2.523145,42.138966],[2.523145,42.138923],[2.523136,42.138883],[2.52304,42.138833],[2.522964,42.138811],[2.522561,42.138745],[2.522506,42.138738],[2.522297,42.138724],[2.52223,42.138696],[2.5219,42.138392],[2.521704,42.138363],[2.521512,42.138308],[2.521373,42.138279],[2.521172,42.13825],[2.520933,42.138194],[2.520472,42.138091],[2.520423,42.13811],[2.520379,42.138134],[2.520341,42.138164],[2.520321,42.138185],[2.520304,42.138207],[2.520296,42.13822],[2.520279,42.138256],[2.520269,42.138295],[2.520269,42.138334],[2.520276,42.138372],[2.520361,42.138459],[2.520388,42.138486],[2.520439,42.138547],[2.519908,42.139086],[2.519959,42.139179],[2.520007,42.139211],[2.520042,42.139246],[2.520048,42.139282],[2.52001,42.139355],[2.520011,42.139356],[2.519987,42.139475],[2.519981,42.139505],[2.520001,42.139525],[2.520025,42.139543],[2.520053,42.139557],[2.520083,42.139567],[2.520115,42.139574],[2.520148,42.139577],[2.5205,42.13956],[2.521321,42.139504],[2.521444,42.139634],[2.521356,42.139751],[2.521138,42.140101],[2.521133,42.14013],[2.521145,42.14017],[2.52115,42.14019],[2.521187,42.140189],[2.521262,42.140194],[2.521312,42.140201],[2.521378,42.140213],[2.521464,42.140234],[2.521566,42.140262],[2.52167,42.140289],[2.521811,42.140319],[2.521953,42.140344],[2.52205,42.140357],[2.522135,42.140361],[2.52222,42.140359],[2.522277,42.140353],[2.522403,42.140338],[2.522529,42.140322],[2.522547,42.14032],[2.522565,42.140318],[2.522628,42.140306],[2.522652,42.140296],[2.522648,42.140263]]]]}},{"type":"Feature","id":"171848_171848 AP04 GAX 2","properties":{"area_id":"171848_171848 AP04 GAX 2","nom":"Mascou","codi_icgc":"171848 AP04 GAX 2","categoria":"Àrees de poblament","codi_municipi":"171848","municipi":"Santa Pau","codi_comarca":"19","comarca":"Garrotxa","provincia":"Girona","font":"ICGC Àrees de poblament v3r1 202602"},"geometry":{"type":"MultiPolygon","coordinates":[[[[2.568474,42.153975],[2.568482,42.153963],[2.568494,42.153934],[2.568498,42.15391],[2.568511,42.153883],[2.568567,42.153862],[2.568703,42.153857],[2.568911,42.153843],[2.569051,42.153843],[2.569191,42.153841],[2.56924,42.153843],[2.569247,42.153843],[2.56925,42.153606],[2.569248,42.153582],[2.569254,42.153553],[2.569254,42.153551],[2.569262,42.153508],[2.569333,42.153508],[2.569332,42.153389],[2.569328,42.153384],[2.569315,42.153308],[2.569323,42.15329],[2.5693,42.153216],[2.569223,42.153212],[2.569189,42.153126],[2.568848,42.153134],[2.568792,42.153145],[2.568756,42.153156],[2.568729,42.153164],[2.568655,42.153203],[2.568646,42.15321],[2.568638,42.153217],[2.568619,42.153239],[2.568602,42.153262],[2.568589,42.153283],[2.568575,42.153304],[2.568486,42.153344],[2.56844,42.153364],[2.568258,42.153423],[2.568391,42.153631],[2.568162,42.153698],[2.568105,42.153733],[2.568012,42.153801],[2.567981,42.153833],[2.567993,42.153857],[2.568045,42.153956],[2.568056,42.153977],[2.568254,42.153974],[2.568378,42.153995],[2.568474,42.153975]]]]}},{"type":"Feature","id":"171848_171848 AP15 GAX 2","properties":{"area_id":"171848_171848 AP15 GAX 2","nom":"Puig de Mar","codi_icgc":"171848 AP15 GAX 2","categoria":"Àrees de poblament","codi_municipi":"171848","municipi":"Santa Pau","codi_comarca":"19","comarca":"Garrotxa","provincia":"Girona","font":"ICGC Àrees de poblament v3r1 202602"},"geometry":{"type":"MultiPolygon","coordinates":[[[[2.56218,42.145821],[2.562271,42.14581],[2.562343,42.14581],[2.562345,42.145823],[2.562433,42.145817],[2.562432,42.145791],[2.562565,42.145774],[2.562611,42.145758],[2.562772,42.145703],[2.562791,42.145696],[2.562806,42.145649],[2.562821,42.145637],[2.562788,42.145609],[2.562788,42.145581],[2.562845,42.145551],[2.562847,42.145518],[2.562891,42.145302],[2.56294,42.145133],[2.562895,42.145075],[2.562828,42.145046],[2.562611,42.144982],[2.562585,42.144974],[2.562579,42.144981],[2.562536,42.144958],[2.562491,42.144934],[2.562446,42.144908],[2.562401,42.144879],[2.562312,42.144821],[2.562243,42.14478],[2.562172,42.144742],[2.562092,42.144709],[2.562008,42.144683],[2.561932,42.144663],[2.561855,42.144647],[2.561821,42.144643],[2.561787,42.144642],[2.561728,42.144646],[2.56167,42.144653],[2.561657,42.144655],[2.561636,42.144658],[2.561602,42.144668],[2.561578,42.144684],[2.561562,42.144703],[2.561498,42.145012],[2.561548,42.145035],[2.561535,42.145147],[2.56151,42.145266],[2.561491,42.145263],[2.561483,42.14529],[2.561473,42.145321],[2.561456,42.145319],[2.561451,42.145342],[2.561432,42.145394],[2.561418,42.145477],[2.561441,42.145559],[2.561473,42.145559],[2.561481,42.145598],[2.56154,42.145715],[2.561613,42.145788],[2.561776,42.145828],[2.561806,42.145836],[2.561833,42.145826],[2.561836,42.145819],[2.562013,42.145851],[2.562019,42.14586],[2.562027,42.145865],[2.562027,42.145865],[2.562038,42.145868],[2.562049,42.145867],[2.562059,42.145865],[2.562061,42.145865],[2.562073,42.145862],[2.562186,42.145831],[2.56218,42.145821]]]]}},{"type":"Feature","id":"171848_171848 AP11 GAX 3","properties":{"area_id":"171848_171848 AP11 GAX 3","nom":"Pujolars","codi_icgc":"171848 AP11 GAX 3","categoria":"Àrees de poblament","codi_municipi":"171848","municipi":"Santa Pau","codi_comarca":"19","comarca":"Garrotxa","provincia":"Girona","font":"ICGC Àrees de poblament v3r1 202602"},"geometry":{"type":"MultiPolygon","coordinates":[[[[2.563361,42.136238],[2.563443,42.136199],[2.563531,42.136158],[2.5636,42.136088],[2.563688,42.136017],[2.563783,42.13598],[2.563924,42.13598],[2.56407,42.135994],[2.564131,42.135992],[2.56418,42.135974],[2.564249,42.135939],[2.56427,42.135919],[2.564275,42.135871],[2.564281,42.135814],[2.564493,42.135569],[2.564424,42.135502],[2.564126,42.135634],[2.564039,42.13567],[2.56391,42.135702],[2.563669,42.13571],[2.563459,42.135731],[2.563287,42.135804],[2.563218,42.135865],[2.563166,42.135899],[2.563051,42.135931],[2.562949,42.135969],[2.562946,42.135969],[2.562945,42.13597],[2.562944,42.135969],[2.562927,42.135976],[2.562829,42.13602],[2.562732,42.136066],[2.562671,42.136095],[2.562611,42.136123],[2.56261,42.136123],[2.562552,42.136152],[2.562468,42.136199],[2.562387,42.136249],[2.562326,42.136291],[2.562298,42.136314],[2.562274,42.136339],[2.56229,42.136353],[2.562304,42.136365],[2.562395,42.136468],[2.562401,42.136467],[2.562622,42.136439],[2.562862,42.136374],[2.562869,42.136371],[2.563159,42.136264],[2.563361,42.136238]]]]}},{"type":"Feature","id":"171848_171848 AP05 GAX 3","properties":{"area_id":"171848_171848 AP05 GAX 3","nom":"Sant Martí","codi_icgc":"171848 AP05 GAX 3","categoria":"Àrees de poblament","codi_municipi":"171848","municipi":"Santa Pau","codi_comarca":"19","comarca":"Garrotxa","provincia":"Girona","font":"ICGC Àrees de poblament v3r1 202602"},"geometry":{"type":"MultiPolygon","coordinates":[[[[2.579996,42.154221],[2.579862,42.154188],[2.579808,42.15416],[2.579706,42.154165],[2.579289,42.15425],[2.579269,42.154292],[2.579254,42.154298],[2.579254,42.154307],[2.579218,42.154333],[2.579142,42.154341],[2.579075,42.15433],[2.578939,42.154287],[2.578933,42.154291],[2.578781,42.154388],[2.578784,42.154392],[2.57873,42.154414],[2.578666,42.154514],[2.578697,42.154576],[2.578787,42.154639],[2.578851,42.154639],[2.57892,42.154624],[2.57894,42.15462],[2.579015,42.154616],[2.579204,42.154511],[2.579275,42.15444],[2.579545,42.154298],[2.579833,42.154256],[2.579943,42.15438],[2.580045,42.154461],[2.580109,42.154506],[2.580171,42.154536],[2.580236,42.154559],[2.58048,42.154629],[2.580572,42.154633],[2.580661,42.154621],[2.580913,42.154595],[2.581046,42.154426],[2.580791,42.154321],[2.580619,42.154252],[2.580459,42.154186],[2.580256,42.15403],[2.580209,42.153958],[2.579929,42.153793],[2.579821,42.1539],[2.580079,42.154166],[2.580055,42.154187],[2.580087,42.154241],[2.579996,42.154221]]]]}},{"type":"Feature","id":"171848_171848 AP12 GAX 3","properties":{"area_id":"171848_171848 AP12 GAX 3","nom":"Sant Miquel Sacot","codi_icgc":"171848 AP12 GAX 3","categoria":"Àrees de poblament","codi_municipi":"171848","municipi":"Santa Pau","codi_comarca":"19","comarca":"Garrotxa","provincia":"Girona","font":"ICGC Àrees de poblament v3r1 202602"},"geometry":{"type":"MultiPolygon","coordinates":[[[[2.532204,42.139443],[2.532244,42.139441],[2.532288,42.139442],[2.532353,42.139429],[2.532366,42.139407],[2.532372,42.139378],[2.532372,42.139366],[2.532406,42.139368],[2.532392,42.13924],[2.53236,42.139224],[2.53236,42.139224],[2.532339,42.13919],[2.532319,42.139157],[2.532283,42.13912],[2.532186,42.139018],[2.532107,42.139035],[2.532103,42.13903],[2.532103,42.13903],[2.532097,42.139021],[2.532062,42.139001],[2.532057,42.139005],[2.53202,42.13902],[2.531988,42.139027],[2.531954,42.139033],[2.531919,42.13904],[2.531884,42.139048],[2.531853,42.139057],[2.531816,42.139069],[2.531817,42.139082],[2.531685,42.139015],[2.531532,42.138938],[2.531496,42.138723],[2.531482,42.13867],[2.531444,42.138612],[2.531523,42.138417],[2.531517,42.138241],[2.531415,42.138202],[2.531301,42.138131],[2.531269,42.138111],[2.531218,42.13803],[2.531193,42.137906],[2.53122,42.13772],[2.531234,42.137558],[2.5312,42.137428],[2.531014,42.137363],[2.530947,42.137341],[2.530943,42.137245],[2.530939,42.137177],[2.530943,42.137119],[2.530945,42.137023],[2.530941,42.136919],[2.530903,42.136758],[2.530793,42.136712],[2.530778,42.136762],[2.530754,42.136851],[2.530655,42.137108],[2.53066,42.137222],[2.530749,42.137409],[2.530767,42.137494],[2.530746,42.13778],[2.530675,42.137909],[2.530667,42.138066],[2.530718,42.138157],[2.530833,42.138176],[2.531012,42.138182],[2.530985,42.138306],[2.530921,42.138401],[2.530868,42.138579],[2.530828,42.138793],[2.530812,42.139001],[2.530753,42.139208],[2.530636,42.139432],[2.530669,42.139522],[2.530832,42.139562],[2.530971,42.139609],[2.531109,42.139685],[2.531171,42.139803],[2.531151,42.139892],[2.531179,42.139978],[2.531203,42.14],[2.531357,42.14],[2.531434,42.139961],[2.53156,42.139801],[2.531662,42.13968],[2.531739,42.139662],[2.531835,42.139609],[2.531952,42.139544],[2.532054,42.139528],[2.532102,42.139514],[2.532154,42.139488],[2.532184,42.139455],[2.532204,42.139443]]],[[[2.530561,42.140571],[2.530485,42.14052],[2.530315,42.140519],[2.530113,42.140536],[2.530024,42.140569],[2.529976,42.140601],[2.529955,42.140661],[2.529959,42.140756],[2.529942,42.140842],[2.529926,42.140884],[2.529866,42.140913],[2.529693,42.140972],[2.529621,42.141014],[2.529556,42.14107],[2.529549,42.141128],[2.529616,42.141166],[2.529601,42.141216],[2.529628,42.141223],[2.529767,42.14127],[2.529975,42.141259],[2.530079,42.141233],[2.5302,42.141192],[2.530284,42.141133],[2.530369,42.141061],[2.530397,42.141014],[2.530446,42.14094],[2.53047,42.140877],[2.530531,42.140788],[2.530556,42.140713],[2.530576,42.140639],[2.530561,42.140571]]]]}},{"type":"Feature","id":"171848_171848 AP18 GAX 3","properties":{"area_id":"171848_171848 AP18 GAX 3","nom":"Santa Llúcia","codi_icgc":"171848 AP18 GAX 3","categoria":"Àrees de poblament","codi_municipi":"171848","municipi":"Santa Pau","codi_comarca":"19","comarca":"Garrotxa","provincia":"Girona","font":"ICGC Àrees de poblament v3r1 202602"},"geometry":{"type":"MultiPolygon","coordinates":[[[[2.554538,42.147578],[2.554559,42.147382],[2.554506,42.14738],[2.55451,42.147288],[2.554276,42.147274],[2.55427,42.147397],[2.553952,42.147392],[2.55396,42.147497],[2.553967,42.147692],[2.554016,42.147696],[2.554081,42.147699],[2.554145,42.147702],[2.554233,42.147701],[2.554321,42.147697],[2.554393,42.147691],[2.554464,42.147683],[2.554528,42.147672],[2.554536,42.147593],[2.554538,42.147578]]],[[[2.552051,42.147538],[2.552078,42.147532],[2.552091,42.147532],[2.552231,42.147533],[2.552232,42.147532],[2.552238,42.147375],[2.552238,42.147355],[2.55226,42.147201],[2.551794,42.147151],[2.551777,42.147145],[2.551746,42.147136],[2.551711,42.147128],[2.551685,42.147124],[2.551628,42.147116],[2.551573,42.147102],[2.551515,42.14709],[2.551479,42.147086],[2.551447,42.14708],[2.551445,42.14708],[2.5514,42.147067],[2.551351,42.147054],[2.551279,42.14705],[2.551207,42.147056],[2.551124,42.147068],[2.551042,42.147083],[2.550986,42.147096],[2.550929,42.147109],[2.550873,42.147123],[2.550817,42.147137],[2.550775,42.14715],[2.550733,42.147163],[2.550691,42.147175],[2.550649,42.147188],[2.550613,42.147192],[2.550577,42.147189],[2.550554,42.147185],[2.550532,42.147178],[2.5505,42.147168],[2.550467,42.147158],[2.550435,42.147149],[2.5504,42.147144],[2.550366,42.147144],[2.550336,42.147143],[2.550309,42.147134],[2.550292,42.14713],[2.550275,42.147107],[2.550275,42.147107],[2.550252,42.147105],[2.550192,42.147101],[2.550108,42.147086],[2.550032,42.147033],[2.550072,42.146743],[2.549388,42.146683],[2.549366,42.146905],[2.549364,42.14692],[2.54936,42.146964],[2.549462,42.146969],[2.549545,42.146988],[2.549654,42.147032],[2.549623,42.147222],[2.549891,42.147252],[2.55027,42.147289],[2.550437,42.147959],[2.55079,42.147899],[2.551001,42.147871],[2.551207,42.147815],[2.551348,42.147775],[2.551425,42.147754],[2.551563,42.14769],[2.551701,42.147626],[2.55176,42.14761],[2.551874,42.147579],[2.552051,42.147538]]]]}},{"type":"Feature","id":"171848_171848 AP01 GAX 3","properties":{"area_id":"171848_171848 AP01 GAX 3","nom":"Santa Pau","codi_icgc":"171848 AP01 GAX 3","categoria":"Àrees de poblament","codi_municipi":"171848","municipi":"Santa Pau","codi_comarca":"19","comarca":"Garrotxa","provincia":"Girona","font":"ICGC Àrees de poblament v3r1 202602"},"geometry":{"type":"MultiPolygon","coordinates":[[[[2.568745,42.14249],[2.568809,42.142712],[2.568827,42.142717],[2.568843,42.142729],[2.568851,42.142953],[2.568855,42.142959],[2.56891,42.142957],[2.568925,42.142955],[2.568943,42.143077],[2.568995,42.143075],[2.56919,42.143085],[2.569386,42.143122],[2.569406,42.143128],[2.569529,42.143161],[2.569573,42.14317],[2.56964,42.14318],[2.569672,42.143186],[2.569765,42.143212],[2.569885,42.14324],[2.569825,42.143318],[2.569767,42.143395],[2.569594,42.143504],[2.569642,42.143546],[2.569705,42.143668],[2.569784,42.143709],[2.569887,42.143746],[2.569928,42.143763],[2.56999,42.143825],[2.570009,42.143835],[2.570026,42.143849],[2.570041,42.143859],[2.570048,42.143869],[2.57005,42.143882],[2.570051,42.143892],[2.570044,42.143896],[2.57003,42.143907],[2.570018,42.143916],[2.569994,42.143935],[2.569961,42.14396],[2.569904,42.144002],[2.569813,42.144059],[2.569799,42.144066],[2.569793,42.144069],[2.569786,42.14407],[2.56978,42.14407],[2.569775,42.144068],[2.56977,42.144066],[2.569765,42.144062],[2.569699,42.144009],[2.569583,42.143946],[2.569504,42.143942],[2.569342,42.143965],[2.56933,42.143967],[2.568859,42.144198],[2.568811,42.144248],[2.56879,42.14427],[2.568786,42.14428],[2.568773,42.144318],[2.568758,42.144363],[2.568757,42.144368],[2.568751,42.144386],[2.568746,42.144399],[2.568724,42.144467],[2.568707,42.144517],[2.568693,42.144613],[2.568954,42.144843],[2.56869,42.145004],[2.568383,42.145065],[2.56833,42.145322],[2.567581,42.145162],[2.566955,42.145031],[2.567034,42.144912],[2.566979,42.144916],[2.566771,42.144916],[2.566648,42.144959],[2.566579,42.144975],[2.566543,42.144984],[2.566492,42.145003],[2.566439,42.145002],[2.566375,42.145001],[2.566257,42.14498],[2.566263,42.144968],[2.566052,42.144955],[2.566029,42.145],[2.565983,42.145003],[2.565945,42.144999],[2.565875,42.144991],[2.565809,42.144979],[2.565734,42.144962],[2.565636,42.144943],[2.565602,42.144938],[2.565534,42.144923],[2.565516,42.144918],[2.565496,42.144907],[2.565488,42.144895],[2.56546,42.144889],[2.565442,42.144931],[2.565441,42.144979],[2.565435,42.145047],[2.565421,42.145124],[2.565403,42.1452],[2.565376,42.145263],[2.565358,42.145282],[2.565337,42.145294],[2.565328,42.145297],[2.565312,42.145325],[2.567265,42.145804],[2.567639,42.145926],[2.567606,42.14601],[2.567614,42.146014],[2.567588,42.146077],[2.567576,42.146104],[2.567512,42.146256],[2.567509,42.146264],[2.567672,42.146297],[2.567677,42.146313],[2.567784,42.146336],[2.567816,42.146343],[2.567848,42.146348],[2.56788,42.146353],[2.567913,42.146358],[2.567959,42.146364],[2.568005,42.146371],[2.56805,42.146379],[2.568096,42.146388],[2.56814,42.146398],[2.568142,42.146393],[2.568176,42.1464],[2.568292,42.14618],[2.568475,42.146226],[2.568449,42.146287],[2.568362,42.146489],[2.568351,42.146525],[2.568332,42.146589],[2.568473,42.146622],[2.568554,42.14664],[2.568561,42.146642],[2.568394,42.146985],[2.568492,42.147023],[2.568269,42.147441],[2.568252,42.147473],[2.56821,42.147553],[2.568089,42.147783],[2.568067,42.147824],[2.568113,42.147841],[2.568085,42.1479],[2.568066,42.147896],[2.56805,42.147915],[2.568028,42.147909],[2.568015,42.147928],[2.568059,42.147957],[2.568372,42.148161],[2.568318,42.148263],[2.568315,42.148269],[2.568264,42.148373],[2.568019,42.148409],[2.567866,42.148433],[2.567882,42.148468],[2.56796,42.148758],[2.567744,42.148798],[2.567475,42.148863],[2.567538,42.149096],[2.568207,42.149009],[2.568121,42.148736],[2.568284,42.148709],[2.568448,42.148683],[2.56857,42.148664],[2.568693,42.148644],[2.568789,42.148632],[2.568849,42.148624],[2.568877,42.148619],[2.569002,42.148595],[2.569156,42.148569],[2.569259,42.148555],[2.569299,42.148549],[2.569443,42.148529],[2.569534,42.148514],[2.569625,42.148498],[2.569665,42.148492],[2.569705,42.148485],[2.569737,42.148478],[2.569753,42.148475],[2.569757,42.148474],[2.569756,42.148511],[2.569754,42.148534],[2.569749,42.148563],[2.569738,42.148611],[2.569729,42.148652],[2.569727,42.14866],[2.569725,42.148671],[2.569716,42.148712],[2.569708,42.148741],[2.5697,42.148769],[2.569698,42.148774],[2.569685,42.148822],[2.569677,42.148853],[2.569706,42.148863],[2.569745,42.148878],[2.569829,42.148908],[2.570088,42.148945],[2.570146,42.148918],[2.570148,42.148912],[2.570212,42.148714],[2.570208,42.148599],[2.570269,42.148577],[2.570323,42.148557],[2.570375,42.148534],[2.570406,42.148515],[2.570466,42.148472],[2.570526,42.14843],[2.570647,42.148416],[2.570724,42.148411],[2.570762,42.148408],[2.570856,42.148402],[2.570988,42.148394],[2.571055,42.148389],[2.571101,42.148383],[2.571108,42.148383],[2.571114,42.148382],[2.571122,42.148381],[2.571127,42.14838],[2.571133,42.148379],[2.57114,42.148378],[2.571146,42.148376],[2.571152,42.148375],[2.571158,42.148374],[2.571163,42.148373],[2.571171,42.14837],[2.571177,42.148368],[2.571203,42.148361],[2.5712,42.148372],[2.571196,42.148379],[2.571221,42.148373],[2.571258,42.148342],[2.571276,42.148326],[2.571319,42.148288],[2.57136,42.148253],[2.571361,42.14825],[2.5717,42.148315],[2.571834,42.148341],[2.5719,42.148289],[2.57198,42.148237],[2.571951,42.148182],[2.571911,42.148093],[2.571858,42.147975],[2.571845,42.147946],[2.571852,42.147789],[2.571933,42.147792],[2.572106,42.147802],[2.572147,42.147804],[2.572138,42.147903],[2.572137,42.14792],[2.572488,42.147931],[2.572485,42.148051],[2.572616,42.148046],[2.572645,42.148122],[2.572824,42.148069],[2.572912,42.148051],[2.572919,42.148004],[2.572928,42.14794],[2.57297,42.147942],[2.572973,42.147925],[2.572979,42.147867],[2.572979,42.14778],[2.572983,42.147736],[2.572993,42.147693],[2.573016,42.147632],[2.573038,42.147571],[2.57307,42.147484],[2.573109,42.147387],[2.573153,42.147277],[2.574102,42.147556],[2.574092,42.147501],[2.57409,42.147491],[2.574087,42.147478],[2.574086,42.147457],[2.574085,42.147453],[2.574083,42.147438],[2.574076,42.147402],[2.574063,42.147351],[2.574042,42.147295],[2.574022,42.147241],[2.573996,42.147163],[2.573986,42.147133],[2.573984,42.147124],[2.573981,42.147117],[2.573968,42.147082],[2.573942,42.147026],[2.573924,42.146982],[2.573861,42.146817],[2.573848,42.146776],[2.573836,42.146738],[2.573822,42.146686],[2.573808,42.146633],[2.573792,42.146581],[2.573766,42.146528],[2.573728,42.146479],[2.573686,42.146434],[2.573555,42.146304],[2.573422,42.146175],[2.573371,42.146125],[2.573337,42.146093],[2.573248,42.146013],[2.573161,42.145946],[2.573119,42.145914],[2.573105,42.145904],[2.573091,42.145894],[2.573073,42.14588],[2.573057,42.145868],[2.573055,42.145866],[2.573052,42.145864],[2.573046,42.145859],[2.573035,42.145846],[2.573032,42.145843],[2.573031,42.145841],[2.573029,42.145838],[2.573027,42.145835],[2.573025,42.145831],[2.573024,42.145827],[2.573023,42.145824],[2.573022,42.145819],[2.573022,42.145817],[2.573021,42.145813],[2.573021,42.14581],[2.573022,42.145807],[2.573022,42.145804],[2.573023,42.1458],[2.573024,42.145797],[2.573025,42.145794],[2.573043,42.145758],[2.573049,42.145747],[2.573046,42.145715],[2.573157,42.145589],[2.573183,42.145558],[2.573229,42.145506],[2.573239,42.145436],[2.573241,42.145422],[2.573235,42.145357],[2.573238,42.145313],[2.573237,42.145239],[2.573229,42.145165],[2.573239,42.1451],[2.573242,42.145065],[2.573247,42.144993],[2.573249,42.144887],[2.573257,42.144865],[2.573277,42.144802],[2.57329,42.144738],[2.573296,42.144673],[2.573291,42.144637],[2.573288,42.144594],[2.573288,42.14459],[2.573288,42.144586],[2.573285,42.144583],[2.573284,42.14458],[2.573283,42.144577],[2.573281,42.144575],[2.57328,42.144572],[2.573277,42.144569],[2.573275,42.144566],[2.573273,42.144564],[2.573269,42.144561],[2.573267,42.144559],[2.573264,42.144557],[2.573245,42.144544],[2.573273,42.144461],[2.573299,42.144385],[2.573025,42.144265],[2.57293,42.144396],[2.572913,42.144389],[2.572826,42.144354],[2.572768,42.144333],[2.572709,42.144313],[2.572671,42.144295],[2.572596,42.14428],[2.572533,42.144264],[2.572459,42.144245],[2.572387,42.144223],[2.572308,42.144185],[2.572233,42.144141],[2.572153,42.144094],[2.572073,42.144045],[2.572055,42.144036],[2.572001,42.144008],[2.571923,42.143977],[2.571847,42.143958],[2.571773,42.143945],[2.571769,42.143944],[2.571758,42.143942],[2.571743,42.14394],[2.571713,42.143935],[2.571698,42.143931],[2.571688,42.143928],[2.571675,42.143922],[2.571628,42.143917],[2.571581,42.143913],[2.571531,42.143911],[2.571482,42.143912],[2.571403,42.143916],[2.571379,42.143916],[2.571378,42.143912],[2.571362,42.143835],[2.571375,42.143785],[2.571342,42.143716],[2.571339,42.14371],[2.57133,42.143713],[2.57133,42.143695],[2.571249,42.143706],[2.571205,42.14366],[2.571181,42.143643],[2.571172,42.143636],[2.571167,42.143632],[2.571116,42.143591],[2.571079,42.143581],[2.571079,42.143532],[2.571051,42.143532],[2.571043,42.143556],[2.570848,42.143558],[2.570848,42.143568],[2.570838,42.143569],[2.570792,42.143565],[2.570754,42.143561],[2.570717,42.143555],[2.570686,42.143548],[2.570665,42.143541],[2.570629,42.143531],[2.570605,42.143518],[2.570569,42.143485],[2.570547,42.143451],[2.570536,42.143427],[2.570528,42.143395],[2.570525,42.143362],[2.570524,42.143289],[2.570527,42.143216],[2.570534,42.143168],[2.570542,42.143123],[2.57055,42.143078],[2.570561,42.143029],[2.570563,42.143002],[2.570565,42.142986],[2.570551,42.14293],[2.570548,42.142916],[2.570916,42.14275],[2.570948,42.142678],[2.570955,42.142663],[2.57096,42.142648],[2.570965,42.142633],[2.570969,42.142618],[2.570973,42.142603],[2.570976,42.142587],[2.570979,42.142561],[2.570981,42.142534],[2.570983,42.142508],[2.570983,42.142482],[2.570982,42.142455],[2.57098,42.142435],[2.570978,42.142416],[2.570974,42.142396],[2.57097,42.142376],[2.570965,42.142357],[2.570959,42.142338],[2.570952,42.142319],[2.570941,42.142293],[2.570929,42.142266],[2.570927,42.142264],[2.570926,42.142261],[2.570923,42.142258],[2.570907,42.142247],[2.570895,42.14224],[2.570786,42.142242],[2.570773,42.142237],[2.570763,42.142227],[2.570759,42.142219],[2.570754,42.142208],[2.570755,42.142196],[2.570751,42.142165],[2.570734,42.142158],[2.570718,42.142153],[2.570707,42.142149],[2.570701,42.142147],[2.570684,42.142142],[2.570666,42.142137],[2.570648,42.142133],[2.57063,42.142129],[2.570612,42.142126],[2.570577,42.14212],[2.57054,42.142115],[2.570504,42.14211],[2.570468,42.142107],[2.570431,42.142104],[2.570394,42.142103],[2.57038,42.142103],[2.570356,42.142133],[2.570355,42.142133],[2.570415,42.142156],[2.570514,42.142249],[2.57049,42.142299],[2.570338,42.142308],[2.570166,42.142307],[2.569937,42.142339],[2.569745,42.142404],[2.569529,42.142433],[2.568923,42.142467],[2.568745,42.14249]]]]}},{"type":"Feature","id":"171848_171848 AP06 GAX 3","properties":{"area_id":"171848_171848 AP06 GAX 3","nom":"el Sallent","codi_icgc":"171848 AP06 GAX 3","categoria":"Àrees de poblament","codi_municipi":"171848","municipi":"Santa Pau","codi_comarca":"19","comarca":"Garrotxa","provincia":"Girona","font":"ICGC Àrees de poblament v3r1 202602"},"geometry":{"type":"MultiPolygon","coordinates":[[[[2.613582,42.153663],[2.613484,42.153738],[2.613391,42.153777],[2.613364,42.153801],[2.613327,42.15382],[2.613262,42.153895],[2.613259,42.153899],[2.613138,42.154049],[2.613063,42.154098],[2.612887,42.154196],[2.61264,42.154338],[2.612506,42.15444],[2.612451,42.154499],[2.612464,42.154545],[2.612482,42.154581],[2.612505,42.154616],[2.612544,42.154657],[2.612588,42.154693],[2.612627,42.154718],[2.612667,42.154741],[2.612702,42.154755],[2.612651,42.154867],[2.612689,42.154885],[2.612739,42.154896],[2.612843,42.154897],[2.612857,42.15489],[2.612983,42.154855],[2.613048,42.154825],[2.613091,42.154805],[2.613091,42.154749],[2.613068,42.154713],[2.61302,42.154653],[2.612969,42.154615],[2.612956,42.15459],[2.612928,42.154554],[2.612913,42.154523],[2.612893,42.154455],[2.612893,42.154396],[2.612924,42.154337],[2.612973,42.154301],[2.61305,42.154255],[2.613086,42.154227],[2.613164,42.154122],[2.613323,42.154035],[2.613542,42.153952],[2.613649,42.153902],[2.613701,42.153893],[2.613714,42.153908],[2.613722,42.153917],[2.613729,42.153925],[2.613755,42.153955],[2.613773,42.153976],[2.613782,42.154006],[2.613794,42.154032],[2.613809,42.154057],[2.61386,42.154128],[2.613911,42.154199],[2.614001,42.15428],[2.614092,42.15436],[2.614103,42.154376],[2.61411,42.154403],[2.614108,42.15443],[2.614098,42.154472],[2.614088,42.154493],[2.614054,42.154559],[2.614076,42.154623],[2.614093,42.154629],[2.614102,42.154623],[2.614242,42.154657],[2.614357,42.154648],[2.614473,42.15464],[2.614503,42.154639],[2.614557,42.154646],[2.614638,42.154661],[2.614678,42.154665],[2.614717,42.154661],[2.614782,42.154647],[2.614847,42.154634],[2.614905,42.154614],[2.614979,42.154596],[2.615054,42.154577],[2.615093,42.154573],[2.615112,42.15457],[2.615128,42.154563],[2.615172,42.154527],[2.615227,42.15447],[2.61528,42.154411],[2.615321,42.15437],[2.61536,42.154328],[2.615369,42.154309],[2.615372,42.15429],[2.615374,42.154269],[2.615372,42.154258],[2.615367,42.154248],[2.615359,42.154239],[2.61535,42.15423],[2.615344,42.154207],[2.615301,42.154192],[2.615289,42.154139],[2.615298,42.154104],[2.615323,42.154055],[2.61533,42.154044],[2.615178,42.154038],[2.614863,42.15398],[2.614858,42.153988],[2.614839,42.154018],[2.614821,42.15405],[2.614798,42.154076],[2.614795,42.15408],[2.614759,42.154122],[2.614748,42.154131],[2.614742,42.154132],[2.614679,42.154109],[2.614608,42.154084],[2.614552,42.154067],[2.614494,42.154054],[2.614468,42.154052],[2.614441,42.154051],[2.614389,42.154055],[2.614267,42.154071],[2.614147,42.154092],[2.6141,42.154106],[2.614053,42.154121],[2.614021,42.154125],[2.613959,42.154125],[2.613897,42.154124],[2.613891,42.154116],[2.61384,42.154046],[2.613826,42.154023],[2.613815,42.153999],[2.613801,42.153949],[2.613796,42.153915],[2.613791,42.153868],[2.613787,42.153812],[2.613777,42.153786],[2.613748,42.153721],[2.613744,42.153615],[2.613723,42.153574],[2.613712,42.153552],[2.613637,42.153648],[2.613582,42.153663]]]]}},{"type":"Feature","id":"171848_171848 AP09 GAX 3","properties":{"area_id":"171848_171848 AP09 GAX 3","nom":"els Arcs","codi_icgc":"171848 AP09 GAX 3","categoria":"Àrees de poblament","codi_municipi":"171848","municipi":"Santa Pau","codi_comarca":"19","comarca":"Garrotxa","provincia":"Girona","font":"ICGC Àrees de poblament v3r1 202602"},"geometry":{"type":"MultiPolygon","coordinates":[[[[2.584698,42.141055],[2.58444,42.141474],[2.584682,42.14157],[2.584785,42.141494],[2.585131,42.141514],[2.585311,42.141391],[2.585504,42.14123],[2.585492,42.141125],[2.585236,42.141067],[2.584698,42.141055]]]]}},{"type":"Feature","id":"171848_171848 AP03 GAX 2","properties":{"area_id":"171848_171848 AP03 GAX 2","nom":"la Quintana","codi_icgc":"171848 AP03 GAX 2","categoria":"Àrees de poblament","codi_municipi":"171848","municipi":"Santa Pau","codi_comarca":"19","comarca":"Garrotxa","provincia":"Girona","font":"ICGC Àrees de poblament v3r1 202602"},"geometry":{"type":"MultiPolygon","coordinates":[[[[2.576772,42.148306],[2.576847,42.148582],[2.576716,42.148982],[2.576609,42.149649],[2.577403,42.1497],[2.577898,42.148558],[2.576772,42.148306]]]]}},{"type":"Feature","id":"171848_171848 AP17 GAX 2","properties":{"area_id":"171848_171848 AP17 GAX 2","nom":"la Sunyera","codi_icgc":"171848 AP17 GAX 2","categoria":"Àrees de poblament","codi_municipi":"171848","municipi":"Santa Pau","codi_comarca":"19","comarca":"Garrotxa","provincia":"Girona","font":"ICGC Àrees de poblament v3r1 202602"},"geometry":{"type":"MultiPolygon","coordinates":[[[[2.498119,42.143521],[2.497981,42.143513],[2.497926,42.143525],[2.497914,42.143527],[2.49791,42.143529],[2.497692,42.143603],[2.497708,42.143679],[2.497698,42.143748],[2.497713,42.143827],[2.497738,42.143891],[2.49775,42.143917],[2.497764,42.143956],[2.497778,42.143992],[2.497709,42.144005],[2.497676,42.144012],[2.497617,42.144025],[2.497564,42.14404],[2.497514,42.144061],[2.497484,42.144078],[2.497452,42.144086],[2.497437,42.144153],[2.497476,42.14417],[2.4975,42.144185],[2.49751,42.144192],[2.497538,42.144216],[2.497585,42.144274],[2.497632,42.144333],[2.4977,42.144421],[2.497769,42.14451],[2.497817,42.144561],[2.497871,42.144609],[2.497926,42.144654],[2.497956,42.144675],[2.497989,42.144694],[2.498046,42.144718],[2.498103,42.144742],[2.498199,42.144781],[2.498295,42.144819],[2.498353,42.144846],[2.498377,42.144861],[2.498403,42.144855],[2.49847,42.144838],[2.49868,42.144696],[2.49879,42.14453],[2.498861,42.144463],[2.498897,42.144335],[2.49868,42.144274],[2.498421,42.144221],[2.498291,42.144082],[2.498247,42.143934],[2.498462,42.143818],[2.49844,42.14377],[2.498119,42.143521]]]]}},{"type":"Feature","id":"171848_171848 AP02 GAX 2","properties":{"area_id":"171848_171848 AP02 GAX 2","nom":"les Cases Noves","codi_icgc":"171848 AP02 GAX 2","categoria":"Àrees de poblament","codi_municipi":"171848","municipi":"Santa Pau","codi_comarca":"19","comarca":"Garrotxa","provincia":"Girona","font":"ICGC Àrees de poblament v3r1 202602"},"geometry":{"type":"MultiPolygon","coordinates":[[[[2.574399,42.144484],[2.574402,42.144468],[2.574407,42.144428],[2.574408,42.144416],[2.574408,42.144412],[2.574375,42.144352],[2.574329,42.144258],[2.574296,42.144246],[2.574282,42.14424],[2.574193,42.144207],[2.574164,42.144196],[2.574113,42.144192],[2.573826,42.144168],[2.573812,42.144166],[2.573653,42.144152],[2.573525,42.144156],[2.573507,42.143998],[2.573355,42.143783],[2.573201,42.143807],[2.5732,42.143878],[2.57325,42.144059],[2.573326,42.144188],[2.573525,42.144199],[2.573589,42.14421],[2.573565,42.14446],[2.573427,42.144446],[2.573438,42.144699],[2.573551,42.144999],[2.573622,42.144985],[2.573654,42.145028],[2.573686,42.145033],[2.573872,42.145001],[2.57409,42.144982],[2.574295,42.144936],[2.574372,42.144917],[2.574455,42.144869],[2.574545,42.144851],[2.574635,42.144832],[2.574547,42.144555],[2.574399,42.144539],[2.574399,42.144484]]]]}},{"type":"Feature","id":"171848_171848 AP16 GAX 2","properties":{"area_id":"171848_171848 AP16 GAX 2","nom":"les Forques","codi_icgc":"171848 AP16 GAX 2","categoria":"Àrees de poblament","codi_municipi":"171848","municipi":"Santa Pau","codi_comarca":"19","comarca":"Garrotxa","provincia":"Girona","font":"ICGC Àrees de poblament v3r1 202602"},"geometry":{"type":"MultiPolygon","coordinates":[[[[2.543593,42.152366],[2.543537,42.152137],[2.543505,42.152163],[2.543131,42.152045],[2.542978,42.151962],[2.542914,42.15188],[2.542793,42.15177],[2.542754,42.151661],[2.54272,42.151566],[2.542705,42.151553],[2.542692,42.151548],[2.542665,42.151542],[2.542636,42.15155],[2.542614,42.151557],[2.542598,42.151596],[2.54259,42.151556],[2.54259,42.151556],[2.542599,42.151476],[2.542648,42.151168],[2.542678,42.151066],[2.542679,42.151062],[2.542685,42.151048],[2.542704,42.151007],[2.542709,42.150997],[2.542739,42.150944],[2.542768,42.150893],[2.542817,42.150803],[2.542866,42.150711],[2.542933,42.150585],[2.543012,42.150623],[2.543053,42.150657],[2.543058,42.150694],[2.543051,42.150742],[2.543048,42.150758],[2.543051,42.150858],[2.543101,42.150859],[2.543124,42.150871],[2.543152,42.150893],[2.543169,42.150961],[2.54318,42.151077],[2.543584,42.151737],[2.54361,42.15173],[2.543625,42.151725],[2.543635,42.151722],[2.543824,42.151666],[2.543825,42.151656],[2.54383,42.151265],[2.543746,42.151186],[2.543579,42.150971],[2.543308,42.15063],[2.543064,42.150486],[2.543047,42.150438],[2.543044,42.150431],[2.543014,42.150345],[2.542772,42.150267],[2.542215,42.151012],[2.54244,42.151113],[2.542604,42.151172],[2.542592,42.151231],[2.54258,42.151291],[2.542578,42.151328],[2.542573,42.151363],[2.542563,42.15151],[2.542546,42.151643],[2.542532,42.151756],[2.542516,42.151868],[2.542501,42.151936],[2.54248,42.152003],[2.542457,42.152073],[2.542435,42.152144],[2.542415,42.152225],[2.542399,42.152306],[2.542388,42.152375],[2.542384,42.152445],[2.542388,42.152474],[2.542426,42.152502],[2.542468,42.152525],[2.542515,42.152544],[2.542565,42.152558],[2.543596,42.152378],[2.543593,42.152366]]]]}}]}