{"type":"FeatureCollection","name":"ICGC Àrees de poblament - la Cellera de Ter","features":[{"type":"Feature","id":"171899_171899 AP03 SEL 2","properties":{"area_id":"171899_171899 AP03 SEL 2","nom":"Barri del Rec Gros","codi_icgc":"171899 AP03 SEL 2","categoria":"Àrees de poblament","codi_municipi":"171899","municipi":"la Cellera de Ter","codi_comarca":"34","comarca":"Selva","provincia":"Girona","font":"ICGC Àrees de poblament v3r1 202602"},"geometry":{"type":"MultiPolygon","coordinates":[[[[2.619082,41.976645],[2.619083,41.976611],[2.618994,41.976576],[2.618974,41.976562],[2.618971,41.976533],[2.619029,41.976469],[2.618178,41.976108],[2.617276,41.977847],[2.617445,41.977892],[2.617688,41.977959],[2.617703,41.977963],[2.617878,41.978018],[2.61848,41.978144],[2.618495,41.978142],[2.618503,41.978144],[2.618525,41.978135],[2.618561,41.978131],[2.618572,41.978062],[2.618591,41.977935],[2.618634,41.977796],[2.618773,41.977615],[2.618876,41.977496],[2.618972,41.977416],[2.619049,41.977354],[2.619165,41.977297],[2.619254,41.97722],[2.619471,41.977028],[2.61961,41.976906],[2.619637,41.976882],[2.619425,41.976801],[2.619082,41.976645]]]]}},{"type":"Feature","id":"171899_171899 AP04 SEL 2","properties":{"area_id":"171899_171899 AP04 SEL 2","nom":"Can Xacó","codi_icgc":"171899 AP04 SEL 2","categoria":"Àrees de poblament","codi_municipi":"171899","municipi":"la Cellera de Ter","codi_comarca":"34","comarca":"Selva","provincia":"Girona","font":"ICGC Àrees de poblament v3r1 202602"},"geometry":{"type":"MultiPolygon","coordinates":[[[[2.616772,41.964893],[2.617145,41.96503],[2.617278,41.965174],[2.617248,41.965274],[2.617152,41.965373],[2.617266,41.96556],[2.617524,41.965653],[2.617658,41.96574],[2.617782,41.965812],[2.617944,41.965848],[2.618088,41.965863],[2.61831,41.965642],[2.618052,41.965477],[2.617899,41.965347],[2.617804,41.965276],[2.617969,41.96494],[2.617645,41.964703],[2.61754,41.964653],[2.617386,41.964652],[2.617232,41.964838],[2.617184,41.96483],[2.616974,41.964701],[2.616772,41.964893]]]]}},{"type":"Feature","id":"171899_171899 AP06 SEL 3","properties":{"area_id":"171899_171899 AP06 SEL 3","nom":"Pladevall","codi_icgc":"171899 AP06 SEL 3","categoria":"Àrees de poblament","codi_municipi":"171899","municipi":"la Cellera de Ter","codi_comarca":"34","comarca":"Selva","provincia":"Girona","font":"ICGC Àrees de poblament v3r1 202602"},"geometry":{"type":"MultiPolygon","coordinates":[[[[2.623658,41.957563],[2.624158,41.957358],[2.624226,41.957165],[2.624016,41.957071],[2.62418,41.956722],[2.624229,41.956607],[2.624316,41.956407],[2.624106,41.956314],[2.623865,41.956549],[2.623722,41.956584],[2.623482,41.956569],[2.623396,41.956497],[2.623042,41.956532],[2.623201,41.957112],[2.623171,41.957283],[2.622778,41.957382],[2.62295,41.957568],[2.623122,41.957533],[2.623217,41.957641],[2.623658,41.957563]]],[[[2.619656,41.958495],[2.619695,41.958285],[2.61976,41.958105],[2.619557,41.957913],[2.619494,41.957722],[2.619304,41.95756],[2.619305,41.957274],[2.619704,41.956779],[2.62001,41.956914],[2.620446,41.956629],[2.620599,41.956573],[2.620994,41.956755],[2.621554,41.957119],[2.621461,41.957615],[2.622036,41.957664],[2.622206,41.956902],[2.621328,41.95648],[2.621113,41.956155],[2.620796,41.955763],[2.620694,41.955658],[2.620515,41.955657],[2.620053,41.956028],[2.619707,41.95637],[2.619375,41.95633],[2.619157,41.956377],[2.618952,41.956558],[2.618619,41.956661],[2.618336,41.957099],[2.618987,41.957187],[2.618896,41.957349],[2.618653,41.957424],[2.61827,41.95747],[2.617911,41.957612],[2.61777,41.957688],[2.617528,41.957697],[2.617132,41.957629],[2.616914,41.957781],[2.616722,41.957932],[2.616505,41.957903],[2.616428,41.957874],[2.616186,41.957883],[2.615993,41.957987],[2.615878,41.958101],[2.616285,41.958274],[2.616962,41.958362],[2.617421,41.958402],[2.618124,41.958271],[2.618341,41.958348],[2.618711,41.958339],[2.619194,41.958751],[2.619656,41.958495]]],[[[2.62315,41.959388],[2.622883,41.959115],[2.621963,41.959198],[2.621593,41.960226],[2.622742,41.960316],[2.623011,41.960073],[2.623186,41.959731],[2.62315,41.959388]]],[[[2.623142,41.961732],[2.623324,41.961237],[2.622915,41.961245],[2.622913,41.961237],[2.62288,41.961238],[2.622696,41.961645],[2.623142,41.961732]]],[[[2.623023,41.962351],[2.622334,41.96234],[2.622049,41.96293],[2.622151,41.963006],[2.622944,41.962885],[2.622996,41.962675],[2.623023,41.962351]]]]}},{"type":"Feature","id":"171899_171899 AP02 SEL 2","properties":{"area_id":"171899_171899 AP02 SEL 2","nom":"Plantadís","codi_icgc":"171899 AP02 SEL 2","categoria":"Àrees de poblament","codi_municipi":"171899","municipi":"la Cellera de Ter","codi_comarca":"34","comarca":"Selva","provincia":"Girona","font":"ICGC Àrees de poblament v3r1 202602"},"geometry":{"type":"MultiPolygon","coordinates":[[[[2.5871,41.970176],[2.587436,41.970496],[2.587519,41.970454],[2.587533,41.970378],[2.587539,41.970306],[2.58754,41.97023],[2.58754,41.970168],[2.587522,41.970092],[2.587509,41.970039],[2.587497,41.970006],[2.587452,41.969996],[2.587343,41.970029],[2.587145,41.970109],[2.5871,41.970176]]]]}},{"type":"Feature","id":"171899_171899 SI01 SEL 2","properties":{"area_id":"171899_171899 SI01 SEL 2","nom":"Polígon industrial La Ruïra","codi_icgc":"171899 SI01 SEL 2","categoria":"Sector industrial","codi_municipi":"171899","municipi":"la Cellera de Ter","codi_comarca":"34","comarca":"Selva","provincia":"Girona","font":"ICGC Àrees de poblament v3r1 202602"},"geometry":{"type":"MultiPolygon","coordinates":[[[[2.618428,41.973572],[2.618265,41.973712],[2.61815,41.973805],[2.618138,41.973833],[2.618165,41.973866],[2.618222,41.973897],[2.618287,41.973927],[2.618409,41.973962],[2.618641,41.974025],[2.618725,41.974034],[2.618861,41.974023],[2.619011,41.973999],[2.619172,41.973974],[2.619212,41.973949],[2.619246,41.973914],[2.619301,41.973844],[2.61945,41.973681],[2.619481,41.973677],[2.619671,41.973477],[2.619803,41.973338],[2.619861,41.973277],[2.619866,41.973268],[2.619867,41.973265],[2.619868,41.973259],[2.619864,41.97324],[2.619857,41.97323],[2.619848,41.973217],[2.619837,41.973204],[2.619817,41.973191],[2.619805,41.973186],[2.619731,41.973158],[2.619636,41.973127],[2.619516,41.9731],[2.619493,41.973126],[2.619459,41.973123],[2.61937,41.973114],[2.619347,41.973129],[2.619295,41.973104],[2.619173,41.973103],[2.619039,41.973105],[2.619014,41.973104],[2.618995,41.973106],[2.61899,41.973106],[2.618978,41.973112],[2.618942,41.97314],[2.618793,41.973262],[2.618526,41.973473],[2.618463,41.973538],[2.618428,41.973572]]]]}},{"type":"Feature","id":"171899_171899 SI03 SEL 2","properties":{"area_id":"171899_171899 SI03 SEL 2","nom":"Polígon industrial de la Cellera de Ter","codi_icgc":"171899 SI03 SEL 2","categoria":"Sector industrial","codi_municipi":"171899","municipi":"la Cellera de Ter","codi_comarca":"34","comarca":"Selva","provincia":"Girona","font":"ICGC Àrees de poblament v3r1 202602"},"geometry":{"type":"MultiPolygon","coordinates":[[[[2.625194,41.974169],[2.625226,41.973959],[2.626195,41.974027],[2.62623,41.974017],[2.626087,41.972641],[2.626073,41.972406],[2.625795,41.971294],[2.625319,41.971256],[2.62535,41.97099],[2.625377,41.970761],[2.625446,41.970298],[2.625953,41.97034],[2.62613,41.969767],[2.626193,41.969461],[2.626202,41.969281],[2.626372,41.968444],[2.62603,41.96841],[2.626073,41.96805],[2.625787,41.968022],[2.625794,41.967946],[2.625796,41.96793],[2.625801,41.967875],[2.625801,41.967814],[2.625794,41.967754],[2.625781,41.967693],[2.625762,41.967634],[2.625736,41.967576],[2.625707,41.967535],[2.625671,41.967498],[2.625626,41.967463],[2.625576,41.967434],[2.62552,41.967409],[2.625467,41.967392],[2.625411,41.96738],[2.625353,41.967374],[2.625344,41.967412],[2.625264,41.967774],[2.62519,41.968192],[2.625124,41.968806],[2.624995,41.969563],[2.624851,41.97062],[2.624772,41.971146],[2.624536,41.972522],[2.624471,41.97295],[2.624362,41.973836],[2.624327,41.973862],[2.624303,41.974235],[2.62425,41.974329],[2.624207,41.974582],[2.624249,41.974596],[2.624894,41.97456],[2.624907,41.974517],[2.62507,41.974513],[2.625102,41.974181],[2.625194,41.974169]]]]}},{"type":"Feature","id":"171899_171899 AP07 SEL 2","properties":{"area_id":"171899_171899 AP07 SEL 2","nom":"Puigdaspre","codi_icgc":"171899 AP07 SEL 2","categoria":"Àrees de poblament","codi_municipi":"171899","municipi":"la Cellera de Ter","codi_comarca":"34","comarca":"Selva","provincia":"Girona","font":"ICGC Àrees de poblament v3r1 202602"},"geometry":{"type":"MultiPolygon","coordinates":[[[[2.619,41.966051],[2.619002,41.965991],[2.619094,41.966003],[2.619098,41.965919],[2.619127,41.96572],[2.619135,41.965689],[2.619142,41.965658],[2.619147,41.96565],[2.619155,41.965645],[2.619175,41.965641],[2.619212,41.965643],[2.619248,41.965646],[2.619321,41.965653],[2.619395,41.965661],[2.619454,41.965662],[2.619513,41.965664],[2.619532,41.965666],[2.619723,41.965672],[2.619731,41.965636],[2.619915,41.965685],[2.620044,41.965432],[2.620121,41.965289],[2.620192,41.965228],[2.620197,41.965221],[2.620437,41.96501],[2.620421,41.964994],[2.62035,41.964991],[2.620232,41.964937],[2.620088,41.964905],[2.61998,41.964864],[2.619892,41.964831],[2.619853,41.964816],[2.619719,41.964742],[2.619576,41.964651],[2.619487,41.964612],[2.619397,41.964603],[2.619279,41.964595],[2.6191,41.964599],[2.618931,41.964611],[2.618921,41.964646],[2.618887,41.96479],[2.618878,41.964824],[2.618834,41.964823],[2.618801,41.965009],[2.618693,41.965065],[2.618679,41.965089],[2.618679,41.965093],[2.618672,41.965101],[2.61866,41.965259],[2.618618,41.965279],[2.618594,41.965627],[2.618597,41.965732],[2.618678,41.965736],[2.618707,41.965988],[2.618711,41.966057],[2.618714,41.966108],[2.618762,41.96611],[2.618938,41.966079],[2.618997,41.966079],[2.619,41.966051]]]]}},{"type":"Feature","id":"171899_171899 SI02 SEL 2","properties":{"area_id":"171899_171899 SI02 SEL 2","nom":"U.A.-2","codi_icgc":"171899 SI02 SEL 2","categoria":"Sector industrial","codi_municipi":"171899","municipi":"la Cellera de Ter","codi_comarca":"34","comarca":"Selva","provincia":"Girona","font":"ICGC Àrees de poblament v3r1 202602"},"geometry":{"type":"MultiPolygon","coordinates":[[[[2.616531,41.974814],[2.617223,41.975255],[2.616924,41.975526],[2.616866,41.975616],[2.616653,41.97548],[2.616237,41.975631],[2.616,41.975763],[2.615891,41.975835],[2.616523,41.976303],[2.616936,41.976013],[2.616956,41.975995],[2.616974,41.975977],[2.616993,41.975953],[2.617015,41.975915],[2.61703,41.975875],[2.617038,41.975834],[2.617037,41.975792],[2.617029,41.975751],[2.617017,41.97573],[2.617007,41.975707],[2.616999,41.975683],[2.616993,41.975645],[2.616995,41.975607],[2.617003,41.975569],[2.617013,41.975542],[2.617036,41.975501],[2.617068,41.975464],[2.617107,41.97543],[2.61713,41.975415],[2.617252,41.975344],[2.617386,41.975266],[2.618209,41.974893],[2.617418,41.974362],[2.617373,41.974345],[2.617326,41.974333],[2.617277,41.974326],[2.617226,41.974324],[2.617177,41.974328],[2.617128,41.974338],[2.616531,41.974814]]]]}},{"type":"Feature","id":"171899_171899 AP05 SEL 3","properties":{"area_id":"171899_171899 AP05 SEL 3","nom":"el Pasteral","codi_icgc":"171899 AP05 SEL 3","categoria":"Àrees de poblament","codi_municipi":"171899","municipi":"la Cellera de Ter","codi_comarca":"34","comarca":"Selva","provincia":"Girona","font":"ICGC Àrees de poblament v3r1 202602"},"geometry":{"type":"MultiPolygon","coordinates":[[[[2.608066,41.98091],[2.608076,41.98091],[2.608081,41.980911],[2.60814,41.980938],[2.608194,41.980962],[2.608309,41.981013],[2.608457,41.981079],[2.608473,41.981057],[2.60855,41.980953],[2.608605,41.980892],[2.608212,41.980707],[2.608215,41.980699],[2.608267,41.980649],[2.608321,41.9806],[2.608346,41.980577],[2.608391,41.98051],[2.608078,41.980411],[2.607864,41.980655],[2.607731,41.980729],[2.607675,41.980758],[2.607599,41.980809],[2.607463,41.980991],[2.607723,41.981102],[2.607766,41.981118],[2.607777,41.981114],[2.607829,41.981099],[2.607844,41.981092],[2.607855,41.981083],[2.607874,41.981065],[2.607909,41.981038],[2.607942,41.981008],[2.607965,41.980983],[2.607987,41.980959],[2.608019,41.980934],[2.608056,41.980913],[2.608066,41.98091]]],[[[2.606363,41.983982],[2.606452,41.98394],[2.606542,41.983897],[2.607025,41.983661],[2.607077,41.983635],[2.607116,41.983616],[2.607138,41.983605],[2.607209,41.98357],[2.607244,41.983553],[2.607351,41.983502],[2.607475,41.983442],[2.607599,41.983383],[2.607782,41.983295],[2.607965,41.983207],[2.608109,41.98314],[2.608253,41.983073],[2.608408,41.983],[2.608562,41.982927],[2.608616,41.982903],[2.608703,41.982863],[2.608716,41.982856],[2.608724,41.982853],[2.608729,41.982849],[2.608591,41.982796],[2.608567,41.982787],[2.608539,41.982776],[2.608276,41.982679],[2.608173,41.982642],[2.608006,41.982585],[2.607914,41.982558],[2.607884,41.982563],[2.607882,41.982538],[2.607889,41.982533],[2.607898,41.982526],[2.607774,41.982493],[2.608013,41.982322],[2.608061,41.982275],[2.608057,41.982269],[2.607993,41.982236],[2.607928,41.982203],[2.607869,41.982177],[2.607809,41.982152],[2.607795,41.982148],[2.607791,41.982131],[2.607776,41.982125],[2.607749,41.982116],[2.607726,41.982109],[2.607688,41.982094],[2.607644,41.982092],[2.607393,41.982007],[2.607281,41.981956],[2.607276,41.981963],[2.606652,41.982673],[2.606119,41.983183],[2.605848,41.983717],[2.605842,41.983765],[2.605833,41.983807],[2.605824,41.983856],[2.60582,41.983867],[2.605806,41.983885],[2.605777,41.983908],[2.605752,41.983932],[2.605747,41.983941],[2.605746,41.983945],[2.605747,41.983948],[2.605751,41.983949],[2.605758,41.983948],[2.605769,41.983946],[2.605763,41.983951],[2.605756,41.983959],[2.605749,41.983964],[2.605661,41.984027],[2.605565,41.984096],[2.605451,41.984278],[2.605334,41.984452],[2.605402,41.984426],[2.605464,41.984397],[2.605582,41.984344],[2.6057,41.984291],[2.605819,41.984237],[2.605937,41.984184],[2.605987,41.984162],[2.606011,41.984152],[2.606156,41.984087],[2.606173,41.984073],[2.606363,41.983982]]],[[[2.616471,41.98643],[2.616488,41.986369],[2.616643,41.986376],[2.616681,41.986335],[2.61652,41.986256],[2.616527,41.98623],[2.616564,41.986236],[2.616578,41.986186],[2.616546,41.986181],[2.616556,41.986145],[2.616562,41.986117],[2.616476,41.986107],[2.616387,41.986097],[2.616404,41.986054],[2.616417,41.986022],[2.616451,41.985937],[2.616466,41.985899],[2.616153,41.985857],[2.616143,41.9859],[2.616127,41.985983],[2.61612,41.98602],[2.616106,41.98613],[2.616098,41.986186],[2.615974,41.986149],[2.61589,41.986143],[2.615822,41.986122],[2.615754,41.98611],[2.615672,41.986109],[2.615673,41.986097],[2.615674,41.986084],[2.615682,41.986028],[2.615632,41.986024],[2.61523,41.985962],[2.61523,41.985958],[2.615224,41.985958],[2.615231,41.985767],[2.615009,41.985765],[2.615008,41.986067],[2.614685,41.986078],[2.614687,41.98625],[2.614663,41.986247],[2.614652,41.986246],[2.61463,41.986244],[2.614595,41.986237],[2.614559,41.98623],[2.614488,41.98622],[2.614416,41.986213],[2.614285,41.986204],[2.614153,41.986195],[2.613865,41.986174],[2.613577,41.986154],[2.613314,41.98614],[2.61317,41.986133],[2.61305,41.986128],[2.612773,41.986117],[2.612495,41.986105],[2.612154,41.986093],[2.611852,41.986082],[2.611732,41.986079],[2.611612,41.986075],[2.611583,41.986072],[2.611431,41.986059],[2.611407,41.986056],[2.611344,41.986051],[2.611281,41.986047],[2.611167,41.986038],[2.611054,41.986029],[2.61095,41.986026],[2.610846,41.986027],[2.610792,41.986031],[2.610738,41.986035],[2.610509,41.98601],[2.610375,41.985995],[2.610349,41.985993],[2.610137,41.985969],[2.609857,41.985939],[2.609809,41.985924],[2.609737,41.985902],[2.609728,41.985899],[2.609725,41.985895],[2.609722,41.985892],[2.609719,41.98589],[2.6097,41.985877],[2.609637,41.985836],[2.609565,41.985784],[2.609492,41.985732],[2.609471,41.985714],[2.609469,41.985712],[2.609464,41.985705],[2.609447,41.985693],[2.609403,41.985666],[2.609111,41.985695],[2.608949,41.985886],[2.60893,41.985883],[2.608852,41.985868],[2.608843,41.985877],[2.608827,41.985892],[2.608827,41.985913],[2.608827,41.985939],[2.608827,41.985983],[2.608827,41.985989],[2.609267,41.986044],[2.609381,41.986058],[2.609735,41.986103],[2.610284,41.986149],[2.610472,41.986161],[2.610535,41.986168],[2.61058,41.98617],[2.610623,41.986176],[2.610737,41.98618],[2.610809,41.986183],[2.6109,41.986186],[2.61099,41.986181],[2.611377,41.986208],[2.611476,41.986214],[2.611526,41.986217],[2.611621,41.986225],[2.611857,41.986237],[2.611928,41.98624],[2.612105,41.986247],[2.612269,41.986256],[2.612658,41.986276],[2.612848,41.98628],[2.612993,41.986285],[2.613172,41.986288],[2.613589,41.986306],[2.61373,41.986309],[2.61374,41.986212],[2.613968,41.986227],[2.614043,41.986228],[2.614217,41.98624],[2.614391,41.986253],[2.61442,41.986255],[2.614439,41.986257],[2.61447,41.98626],[2.61448,41.986262],[2.614485,41.986262],[2.614496,41.986264],[2.614541,41.986271],[2.61474,41.986304],[2.615176,41.986323],[2.615201,41.986324],[2.6152,41.986403],[2.615244,41.986404],[2.615261,41.986404],[2.615408,41.986406],[2.61542,41.986407],[2.615488,41.98641],[2.615493,41.986339],[2.615496,41.986341],[2.615494,41.986335],[2.6155,41.986336],[2.615509,41.986346],[2.615576,41.986375],[2.615588,41.98638],[2.615613,41.986385],[2.615635,41.986388],[2.615783,41.986397],[2.6158,41.986397],[2.615823,41.986394],[2.61584,41.98639],[2.615851,41.986389],[2.615856,41.986389],[2.615873,41.986389],[2.615947,41.986395],[2.615958,41.986389],[2.616031,41.986395],[2.616227,41.986412],[2.616365,41.986424],[2.616434,41.986429],[2.616471,41.98643]]]]}},{"type":"Feature","id":"171899_171899 AP01 SEL 3","properties":{"area_id":"171899_171899 AP01 SEL 3","nom":"la Cellera de Ter","codi_icgc":"171899 AP01 SEL 3","categoria":"Àrees de poblament","codi_municipi":"171899","municipi":"la Cellera de Ter","codi_comarca":"34","comarca":"Selva","provincia":"Girona","font":"ICGC Àrees de poblament v3r1 202602"},"geometry":{"type":"MultiPolygon","coordinates":[[[[2.623739,41.968502],[2.62376,41.968481],[2.623868,41.968422],[2.624008,41.968411],[2.624619,41.968368],[2.624667,41.968369],[2.6247,41.968232],[2.624704,41.968106],[2.624661,41.968044],[2.624569,41.967972],[2.624506,41.967954],[2.624406,41.967966],[2.624298,41.967995],[2.624114,41.968008],[2.624146,41.967979],[2.624626,41.967537],[2.62465,41.967514],[2.624668,41.967487],[2.624679,41.967458],[2.624682,41.967428],[2.624678,41.967398],[2.624677,41.967393],[2.624655,41.967336],[2.624642,41.967284],[2.624637,41.96723],[2.624638,41.967219],[2.624669,41.96718],[2.624705,41.967142],[2.624756,41.967109],[2.624804,41.967089],[2.624889,41.967083],[2.624968,41.967066],[2.625052,41.967045],[2.625163,41.967004],[2.625229,41.966968],[2.62534,41.966886],[2.625445,41.966803],[2.625586,41.966679],[2.625694,41.966577],[2.625722,41.966525],[2.625725,41.966451],[2.625719,41.966431],[2.625698,41.966381],[2.625656,41.966353],[2.625607,41.966333],[2.625526,41.966316],[2.625421,41.966314],[2.62526,41.966318],[2.625095,41.966332],[2.624951,41.966351],[2.624702,41.966405],[2.624523,41.96646],[2.624263,41.966549],[2.624116,41.966577],[2.624004,41.966603],[2.623972,41.966593],[2.62396,41.96656],[2.62396,41.966524],[2.623906,41.966479],[2.623826,41.966447],[2.623699,41.966392],[2.623517,41.966322],[2.623457,41.966298],[2.623428,41.966258],[2.623441,41.966224],[2.62346,41.966174],[2.623493,41.966084],[2.623548,41.965925],[2.623619,41.965744],[2.623668,41.96562],[2.623589,41.96559],[2.623423,41.965561],[2.623414,41.96559],[2.623234,41.965558],[2.623141,41.965546],[2.622915,41.9662],[2.622909,41.966218],[2.622894,41.966259],[2.622643,41.966292],[2.622591,41.9663],[2.622514,41.966311],[2.622219,41.966338],[2.621738,41.966398],[2.621705,41.966402],[2.621643,41.96641],[2.621638,41.966362],[2.621629,41.966276],[2.621496,41.966199],[2.621509,41.966085],[2.621535,41.966014],[2.621675,41.965987],[2.621841,41.965687],[2.621462,41.965626],[2.621464,41.965617],[2.621432,41.965614],[2.621384,41.965609],[2.62136,41.96569],[2.62135,41.965715],[2.62134,41.965724],[2.621331,41.96575],[2.621329,41.965755],[2.621309,41.965855],[2.621306,41.965893],[2.621302,41.965904],[2.621298,41.965909],[2.621293,41.965914],[2.621289,41.965898],[2.621282,41.965882],[2.621262,41.965852],[2.621213,41.965794],[2.621152,41.965716],[2.621087,41.965639],[2.621061,41.965613],[2.620925,41.96561],[2.620898,41.966029],[2.620945,41.96605],[2.620964,41.966118],[2.62128,41.966122],[2.621284,41.966337],[2.621259,41.966437],[2.62089,41.966432],[2.620574,41.966427],[2.62034,41.966423],[2.620052,41.966408],[2.619904,41.966386],[2.620006,41.966215],[2.620131,41.966029],[2.620055,41.966011],[2.619959,41.965953],[2.619887,41.965989],[2.619752,41.966171],[2.619675,41.96626],[2.619607,41.966349],[2.619445,41.966345],[2.619282,41.966341],[2.619182,41.966375],[2.619159,41.966427],[2.61911,41.966629],[2.619073,41.966826],[2.619057,41.966927],[2.619041,41.967027],[2.619022,41.967133],[2.618712,41.96713],[2.618714,41.967216],[2.61879,41.967418],[2.61879,41.967428],[2.618786,41.967542],[2.618784,41.967545],[2.618645,41.967735],[2.618646,41.967956],[2.618677,41.968058],[2.61872,41.968222],[2.618658,41.968139],[2.618544,41.96801],[2.618439,41.96794],[2.618283,41.967859],[2.618203,41.967928],[2.618166,41.968256],[2.618338,41.968328],[2.618478,41.968398],[2.618532,41.968408],[2.618599,41.968427],[2.618716,41.968497],[2.618697,41.968505],[2.618677,41.968512],[2.618662,41.968518],[2.618648,41.968523],[2.618634,41.968529],[2.618599,41.968539],[2.618555,41.968549],[2.618515,41.968554],[2.618511,41.968558],[2.618489,41.968556],[2.618482,41.968555],[2.61847,41.968554],[2.618461,41.968552],[2.61819,41.968494],[2.618139,41.968494],[2.618089,41.9685],[2.618041,41.968511],[2.618012,41.968521],[2.61791,41.968573],[2.617878,41.9686],[2.617866,41.968613],[2.617855,41.968618],[2.617843,41.968623],[2.617846,41.968639],[2.617843,41.968643],[2.617842,41.968647],[2.617841,41.96866],[2.617841,41.968669],[2.617847,41.968694],[2.617859,41.968718],[2.617857,41.968761],[2.617836,41.968778],[2.617798,41.968791],[2.617739,41.968814],[2.617685,41.968966],[2.618028,41.969038],[2.617982,41.96916],[2.61816,41.969203],[2.618217,41.969216],[2.618275,41.969224],[2.618267,41.969246],[2.618248,41.969296],[2.618243,41.969304],[2.618229,41.969316],[2.618223,41.969325],[2.618219,41.96933],[2.618209,41.969355],[2.618199,41.969381],[2.618196,41.969393],[2.61803,41.969406],[2.617836,41.969422],[2.617831,41.96957],[2.617832,41.969583],[2.617847,41.969766],[2.617889,41.969906],[2.618004,41.969912],[2.618066,41.969915],[2.61808,41.969916],[2.618122,41.969985],[2.6181,41.969994],[2.618073,41.970001],[2.618058,41.970006],[2.618014,41.970015],[2.617995,41.970019],[2.617933,41.970031],[2.617912,41.970035],[2.617872,41.970043],[2.617853,41.970047],[2.617782,41.97006],[2.617698,41.970078],[2.617629,41.970086],[2.617626,41.970086],[2.617534,41.970094],[2.61749,41.970097],[2.61743,41.970101],[2.617333,41.97011],[2.617281,41.970118],[2.617209,41.970127],[2.617225,41.970203],[2.617247,41.970286],[2.617243,41.970336],[2.617243,41.970339],[2.617268,41.970364],[2.617285,41.970362],[2.617344,41.970363],[2.617402,41.970363],[2.617424,41.970362],[2.617608,41.970353],[2.617618,41.970352],[2.617701,41.970342],[2.61772,41.97034],[2.617771,41.970334],[2.617833,41.970326],[2.617972,41.97031],[2.618111,41.970292],[2.61827,41.970272],[2.618308,41.970266],[2.618453,41.970246],[2.618457,41.970278],[2.618458,41.970284],[2.618465,41.970615],[2.61847,41.970801],[2.618473,41.970935],[2.618368,41.970934],[2.61836,41.970988],[2.61835,41.970988],[2.618349,41.971058],[2.61828,41.971521],[2.618207,41.971766],[2.618151,41.971892],[2.618206,41.971905],[2.618814,41.971955],[2.619141,41.972016],[2.619139,41.971976],[2.619268,41.971975],[2.619322,41.971963],[2.619348,41.97192],[2.619367,41.971854],[2.619352,41.971794],[2.619301,41.971768],[2.619231,41.971751],[2.619225,41.971703],[2.619257,41.971686],[2.619394,41.971692],[2.619595,41.971695],[2.619662,41.97169],[2.619713,41.971671],[2.619813,41.971619],[2.619854,41.971605],[2.619919,41.971616],[2.619933,41.971621],[2.619948,41.971628],[2.619961,41.971636],[2.619972,41.971644],[2.619981,41.971653],[2.619989,41.971664],[2.619996,41.971675],[2.62,41.971687],[2.620002,41.971699],[2.620003,41.97171],[2.620001,41.971724],[2.619999,41.971734],[2.619992,41.971746],[2.619986,41.971756],[2.619976,41.971768],[2.619967,41.971777],[2.619956,41.971784],[2.619943,41.971791],[2.619927,41.971799],[2.619898,41.971814],[2.619859,41.971836],[2.619849,41.971843],[2.619824,41.97186],[2.619731,41.971928],[2.619681,41.971962],[2.619634,41.972],[2.619609,41.972029],[2.619582,41.972076],[2.619556,41.972123],[2.619517,41.972187],[2.619477,41.972251],[2.619425,41.972326],[2.619369,41.9724],[2.619336,41.972441],[2.61932,41.972462],[2.619302,41.972491],[2.619269,41.972543],[2.619265,41.97255],[2.619252,41.972571],[2.619247,41.972578],[2.61921,41.972634],[2.619151,41.972717],[2.619092,41.9728],[2.619069,41.972833],[2.619059,41.972847],[2.619029,41.972896],[2.619021,41.972917],[2.619008,41.972967],[2.619005,41.972984],[2.619001,41.973037],[2.618999,41.97306],[2.619098,41.973059],[2.619294,41.973063],[2.619425,41.973065],[2.619565,41.973075],[2.619659,41.9731],[2.619737,41.973128],[2.61987,41.973183],[2.619913,41.973218],[2.61993,41.973258],[2.619921,41.973316],[2.619902,41.973367],[2.619818,41.973442],[2.619646,41.973604],[2.619527,41.973727],[2.619323,41.973944],[2.619381,41.973974],[2.619315,41.974054],[2.61943,41.974104],[2.619468,41.974121],[2.619497,41.97409],[2.619505,41.974109],[2.619519,41.974125],[2.619525,41.974129],[2.619539,41.974138],[2.619563,41.974145],[2.619589,41.974148],[2.619615,41.974144],[2.619639,41.974135],[2.619651,41.974127],[2.619671,41.974105],[2.619677,41.974086],[2.619675,41.974066],[2.619666,41.974048],[2.619657,41.974038],[2.619762,41.974095],[2.619998,41.974234],[2.619996,41.974237],[2.620004,41.97424],[2.620089,41.974285],[2.620106,41.974293],[2.620218,41.974198],[2.620241,41.974176],[2.620363,41.974205],[2.620356,41.97424],[2.620506,41.974279],[2.620605,41.974305],[2.62061,41.974393],[2.620912,41.974391],[2.620915,41.974354],[2.620932,41.974162],[2.622036,41.974164],[2.622036,41.974244],[2.622227,41.974254],[2.622224,41.974164],[2.622306,41.974164],[2.622419,41.974164],[2.622404,41.974007],[2.622373,41.973842],[2.622377,41.973726],[2.622397,41.973561],[2.622404,41.973497],[2.622701,41.973479],[2.622938,41.973468],[2.622964,41.973344],[2.622987,41.97323],[2.623017,41.973059],[2.623017,41.972987],[2.623023,41.972916],[2.623024,41.972888],[2.62303,41.972812],[2.623046,41.972724],[2.62308,41.972565],[2.623144,41.972438],[2.62325,41.971757],[2.623402,41.971768],[2.62345,41.971773],[2.623497,41.971577],[2.623539,41.971366],[2.623537,41.971328],[2.623522,41.971295],[2.623483,41.971247],[2.623423,41.971165],[2.623335,41.971046],[2.623352,41.970928],[2.623391,41.970634],[2.623431,41.970355],[2.623451,41.97022],[2.623516,41.969792],[2.623559,41.969512],[2.623582,41.969364],[2.623585,41.969343],[2.623593,41.969298],[2.623595,41.969284],[2.623598,41.96927],[2.623611,41.969197],[2.623663,41.969206],[2.62368,41.969132],[2.624056,41.969159],[2.624103,41.968905],[2.623671,41.968873],[2.623739,41.968502]]]]}}]}