{"type":"FeatureCollection","name":"ICGC Àrees de poblament - Santa Coloma de Farners","features":[{"type":"Feature","id":"171805_171805 AP05 SEL 3","properties":{"area_id":"171805_171805 AP05 SEL 3","nom":"Castanyet","codi_icgc":"171805 AP05 SEL 3","categoria":"Àrees de poblament","codi_municipi":"171805","municipi":"Santa Coloma de Farners","codi_comarca":"34","comarca":"Selva","provincia":"Girona","font":"ICGC Àrees de poblament v3r1 202602"},"geometry":{"type":"MultiPolygon","coordinates":[[[[2.623625,41.888304],[2.62325,41.888568],[2.623211,41.88876],[2.622971,41.888917],[2.622817,41.889059],[2.622816,41.88916],[2.622883,41.889267],[2.623007,41.889253],[2.623238,41.889061],[2.623382,41.88889],[2.623545,41.888862],[2.62367,41.888848],[2.623957,41.888756],[2.623996,41.888642],[2.624016,41.888427],[2.623816,41.888341],[2.623625,41.888304]]]]}},{"type":"Feature","id":"171805_171805 SI03 SEL 2","properties":{"area_id":"171805_171805 SI03 SEL 2","nom":"Corcho del País SA","codi_icgc":"171805 SI03 SEL 2","categoria":"Sector industrial","codi_municipi":"171805","municipi":"Santa Coloma de Farners","codi_comarca":"34","comarca":"Selva","provincia":"Girona","font":"ICGC Àrees de poblament v3r1 202602"},"geometry":{"type":"MultiPolygon","coordinates":[[[[2.693945,41.849662],[2.69371,41.849947],[2.693542,41.850152],[2.693525,41.850172],[2.693478,41.850542],[2.693436,41.850763],[2.693304,41.851003],[2.69338,41.851022],[2.69335,41.851042],[2.69329,41.851081],[2.693255,41.851104],[2.693255,41.851104],[2.692835,41.85138],[2.692964,41.851476],[2.693336,41.851724],[2.694012,41.852144],[2.694553,41.852473],[2.694794,41.852543],[2.694898,41.85231],[2.694917,41.852274],[2.69495,41.852213],[2.694988,41.852145],[2.695026,41.852077],[2.695048,41.852041],[2.69507,41.852005],[2.695087,41.851976],[2.695097,41.851959],[2.695185,41.851823],[2.695261,41.851765],[2.69527,41.851758],[2.695413,41.851691],[2.695576,41.851623],[2.695775,41.851537],[2.695929,41.85149],[2.695186,41.850821],[2.694719,41.85041],[2.694511,41.850204],[2.694479,41.850172],[2.693945,41.849662]]]]}},{"type":"Feature","id":"171805_171805 SI04 SEL 2","properties":{"area_id":"171805_171805 SI04 SEL 2","nom":"Farhian SA","codi_icgc":"171805 SI04 SEL 2","categoria":"Sector industrial","codi_municipi":"171805","municipi":"Santa Coloma de Farners","codi_comarca":"34","comarca":"Selva","provincia":"Girona","font":"ICGC Àrees de poblament v3r1 202602"},"geometry":{"type":"MultiPolygon","coordinates":[[[[2.664969,41.869435],[2.664352,41.869829],[2.66427,41.86994],[2.664497,41.870196],[2.664815,41.870463],[2.664759,41.870502],[2.66488,41.870579],[2.665026,41.87055],[2.665086,41.870532],[2.665146,41.870493],[2.665378,41.870334],[2.665487,41.870218],[2.665503,41.870207],[2.665757,41.870031],[2.664969,41.869435]]]]}},{"type":"Feature","id":"171805_171805 SI05 SEL 2","properties":{"area_id":"171805_171805 SI05 SEL 2","nom":"Font Selva SA","codi_icgc":"171805 SI05 SEL 2","categoria":"Sector industrial","codi_municipi":"171805","municipi":"Santa Coloma de Farners","codi_comarca":"34","comarca":"Selva","provincia":"Girona","font":"ICGC Àrees de poblament v3r1 202602"},"geometry":{"type":"MultiPolygon","coordinates":[[[[2.554471,41.863172],[2.554549,41.863107],[2.554586,41.863076],[2.554943,41.862929],[2.555007,41.862887],[2.555059,41.862837],[2.55506,41.862801],[2.555052,41.862754],[2.554843,41.862458],[2.554729,41.86248],[2.554694,41.862487],[2.554685,41.862485],[2.554677,41.862481],[2.554672,41.862477],[2.554661,41.862468],[2.554631,41.862438],[2.554602,41.862409],[2.554583,41.862395],[2.55456,41.862378],[2.554547,41.862369],[2.554536,41.862364],[2.554524,41.862359],[2.554511,41.862356],[2.554497,41.862354],[2.554481,41.862354],[2.554467,41.862354],[2.554453,41.862357],[2.554439,41.86236],[2.554428,41.862365],[2.554396,41.862384],[2.554368,41.862404],[2.554311,41.86245],[2.554254,41.862496],[2.554009,41.862675],[2.553901,41.862707],[2.553833,41.86271],[2.553777,41.86271],[2.553662,41.862683],[2.553475,41.862605],[2.553379,41.862607],[2.553291,41.86264],[2.553183,41.86272],[2.552967,41.862891],[2.552597,41.863168],[2.552607,41.863177],[2.552886,41.863318],[2.552995,41.863184],[2.553145,41.863155],[2.553303,41.863157],[2.553459,41.863215],[2.553606,41.863394],[2.553648,41.863441],[2.553688,41.863508],[2.553788,41.863582],[2.553897,41.863663],[2.553952,41.863654],[2.554108,41.863419],[2.554213,41.863334],[2.554319,41.863266],[2.554424,41.863209],[2.554471,41.863172]]]]}},{"type":"Feature","id":"171805_171805 SI02 SEL 2","properties":{"area_id":"171805_171805 SI02 SEL 2","nom":"Polígon industrial Can Simon","codi_icgc":"171805 SI02 SEL 2","categoria":"Sector industrial","codi_municipi":"171805","municipi":"Santa Coloma de Farners","codi_comarca":"34","comarca":"Selva","provincia":"Girona","font":"ICGC Àrees de poblament v3r1 202602"},"geometry":{"type":"MultiPolygon","coordinates":[[[[2.679013,41.853435],[2.679008,41.853443],[2.678974,41.853492],[2.67891,41.85359],[2.678813,41.853741],[2.678691,41.853943],[2.678643,41.854025],[2.678636,41.854038],[2.678648,41.854047],[2.678858,41.854195],[2.679087,41.854356],[2.679382,41.854564],[2.679431,41.854598],[2.679472,41.854627],[2.679472,41.854627],[2.680004,41.854353],[2.680458,41.854117],[2.681579,41.853522],[2.682342,41.853133],[2.68237,41.853137],[2.682663,41.852979],[2.682757,41.85295],[2.683419,41.852586],[2.685324,41.851567],[2.685595,41.851435],[2.685582,41.851418],[2.685551,41.85138],[2.684838,41.85049],[2.684809,41.850458],[2.684792,41.850439],[2.684408,41.850566],[2.684297,41.850604],[2.684182,41.850662],[2.684152,41.850677],[2.683512,41.851025],[2.683157,41.85122],[2.683113,41.851244],[2.681985,41.851825],[2.681767,41.851603],[2.681751,41.851589],[2.681732,41.851415],[2.681615,41.851367],[2.681049,41.851439],[2.680958,41.851481],[2.680866,41.851528],[2.680833,41.851553],[2.680701,41.851654],[2.680556,41.851749],[2.680421,41.851799],[2.680183,41.85189],[2.680026,41.852032],[2.679919,41.852162],[2.679706,41.852443],[2.679561,41.852626],[2.679269,41.853016],[2.679071,41.853286],[2.679046,41.85332],[2.679016,41.853431],[2.679013,41.853435]]]]}},{"type":"Feature","id":"171805_171805 SI01 SEL 2","properties":{"area_id":"171805_171805 SI01 SEL 2","nom":"Polígon industrial Mas Llorenç","codi_icgc":"171805 SI01 SEL 2","categoria":"Sector industrial","codi_municipi":"171805","municipi":"Santa Coloma de Farners","codi_comarca":"34","comarca":"Selva","provincia":"Girona","font":"ICGC Àrees de poblament v3r1 202602"},"geometry":{"type":"MultiPolygon","coordinates":[[[[2.68775,41.850113],[2.687498,41.849668],[2.687396,41.849711],[2.687357,41.849728],[2.68701,41.849889],[2.686714,41.849604],[2.686618,41.84951],[2.685729,41.849942],[2.686343,41.85056],[2.686702,41.850852],[2.686822,41.850949],[2.686994,41.851022],[2.687061,41.851025],[2.687537,41.851044],[2.687934,41.851045],[2.688015,41.85102],[2.688105,41.850996],[2.687783,41.850584],[2.687678,41.850414],[2.68789,41.850301],[2.687798,41.850198],[2.68775,41.850113]]],[[[2.687369,41.860593],[2.687065,41.860208],[2.686877,41.859971],[2.686878,41.85997],[2.686945,41.859905],[2.686992,41.85986],[2.687055,41.859799],[2.687376,41.859489],[2.687493,41.85932],[2.687503,41.859306],[2.687532,41.859263],[2.687613,41.859124],[2.687787,41.858824],[2.687792,41.858814],[2.687669,41.858181],[2.68734,41.858015],[2.687135,41.857913],[2.68743,41.857616],[2.68799,41.857363],[2.687643,41.856814],[2.687618,41.856774],[2.687453,41.856516],[2.687381,41.856405],[2.687015,41.855799],[2.68649,41.855934],[2.685995,41.85606],[2.685958,41.856021],[2.685831,41.855891],[2.68581,41.855883],[2.685777,41.855865],[2.685749,41.855842],[2.685728,41.855816],[2.685648,41.855729],[2.685568,41.855643],[2.685397,41.85546],[2.685225,41.855278],[2.685066,41.855108],[2.685047,41.855088],[2.684979,41.855015],[2.684958,41.854993],[2.68493,41.854964],[2.68493,41.854963],[2.68556,41.854639],[2.68552,41.854591],[2.685514,41.854591],[2.68525,41.854309],[2.685142,41.854194],[2.685026,41.85407],[2.684676,41.853696],[2.68425,41.853251],[2.68422,41.853216],[2.684445,41.852969],[2.684361,41.852896],[2.684391,41.85288],[2.684258,41.852718],[2.684055,41.852471],[2.683969,41.852385],[2.682526,41.853136],[2.68253,41.85314],[2.682055,41.853395],[2.681137,41.853858],[2.680949,41.853973],[2.67949,41.854728],[2.679448,41.854775],[2.679412,41.854825],[2.679382,41.854877],[2.679358,41.854931],[2.679341,41.854986],[2.679328,41.855053],[2.679325,41.85512],[2.679331,41.855188],[2.679342,41.855239],[2.679359,41.85529],[2.679381,41.855339],[2.679408,41.855387],[2.679415,41.855399],[2.679831,41.855814],[2.679882,41.855858],[2.679962,41.85592],[2.680047,41.855977],[2.680078,41.855993],[2.680332,41.856155],[2.680487,41.856227],[2.68058,41.856261],[2.680603,41.856269],[2.680647,41.856284],[2.68099,41.856354],[2.681512,41.856439],[2.682468,41.856597],[2.683414,41.85675],[2.683646,41.856787],[2.683926,41.856874],[2.684391,41.857047],[2.684639,41.857184],[2.684791,41.857291],[2.684937,41.857402],[2.685076,41.857519],[2.683962,41.858212],[2.683163,41.858691],[2.683724,41.859294],[2.683558,41.859367],[2.683538,41.859376],[2.683496,41.859452],[2.683178,41.859935],[2.683266,41.860025],[2.6833,41.860059],[2.683683,41.860048],[2.683751,41.86005],[2.683822,41.860052],[2.683901,41.860054],[2.68398,41.860061],[2.684053,41.860067],[2.684102,41.860073],[2.684159,41.860078],[2.684207,41.860082],[2.684243,41.860088],[2.684281,41.860096],[2.684313,41.860105],[2.68435,41.860112],[2.684384,41.860122],[2.684423,41.860134],[2.684461,41.860144],[2.684497,41.860158],[2.68454,41.860172],[2.684579,41.860186],[2.684626,41.860201],[2.68468,41.860222],[2.684729,41.860241],[2.684811,41.860279],[2.684866,41.860302],[2.68495,41.860339],[2.684998,41.86036],[2.68518,41.86044],[2.68522,41.860467],[2.685226,41.860477],[2.685293,41.860511],[2.685296,41.86051],[2.685312,41.860509],[2.685332,41.860511],[2.685347,41.860516],[2.685418,41.860543],[2.685496,41.860585],[2.68558,41.860633],[2.685738,41.860732],[2.686082,41.860967],[2.686163,41.861021],[2.686174,41.861029],[2.686408,41.861143],[2.686667,41.86127],[2.687138,41.8615],[2.687479,41.861667],[2.687503,41.86168],[2.687618,41.861568],[2.687737,41.861453],[2.687818,41.861009],[2.68776,41.86098],[2.687765,41.860967],[2.68765,41.860875],[2.687649,41.860873],[2.687635,41.860866],[2.687382,41.860609],[2.687369,41.860593]]]]}},{"type":"Feature","id":"171805_171805 AP04 SEL 3","properties":{"area_id":"171805_171805 AP04 SEL 3","nom":"Sant Miquel de Cladells","codi_icgc":"171805 AP04 SEL 3","categoria":"Àrees de poblament","codi_municipi":"171805","municipi":"Santa Coloma de Farners","codi_comarca":"34","comarca":"Selva","provincia":"Girona","font":"ICGC Àrees de poblament v3r1 202602"},"geometry":{"type":"MultiPolygon","coordinates":[[[[2.563683,41.857303],[2.563719,41.857289],[2.563819,41.857254],[2.563871,41.857244],[2.563986,41.857222],[2.564083,41.857136],[2.564041,41.857109],[2.563811,41.85692],[2.563704,41.856915],[2.563539,41.857117],[2.56351,41.85716],[2.563476,41.857209],[2.563506,41.857286],[2.563523,41.857326],[2.563522,41.857366],[2.563563,41.857369],[2.563635,41.857322],[2.563683,41.857303]]]]}},{"type":"Feature","id":"171805_171805 AP03 SEL 3","properties":{"area_id":"171805_171805 AP03 SEL 3","nom":"Sant Pere Cercada","codi_icgc":"171805 AP03 SEL 3","categoria":"Àrees de poblament","codi_municipi":"171805","municipi":"Santa Coloma de Farners","codi_comarca":"34","comarca":"Selva","provincia":"Girona","font":"ICGC Àrees de poblament v3r1 202602"},"geometry":{"type":"MultiPolygon","coordinates":[[[[2.607401,41.835383],[2.607333,41.835504],[2.607476,41.835546],[2.60753,41.83548],[2.607564,41.835439],[2.607859,41.835446],[2.608066,41.835452],[2.608161,41.835465],[2.608361,41.835465],[2.608441,41.83543],[2.608505,41.835365],[2.60852,41.835341],[2.608517,41.835325],[2.608511,41.835297],[2.608442,41.835245],[2.60835,41.835148],[2.607893,41.835077],[2.607766,41.835076],[2.60765,41.835087],[2.607401,41.835383]]]]}},{"type":"Feature","id":"171805_171805 AP02 SEL 3","properties":{"area_id":"171805_171805 AP02 SEL 3","nom":"Santa Coloma Residencial","codi_icgc":"171805 AP02 SEL 3","categoria":"Àrees de poblament","codi_municipi":"171805","municipi":"Santa Coloma de Farners","codi_comarca":"34","comarca":"Selva","provincia":"Girona","font":"ICGC Àrees de poblament v3r1 202602"},"geometry":{"type":"MultiPolygon","coordinates":[[[[2.70478,41.875405],[2.704971,41.875396],[2.705239,41.875397],[2.705394,41.875357],[2.705998,41.874685],[2.706123,41.874495],[2.706501,41.873936],[2.706536,41.873884],[2.706444,41.873832],[2.706348,41.873827],[2.705997,41.873869],[2.706024,41.873521],[2.706737,41.873541],[2.706748,41.87354],[2.706775,41.873537],[2.70681,41.873323],[2.706769,41.873196],[2.706741,41.873107],[2.70642,41.872107],[2.706325,41.871809],[2.706101,41.871113],[2.706099,41.871106],[2.706081,41.871048],[2.706081,41.871048],[2.706079,41.871042],[2.706062,41.871049],[2.706039,41.87105],[2.705885,41.871058],[2.705197,41.871095],[2.705173,41.871093],[2.705153,41.871085],[2.705136,41.871072],[2.705126,41.871057],[2.705124,41.87104],[2.705132,41.870703],[2.705133,41.870675],[2.705134,41.870651],[2.705135,41.87063],[2.705137,41.870582],[2.705139,41.870571],[2.705143,41.870562],[2.705151,41.870553],[2.7055,41.870542],[2.70575,41.870535],[2.70575,41.870533],[2.705914,41.870527],[2.705812,41.87021],[2.705786,41.870129],[2.705595,41.869532],[2.705549,41.86939],[2.705526,41.869318],[2.705524,41.869312],[2.705502,41.869243],[2.705716,41.867382],[2.705686,41.867379],[2.705676,41.867278],[2.705639,41.867095],[2.705622,41.867006],[2.705583,41.866949],[2.705455,41.866762],[2.705304,41.866395],[2.705279,41.866325],[2.7052,41.866102],[2.705175,41.866031],[2.705105,41.865743],[2.705103,41.865736],[2.704981,41.865378],[2.704922,41.865204],[2.704863,41.86503],[2.704862,41.865026],[2.704806,41.864869],[2.704321,41.864996],[2.704534,41.865554],[2.70441,41.865582],[2.703557,41.865601],[2.703457,41.8656],[2.703579,41.866006],[2.70377,41.866629],[2.703915,41.867125],[2.703952,41.867311],[2.703996,41.867478],[2.704021,41.867649],[2.70402,41.867835],[2.704,41.86793],[2.703949,41.867944],[2.702967,41.867918],[2.701482,41.86789],[2.701029,41.86788],[2.6998,41.867862],[2.699755,41.867843],[2.699743,41.867748],[2.699723,41.866513],[2.699712,41.866113],[2.699681,41.866001],[2.699668,41.865967],[2.699161,41.865451],[2.699148,41.865432],[2.699155,41.86538],[2.699257,41.865304],[2.701241,41.864234],[2.701551,41.864529],[2.701742,41.864417],[2.701453,41.864124],[2.701585,41.864041],[2.701684,41.864041],[2.702192,41.864561],[2.702315,41.864674],[2.702631,41.8645],[2.702739,41.86444],[2.702806,41.864431],[2.702858,41.864458],[2.702969,41.864631],[2.703031,41.864742],[2.703119,41.864703],[2.704018,41.864209],[2.704006,41.864176],[2.70396,41.864056],[2.703934,41.863984],[2.703907,41.863911],[2.703901,41.863894],[2.7039,41.863871],[2.703907,41.863848],[2.70392,41.863828],[2.70394,41.86381],[2.703954,41.863802],[2.704048,41.86358],[2.704032,41.863581],[2.704018,41.863575],[2.704008,41.863566],[2.703894,41.86345],[2.703784,41.863337],[2.703703,41.863257],[2.703528,41.863072],[2.703471,41.863016],[2.703329,41.862871],[2.703213,41.862754],[2.702996,41.862523],[2.702705,41.862223],[2.702602,41.862115],[2.702513,41.862024],[2.702508,41.86201],[2.702506,41.861987],[2.702512,41.861964],[2.702524,41.861942],[2.703033,41.861668],[2.70328,41.861542],[2.703343,41.86151],[2.70362,41.861372],[2.703645,41.861364],[2.703686,41.861353],[2.703748,41.861315],[2.703753,41.861312],[2.703401,41.861086],[2.702929,41.86076],[2.702522,41.860497],[2.702271,41.860338],[2.702128,41.860253],[2.702118,41.860246],[2.702094,41.860236],[2.702088,41.860235],[2.702072,41.860232],[2.702067,41.860231],[2.702056,41.860231],[2.702037,41.860232],[2.70198,41.860234],[2.702036,41.860198],[2.702028,41.859908],[2.702028,41.859861],[2.702027,41.859711],[2.701988,41.8597],[2.701943,41.859687],[2.701838,41.859819],[2.701818,41.859836],[2.701416,41.860078],[2.701294,41.860151],[2.70127,41.86017],[2.701194,41.860218],[2.701044,41.860302],[2.700847,41.860422],[2.700748,41.86047],[2.700605,41.860544],[2.700602,41.860546],[2.700419,41.86065],[2.700222,41.860762],[2.700115,41.860865],[2.700077,41.8609],[2.699928,41.861041],[2.699921,41.861047],[2.699862,41.861103],[2.699781,41.86118],[2.69964,41.861313],[2.699649,41.861323],[2.699625,41.861345],[2.699573,41.861392],[2.699503,41.861423],[2.699449,41.861481],[2.699372,41.86166],[2.69934,41.861701],[2.699292,41.861761],[2.699136,41.861955],[2.699014,41.86211],[2.698907,41.862243],[2.698902,41.862249],[2.698861,41.862299],[2.698504,41.86271],[2.698341,41.862862],[2.698238,41.863015],[2.698114,41.863158],[2.697978,41.863325],[2.69783,41.863506],[2.69779,41.863554],[2.697642,41.863654],[2.69764,41.863656],[2.697415,41.863806],[2.696765,41.864287],[2.69639,41.864571],[2.696377,41.864591],[2.696399,41.86458],[2.696403,41.864586],[2.69641,41.864723],[2.69631,41.864748],[2.696332,41.864836],[2.696303,41.864826],[2.69629,41.864816],[2.696261,41.864791],[2.696259,41.864788],[2.696244,41.864812],[2.696267,41.864832],[2.696282,41.864842],[2.696313,41.864866],[2.696335,41.864887],[2.696253,41.864854],[2.696147,41.865019],[2.696083,41.865121],[2.69604,41.865186],[2.695932,41.865348],[2.695808,41.865528],[2.695735,41.865634],[2.695682,41.86572],[2.695561,41.865917],[2.695541,41.865946],[2.695536,41.865956],[2.695274,41.866353],[2.695203,41.86646],[2.695165,41.866469],[2.695162,41.866473],[2.695081,41.866487],[2.694487,41.866591],[2.694446,41.866598],[2.69437,41.866612],[2.694338,41.866616],[2.693719,41.866724],[2.693679,41.866736],[2.693648,41.866746],[2.69361,41.866761],[2.693606,41.866763],[2.693551,41.866787],[2.693497,41.866819],[2.693475,41.866834],[2.693453,41.86685],[2.693099,41.867111],[2.693088,41.867119],[2.693078,41.867126],[2.693047,41.867148],[2.692784,41.867331],[2.692769,41.867341],[2.692097,41.867805],[2.691709,41.868073],[2.691627,41.868132],[2.691527,41.8682],[2.691428,41.868267],[2.691329,41.868335],[2.690816,41.868693],[2.690787,41.868714],[2.690936,41.868891],[2.690959,41.868886],[2.690975,41.868886],[2.690989,41.868888],[2.691043,41.868903],[2.691101,41.869051],[2.691114,41.869079],[2.691147,41.869141],[2.691249,41.869348],[2.691266,41.869386],[2.691425,41.869767],[2.691365,41.869788],[2.691382,41.869822],[2.691469,41.869904],[2.691544,41.870064],[2.69162,41.870224],[2.691815,41.870609],[2.691826,41.870636],[2.691843,41.870679],[2.691914,41.870666],[2.691959,41.870758],[2.691994,41.870908],[2.692054,41.870905],[2.692078,41.87095],[2.692125,41.8711],[2.692226,41.871223],[2.692253,41.871277],[2.692388,41.871431],[2.692716,41.872128],[2.692838,41.872359],[2.692888,41.872462],[2.692939,41.872528],[2.692957,41.872611],[2.693059,41.872836],[2.693126,41.872823],[2.693165,41.873038],[2.693053,41.873065],[2.693035,41.873263],[2.693444,41.873155],[2.693454,41.873157],[2.693464,41.87316],[2.69347,41.873163],[2.693475,41.873168],[2.693529,41.873285],[2.693539,41.873304],[2.693549,41.873325],[2.693578,41.873379],[2.693592,41.873404],[2.693608,41.873432],[2.693614,41.87344],[2.693625,41.873445],[2.693636,41.873449],[2.693648,41.873449],[2.69366,41.873448],[2.693672,41.873445],[2.693709,41.873434],[2.69416,41.87376],[2.694288,41.873598],[2.694294,41.87359],[2.694548,41.87331],[2.694553,41.873306],[2.694823,41.873094],[2.694905,41.87303],[2.694919,41.873019],[2.695256,41.872756],[2.695447,41.872628],[2.695572,41.872544],[2.695587,41.872533],[2.695774,41.872389],[2.695895,41.872299],[2.695935,41.872267],[2.695945,41.872265],[2.696172,41.872211],[2.696307,41.872145],[2.696447,41.872103],[2.696603,41.872096],[2.696715,41.872092],[2.696829,41.872089],[2.697153,41.872082],[2.697383,41.872077],[2.698011,41.872122],[2.698112,41.872129],[2.698129,41.872129],[2.698157,41.872098],[2.698365,41.871916],[2.69842,41.871883],[2.698427,41.871879],[2.698744,41.872118],[2.698917,41.871957],[2.698923,41.871952],[2.699152,41.871836],[2.699203,41.871887],[2.699396,41.871764],[2.699365,41.871732],[2.699874,41.871514],[2.699861,41.871398],[2.699864,41.871296],[2.699881,41.871241],[2.699928,41.871122],[2.699999,41.871039],[2.700338,41.870864],[2.700671,41.870711],[2.700879,41.870588],[2.70118,41.870573],[2.701695,41.870577],[2.701872,41.870554],[2.70191,41.870549],[2.702115,41.870547],[2.702165,41.870546],[2.702493,41.87057],[2.702602,41.870585],[2.702836,41.870634],[2.702965,41.870636],[2.702994,41.870599],[2.703084,41.870601],[2.703332,41.870605],[2.703341,41.870605],[2.703581,41.870601],[2.703806,41.870597],[2.703815,41.870597],[2.704031,41.870607],[2.704073,41.870609],[2.704298,41.870608],[2.704497,41.870608],[2.704536,41.870608],[2.704765,41.870608],[2.704923,41.870609],[2.705027,41.870611],[2.705027,41.870644],[2.705027,41.870665],[2.705027,41.870689],[2.705027,41.870733],[2.705024,41.871044],[2.705021,41.871054],[2.705018,41.871063],[2.705014,41.871072],[2.705006,41.871081],[2.704994,41.871089],[2.70498,41.871096],[2.704964,41.871104],[2.704947,41.871111],[2.704923,41.871117],[2.704898,41.87112],[2.704857,41.871122],[2.704816,41.871124],[2.704751,41.871127],[2.704686,41.871131],[2.704556,41.871136],[2.704427,41.871141],[2.704206,41.871153],[2.704104,41.871159],[2.70393,41.871166],[2.70381,41.871173],[2.703765,41.871175],[2.703654,41.871177],[2.703544,41.871177],[2.70345,41.871178],[2.703357,41.871178],[2.703255,41.871177],[2.703152,41.871177],[2.702985,41.871177],[2.702815,41.871176],[2.702602,41.871176],[2.702298,41.871175],[2.702235,41.871177],[2.702184,41.871178],[2.702172,41.871179],[2.702156,41.87118],[2.702135,41.871181],[2.702113,41.871181],[2.702087,41.871178],[2.70205,41.871171],[2.702009,41.87116],[2.701856,41.871159],[2.701617,41.871164],[2.701607,41.871207],[2.701605,41.871264],[2.701805,41.871524],[2.702202,41.871838],[2.702383,41.872051],[2.702406,41.87208],[2.702565,41.872288],[2.70266,41.872345],[2.702667,41.872347],[2.703015,41.872463],[2.703088,41.872488],[2.703266,41.872548],[2.703273,41.872551],[2.703693,41.87273],[2.703692,41.873199],[2.704521,41.873157],[2.704646,41.873439],[2.703988,41.87364],[2.703772,41.873711],[2.703742,41.873734],[2.703751,41.873802],[2.703753,41.873813],[2.703934,41.875002],[2.704143,41.875118],[2.704589,41.875376],[2.70478,41.875405]]]]}},{"type":"Feature","id":"171805_171805 AP01 SEL 3","properties":{"area_id":"171805_171805 AP01 SEL 3","nom":"Santa Coloma de Farners","codi_icgc":"171805 AP01 SEL 3","categoria":"Àrees de poblament","codi_municipi":"171805","municipi":"Santa Coloma de Farners","codi_comarca":"34","comarca":"Selva","provincia":"Girona","font":"ICGC Àrees de poblament v3r1 202602"},"geometry":{"type":"MultiPolygon","coordinates":[[[[2.666657,41.853661],[2.666452,41.853791],[2.664489,41.8551],[2.664884,41.855444],[2.664477,41.855539],[2.663913,41.855652],[2.663801,41.855712],[2.663718,41.855765],[2.663679,41.855795],[2.663563,41.855887],[2.66353,41.855921],[2.663501,41.855952],[2.663409,41.856045],[2.663446,41.856073],[2.663457,41.856082],[2.663799,41.856329],[2.663846,41.856363],[2.663758,41.856429],[2.66315,41.856888],[2.663077,41.856922],[2.662158,41.857396],[2.661495,41.857751],[2.660985,41.857973],[2.660895,41.858101],[2.660879,41.858283],[2.660876,41.858316],[2.66088,41.858414],[2.660881,41.858423],[2.66088,41.858429],[2.660878,41.858436],[2.660874,41.858441],[2.660855,41.858457],[2.660209,41.858916],[2.659964,41.859104],[2.659719,41.859332],[2.659469,41.859557],[2.659272,41.859742],[2.659248,41.859811],[2.659321,41.859881],[2.659322,41.859886],[2.659495,41.859981],[2.659703,41.860114],[2.659808,41.860153],[2.659933,41.860252],[2.659895,41.86032],[2.65989,41.860403],[2.659887,41.860463],[2.659878,41.860493],[2.659822,41.860582],[2.659589,41.860723],[2.659577,41.860736],[2.659544,41.860757],[2.659415,41.86081],[2.659243,41.860882],[2.659227,41.860894],[2.659062,41.860798],[2.658892,41.860697],[2.658815,41.860778],[2.658701,41.860944],[2.658644,41.860912],[2.658475,41.86116],[2.658362,41.861402],[2.658234,41.861351],[2.658135,41.861613],[2.657867,41.861593],[2.657698,41.861581],[2.65767,41.861579],[2.657648,41.861577],[2.657626,41.861575],[2.657277,41.862025],[2.656537,41.861885],[2.656427,41.861896],[2.656189,41.86199],[2.655937,41.862091],[2.655474,41.862275],[2.655264,41.862359],[2.654339,41.862735],[2.654022,41.862863],[2.653998,41.863531],[2.65348,41.863801],[2.653669,41.864159],[2.653622,41.864209],[2.653868,41.864317],[2.653526,41.86469],[2.65351,41.864708],[2.653538,41.864752],[2.653474,41.864761],[2.653352,41.864827],[2.653314,41.864848],[2.653061,41.864774],[2.652996,41.864886],[2.653033,41.86502],[2.653132,41.865266],[2.653228,41.865399],[2.653259,41.86558],[2.65292,41.865713],[2.652529,41.865861],[2.652224,41.866028],[2.652207,41.865756],[2.652113,41.865441],[2.651922,41.865283],[2.652654,41.864575],[2.65252,41.864372],[2.652437,41.864324],[2.652341,41.864329],[2.652316,41.864271],[2.652419,41.864186],[2.652406,41.864167],[2.652336,41.864176],[2.652221,41.864185],[2.652112,41.864199],[2.651947,41.864199],[2.651646,41.863834],[2.650748,41.864204],[2.650689,41.864229],[2.649681,41.864643],[2.649497,41.864719],[2.649475,41.864715],[2.649475,41.864732],[2.649465,41.864736],[2.64945,41.864866],[2.649445,41.865049],[2.649452,41.865183],[2.649473,41.865249],[2.649478,41.865264],[2.649562,41.865298],[2.649586,41.865307],[2.649614,41.865301],[2.649631,41.865298],[2.649648,41.865293],[2.649659,41.865293],[2.649671,41.865293],[2.649682,41.865293],[2.649686,41.865296],[2.649688,41.865302],[2.649692,41.86531],[2.649696,41.865318],[2.649703,41.865331],[2.64971,41.865343],[2.649714,41.865361],[2.649719,41.86538],[2.649725,41.865392],[2.64973,41.865403],[2.649733,41.865417],[2.649736,41.865431],[2.649746,41.86546],[2.649765,41.865487],[2.649787,41.865516],[2.64981,41.865544],[2.649829,41.865569],[2.649845,41.865593],[2.649856,41.865615],[2.649867,41.865637],[2.649879,41.865662],[2.649891,41.865687],[2.649907,41.865713],[2.649923,41.865737],[2.649943,41.865768],[2.649964,41.865799],[2.649986,41.865824],[2.650009,41.865846],[2.650027,41.865864],[2.650044,41.865883],[2.650052,41.865891],[2.6502,41.865929],[2.650209,41.865936],[2.650375,41.866008],[2.650383,41.866015],[2.650527,41.866142],[2.650638,41.866239],[2.650657,41.866256],[2.65077,41.86636],[2.650891,41.86647],[2.650996,41.866573],[2.651228,41.866827],[2.65137,41.866982],[2.651446,41.867075],[2.651608,41.867328],[2.651626,41.867355],[2.651999,41.867726],[2.652021,41.867748],[2.651991,41.867854],[2.651986,41.867871],[2.651982,41.867926],[2.65197,41.868105],[2.651964,41.868104],[2.651972,41.868134],[2.65201,41.868145],[2.652044,41.868161],[2.652032,41.868173],[2.652014,41.868204],[2.652002,41.868235],[2.651995,41.868262],[2.651991,41.86829],[2.651985,41.868372],[2.651987,41.868392],[2.651989,41.868424],[2.65199,41.868429],[2.651976,41.868415],[2.651867,41.868536],[2.65183,41.868648],[2.651818,41.868683],[2.651816,41.868689],[2.651832,41.868697],[2.651944,41.86875],[2.652095,41.868833],[2.652148,41.868861],[2.652316,41.868953],[2.652546,41.869058],[2.652612,41.869084],[2.652649,41.869146],[2.65295,41.869332],[2.653257,41.869574],[2.65333,41.869682],[2.653371,41.869727],[2.653575,41.869949],[2.65358,41.869953],[2.653755,41.870085],[2.654032,41.869886],[2.654214,41.869814],[2.654241,41.869803],[2.654321,41.869771],[2.654373,41.869788],[2.654467,41.869827],[2.65449,41.869836],[2.654527,41.869865],[2.654586,41.869852],[2.654629,41.869839],[2.654723,41.86981],[2.654718,41.869774],[2.65474,41.869771],[2.654859,41.869743],[2.654866,41.869746],[2.654874,41.869749],[2.654882,41.869751],[2.654902,41.869753],[2.654845,41.869555],[2.654774,41.869482],[2.654773,41.869208],[2.655027,41.868222],[2.655346,41.867579],[2.655462,41.867358],[2.655743,41.866734],[2.655716,41.866712],[2.655838,41.866663],[2.655811,41.866537],[2.65584,41.866387],[2.65587,41.866222],[2.656188,41.865687],[2.656324,41.865344],[2.656374,41.86503],[2.656327,41.864773],[2.656509,41.864694],[2.656703,41.86418],[2.656905,41.863959],[2.657474,41.863082],[2.657603,41.862779],[2.657644,41.862679],[2.657755,41.862375],[2.657632,41.862124],[2.657741,41.862072],[2.658082,41.862162],[2.658081,41.862211],[2.657896,41.862968],[2.65776,41.863376],[2.6575,41.863725],[2.657248,41.864311],[2.657152,41.864332],[2.657027,41.864524],[2.657103,41.86456],[2.656881,41.864917],[2.65689,41.865003],[2.656822,41.86526],[2.656782,41.865482],[2.6562,41.866994],[2.656141,41.867317],[2.655908,41.868089],[2.655659,41.868052],[2.655447,41.868352],[2.655418,41.868487],[2.655462,41.868716],[2.655748,41.868804],[2.655782,41.868859],[2.655874,41.868957],[2.655762,41.86914],[2.655618,41.869346],[2.655556,41.869438],[2.655583,41.869452],[2.655781,41.8696],[2.656061,41.86999],[2.656232,41.8703],[2.656366,41.87058],[2.656454,41.870629],[2.656769,41.870335],[2.656776,41.870328],[2.656967,41.870176],[2.657211,41.86994],[2.657889,41.869281],[2.657901,41.869253],[2.657897,41.869226],[2.657922,41.869236],[2.657947,41.869242],[2.657957,41.869243],[2.657967,41.869241],[2.657987,41.869235],[2.658007,41.86923],[2.658026,41.869222],[2.658043,41.869209],[2.658061,41.869197],[2.658085,41.869181],[2.658109,41.869166],[2.658141,41.869148],[2.658171,41.869129],[2.658206,41.869101],[2.658241,41.869073],[2.658247,41.869067],[2.658296,41.869017],[2.658344,41.868967],[2.658383,41.868923],[2.658418,41.868876],[2.65844,41.868838],[2.658459,41.8688],[2.658481,41.868751],[2.658503,41.868702],[2.658526,41.86865],[2.658547,41.868597],[2.658575,41.868517],[2.658602,41.868437],[2.658624,41.868372],[2.658645,41.868308],[2.658664,41.868244],[2.658681,41.86818],[2.658691,41.868141],[2.658766,41.867978],[2.65878,41.867984],[2.658875,41.868031],[2.658961,41.868063],[2.658989,41.868077],[2.659,41.868082],[2.659275,41.868224],[2.659434,41.868307],[2.659651,41.868416],[2.659737,41.868461],[2.659767,41.868477],[2.659756,41.868526],[2.659747,41.868564],[2.659729,41.868649],[2.659724,41.868671],[2.659723,41.868678],[2.659719,41.868694],[2.659696,41.868806],[2.659691,41.86883],[2.659669,41.868935],[2.659668,41.868938],[2.659658,41.868957],[2.659641,41.868975],[2.65962,41.868989],[2.659584,41.868998],[2.659551,41.869013],[2.659522,41.869032],[2.659499,41.869055],[2.659482,41.869082],[2.65945,41.869111],[2.659412,41.869143],[2.659331,41.869213],[2.659257,41.869283],[2.659183,41.86936],[2.659111,41.86945],[2.659107,41.869458],[2.659103,41.869467],[2.6591,41.869475],[2.6591,41.869483],[2.659106,41.869498],[2.659115,41.869513],[2.659127,41.869529],[2.659141,41.869544],[2.659156,41.869558],[2.659171,41.869571],[2.65918,41.869579],[2.659188,41.869587],[2.659192,41.869592],[2.659196,41.869597],[2.659201,41.869601],[2.659208,41.869603],[2.659217,41.869605],[2.65923,41.869605],[2.65924,41.869605],[2.659249,41.869605],[2.659259,41.869607],[2.659266,41.869609],[2.659274,41.869611],[2.65928,41.869614],[2.659291,41.869619],[2.659316,41.869632],[2.659331,41.869639],[2.65937,41.86966],[2.659402,41.869679],[2.659434,41.869699],[2.659481,41.86972],[2.65953,41.869738],[2.659543,41.869742],[2.659556,41.869744],[2.659569,41.869745],[2.659584,41.869746],[2.659595,41.869746],[2.659605,41.869746],[2.659614,41.869745],[2.659628,41.869744],[2.659607,41.869797],[2.659818,41.869858],[2.659866,41.869844],[2.660067,41.869594],[2.660092,41.86957],[2.660162,41.86957],[2.660207,41.869589],[2.660229,41.869598],[2.660268,41.869537],[2.660315,41.869473],[2.660321,41.869464],[2.660358,41.869417],[2.660361,41.869413],[2.660364,41.869409],[2.660366,41.869405],[2.660368,41.869401],[2.66037,41.869397],[2.660372,41.869393],[2.660374,41.86939],[2.660376,41.869385],[2.660387,41.869364],[2.660393,41.869354],[2.660401,41.869335],[2.660423,41.869287],[2.660438,41.869263],[2.660452,41.869235],[2.660458,41.869223],[2.660466,41.869218],[2.660477,41.869216],[2.66049,41.869218],[2.660508,41.869218],[2.660526,41.869218],[2.660537,41.869196],[2.660554,41.869181],[2.660577,41.86917],[2.660598,41.869171],[2.660628,41.869171],[2.660903,41.869241],[2.661137,41.869303],[2.660991,41.869593],[2.661192,41.86966],[2.66121,41.869666],[2.661283,41.869688],[2.66122,41.869802],[2.662226,41.870077],[2.662229,41.870359],[2.663038,41.870566],[2.663057,41.870571],[2.663282,41.870324],[2.663295,41.870311],[2.663397,41.870197],[2.663432,41.870158],[2.663508,41.870047],[2.663482,41.869972],[2.663477,41.869962],[2.663499,41.869844],[2.663491,41.869837],[2.663479,41.869834],[2.663288,41.869785],[2.66338,41.869616],[2.663391,41.869595],[2.663254,41.869552],[2.663136,41.869517],[2.662684,41.869392],[2.662633,41.869377],[2.662384,41.869305],[2.662373,41.869329],[2.662077,41.869248],[2.662004,41.869227],[2.661997,41.869225],[2.66199,41.869223],[2.661963,41.869216],[2.661939,41.869209],[2.661895,41.869197],[2.661652,41.869129],[2.661577,41.8691],[2.661586,41.869092],[2.661643,41.868938],[2.661658,41.868892],[2.661658,41.868886],[2.661679,41.868838],[2.661689,41.868815],[2.661662,41.868807],[2.661675,41.868712],[2.661677,41.868698],[2.661679,41.868684],[2.661688,41.868622],[2.661715,41.868423],[2.66172,41.868389],[2.661723,41.868365],[2.661665,41.868343],[2.661627,41.868241],[2.661608,41.868189],[2.661736,41.86799],[2.661789,41.867927],[2.661801,41.867895],[2.661813,41.867874],[2.661818,41.867875],[2.661892,41.867898],[2.661991,41.867649],[2.662086,41.867376],[2.662089,41.867368],[2.662164,41.867391],[2.662172,41.867372],[2.662193,41.867379],[2.662258,41.867278],[2.662282,41.867242],[2.662332,41.867171],[2.662289,41.867156],[2.662409,41.866987],[2.662431,41.866995],[2.662661,41.866658],[2.662678,41.866664],[2.662697,41.866634],[2.662721,41.866642],[2.662736,41.866616],[2.662765,41.866624],[2.662807,41.866561],[2.662835,41.866571],[2.662901,41.866529],[2.662971,41.866517],[2.663205,41.86658],[2.663235,41.866517],[2.663264,41.866525],[2.663276,41.8665],[2.663081,41.866447],[2.662976,41.866434],[2.663061,41.866168],[2.663331,41.866244],[2.663371,41.866171],[2.663421,41.866081],[2.663509,41.86583],[2.663524,41.865774],[2.66355,41.865685],[2.663555,41.86568],[2.663596,41.865638],[2.663635,41.865568],[2.663673,41.865441],[2.663589,41.865433],[2.663566,41.865431],[2.663585,41.865351],[2.663542,41.865337],[2.663548,41.865258],[2.663552,41.865202],[2.663547,41.865182],[2.66361,41.865061],[2.663647,41.864971],[2.663606,41.864961],[2.663634,41.864893],[2.663652,41.8649],[2.663715,41.864812],[2.663723,41.864759],[2.663742,41.864621],[2.663779,41.864539],[2.663883,41.864457],[2.663904,41.864446],[2.664021,41.864451],[2.664133,41.864405],[2.664252,41.864453],[2.664397,41.864542],[2.664328,41.864519],[2.664301,41.864519],[2.664285,41.864524],[2.664262,41.864539],[2.664241,41.864552],[2.664227,41.864561],[2.664217,41.864566],[2.664201,41.864574],[2.664187,41.864583],[2.664176,41.86459],[2.66415,41.864607],[2.664134,41.864621],[2.664123,41.864637],[2.664107,41.864669],[2.664096,41.864695],[2.664087,41.864721],[2.664086,41.864731],[2.664112,41.864748],[2.664134,41.864762],[2.664352,41.864902],[2.664579,41.86468],[2.664595,41.86469],[2.664672,41.864735],[2.664717,41.864763],[2.664742,41.864793],[2.664792,41.864855],[2.664844,41.864863],[2.664896,41.864872],[2.664942,41.864878],[2.664989,41.864884],[2.665061,41.864896],[2.665089,41.8649],[2.665118,41.864905],[2.665134,41.864907],[2.665179,41.864913],[2.665223,41.864918],[2.665262,41.864922],[2.665236,41.864811],[2.665418,41.864676],[2.665657,41.864737],[2.665822,41.864743],[2.666,41.864714],[2.666161,41.86465],[2.666281,41.864653],[2.666659,41.86448],[2.666736,41.864898],[2.666739,41.864897],[2.666756,41.864895],[2.666774,41.864894],[2.666821,41.864896],[2.66688,41.864898],[2.666884,41.864899],[2.667007,41.864904],[2.667037,41.864905],[2.667043,41.8649],[2.667143,41.864887],[2.667375,41.86486],[2.667469,41.864849],[2.667492,41.864846],[2.667535,41.864841],[2.667573,41.864836],[2.667594,41.864831],[2.667621,41.864822],[2.667651,41.864807],[2.667751,41.864753],[2.667852,41.864698],[2.667978,41.864634],[2.667988,41.864629],[2.667998,41.864624],[2.668201,41.86452],[2.668385,41.864433],[2.668389,41.864431],[2.668445,41.864404],[2.668497,41.864377],[2.668507,41.864372],[2.668518,41.864366],[2.668577,41.864336],[2.668718,41.864263],[2.668909,41.864168],[2.668946,41.864148],[2.668964,41.864138],[2.668981,41.864128],[2.668994,41.864117],[2.669011,41.8641],[2.669019,41.86409],[2.669029,41.864074],[2.669037,41.86406],[2.669044,41.864041],[2.669048,41.864029],[2.669051,41.864021],[2.669065,41.864001],[2.669075,41.863986],[2.669034,41.863934],[2.668951,41.863893],[2.668875,41.863852],[2.668856,41.863831],[2.668946,41.863726],[2.668889,41.8637],[2.668969,41.863614],[2.669123,41.863448],[2.669283,41.863293],[2.669373,41.863196],[2.669417,41.863141],[2.669443,41.863096],[2.669332,41.863031],[2.669332,41.863],[2.669441,41.862881],[2.669691,41.862651],[2.669925,41.862445],[2.669992,41.862397],[2.670024,41.862395],[2.670056,41.8624],[2.670633,41.862799],[2.670644,41.862777],[2.670655,41.862753],[2.670666,41.862728],[2.670677,41.862699],[2.670685,41.862669],[2.670692,41.862642],[2.670696,41.862624],[2.670709,41.862572],[2.670721,41.862502],[2.670726,41.86247],[2.670731,41.862419],[2.67076,41.862175],[2.670766,41.862119],[2.670767,41.862114],[2.670723,41.862013],[2.670647,41.861827],[2.670654,41.861775],[2.670725,41.861745],[2.671032,41.861617],[2.67105,41.86161],[2.671019,41.861558],[2.670983,41.861486],[2.670946,41.861413],[2.670927,41.861384],[2.670919,41.861371],[2.670916,41.861366],[2.670908,41.86128],[2.670904,41.86126],[2.670896,41.861224],[2.670884,41.861188],[2.670872,41.861164],[2.670846,41.861124],[2.670819,41.861085],[2.670811,41.861071],[2.670802,41.861057],[2.670766,41.860997],[2.670742,41.860952],[2.670727,41.860925],[2.670712,41.8609],[2.670683,41.860848],[2.670669,41.860817],[2.670659,41.860785],[2.670656,41.86077],[2.670655,41.860755],[2.670658,41.860745],[2.670672,41.860718],[2.670686,41.860692],[2.670801,41.860617],[2.67086,41.860582],[2.670921,41.860549],[2.670964,41.860527],[2.671,41.860509],[2.671066,41.860477],[2.671092,41.860469],[2.671136,41.860463],[2.671182,41.860461],[2.671224,41.860465],[2.671267,41.860479],[2.671294,41.860489],[2.671323,41.860502],[2.671348,41.86051],[2.671597,41.860537],[2.671624,41.860536],[2.671651,41.860535],[2.671724,41.860531],[2.671732,41.86053],[2.671831,41.860526],[2.671847,41.860521],[2.671931,41.860514],[2.672013,41.860507],[2.672146,41.860489],[2.672252,41.860472],[2.672486,41.860426],[2.672623,41.860399],[2.672833,41.86035],[2.672858,41.860385],[2.673391,41.861137],[2.673444,41.861211],[2.673473,41.861251],[2.673476,41.861249],[2.6737,41.861135],[2.673773,41.861066],[2.673844,41.861034],[2.673848,41.86103],[2.673863,41.861014],[2.673872,41.860994],[2.673876,41.860975],[2.673875,41.860956],[2.67387,41.860934],[2.673862,41.860912],[2.673847,41.860884],[2.673832,41.860858],[2.673741,41.860688],[2.673734,41.860664],[2.673727,41.860641],[2.673711,41.860594],[2.673708,41.860587],[2.673707,41.860577],[2.67371,41.860573],[2.673715,41.860565],[2.673728,41.860556],[2.673747,41.860548],[2.673877,41.860497],[2.673887,41.860491],[2.673893,41.860484],[2.673899,41.860471],[2.673898,41.860462],[2.673891,41.860448],[2.673908,41.860442],[2.673871,41.860378],[2.673699,41.860054],[2.673766,41.860027],[2.673804,41.860012],[2.673921,41.859966],[2.674023,41.859926],[2.674032,41.859922],[2.674041,41.859919],[2.674056,41.859913],[2.674111,41.859892],[2.674322,41.859812],[2.674528,41.859734],[2.674551,41.859725],[2.674562,41.859721],[2.674566,41.859719],[2.674571,41.859717],[2.674576,41.859715],[2.67458,41.859713],[2.674588,41.859711],[2.674657,41.859693],[2.674669,41.85969],[2.674766,41.85967],[2.674816,41.859662],[2.674839,41.85966],[2.674879,41.859657],[2.674991,41.859651],[2.675003,41.85965],[2.675123,41.859656],[2.675172,41.859658],[2.675187,41.859658],[2.675229,41.859658],[2.675291,41.859646],[2.675307,41.859643],[2.675321,41.859639],[2.675481,41.859601],[2.67571,41.859549],[2.675735,41.859545],[2.675757,41.85954],[2.675777,41.85954],[2.675797,41.859545],[2.675844,41.859626],[2.675982,41.859774],[2.676101,41.859963],[2.676202,41.860031],[2.676298,41.86001],[2.676464,41.859915],[2.676907,41.85984],[2.677211,41.859628],[2.677154,41.859566],[2.677545,41.859388],[2.677333,41.859135],[2.676942,41.859351],[2.676759,41.859119],[2.676713,41.859066],[2.676537,41.859149],[2.676336,41.859229],[2.676109,41.859331],[2.675977,41.859394],[2.675621,41.858966],[2.676349,41.858426],[2.676964,41.858071],[2.67702,41.858071],[2.677148,41.858018],[2.677235,41.858],[2.677448,41.857853],[2.677274,41.857692],[2.677071,41.857558],[2.676931,41.857538],[2.676701,41.857633],[2.676573,41.857623],[2.676255,41.857451],[2.676256,41.857336],[2.676512,41.857175],[2.676716,41.85732],[2.67715,41.856991],[2.677404,41.857193],[2.677928,41.857629],[2.678319,41.857949],[2.678366,41.857994],[2.678398,41.858003],[2.678446,41.857994],[2.678542,41.857938],[2.678583,41.857907],[2.67869,41.857827],[2.678821,41.857715],[2.678963,41.857593],[2.678967,41.857588],[2.678927,41.85751],[2.679128,41.857201],[2.679232,41.857094],[2.679406,41.857099],[2.679438,41.857097],[2.679516,41.857144],[2.679554,41.857167],[2.679624,41.857225],[2.679648,41.857245],[2.679895,41.857454],[2.680025,41.857538],[2.680148,41.857658],[2.680167,41.857676],[2.680584,41.857385],[2.68043,41.857224],[2.680177,41.856942],[2.680226,41.856913],[2.680673,41.856709],[2.680548,41.856563],[2.680487,41.856492],[2.680408,41.856479],[2.680018,41.856702],[2.679318,41.85612],[2.67924,41.85605],[2.678667,41.856382],[2.678501,41.856232],[2.678397,41.856117],[2.678356,41.856063],[2.678212,41.855894],[2.678981,41.855484],[2.679007,41.855394],[2.678682,41.855269],[2.677813,41.855667],[2.677713,41.855454],[2.677724,41.855439],[2.677461,41.855068],[2.678061,41.854602],[2.678296,41.85443],[2.67853,41.854678],[2.678258,41.854828],[2.678475,41.855079],[2.679221,41.85471],[2.679018,41.854557],[2.678806,41.854652],[2.678406,41.854234],[2.678956,41.853371],[2.67892,41.853335],[2.678889,41.853304],[2.67879,41.853204],[2.678755,41.853183],[2.678696,41.853155],[2.678638,41.853128],[2.678622,41.85312],[2.678605,41.853112],[2.678523,41.85306],[2.678449,41.853023],[2.678369,41.852984],[2.678285,41.852949],[2.678228,41.852929],[2.678092,41.853015],[2.676903,41.853654],[2.676312,41.854001],[2.676107,41.854121],[2.675609,41.854412],[2.675089,41.854706],[2.674899,41.854815],[2.674707,41.854923],[2.674494,41.855045],[2.674093,41.854766],[2.673651,41.855118],[2.673939,41.855363],[2.673517,41.855602],[2.673461,41.855633],[2.673333,41.855737],[2.673208,41.855801],[2.672796,41.856036],[2.671453,41.856811],[2.671449,41.856814],[2.671738,41.857107],[2.672132,41.856869],[2.671929,41.856652],[2.672114,41.856547],[2.672461,41.856884],[2.672999,41.856606],[2.67362,41.85629],[2.673736,41.856217],[2.673406,41.855862],[2.673528,41.855794],[2.67448,41.855255],[2.674515,41.855242],[2.674541,41.855232],[2.674903,41.855606],[2.674589,41.855772],[2.674787,41.856027],[2.674653,41.856064],[2.673974,41.856398],[2.673968,41.856401],[2.67357,41.856609],[2.673567,41.856606],[2.672022,41.857388],[2.671947,41.857313],[2.671928,41.857328],[2.671857,41.85737],[2.671849,41.857374],[2.671768,41.857428],[2.671764,41.857425],[2.671758,41.857428],[2.671751,41.857421],[2.67157,41.857228],[2.671487,41.85714],[2.671331,41.857007],[2.671321,41.856997],[2.671243,41.856926],[2.67124,41.856922],[2.671216,41.856903],[2.671148,41.856847],[2.671119,41.856823],[2.671067,41.85678],[2.670926,41.856664],[2.67089,41.856634],[2.670866,41.856614],[2.670751,41.85652],[2.670676,41.856455],[2.670607,41.856395],[2.670589,41.856382],[2.670578,41.856375],[2.670508,41.856314],[2.670175,41.85653],[2.670132,41.85653],[2.669843,41.856264],[2.669764,41.856296],[2.669739,41.856306],[2.669715,41.856283],[2.669224,41.855814],[2.669193,41.855769],[2.668983,41.855559],[2.669035,41.855513],[2.66935,41.855273],[2.669448,41.855198],[2.669703,41.855004],[2.669758,41.854962],[2.669753,41.854961],[2.669628,41.854874],[2.669559,41.854818],[2.669542,41.854832],[2.669506,41.854859],[2.668867,41.855328],[2.668795,41.855364],[2.668523,41.855088],[2.66821,41.855261],[2.667724,41.854769],[2.667734,41.854726],[2.667968,41.854553],[2.667882,41.854452],[2.667676,41.854248],[2.667419,41.854458],[2.667198,41.854231],[2.667192,41.854202],[2.667195,41.854181],[2.667227,41.854153],[2.667466,41.853977],[2.667006,41.853508],[2.666947,41.853507],[2.666657,41.853661]]]]}},{"type":"Feature","id":"171805_171805 AP06 SEL 3","properties":{"area_id":"171805_171805 AP06 SEL 3","nom":"el Veïnat d'Avall","codi_icgc":"171805 AP06 SEL 3","categoria":"Àrees de poblament","codi_municipi":"171805","municipi":"Santa Coloma de Farners","codi_comarca":"34","comarca":"Selva","provincia":"Girona","font":"ICGC Àrees de poblament v3r1 202602"},"geometry":{"type":"MultiPolygon","coordinates":[[[[2.67431,41.852725],[2.67575,41.851325],[2.675735,41.851313],[2.675694,41.851281],[2.675656,41.851248],[2.675524,41.851137],[2.675451,41.851079],[2.675448,41.851076],[2.675406,41.851038],[2.675369,41.851011],[2.675333,41.850986],[2.675294,41.850958],[2.675267,41.850934],[2.675244,41.850915],[2.675254,41.850906],[2.675838,41.850403],[2.675912,41.850341],[2.676076,41.850436],[2.67638,41.850178],[2.676652,41.850006],[2.676483,41.849875],[2.676515,41.849849],[2.676867,41.849582],[2.677284,41.849284],[2.677713,41.848995],[2.677854,41.848906],[2.676832,41.848064],[2.677463,41.847662],[2.677635,41.847551],[2.677771,41.847463],[2.677815,41.847435],[2.677983,41.847327],[2.678192,41.847198],[2.678376,41.847092],[2.678535,41.847006],[2.678693,41.846921],[2.679084,41.846725],[2.67937,41.846572],[2.679453,41.846527],[2.679513,41.846494],[2.679522,41.846489],[2.679531,41.846484],[2.679539,41.846479],[2.679639,41.846424],[2.679868,41.846296],[2.680111,41.846154],[2.680184,41.846114],[2.680195,41.846108],[2.680207,41.846101],[2.680387,41.846],[2.680688,41.845835],[2.680785,41.84578],[2.680938,41.845694],[2.681136,41.845582],[2.681347,41.845461],[2.681372,41.845446],[2.681358,41.845413],[2.681353,41.845416],[2.681063,41.845213],[2.681059,41.845201],[2.68105,41.84519],[2.681024,41.84517],[2.680998,41.845149],[2.680967,41.845126],[2.680937,41.845104],[2.680894,41.845073],[2.680849,41.845045],[2.680797,41.845018],[2.680778,41.845009],[2.680686,41.844946],[2.680499,41.844855],[2.680398,41.844923],[2.680378,41.844936],[2.679857,41.845286],[2.679242,41.845709],[2.679053,41.845832],[2.678997,41.845863],[2.678904,41.845919],[2.678761,41.846009],[2.67868,41.84605],[2.678375,41.846213],[2.678341,41.846195],[2.678285,41.846153],[2.677906,41.845843],[2.677514,41.845512],[2.677116,41.845171],[2.6768,41.844899],[2.676684,41.844876],[2.676531,41.844969],[2.67634,41.844864],[2.676168,41.844984],[2.67592,41.845157],[2.67589,41.845178],[2.675742,41.845281],[2.675597,41.845383],[2.675789,41.845564],[2.675038,41.846029],[2.674815,41.846736],[2.674036,41.847506],[2.674971,41.848145],[2.675028,41.848184],[2.675107,41.848235],[2.675303,41.848362],[2.675748,41.848654],[2.675738,41.848685],[2.675124,41.849112],[2.674444,41.849836],[2.674321,41.849945],[2.674309,41.849956],[2.674308,41.849961],[2.674313,41.850043],[2.674275,41.850094],[2.674217,41.85017],[2.674173,41.850375],[2.674192,41.850402],[2.674168,41.850398],[2.674144,41.85053],[2.674124,41.850677],[2.674112,41.850765],[2.674104,41.850823],[2.674102,41.850836],[2.6741,41.850841],[2.674075,41.850955],[2.674067,41.850986],[2.674058,41.851017],[2.674049,41.851049],[2.674036,41.851082],[2.674015,41.851117],[2.673997,41.851148],[2.673971,41.851191],[2.673944,41.851236],[2.673913,41.851275],[2.673877,41.851309],[2.673834,41.851348],[2.673791,41.851387],[2.673749,41.851423],[2.673709,41.851457],[2.673664,41.851498],[2.673618,41.851541],[2.673566,41.851584],[2.67351,41.851625],[2.673462,41.851658],[2.673415,41.85169],[2.673364,41.851724],[2.673338,41.85174],[2.673329,41.851746],[2.67332,41.851751],[2.673307,41.851759],[2.673262,41.851777],[2.673221,41.851791],[2.673165,41.851809],[2.67311,41.851827],[2.673055,41.851846],[2.673,41.851865],[2.672952,41.85188],[2.672864,41.85191],[2.67279,41.851942],[2.672715,41.851985],[2.672691,41.851999],[2.672644,41.852026],[2.67263,41.852035],[2.672541,41.852089],[2.67249,41.852118],[2.672436,41.852149],[2.672227,41.852279],[2.672209,41.85229],[2.672159,41.852252],[2.672156,41.852253],[2.672151,41.852253],[2.672103,41.852251],[2.672057,41.852242],[2.672013,41.852229],[2.671972,41.85221],[2.671937,41.852187],[2.671904,41.852164],[2.671822,41.852105],[2.671782,41.852075],[2.671744,41.852046],[2.671722,41.852025],[2.671716,41.852016],[2.671697,41.851992],[2.671674,41.851958],[2.671629,41.851904],[2.671592,41.851863],[2.671857,41.851679],[2.671598,41.851474],[2.671585,41.851465],[2.671331,41.851649],[2.671303,41.851711],[2.671174,41.851742],[2.671039,41.85179],[2.670906,41.851838],[2.670716,41.851904],[2.670586,41.851938],[2.670526,41.851971],[2.670382,41.852047],[2.670293,41.852106],[2.670263,41.852124],[2.670172,41.852182],[2.670097,41.85223],[2.670035,41.85227],[2.669973,41.852309],[2.669953,41.852324],[2.669935,41.852342],[2.669922,41.852368],[2.669916,41.852393],[2.669915,41.852418],[2.669916,41.852424],[2.66992,41.852442],[2.669939,41.852485],[2.669968,41.852524],[2.66998,41.852535],[2.669998,41.852552],[2.670045,41.85259],[2.670067,41.85261],[2.670086,41.85263],[2.670138,41.852691],[2.67019,41.852753],[2.6702,41.852765],[2.670219,41.85278],[2.670223,41.852794],[2.670244,41.852819],[2.670273,41.852851],[2.670306,41.852882],[2.670335,41.852907],[2.670628,41.85309],[2.670795,41.853173],[2.670932,41.853225],[2.671036,41.853309],[2.671055,41.853371],[2.671071,41.853419],[2.671156,41.853579],[2.671961,41.854075],[2.67248,41.853877],[2.672538,41.853836],[2.672514,41.853802],[2.672627,41.853764],[2.672998,41.853551],[2.673126,41.85348],[2.673158,41.853413],[2.67319,41.853385],[2.673356,41.853376],[2.673446,41.853309],[2.674347,41.852851],[2.67431,41.852725]]],[[[2.670444,41.855733],[2.670863,41.855473],[2.671147,41.855701],[2.671159,41.855711],[2.671327,41.85583],[2.671545,41.855714],[2.67233,41.855355],[2.672419,41.855285],[2.672418,41.855284],[2.672291,41.855195],[2.67219,41.855139],[2.672161,41.855123],[2.671569,41.854774],[2.671141,41.854522],[2.671152,41.854517],[2.670992,41.854436],[2.670644,41.854224],[2.67059,41.854315],[2.670517,41.854422],[2.670436,41.854527],[2.670349,41.854628],[2.670256,41.854726],[2.670157,41.854819],[2.66994,41.854995],[2.669703,41.855187],[2.669321,41.855504],[2.669173,41.855623],[2.669567,41.855984],[2.669754,41.856167],[2.669893,41.856073],[2.670444,41.855733]]]]}}]}