{"type":"FeatureCollection","name":"ICGC Àrees de poblament - Setcases","features":[{"type":"Feature","id":"171925_171925 AP02 RIP 1","properties":{"area_id":"171925_171925 AP02 RIP 1","nom":"Estació d'esquí de Vallter 2000","codi_icgc":"171925 AP02 RIP 1","categoria":"Àrees de poblament","codi_municipi":"171925","municipi":"Setcases","codi_comarca":"31","comarca":"Ripollès","provincia":"Girona","font":"ICGC Àrees de poblament v3r1 202602"},"geometry":{"type":"MultiPolygon","coordinates":[[[[2.264658,42.426923],[2.264869,42.427063],[2.265047,42.4272],[2.265121,42.42727],[2.265117,42.427315],[2.265116,42.427358],[2.265129,42.427371],[2.265225,42.427409],[2.26529,42.427404],[2.265719,42.427281],[2.265767,42.42736],[2.266003,42.427282],[2.266127,42.427238],[2.266245,42.4272],[2.26623,42.427146],[2.266189,42.427087],[2.265968,42.427159],[2.265857,42.426977],[2.265409,42.427115],[2.265407,42.427114],[2.265402,42.427122],[2.265264,42.427034],[2.265329,42.426981],[2.265336,42.426976],[2.264959,42.426692],[2.264942,42.426704],[2.264925,42.426716],[2.264658,42.426923]]]]}},{"type":"Feature","id":"171925_171925 AP01 RIP 3","properties":{"area_id":"171925_171925 AP01 RIP 3","nom":"Setcases","codi_icgc":"171925 AP01 RIP 3","categoria":"Àrees de poblament","codi_municipi":"171925","municipi":"Setcases","codi_comarca":"31","comarca":"Ripollès","provincia":"Girona","font":"ICGC Àrees de poblament v3r1 202602"},"geometry":{"type":"MultiPolygon","coordinates":[[[[2.300891,42.376696],[2.300895,42.376714],[2.300862,42.376734],[2.300933,42.376821],[2.301082,42.377038],[2.301261,42.377294],[2.301356,42.377418],[2.301378,42.377418],[2.301495,42.377419],[2.30159,42.377437],[2.30169,42.377462],[2.301837,42.377499],[2.301831,42.377519],[2.301793,42.377581],[2.30176,42.377673],[2.301726,42.37789],[2.301705,42.377988],[2.301635,42.378148],[2.301613,42.37827],[2.301656,42.378831],[2.301659,42.378942],[2.301438,42.37896],[2.301437,42.379014],[2.301442,42.379096],[2.301453,42.379204],[2.301453,42.379209],[2.301465,42.379257],[2.301492,42.379299],[2.301512,42.379376],[2.301535,42.379393],[2.301542,42.379416],[2.301564,42.379445],[2.30167,42.379478],[2.301702,42.379482],[2.301716,42.379477],[2.301788,42.379456],[2.301829,42.379405],[2.301858,42.379322],[2.30197,42.379074],[2.302022,42.378958],[2.302024,42.378955],[2.302135,42.378667],[2.302169,42.378501],[2.302176,42.378326],[2.302174,42.377909],[2.302159,42.3777],[2.302166,42.377602],[2.3022,42.37743],[2.302256,42.377244],[2.302372,42.376873],[2.302452,42.376624],[2.302496,42.376453],[2.302532,42.375654],[2.302527,42.375438],[2.302491,42.375273],[2.302412,42.375125],[2.302376,42.375061],[2.30191,42.374312],[2.301756,42.37406],[2.301579,42.373785],[2.301543,42.373736],[2.301328,42.373431],[2.301267,42.373372],[2.30117,42.373308],[2.300968,42.373194],[2.300851,42.373133],[2.300766,42.373109],[2.300637,42.373103],[2.300609,42.373111],[2.300535,42.373132],[2.300496,42.373158],[2.30048,42.373178],[2.30041,42.37325],[2.300386,42.373286],[2.300373,42.373322],[2.30038,42.373389],[2.300381,42.373421],[2.300107,42.373223],[2.29976,42.373492],[2.299699,42.373348],[2.299653,42.373265],[2.299594,42.373235],[2.29954,42.373244],[2.29945,42.373222],[2.299345,42.373251],[2.299256,42.37331],[2.299333,42.373433],[2.299361,42.373483],[2.299405,42.373562],[2.299463,42.373626],[2.299481,42.373681],[2.299392,42.373767],[2.299344,42.373791],[2.299336,42.373793],[2.299329,42.37379],[2.299304,42.373774],[2.299296,42.373767],[2.299172,42.373649],[2.299091,42.373655],[2.298986,42.373714],[2.298953,42.373761],[2.298993,42.373821],[2.299025,42.373869],[2.299145,42.373893],[2.299209,42.373881],[2.29927,42.373967],[2.299314,42.374027],[2.299404,42.374097],[2.299523,42.374225],[2.299558,42.374199],[2.299562,42.374198],[2.29957,42.374197],[2.299576,42.3742],[2.299651,42.374268],[2.299689,42.37432],[2.299641,42.374346],[2.299628,42.37437],[2.299634,42.374393],[2.29965,42.374436],[2.299751,42.374544],[2.299938,42.374697],[2.299964,42.374719],[2.300069,42.37477],[2.300228,42.374847],[2.300436,42.374974],[2.30037,42.375068],[2.300343,42.3751],[2.300348,42.375115],[2.300434,42.375124],[2.300574,42.375159],[2.300681,42.375182],[2.300685,42.375183],[2.300781,42.375238],[2.300921,42.375333],[2.300924,42.375335],[2.301004,42.375441],[2.301005,42.375446],[2.301002,42.375451],[2.300998,42.375455],[2.300995,42.37546],[2.300997,42.375465],[2.301024,42.375499],[2.301025,42.375501],[2.300925,42.375499],[2.300876,42.375516],[2.300856,42.37554],[2.300855,42.375593],[2.300855,42.375594],[2.300884,42.375791],[2.301,42.375792],[2.301008,42.375904],[2.301118,42.375905],[2.301138,42.375962],[2.301164,42.37621],[2.301017,42.376227],[2.300745,42.376257],[2.300748,42.376311],[2.300881,42.376653],[2.300887,42.376679],[2.300891,42.376696]]]]}},{"type":"Feature","id":"171925_171925 AP03 RIP 2","properties":{"area_id":"171925_171925 AP03 RIP 2","nom":"la Creueta","codi_icgc":"171925 AP03 RIP 2","categoria":"Àrees de poblament","codi_municipi":"171925","municipi":"Setcases","codi_comarca":"31","comarca":"Ripollès","provincia":"Girona","font":"ICGC Àrees de poblament v3r1 202602"},"geometry":{"type":"MultiPolygon","coordinates":[[[[2.303078,42.376059],[2.303085,42.376054],[2.303086,42.376055],[2.303149,42.376033],[2.303181,42.375984],[2.303203,42.376014],[2.303218,42.376024],[2.303364,42.375965],[2.303473,42.375947],[2.303689,42.375881],[2.303754,42.375867],[2.303881,42.37584],[2.303876,42.375779],[2.30393,42.375784],[2.303975,42.375721],[2.303977,42.375678],[2.303903,42.375625],[2.303857,42.375592],[2.303759,42.375558],[2.303686,42.375525],[2.303559,42.375475],[2.303436,42.375446],[2.303334,42.37543],[2.303238,42.375426],[2.303153,42.375441],[2.303091,42.37547],[2.303046,42.375514],[2.303,42.375646],[2.302948,42.375674],[2.302931,42.375769],[2.302899,42.376035],[2.302899,42.37605],[2.303064,42.376081],[2.303078,42.376059]]]]}}]}