{"type":"FeatureCollection","name":"ICGC Àrees de poblament - Torroella de Montgrí","features":[{"type":"Feature","id":"171997_171997 AP11 BEM 3","properties":{"area_id":"171997_171997 AP11 BEM 3","nom":"Mas Pinell","codi_icgc":"171997 AP11 BEM 3","categoria":"Àrees de poblament","codi_municipi":"171997","municipi":"Torroella de Montgrí","codi_comarca":"10","comarca":"Baix Empordà","provincia":"Girona","font":"ICGC Àrees de poblament v3r1 202602"},"geometry":{"type":"MultiPolygon","coordinates":[[[[3.194515,42.010926],[3.194573,42.010706],[3.194834,42.009464],[3.194838,42.009448],[3.195044,42.008682],[3.195062,42.008604],[3.195145,42.008027],[3.195245,42.007157],[3.195198,42.007144],[3.194449,42.006934],[3.194432,42.006929],[3.194415,42.006925],[3.194342,42.006916],[3.19411,42.006888],[3.194013,42.007117],[3.193819,42.007106],[3.193807,42.007105],[3.193788,42.007145],[3.193365,42.007081],[3.193264,42.007065],[3.191784,42.007016],[3.191785,42.007031],[3.191611,42.007056],[3.191601,42.007043],[3.191598,42.007015],[3.190772,42.007012],[3.190433,42.007207],[3.189929,42.007447],[3.189746,42.007434],[3.189496,42.007611],[3.189463,42.007787],[3.189474,42.007788],[3.189473,42.007794],[3.189333,42.00778],[3.189144,42.007763],[3.188954,42.007747],[3.188948,42.007741],[3.188939,42.00773],[3.188918,42.007716],[3.188893,42.007706],[3.188881,42.007705],[3.188866,42.007786],[3.188858,42.007829],[3.188855,42.007844],[3.188719,42.008611],[3.188569,42.009456],[3.188524,42.009723],[3.188666,42.00979],[3.18927,42.009839],[3.189922,42.009845],[3.190238,42.009888],[3.190275,42.009918],[3.190278,42.00992],[3.190293,42.009921],[3.190303,42.009923],[3.190531,42.00999],[3.191165,42.010175],[3.192423,42.01054],[3.192486,42.010559],[3.193622,42.010887],[3.193646,42.010895],[3.193705,42.010912],[3.193819,42.010709],[3.194439,42.010902],[3.194515,42.010926]]]]}},{"type":"Feature","id":"171997_171997 SI03 BEM 2","properties":{"area_id":"171997_171997 SI03 BEM 2","nom":"Polígon industrial Vinya Robans","codi_icgc":"171997 SI03 BEM 2","categoria":"Sector industrial","codi_municipi":"171997","municipi":"Torroella de Montgrí","codi_comarca":"10","comarca":"Baix Empordà","provincia":"Girona","font":"ICGC Àrees de poblament v3r1 202602"},"geometry":{"type":"MultiPolygon","coordinates":[[[[3.138088,42.042005],[3.138102,42.042007],[3.138195,42.041739],[3.139323,42.041952],[3.139194,42.042456],[3.139244,42.042497],[3.13929,42.042547],[3.13934,42.042597],[3.139401,42.042653],[3.139485,42.042721],[3.139574,42.042785],[3.139668,42.042845],[3.139746,42.042889],[3.139827,42.042931],[3.139895,42.042963],[3.139964,42.042992],[3.140249,42.043074],[3.140455,42.043118],[3.140767,42.043204],[3.140979,42.043283],[3.141092,42.043303],[3.141437,42.043332],[3.141494,42.043342],[3.141643,42.043371],[3.141955,42.043457],[3.142247,42.043543],[3.142477,42.04361],[3.142831,42.043436],[3.143389,42.042718],[3.143485,42.042625],[3.143641,42.04264],[3.143657,42.042545],[3.143648,42.042473],[3.143636,42.042437],[3.143759,42.042239],[3.143749,42.042117],[3.142962,42.041782],[3.142972,42.041739],[3.14325,42.04156],[3.14276,42.041267],[3.143082,42.041053],[3.142966,42.040989],[3.142941,42.040974],[3.142502,42.040857],[3.142512,42.040814],[3.142542,42.040688],[3.142656,42.040213],[3.142612,42.040059],[3.142546,42.040038],[3.142699,42.039607],[3.141632,42.03939],[3.141806,42.038937],[3.142758,42.039084],[3.143039,42.03819],[3.141828,42.03807],[3.140932,42.038006],[3.139647,42.037935],[3.137809,42.037735],[3.136726,42.037841],[3.136654,42.037775],[3.136281,42.037822],[3.136278,42.037832],[3.136262,42.037875],[3.136247,42.037916],[3.136403,42.038237],[3.136408,42.038547],[3.136394,42.038674],[3.136598,42.039123],[3.136609,42.039295],[3.136591,42.039518],[3.136559,42.039782],[3.137518,42.039895],[3.13752,42.039934],[3.137525,42.040008],[3.137536,42.041018],[3.136517,42.040856],[3.136497,42.040862],[3.136468,42.040876],[3.136443,42.040892],[3.136422,42.040912],[3.136405,42.040934],[3.136394,42.040958],[3.136389,42.040983],[3.13639,42.041008],[3.136396,42.041032],[3.136407,42.041056],[3.136542,42.041154],[3.136602,42.041198],[3.136628,42.041214],[3.136674,42.041237],[3.136722,42.041257],[3.136773,42.041274],[3.136794,42.041279],[3.136837,42.041288],[3.13741,42.041406],[3.13715,42.041912],[3.137233,42.041925],[3.137298,42.041935],[3.137622,42.04197],[3.138088,42.042005]]]]}},{"type":"Feature","id":"171997_171997 AP03 BEM 2","properties":{"area_id":"171997_171997 AP03 BEM 2","nom":"Sant Josep","codi_icgc":"171997 AP03 BEM 2","categoria":"Àrees de poblament","codi_municipi":"171997","municipi":"Torroella de Montgrí","codi_comarca":"10","comarca":"Baix Empordà","provincia":"Girona","font":"ICGC Àrees de poblament v3r1 202602"},"geometry":{"type":"MultiPolygon","coordinates":[[[[3.104139,42.078189],[3.104148,42.078172],[3.105102,42.078095],[3.105898,42.078102],[3.106375,42.078043],[3.1065,42.077754],[3.106477,42.077551],[3.106397,42.077433],[3.106226,42.077331],[3.106163,42.077316],[3.105322,42.077342],[3.104368,42.077411],[3.104277,42.077419],[3.104282,42.077263],[3.104059,42.07729],[3.103851,42.077373],[3.103771,42.077409],[3.103756,42.077492],[3.103708,42.077647],[3.10382,42.077695],[3.104188,42.077718],[3.104109,42.078171],[3.104139,42.078189]]]]}},{"type":"Feature","id":"171997_171997 AP05 BEM 2","properties":{"area_id":"171997_171997 AP05 BEM 2","nom":"Sobrestany","codi_icgc":"171997 AP05 BEM 2","categoria":"Àrees de poblament","codi_municipi":"171997","municipi":"Torroella de Montgrí","codi_comarca":"10","comarca":"Baix Empordà","provincia":"Girona","font":"ICGC Àrees de poblament v3r1 202602"},"geometry":{"type":"MultiPolygon","coordinates":[[[[3.120077,42.079985],[3.120093,42.079804],[3.120088,42.079802],[3.120089,42.07976],[3.11991,42.079726],[3.119765,42.079698],[3.119773,42.079694],[3.119765,42.079693],[3.119856,42.079653],[3.119946,42.079614],[3.120031,42.079578],[3.120116,42.079543],[3.12019,42.079514],[3.120207,42.079508],[3.120265,42.079487],[3.120325,42.07947],[3.120386,42.079458],[3.12043,42.079451],[3.120444,42.079456],[3.120454,42.079458],[3.120496,42.079447],[3.120556,42.07944],[3.120648,42.079429],[3.120734,42.07942],[3.120738,42.079419],[3.120893,42.079401],[3.120894,42.079395],[3.120895,42.07939],[3.1209,42.079343],[3.120901,42.079338],[3.120948,42.07933],[3.121015,42.079322],[3.12104,42.07932],[3.121065,42.079318],[3.121077,42.079154],[3.121085,42.079154],[3.121088,42.079093],[3.121092,42.079012],[3.121087,42.079011],[3.121094,42.078915],[3.121093,42.078885],[3.121092,42.078855],[3.121084,42.078818],[3.121072,42.078782],[3.121062,42.078759],[3.121055,42.078748],[3.121045,42.078738],[3.12103,42.078729],[3.121005,42.078719],[3.121008,42.07869],[3.121009,42.078686],[3.121011,42.078681],[3.121016,42.078681],[3.121076,42.07868],[3.121105,42.07868],[3.121117,42.078679],[3.121128,42.078674],[3.121151,42.078662],[3.121167,42.078658],[3.121205,42.078655],[3.121243,42.078653],[3.121292,42.078652],[3.121342,42.07865],[3.121362,42.078652],[3.121382,42.078652],[3.121408,42.078327],[3.121396,42.078327],[3.121375,42.078327],[3.121356,42.078327],[3.121225,42.078327],[3.121112,42.078327],[3.121082,42.078327],[3.120861,42.078327],[3.120789,42.078327],[3.120773,42.078327],[3.12074,42.078326],[3.12081,42.078126],[3.120835,42.078057],[3.120388,42.077933],[3.120339,42.078321],[3.120271,42.078652],[3.12008,42.078652],[3.119959,42.078656],[3.119913,42.078657],[3.11988,42.078659],[3.119546,42.078669],[3.119532,42.07867],[3.119508,42.078671],[3.119497,42.078766],[3.119496,42.078771],[3.119496,42.078774],[3.11944,42.078774],[3.119039,42.078772],[3.119016,42.078761],[3.119044,42.078673],[3.119172,42.078681],[3.119189,42.07853],[3.119077,42.078517],[3.119033,42.078514],[3.118977,42.078509],[3.118822,42.078495],[3.118622,42.078493],[3.118608,42.078493],[3.118441,42.07851],[3.118429,42.078512],[3.118409,42.078517],[3.118407,42.078522],[3.118405,42.078526],[3.11836,42.078735],[3.11836,42.07874],[3.118357,42.078829],[3.118357,42.078834],[3.118357,42.078861],[3.118357,42.078866],[3.118357,42.078886],[3.118357,42.07889],[3.118356,42.07891],[3.118356,42.078915],[3.118352,42.078955],[3.118351,42.07896],[3.118343,42.079],[3.118342,42.079004],[3.11832,42.079089],[3.118318,42.079094],[3.118286,42.079214],[3.118285,42.079218],[3.118254,42.079338],[3.118253,42.079343],[3.118251,42.079353],[3.118279,42.07935],[3.11832,42.079345],[3.118347,42.079342],[3.118434,42.079331],[3.118475,42.079326],[3.118543,42.07931],[3.118673,42.079278],[3.118769,42.079254],[3.118865,42.079229],[3.118932,42.079217],[3.119001,42.079205],[3.119032,42.079197],[3.119073,42.079177],[3.119109,42.079152],[3.119141,42.079122],[3.119171,42.079091],[3.119195,42.079059],[3.11922,42.079028],[3.119285,42.078966],[3.119345,42.078908],[3.119357,42.078908],[3.119379,42.078908],[3.119392,42.078909],[3.119381,42.078938],[3.119379,42.078942],[3.119361,42.078989],[3.119359,42.078994],[3.119321,42.079083],[3.119279,42.079172],[3.119262,42.079201],[3.119227,42.07927],[3.119175,42.079373],[3.119148,42.079429],[3.119124,42.079487],[3.119105,42.079558],[3.119091,42.07963],[3.119077,42.07971],[3.119064,42.07979],[3.119062,42.079804],[3.119063,42.07982],[3.119068,42.079838],[3.119075,42.079847],[3.119091,42.079849],[3.11909,42.079853],[3.119103,42.079874],[3.11911,42.079885],[3.11914,42.079933],[3.119142,42.079936],[3.11916,42.079964],[3.119283,42.079907],[3.119383,42.079853],[3.11942,42.079835],[3.119425,42.079861],[3.119483,42.080234],[3.119489,42.080268],[3.119489,42.080273],[3.119568,42.080325],[3.1196,42.080346],[3.120052,42.080354],[3.120052,42.080349],[3.120053,42.080338],[3.120054,42.080325],[3.120077,42.079985]]]]}},{"type":"Feature","id":"171997_171997 AP13 BEM 3","properties":{"area_id":"171997_171997 AP13 BEM 3","nom":"Torre Gran","codi_icgc":"171997 AP13 BEM 3","categoria":"Àrees de poblament","codi_municipi":"171997","municipi":"Torroella de Montgrí","codi_comarca":"10","comarca":"Baix Empordà","provincia":"Girona","font":"ICGC Àrees de poblament v3r1 202602"},"geometry":{"type":"MultiPolygon","coordinates":[[[[3.172091,42.056301],[3.172075,42.056204],[3.172082,42.056101],[3.172088,42.056022],[3.172101,42.055826],[3.172139,42.055446],[3.172157,42.055259],[3.172157,42.055255],[3.172163,42.055077],[3.172164,42.055066],[3.172166,42.054997],[3.172172,42.05483],[3.172142,42.054593],[3.172168,42.05456],[3.172185,42.054538],[3.172197,42.054522],[3.172208,42.054508],[3.172222,42.054489],[3.172234,42.054474],[3.172343,42.054858],[3.172663,42.054966],[3.172947,42.054961],[3.173128,42.054947],[3.173109,42.054638],[3.173108,42.054621],[3.17311,42.054287],[3.17311,42.054286],[3.173148,42.053964],[3.173155,42.053849],[3.173143,42.05383],[3.173115,42.053787],[3.173015,42.053811],[3.172881,42.053842],[3.172768,42.053866],[3.172679,42.053885],[3.172666,42.053886],[3.172656,42.053883],[3.172648,42.05388],[3.172642,42.053875],[3.172637,42.053871],[3.172634,42.053865],[3.172631,42.053859],[3.17263,42.053854],[3.172632,42.053827],[3.172637,42.053758],[3.172632,42.053688],[3.172623,42.053609],[3.172618,42.05353],[3.172625,42.053396],[3.172635,42.053263],[3.172646,42.053164],[3.172654,42.053118],[3.172661,42.053088],[3.173149,42.053113],[3.173224,42.053117],[3.173246,42.052802],[3.173253,42.052723],[3.173257,42.05265],[3.173273,42.052405],[3.173273,42.052403],[3.173267,42.052146],[3.173266,42.05214],[3.173304,42.05214],[3.173064,42.051515],[3.173135,42.051481],[3.173049,42.051244],[3.172942,42.050946],[3.172939,42.050938],[3.172937,42.050932],[3.172856,42.050672],[3.172825,42.050623],[3.172794,42.050575],[3.172776,42.050551],[3.172745,42.050517],[3.172714,42.050482],[3.172695,42.05046],[3.172676,42.050436],[3.172667,42.050418],[3.172666,42.050389],[3.172657,42.050354],[3.172579,42.050068],[3.172515,42.049744],[3.172502,42.04954],[3.172564,42.049542],[3.172697,42.049543],[3.172783,42.049552],[3.172908,42.049572],[3.173034,42.049592],[3.173153,42.049609],[3.173272,42.04962],[3.173353,42.049621],[3.173547,42.04961],[3.173741,42.049598],[3.174096,42.049576],[3.17416,42.049571],[3.174157,42.049552],[3.174153,42.049532],[3.174224,42.049231],[3.173893,42.049171],[3.173799,42.049168],[3.173605,42.049161],[3.172895,42.049087],[3.172107,42.048976],[3.172074,42.048972],[3.171908,42.048948],[3.171817,42.049093],[3.171819,42.049193],[3.17182,42.049212],[3.171822,42.049293],[3.171822,42.049316],[3.172009,42.049406],[3.172115,42.049455],[3.172223,42.049501],[3.172273,42.049517],[3.172325,42.049527],[3.172367,42.049531],[3.172378,42.049605],[3.17239,42.049685],[3.172423,42.049862],[3.172455,42.050039],[3.172457,42.050088],[3.172455,42.050137],[3.172451,42.050163],[3.172446,42.050189],[3.172441,42.050236],[3.172436,42.050283],[3.172422,42.050356],[3.1724,42.050428],[3.172348,42.050574],[3.172301,42.050725],[3.172254,42.050874],[3.172234,42.050919],[3.172208,42.050962],[3.172146,42.05105],[3.172082,42.051134],[3.17201,42.051212],[3.171887,42.051311],[3.171754,42.051401],[3.171561,42.051518],[3.17136,42.051625],[3.171227,42.051681],[3.171087,42.051726],[3.170961,42.051748],[3.170846,42.051756],[3.170799,42.051754],[3.170901,42.051549],[3.171005,42.051341],[3.171094,42.051161],[3.171099,42.051151],[3.171203,42.050951],[3.171312,42.050743],[3.171453,42.050473],[3.171416,42.050436],[3.171186,42.050208],[3.171011,42.050034],[3.171006,42.050028],[3.170877,42.049835],[3.170842,42.049826],[3.170826,42.049822],[3.170777,42.049804],[3.170733,42.049782],[3.170693,42.049755],[3.170658,42.049724],[3.17063,42.049689],[3.17063,42.049689],[3.170609,42.049652],[3.170595,42.049614],[3.170589,42.049585],[3.170402,42.049469],[3.170164,42.049578],[3.169898,42.049699],[3.169606,42.049833],[3.169303,42.049971],[3.169281,42.049981],[3.169143,42.050247],[3.169024,42.050476],[3.168914,42.050688],[3.168799,42.05091],[3.168685,42.05113],[3.168663,42.051174],[3.168388,42.051085],[3.168271,42.05132],[3.168249,42.051315],[3.168217,42.051308],[3.168176,42.051299],[3.168142,42.051289],[3.168113,42.051281],[3.168111,42.05128],[3.168081,42.051268],[3.168066,42.051261],[3.16803,42.051233],[3.168008,42.051201],[3.167997,42.051166],[3.167995,42.051114],[3.168003,42.051062],[3.168012,42.051024],[3.168026,42.050972],[3.168043,42.050923],[3.168058,42.050866],[3.168082,42.050794],[3.16812,42.0507],[3.168192,42.050543],[3.168313,42.050326],[3.16843,42.050108],[3.16852,42.049918],[3.168608,42.049727],[3.168678,42.049573],[3.168747,42.049418],[3.168813,42.049258],[3.168875,42.049096],[3.168894,42.049035],[3.168906,42.048973],[3.168876,42.048593],[3.168826,42.04859],[3.168225,42.048521],[3.168454,42.047798],[3.167707,42.047633],[3.167546,42.047597],[3.167553,42.04763],[3.167557,42.047681],[3.167553,42.047731],[3.167546,42.047766],[3.167531,42.047793],[3.167504,42.047843],[3.166992,42.047677],[3.166609,42.048332],[3.16659,42.04833],[3.166576,42.048359],[3.166532,42.048362],[3.166532,42.048361],[3.166495,42.048358],[3.166421,42.048347],[3.166365,42.048339],[3.166237,42.048316],[3.165983,42.048273],[3.1658,42.048252],[3.165615,42.048236],[3.165398,42.048224],[3.165289,42.048225],[3.165118,42.048231],[3.165032,42.048235],[3.164996,42.048243],[3.16481,42.048272],[3.164589,42.048315],[3.164374,42.048369],[3.164268,42.048405],[3.164101,42.04847],[3.163975,42.048519],[3.163954,42.048528],[3.163934,42.048535],[3.163904,42.048548],[3.163877,42.048559],[3.163821,42.048585],[3.163745,42.048623],[3.163704,42.048646],[3.163683,42.048656],[3.163673,42.048664],[3.163656,42.048674],[3.163627,42.048693],[3.163582,42.048725],[3.163358,42.048897],[3.163271,42.048969],[3.163241,42.048995],[3.16314,42.04908],[3.163048,42.049153],[3.163028,42.049167],[3.163006,42.049188],[3.162925,42.04923],[3.162908,42.04924],[3.162857,42.049264],[3.162826,42.049278],[3.162796,42.049291],[3.162733,42.049315],[3.162698,42.049326],[3.162698,42.049326],[3.162698,42.049326],[3.162605,42.049356],[3.162511,42.049371],[3.162559,42.049403],[3.162612,42.049435],[3.162648,42.049457],[3.162736,42.049511],[3.162862,42.04958],[3.162969,42.049636],[3.162991,42.049647],[3.163051,42.049678],[3.16311,42.04971],[3.163145,42.049733],[3.163168,42.049753],[3.16319,42.049773],[3.163236,42.049812],[3.163293,42.049851],[3.163355,42.049886],[3.163474,42.04993],[3.163599,42.049965],[3.163671,42.049983],[3.163782,42.050011],[3.163965,42.050049],[3.164154,42.050079],[3.16434,42.050103],[3.164446,42.050114],[3.164551,42.050125],[3.164636,42.05015],[3.164721,42.050175],[3.164829,42.050177],[3.164879,42.050179],[3.164908,42.050179],[3.165104,42.050181],[3.165133,42.050185],[3.16537,42.050191],[3.165432,42.050195],[3.165493,42.050204],[3.165551,42.05022],[3.165608,42.050241],[3.165958,42.050428],[3.165983,42.050422],[3.165981,42.050456],[3.165988,42.05046],[3.166194,42.050074],[3.166525,42.04949],[3.166621,42.049511],[3.166923,42.049577],[3.166837,42.049772],[3.166534,42.050454],[3.166443,42.050661],[3.16643,42.05067],[3.166418,42.05068],[3.166409,42.050685],[3.16639,42.05069],[3.166371,42.050688],[3.166335,42.050679],[3.166277,42.050659],[3.166249,42.050653],[3.166222,42.050653],[3.166164,42.050663],[3.166135,42.050673],[3.166109,42.050687],[3.166085,42.050704],[3.166058,42.050731],[3.166035,42.050761],[3.166002,42.050809],[3.165969,42.050858],[3.165848,42.05113],[3.165732,42.05139],[3.165613,42.051659],[3.165494,42.051926],[3.165378,42.052187],[3.165257,42.052458],[3.165146,42.052709],[3.16497,42.053104],[3.164944,42.053162],[3.164834,42.053384],[3.164829,42.053383],[3.164802,42.053377],[3.164772,42.053369],[3.164762,42.053367],[3.164851,42.053171],[3.164808,42.053247],[3.16472,42.05346],[3.164661,42.05359],[3.164573,42.053776],[3.164528,42.053869],[3.164537,42.053872],[3.164501,42.053942],[3.164493,42.05394],[3.164483,42.053961],[3.164427,42.054068],[3.164323,42.054242],[3.164135,42.054442],[3.16414,42.054444],[3.164163,42.054455],[3.164184,42.054468],[3.164213,42.054488],[3.164239,42.054505],[3.164255,42.054512],[3.164259,42.054514],[3.164271,42.054519],[3.164289,42.054526],[3.1643,42.05453],[3.164313,42.054537],[3.164313,42.054537],[3.164295,42.054588],[3.164272,42.054616],[3.16432,42.05465],[3.16432,42.054661],[3.164322,42.05468],[3.16433,42.054703],[3.164341,42.054726],[3.164358,42.054753],[3.164379,42.054779],[3.164389,42.054788],[3.164399,42.054797],[3.164407,42.054804],[3.164421,42.054814],[3.164462,42.05484],[3.164507,42.054867],[3.164567,42.054899],[3.164582,42.054906],[3.164629,42.054927],[3.164758,42.05498],[3.164843,42.055014],[3.16493,42.055044],[3.16499,42.055061],[3.165113,42.055091],[3.165134,42.055095],[3.165155,42.0551],[3.165196,42.05511],[3.165249,42.055122],[3.165402,42.055157],[3.165667,42.055216],[3.165796,42.055245],[3.16619,42.055333],[3.166556,42.055413],[3.166922,42.055494],[3.167046,42.055522],[3.167076,42.055529],[3.167232,42.055561],[3.167337,42.055577],[3.167398,42.055582],[3.16749,42.055589],[3.167582,42.055596],[3.167603,42.055587],[3.16763,42.055575],[3.167645,42.055569],[3.16766,42.055565],[3.167681,42.055562],[3.167709,42.05556],[3.167719,42.055561],[3.167737,42.055561],[3.167747,42.055562],[3.167817,42.055568],[3.167835,42.055571],[3.167896,42.055579],[3.167966,42.05559],[3.168036,42.055601],[3.168176,42.055622],[3.168249,42.055634],[3.16832,42.055649],[3.168364,42.055663],[3.168395,42.055676],[3.168401,42.055678],[3.16839,42.055679],[3.168425,42.055684],[3.168469,42.055705],[3.168528,42.05571],[3.168597,42.05572],[3.168642,42.055729],[3.168665,42.055735],[3.168689,42.055742],[3.168848,42.055785],[3.168866,42.055789],[3.168884,42.055793],[3.168914,42.055801],[3.168944,42.055808],[3.168978,42.055817],[3.169011,42.055825],[3.169048,42.055829],[3.169066,42.055828],[3.169084,42.055824],[3.169113,42.055814],[3.16914,42.055801],[3.169148,42.055795],[3.169156,42.05579],[3.169165,42.055788],[3.169174,42.05579],[3.16918,42.055794],[3.169186,42.055798],[3.169203,42.05581],[3.169219,42.055822],[3.169215,42.055827],[3.169212,42.05584],[3.169218,42.055853],[3.16923,42.055863],[3.169246,42.055869],[3.169666,42.055981],[3.169932,42.056054],[3.170373,42.056171],[3.170382,42.056171],[3.170394,42.056181],[3.170407,42.056192],[3.170419,42.056199],[3.17044,42.056205],[3.170464,42.056207],[3.170523,42.056207],[3.170583,42.056207],[3.170637,42.056208],[3.170691,42.056213],[3.170833,42.056234],[3.170974,42.056255],[3.1711,42.056275],[3.171225,42.056297],[3.171297,42.056311],[3.171406,42.056335],[3.171516,42.056356],[3.171568,42.056363],[3.171646,42.05637],[3.171684,42.056374],[3.171721,42.056379],[3.171773,42.056387],[3.1718,42.056391],[3.171822,42.056417],[3.17184,42.05642],[3.171954,42.056438],[3.172137,42.056524],[3.172128,42.056472],[3.172121,42.056436],[3.172091,42.056301]]]]}},{"type":"Feature","id":"171997_171997 AP06 BEM 2","properties":{"area_id":"171997_171997 AP06 BEM 2","nom":"Torre Vella","codi_icgc":"171997 AP06 BEM 2","categoria":"Àrees de poblament","codi_municipi":"171997","municipi":"Torroella de Montgrí","codi_comarca":"10","comarca":"Baix Empordà","provincia":"Girona","font":"ICGC Àrees de poblament v3r1 202602"},"geometry":{"type":"MultiPolygon","coordinates":[[[[3.161527,42.060045],[3.161528,42.060028],[3.161539,42.060035],[3.16168,42.060044],[3.16182,42.060053],[3.161906,42.060058],[3.161991,42.060064],[3.162083,42.060071],[3.162174,42.060079],[3.162216,42.06008],[3.162259,42.060081],[3.162285,42.060083],[3.16231,42.060086],[3.162326,42.060088],[3.16234,42.060086],[3.162383,42.059753],[3.162419,42.059748],[3.162453,42.059742],[3.162487,42.059735],[3.162539,42.059729],[3.162592,42.059724],[3.16264,42.059718],[3.162689,42.059713],[3.162805,42.0597],[3.162843,42.059696],[3.162905,42.059693],[3.162919,42.059693],[3.162927,42.059692],[3.162928,42.059669],[3.162929,42.059646],[3.162935,42.059583],[3.162943,42.059519],[3.162953,42.059461],[3.162979,42.059216],[3.162969,42.059208],[3.162959,42.059206],[3.16296,42.059183],[3.162961,42.05916],[3.162962,42.05913],[3.162965,42.059071],[3.162968,42.059041],[3.162968,42.059013],[3.162968,42.058985],[3.162968,42.058963],[3.162968,42.058941],[3.162965,42.05893],[3.162955,42.058921],[3.16293,42.058914],[3.162904,42.058912],[3.162878,42.05891],[3.162852,42.05891],[3.162813,42.05891],[3.162775,42.058916],[3.162745,42.058925],[3.162716,42.058935],[3.162687,42.058945],[3.162659,42.058955],[3.162627,42.058963],[3.162595,42.058969],[3.162564,42.058968],[3.16255,42.058969],[3.162544,42.058975],[3.162532,42.058952],[3.162506,42.058894],[3.16248,42.058838],[3.162446,42.05875],[3.162413,42.058663],[3.162375,42.058566],[3.162332,42.058469],[3.162279,42.058381],[3.162224,42.058296],[3.162163,42.058183],[3.162105,42.058087],[3.162095,42.05807],[3.162052,42.058005],[3.162001,42.05792],[3.161976,42.057883],[3.161966,42.057869],[3.161958,42.057856],[3.162137,42.057767],[3.162164,42.057712],[3.162122,42.057625],[3.161979,42.057467],[3.161823,42.057295],[3.161715,42.057233],[3.161582,42.057101],[3.161414,42.056934],[3.1614,42.056909],[3.161275,42.056686],[3.161245,42.056538],[3.161265,42.056526],[3.161251,42.056401],[3.161375,42.056354],[3.161381,42.056339],[3.161337,42.056126],[3.161337,42.05581],[3.161341,42.055766],[3.161342,42.055723],[3.161341,42.055687],[3.16134,42.055652],[3.161346,42.055583],[3.161368,42.055578],[3.161375,42.055577],[3.161385,42.055576],[3.161385,42.055574],[3.1614,42.055569],[3.161422,42.055558],[3.161448,42.055545],[3.16147,42.055529],[3.161483,42.055513],[3.161501,42.055479],[3.161515,42.055439],[3.16153,42.0554],[3.161551,42.055323],[3.161571,42.055247],[3.161588,42.055186],[3.161604,42.055126],[3.161622,42.055072],[3.161645,42.055019],[3.161665,42.054987],[3.161689,42.054956],[3.161719,42.054929],[3.161755,42.054908],[3.161791,42.054895],[3.161829,42.054884],[3.161892,42.05487],[3.161922,42.054863],[3.161956,42.054857],[3.162005,42.054847],[3.162025,42.054844],[3.162108,42.054823],[3.162332,42.054912],[3.162345,42.054914],[3.162434,42.05492],[3.162477,42.054825],[3.162359,42.054798],[3.16224,42.054719],[3.162257,42.054688],[3.162271,42.054657],[3.162276,42.054645],[3.162318,42.054531],[3.162354,42.054431],[3.162324,42.054259],[3.162316,42.054265],[3.16239,42.054017],[3.162129,42.053934],[3.161965,42.054221],[3.161771,42.054567],[3.161725,42.054665],[3.161261,42.054436],[3.16142,42.05423],[3.160841,42.054054],[3.160882,42.053969],[3.160892,42.053948],[3.160919,42.053895],[3.161024,42.053604],[3.161029,42.053578],[3.160989,42.053572],[3.160835,42.053549],[3.16082,42.053547],[3.160679,42.053528],[3.160557,42.053512],[3.160537,42.053509],[3.160357,42.053478],[3.160347,42.053475],[3.160128,42.053416],[3.160002,42.053374],[3.159922,42.053343],[3.159812,42.053298],[3.159702,42.053252],[3.159678,42.053245],[3.159652,42.053239],[3.159623,42.053234],[3.159618,42.053232],[3.159602,42.053223],[3.159588,42.053215],[3.15958,42.053211],[3.159526,42.05318],[3.15951,42.053176],[3.159423,42.053133],[3.159357,42.053098],[3.159291,42.053064],[3.159218,42.053029],[3.159141,42.052998],[3.159063,42.052974],[3.158983,42.052955],[3.158928,42.052944],[3.158869,42.052935],[3.158805,42.052931],[3.158779,42.052931],[3.158767,42.052932],[3.158751,42.052936],[3.158745,42.052941],[3.158741,42.052952],[3.15874,42.052955],[3.158732,42.052977],[3.158727,42.052991],[3.158709,42.052977],[3.158695,42.052971],[3.15868,42.052967],[3.158595,42.052948],[3.158511,42.05293],[3.158359,42.052897],[3.158206,42.052864],[3.158201,42.052864],[3.158195,42.052869],[3.158172,42.052931],[3.158153,42.052994],[3.158132,42.053076],[3.15812,42.053118],[3.158116,42.053133],[3.15808,42.053272],[3.158079,42.053281],[3.158071,42.053291],[3.158047,42.053303],[3.158032,42.053312],[3.158029,42.053323],[3.158013,42.053379],[3.158004,42.053408],[3.157996,42.053429],[3.157951,42.053538],[3.157934,42.053592],[3.157925,42.053646],[3.157924,42.053715],[3.157924,42.053785],[3.157924,42.053791],[3.157919,42.053837],[3.157915,42.053889],[3.157915,42.053925],[3.157915,42.053961],[3.157915,42.053994],[3.157914,42.054026],[3.157909,42.05405],[3.157904,42.054077],[3.15789,42.054129],[3.157884,42.054166],[3.157877,42.054204],[3.15787,42.054231],[3.157867,42.054246],[3.157864,42.054258],[3.157856,42.054291],[3.157849,42.054325],[3.157842,42.054357],[3.157833,42.054389],[3.157823,42.054414],[3.157808,42.054477],[3.157788,42.054559],[3.157776,42.054646],[3.157764,42.054689],[3.157763,42.054696],[3.157758,42.054727],[3.157755,42.054765],[3.157753,42.054813],[3.157753,42.054834],[3.157757,42.054856],[3.157771,42.054886],[3.157803,42.054927],[3.157842,42.054966],[3.157871,42.054993],[3.157902,42.055019],[3.157935,42.055043],[3.157971,42.055065],[3.158026,42.055092],[3.158082,42.055116],[3.158126,42.055137],[3.158146,42.055144],[3.158161,42.055143],[3.158161,42.055138],[3.158196,42.055163],[3.15823,42.055184],[3.158272,42.055206],[3.158329,42.055234],[3.158389,42.055259],[3.158478,42.05529],[3.158568,42.055319],[3.158638,42.055339],[3.158711,42.055353],[3.158765,42.055359],[3.158806,42.055364],[3.158821,42.055368],[3.158832,42.055374],[3.158843,42.055381],[3.158855,42.05539],[3.158863,42.055398],[3.15887,42.055409],[3.158877,42.055421],[3.15888,42.05543],[3.158881,42.055453],[3.15888,42.055525],[3.158881,42.055599],[3.158884,42.055676],[3.158891,42.055753],[3.15891,42.055841],[3.15894,42.055927],[3.158975,42.05602],[3.158996,42.056058],[3.159034,42.056138],[3.158558,42.056258],[3.158507,42.05657],[3.158454,42.056602],[3.158388,42.056874],[3.158357,42.057001],[3.158207,42.056983],[3.157849,42.056941],[3.157706,42.057209],[3.157657,42.057295],[3.157531,42.057512],[3.157524,42.057528],[3.157512,42.057556],[3.157357,42.057823],[3.157181,42.058123],[3.157161,42.058165],[3.157077,42.058297],[3.157032,42.058366],[3.156713,42.058312],[3.156609,42.05848],[3.156517,42.05862],[3.156503,42.058629],[3.156271,42.05878],[3.156189,42.058833],[3.156126,42.058874],[3.156183,42.058891],[3.156354,42.058941],[3.15645,42.058973],[3.156761,42.059063],[3.157121,42.059142],[3.157129,42.059144],[3.157324,42.059205],[3.15746,42.059248],[3.157519,42.059279],[3.157578,42.059309],[3.157608,42.059327],[3.157648,42.059358],[3.157682,42.059395],[3.157732,42.059465],[3.157773,42.059537],[3.1578,42.059593],[3.157826,42.059648],[3.157838,42.059673],[3.15785,42.059697],[3.157855,42.059702],[3.15786,42.059709],[3.157883,42.059723],[3.15791,42.059734],[3.157995,42.05976],[3.158083,42.059779],[3.158159,42.059792],[3.158235,42.059806],[3.158221,42.059841],[3.158319,42.05987],[3.158504,42.059899],[3.158959,42.05997],[3.159022,42.059977],[3.159084,42.059984],[3.159174,42.059989],[3.1592,42.05999],[3.159263,42.059992],[3.159376,42.059998],[3.159488,42.060005],[3.159561,42.060011],[3.159573,42.060011],[3.159657,42.060018],[3.159785,42.060028],[3.159848,42.060032],[3.159911,42.060033],[3.159935,42.060033],[3.15996,42.060033],[3.159965,42.060005],[3.159971,42.059967],[3.160004,42.059969],[3.160031,42.059972],[3.160067,42.059975],[3.160102,42.059979],[3.160153,42.059989],[3.160204,42.060002],[3.160247,42.06001],[3.160291,42.060016],[3.160352,42.060022],[3.160413,42.060028],[3.160458,42.060036],[3.160503,42.060046],[3.160536,42.060053],[3.160569,42.060061],[3.160596,42.060068],[3.160625,42.060074],[3.16066,42.060077],[3.160695,42.060079],[3.160722,42.060081],[3.160749,42.060082],[3.160774,42.060085],[3.160798,42.060088],[3.160851,42.060101],[3.160873,42.060107],[3.160905,42.060114],[3.160978,42.060124],[3.161051,42.060127],[3.161116,42.060127],[3.161181,42.060127],[3.161264,42.06013],[3.161347,42.060134],[3.161389,42.060135],[3.161433,42.060134],[3.161472,42.060126],[3.161508,42.060107],[3.161521,42.060093],[3.161527,42.060078],[3.161527,42.060064],[3.161527,42.060061],[3.161527,42.060051],[3.161527,42.060045]]]]}},{"type":"Feature","id":"171997_171997 AP01 BEM 3","properties":{"area_id":"171997_171997 AP01 BEM 3","nom":"Torroella de Montgrí","codi_icgc":"171997 AP01 BEM 3","categoria":"Àrees de poblament","codi_municipi":"171997","municipi":"Torroella de Montgrí","codi_comarca":"10","comarca":"Baix Empordà","provincia":"Girona","font":"ICGC Àrees de poblament v3r1 202602"},"geometry":{"type":"MultiPolygon","coordinates":[[[[3.136306,42.041839],[3.136315,42.041516],[3.136282,42.041048],[3.136217,42.040935],[3.1363,42.04076],[3.13628,42.039988],[3.136218,42.039742],[3.136218,42.039341],[3.136202,42.038838],[3.136128,42.038844],[3.135268,42.038961],[3.135236,42.038954],[3.135217,42.038891],[3.135071,42.038266],[3.135042,42.038123],[3.134944,42.03801],[3.134928,42.038019],[3.134807,42.038086],[3.134687,42.038154],[3.134494,42.038249],[3.134301,42.038343],[3.134188,42.038395],[3.134012,42.038466],[3.133834,42.038535],[3.133623,42.038613],[3.133407,42.038684],[3.133376,42.038692],[3.133326,42.0387],[3.133276,42.038705],[3.133171,42.038708],[3.133119,42.038708],[3.133068,42.038704],[3.132906,42.038686],[3.132709,42.038664],[3.13235,42.038623],[3.131857,42.038567],[3.131613,42.038539],[3.131551,42.038533],[3.131502,42.038523],[3.131472,42.038512],[3.131465,42.03851],[3.131457,42.038504],[3.131414,42.038438],[3.131408,42.038312],[3.131408,42.038196],[3.131398,42.038107],[3.131288,42.038109],[3.131287,42.037992],[3.131287,42.037986],[3.131287,42.037982],[3.131189,42.037983],[3.130745,42.037987],[3.130776,42.037746],[3.130787,42.037741],[3.130787,42.037738],[3.130761,42.037739],[3.130757,42.037738],[3.130539,42.037741],[3.130451,42.037742],[3.130297,42.037743],[3.130304,42.03754],[3.130348,42.037481],[3.130335,42.037482],[3.129801,42.037481],[3.129794,42.037737],[3.129847,42.037783],[3.129742,42.037856],[3.129721,42.037869],[3.12959,42.037949],[3.129541,42.037981],[3.129506,42.038008],[3.129461,42.038051],[3.129442,42.038075],[3.129425,42.038099],[3.129404,42.038132],[3.129383,42.038166],[3.128533,42.0381],[3.128574,42.037893],[3.128647,42.036984],[3.127816,42.036946],[3.127852,42.036375],[3.127853,42.036356],[3.127746,42.036372],[3.127422,42.036543],[3.12739,42.03654],[3.12733,42.03652],[3.127292,42.036518],[3.127262,42.036478],[3.127235,42.036444],[3.126669,42.036788],[3.126687,42.036816],[3.12695,42.037206],[3.126202,42.037336],[3.126259,42.037635],[3.126284,42.038131],[3.126284,42.038137],[3.125928,42.038174],[3.12588,42.038188],[3.125868,42.03818],[3.125859,42.038175],[3.125851,42.038169],[3.125792,42.038132],[3.125702,42.038074],[3.125468,42.038096],[3.125514,42.038249],[3.125515,42.038255],[3.125362,42.038271],[3.125027,42.038305],[3.124959,42.038306],[3.124912,42.03831],[3.124723,42.038319],[3.124634,42.038352],[3.124619,42.038358],[3.124617,42.038361],[3.124706,42.038497],[3.124658,42.038532],[3.124562,42.038622],[3.124428,42.03869],[3.12427,42.038729],[3.124073,42.038747],[3.123987,42.038744],[3.123901,42.038719],[3.123635,42.038313],[3.123272,42.03844],[3.123248,42.038448],[3.123607,42.038953],[3.122437,42.039236],[3.122049,42.03934],[3.121709,42.039755],[3.122309,42.040055],[3.12278,42.040289],[3.122728,42.04031],[3.122722,42.040312],[3.122545,42.040391],[3.122548,42.040392],[3.122864,42.040675],[3.122882,42.04069],[3.122919,42.040723],[3.122975,42.040774],[3.123136,42.040851],[3.123066,42.040891],[3.122833,42.041051],[3.122765,42.041086],[3.122728,42.041107],[3.122589,42.041202],[3.122557,42.04122],[3.122296,42.041371],[3.122236,42.041396],[3.122089,42.041388],[3.122003,42.041406],[3.121211,42.04171],[3.120908,42.041826],[3.120664,42.04192],[3.120353,42.04203],[3.119995,42.042151],[3.119496,42.042322],[3.119251,42.042424],[3.119178,42.042387],[3.119109,42.042296],[3.118977,42.042331],[3.118795,42.042164],[3.11866,42.042018],[3.118497,42.042111],[3.118489,42.042132],[3.118567,42.042233],[3.118826,42.04254],[3.11887,42.042612],[3.118605,42.04275],[3.118574,42.04276],[3.118674,42.04288],[3.118832,42.042972],[3.119131,42.043423],[3.119201,42.043508],[3.119585,42.044017],[3.119901,42.044444],[3.119937,42.044443],[3.120372,42.044286],[3.120322,42.044209],[3.120706,42.044083],[3.121053,42.04396],[3.121649,42.043746],[3.121746,42.0437],[3.122548,42.043419],[3.122702,42.043404],[3.122813,42.043371],[3.123092,42.043267],[3.12333,42.043179],[3.123336,42.043227],[3.123311,42.043378],[3.123284,42.04349],[3.123272,42.043489],[3.123238,42.043672],[3.123221,42.043676],[3.123221,42.043687],[3.123185,42.043862],[3.123062,42.044029],[3.122986,42.044211],[3.122866,42.044405],[3.122751,42.044515],[3.122626,42.04462],[3.122599,42.044595],[3.122311,42.044366],[3.122275,42.044336],[3.120791,42.045059],[3.120897,42.045293],[3.120929,42.045378],[3.120985,42.04539],[3.121006,42.045398],[3.121032,42.045405],[3.121047,42.045405],[3.12146,42.045202],[3.121543,42.045168],[3.121565,42.04519],[3.121834,42.045497],[3.121869,42.045487],[3.122297,42.045291],[3.122211,42.045155],[3.122172,42.045017],[3.122121,42.044922],[3.122121,42.044877],[3.122172,42.044848],[3.122421,42.04475],[3.122449,42.044779],[3.122487,42.044823],[3.122536,42.044907],[3.122561,42.044949],[3.122565,42.045027],[3.122569,42.045033],[3.122582,42.045055],[3.122666,42.045197],[3.122788,42.045432],[3.122812,42.045475],[3.122933,42.045686],[3.123065,42.04593],[3.123153,42.046102],[3.123208,42.046197],[3.123223,42.046226],[3.123226,42.04623],[3.123229,42.04624],[3.123294,42.046264],[3.123302,42.046259],[3.123312,42.046255],[3.123361,42.046243],[3.123514,42.046211],[3.12352,42.04624],[3.123519,42.046254],[3.123506,42.046416],[3.123472,42.046628],[3.123658,42.046598],[3.123726,42.046587],[3.123747,42.046583],[3.12378,42.046677],[3.1239,42.046659],[3.123932,42.046654],[3.123935,42.046646],[3.12398,42.04663],[3.124169,42.046584],[3.124202,42.046573],[3.124214,42.046599],[3.124217,42.046607],[3.124227,42.046628],[3.124251,42.046683],[3.124258,42.04669],[3.124271,42.046694],[3.124301,42.046694],[3.124353,42.046688],[3.124404,42.046681],[3.124725,42.04662],[3.125046,42.046559],[3.12526,42.046518],[3.125359,42.046499],[3.125459,42.046479],[3.125492,42.046468],[3.125523,42.046455],[3.125546,42.046449],[3.125604,42.046438],[3.125628,42.046434],[3.125663,42.046428],[3.125716,42.04642],[3.125733,42.046417],[3.125747,42.046415],[3.125888,42.046389],[3.125972,42.046373],[3.126175,42.046335],[3.126209,42.046329],[3.12648,42.046278],[3.126591,42.046258],[3.126973,42.046187],[3.127028,42.046177],[3.127289,42.04613],[3.127941,42.046005],[3.128193,42.045957],[3.128581,42.045891],[3.128822,42.045851],[3.128842,42.045867],[3.128844,42.045869],[3.1289,42.045912],[3.128903,42.045914],[3.129315,42.046204],[3.129451,42.046294],[3.129779,42.046237],[3.13033,42.046144],[3.130981,42.046068],[3.130985,42.046101],[3.131764,42.046005],[3.131828,42.046008],[3.131824,42.045847],[3.131784,42.045719],[3.131727,42.04551],[3.131693,42.045371],[3.131834,42.045341],[3.131859,42.045338],[3.131867,42.045337],[3.132247,42.04525],[3.132249,42.045243],[3.132278,42.045159],[3.132282,42.045145],[3.132279,42.045125],[3.132247,42.044988],[3.132253,42.044953],[3.132269,42.044859],[3.132261,42.044736],[3.13231,42.044658],[3.132354,42.044652],[3.132364,42.04462],[3.132382,42.044491],[3.132362,42.04443],[3.132346,42.044377],[3.13241,42.044147],[3.132426,42.044145],[3.132467,42.04414],[3.132506,42.044133],[3.132531,42.044128],[3.132656,42.044104],[3.132707,42.044097],[3.132878,42.044072],[3.132917,42.044066],[3.13305,42.044046],[3.133125,42.044032],[3.133164,42.044022],[3.133203,42.044007],[3.133278,42.043965],[3.133347,42.043921],[3.133438,42.04386],[3.133528,42.043799],[3.133563,42.043777],[3.133619,42.043747],[3.133678,42.043721],[3.13371,42.043711],[3.133736,42.043804],[3.133462,42.043982],[3.13321,42.044176],[3.133023,42.044337],[3.132919,42.044436],[3.132799,42.044556],[3.132735,42.044646],[3.132697,42.044743],[3.132687,42.044813],[3.132707,42.044872],[3.13273,42.044905],[3.132766,42.04496],[3.132823,42.045008],[3.132879,42.045031],[3.132938,42.045046],[3.133035,42.045046],[3.133125,42.045049],[3.133227,42.045063],[3.133286,42.045059],[3.133388,42.045078],[3.133547,42.045108],[3.133657,42.045133],[3.134304,42.045237],[3.134378,42.04525],[3.134582,42.045312],[3.134729,42.045361],[3.134806,42.045266],[3.134966,42.045313],[3.135065,42.045282],[3.135618,42.045396],[3.135736,42.045394],[3.135877,42.045377],[3.136155,42.045429],[3.136404,42.045426],[3.137455,42.045565],[3.137582,42.045011],[3.137478,42.044987],[3.136728,42.044873],[3.136873,42.044315],[3.136469,42.044254],[3.136509,42.044107],[3.13655,42.043945],[3.136534,42.043788],[3.136499,42.043632],[3.136431,42.043234],[3.136355,42.042746],[3.136346,42.042691],[3.136342,42.042661],[3.136331,42.042471],[3.136327,42.042102],[3.136328,42.042049],[3.136316,42.041898],[3.136306,42.041839]]]]}},{"type":"Feature","id":"171997_171997 SI02 BEM 2","properties":{"area_id":"171997_171997 SI02 BEM 2","nom":"Zona industrial Ctra. De Palafrugell","codi_icgc":"171997 SI02 BEM 2","categoria":"Sector industrial","codi_municipi":"171997","municipi":"Torroella de Montgrí","codi_comarca":"10","comarca":"Baix Empordà","provincia":"Girona","font":"ICGC Àrees de poblament v3r1 202602"},"geometry":{"type":"MultiPolygon","coordinates":[[[[3.121788,42.043852],[3.119938,42.044528],[3.119946,42.044543],[3.120255,42.045102],[3.120276,42.045132],[3.120281,42.045139],[3.120482,42.045066],[3.120813,42.044959],[3.121292,42.044741],[3.121523,42.044683],[3.121633,42.04463],[3.121824,42.044546],[3.121921,42.044494],[3.12215,42.04438],[3.122384,42.044255],[3.122437,42.044303],[3.12247,42.044332],[3.122496,42.044355],[3.122938,42.044122],[3.123061,42.043932],[3.123124,42.043735],[3.123188,42.04352],[3.12321,42.043446],[3.123114,42.043392],[3.121788,42.043852]]]]}},{"type":"Feature","id":"171997_171997 SI01 BEM 2","properties":{"area_id":"171997_171997 SI01 BEM 2","nom":"Zona industrial carretera de Palafrugell","codi_icgc":"171997 SI01 BEM 2","categoria":"Sector industrial","codi_municipi":"171997","municipi":"Torroella de Montgrí","codi_comarca":"10","comarca":"Baix Empordà","provincia":"Girona","font":"ICGC Àrees de poblament v3r1 202602"},"geometry":{"type":"MultiPolygon","coordinates":[[[[3.129032,42.035337],[3.128989,42.034642],[3.128786,42.034441],[3.128072,42.034492],[3.12745,42.034864],[3.12718,42.035339],[3.127124,42.035422],[3.127028,42.035589],[3.126972,42.0358],[3.126994,42.036038],[3.127183,42.036256],[3.127216,42.036286],[3.127358,42.036473],[3.127433,42.036464],[3.127585,42.036385],[3.127684,42.036335],[3.127724,42.03631],[3.127763,42.03632],[3.127788,42.036284],[3.127855,42.036305],[3.128228,42.036284],[3.128228,42.03626],[3.129106,42.036225],[3.129125,42.036106],[3.129096,42.036023],[3.12908,42.035896],[3.129059,42.035627],[3.129032,42.035337]]]]}},{"type":"Feature","id":"171997_171997 AP02 BEM 2","properties":{"area_id":"171997_171997 AP02 BEM 2","nom":"el Mas Marquès","codi_icgc":"171997 AP02 BEM 2","categoria":"Àrees de poblament","codi_municipi":"171997","municipi":"Torroella de Montgrí","codi_comarca":"10","comarca":"Baix Empordà","provincia":"Girona","font":"ICGC Àrees de poblament v3r1 202602"},"geometry":{"type":"MultiPolygon","coordinates":[[[[3.176671,42.048094],[3.176455,42.048147],[3.1763,42.048189],[3.175952,42.048278],[3.175657,42.048356],[3.175196,42.048474],[3.175152,42.048473],[3.175062,42.048438],[3.17493,42.048232],[3.174724,42.047859],[3.174675,42.047877],[3.174385,42.047621],[3.174332,42.047559],[3.174216,42.047423],[3.174198,42.046993],[3.174178,42.04699],[3.173459,42.046992],[3.17347,42.047369],[3.174141,42.047485],[3.174142,42.047517],[3.17415,42.047558],[3.174179,42.047631],[3.1742,42.047761],[3.174237,42.047851],[3.174308,42.048002],[3.174383,42.048146],[3.174506,42.04839],[3.174574,42.048545],[3.1746,42.048635],[3.174632,42.048683],[3.174684,42.048719],[3.174684,42.048721],[3.174723,42.048731],[3.174745,42.048759],[3.17476,42.048825],[3.174751,42.048912],[3.174743,42.048959],[3.174747,42.049008],[3.174768,42.049119],[3.174782,42.049154],[3.174866,42.049372],[3.174883,42.049417],[3.17491,42.049486],[3.175492,42.04942],[3.176213,42.04952],[3.177951,42.049763],[3.178381,42.049823],[3.178567,42.049849],[3.178574,42.04985],[3.178589,42.049852],[3.178599,42.049787],[3.178698,42.049535],[3.178019,42.049381],[3.178194,42.048861],[3.178193,42.048861],[3.178229,42.048758],[3.178253,42.048687],[3.178291,42.048584],[3.178299,42.048557],[3.176984,42.048314],[3.17709,42.04798],[3.176671,42.048094]]]]}},{"type":"Feature","id":"171997_171997 AP12 BEM 3","properties":{"area_id":"171997_171997 AP12 BEM 3","nom":"els Griells","codi_icgc":"171997 AP12 BEM 3","categoria":"Àrees de poblament","codi_municipi":"171997","municipi":"Torroella de Montgrí","codi_comarca":"10","comarca":"Baix Empordà","provincia":"Girona","font":"ICGC Àrees de poblament v3r1 202602"},"geometry":{"type":"MultiPolygon","coordinates":[[[[3.192746,42.040668],[3.192314,42.040749],[3.192325,42.04078],[3.192321,42.040781],[3.192617,42.041634],[3.192636,42.041686],[3.192638,42.041691],[3.192758,42.041921],[3.193042,42.042068],[3.193135,42.042287],[3.193161,42.042282],[3.193328,42.042763],[3.193437,42.043042],[3.193454,42.043125],[3.193469,42.04317],[3.193708,42.043858],[3.19366,42.043867],[3.193335,42.043932],[3.193514,42.044434],[3.193561,42.044685],[3.193567,42.044719],[3.193611,42.044705],[3.193821,42.04462],[3.194147,42.044497],[3.194469,42.044385],[3.194791,42.044274],[3.194961,42.044214],[3.195129,42.044153],[3.195237,42.044123],[3.19524,42.044121],[3.195284,42.044117],[3.195598,42.044012],[3.195939,42.043817],[3.196146,42.043633],[3.196195,42.043576],[3.196211,42.043552],[3.196322,42.043348],[3.19635,42.043272],[3.196387,42.043127],[3.196394,42.043088],[3.196408,42.042926],[3.196394,42.042766],[3.196372,42.042606],[3.196347,42.042456],[3.196322,42.042307],[3.196296,42.042145],[3.196212,42.041691],[3.196115,42.041165],[3.195745,42.040014],[3.195709,42.040023],[3.195683,42.040029],[3.195283,42.040117],[3.195019,42.040175],[3.194879,42.040212],[3.194426,42.040331],[3.194398,42.040326],[3.194392,42.040328],[3.194385,42.040329],[3.194374,42.040327],[3.193909,42.040436],[3.193375,42.04055],[3.192842,42.040642],[3.192746,42.040668]]]]}},{"type":"Feature","id":"171997_171997 AP07 BEM 3","properties":{"area_id":"171997_171997 AP07 BEM 3","nom":"l'Estartit","codi_icgc":"171997 AP07 BEM 3","categoria":"Àrees de poblament","codi_municipi":"171997","municipi":"Torroella de Montgrí","codi_comarca":"10","comarca":"Baix Empordà","provincia":"Girona","font":"ICGC Àrees de poblament v3r1 202602"},"geometry":{"type":"MultiPolygon","coordinates":[[[[3.205512,42.054455],[3.204425,42.054715],[3.204188,42.054756],[3.204147,42.05476],[3.204053,42.05477],[3.204013,42.054766],[3.203929,42.054755],[3.203736,42.054729],[3.203457,42.054673],[3.203164,42.054603],[3.20292,42.054547],[3.202275,42.054298],[3.201826,42.054127],[3.201141,42.05386],[3.200476,42.053608],[3.200115,42.05347],[3.199935,42.053389],[3.199982,42.05334],[3.200048,42.053287],[3.200107,42.053208],[3.200159,42.05313],[3.200131,42.053077],[3.200104,42.053054],[3.200102,42.053052],[3.200083,42.053036],[3.199995,42.052991],[3.199919,42.052943],[3.199844,42.052873],[3.199736,42.052771],[3.199542,42.05257],[3.199251,42.05224],[3.198991,42.051908],[3.198806,42.051665],[3.198529,42.051277],[3.198478,42.051227],[3.198449,42.051204],[3.198393,42.051173],[3.19831,42.051147],[3.19825,42.051124],[3.198203,42.051093],[3.198119,42.051012],[3.19799,42.050871],[3.197917,42.050778],[3.197825,42.050638],[3.19765,42.050322],[3.197551,42.050145],[3.197484,42.050031],[3.197401,42.049896],[3.197297,42.049738],[3.197191,42.049522],[3.1971,42.049546],[3.197027,42.049425],[3.196994,42.04937],[3.196953,42.049301],[3.196407,42.049369],[3.196399,42.04937],[3.196406,42.049364],[3.196394,42.04931],[3.196157,42.048272],[3.196149,42.048221],[3.19615,42.048169],[3.196158,42.048118],[3.196174,42.048068],[3.196197,42.048019],[3.196228,42.047973],[3.196265,42.047929],[3.196308,42.047889],[3.196314,42.047885],[3.19606,42.047654],[3.196006,42.047613],[3.195939,42.047563],[3.19586,42.047603],[3.195713,42.047696],[3.195566,42.047696],[3.195538,42.047722],[3.195512,42.047746],[3.195472,42.047797],[3.195447,42.047839],[3.195439,42.047852],[3.195438,42.047852],[3.19541,42.047954],[3.195407,42.048018],[3.195401,42.048126],[3.19539,42.048215],[3.195378,42.048249],[3.195364,42.048251],[3.195365,42.048267],[3.193465,42.048342],[3.193264,42.048345],[3.193195,42.048348],[3.190176,42.048449],[3.18924,42.048475],[3.189182,42.048478],[3.189083,42.048483],[3.188316,42.048521],[3.188099,42.048531],[3.188043,42.048533],[3.187919,42.048537],[3.18787,42.048539],[3.187858,42.0485],[3.187836,42.04843],[3.187759,42.048181],[3.187658,42.047851],[3.1877,42.048013],[3.187668,42.047946],[3.187639,42.04788],[3.187628,42.047853],[3.187627,42.047848],[3.187617,42.047831],[3.187606,42.047817],[3.18759,42.047801],[3.187549,42.047768],[3.187498,42.047735],[3.187323,42.047678],[3.18727,42.047665],[3.187112,42.047622],[3.186997,42.047588],[3.186861,42.047551],[3.186837,42.047543],[3.186783,42.047527],[3.18654,42.047454],[3.186488,42.047439],[3.186453,42.047485],[3.186443,42.047498],[3.186438,42.047523],[3.186437,42.047526],[3.186423,42.047587],[3.186411,42.047612],[3.186109,42.048377],[3.186024,42.048594],[3.185908,42.048876],[3.185896,42.048905],[3.185812,42.04911],[3.18581,42.049115],[3.18579,42.049164],[3.185747,42.04927],[3.185743,42.049274],[3.185655,42.04937],[3.185637,42.049417],[3.18559,42.049553],[3.185268,42.050471],[3.18523,42.050576],[3.185222,42.050597],[3.185204,42.050643],[3.185121,42.050701],[3.184696,42.05061],[3.183311,42.050356],[3.183283,42.050472],[3.183267,42.050542],[3.183233,42.050636],[3.183156,42.050844],[3.183133,42.050918],[3.183109,42.050973],[3.183103,42.050984],[3.183087,42.051],[3.183071,42.051017],[3.183058,42.051026],[3.183047,42.051033],[3.18304,42.051036],[3.183143,42.051059],[3.183199,42.051065],[3.183455,42.051059],[3.183752,42.051056],[3.18389,42.051056],[3.184171,42.051096],[3.184792,42.051214],[3.18499,42.051249],[3.185173,42.05127],[3.185323,42.051275],[3.185492,42.051265],[3.185679,42.051255],[3.185753,42.05125],[3.185846,42.051265],[3.185942,42.051298],[3.186051,42.051357],[3.186192,42.051443],[3.186601,42.051518],[3.186611,42.051506],[3.186822,42.051542],[3.187191,42.051606],[3.187197,42.051627],[3.187345,42.051663],[3.187332,42.051692],[3.187511,42.051729],[3.187616,42.051732],[3.187722,42.051724],[3.187879,42.051695],[3.188022,42.051667],[3.188329,42.051642],[3.188444,42.051642],[3.188553,42.051663],[3.188601,42.05168],[3.189091,42.051796],[3.189402,42.051879],[3.189825,42.051983],[3.190005,42.051995],[3.190234,42.052005],[3.190465,42.05201],[3.190506,42.052011],[3.190777,42.052017],[3.191074,42.052026],[3.191294,42.052031],[3.191342,42.052032],[3.191375,42.052033],[3.191402,42.052064],[3.191435,42.052092],[3.191474,42.052116],[3.191517,42.052135],[3.191564,42.052149],[3.191613,42.052157],[3.191663,42.05216],[3.191713,42.052157],[3.191762,42.052148],[3.191809,42.052134],[3.191846,42.052118],[3.19188,42.052101],[3.191918,42.05209],[3.192143,42.052123],[3.192277,42.052142],[3.192187,42.052412],[3.192362,42.052446],[3.1926,42.052486],[3.192701,42.052224],[3.19273,42.052207],[3.192817,42.05213],[3.192973,42.052159],[3.193169,42.05223],[3.193317,42.052281],[3.193514,42.052382],[3.193698,42.052489],[3.19373,42.052545],[3.194046,42.052798],[3.194487,42.053155],[3.194631,42.053268],[3.194659,42.053304],[3.194952,42.053533],[3.195148,42.053699],[3.19537,42.053869],[3.195588,42.054049],[3.195854,42.054273],[3.196203,42.054534],[3.196204,42.054611],[3.196201,42.054646],[3.196204,42.054685],[3.196214,42.054704],[3.19624,42.054728],[3.196271,42.054772],[3.196325,42.054869],[3.196392,42.054986],[3.196433,42.055064],[3.196494,42.05513],[3.196571,42.055206],[3.196692,42.055303],[3.196774,42.055362],[3.196892,42.055417],[3.197066,42.055491],[3.197427,42.055699],[3.197714,42.055853],[3.197829,42.055908],[3.197844,42.055955],[3.197841,42.055968],[3.197788,42.056176],[3.197782,42.056183],[3.197745,42.056223],[3.197741,42.056231],[3.197651,42.056374],[3.197628,42.056401],[3.197604,42.056429],[3.197572,42.056456],[3.197574,42.056468],[3.197505,42.056526],[3.197463,42.056561],[3.197438,42.056582],[3.197377,42.056617],[3.197254,42.056691],[3.19725,42.056693],[3.197666,42.056915],[3.197713,42.056936],[3.197825,42.056993],[3.197819,42.057009],[3.197801,42.057039],[3.197779,42.057068],[3.197732,42.057124],[3.197713,42.057143],[3.197696,42.057162],[3.197695,42.057168],[3.197696,42.057176],[3.197704,42.05719],[3.197721,42.057209],[3.197737,42.057229],[3.198025,42.057253],[3.198133,42.057221],[3.198138,42.057239],[3.198143,42.057254],[3.198163,42.057306],[3.198285,42.057236],[3.19836,42.057278],[3.198487,42.057349],[3.198622,42.057352],[3.198811,42.057297],[3.198944,42.05726],[3.198938,42.057246],[3.199243,42.057186],[3.199267,42.057182],[3.199291,42.057177],[3.199714,42.057078],[3.199773,42.057064],[3.199789,42.05706],[3.199867,42.057054],[3.199955,42.057056],[3.200059,42.057058],[3.200164,42.057029],[3.200228,42.057007],[3.200227,42.057004],[3.200218,42.056967],[3.200227,42.056965],[3.200306,42.056941],[3.200411,42.056938],[3.20042,42.056939],[3.200659,42.05696],[3.200689,42.056964],[3.200842,42.05698],[3.200919,42.056988],[3.200953,42.056991],[3.200996,42.056994],[3.201079,42.057005],[3.201081,42.057],[3.201177,42.056567],[3.201206,42.056547],[3.201228,42.056525],[3.201244,42.056501],[3.201252,42.056478],[3.201254,42.056456],[3.201253,42.056443],[3.201912,42.05664],[3.20196,42.05663],[3.202072,42.056606],[3.202153,42.056603],[3.202178,42.056613],[3.2022,42.056622],[3.20223,42.056648],[3.202242,42.056649],[3.20226,42.056646],[3.202327,42.056631],[3.202392,42.056614],[3.202429,42.056604],[3.202466,42.056593],[3.202479,42.05659],[3.202532,42.056575],[3.202595,42.056536],[3.202641,42.056517],[3.202725,42.056509],[3.202844,42.056484],[3.202932,42.05648],[3.202944,42.056528],[3.202931,42.056623],[3.202932,42.056637],[3.202927,42.056747],[3.202928,42.056819],[3.203017,42.056818],[3.203017,42.056807],[3.20312,42.056807],[3.203179,42.056744],[3.203317,42.056788],[3.203401,42.056834],[3.203439,42.056876],[3.203493,42.056851],[3.203494,42.056832],[3.203577,42.056767],[3.2036,42.056749],[3.203575,42.056749],[3.20358,42.056714],[3.20357,42.056714],[3.203522,42.056715],[3.203476,42.056717],[3.203456,42.056716],[3.203438,42.056712],[3.203398,42.056697],[3.203365,42.056678],[3.203339,42.056656],[3.203326,42.056639],[3.203295,42.056594],[3.203286,42.05658],[3.203282,42.056575],[3.203329,42.056602],[3.203383,42.056625],[3.203415,42.056634],[3.203449,42.056639],[3.203481,42.056635],[3.203509,42.056624],[3.203549,42.056597],[3.203585,42.056572],[3.203614,42.056556],[3.203643,42.056539],[3.203666,42.056524],[3.203696,42.056499],[3.203725,42.056475],[3.20376,42.056442],[3.203794,42.056412],[3.203808,42.056405],[3.203836,42.056395],[3.203868,42.056387],[3.203926,42.056371],[3.203983,42.056354],[3.204042,42.056337],[3.204101,42.05632],[3.204114,42.056315],[3.204238,42.056154],[3.204231,42.056132],[3.204227,42.056113],[3.204224,42.056094],[3.204169,42.056018],[3.204146,42.055986],[3.20413,42.055962],[3.204082,42.055894],[3.204064,42.055891],[3.204021,42.055853],[3.203997,42.055801],[3.203984,42.055645],[3.203408,42.055765],[3.203269,42.055723],[3.203012,42.055762],[3.202701,42.05584],[3.202437,42.055914],[3.202076,42.055953],[3.201951,42.056067],[3.201955,42.056181],[3.201951,42.056269],[3.201918,42.056271],[3.201888,42.056271],[3.201879,42.056269],[3.201866,42.056266],[3.201842,42.056257],[3.201827,42.056245],[3.201819,42.056237],[3.20181,42.056227],[3.201786,42.05618],[3.20176,42.05613],[3.201716,42.056034],[3.201688,42.055979],[3.201661,42.055938],[3.201635,42.055904],[3.201617,42.055888],[3.201584,42.055867],[3.201527,42.055839],[3.201455,42.055805],[3.201406,42.055789],[3.201421,42.055754],[3.201433,42.055664],[3.20174,42.055708],[3.20193,42.055713],[3.201954,42.055758],[3.20213,42.055732],[3.202118,42.055708],[3.202341,42.055685],[3.202366,42.055756],[3.202543,42.055685],[3.202677,42.055624],[3.202831,42.055563],[3.202945,42.055562],[3.203056,42.055604],[3.203438,42.05558],[3.203567,42.055516],[3.203918,42.055493],[3.204004,42.055452],[3.204191,42.055425],[3.204275,42.055411],[3.204339,42.055392],[3.204451,42.055299],[3.204575,42.055221],[3.205013,42.055108],[3.205083,42.055121],[3.205308,42.055166],[3.205344,42.055173],[3.205545,42.055146],[3.205673,42.055119],[3.205798,42.054928],[3.205784,42.054894],[3.205986,42.054804],[3.206192,42.054727],[3.206274,42.05471],[3.206472,42.0547],[3.206747,42.054608],[3.206788,42.054647],[3.206811,42.054669],[3.206824,42.054682],[3.206993,42.054682],[3.2071,42.05472],[3.207156,42.054829],[3.207199,42.054894],[3.207173,42.054903],[3.207155,42.054944],[3.20712,42.055021],[3.207217,42.05517],[3.2073,42.055246],[3.207553,42.055157],[3.207939,42.05497],[3.20812,42.055013],[3.208146,42.055007],[3.208201,42.055],[3.208217,42.055],[3.20827,42.055],[3.208302,42.055006],[3.208306,42.055008],[3.208327,42.055017],[3.208557,42.055115],[3.208765,42.0552],[3.209084,42.054957],[3.209066,42.054945],[3.209048,42.054934],[3.209029,42.054923],[3.208949,42.054874],[3.208769,42.054764],[3.209029,42.054661],[3.209055,42.054651],[3.209294,42.054556],[3.20973,42.054418],[3.209953,42.054308],[3.210286,42.054162],[3.210232,42.054126],[3.21025,42.054094],[3.210256,42.054074],[3.210255,42.054057],[3.21025,42.054041],[3.210229,42.054014],[3.210227,42.054012],[3.210217,42.054],[3.210207,42.053988],[3.210183,42.053962],[3.210157,42.053938],[3.210102,42.053892],[3.210041,42.053838],[3.209977,42.053786],[3.209911,42.053737],[3.209844,42.053688],[3.210071,42.05342],[3.210091,42.053396],[3.209868,42.053312],[3.20984,42.053305],[3.209791,42.053294],[3.209486,42.053228],[3.209201,42.053207],[3.209039,42.053209],[3.208879,42.053216],[3.208867,42.053216],[3.208373,42.053268],[3.20831,42.053296],[3.20825,42.053328],[3.208191,42.053363],[3.208135,42.0534],[3.20813,42.053403],[3.20801,42.053508],[3.207974,42.053538],[3.207893,42.053614],[3.207712,42.053719],[3.207681,42.053736],[3.207269,42.053968],[3.207176,42.053978],[3.206987,42.054052],[3.206867,42.054098],[3.206503,42.054221],[3.206304,42.054294],[3.206079,42.054368],[3.205821,42.054443],[3.205552,42.054445],[3.205512,42.054455]]]]}},{"type":"Feature","id":"171997_171997 AP08 BEM 3","properties":{"area_id":"171997_171997 AP08 BEM 3","nom":"la Bolleria","codi_icgc":"171997 AP08 BEM 3","categoria":"Àrees de poblament","codi_municipi":"171997","municipi":"Torroella de Montgrí","codi_comarca":"10","comarca":"Baix Empordà","provincia":"Girona","font":"ICGC Àrees de poblament v3r1 202602"},"geometry":{"type":"MultiPolygon","coordinates":[[[[3.105556,42.081879],[3.105578,42.081863],[3.105607,42.081872],[3.105686,42.08172],[3.105373,42.08162],[3.105428,42.081563],[3.105436,42.081553],[3.105446,42.081541],[3.105613,42.081336],[3.105626,42.08132],[3.10567,42.081262],[3.105725,42.081186],[3.105576,42.081104],[3.105525,42.081068],[3.105546,42.081036],[3.105572,42.081051],[3.105765,42.080774],[3.105926,42.080512],[3.106022,42.08037],[3.106154,42.080169],[3.10664,42.079454],[3.106301,42.079354],[3.106231,42.079469],[3.106168,42.079452],[3.106122,42.079527],[3.106091,42.079579],[3.10604,42.079669],[3.106014,42.079709],[3.106007,42.079717],[3.10599,42.079725],[3.105822,42.079668],[3.105712,42.079844],[3.105681,42.079893],[3.105574,42.080059],[3.105363,42.080374],[3.105184,42.080658],[3.105138,42.080731],[3.104757,42.080538],[3.10467,42.080546],[3.104289,42.08045],[3.104294,42.080441],[3.104011,42.080334],[3.104158,42.079611],[3.104244,42.079155],[3.104047,42.079121],[3.103844,42.079101],[3.103846,42.079087],[3.103848,42.079079],[3.103854,42.079045],[3.103819,42.07904],[3.10376,42.079035],[3.103825,42.078801],[3.103834,42.078769],[3.103578,42.078814],[3.103578,42.078795],[3.103135,42.078861],[3.103134,42.078853],[3.103089,42.078859],[3.103048,42.078748],[3.103035,42.078689],[3.103029,42.078661],[3.102803,42.078689],[3.102593,42.078704],[3.102377,42.078711],[3.102343,42.078715],[3.102308,42.078718],[3.102235,42.078727],[3.102122,42.07874],[3.102086,42.078744],[3.102002,42.078757],[3.101811,42.078786],[3.101707,42.078798],[3.101443,42.078833],[3.101381,42.078642],[3.101049,42.078674],[3.101112,42.078775],[3.101157,42.078868],[3.101198,42.078924],[3.101324,42.079098],[3.101362,42.079093],[3.101417,42.079168],[3.101467,42.079235],[3.101549,42.079424],[3.101609,42.079657],[3.101618,42.079678],[3.101689,42.079943],[3.101816,42.08016],[3.101981,42.080292],[3.102382,42.080585],[3.102393,42.080593],[3.102855,42.080713],[3.103316,42.080877],[3.103828,42.081099],[3.104348,42.081374],[3.104563,42.081463],[3.105086,42.081684],[3.105221,42.081748],[3.105402,42.081825],[3.105556,42.081879]]]]}},{"type":"Feature","id":"171997_171997 AP04 BEM 2","properties":{"area_id":"171997_171997 AP04 BEM 2","nom":"la Pletera","codi_icgc":"171997 AP04 BEM 2","categoria":"Àrees de poblament","codi_municipi":"171997","municipi":"Torroella de Montgrí","codi_comarca":"10","comarca":"Baix Empordà","provincia":"Girona","font":"ICGC Àrees de poblament v3r1 202602"},"geometry":{"type":"MultiPolygon","coordinates":[[[[3.191668,42.03736],[3.191672,42.037361],[3.193586,42.037655],[3.19331,42.036166],[3.191536,42.036276],[3.191668,42.03736]]]]}},{"type":"Feature","id":"171997_171997 AP10 BEM 3","properties":{"area_id":"171997_171997 AP10 BEM 3","nom":"la Punta de Montgó","codi_icgc":"171997 AP10 BEM 3","categoria":"Àrees de poblament","codi_municipi":"171997","municipi":"Torroella de Montgrí","codi_comarca":"10","comarca":"Baix Empordà","provincia":"Girona","font":"ICGC Àrees de poblament v3r1 202602"},"geometry":{"type":"MultiPolygon","coordinates":[[[[3.168766,42.108458],[3.168521,42.108296],[3.168194,42.108057],[3.168245,42.107735],[3.168269,42.107578],[3.168484,42.107073],[3.168556,42.106805],[3.16869,42.106485],[3.168711,42.106444],[3.168738,42.106386],[3.168758,42.106336],[3.168761,42.106328],[3.168765,42.10632],[3.168776,42.106293],[3.168779,42.106286],[3.16879,42.10626],[3.168843,42.106135],[3.168906,42.106014],[3.168955,42.105925],[3.169148,42.1056],[3.169296,42.105321],[3.169306,42.105287],[3.169285,42.105257],[3.16926,42.105219],[3.169235,42.105182],[3.169052,42.105233],[3.168978,42.105225],[3.168947,42.105147],[3.168789,42.105185],[3.168782,42.105209],[3.168784,42.10522],[3.168785,42.105227],[3.168786,42.105233],[3.168781,42.105238],[3.168763,42.105244],[3.168753,42.105247],[3.168726,42.105254],[3.168654,42.10527],[3.168541,42.105294],[3.168503,42.1053],[3.168472,42.105304],[3.168467,42.105305],[3.168401,42.105306],[3.168333,42.105303],[3.168304,42.1053],[3.16824,42.105294],[3.168149,42.10528],[3.168099,42.105268],[3.168026,42.105244],[3.167991,42.10523],[3.167957,42.105214],[3.16791,42.105191],[3.167863,42.105168],[3.167796,42.105135],[3.167726,42.1051],[3.167697,42.105092],[3.167671,42.105091],[3.167637,42.105098],[3.167606,42.10511],[3.167603,42.105111],[3.167575,42.10513],[3.167573,42.105133],[3.167563,42.105145],[3.167553,42.105157],[3.167546,42.105187],[3.167553,42.105215],[3.167591,42.105275],[3.167628,42.105331],[3.167658,42.105385],[3.167669,42.105411],[3.167674,42.105428],[3.167677,42.105438],[3.167681,42.10547],[3.167678,42.105522],[3.167669,42.105574],[3.167653,42.105661],[3.16764,42.105702],[3.167621,42.105741],[3.167521,42.105881],[3.167497,42.105912],[3.167414,42.10602],[3.16727,42.106201],[3.167125,42.106383],[3.166996,42.106546],[3.166868,42.106709],[3.166778,42.106815],[3.16673,42.106866],[3.16668,42.106915],[3.166568,42.107016],[3.166397,42.107166],[3.166225,42.107314],[3.166109,42.107409],[3.165992,42.107505],[3.165964,42.107531],[3.165928,42.107574],[3.165897,42.107618],[3.165866,42.107669],[3.165826,42.107747],[3.165811,42.107788],[3.1658,42.10783],[3.165795,42.107861],[3.165793,42.107877],[3.165772,42.108022],[3.165753,42.108213],[3.165744,42.10832],[3.165739,42.108419],[3.165739,42.108428],[3.165733,42.1085],[3.165834,42.108503],[3.166386,42.108481],[3.16723,42.108486],[3.16788,42.108512],[3.168063,42.108501],[3.16815,42.108496],[3.168628,42.108466],[3.168766,42.108458]]]]}},{"type":"Feature","id":"171997_171997 AP14 BEM 3","properties":{"area_id":"171997_171997 AP14 BEM 3","nom":"la Torre Moratxa","codi_icgc":"171997 AP14 BEM 3","categoria":"Àrees de poblament","codi_municipi":"171997","municipi":"Torroella de Montgrí","codi_comarca":"10","comarca":"Baix Empordà","provincia":"Girona","font":"ICGC Àrees de poblament v3r1 202602"},"geometry":{"type":"MultiPolygon","coordinates":[[[[3.188919,42.051986],[3.188959,42.051823],[3.188825,42.051788],[3.188724,42.051764],[3.188423,42.051694],[3.188119,42.051726],[3.188041,42.051731],[3.187951,42.051751],[3.187879,42.051765],[3.187807,42.05178],[3.187796,42.051782],[3.18774,42.051787],[3.187655,42.051791],[3.187628,42.05179],[3.18757,42.051788],[3.187486,42.05178],[3.187443,42.051773],[3.187403,42.051767],[3.187367,42.051754],[3.187354,42.051749],[3.187196,42.051683],[3.18712,42.051648],[3.186385,42.051532],[3.186315,42.051521],[3.186281,42.051515],[3.186222,42.051499],[3.186171,42.05148],[3.186123,42.051461],[3.186088,42.051438],[3.18606,42.051419],[3.186036,42.051405],[3.185994,42.051379],[3.185909,42.051336],[3.185864,42.05132],[3.185817,42.051312],[3.185733,42.051312],[3.185648,42.051314],[3.185617,42.051314],[3.185586,42.051315],[3.185555,42.051318],[3.185527,42.05132],[3.185464,42.051323],[3.18543,42.051325],[3.185393,42.051324],[3.185332,42.051324],[3.185275,42.051324],[3.185224,42.051322],[3.185181,42.05132],[3.185098,42.051314],[3.185024,42.051305],[3.184945,42.05129],[3.184867,42.051276],[3.184808,42.051265],[3.184636,42.051234],[3.184587,42.051229],[3.184489,42.051207],[3.184331,42.051181],[3.184192,42.051154],[3.184053,42.051128],[3.183961,42.051119],[3.183881,42.051117],[3.183867,42.051117],[3.183751,42.05111],[3.183635,42.051108],[3.183539,42.05111],[3.183533,42.05111],[3.18343,42.051113],[3.183353,42.051116],[3.183293,42.051124],[3.183231,42.051142],[3.183206,42.051157],[3.183203,42.051166],[3.183192,42.05118],[3.183186,42.051184],[3.182996,42.051269],[3.182803,42.051352],[3.182583,42.051457],[3.182431,42.051527],[3.182457,42.051572],[3.182631,42.05178],[3.182925,42.051679],[3.183022,42.051642],[3.183072,42.051615],[3.182973,42.051478],[3.183327,42.051339],[3.183485,42.051303],[3.183662,42.051298],[3.183659,42.05132],[3.183791,42.051328],[3.183877,42.051337],[3.184152,42.051367],[3.184285,42.051404],[3.184426,42.051426],[3.184435,42.051396],[3.184772,42.051449],[3.184849,42.051465],[3.184925,42.051481],[3.184965,42.051491],[3.185023,42.051509],[3.185081,42.051528],[3.185168,42.051555],[3.185254,42.051585],[3.18532,42.051614],[3.185385,42.051645],[3.185437,42.051671],[3.18549,42.051697],[3.185529,42.051713],[3.185568,42.051728],[3.185625,42.05175],[3.185655,42.05176],[3.185685,42.051769],[3.18572,42.051775],[3.185773,42.051781],[3.185825,42.051784],[3.185871,42.051787],[3.185894,42.051789],[3.185917,42.05179],[3.185947,42.05179],[3.185977,42.051791],[3.186338,42.05181],[3.186698,42.051828],[3.186855,42.051837],[3.186854,42.051846],[3.186868,42.051891],[3.18728,42.05189],[3.18742,42.051935],[3.187628,42.052002],[3.188062,42.052142],[3.188357,42.052221],[3.188423,42.05223],[3.188494,42.052256],[3.188552,42.052277],[3.188708,42.052338],[3.188797,42.052377],[3.188806,42.052349],[3.188919,42.051986]]],[[[3.196247,42.05707],[3.196393,42.05692],[3.19654,42.056771],[3.196568,42.056748],[3.196648,42.056684],[3.196761,42.05664],[3.196841,42.056624],[3.197033,42.056641],[3.1972,42.056611],[3.19738,42.056542],[3.197556,42.056393],[3.197671,42.056241],[3.197758,42.05608],[3.197778,42.055979],[3.197352,42.055734],[3.197289,42.055703],[3.197009,42.055549],[3.196809,42.055449],[3.196738,42.055401],[3.196731,42.055411],[3.196671,42.055369],[3.196641,42.055351],[3.196608,42.055327],[3.19655,42.055285],[3.196542,42.055279],[3.196461,42.055214],[3.196411,42.055166],[3.196341,42.055084],[3.196301,42.055025],[3.196252,42.054946],[3.196127,42.054731],[3.196106,42.054709],[3.196084,42.054685],[3.196035,42.054634],[3.196026,42.054624],[3.196019,42.054617],[3.196026,42.05461],[3.196051,42.054585],[3.196022,42.05456],[3.195793,42.054367],[3.195729,42.054313],[3.195665,42.054258],[3.195164,42.053833],[3.194757,42.053515],[3.194503,42.053312],[3.194229,42.053102],[3.193679,42.052651],[3.19365,42.052635],[3.193624,42.052613],[3.193583,42.052582],[3.193295,42.052414],[3.193252,42.052394],[3.19316,42.052352],[3.193054,42.052308],[3.193017,42.052298],[3.192964,42.052285],[3.192808,42.052255],[3.19273,42.052496],[3.192688,42.052496],[3.192634,42.052515],[3.192608,42.052542],[3.19257,42.052609],[3.192526,42.052728],[3.192484,42.052866],[3.19243,42.05298],[3.192403,42.053047],[3.192403,42.053083],[3.192121,42.053067],[3.192122,42.053322],[3.191946,42.053334],[3.191802,42.053351],[3.19155,42.053383],[3.191432,42.053407],[3.191348,42.053099],[3.191025,42.053212],[3.190836,42.053293],[3.190943,42.053504],[3.190908,42.053513],[3.190884,42.05352],[3.190794,42.053542],[3.190664,42.053583],[3.190536,42.053622],[3.190399,42.053657],[3.190389,42.053659],[3.190259,42.053684],[3.190137,42.053701],[3.190015,42.05371],[3.189687,42.053716],[3.189357,42.053722],[3.189121,42.053728],[3.188885,42.053734],[3.18874,42.053736],[3.188522,42.053731],[3.188305,42.05372],[3.188123,42.053705],[3.18794,42.053683],[3.187787,42.053661],[3.187633,42.053639],[3.187628,42.053639],[3.187363,42.0536],[3.187095,42.053562],[3.186899,42.053528],[3.186708,42.053487],[3.186589,42.053454],[3.186474,42.053412],[3.18635,42.053361],[3.186292,42.053332],[3.186263,42.053315],[3.186235,42.053353],[3.186189,42.053414],[3.186178,42.053427],[3.186055,42.053529],[3.185978,42.053555],[3.185843,42.053556],[3.185658,42.053525],[3.185462,42.0535],[3.185398,42.053661],[3.185382,42.05372],[3.18537,42.053764],[3.185269,42.053747],[3.185094,42.053718],[3.185005,42.053702],[3.184915,42.053686],[3.184752,42.053656],[3.18459,42.053626],[3.184447,42.053599],[3.184429,42.053652],[3.184417,42.053694],[3.184394,42.053762],[3.184351,42.053886],[3.184333,42.053938],[3.184956,42.054056],[3.184961,42.054056],[3.185059,42.053772],[3.185068,42.053768],[3.185075,42.053765],[3.185082,42.053764],[3.185091,42.053764],[3.185105,42.053765],[3.185119,42.053767],[3.185256,42.05379],[3.185431,42.053818],[3.185614,42.053847],[3.185797,42.053877],[3.185964,42.053905],[3.186132,42.053934],[3.18633,42.053967],[3.186528,42.054001],[3.186806,42.054049],[3.187084,42.054097],[3.187338,42.054142],[3.187593,42.054187],[3.187629,42.054194],[3.187771,42.054219],[3.187949,42.05425],[3.188091,42.054274],[3.188113,42.054277],[3.18812,42.05432],[3.188121,42.054329],[3.188121,42.054335],[3.188121,42.054342],[3.188119,42.054356],[3.188118,42.05436],[3.188115,42.054373],[3.188015,42.054405],[3.18773,42.054496],[3.187628,42.054523],[3.187387,42.054585],[3.187356,42.054593],[3.187348,42.054577],[3.187066,42.054653],[3.186501,42.054772],[3.186502,42.054786],[3.186507,42.054824],[3.186167,42.054831],[3.186168,42.054845],[3.186173,42.054938],[3.186174,42.054952],[3.186176,42.055004],[3.186142,42.055006],[3.186047,42.055012],[3.185909,42.055018],[3.185772,42.055019],[3.185634,42.05502],[3.185621,42.055003],[3.185602,42.05499],[3.185579,42.054982],[3.185553,42.054979],[3.185527,42.054982],[3.185504,42.05499],[3.185484,42.055003],[3.185471,42.05502],[3.185465,42.055038],[3.185465,42.055045],[3.185465,42.055051],[3.185466,42.055058],[3.185475,42.055076],[3.185491,42.055092],[3.185512,42.055103],[3.185536,42.055109],[3.185562,42.05511],[3.185587,42.055105],[3.18561,42.055095],[3.185627,42.05508],[3.185631,42.055074],[3.185707,42.055076],[3.185706,42.05509],[3.185694,42.055224],[3.185691,42.05525],[3.18574,42.055251],[3.185885,42.055264],[3.185955,42.055265],[3.185959,42.055094],[3.18596,42.05508],[3.186528,42.055063],[3.186563,42.055317],[3.18667,42.055307],[3.186777,42.055296],[3.18694,42.055278],[3.187103,42.055256],[3.187187,42.055246],[3.187271,42.055235],[3.187327,42.055227],[3.187335,42.055226],[3.187447,42.055207],[3.187568,42.055187],[3.187628,42.055175],[3.188064,42.055089],[3.188242,42.055038],[3.188815,42.054809],[3.188814,42.054781],[3.188814,42.054767],[3.188689,42.054605],[3.188619,42.054538],[3.188609,42.054528],[3.188695,42.054491],[3.188835,42.05444],[3.188976,42.054397],[3.189096,42.054364],[3.189153,42.05435],[3.189222,42.054338],[3.189251,42.054334],[3.189289,42.054331],[3.189359,42.054332],[3.189427,42.054334],[3.189577,42.054339],[3.189726,42.054345],[3.189902,42.054352],[3.190076,42.05436],[3.190259,42.054376],[3.190442,42.054404],[3.190531,42.054422],[3.19061,42.054444],[3.190667,42.054462],[3.190662,42.054474],[3.190578,42.054677],[3.190583,42.054678],[3.190898,42.05475],[3.190923,42.054756],[3.191175,42.054844],[3.191276,42.054593],[3.191337,42.054597],[3.191409,42.054606],[3.191487,42.054618],[3.191553,42.054631],[3.191633,42.054649],[3.191692,42.054668],[3.191751,42.054685],[3.191872,42.054726],[3.192054,42.054795],[3.192215,42.054866],[3.19238,42.054935],[3.192454,42.05496],[3.192514,42.054976],[3.19251,42.054989],[3.192514,42.054991],[3.192469,42.05515],[3.192459,42.055187],[3.192446,42.055267],[3.192775,42.055343],[3.192962,42.05551],[3.193051,42.055528],[3.193316,42.05569],[3.19346,42.05576],[3.193564,42.055829],[3.193632,42.055874],[3.193702,42.055958],[3.193692,42.055961],[3.193702,42.055973],[3.193563,42.056016],[3.193577,42.056133],[3.193577,42.056147],[3.193584,42.056258],[3.193584,42.056273],[3.193698,42.056305],[3.193704,42.056307],[3.193635,42.056453],[3.193522,42.056633],[3.193514,42.056645],[3.193633,42.056686],[3.19368,42.056703],[3.193694,42.056708],[3.193603,42.056773],[3.193559,42.056806],[3.193429,42.056904],[3.193404,42.056906],[3.193384,42.056911],[3.19336,42.056961],[3.193354,42.056983],[3.193351,42.056994],[3.193366,42.057009],[3.193387,42.05702],[3.19341,42.057025],[3.193435,42.057025],[3.193459,42.05702],[3.193461,42.057017],[3.193461,42.057032],[3.193818,42.057164],[3.194025,42.057287],[3.194301,42.057555],[3.194332,42.057659],[3.194336,42.057673],[3.194316,42.057677],[3.194335,42.057701],[3.194337,42.057705],[3.195102,42.057647],[3.195352,42.057627],[3.195516,42.057613],[3.195604,42.057606],[3.195656,42.057597],[3.195668,42.057595],[3.195672,42.057593],[3.195679,42.057591],[3.195699,42.057583],[3.195712,42.057577],[3.195729,42.057571],[3.195764,42.057549],[3.195865,42.05746],[3.195955,42.05737],[3.196101,42.05722],[3.196247,42.05707]]]]}},{"type":"Feature","id":"171997_171997 AP09 BEM 3","properties":{"area_id":"171997_171997 AP09 BEM 3","nom":"les Dunes","codi_icgc":"171997 AP09 BEM 3","categoria":"Àrees de poblament","codi_municipi":"171997","municipi":"Torroella de Montgrí","codi_comarca":"10","comarca":"Baix Empordà","provincia":"Girona","font":"ICGC Àrees de poblament v3r1 202602"},"geometry":{"type":"MultiPolygon","coordinates":[[[[3.159558,42.045794],[3.159548,42.045792],[3.159214,42.046401],[3.158954,42.046918],[3.158762,42.047368],[3.158586,42.047758],[3.158524,42.047875],[3.158511,42.047901],[3.158515,42.047902],[3.15861,42.047907],[3.158704,42.047911],[3.158902,42.047931],[3.159044,42.047944],[3.159098,42.047945],[3.159152,42.047946],[3.159306,42.047951],[3.159335,42.047954],[3.159433,42.047966],[3.15953,42.04798],[3.159661,42.048003],[3.159725,42.048017],[3.159788,42.048034],[3.159923,42.048074],[3.160058,42.048114],[3.160213,42.048161],[3.160368,42.048209],[3.160518,42.048257],[3.160667,42.048306],[3.160699,42.048317],[3.160746,42.048334],[3.160767,42.048344],[3.160768,42.048348],[3.160773,42.048346],[3.160828,42.04833],[3.160833,42.048328],[3.160834,42.048321],[3.160836,42.048308],[3.160842,42.048289],[3.16085,42.048271],[3.160925,42.048105],[3.161031,42.047869],[3.161081,42.047772],[3.161139,42.047678],[3.161227,42.04754],[3.16126,42.047489],[3.161357,42.047325],[3.161454,42.047162],[3.161458,42.047156],[3.161498,42.047096],[3.161547,42.047032],[3.161651,42.046905],[3.161719,42.046825],[3.161786,42.046744],[3.161857,42.046656],[3.161927,42.046567],[3.162013,42.04646],[3.162094,42.046353],[3.162125,42.046307],[3.162134,42.046293],[3.162091,42.046284],[3.161718,42.046206],[3.161544,42.046172],[3.16084,42.046038],[3.160334,42.045941],[3.160316,42.04594],[3.160057,42.045897],[3.16005,42.045892],[3.160041,42.045888],[3.160037,42.045886],[3.160031,42.045884],[3.160007,42.04588],[3.159581,42.045798],[3.159558,42.045794]]]]}}]}