{"type":"FeatureCollection","name":"ICGC Àrees de poblament - Vidreres","features":[{"type":"Feature","id":"172137_172137 AP06 SEL 3","properties":{"area_id":"172137_172137 AP06 SEL 3","nom":"Aiguaviva Parc","codi_icgc":"172137 AP06 SEL 3","categoria":"Àrees de poblament","codi_municipi":"172137","municipi":"Vidreres","codi_comarca":"34","comarca":"Selva","provincia":"Girona","font":"ICGC Àrees de poblament v3r1 202602"},"geometry":{"type":"MultiPolygon","coordinates":[[[[2.806135,41.757118],[2.806477,41.756937],[2.806653,41.756952],[2.80706,41.756982],[2.807065,41.756983],[2.807463,41.757002],[2.807496,41.756993],[2.807897,41.757039],[2.80858,41.757111],[2.808638,41.757118],[2.80869,41.757122],[2.808746,41.757129],[2.808852,41.757141],[2.809623,41.757215],[2.809822,41.757234],[2.809857,41.757235],[2.809853,41.757252],[2.809922,41.757259],[2.810054,41.757272],[2.810072,41.757274],[2.810116,41.757278],[2.810178,41.757287],[2.810241,41.7573],[2.810302,41.757312],[2.810393,41.757327],[2.810482,41.757343],[2.810565,41.757361],[2.810632,41.757377],[2.810648,41.757327],[2.810816,41.757349],[2.810834,41.757349],[2.810832,41.757344],[2.81083,41.757335],[2.810838,41.757335],[2.810861,41.757333],[2.810875,41.757332],[2.810899,41.757327],[2.810922,41.757322],[2.810982,41.757309],[2.811055,41.757291],[2.811095,41.757381],[2.811115,41.757426],[2.811232,41.757394],[2.811273,41.757383],[2.811426,41.757381],[2.811633,41.757401],[2.811647,41.757402],[2.811736,41.757411],[2.811936,41.75743],[2.812179,41.757461],[2.812186,41.757464],[2.812196,41.757468],[2.812214,41.757473],[2.812234,41.757476],[2.812258,41.757479],[2.812299,41.757483],[2.812352,41.757486],[2.812432,41.757488],[2.812491,41.75749],[2.812546,41.757493],[2.812577,41.757494],[2.812617,41.757496],[2.812623,41.757497],[2.812628,41.757497],[2.812644,41.757499],[2.812662,41.7575],[2.812675,41.757502],[2.812792,41.757516],[2.812901,41.757529],[2.812912,41.75753],[2.812917,41.75753],[2.813025,41.757543],[2.813139,41.757555],[2.813143,41.757555],[2.813269,41.757567],[2.813388,41.757578],[2.813398,41.757579],[2.813502,41.757589],[2.813541,41.757593],[2.813555,41.757594],[2.813561,41.757595],[2.813606,41.757599],[2.813699,41.757608],[2.813911,41.757628],[2.814121,41.757649],[2.81433,41.757675],[2.814351,41.757679],[2.814474,41.75769],[2.814582,41.757741],[2.814737,41.757786],[2.814955,41.757831],[2.815039,41.757847],[2.815322,41.757898],[2.815355,41.757895],[2.815537,41.757883],[2.815605,41.757867],[2.815647,41.757859],[2.81565,41.757857],[2.815667,41.757847],[2.815686,41.757835],[2.815717,41.757816],[2.815737,41.757804],[2.815749,41.757805],[2.815765,41.757807],[2.81578,41.757809],[2.815811,41.757813],[2.815873,41.757817],[2.815934,41.757822],[2.815984,41.757828],[2.816035,41.757835],[2.816069,41.757839],[2.816085,41.75784],[2.81627,41.75786],[2.816298,41.757863],[2.816676,41.757905],[2.816717,41.757909],[2.816839,41.757921],[2.817009,41.757942],[2.817114,41.757955],[2.817499,41.75801],[2.817805,41.758053],[2.818134,41.758086],[2.818588,41.758155],[2.818699,41.758176],[2.818881,41.758202],[2.819158,41.758159],[2.819443,41.758116],[2.819489,41.758108],[2.819529,41.758103],[2.819831,41.758057],[2.820955,41.757887],[2.820991,41.75789],[2.821265,41.757916],[2.821342,41.757923],[2.821907,41.758131],[2.823185,41.758561],[2.823629,41.758592],[2.824978,41.75869],[2.825819,41.758752],[2.826371,41.758793],[2.826815,41.758849],[2.827521,41.758906],[2.82758,41.758911],[2.827618,41.758907],[2.828327,41.758841],[2.82881,41.758778],[2.829203,41.758727],[2.829842,41.758673],[2.82997,41.758662],[2.830675,41.758596],[2.831135,41.758553],[2.831536,41.758317],[2.832075,41.758],[2.832338,41.757823],[2.832635,41.757627],[2.833261,41.757411],[2.834393,41.757024],[2.834842,41.75705],[2.835127,41.757066],[2.836011,41.757111],[2.836233,41.757123],[2.838353,41.757252],[2.839148,41.757006],[2.839164,41.756964],[2.83917,41.756933],[2.839191,41.756835],[2.839195,41.756814],[2.839072,41.756739],[2.834922,41.755146],[2.824901,41.751297],[2.824872,41.751297],[2.824655,41.751361],[2.824581,41.751399],[2.824565,41.751404],[2.824543,41.75141],[2.824521,41.751413],[2.82448,41.751412],[2.824437,41.751411],[2.824347,41.751408],[2.824258,41.751404],[2.824112,41.751388],[2.823965,41.751371],[2.82386,41.751361],[2.823757,41.751351],[2.823675,41.751341],[2.823592,41.751332],[2.823502,41.751328],[2.823413,41.751324],[2.823308,41.751317],[2.823202,41.75131],[2.823088,41.751303],[2.822974,41.751298],[2.822901,41.751295],[2.822826,41.751295],[2.822732,41.751298],[2.822639,41.751302],[2.82257,41.751304],[2.8225,41.751306],[2.822451,41.751309],[2.822401,41.751312],[2.822354,41.751316],[2.822307,41.751321],[2.822245,41.751331],[2.822185,41.751347],[2.822159,41.751356],[2.822142,41.751363],[2.822101,41.751379],[2.822074,41.751388],[2.822046,41.751397],[2.822019,41.751404],[2.821992,41.751411],[2.821962,41.751415],[2.821932,41.751418],[2.821901,41.751419],[2.821871,41.751416],[2.821832,41.751409],[2.821794,41.751399],[2.821741,41.75138],[2.821723,41.751374],[2.821685,41.751362],[2.821635,41.751351],[2.821587,41.751343],[2.821525,41.751332],[2.821462,41.751321],[2.821397,41.751312],[2.821332,41.751305],[2.821259,41.751298],[2.821186,41.75129],[2.821105,41.751281],[2.821023,41.751271],[2.820939,41.751262],[2.820855,41.751253],[2.820805,41.751246],[2.820753,41.751238],[2.820694,41.751234],[2.820635,41.751233],[2.820592,41.751232],[2.820549,41.751233],[2.820487,41.751237],[2.820425,41.751246],[2.820336,41.751264],[2.820248,41.751287],[2.820213,41.751299],[2.82016,41.751313],[2.820124,41.75132],[2.82009,41.751327],[2.820034,41.751334],[2.819977,41.751335],[2.819913,41.751336],[2.819847,41.751335],[2.819763,41.751332],[2.819723,41.751329],[2.819683,41.751324],[2.819634,41.751315],[2.819589,41.751305],[2.819462,41.751278],[2.819335,41.751252],[2.819214,41.751226],[2.819093,41.751201],[2.818949,41.75117],[2.818807,41.751136],[2.81869,41.751103],[2.818572,41.751068],[2.818422,41.75103],[2.818291,41.750998],[2.818272,41.750993],[2.818152,41.750967],[2.818054,41.750943],[2.81777,41.750903],[2.817481,41.750836],[2.81733,41.750779],[2.817205,41.750732],[2.816988,41.750627],[2.816761,41.750494],[2.816731,41.750477],[2.816449,41.750311],[2.816365,41.750229],[2.816351,41.750216],[2.816301,41.750083],[2.816279,41.750022],[2.816173,41.749772],[2.816154,41.7497],[2.816135,41.749701],[2.815865,41.749715],[2.815549,41.749975],[2.815444,41.749915],[2.815421,41.74992],[2.815385,41.749929],[2.815166,41.750024],[2.815158,41.750027],[2.815132,41.750038],[2.815099,41.75005],[2.814945,41.750107],[2.814823,41.750188],[2.814779,41.750249],[2.814721,41.750315],[2.814694,41.750338],[2.814607,41.750415],[2.814559,41.750458],[2.814469,41.750547],[2.814315,41.750698],[2.81431,41.750703],[2.81425,41.75076],[2.814139,41.750867],[2.814024,41.750976],[2.814019,41.750981],[2.813681,41.751013],[2.813631,41.751015],[2.8136,41.751022],[2.813518,41.751022],[2.813331,41.751034],[2.813349,41.7512],[2.813356,41.751258],[2.813362,41.751313],[2.813158,41.751345],[2.813039,41.751364],[2.812734,41.751405],[2.812623,41.751418],[2.812581,41.751422],[2.812428,41.751438],[2.812362,41.751446],[2.812336,41.751449],[2.812324,41.751451],[2.812314,41.751452],[2.812225,41.751464],[2.812217,41.751465],[2.812207,41.751466],[2.812196,41.751467],[2.812149,41.751471],[2.812111,41.751475],[2.812017,41.751485],[2.811947,41.751494],[2.811878,41.751505],[2.811806,41.751516],[2.811736,41.751531],[2.811696,41.751542],[2.811675,41.751548],[2.81163,41.75156],[2.811624,41.751562],[2.811591,41.75157],[2.811583,41.75157],[2.811565,41.751571],[2.811494,41.751578],[2.811424,41.751585],[2.811384,41.751586],[2.811344,41.751582],[2.811298,41.751566],[2.811256,41.751544],[2.811207,41.751515],[2.811158,41.751486],[2.811109,41.751455],[2.811059,41.751424],[2.810994,41.751464],[2.810856,41.751489],[2.810672,41.751533],[2.81048,41.751591],[2.810313,41.751653],[2.81029,41.751662],[2.80997,41.751801],[2.809796,41.751877],[2.809569,41.751977],[2.809461,41.752027],[2.809307,41.752097],[2.809168,41.752161],[2.809163,41.752163],[2.808878,41.752294],[2.808977,41.752422],[2.809068,41.752557],[2.808831,41.75266],[2.808608,41.752757],[2.808342,41.752875],[2.808075,41.752994],[2.808034,41.753013],[2.808002,41.753027],[2.807982,41.753036],[2.80787,41.753085],[2.80774,41.753142],[2.807663,41.753175],[2.807451,41.753267],[2.807238,41.753358],[2.807051,41.753434],[2.806864,41.753511],[2.806701,41.753584],[2.80654,41.753659],[2.806429,41.753709],[2.806315,41.753757],[2.806171,41.753814],[2.806025,41.75387],[2.805863,41.753931],[2.805701,41.753993],[2.805558,41.754051],[2.805417,41.754109],[2.805292,41.754152],[2.805161,41.754187],[2.805069,41.754206],[2.804975,41.754221],[2.804859,41.754233],[2.804743,41.754237],[2.804525,41.754236],[2.804387,41.754232],[2.804307,41.75423],[2.804296,41.75423],[2.804282,41.754228],[2.804268,41.754225],[2.804254,41.754221],[2.804246,41.754218],[2.804233,41.754213],[2.804215,41.754202],[2.804225,41.754117],[2.804242,41.753889],[2.80394,41.753911],[2.80393,41.753911],[2.803356,41.753956],[2.803102,41.753976],[2.802837,41.754034],[2.802828,41.754036],[2.802789,41.754045],[2.802752,41.754053],[2.802602,41.754085],[2.80262,41.754125],[2.802676,41.754239],[2.802717,41.754335],[2.802715,41.754344],[2.802713,41.754351],[2.80271,41.754356],[2.802704,41.75436],[2.802696,41.754365],[2.802687,41.754368],[2.802652,41.754377],[2.802614,41.754385],[2.802603,41.754388],[2.802595,41.75439],[2.802514,41.754407],[2.802253,41.754464],[2.802163,41.754483],[2.80196,41.754527],[2.80179,41.754574],[2.801626,41.75463],[2.801387,41.754714],[2.801149,41.754798],[2.800907,41.754877],[2.800664,41.754956],[2.800445,41.755035],[2.800276,41.755096],[2.800198,41.755117],[2.800098,41.755142],[2.800042,41.755154],[2.800027,41.755158],[2.799903,41.754939],[2.799652,41.755028],[2.799402,41.75511],[2.799488,41.755306],[2.799486,41.755313],[2.79948,41.755321],[2.799472,41.755326],[2.799455,41.755334],[2.799433,41.755342],[2.79938,41.755354],[2.799376,41.755355],[2.799359,41.755358],[2.799331,41.755363],[2.799309,41.755363],[2.799282,41.755358],[2.799065,41.755388],[2.799053,41.755402],[2.799031,41.755416],[2.799018,41.755422],[2.798955,41.755434],[2.7989,41.755444],[2.798805,41.755462],[2.798555,41.755514],[2.798489,41.755532],[2.798457,41.755546],[2.798427,41.75556],[2.798399,41.755574],[2.798368,41.75559],[2.798337,41.755613],[2.798323,41.755629],[2.79831,41.755647],[2.798294,41.755679],[2.798282,41.755715],[2.798125,41.75576],[2.798073,41.755788],[2.798071,41.755791],[2.79805,41.755825],[2.798061,41.755875],[2.798138,41.755954],[2.798249,41.75605],[2.798478,41.756294],[2.798537,41.756366],[2.798634,41.756485],[2.798729,41.756613],[2.798793,41.756699],[2.798855,41.75679],[2.798999,41.757071],[2.79923,41.757325],[2.799234,41.75733],[2.79932,41.757443],[2.799407,41.757578],[2.799493,41.757681],[2.799502,41.757693],[2.799621,41.757839],[2.79971,41.75796],[2.799787,41.758068],[2.79994,41.758318],[2.799965,41.758358],[2.800134,41.758638],[2.800138,41.758642],[2.800295,41.758827],[2.800363,41.758894],[2.800399,41.758929],[2.800693,41.759352],[2.800751,41.759435],[2.801085,41.759916],[2.801113,41.759894],[2.801262,41.759778],[2.801372,41.759693],[2.801902,41.759277],[2.801905,41.759274],[2.802185,41.759141],[2.802427,41.759017],[2.802468,41.758997],[2.802509,41.758975],[2.802987,41.758734],[2.802999,41.758727],[2.8039,41.758255],[2.804052,41.75819],[2.804083,41.758176],[2.804346,41.758059],[2.80448,41.757972],[2.804541,41.75793],[2.804808,41.757795],[2.805017,41.75769],[2.805026,41.757685],[2.805429,41.757474],[2.805594,41.757392],[2.805838,41.75727],[2.805853,41.757262],[2.806003,41.757186],[2.806135,41.757118]]]]}},{"type":"Feature","id":"172137_172137 AP09 SEL 3","properties":{"area_id":"172137_172137 AP09 SEL 3","nom":"Cartellà","codi_icgc":"172137 AP09 SEL 3","categoria":"Àrees de poblament","codi_municipi":"172137","municipi":"Vidreres","codi_comarca":"34","comarca":"Selva","provincia":"Girona","font":"ICGC Àrees de poblament v3r1 202602"},"geometry":{"type":"MultiPolygon","coordinates":[[[[2.758677,41.778634],[2.75855,41.778557],[2.758332,41.778795],[2.758434,41.778891],[2.75837,41.779052],[2.75814,41.779176],[2.758101,41.779452],[2.758177,41.779452],[2.758381,41.779501],[2.758775,41.779625],[2.759093,41.779693],[2.759323,41.779636],[2.759412,41.779426],[2.759414,41.779131],[2.759301,41.778587],[2.758677,41.778634]]]]}},{"type":"Feature","id":"172137_172137 AP08 SEL 3","properties":{"area_id":"172137_172137 AP08 SEL 3","nom":"Caulès","codi_icgc":"172137 AP08 SEL 3","categoria":"Àrees de poblament","codi_municipi":"172137","municipi":"Vidreres","codi_comarca":"34","comarca":"Selva","provincia":"Girona","font":"ICGC Àrees de poblament v3r1 202602"},"geometry":{"type":"MultiPolygon","coordinates":[[[[2.847207,41.77286],[2.847187,41.772853],[2.847178,41.772857],[2.847157,41.772864],[2.847135,41.772871],[2.847122,41.772877],[2.847112,41.772884],[2.8471,41.772895],[2.847082,41.772914],[2.847065,41.772982],[2.847039,41.773047],[2.847015,41.773094],[2.846974,41.773163],[2.846926,41.773229],[2.846871,41.773296],[2.846845,41.773324],[2.846789,41.773378],[2.846729,41.773427],[2.846738,41.773432],[2.846721,41.773447],[2.846513,41.773603],[2.84674,41.773661],[2.846936,41.773765],[2.847021,41.773797],[2.847205,41.773641],[2.847171,41.773568],[2.847154,41.773564],[2.847128,41.77356],[2.847139,41.773526],[2.847141,41.773519],[2.847153,41.773479],[2.847169,41.773432],[2.847186,41.773385],[2.847201,41.773344],[2.847249,41.773252],[2.84728,41.773203],[2.847299,41.773159],[2.847313,41.773114],[2.847321,41.773067],[2.84732,41.773019],[2.847315,41.772998],[2.84731,41.772985],[2.847308,41.772977],[2.847287,41.772936],[2.847266,41.772907],[2.847239,41.772881],[2.847207,41.77286]]]]}},{"type":"Feature","id":"172137_172137 SI01 SEL 2","properties":{"area_id":"172137_172137 SI01 SEL 2","nom":"Polígon industrial de Vidreres","codi_icgc":"172137 SI01 SEL 2","categoria":"Sector industrial","codi_municipi":"172137","municipi":"Vidreres","codi_comarca":"34","comarca":"Selva","provincia":"Girona","font":"ICGC Àrees de poblament v3r1 202602"},"geometry":{"type":"MultiPolygon","coordinates":[[[[2.775245,41.779582],[2.775354,41.779768],[2.775378,41.779759],[2.775421,41.779734],[2.775464,41.779723],[2.775579,41.779713],[2.775665,41.779685],[2.775713,41.779627],[2.775718,41.779549],[2.775713,41.779502],[2.775733,41.779413],[2.77579,41.779388],[2.776273,41.779346],[2.776617,41.779215],[2.776889,41.779133],[2.777138,41.779112],[2.777176,41.779126],[2.777249,41.77934],[2.777331,41.779399],[2.77746,41.779443],[2.778311,41.779713],[2.778102,41.77982],[2.778305,41.779952],[2.77916,41.780307],[2.779271,41.780161],[2.779649,41.779571],[2.780206,41.778726],[2.780207,41.778709],[2.77997,41.778605],[2.779841,41.778549],[2.779435,41.778372],[2.779042,41.778205],[2.778737,41.778069],[2.778229,41.777843],[2.778214,41.777838],[2.778125,41.778188],[2.778001,41.778241],[2.777348,41.778341],[2.777334,41.778351],[2.777305,41.77837],[2.777239,41.778407],[2.777168,41.778439],[2.777092,41.778464],[2.777013,41.778482],[2.776932,41.778494],[2.77689,41.778498],[2.776848,41.778499],[2.776783,41.778498],[2.776233,41.778524],[2.776208,41.77833],[2.776068,41.777419],[2.775968,41.777258],[2.775581,41.777409],[2.775275,41.777522],[2.774733,41.777736],[2.774516,41.777815],[2.774538,41.777898],[2.774621,41.778124],[2.774662,41.778231],[2.774735,41.778425],[2.774855,41.778744],[2.774965,41.779038],[2.775079,41.779291],[2.775245,41.779582]]]]}},{"type":"Feature","id":"172137_172137 AP03 SEL 3","properties":{"area_id":"172137_172137 AP03 SEL 3","nom":"Puigventós","codi_icgc":"172137 AP03 SEL 3","categoria":"Àrees de poblament","codi_municipi":"172137","municipi":"Vidreres","codi_comarca":"34","comarca":"Selva","provincia":"Girona","font":"ICGC Àrees de poblament v3r1 202602"},"geometry":{"type":"MultiPolygon","coordinates":[[[[2.795146,41.749057],[2.795136,41.749057],[2.795126,41.749056],[2.795116,41.749055],[2.795106,41.749054],[2.795096,41.749053],[2.795087,41.749052],[2.795077,41.74905],[2.795067,41.749048],[2.795058,41.749046],[2.795048,41.749043],[2.795039,41.74904],[2.79503,41.749037],[2.795021,41.749034],[2.795012,41.749031],[2.795003,41.749027],[2.794995,41.749023],[2.794986,41.749019],[2.794978,41.749015],[2.79497,41.74901],[2.794962,41.749006],[2.794955,41.749001],[2.794947,41.748996],[2.79494,41.74899],[2.794933,41.748985],[2.794916,41.74897],[2.794899,41.748954],[2.794883,41.748938],[2.794868,41.748922],[2.794853,41.748905],[2.794839,41.748888],[2.794827,41.74887],[2.794814,41.748853],[2.794803,41.748834],[2.794793,41.748816],[2.794783,41.748797],[2.794342,41.748986],[2.794339,41.748983],[2.794295,41.748948],[2.794253,41.748919],[2.794208,41.748894],[2.794146,41.748866],[2.794083,41.74884],[2.794017,41.748819],[2.793951,41.748798],[2.793785,41.748765],[2.793778,41.748813],[2.793756,41.748901],[2.793732,41.74897],[2.793725,41.748986],[2.793718,41.748997],[2.793695,41.749023],[2.793655,41.749058],[2.79362,41.749084],[2.793578,41.749107],[2.793532,41.749124],[2.793483,41.749137],[2.793432,41.749144],[2.793266,41.749154],[2.79327,41.748963],[2.793269,41.748869],[2.793192,41.748779],[2.793086,41.748654],[2.793046,41.748649],[2.792906,41.748632],[2.792882,41.748632],[2.79255,41.748629],[2.792306,41.748784],[2.792221,41.748838],[2.791901,41.749076],[2.791795,41.749173],[2.791626,41.749405],[2.791544,41.749554],[2.791547,41.74968],[2.791548,41.749738],[2.791464,41.749827],[2.791487,41.749894],[2.791561,41.749894],[2.791555,41.749959],[2.791515,41.750026],[2.791452,41.750148],[2.791374,41.750322],[2.791365,41.750342],[2.791261,41.750451],[2.79111,41.75058],[2.791088,41.750752],[2.791074,41.750815],[2.790992,41.751069],[2.790909,41.751283],[2.790623,41.751231],[2.790563,41.751427],[2.790521,41.751613],[2.790512,41.751802],[2.790438,41.751796],[2.790399,41.752047],[2.790411,41.752092],[2.79046,41.752138],[2.790538,41.752191],[2.790729,41.752304],[2.790683,41.752337],[2.790637,41.752371],[2.790592,41.752405],[2.790528,41.752459],[2.79047,41.752517],[2.79036,41.752638],[2.790257,41.752762],[2.790183,41.752854],[2.790109,41.752946],[2.790014,41.753062],[2.78992,41.753181],[2.789877,41.753246],[2.789838,41.753311],[2.789792,41.753383],[2.789747,41.753456],[2.789734,41.75348],[2.789719,41.753466],[2.789684,41.753436],[2.789658,41.75342],[2.789652,41.753415],[2.789608,41.753387],[2.789582,41.753371],[2.789567,41.753362],[2.789558,41.753376],[2.789573,41.753385],[2.789595,41.753398],[2.789639,41.753427],[2.789644,41.75343],[2.78967,41.753447],[2.789697,41.753473],[2.789713,41.753492],[2.789721,41.753505],[2.789699,41.753557],[2.789692,41.75358],[2.789689,41.753604],[2.789689,41.75363],[2.789693,41.753656],[2.789699,41.753683],[2.789711,41.75371],[2.78973,41.753734],[2.789744,41.75375],[2.790085,41.753723],[2.79009,41.75372],[2.790133,41.753695],[2.790181,41.753675],[2.790318,41.753635],[2.790525,41.753579],[2.790628,41.75355],[2.79073,41.753519],[2.79085,41.753482],[2.790969,41.753444],[2.79118,41.753377],[2.79139,41.75331],[2.791462,41.753291],[2.791536,41.753276],[2.791584,41.753267],[2.791633,41.75326],[2.791692,41.753251],[2.791752,41.753244],[2.791788,41.753241],[2.791824,41.75324],[2.791883,41.753242],[2.791943,41.753246],[2.791986,41.753249],[2.792007,41.753251],[2.792039,41.753254],[2.79207,41.75326],[2.792145,41.75328],[2.792178,41.753289],[2.792285,41.75332],[2.792394,41.75335],[2.792596,41.753411],[2.792688,41.753444],[2.792824,41.753496],[2.79296,41.753547],[2.793043,41.753574],[2.793118,41.753598],[2.793201,41.75362],[2.793303,41.753645],[2.793388,41.753665],[2.793482,41.753684],[2.793619,41.753705],[2.793737,41.753719],[2.793832,41.753726],[2.793897,41.753729],[2.79397,41.753729],[2.794092,41.753724],[2.794238,41.753713],[2.794411,41.753702],[2.794584,41.753695],[2.794626,41.753695],[2.794668,41.753694],[2.79472,41.753695],[2.794731,41.753696],[2.794744,41.753697],[2.794766,41.753699],[2.794791,41.753701],[2.794804,41.753702],[2.794814,41.753703],[2.794982,41.753722],[2.795148,41.75375],[2.795361,41.753798],[2.795575,41.753846],[2.795886,41.753915],[2.795957,41.753931],[2.796198,41.753985],[2.796421,41.754034],[2.796469,41.754044],[2.796461,41.754061],[2.796413,41.754203],[2.796357,41.754365],[2.796249,41.75454],[2.796113,41.754728],[2.796072,41.754842],[2.796043,41.754926],[2.796039,41.754937],[2.796035,41.754948],[2.796025,41.754976],[2.796447,41.755112],[2.796572,41.755149],[2.7967,41.75518],[2.79683,41.755206],[2.796962,41.755226],[2.797095,41.75524],[2.797229,41.755249],[2.797364,41.755252],[2.797498,41.755249],[2.797632,41.755241],[2.797766,41.755226],[2.797868,41.755211],[2.798207,41.755139],[2.798203,41.755002],[2.798202,41.75494],[2.798268,41.754747],[2.798342,41.754649],[2.798364,41.754618],[2.79843,41.754533],[2.798431,41.754501],[2.79846,41.754501],[2.798462,41.754439],[2.798425,41.754438],[2.798427,41.754368],[2.798563,41.754356],[2.798545,41.75422],[2.798519,41.754073],[2.798509,41.754044],[2.798529,41.754039],[2.798731,41.753973],[2.798931,41.753902],[2.799034,41.75386],[2.799134,41.753813],[2.799229,41.753762],[2.799323,41.753711],[2.799362,41.75369],[2.799398,41.753673],[2.799428,41.753667],[2.799463,41.753665],[2.799574,41.753663],[2.799687,41.753662],[2.799741,41.753659],[2.799795,41.753654],[2.799857,41.753642],[2.79992,41.753622],[2.799994,41.753579],[2.800059,41.753531],[2.800116,41.753483],[2.800167,41.753427],[2.800194,41.753381],[2.800209,41.753333],[2.80022,41.753241],[2.800228,41.753149],[2.800232,41.753002],[2.800236,41.752856],[2.800244,41.752816],[2.80026,41.752778],[2.800274,41.752759],[2.800288,41.752746],[2.800292,41.752742],[2.800311,41.752732],[2.800333,41.752725],[2.800341,41.752725],[2.800368,41.752724],[2.800409,41.752727],[2.800497,41.752742],[2.800634,41.752771],[2.800776,41.752794],[2.80088,41.752796],[2.800982,41.752787],[2.801074,41.752773],[2.801132,41.75276],[2.801132,41.752757],[2.801327,41.752664],[2.801334,41.752661],[2.801365,41.75263],[2.801407,41.752578],[2.801439,41.752517],[2.801459,41.752455],[2.801468,41.752401],[2.801467,41.752346],[2.801455,41.752284],[2.801438,41.752223],[2.801411,41.752149],[2.801374,41.752075],[2.801316,41.751997],[2.801246,41.751926],[2.801155,41.751848],[2.801056,41.751776],[2.800935,41.751701],[2.800815,41.751627],[2.800747,41.751584],[2.800682,41.751542],[2.800626,41.751497],[2.800581,41.751446],[2.800545,41.751389],[2.800516,41.751329],[2.800489,41.751254],[2.800471,41.751178],[2.800466,41.751089],[2.800462,41.750996],[2.800451,41.75093],[2.800429,41.750864],[2.800399,41.750805],[2.800363,41.750748],[2.800326,41.750702],[2.800282,41.750658],[2.800252,41.750637],[2.800233,41.750627],[2.800215,41.75062],[2.800168,41.750578],[2.800153,41.750599],[2.800129,41.750632],[2.800117,41.750648],[2.799948,41.75088],[2.799931,41.75087],[2.799889,41.750844],[2.799738,41.75075],[2.799661,41.750703],[2.799589,41.750684],[2.799566,41.750673],[2.799528,41.750656],[2.799511,41.750649],[2.799326,41.750608],[2.799127,41.750565],[2.798916,41.750565],[2.798909,41.750564],[2.798627,41.750602],[2.798582,41.750627],[2.79857,41.750634],[2.798564,41.750635],[2.798518,41.750647],[2.798192,41.750728],[2.798126,41.750753],[2.798092,41.750765],[2.798058,41.750778],[2.79799,41.750806],[2.797948,41.750827],[2.797925,41.75084],[2.797876,41.750872],[2.797828,41.750903],[2.797901,41.750929],[2.797938,41.750942],[2.797971,41.75096],[2.798013,41.750997],[2.798056,41.751033],[2.798078,41.75106],[2.798054,41.751088],[2.79805,41.751093],[2.798046,41.751098],[2.798043,41.751104],[2.79804,41.751105],[2.798024,41.75111],[2.797839,41.751161],[2.797487,41.75129],[2.797316,41.75113],[2.797149,41.750974],[2.796942,41.75078],[2.796799,41.750681],[2.796609,41.750607],[2.796396,41.750564],[2.796156,41.750567],[2.79584,41.75061],[2.79565,41.750648],[2.795629,41.750635],[2.795569,41.750597],[2.795485,41.750514],[2.79546,41.750489],[2.795417,41.750452],[2.79534,41.750385],[2.795231,41.750306],[2.795202,41.750285],[2.79534,41.750208],[2.795446,41.750135],[2.79504,41.74994],[2.795092,41.749899],[2.795144,41.749854],[2.795176,41.749821],[2.7952,41.749777],[2.795291,41.749792],[2.795383,41.749807],[2.795502,41.749807],[2.795582,41.749789],[2.79567,41.749724],[2.795682,41.749611],[2.795743,41.749562],[2.795789,41.749521],[2.795726,41.749361],[2.795522,41.749214],[2.795146,41.749057]]]]}},{"type":"Feature","id":"172137_172137 AP10 SEL 2","properties":{"area_id":"172137_172137 AP10 SEL 2","nom":"Sant Iscle","codi_icgc":"172137 AP10 SEL 2","categoria":"Àrees de poblament","codi_municipi":"172137","municipi":"Vidreres","codi_comarca":"34","comarca":"Selva","provincia":"Girona","font":"ICGC Àrees de poblament v3r1 202602"},"geometry":{"type":"MultiPolygon","coordinates":[[[[2.7955,41.777386],[2.795551,41.777273],[2.795544,41.777197],[2.79549,41.777171],[2.795457,41.777151],[2.795382,41.777158],[2.795383,41.77716],[2.795384,41.777168],[2.795383,41.777176],[2.79538,41.777183],[2.795375,41.777192],[2.795367,41.777203],[2.795357,41.777215],[2.795352,41.77722],[2.795334,41.777237],[2.795319,41.777256],[2.795292,41.777292],[2.795223,41.777288],[2.795185,41.777274],[2.795109,41.777202],[2.794995,41.777159],[2.794756,41.777194],[2.794641,41.777251],[2.794555,41.777409],[2.794373,41.777535],[2.794872,41.777716],[2.795115,41.777779],[2.79546,41.777512],[2.7955,41.777386]]],[[[2.796915,41.778814],[2.797048,41.778706],[2.797163,41.778611],[2.797276,41.778516],[2.797323,41.778471],[2.797386,41.778402],[2.797449,41.778333],[2.797533,41.77825],[2.797578,41.778211],[2.797626,41.778174],[2.797756,41.778083],[2.797896,41.77798],[2.797917,41.777962],[2.798018,41.777858],[2.798115,41.777753],[2.798207,41.777648],[2.798298,41.777544],[2.798339,41.7775],[2.79838,41.777456],[2.798469,41.777356],[2.798556,41.777256],[2.798633,41.777171],[2.798649,41.777154],[2.798686,41.777116],[2.798714,41.777088],[2.798752,41.777056],[2.798718,41.777022],[2.798631,41.776948],[2.798555,41.776866],[2.798517,41.776801],[2.798512,41.776748],[2.798517,41.776697],[2.79856,41.776612],[2.798634,41.776454],[2.798604,41.776424],[2.798439,41.776414],[2.798248,41.776414],[2.798139,41.776443],[2.798114,41.776476],[2.798056,41.776562],[2.79805,41.776624],[2.798036,41.776728],[2.797915,41.776952],[2.797832,41.776971],[2.797603,41.77699],[2.797431,41.776985],[2.797265,41.776984],[2.796966,41.776998],[2.79687,41.777036],[2.796781,41.777165],[2.796774,41.777308],[2.796748,41.777398],[2.79662,41.777574],[2.796475,41.777658],[2.796306,41.777598],[2.796237,41.777571],[2.796232,41.777569],[2.79619,41.777613],[2.796206,41.777633],[2.796225,41.777705],[2.796186,41.777862],[2.796177,41.777919],[2.796233,41.778069],[2.796195,41.778212],[2.796118,41.778348],[2.795891,41.778411],[2.795793,41.778526],[2.795697,41.778655],[2.795563,41.778669],[2.795385,41.778625],[2.795206,41.778581],[2.794859,41.778443],[2.794809,41.778486],[2.794614,41.778651],[2.794496,41.778824],[2.794479,41.778841],[2.794973,41.779029],[2.795087,41.778918],[2.79512,41.778876],[2.795144,41.778836],[2.795193,41.778736],[2.795266,41.778749],[2.795291,41.778753],[2.795483,41.778794],[2.795675,41.778834],[2.79584,41.778874],[2.796004,41.778915],[2.796041,41.778924],[2.796076,41.778933],[2.796083,41.778936],[2.79609,41.778941],[2.796102,41.778955],[2.796105,41.778964],[2.796106,41.778973],[2.796123,41.779125],[2.796146,41.779119],[2.796214,41.779106],[2.796285,41.779094],[2.796388,41.779075],[2.796492,41.779055],[2.796553,41.779038],[2.79661,41.779015],[2.796699,41.778972],[2.796742,41.778948],[2.796781,41.778921],[2.796915,41.778814]]]]}},{"type":"Feature","id":"172137_172137 AP07 SEL 1","properties":{"area_id":"172137_172137 AP07 SEL 1","nom":"Santa Ceclina","codi_icgc":"172137 AP07 SEL 1","categoria":"Àrees de poblament","codi_municipi":"172137","municipi":"Vidreres","codi_comarca":"34","comarca":"Selva","provincia":"Girona","font":"ICGC Àrees de poblament v3r1 202602"},"geometry":{"type":"MultiPolygon","coordinates":[[[[2.845177,41.785043],[2.845114,41.784968],[2.845032,41.784872],[2.84502,41.784849],[2.845001,41.784854],[2.844963,41.78486],[2.844924,41.784862],[2.844868,41.784862],[2.844813,41.78486],[2.844752,41.784854],[2.84469,41.784848],[2.844611,41.784841],[2.844533,41.784834],[2.844478,41.784829],[2.844423,41.784826],[2.844216,41.784806],[2.844161,41.784807],[2.844138,41.784792],[2.844082,41.784749],[2.844035,41.784703],[2.843942,41.784609],[2.843849,41.784524],[2.843758,41.78444],[2.84373,41.78441],[2.843705,41.784378],[2.843664,41.784309],[2.843642,41.784264],[2.843618,41.784217],[2.843591,41.784188],[2.843511,41.78413],[2.84348,41.784108],[2.843431,41.784073],[2.843353,41.784017],[2.843274,41.783961],[2.843225,41.783926],[2.843195,41.783906],[2.843178,41.783892],[2.843168,41.783883],[2.843142,41.783844],[2.84311,41.783791],[2.843088,41.783752],[2.84307,41.783711],[2.843033,41.783628],[2.843025,41.783615],[2.842991,41.783537],[2.842982,41.783516],[2.842975,41.783504],[2.842969,41.783493],[2.842966,41.783488],[2.842958,41.783477],[2.842949,41.783465],[2.842938,41.783453],[2.842927,41.78344],[2.842915,41.783427],[2.842903,41.783416],[2.84289,41.783406],[2.842885,41.783402],[2.842879,41.783398],[2.842866,41.783392],[2.842859,41.783389],[2.842851,41.783386],[2.842833,41.78338],[2.842814,41.783375],[2.842795,41.783371],[2.842776,41.783367],[2.84276,41.783364],[2.842753,41.783363],[2.842737,41.783362],[2.842718,41.783362],[2.842698,41.783362],[2.842677,41.783363],[2.842649,41.783365],[2.842633,41.783367],[2.842571,41.783385],[2.8422,41.783231],[2.842207,41.783585],[2.84254,41.783657],[2.842539,41.783677],[2.842536,41.783744],[2.842535,41.783804],[2.842534,41.783863],[2.842523,41.783965],[2.842511,41.784067],[2.842507,41.784106],[2.842499,41.784144],[2.84249,41.784168],[2.842471,41.784198],[2.842431,41.784246],[2.84239,41.784294],[2.842359,41.78433],[2.842329,41.784368],[2.842318,41.784387],[2.842311,41.784407],[2.842309,41.784424],[2.842307,41.784441],[2.842306,41.784448],[2.842303,41.784465],[2.842301,41.784472],[2.842298,41.784484],[2.842294,41.784493],[2.842287,41.784501],[2.842279,41.784508],[2.842269,41.784517],[2.842259,41.784526],[2.842239,41.784537],[2.842212,41.784551],[2.842177,41.784559],[2.842148,41.784564],[2.842152,41.784587],[2.842185,41.784582],[2.842244,41.784568],[2.842303,41.784555],[2.842351,41.784545],[2.842383,41.784537],[2.842412,41.78453],[2.842433,41.784529],[2.842457,41.784534],[2.842513,41.784548],[2.842594,41.784579],[2.842673,41.784615],[2.84275,41.784653],[2.842784,41.784671],[2.842864,41.784718],[2.842887,41.784733],[2.842628,41.784908],[2.842898,41.785069],[2.843129,41.784943],[2.843194,41.784998],[2.842979,41.785148],[2.843454,41.785446],[2.843571,41.78536],[2.843596,41.785342],[2.844202,41.784898],[2.844318,41.784981],[2.844333,41.784992],[2.844481,41.785098],[2.844589,41.785196],[2.844745,41.785337],[2.844826,41.785408],[2.844951,41.785513],[2.845075,41.785617],[2.84522,41.785738],[2.845368,41.785858],[2.845434,41.785902],[2.845539,41.785959],[2.84559,41.785988],[2.845639,41.786018],[2.845705,41.786063],[2.845747,41.786094],[2.845758,41.786105],[2.845787,41.786141],[2.845821,41.786175],[2.845857,41.786202],[2.845884,41.786218],[2.846511,41.785826],[2.846497,41.785807],[2.846311,41.785705],[2.846164,41.785624],[2.84617,41.785169],[2.846178,41.785146],[2.846236,41.784982],[2.846286,41.784837],[2.846292,41.784821],[2.846354,41.784657],[2.846473,41.784663],[2.846578,41.784429],[2.846543,41.784423],[2.846661,41.784137],[2.847119,41.784221],[2.847153,41.784056],[2.847065,41.784031],[2.846866,41.783979],[2.846677,41.783928],[2.846535,41.783892],[2.84629,41.783842],[2.846292,41.783831],[2.846212,41.783829],[2.846195,41.783829],[2.846211,41.783832],[2.846181,41.783959],[2.846151,41.784086],[2.84612,41.784199],[2.846084,41.784312],[2.846046,41.784419],[2.846007,41.784525],[2.845957,41.784649],[2.845903,41.784772],[2.845872,41.784834],[2.84582,41.784928],[2.84577,41.785024],[2.845745,41.785084],[2.845729,41.785131],[2.845723,41.785157],[2.845692,41.785252],[2.845278,41.785227],[2.845221,41.785129],[2.845177,41.785043]]]]}},{"type":"Feature","id":"172137_172137 AP05 SEL 3","properties":{"area_id":"172137_172137 AP05 SEL 3","nom":"Terrafortuna","codi_icgc":"172137 AP05 SEL 3","categoria":"Àrees de poblament","codi_municipi":"172137","municipi":"Vidreres","codi_comarca":"34","comarca":"Selva","provincia":"Girona","font":"ICGC Àrees de poblament v3r1 202602"},"geometry":{"type":"MultiPolygon","coordinates":[[[[2.78468,41.760327],[2.784772,41.760297],[2.784826,41.760279],[2.784884,41.760255],[2.784923,41.760238],[2.784991,41.760199],[2.785035,41.760166],[2.785076,41.760135],[2.785087,41.760127],[2.785178,41.760193],[2.785199,41.760209],[2.785478,41.760106],[2.785719,41.760014],[2.78593,41.759909],[2.785941,41.759919],[2.786132,41.759818],[2.786362,41.759743],[2.786394,41.75972],[2.786473,41.759668],[2.786665,41.759607],[2.786592,41.759511],[2.786537,41.759448],[2.786514,41.759407],[2.786486,41.759361],[2.78624,41.759207],[2.786237,41.759205],[2.786218,41.759187],[2.786199,41.759169],[2.786174,41.759146],[2.786129,41.759112],[2.786086,41.759078],[2.786064,41.759055],[2.786031,41.759011],[2.785985,41.758943],[2.785956,41.758912],[2.785939,41.758899],[2.785919,41.758888],[2.785827,41.75884],[2.785798,41.758825],[2.785692,41.758773],[2.785631,41.758743],[2.785566,41.75871],[2.785518,41.758687],[2.785471,41.758664],[2.785435,41.758643],[2.785417,41.758632],[2.785403,41.758627],[2.785401,41.758629],[2.785391,41.758621],[2.785373,41.758613],[2.785314,41.758588],[2.785286,41.758627],[2.785254,41.758667],[2.785214,41.758715],[2.785172,41.75876],[2.785123,41.758807],[2.785074,41.758854],[2.784995,41.758927],[2.784915,41.759],[2.784809,41.759093],[2.7847,41.759185],[2.78463,41.759242],[2.784558,41.759296],[2.784503,41.759334],[2.784447,41.75937],[2.784394,41.759403],[2.78434,41.759435],[2.784286,41.759464],[2.78423,41.759491],[2.784162,41.759521],[2.784092,41.75955],[2.784086,41.759553],[2.784028,41.759575],[2.783963,41.759598],[2.783891,41.75962],[2.783818,41.75964],[2.783754,41.759657],[2.783691,41.759671],[2.783611,41.759686],[2.78353,41.759699],[2.783464,41.759709],[2.783398,41.759718],[2.783332,41.759726],[2.783267,41.759733],[2.783192,41.75974],[2.783118,41.759747],[2.783055,41.759753],[2.782991,41.759759],[2.782899,41.759769],[2.782808,41.75978],[2.782734,41.759791],[2.782661,41.759803],[2.782594,41.759817],[2.782528,41.759834],[2.782462,41.759853],[2.782439,41.759861],[2.782398,41.759875],[2.78237,41.759884],[2.782351,41.759889],[2.782337,41.759892],[2.782321,41.759893],[2.7823,41.759894],[2.782291,41.759892],[2.782265,41.759889],[2.782247,41.759885],[2.782231,41.759879],[2.782214,41.759872],[2.7822,41.759863],[2.782186,41.759853],[2.782175,41.759843],[2.782157,41.759819],[2.782151,41.759808],[2.782148,41.759801],[2.782144,41.759779],[2.782144,41.759746],[2.782144,41.759705],[2.782148,41.759646],[2.782158,41.759523],[2.782158,41.759515],[2.782162,41.759494],[2.782163,41.759483],[2.782165,41.759472],[2.782166,41.759465],[2.78217,41.75945],[2.782174,41.759443],[2.782182,41.759437],[2.782189,41.759432],[2.782198,41.759429],[2.782206,41.759427],[2.782217,41.759426],[2.782227,41.759426],[2.782236,41.759429],[2.782268,41.759443],[2.782303,41.759459],[2.782392,41.759504],[2.782459,41.759529],[2.782529,41.759547],[2.782601,41.75956],[2.782673,41.759565],[2.782714,41.759564],[2.782797,41.759555],[2.782891,41.759542],[2.783006,41.759523],[2.783173,41.759484],[2.783269,41.759458],[2.783306,41.759449],[2.783345,41.759445],[2.783384,41.759448],[2.783419,41.759455],[2.783512,41.759476],[2.783574,41.759485],[2.783638,41.759488],[2.783701,41.759486],[2.783764,41.759478],[2.783824,41.759464],[2.783882,41.759445],[2.783937,41.759421],[2.783988,41.759392],[2.78399,41.75939],[2.784276,41.759195],[2.784639,41.758938],[2.784688,41.758899],[2.78473,41.758856],[2.784765,41.75881],[2.784795,41.758762],[2.784816,41.758711],[2.78483,41.758659],[2.784837,41.758607],[2.78493,41.758599],[2.784995,41.758535],[2.785028,41.7585],[2.785042,41.758486],[2.785046,41.758474],[2.785049,41.758464],[2.785048,41.758455],[2.785035,41.758443],[2.785022,41.75843],[2.785005,41.758413],[2.784983,41.758391],[2.784965,41.758371],[2.784943,41.758339],[2.784935,41.758342],[2.784825,41.758167],[2.784764,41.758046],[2.784714,41.757973],[2.784662,41.757918],[2.784329,41.757528],[2.784171,41.757377],[2.784168,41.757373],[2.783885,41.757019],[2.783867,41.756995],[2.783683,41.757136],[2.783657,41.757138],[2.783644,41.757142],[2.783633,41.757145],[2.783619,41.757154],[2.783612,41.757158],[2.78361,41.75716],[2.783602,41.75717],[2.783597,41.757174],[2.78359,41.757193],[2.783384,41.757319],[2.783378,41.757323],[2.783139,41.757501],[2.78317,41.757495],[2.783196,41.757497],[2.783116,41.757554],[2.783089,41.757572],[2.783088,41.757569],[2.783091,41.757554],[2.782998,41.757579],[2.782842,41.757657],[2.782753,41.757695],[2.782702,41.757725],[2.782669,41.757747],[2.782646,41.75777],[2.782623,41.757823],[2.782621,41.757844],[2.782628,41.757844],[2.782559,41.757879],[2.782565,41.75787],[2.782582,41.757857],[2.782578,41.75785],[2.782271,41.757994],[2.782178,41.758034],[2.782029,41.758097],[2.781755,41.758249],[2.78153,41.758375],[2.781522,41.75838],[2.781329,41.758503],[2.781246,41.758559],[2.781226,41.758647],[2.781217,41.758702],[2.781216,41.75873],[2.781218,41.758757],[2.781221,41.758773],[2.781231,41.758795],[2.781248,41.758816],[2.78127,41.758835],[2.781295,41.75885],[2.781332,41.75887],[2.781371,41.758886],[2.781399,41.758893],[2.781427,41.758895],[2.781441,41.758893],[2.781453,41.758885],[2.781461,41.758872],[2.781461,41.758859],[2.781539,41.758965],[2.781546,41.758982],[2.781564,41.759026],[2.781591,41.75904],[2.781627,41.759058],[2.781773,41.759131],[2.781921,41.759203],[2.781969,41.759228],[2.782016,41.759254],[2.782031,41.759262],[2.782044,41.759272],[2.78205,41.759282],[2.782057,41.759292],[2.782061,41.759298],[2.78207,41.759325],[2.782073,41.759352],[2.782073,41.759355],[2.782073,41.759405],[2.782073,41.759422],[2.782072,41.759428],[2.782072,41.759436],[2.782067,41.759462],[2.782063,41.759471],[2.782019,41.759577],[2.782012,41.759598],[2.782008,41.759608],[2.781658,41.759498],[2.780989,41.759869],[2.781226,41.760134],[2.78198,41.759749],[2.781975,41.759794],[2.781975,41.759796],[2.781975,41.759817],[2.781977,41.759851],[2.781978,41.759866],[2.781986,41.759941],[2.78199,41.759971],[2.781991,41.759994],[2.78199,41.76002],[2.781986,41.760038],[2.782046,41.760138],[2.782058,41.760132],[2.78205,41.760153],[2.782041,41.760174],[2.782003,41.760257],[2.781962,41.76034],[2.781894,41.76042],[2.781832,41.760497],[2.781786,41.760559],[2.781752,41.760614],[2.78172,41.760689],[2.781704,41.760744],[2.781689,41.76081],[2.781689,41.760845],[2.781689,41.760879],[2.781707,41.760931],[2.781756,41.761],[2.781773,41.761025],[2.781831,41.761099],[2.78189,41.761172],[2.781927,41.761218],[2.781963,41.761264],[2.782056,41.761381],[2.782155,41.761508],[2.782255,41.761635],[2.782288,41.761681],[2.782329,41.761752],[2.782369,41.761823],[2.782473,41.761998],[2.782577,41.762174],[2.782592,41.762186],[2.782618,41.762202],[2.782646,41.762209],[2.782672,41.762213],[2.782687,41.762398],[2.78273,41.762487],[2.782885,41.762543],[2.782987,41.76258],[2.782996,41.762583],[2.783331,41.762601],[2.783333,41.762598],[2.783365,41.762557],[2.783582,41.762626],[2.783597,41.762631],[2.783628,41.762636],[2.783626,41.76264],[2.783892,41.762686],[2.783939,41.762694],[2.783974,41.762699],[2.784161,41.762727],[2.784459,41.762788],[2.784467,41.76279],[2.784478,41.762792],[2.784694,41.762829],[2.7847,41.76281],[2.784703,41.762802],[2.784748,41.762627],[2.784755,41.762627],[2.784788,41.762627],[2.784831,41.762627],[2.784875,41.762628],[2.784923,41.762631],[2.784971,41.762636],[2.785009,41.76264],[2.785047,41.762647],[2.785088,41.762658],[2.785124,41.762675],[2.785219,41.762733],[2.785313,41.762791],[2.785395,41.76284],[2.785466,41.76288],[2.785493,41.762895],[2.785518,41.762903],[2.785548,41.762908],[2.785577,41.762909],[2.785608,41.762908],[2.785642,41.762906],[2.785675,41.762902],[2.785704,41.762894],[2.785744,41.762881],[2.785776,41.762865],[2.785806,41.762847],[2.785834,41.762828],[2.785903,41.762732],[2.785907,41.762711],[2.785909,41.762681],[2.78591,41.762651],[2.785908,41.762615],[2.786077,41.762626],[2.786113,41.762628],[2.786158,41.762529],[2.786286,41.762266],[2.786582,41.762313],[2.787192,41.762417],[2.787208,41.762335],[2.787216,41.762295],[2.787175,41.762053],[2.787159,41.761997],[2.787119,41.761874],[2.787083,41.761762],[2.787071,41.761699],[2.787039,41.761542],[2.787018,41.761497],[2.787001,41.761431],[2.786989,41.761391],[2.786971,41.761373],[2.786895,41.76137],[2.786819,41.76142],[2.786811,41.761426],[2.786798,41.76144],[2.78679,41.761448],[2.78677,41.76147],[2.786749,41.761462],[2.786723,41.761455],[2.78671,41.761452],[2.78666,41.761445],[2.78661,41.761441],[2.786555,41.761438],[2.7865,41.761435],[2.786445,41.761434],[2.786391,41.761433],[2.786346,41.761434],[2.786301,41.761435],[2.786269,41.761435],[2.786238,41.761434],[2.786211,41.761433],[2.786185,41.761431],[2.786106,41.76142],[2.786028,41.761409],[2.785893,41.761387],[2.785758,41.761366],[2.785702,41.76136],[2.785646,41.761358],[2.78561,41.76136],[2.785593,41.761363],[2.785281,41.761329],[2.785023,41.761308],[2.785019,41.761308],[2.784834,41.76129],[2.784801,41.761236],[2.784841,41.761229],[2.784825,41.761143],[2.784775,41.760868],[2.784735,41.760676],[2.78466,41.760342],[2.78468,41.760327]]]]}},{"type":"Feature","id":"172137_172137 AP01 SEL 3","properties":{"area_id":"172137_172137 AP01 SEL 3","nom":"Vidreres","codi_icgc":"172137 AP01 SEL 3","categoria":"Àrees de poblament","codi_municipi":"172137","municipi":"Vidreres","codi_comarca":"34","comarca":"Selva","provincia":"Girona","font":"ICGC Àrees de poblament v3r1 202602"},"geometry":{"type":"MultiPolygon","coordinates":[[[[2.766447,41.791097],[2.767604,41.790403],[2.767468,41.790155],[2.767581,41.790109],[2.767581,41.790103],[2.76763,41.790067],[2.76774,41.790026],[2.76791,41.789974],[2.768244,41.789873],[2.768768,41.789717],[2.76932,41.789551],[2.769336,41.789575],[2.76936,41.789619],[2.769365,41.789628],[2.769456,41.789787],[2.770938,41.78944],[2.771253,41.789968],[2.771538,41.789881],[2.771428,41.789648],[2.771432,41.789647],[2.771388,41.789557],[2.771318,41.789419],[2.771234,41.789271],[2.771191,41.789197],[2.771153,41.789123],[2.771143,41.789104],[2.771137,41.789091],[2.771135,41.789081],[2.771134,41.789072],[2.771099,41.789057],[2.771048,41.789044],[2.771005,41.789025],[2.770972,41.788983],[2.770939,41.788904],[2.770893,41.788896],[2.770869,41.788904],[2.770845,41.788912],[2.770833,41.788893],[2.770254,41.789064],[2.770266,41.789088],[2.770229,41.789098],[2.77021,41.789101],[2.770187,41.789099],[2.77017,41.789093],[2.770166,41.789092],[2.770149,41.78908],[2.770143,41.789071],[2.770074,41.789092],[2.770078,41.789104],[2.770076,41.789122],[2.770066,41.789138],[2.770049,41.789148],[2.770005,41.789161],[2.769995,41.78914],[2.769388,41.789324],[2.769399,41.789346],[2.769359,41.789355],[2.769337,41.789356],[2.769315,41.789352],[2.769296,41.789342],[2.769286,41.789331],[2.76923,41.789348],[2.769231,41.789365],[2.769226,41.789381],[2.769213,41.789394],[2.769195,41.789404],[2.769156,41.789415],[2.769144,41.789392],[2.76854,41.789576],[2.768554,41.789601],[2.768514,41.789611],[2.768494,41.789614],[2.768472,41.789611],[2.768453,41.789602],[2.768439,41.78959],[2.768432,41.789574],[2.768417,41.789545],[2.768328,41.789572],[2.768218,41.78938],[2.768086,41.789151],[2.767644,41.788379],[2.767626,41.788346],[2.767587,41.788354],[2.767533,41.788362],[2.767295,41.788404],[2.767233,41.788427],[2.766871,41.788566],[2.766214,41.788767],[2.76614,41.788773],[2.766024,41.788669],[2.765932,41.788586],[2.765912,41.788599],[2.765853,41.788636],[2.765645,41.788769],[2.765006,41.789177],[2.764549,41.78946],[2.764529,41.789473],[2.764513,41.789488],[2.7645,41.789505],[2.764493,41.789523],[2.764491,41.789541],[2.764493,41.789558],[2.764498,41.789575],[2.764508,41.789591],[2.764561,41.789637],[2.765481,41.790445],[2.76518,41.790626],[2.76514,41.79059],[2.764777,41.79083],[2.764732,41.79086],[2.764907,41.791027],[2.764967,41.791133],[2.765199,41.791135],[2.766278,41.791172],[2.766398,41.791119],[2.766411,41.791113],[2.766447,41.791097]]],[[[2.782385,41.794677],[2.782507,41.794601],[2.782715,41.794452],[2.782823,41.794333],[2.782883,41.794247],[2.783068,41.79389],[2.78315,41.793743],[2.783225,41.793599],[2.7833,41.793446],[2.783341,41.793439],[2.783422,41.793493],[2.783426,41.793496],[2.783575,41.793615],[2.783584,41.793622],[2.78366,41.793707],[2.783652,41.793718],[2.783715,41.79379],[2.783728,41.793783],[2.78378,41.793843],[2.783866,41.793865],[2.783919,41.793742],[2.783972,41.793619],[2.783994,41.793567],[2.784016,41.793516],[2.784073,41.793381],[2.784133,41.793247],[2.784166,41.793254],[2.784339,41.793288],[2.784295,41.793386],[2.784438,41.793418],[2.784868,41.793462],[2.785034,41.793494],[2.785104,41.793517],[2.785102,41.793524],[2.785139,41.79353],[2.785154,41.793534],[2.785446,41.793632],[2.785587,41.79339],[2.785673,41.793244],[2.785634,41.793237],[2.785657,41.793197],[2.785579,41.793177],[2.785461,41.793141],[2.785363,41.793108],[2.785332,41.793091],[2.785312,41.793075],[2.785381,41.792945],[2.785578,41.792529],[2.785632,41.792426],[2.785677,41.79234],[2.786018,41.792481],[2.786261,41.792582],[2.786268,41.792585],[2.786348,41.792615],[2.786366,41.792622],[2.786478,41.792666],[2.786523,41.792686],[2.786559,41.792702],[2.786653,41.792736],[2.786758,41.792774],[2.786801,41.792786],[2.786865,41.792807],[2.786941,41.792709],[2.78695,41.792696],[2.787065,41.792548],[2.78713,41.792478],[2.787194,41.792408],[2.787285,41.792309],[2.787376,41.79221],[2.787441,41.792137],[2.787578,41.791987],[2.787596,41.791971],[2.787614,41.791958],[2.787633,41.79195],[2.787645,41.791948],[2.787658,41.791947],[2.787673,41.791949],[2.787685,41.791954],[2.787709,41.791966],[2.787782,41.792007],[2.788135,41.792231],[2.788489,41.792456],[2.788704,41.792598],[2.788918,41.792739],[2.789061,41.792801],[2.789227,41.792784],[2.789271,41.792806],[2.789316,41.792796],[2.789367,41.79283],[2.789688,41.793028],[2.789954,41.793231],[2.790225,41.79337],[2.790288,41.793408],[2.790429,41.793308],[2.790499,41.793256],[2.790531,41.793218],[2.790528,41.793178],[2.790522,41.793135],[2.790468,41.793082],[2.790315,41.792953],[2.790074,41.792743],[2.789594,41.79233],[2.789604,41.792289],[2.789433,41.792145],[2.789387,41.792102],[2.78927,41.791999],[2.788989,41.791758],[2.788914,41.791693],[2.788709,41.791518],[2.788462,41.791305],[2.788469,41.791302],[2.788284,41.791142],[2.788133,41.791021],[2.787986,41.790906],[2.787739,41.790711],[2.78727,41.79028],[2.786758,41.789908],[2.786755,41.789906],[2.786721,41.789878],[2.786716,41.789875],[2.78668,41.789879],[2.78666,41.789882],[2.786625,41.789886],[2.786619,41.789887],[2.786492,41.789794],[2.786464,41.789773],[2.786385,41.789716],[2.78626,41.789622],[2.786227,41.789598],[2.786125,41.789523],[2.786115,41.789525],[2.786087,41.789501],[2.786116,41.789463],[2.786118,41.789441],[2.786102,41.789428],[2.785976,41.789392],[2.78569,41.789299],[2.78566,41.789258],[2.785621,41.789205],[2.785396,41.788899],[2.785171,41.789153],[2.785076,41.78925],[2.785061,41.789265],[2.784967,41.78934],[2.784932,41.789371],[2.784797,41.789316],[2.784728,41.789261],[2.78465,41.7892],[2.784536,41.789163],[2.784356,41.789059],[2.784368,41.789037],[2.784497,41.788795],[2.784377,41.788745],[2.784273,41.788702],[2.784233,41.78878],[2.7843,41.788803],[2.784285,41.788857],[2.784278,41.788865],[2.784229,41.789025],[2.784171,41.789156],[2.784016,41.789116],[2.783843,41.789071],[2.783607,41.789],[2.783605,41.789004],[2.783548,41.788989],[2.783438,41.78896],[2.783409,41.78895],[2.783053,41.788838],[2.783053,41.788831],[2.782982,41.788811],[2.782987,41.788801],[2.783026,41.788702],[2.783032,41.788686],[2.783001,41.788575],[2.782971,41.788551],[2.782824,41.78852],[2.782739,41.7885],[2.782659,41.788481],[2.782556,41.788456],[2.782483,41.788437],[2.782399,41.788412],[2.78224,41.788365],[2.782157,41.78834],[2.782017,41.788305],[2.781808,41.788244],[2.781648,41.788198],[2.781523,41.788162],[2.781516,41.78816],[2.781458,41.788148],[2.781349,41.788126],[2.781184,41.78808],[2.781198,41.788047],[2.781103,41.788017],[2.781108,41.78801],[2.781101,41.787992],[2.781087,41.787956],[2.781065,41.787907],[2.78104,41.787858],[2.781018,41.787817],[2.780987,41.787777],[2.780954,41.787752],[2.780917,41.787732],[2.780865,41.787711],[2.78081,41.787684],[2.780755,41.787656],[2.780741,41.787648],[2.78073,41.787637],[2.780728,41.787628],[2.780731,41.787619],[2.780737,41.787608],[2.78068,41.78758],[2.780413,41.787451],[2.780345,41.787503],[2.780319,41.787523],[2.780192,41.787622],[2.779872,41.787875],[2.779858,41.787886],[2.779647,41.787871],[2.779166,41.787777],[2.778989,41.787777],[2.778788,41.787212],[2.778734,41.787224],[2.778364,41.787306],[2.778353,41.787287],[2.778277,41.787163],[2.77819,41.787054],[2.778174,41.787035],[2.778158,41.787016],[2.778128,41.786982],[2.778112,41.786966],[2.778096,41.786949],[2.778051,41.786908],[2.778005,41.786866],[2.77798,41.786842],[2.777956,41.786819],[2.777936,41.786797],[2.777927,41.786785],[2.777848,41.786692],[2.777815,41.786655],[2.777753,41.786584],[2.777727,41.786554],[2.777714,41.78654],[2.77771,41.786536],[2.777706,41.786525],[2.777707,41.78652],[2.777709,41.786514],[2.777719,41.786506],[2.777732,41.786502],[2.777867,41.786481],[2.778142,41.786424],[2.778249,41.786401],[2.778295,41.786391],[2.778502,41.786342],[2.778501,41.786274],[2.778493,41.786164],[2.77848,41.785632],[2.77848,41.785617],[2.77849,41.785554],[2.778494,41.78555],[2.778494,41.785529],[2.778549,41.785167],[2.778565,41.78508],[2.778566,41.785063],[2.778571,41.785002],[2.778578,41.784942],[2.778564,41.784946],[2.778389,41.784948],[2.778215,41.784949],[2.778021,41.78495],[2.777983,41.78495],[2.777828,41.784951],[2.777638,41.784954],[2.777449,41.784957],[2.777168,41.784959],[2.776889,41.784959],[2.776861,41.784958],[2.77681,41.784957],[2.776781,41.784965],[2.776757,41.78498],[2.776741,41.784998],[2.776734,41.78502],[2.776517,41.785059],[2.776461,41.785559],[2.776528,41.785636],[2.776862,41.785618],[2.776888,41.785623],[2.776899,41.785627],[2.776906,41.78563],[2.776914,41.785634],[2.776928,41.785642],[2.776944,41.785654],[2.776953,41.785663],[2.77696,41.785672],[2.777013,41.785741],[2.777609,41.786484],[2.777674,41.786585],[2.777634,41.786593],[2.775942,41.786906],[2.775938,41.78693],[2.775925,41.787014],[2.775921,41.78704],[2.77592,41.787066],[2.775919,41.787075],[2.775922,41.78715],[2.775925,41.787173],[2.775856,41.787207],[2.775846,41.787211],[2.775797,41.787235],[2.775723,41.787253],[2.775513,41.787303],[2.775507,41.787241],[2.775503,41.787198],[2.775346,41.787209],[2.775198,41.787219],[2.775203,41.787253],[2.775206,41.787273],[2.775159,41.787276],[2.77516,41.787287],[2.77508,41.787293],[2.775094,41.787413],[2.774922,41.787418],[2.77472,41.787424],[2.774648,41.787426],[2.774417,41.787432],[2.774391,41.787433],[2.773882,41.787581],[2.773873,41.787564],[2.773827,41.787474],[2.773813,41.787443],[2.773768,41.787454],[2.773667,41.787486],[2.773638,41.787495],[2.7736,41.787506],[2.773296,41.787597],[2.77326,41.787607],[2.772849,41.787733],[2.772769,41.787757],[2.771955,41.788003],[2.771905,41.788019],[2.771982,41.788155],[2.772004,41.788194],[2.772115,41.78839],[2.772366,41.788309],[2.772481,41.788519],[2.772521,41.788506],[2.772589,41.788488],[2.772635,41.788479],[2.772653,41.788506],[2.772716,41.788626],[2.772755,41.788691],[2.772774,41.788726],[2.772846,41.78886],[2.772827,41.788871],[2.77278,41.788903],[2.77276,41.788921],[2.772712,41.788956],[2.772453,41.789141],[2.772971,41.789715],[2.772986,41.789732],[2.773023,41.7897],[2.773111,41.78963],[2.773202,41.789561],[2.773241,41.789529],[2.773278,41.789496],[2.773298,41.789473],[2.77301,41.789184],[2.77343,41.788931],[2.773534,41.788861],[2.773548,41.788866],[2.773563,41.788875],[2.77358,41.788888],[2.77361,41.788925],[2.773684,41.789039],[2.773769,41.789164],[2.773907,41.789334],[2.773948,41.789383],[2.774774,41.789405],[2.774929,41.78941],[2.774928,41.789644],[2.775253,41.789668],[2.775253,41.789803],[2.77524,41.790295],[2.774722,41.790255],[2.774697,41.790265],[2.774655,41.790282],[2.774621,41.790321],[2.774539,41.79032],[2.774535,41.79033],[2.774469,41.790505],[2.774404,41.79068],[2.774356,41.790806],[2.774373,41.790814],[2.774331,41.790955],[2.774587,41.790998],[2.77461,41.791002],[2.774609,41.791046],[2.774625,41.791068],[2.774658,41.791083],[2.775144,41.791147],[2.775164,41.791153],[2.775176,41.791156],[2.775182,41.791159],[2.7752,41.791168],[2.775207,41.791175],[2.777334,41.791443],[2.777369,41.791476],[2.777381,41.791503],[2.777381,41.791548],[2.777328,41.791919],[2.777263,41.792267],[2.777207,41.792416],[2.777174,41.792541],[2.77715,41.792749],[2.777157,41.792898],[2.777113,41.793107],[2.77708,41.793232],[2.77702,41.793407],[2.77698,41.793547],[2.777012,41.793702],[2.77704,41.793708],[2.777067,41.793719],[2.777076,41.793725],[2.777197,41.79381],[2.777307,41.793877],[2.777421,41.793938],[2.77754,41.793996],[2.777609,41.794026],[2.777695,41.794073],[2.777757,41.794111],[2.777799,41.794134],[2.777865,41.794165],[2.777931,41.794194],[2.778066,41.794255],[2.7782,41.794315],[2.778241,41.794331],[2.778284,41.794345],[2.778323,41.794354],[2.778363,41.794361],[2.778384,41.794363],[2.778404,41.794365],[2.778546,41.794379],[2.778564,41.794381],[2.778568,41.794383],[2.77857,41.794386],[2.778572,41.79439],[2.778571,41.7944],[2.778518,41.794687],[2.778507,41.794736],[2.778499,41.794775],[2.77843,41.795117],[2.778709,41.795173],[2.77872,41.795176],[2.77897,41.795227],[2.779014,41.795231],[2.779019,41.795196],[2.779071,41.794963],[2.779074,41.794953],[2.779321,41.794981],[2.779388,41.794878],[2.779646,41.794939],[2.779703,41.794939],[2.779783,41.794761],[2.779879,41.794773],[2.780079,41.79482],[2.780165,41.794832],[2.780216,41.794723],[2.780254,41.794732],[2.780293,41.794639],[2.780299,41.794625],[2.780308,41.794602],[2.780313,41.794602],[2.78035,41.794607],[2.780387,41.794614],[2.780479,41.794636],[2.780615,41.79467],[2.780751,41.794704],[2.780849,41.794729],[2.780884,41.794738],[2.781018,41.794773],[2.781071,41.794784],[2.781081,41.794785],[2.781114,41.794789],[2.781209,41.794827],[2.78138,41.794895],[2.781546,41.794961],[2.781558,41.794966],[2.781446,41.795078],[2.781428,41.795097],[2.78117,41.795379],[2.781184,41.795384],[2.781252,41.795419],[2.781379,41.795478],[2.781656,41.795604],[2.781684,41.795624],[2.781712,41.795643],[2.781739,41.795595],[2.781791,41.795509],[2.781797,41.795499],[2.781855,41.795402],[2.7819,41.795319],[2.781942,41.795235],[2.781984,41.795146],[2.782026,41.795058],[2.782065,41.794987],[2.78211,41.79492],[2.782138,41.794887],[2.782156,41.794868],[2.782385,41.794677]]]]}},{"type":"Feature","id":"172137_172137 AP02 SEL 3","properties":{"area_id":"172137_172137 AP02 SEL 3","nom":"el Mas Flassià","codi_icgc":"172137 AP02 SEL 3","categoria":"Àrees de poblament","codi_municipi":"172137","municipi":"Vidreres","codi_comarca":"34","comarca":"Selva","provincia":"Girona","font":"ICGC Àrees de poblament v3r1 202602"},"geometry":{"type":"MultiPolygon","coordinates":[[[[2.767936,41.790759],[2.767932,41.790753],[2.767723,41.790852],[2.767468,41.790976],[2.766965,41.791282],[2.766675,41.791479],[2.766836,41.7916],[2.766927,41.791652],[2.766942,41.791662],[2.766952,41.791666],[2.766986,41.791736],[2.766976,41.791741],[2.766996,41.791763],[2.767105,41.791866],[2.767139,41.791888],[2.767142,41.791891],[2.767225,41.791962],[2.76734,41.792023],[2.767327,41.792036],[2.767322,41.792042],[2.767311,41.792055],[2.767303,41.792064],[2.767294,41.792075],[2.767258,41.792116],[2.767235,41.79215],[2.76723,41.792157],[2.767215,41.79219],[2.767201,41.792242],[2.767195,41.792294],[2.767196,41.792368],[2.7672,41.792442],[2.767204,41.792473],[2.767204,41.792482],[2.767204,41.792485],[2.767202,41.792488],[2.767197,41.792491],[2.76719,41.792495],[2.767186,41.792496],[2.76718,41.792497],[2.767175,41.792497],[2.767168,41.792496],[2.76716,41.792494],[2.767154,41.792492],[2.767143,41.792487],[2.766767,41.792283],[2.766752,41.792342],[2.766741,41.792353],[2.76675,41.792461],[2.766791,41.792592],[2.766949,41.792843],[2.767121,41.793047],[2.767214,41.793159],[2.767263,41.793219],[2.767382,41.793363],[2.767407,41.793395],[2.767412,41.7934],[2.767503,41.793512],[2.767682,41.793698],[2.767694,41.793711],[2.767754,41.793773],[2.767947,41.793934],[2.767974,41.793957],[2.767993,41.793973],[2.768129,41.794098],[2.768198,41.794161],[2.768278,41.794235],[2.768335,41.794286],[2.768428,41.794377],[2.768628,41.794569],[2.768677,41.794616],[2.768777,41.794719],[2.768755,41.794745],[2.768681,41.794835],[2.768575,41.79495],[2.768512,41.795016],[2.768423,41.795117],[2.768337,41.79522],[2.768225,41.795355],[2.768113,41.79549],[2.768017,41.795609],[2.767922,41.795729],[2.767899,41.795762],[2.767852,41.795819],[2.76781,41.795882],[2.767785,41.795911],[2.76777,41.795922],[2.767757,41.795926],[2.767724,41.795931],[2.767694,41.795935],[2.767682,41.795935],[2.767561,41.795948],[2.767555,41.795948],[2.767474,41.795957],[2.767403,41.795959],[2.767387,41.795965],[2.767322,41.795989],[2.767322,41.796004],[2.767326,41.796129],[2.767296,41.79641],[2.7673,41.796411],[2.767822,41.796419],[2.767833,41.796471],[2.767835,41.796479],[2.767853,41.796568],[2.767855,41.796582],[2.767884,41.796739],[2.76789,41.796771],[2.767918,41.796857],[2.767992,41.797062],[2.768068,41.797265],[2.768078,41.797288],[2.768087,41.797308],[2.768093,41.79732],[2.768126,41.797371],[2.768272,41.797703],[2.768503,41.797907],[2.768499,41.797909],[2.768138,41.798161],[2.768151,41.798173],[2.768198,41.798207],[2.768593,41.79836],[2.769438,41.79866],[2.769459,41.798638],[2.77078,41.799085],[2.771774,41.799386],[2.772279,41.799561],[2.772836,41.799777],[2.772944,41.799748],[2.772992,41.799712],[2.773337,41.799262],[2.773654,41.79897],[2.773975,41.798624],[2.774187,41.798391],[2.774401,41.798182],[2.774845,41.797707],[2.775035,41.797492],[2.77515,41.797352],[2.775304,41.797181],[2.775419,41.797043],[2.775531,41.796858],[2.77564,41.796639],[2.775766,41.79632],[2.775894,41.796018],[2.776037,41.795644],[2.776052,41.795593],[2.776248,41.795191],[2.776455,41.794634],[2.776461,41.794619],[2.776025,41.794514],[2.776113,41.794264],[2.776251,41.794021],[2.776296,41.793935],[2.776408,41.793703],[2.776472,41.793555],[2.776536,41.793391],[2.776595,41.793162],[2.776724,41.792679],[2.776791,41.792435],[2.776888,41.792056],[2.776891,41.792013],[2.776529,41.791955],[2.775797,41.791856],[2.775424,41.791808],[2.77512,41.791769],[2.774382,41.79166],[2.773901,41.791583],[2.773271,41.791474],[2.772681,41.791382],[2.772736,41.791111],[2.772561,41.791087],[2.771549,41.790951],[2.771326,41.79092],[2.771001,41.790869],[2.770574,41.790808],[2.770014,41.790731],[2.769619,41.790676],[2.769497,41.790669],[2.76913,41.790668],[2.768756,41.790679],[2.768258,41.790714],[2.768055,41.79074],[2.767936,41.790759]]]]}},{"type":"Feature","id":"172137_172137 AP11 SEL 2","properties":{"area_id":"172137_172137 AP11 SEL 2","nom":"el Molí del Traginer","codi_icgc":"172137 AP11 SEL 2","categoria":"Àrees de poblament","codi_municipi":"172137","municipi":"Vidreres","codi_comarca":"34","comarca":"Selva","provincia":"Girona","font":"ICGC Àrees de poblament v3r1 202602"},"geometry":{"type":"MultiPolygon","coordinates":[[[[2.755484,41.784538],[2.755428,41.784667],[2.755347,41.784816],[2.755797,41.784933],[2.755805,41.784921],[2.755884,41.784816],[2.756119,41.784529],[2.756123,41.784511],[2.756215,41.78428],[2.756243,41.784219],[2.756303,41.784102],[2.756364,41.783985],[2.756395,41.783928],[2.756425,41.783887],[2.75645,41.783851],[2.756503,41.783779],[2.75659,41.783672],[2.756675,41.783563],[2.756772,41.783432],[2.756869,41.783301],[2.756961,41.783176],[2.757052,41.783052],[2.757086,41.783],[2.757112,41.782965],[2.757162,41.782899],[2.757216,41.782864],[2.757351,41.782892],[2.758012,41.782997],[2.758072,41.78284],[2.758078,41.782822],[2.758073,41.782821],[2.758108,41.782719],[2.757631,41.782624],[2.757467,41.782582],[2.757439,41.782575],[2.757405,41.78261],[2.757311,41.782708],[2.757216,41.782805],[2.757143,41.782883],[2.757111,41.78292],[2.7571,41.782934],[2.757086,41.782953],[2.757059,41.782978],[2.756989,41.783032],[2.756965,41.783049],[2.756932,41.783071],[2.756833,41.783131],[2.756826,41.783136],[2.756824,41.783135],[2.756696,41.783091],[2.756359,41.782972],[2.756354,41.782978],[2.756286,41.783061],[2.756065,41.783327],[2.755927,41.783493],[2.756429,41.783724],[2.756347,41.783894],[2.75614,41.784324],[2.756073,41.784459],[2.756,41.784494],[2.755897,41.784527],[2.755838,41.784533],[2.75578,41.784531],[2.755747,41.784517],[2.755696,41.784487],[2.755497,41.784441],[2.755484,41.784538]]]]}},{"type":"Feature","id":"172137_172137 AP12 SEL 2","properties":{"area_id":"172137_172137 AP12 SEL 2","nom":"els Pantans de Montbarbat","codi_icgc":"172137 AP12 SEL 2","categoria":"Àrees de poblament","codi_municipi":"172137","municipi":"Vidreres","codi_comarca":"34","comarca":"Selva","provincia":"Girona","font":"ICGC Àrees de poblament v3r1 202602"},"geometry":{"type":"MultiPolygon","coordinates":[[[[2.785235,41.746798],[2.785193,41.746806],[2.784872,41.746868],[2.784732,41.746878],[2.783841,41.746941],[2.783783,41.746945],[2.78368,41.746999],[2.783451,41.747117],[2.783425,41.747131],[2.783308,41.747223],[2.783171,41.747304],[2.78311,41.747323],[2.783021,41.747337],[2.782919,41.747337],[2.782803,41.747312],[2.782567,41.747276],[2.782421,41.747254],[2.782303,41.747254],[2.782201,41.747309],[2.782099,41.747382],[2.781975,41.747451],[2.781879,41.747511],[2.781714,41.747553],[2.781526,41.747562],[2.781328,41.747554],[2.781234,41.74756],[2.78132,41.747743],[2.781333,41.747772],[2.780913,41.747893],[2.780973,41.748002],[2.780945,41.748013],[2.780894,41.74803],[2.78083,41.748053],[2.78084,41.748089],[2.780845,41.748138],[2.780891,41.748285],[2.780918,41.748437],[2.780907,41.748578],[2.780902,41.748673],[2.780884,41.748729],[2.780838,41.748803],[2.780764,41.748909],[2.780737,41.748929],[2.780741,41.748933],[2.780888,41.749075],[2.7813,41.748857],[2.7815,41.748759],[2.781746,41.748589],[2.781746,41.748589],[2.781677,41.748443],[2.781596,41.748248],[2.781822,41.748195],[2.781911,41.748174],[2.78202,41.748142],[2.78204,41.748136],[2.782078,41.748221],[2.782143,41.748352],[2.78237,41.748267],[2.782591,41.748179],[2.782802,41.748094],[2.783015,41.748003],[2.783023,41.748],[2.783221,41.747924],[2.783236,41.747917],[2.783398,41.74785],[2.783439,41.747833],[2.783666,41.747737],[2.783822,41.74767],[2.78388,41.74765],[2.784076,41.747567],[2.784148,41.747535],[2.784221,41.747503],[2.784279,41.747479],[2.784287,41.747476],[2.784344,41.747453],[2.784345,41.747452],[2.784434,41.747401],[2.784578,41.747303],[2.78466,41.747246],[2.784851,41.747115],[2.785069,41.746964],[2.785333,41.746784],[2.785346,41.746776],[2.785235,41.746798]]]]}},{"type":"Feature","id":"172137_172137 AP04 SEL 3","properties":{"area_id":"172137_172137 AP04 SEL 3","nom":"la Goba","codi_icgc":"172137 AP04 SEL 3","categoria":"Àrees de poblament","codi_municipi":"172137","municipi":"Vidreres","codi_comarca":"34","comarca":"Selva","provincia":"Girona","font":"ICGC Àrees de poblament v3r1 202602"},"geometry":{"type":"MultiPolygon","coordinates":[[[[2.814148,41.802659],[2.814186,41.802281],[2.814236,41.802092],[2.814323,41.801779],[2.814363,41.801611],[2.814507,41.801061],[2.814509,41.801053],[2.814689,41.80029],[2.814725,41.800197],[2.814811,41.799971],[2.814818,41.799942],[2.814835,41.799878],[2.814925,41.799637],[2.814929,41.799624],[2.81487,41.799613],[2.814801,41.799609],[2.814476,41.799591],[2.814343,41.799584],[2.814358,41.799498],[2.814348,41.79947],[2.81433,41.799443],[2.814306,41.79942],[2.814277,41.799401],[2.814249,41.799389],[2.81425,41.799385],[2.814266,41.799319],[2.81429,41.79922],[2.814314,41.799121],[2.814346,41.798973],[2.814376,41.798824],[2.814397,41.798696],[2.814409,41.798602],[2.814414,41.798566],[2.814417,41.798522],[2.814414,41.798454],[2.814401,41.798387],[2.814388,41.798349],[2.814359,41.798295],[2.81432,41.798244],[2.814295,41.798218],[2.814291,41.798212],[2.814292,41.798201],[2.814171,41.798123],[2.814129,41.798093],[2.81406,41.798045],[2.813988,41.798],[2.813727,41.797845],[2.813466,41.79769],[2.813288,41.797586],[2.813023,41.79743],[2.812892,41.797351],[2.812763,41.797269],[2.812623,41.797178],[2.812508,41.797104],[2.812254,41.796938],[2.812038,41.796808],[2.811879,41.796713],[2.811696,41.796846],[2.811687,41.796895],[2.811671,41.796949],[2.811646,41.797],[2.811615,41.79705],[2.811577,41.797097],[2.811497,41.797177],[2.811494,41.797179],[2.81145,41.797228],[2.811412,41.797279],[2.811381,41.797333],[2.811371,41.797357],[2.811357,41.797389],[2.811341,41.797447],[2.811274,41.797935],[2.81127,41.797957],[2.811257,41.797977],[2.811239,41.797995],[2.811215,41.798008],[2.811205,41.798011],[2.811173,41.798027],[2.811146,41.798048],[2.811124,41.798072],[2.811109,41.798099],[2.811102,41.798112],[2.811084,41.798133],[2.811061,41.798149],[2.811033,41.798161],[2.811002,41.798176],[2.810943,41.798206],[2.8109,41.79823],[2.81087,41.798251],[2.810863,41.798255],[2.81086,41.798257],[2.810857,41.798259],[2.810853,41.798263],[2.810811,41.7983],[2.810771,41.798344],[2.810737,41.798392],[2.81071,41.798442],[2.810691,41.798493],[2.810679,41.798546],[2.810536,41.798547],[2.81034,41.798566],[2.810253,41.798577],[2.809704,41.798622],[2.80935,41.798661],[2.809344,41.798662],[2.808752,41.798739],[2.808706,41.798582],[2.808701,41.798565],[2.8086,41.798223],[2.808592,41.798195],[2.808503,41.797889],[2.808445,41.797688],[2.808442,41.797675],[2.808379,41.797469],[2.808324,41.797339],[2.808258,41.797184],[2.808187,41.797015],[2.808178,41.796993],[2.808099,41.796826],[2.808018,41.796656],[2.807957,41.796527],[2.807936,41.796482],[2.807867,41.796341],[2.808054,41.796303],[2.80824,41.796264],[2.808292,41.79625],[2.808342,41.796231],[2.808383,41.796208],[2.808418,41.796179],[2.808436,41.796157],[2.808449,41.796134],[2.808458,41.796104],[2.808461,41.796074],[2.80846,41.796054],[2.808451,41.796007],[2.808441,41.79596],[2.808412,41.795839],[2.808381,41.795718],[2.808314,41.795491],[2.808247,41.795264],[2.808209,41.795124],[2.808176,41.794999],[2.808172,41.794985],[2.808168,41.794968],[2.80816,41.794932],[2.807992,41.794252],[2.807985,41.794251],[2.807957,41.794247],[2.807623,41.794168],[2.807399,41.794105],[2.807345,41.794086],[2.807293,41.794064],[2.807249,41.79404],[2.807206,41.794015],[2.807174,41.794001],[2.807133,41.793988],[2.80709,41.793978],[2.806962,41.793951],[2.806834,41.793924],[2.806734,41.793903],[2.806635,41.793881],[2.806615,41.793875],[2.806596,41.793868],[2.80656,41.793849],[2.806528,41.793828],[2.8065,41.793805],[2.806479,41.793781],[2.806462,41.793755],[2.806448,41.79373],[2.806439,41.793703],[2.806434,41.793679],[2.806435,41.793656],[2.806447,41.793595],[2.806461,41.793535],[2.806486,41.793465],[2.806511,41.793395],[2.806521,41.793374],[2.806545,41.793346],[2.806577,41.793319],[2.806506,41.793307],[2.806335,41.793277],[2.806309,41.793267],[2.806052,41.79315],[2.806,41.793126],[2.805948,41.793102],[2.805919,41.793089],[2.805891,41.793076],[2.805883,41.793075],[2.805872,41.793079],[2.805801,41.793206],[2.805767,41.793263],[2.805735,41.793326],[2.805718,41.79335],[2.805705,41.793369],[2.805694,41.793389],[2.805665,41.793443],[2.805636,41.793499],[2.805536,41.793671],[2.805436,41.793843],[2.805255,41.794064],[2.805204,41.794126],[2.805152,41.794194],[2.805133,41.794219],[2.805011,41.79438],[2.805007,41.794384],[2.804868,41.79456],[2.804705,41.794725],[2.804701,41.794729],[2.804659,41.794771],[2.804518,41.794911],[2.804441,41.794987],[2.80438,41.795054],[2.804294,41.795148],[2.804277,41.795239],[2.804236,41.795466],[2.804229,41.795515],[2.804207,41.795663],[2.804197,41.795728],[2.804176,41.79587],[2.804161,41.795969],[2.804158,41.795987],[2.80415,41.796035],[2.804086,41.796409],[2.804056,41.796587],[2.804055,41.796592],[2.804022,41.796758],[2.803989,41.796928],[2.803952,41.797117],[2.803912,41.797301],[2.803883,41.797433],[2.803804,41.797792],[2.803747,41.798038],[2.803711,41.798196],[2.803649,41.798469],[2.803632,41.798546],[2.803556,41.798898],[2.803538,41.798976],[2.803511,41.799082],[2.803493,41.799167],[2.803464,41.799264],[2.803373,41.799451],[2.803231,41.799755],[2.803226,41.799765],[2.803164,41.799937],[2.803163,41.799939],[2.803107,41.800113],[2.803098,41.800156],[2.803098,41.800231],[2.803081,41.800316],[2.803007,41.800569],[2.802922,41.800822],[2.802843,41.801003],[2.802855,41.801008],[2.802877,41.801015],[2.802898,41.801023],[2.802947,41.801039],[2.802946,41.801042],[2.802995,41.801053],[2.803614,41.801198],[2.803679,41.801213],[2.803721,41.801222],[2.803792,41.801238],[2.803836,41.801248],[2.803941,41.801272],[2.804079,41.801303],[2.804202,41.801332],[2.804543,41.801408],[2.805461,41.801624],[2.806007,41.801722],[2.806013,41.801723],[2.806535,41.801777],[2.806558,41.801779],[2.806642,41.801786],[2.806881,41.801812],[2.807544,41.80192],[2.808022,41.80199],[2.808156,41.802008],[2.80829,41.802023],[2.808588,41.802053],[2.808886,41.802082],[2.808958,41.80209],[2.809031,41.802097],[2.809157,41.802109],[2.809284,41.802117],[2.809365,41.802119],[2.809456,41.80212],[2.809529,41.802118],[2.809643,41.802116],[2.809635,41.802144],[2.810052,41.802215],[2.810099,41.802223],[2.810138,41.802229],[2.810201,41.802236],[2.810236,41.802245],[2.810323,41.802261],[2.810583,41.802293],[2.810854,41.802316],[2.810949,41.802328],[2.811142,41.802356],[2.811186,41.802362],[2.811405,41.802386],[2.811737,41.802411],[2.811737,41.802448],[2.811737,41.802452],[2.81174,41.802469],[2.811752,41.802487],[2.811771,41.802502],[2.811794,41.802513],[2.81182,41.802518],[2.811847,41.802518],[2.811873,41.802512],[2.811896,41.8025],[2.811913,41.802485],[2.811925,41.802466],[2.811926,41.802461],[2.812229,41.802472],[2.812438,41.802494],[2.812623,41.802514],[2.812658,41.802518],[2.813164,41.802563],[2.813173,41.802564],[2.813792,41.802618],[2.814146,41.802681],[2.814148,41.802659]]]]}},{"type":"Feature","id":"172137_172137 SI02 SEL 2","properties":{"area_id":"172137_172137 SI02 SEL 2","nom":"serradora","codi_icgc":"172137 SI02 SEL 2","categoria":"Sector industrial","codi_municipi":"172137","municipi":"Vidreres","codi_comarca":"34","comarca":"Selva","provincia":"Girona","font":"ICGC Àrees de poblament v3r1 202602"},"geometry":{"type":"MultiPolygon","coordinates":[[[[2.807064,41.792246],[2.807654,41.792462],[2.807754,41.79229],[2.807184,41.792077],[2.807064,41.792246]]]]}}]}