{"type":"FeatureCollection","name":"ICGC Àrees de poblament - Vilamaniscle","features":[{"type":"Feature","id":"172272_172272 AP01 AEM 3","properties":{"area_id":"172272_172272 AP01 AEM 3","nom":"Vilamaniscle","codi_icgc":"172272 AP01 AEM 3","categoria":"Àrees de poblament","codi_municipi":"172272","municipi":"Vilamaniscle","codi_comarca":"02","comarca":"Alt Empordà","provincia":"Girona","font":"ICGC Àrees de poblament v3r1 202602"},"geometry":{"type":"MultiPolygon","coordinates":[[[[3.064875,42.37365],[3.0652,42.373699],[3.065299,42.373716],[3.065395,42.373737],[3.065489,42.373764],[3.06558,42.373796],[3.065668,42.373834],[3.065735,42.373867],[3.065902,42.373952],[3.065949,42.373922],[3.065984,42.373912],[3.066022,42.373906],[3.06606,42.373907],[3.066098,42.373913],[3.066112,42.373917],[3.066145,42.373974],[3.066183,42.374023],[3.066227,42.374069],[3.066278,42.374111],[3.066334,42.374149],[3.066394,42.374182],[3.06643,42.374199],[3.066633,42.374272],[3.066574,42.374334],[3.06646,42.374395],[3.066393,42.374431],[3.06633,42.374417],[3.066312,42.374421],[3.066292,42.374425],[3.066275,42.374473],[3.066273,42.374492],[3.066268,42.374536],[3.066257,42.374624],[3.066192,42.374638],[3.06612,42.374649],[3.066026,42.374661],[3.065931,42.374672],[3.065762,42.374692],[3.065593,42.374712],[3.06546,42.37473],[3.065394,42.374737],[3.065328,42.37474],[3.065274,42.374741],[3.065208,42.374732],[3.065217,42.374713],[3.065257,42.374628],[3.065423,42.374303],[3.065482,42.374185],[3.065373,42.374155],[3.065305,42.374152],[3.065222,42.374263],[3.065011,42.374619],[3.064959,42.37472],[3.064944,42.37475],[3.064917,42.374803],[3.064858,42.374804],[3.064647,42.374842],[3.064622,42.374862],[3.064612,42.374886],[3.064612,42.374897],[3.064611,42.374908],[3.064608,42.375023],[3.064607,42.375056],[3.064607,42.37513],[3.064607,42.375134],[3.064613,42.375244],[3.065034,42.375297],[3.065294,42.375324],[3.065501,42.375356],[3.065452,42.375481],[3.065579,42.37552],[3.065748,42.375566],[3.065863,42.3756],[3.065938,42.375615],[3.065976,42.375562],[3.066004,42.375574],[3.066026,42.375583],[3.066047,42.375561],[3.066065,42.375544],[3.066072,42.37554],[3.066091,42.375544],[3.066119,42.375551],[3.066148,42.375558],[3.066179,42.37556],[3.0662,42.37556],[3.066221,42.37557],[3.066321,42.375593],[3.066339,42.375598],[3.066481,42.375637],[3.066656,42.375688],[3.06674,42.375718],[3.066824,42.37574],[3.066865,42.375753],[3.066902,42.375766],[3.066922,42.375819],[3.066873,42.375952],[3.066846,42.376026],[3.066803,42.376139],[3.066695,42.376351],[3.067341,42.376558],[3.067401,42.376499],[3.067432,42.376509],[3.067444,42.376489],[3.067478,42.376496],[3.067488,42.376477],[3.067511,42.376459],[3.067534,42.376441],[3.067552,42.376433],[3.067557,42.376433],[3.067587,42.376443],[3.067626,42.376456],[3.067669,42.37647],[3.067736,42.376508],[3.067801,42.376545],[3.067881,42.376596],[3.067961,42.376647],[3.067983,42.376666],[3.067996,42.376679],[3.068005,42.376694],[3.067943,42.376797],[3.067866,42.376923],[3.067842,42.376964],[3.06805,42.37705],[3.068248,42.376849],[3.068311,42.376887],[3.068363,42.376919],[3.068425,42.376966],[3.068483,42.377037],[3.068505,42.377064],[3.068527,42.377302],[3.068532,42.377312],[3.068541,42.377497],[3.068669,42.377497],[3.068684,42.377806],[3.068697,42.378092],[3.068897,42.378092],[3.068986,42.378092],[3.0692,42.378092],[3.069365,42.37809],[3.069375,42.378078],[3.069386,42.378065],[3.069395,42.378054],[3.06946,42.378051],[3.069746,42.378039],[3.069901,42.378039],[3.069981,42.378041],[3.070028,42.378051],[3.070052,42.378051],[3.070076,42.378051],[3.070085,42.378048],[3.07009,42.378041],[3.07009,42.37803],[3.070082,42.37802],[3.070047,42.37799],[3.070031,42.377975],[3.070091,42.377957],[3.070097,42.377947],[3.070193,42.377993],[3.070512,42.377667],[3.070208,42.37752],[3.070234,42.377314],[3.070236,42.377301],[3.070262,42.377299],[3.070298,42.377299],[3.070339,42.3773],[3.070378,42.377296],[3.070416,42.377287],[3.070464,42.37727],[3.070507,42.37725],[3.070544,42.377227],[3.070554,42.377219],[3.070583,42.377214],[3.070639,42.377203],[3.070695,42.377192],[3.07075,42.37718],[3.070781,42.377176],[3.070811,42.377178],[3.070862,42.377187],[3.070835,42.377208],[3.070618,42.377314],[3.070865,42.377469],[3.070952,42.377391],[3.071099,42.37726],[3.071272,42.377032],[3.071276,42.377028],[3.071376,42.37689],[3.071414,42.37681],[3.071438,42.376766],[3.071449,42.376746],[3.0715,42.376686],[3.071546,42.376635],[3.071499,42.3766],[3.071482,42.376612],[3.071413,42.376567],[3.071335,42.376528],[3.071282,42.376511],[3.071231,42.376505],[3.071184,42.376505],[3.071148,42.376508],[3.071112,42.376516],[3.071002,42.376554],[3.070961,42.376594],[3.070844,42.376633],[3.070831,42.376652],[3.070792,42.376722],[3.070754,42.376793],[3.070713,42.376868],[3.070672,42.376944],[3.070634,42.37701],[3.070595,42.377075],[3.070569,42.377117],[3.070541,42.377158],[3.070528,42.377172],[3.070501,42.377193],[3.07047,42.377212],[3.070433,42.37723],[3.070394,42.377244],[3.070365,42.377251],[3.070336,42.377254],[3.070305,42.377253],[3.070274,42.377249],[3.07024,42.377241],[3.070207,42.37723],[3.070171,42.377215],[3.070136,42.377198],[3.070099,42.377175],[3.070065,42.377149],[3.070046,42.377132],[3.070032,42.377113],[3.070022,42.377094],[3.070015,42.377074],[3.070004,42.377028],[3.069993,42.376981],[3.069984,42.376923],[3.069974,42.376863],[3.069968,42.376839],[3.069953,42.376806],[3.069935,42.376774],[3.069909,42.376734],[3.069879,42.376695],[3.069843,42.376659],[3.069802,42.376627],[3.069757,42.376596],[3.06973,42.376581],[3.069837,42.376594],[3.070062,42.376613],[3.070129,42.376615],[3.070362,42.376623],[3.070442,42.376061],[3.070352,42.376059],[3.070332,42.376059],[3.070322,42.376059],[3.070312,42.375998],[3.070311,42.375996],[3.070273,42.375913],[3.070257,42.375897],[3.070208,42.375848],[3.070189,42.375831],[3.070166,42.375858],[3.070136,42.375893],[3.070125,42.375905],[3.070111,42.37592],[3.070037,42.375988],[3.069971,42.376029],[3.069851,42.376079],[3.06981,42.376092],[3.069748,42.376109],[3.069727,42.376113],[3.069694,42.376113],[3.069675,42.37611],[3.069662,42.376108],[3.069641,42.3761],[3.069611,42.376085],[3.069589,42.376065],[3.069553,42.376017],[3.069517,42.375968],[3.069496,42.375937],[3.06946,42.375885],[3.069402,42.375803],[3.069375,42.37577],[3.069359,42.375754],[3.069329,42.375724],[3.069281,42.37568],[3.06921,42.375617],[3.069135,42.375556],[3.069117,42.375545],[3.069087,42.375532],[3.069055,42.375519],[3.069041,42.375508],[3.06903,42.375499],[3.069025,42.375494],[3.068997,42.37548],[3.068974,42.375473],[3.068946,42.375464],[3.068894,42.375448],[3.06885,42.375438],[3.068814,42.375428],[3.068727,42.375407],[3.068657,42.37539],[3.068586,42.375358],[3.068501,42.375322],[3.068477,42.375311],[3.068417,42.375281],[3.068333,42.37524],[3.068254,42.375197],[3.068189,42.375151],[3.068177,42.375138],[3.068287,42.375024],[3.068344,42.374965],[3.068246,42.374897],[3.068284,42.374863],[3.068372,42.37478],[3.068473,42.374697],[3.068456,42.374654],[3.068412,42.374623],[3.068376,42.374592],[3.068356,42.374614],[3.068236,42.374684],[3.068119,42.374752],[3.068046,42.374704],[3.06796,42.374788],[3.067931,42.37477],[3.067924,42.374776],[3.067876,42.374746],[3.06791,42.374706],[3.067945,42.374664],[3.067964,42.374642],[3.067985,42.37462],[3.068005,42.3746],[3.068023,42.374581],[3.068078,42.374542],[3.068135,42.374501],[3.068165,42.374475],[3.068189,42.374447],[3.068195,42.374439],[3.068169,42.374428],[3.06812,42.374407],[3.067964,42.374346],[3.067717,42.374245],[3.067172,42.374027],[3.067172,42.374003],[3.067173,42.37388],[3.067174,42.373818],[3.067174,42.373752],[3.067136,42.373736],[3.067134,42.373722],[3.067134,42.373672],[3.067136,42.373622],[3.067155,42.373557],[3.067166,42.373523],[3.067097,42.373514],[3.066791,42.373473],[3.066786,42.373473],[3.066773,42.373472],[3.066393,42.373423],[3.066391,42.373431],[3.066371,42.373418],[3.066341,42.373399],[3.066295,42.373385],[3.066282,42.373381],[3.066269,42.373377],[3.066188,42.373353],[3.065873,42.373274],[3.065841,42.373265],[3.065801,42.373254],[3.065732,42.373234],[3.065717,42.37321],[3.065658,42.373135],[3.065587,42.373059],[3.065509,42.372985],[3.065473,42.372953],[3.065461,42.372942],[3.065432,42.372916],[3.065423,42.372907],[3.065414,42.372899],[3.065399,42.372885],[3.065373,42.372912],[3.065364,42.372921],[3.06533,42.372958],[3.065298,42.372994],[3.065277,42.373018],[3.065095,42.373288],[3.065065,42.373338],[3.064597,42.373189],[3.064401,42.373508],[3.064875,42.37365]]]]}}]}