{"type":"FeatureCollection","name":"ICGC Àrees de poblament - Alcanó","features":[{"type":"Feature","id":"250100_250100 AP01 SGR 3","properties":{"area_id":"250100_250100 AP01 SGR 3","nom":"Alcanó","codi_icgc":"250100 AP01 SGR 3","categoria":"Àrees de poblament","codi_municipi":"250100","municipi":"Alcanó","codi_comarca":"33","comarca":"Segrià","provincia":"Lleida","font":"ICGC Àrees de poblament v3r1 202602"},"geometry":{"type":"MultiPolygon","coordinates":[[[[0.617494,41.482416],[0.617514,41.482396],[0.617033,41.482221],[0.617114,41.482103],[0.617649,41.482279],[0.617746,41.482218],[0.617794,41.482106],[0.617246,41.481899],[0.617301,41.481807],[0.617315,41.481782],[0.617363,41.481707],[0.617408,41.481635],[0.617501,41.481479],[0.617532,41.481436],[0.617577,41.48136],[0.617646,41.481246],[0.61767,41.481219],[0.617585,41.481182],[0.617581,41.481147],[0.61762,41.48113],[0.617622,41.48109],[0.617581,41.481073],[0.617584,41.481034],[0.617609,41.480957],[0.617657,41.480851],[0.617574,41.480775],[0.617507,41.480634],[0.617503,41.48053],[0.617432,41.480412],[0.617404,41.480319],[0.617378,41.48023],[0.617371,41.48017],[0.617299,41.479995],[0.617266,41.480006],[0.617158,41.479936],[0.617048,41.479864],[0.617018,41.479817],[0.61701,41.479818],[0.617018,41.479757],[0.617054,41.479643],[0.616934,41.479617],[0.616864,41.479605],[0.616794,41.479608],[0.616643,41.479599],[0.616668,41.479575],[0.61669,41.47955],[0.616733,41.479498],[0.616766,41.479467],[0.616788,41.479451],[0.616829,41.479429],[0.616783,41.47938],[0.61641,41.479224],[0.616372,41.479224],[0.616338,41.479234],[0.616432,41.479388],[0.616468,41.479553],[0.616383,41.479564],[0.616358,41.479564],[0.616316,41.479561],[0.616274,41.479561],[0.616214,41.479568],[0.616156,41.479573],[0.616112,41.479575],[0.616092,41.479606],[0.616079,41.479703],[0.61607,41.47974],[0.616051,41.479795],[0.616029,41.479849],[0.616004,41.479905],[0.615987,41.479929],[0.615965,41.47995],[0.615933,41.48003],[0.615866,41.480065],[0.615792,41.48009],[0.61571,41.480127],[0.615587,41.480162],[0.615601,41.480239],[0.615999,41.480349],[0.615973,41.480358],[0.615949,41.480411],[0.615947,41.480416],[0.615934,41.480453],[0.615895,41.480572],[0.615858,41.480688],[0.61583,41.480765],[0.615798,41.480839],[0.615792,41.480848],[0.615782,41.480858],[0.615766,41.480875],[0.615757,41.480882],[0.615742,41.480902],[0.615738,41.480917],[0.615735,41.480982],[0.615732,41.481047],[0.615726,41.481201],[0.61572,41.481356],[0.615713,41.481493],[0.615691,41.481628],[0.615397,41.481639],[0.615264,41.481663],[0.615095,41.48169],[0.615073,41.481693],[0.615041,41.481696],[0.615026,41.481698],[0.615015,41.481683],[0.615009,41.481674],[0.615001,41.481662],[0.614991,41.481644],[0.614985,41.481634],[0.614977,41.481625],[0.61495,41.481608],[0.614921,41.481594],[0.614855,41.48162],[0.614794,41.481648],[0.614774,41.481648],[0.614654,41.481517],[0.61463,41.481479],[0.614596,41.481455],[0.614558,41.481453],[0.614502,41.481428],[0.614487,41.481443],[0.614475,41.481459],[0.614452,41.481489],[0.614397,41.481549],[0.614342,41.481609],[0.614309,41.481649],[0.614277,41.481687],[0.614245,41.481719],[0.614213,41.481753],[0.614206,41.481763],[0.6142,41.481771],[0.614183,41.481788],[0.614177,41.481836],[0.614209,41.481851],[0.614236,41.48187],[0.61425,41.481884],[0.61428,41.481934],[0.614306,41.481985],[0.614322,41.482017],[0.614336,41.482049],[0.614341,41.48207],[0.614344,41.482099],[0.614391,41.482132],[0.614414,41.482123],[0.614439,41.482115],[0.614471,41.482106],[0.614502,41.482097],[0.614584,41.48208],[0.614648,41.482069],[0.614707,41.482061],[0.614778,41.482049],[0.614779,41.482063],[0.614809,41.482234],[0.614936,41.48222],[0.614993,41.482205],[0.615115,41.482189],[0.61516,41.482183],[0.615156,41.482162],[0.615138,41.482102],[0.61513,41.482061],[0.615124,41.482022],[0.615122,41.482004],[0.615259,41.481984],[0.615301,41.481979],[0.615326,41.481977],[0.615346,41.481977],[0.615373,41.482031],[0.615466,41.482004],[0.615459,41.482047],[0.61558,41.482451],[0.615889,41.482464],[0.615886,41.482494],[0.615878,41.482553],[0.615868,41.482623],[0.615858,41.482684],[0.615862,41.482776],[0.615857,41.482792],[0.61583,41.482879],[0.615826,41.482896],[0.615826,41.482905],[0.615823,41.482927],[0.615769,41.483274],[0.615947,41.483292],[0.616364,41.483334],[0.616377,41.483341],[0.616379,41.483349],[0.616367,41.483383],[0.616338,41.483473],[0.616464,41.483488],[0.616502,41.483492],[0.616935,41.483553],[0.617023,41.483556],[0.617071,41.483395],[0.617097,41.483327],[0.617141,41.48318],[0.61726,41.482804],[0.617309,41.482575],[0.617413,41.482487],[0.617476,41.482456],[0.617494,41.482416]]]]}}]}