{"type":"FeatureCollection","name":"ICGC Àrees de poblament - Castellar de la Ribera","features":[{"type":"Feature","id":"250642_250642 AP01 SOL 3","properties":{"area_id":"250642_250642 AP01 SOL 3","nom":"Castellar de la Ribera","codi_icgc":"250642 AP01 SOL 3","categoria":"Àrees de poblament","codi_municipi":"250642","municipi":"Castellar de la Ribera","codi_comarca":"35","comarca":"Solsonès","provincia":"Lleida","font":"ICGC Àrees de poblament v3r1 202602"},"geometry":{"type":"MultiPolygon","coordinates":[[[[1.415417,42.02269],[1.415471,42.02273],[1.415449,42.022793],[1.415443,42.022824],[1.415458,42.022849],[1.415501,42.022878],[1.41552,42.022922],[1.415562,42.022963],[1.415618,42.02299],[1.415656,42.023004],[1.415707,42.023007],[1.415745,42.023005],[1.415807,42.022995],[1.415887,42.02298],[1.415973,42.022948],[1.416014,42.022931],[1.416057,42.022908],[1.416116,42.022871],[1.41617,42.02283],[1.41624,42.022765],[1.416308,42.0227],[1.416364,42.02265],[1.416423,42.022603],[1.416446,42.022588],[1.416453,42.022586],[1.416469,42.022577],[1.416494,42.022567],[1.416515,42.022563],[1.416537,42.022559],[1.416568,42.022556],[1.416599,42.022554],[1.416687,42.022551],[1.416738,42.022549],[1.416736,42.022526],[1.416706,42.022204],[1.416632,42.022194],[1.41641,42.022185],[1.416172,42.022195],[1.416154,42.022197],[1.416046,42.02221],[1.415903,42.022231],[1.415835,42.022245],[1.415768,42.022261],[1.415683,42.022286],[1.415622,42.022307],[1.41553,42.022343],[1.41544,42.022383],[1.415252,42.022373],[1.415114,42.022348],[1.415076,42.022342],[1.414915,42.022313],[1.414781,42.022222],[1.414771,42.022171],[1.414671,42.022157],[1.414386,42.022059],[1.414266,42.022272],[1.414252,42.022297],[1.414846,42.02246],[1.41488,42.022469],[1.415008,42.022505],[1.415136,42.02254],[1.415417,42.02269]]]]}},{"type":"Feature","id":"250642_250642 AP03 SOL 3","properties":{"area_id":"250642_250642 AP03 SOL 3","nom":"Ceuró","codi_icgc":"250642 AP03 SOL 3","categoria":"Àrees de poblament","codi_municipi":"250642","municipi":"Castellar de la Ribera","codi_comarca":"35","comarca":"Solsonès","provincia":"Lleida","font":"ICGC Àrees de poblament v3r1 202602"},"geometry":{"type":"MultiPolygon","coordinates":[[[[1.373088,42.018688],[1.372811,42.018768],[1.372842,42.018822],[1.372856,42.018917],[1.372885,42.019007],[1.372939,42.019097],[1.373146,42.019434],[1.373329,42.01958],[1.373687,42.019631],[1.373936,42.019617],[1.373981,42.019576],[1.373983,42.019511],[1.373969,42.019439],[1.373956,42.019389],[1.373791,42.019315],[1.373624,42.019172],[1.373119,42.018723],[1.373088,42.018688]]]]}},{"type":"Feature","id":"250642_250642 AP04 SOL 3","properties":{"area_id":"250642_250642 AP04 SOL 3","nom":"Clarà","codi_icgc":"250642 AP04 SOL 3","categoria":"Àrees de poblament","codi_municipi":"250642","municipi":"Castellar de la Ribera","codi_comarca":"35","comarca":"Solsonès","provincia":"Lleida","font":"ICGC Àrees de poblament v3r1 202602"},"geometry":{"type":"MultiPolygon","coordinates":[[[[1.457565,42.001791],[1.457452,42.001741],[1.457301,42.001653],[1.457163,42.001579],[1.457027,42.001548],[1.457001,42.001574],[1.456996,42.001577],[1.456937,42.001616],[1.456888,42.001676],[1.456868,42.001722],[1.456851,42.001797],[1.456884,42.001872],[1.45691,42.001934],[1.456926,42.001941],[1.456948,42.001952],[1.457043,42.001982],[1.457148,42.001994],[1.457218,42.002003],[1.457248,42.002049],[1.457248,42.002052],[1.457273,42.002242],[1.457272,42.002254],[1.457266,42.002316],[1.457259,42.002347],[1.457251,42.002361],[1.457223,42.002396],[1.457197,42.00241],[1.457171,42.002419],[1.457125,42.002434],[1.457083,42.002455],[1.457046,42.002479],[1.457035,42.002492],[1.457028,42.002505],[1.457019,42.002533],[1.457019,42.002552],[1.457023,42.002586],[1.457032,42.002619],[1.45704,42.00264],[1.457271,42.002682],[1.457265,42.00275],[1.457307,42.002789],[1.457298,42.002859],[1.457295,42.002882],[1.457293,42.002895],[1.457274,42.002971],[1.457253,42.003035],[1.457195,42.003038],[1.457105,42.002987],[1.456936,42.003065],[1.457055,42.003154],[1.457098,42.003186],[1.457228,42.003283],[1.457246,42.003279],[1.45732,42.003244],[1.457339,42.003226],[1.457364,42.003201],[1.457365,42.003166],[1.457361,42.003101],[1.457354,42.002997],[1.457366,42.002933],[1.457395,42.002859],[1.45754,42.002856],[1.457544,42.002855],[1.457576,42.002853],[1.457593,42.00283],[1.4576,42.00282],[1.457628,42.002797],[1.457646,42.002781],[1.457657,42.002769],[1.457707,42.002688],[1.457757,42.002592],[1.457906,42.002587],[1.458086,42.002562],[1.458265,42.002466],[1.458297,42.002445],[1.458304,42.002388],[1.45849,42.002302],[1.458396,42.00217],[1.45827,42.002211],[1.458208,42.002232],[1.458183,42.00224],[1.458019,42.002281],[1.457994,42.002279],[1.457975,42.002284],[1.457856,42.002289],[1.457735,42.002306],[1.457612,42.002265],[1.457565,42.002232],[1.457566,42.002167],[1.457566,42.001831],[1.457565,42.001791]]]]}},{"type":"Feature","id":"250642_250642 AP02 SOL 3","properties":{"area_id":"250642_250642 AP02 SOL 3","nom":"Pampa","codi_icgc":"250642 AP02 SOL 3","categoria":"Àrees de poblament","codi_municipi":"250642","municipi":"Castellar de la Ribera","codi_comarca":"35","comarca":"Solsonès","provincia":"Lleida","font":"ICGC Àrees de poblament v3r1 202602"},"geometry":{"type":"MultiPolygon","coordinates":[[[[1.370309,42.064984],[1.370377,42.064962],[1.370507,42.06489],[1.370564,42.064834],[1.370561,42.064622],[1.370549,42.064601],[1.370325,42.064513],[1.370343,42.064452],[1.370336,42.06437],[1.370379,42.064266],[1.370323,42.064201],[1.370129,42.064116],[1.369978,42.064334],[1.369972,42.064335],[1.369943,42.064344],[1.369937,42.064349],[1.369917,42.064377],[1.369899,42.064405],[1.369881,42.064421],[1.369865,42.064431],[1.369849,42.064441],[1.369826,42.064458],[1.369807,42.064479],[1.369798,42.064498],[1.369791,42.064516],[1.369778,42.064555],[1.369764,42.064594],[1.369744,42.064621],[1.36972,42.064647],[1.369716,42.064652],[1.370126,42.064775],[1.370168,42.06481],[1.370309,42.064984]]]]}}]}