{"type":"FeatureCollection","name":"ICGC Àrees de poblament - Granyena de les Garrigues","features":[{"type":"Feature","id":"251057_251057 AP01 GAR 3","properties":{"area_id":"251057_251057 AP01 GAR 3","nom":"Granyena de les Garrigues","codi_icgc":"251057 AP01 GAR 3","categoria":"Àrees de poblament","codi_municipi":"251057","municipi":"Granyena de les Garrigues","codi_comarca":"18","comarca":"Garrigues","provincia":"Lleida","font":"ICGC Àrees de poblament v3r1 202602"},"geometry":{"type":"MultiPolygon","coordinates":[[[[0.647886,41.432614],[0.647858,41.432704],[0.647731,41.432678],[0.647535,41.43264],[0.647436,41.432644],[0.647216,41.432567],[0.647025,41.432513],[0.646814,41.432464],[0.646744,41.432594],[0.646736,41.432654],[0.64674,41.432692],[0.646682,41.432691],[0.646442,41.432685],[0.646132,41.432627],[0.646078,41.432799],[0.64606,41.432838],[0.646057,41.43284],[0.646105,41.432852],[0.646213,41.432884],[0.646236,41.432893],[0.646248,41.432908],[0.646249,41.432925],[0.646244,41.432939],[0.64623,41.432971],[0.646213,41.432983],[0.646204,41.432989],[0.646179,41.433006],[0.646135,41.433035],[0.646039,41.4331],[0.645984,41.433132],[0.645883,41.433185],[0.645836,41.433211],[0.645761,41.433248],[0.645709,41.433272],[0.645665,41.433289],[0.645578,41.433322],[0.645551,41.433332],[0.645543,41.433335],[0.645535,41.433339],[0.645509,41.433351],[0.645498,41.433367],[0.645494,41.433381],[0.645502,41.433395],[0.645505,41.433399],[0.645555,41.433477],[0.645589,41.433531],[0.645632,41.433599],[0.645646,41.433621],[0.645691,41.433691],[0.645721,41.433736],[0.64575,41.433782],[0.645787,41.433839],[0.645812,41.433882],[0.645797,41.433888],[0.645786,41.433891],[0.645739,41.433905],[0.645711,41.433914],[0.645672,41.433933],[0.645638,41.433956],[0.645607,41.433988],[0.645577,41.43402],[0.645545,41.434048],[0.645512,41.434076],[0.645486,41.434093],[0.645458,41.43411],[0.645449,41.434119],[0.645447,41.434124],[0.645448,41.434129],[0.64546,41.434142],[0.645474,41.434155],[0.645532,41.434206],[0.645588,41.434257],[0.645627,41.434296],[0.645681,41.434357],[0.64571,41.434386],[0.645742,41.434413],[0.645778,41.434441],[0.645815,41.434468],[0.645828,41.434475],[0.645851,41.434491],[0.645874,41.434477],[0.645883,41.434473],[0.645901,41.434466],[0.645944,41.434458],[0.645988,41.434456],[0.646032,41.434457],[0.6461,41.434464],[0.646168,41.434468],[0.646239,41.434465],[0.646309,41.434454],[0.646358,41.434442],[0.646407,41.434428],[0.646443,41.434416],[0.646462,41.434409],[0.646544,41.434377],[0.646584,41.434363],[0.646586,41.434363],[0.646567,41.434334],[0.646403,41.43409],[0.646179,41.433779],[0.646094,41.433661],[0.646005,41.433539],[0.646007,41.433493],[0.646363,41.433375],[0.64645,41.433508],[0.646619,41.433715],[0.646746,41.433863],[0.646874,41.433953],[0.647089,41.434051],[0.647334,41.434142],[0.647429,41.434174],[0.647521,41.434281],[0.647538,41.43431],[0.64763,41.434368],[0.647636,41.434372],[0.647639,41.43438],[0.647641,41.434388],[0.647632,41.434402],[0.647618,41.434422],[0.647581,41.434471],[0.647544,41.434523],[0.647524,41.434561],[0.647519,41.434583],[0.647514,41.434603],[0.647514,41.43461],[0.647514,41.434621],[0.647516,41.434635],[0.647515,41.434685],[0.647503,41.434766],[0.647501,41.434775],[0.647538,41.434783],[0.647632,41.434833],[0.64765,41.434816],[0.647878,41.434605],[0.64792,41.434566],[0.647751,41.434417],[0.647801,41.434322],[0.6478,41.434317],[0.647801,41.434314],[0.647804,41.434309],[0.647809,41.434305],[0.647835,41.434282],[0.647872,41.434244],[0.647906,41.434201],[0.647929,41.434148],[0.647943,41.434096],[0.647958,41.433996],[0.647963,41.433955],[0.648046,41.433884],[0.648152,41.433762],[0.648406,41.433545],[0.648468,41.433499],[0.64853,41.433462],[0.648692,41.433432],[0.648885,41.433455],[0.648948,41.433452],[0.649148,41.43343],[0.649209,41.433581],[0.649311,41.433573],[0.649381,41.433676],[0.649412,41.433682],[0.649444,41.433689],[0.649504,41.433703],[0.649535,41.43371],[0.649655,41.433689],[0.649705,41.433719],[0.649822,41.433671],[0.649674,41.433563],[0.649616,41.433467],[0.649962,41.433495],[0.650421,41.43363],[0.650557,41.433499],[0.650683,41.433332],[0.650937,41.433524],[0.651116,41.433669],[0.650977,41.433741],[0.650741,41.433814],[0.65047,41.433892],[0.650505,41.433939],[0.650548,41.433943],[0.650825,41.433917],[0.651169,41.433888],[0.651251,41.433859],[0.65128,41.433825],[0.651296,41.433797],[0.651476,41.433763],[0.651539,41.433648],[0.651557,41.433559],[0.651578,41.433403],[0.651563,41.433313],[0.65123,41.433152],[0.651265,41.43308],[0.650946,41.432932],[0.65085,41.433001],[0.650596,41.432842],[0.650519,41.432812],[0.650374,41.432729],[0.650365,41.432744],[0.650354,41.43275],[0.650314,41.432705],[0.650239,41.432583],[0.650234,41.432572],[0.650236,41.432538],[0.650174,41.432469],[0.650101,41.432387],[0.65007,41.432356],[0.650048,41.432329],[0.65003,41.432304],[0.649865,41.432238],[0.649757,41.432205],[0.649592,41.432131],[0.649536,41.432187],[0.649252,41.432066],[0.649221,41.432096],[0.649194,41.432095],[0.649191,41.431965],[0.649024,41.431937],[0.648826,41.431969],[0.648751,41.432017],[0.648721,41.432074],[0.64874,41.432236],[0.648716,41.432274],[0.64859,41.432324],[0.648397,41.432388],[0.648236,41.432417],[0.648235,41.432457],[0.648224,41.432486],[0.64821,41.432504],[0.648145,41.432521],[0.648096,41.432646],[0.647886,41.432614]]]]}}]}