{"type":"FeatureCollection","name":"ICGC Àrees de poblament - Linyola","features":[{"type":"Feature","id":"251229_251229 AP01 PUR 3","properties":{"area_id":"251229_251229 AP01 PUR 3","nom":"Linyola","codi_icgc":"251229 AP01 PUR 3","categoria":"Àrees de poblament","codi_municipi":"251229","municipi":"Linyola","codi_comarca":"27","comarca":"Pla d'Urgell","provincia":"Lleida","font":"ICGC Àrees de poblament v3r1 202602"},"geometry":{"type":"MultiPolygon","coordinates":[[[[0.902975,41.715789],[0.903325,41.715588],[0.903388,41.715492],[0.9034,41.715473],[0.903337,41.715453],[0.903117,41.715386],[0.903059,41.71537],[0.903001,41.715353],[0.903292,41.715208],[0.903431,41.71512],[0.903596,41.715061],[0.903962,41.71494],[0.903922,41.7149],[0.903892,41.714835],[0.903693,41.714784],[0.903242,41.714667],[0.903024,41.714607],[0.903175,41.714239],[0.903834,41.714409],[0.903909,41.714251],[0.904345,41.714363],[0.904658,41.714435],[0.904751,41.714362],[0.904958,41.714158],[0.905046,41.714019],[0.90509,41.714021],[0.905239,41.713796],[0.905248,41.713784],[0.905264,41.713762],[0.905304,41.713697],[0.90554,41.713363],[0.905475,41.71334],[0.905376,41.713332],[0.905283,41.713325],[0.905137,41.712929],[0.905897,41.712753],[0.906096,41.712909],[0.906199,41.713006],[0.906325,41.713124],[0.906626,41.713408],[0.906889,41.713273],[0.906604,41.712974],[0.906365,41.712719],[0.906563,41.712206],[0.906578,41.712166],[0.906719,41.712188],[0.906888,41.711795],[0.905516,41.711542],[0.905545,41.711435],[0.905386,41.711398],[0.905626,41.711234],[0.90572,41.711211],[0.905962,41.711251],[0.905983,41.711196],[0.906439,41.711259],[0.907114,41.711345],[0.907736,41.711436],[0.90791,41.711454],[0.908084,41.711471],[0.90817,41.711478],[0.908256,41.711483],[0.908429,41.711491],[0.908525,41.711499],[0.908536,41.711501],[0.908556,41.711504],[0.908598,41.711517],[0.908622,41.711528],[0.908628,41.711533],[0.908657,41.711517],[0.908678,41.711505],[0.908722,41.71148],[0.908919,41.71133],[0.909102,41.711164],[0.909155,41.711091],[0.909232,41.710948],[0.909291,41.710882],[0.909315,41.710836],[0.909364,41.71074],[0.909369,41.710449],[0.909366,41.710442],[0.909366,41.710439],[0.909367,41.710432],[0.90937,41.710361],[0.909282,41.710166],[0.909257,41.710128],[0.909069,41.709908],[0.909045,41.709919],[0.908953,41.709831],[0.908637,41.709812],[0.908524,41.709809],[0.908411,41.709806],[0.908358,41.709806],[0.908265,41.709813],[0.907987,41.709846],[0.907791,41.709855],[0.907595,41.709865],[0.907541,41.709871],[0.907517,41.709878],[0.907496,41.70989],[0.907503,41.709876],[0.90751,41.709862],[0.907523,41.709839],[0.907536,41.709823],[0.907544,41.709814],[0.907556,41.709802],[0.907615,41.709744],[0.907639,41.70972],[0.907728,41.709637],[0.907841,41.709531],[0.907954,41.709426],[0.908073,41.709324],[0.908196,41.709224],[0.908341,41.709108],[0.908486,41.708992],[0.908625,41.708881],[0.908765,41.708769],[0.908938,41.708632],[0.909112,41.708496],[0.90924,41.708395],[0.909249,41.708388],[0.909304,41.708344],[0.90922,41.708261],[0.90903,41.708123],[0.908748,41.708173],[0.90783,41.708325],[0.907528,41.708373],[0.907434,41.708388],[0.907033,41.708452],[0.906833,41.70848],[0.907116,41.708676],[0.906178,41.708875],[0.906097,41.708568],[0.906041,41.708388],[0.905957,41.708118],[0.905971,41.708102],[0.905993,41.708099],[0.906003,41.708082],[0.906013,41.708065],[0.906014,41.708061],[0.90601,41.708057],[0.905989,41.708044],[0.905966,41.708034],[0.905922,41.708016],[0.905864,41.707986],[0.905805,41.707954],[0.905796,41.707946],[0.90579,41.707936],[0.905747,41.707912],[0.905694,41.707928],[0.90564,41.707941],[0.905526,41.707962],[0.905411,41.707979],[0.905386,41.707981],[0.90537,41.707906],[0.905367,41.707882],[0.905366,41.707859],[0.905367,41.707835],[0.905371,41.707812],[0.905377,41.707791],[0.905384,41.707771],[0.905393,41.707751],[0.905404,41.707732],[0.905254,41.707638],[0.90523,41.707623],[0.904943,41.707443],[0.904787,41.707332],[0.904763,41.707336],[0.904699,41.707293],[0.904604,41.707057],[0.904872,41.706994],[0.906004,41.706736],[0.906028,41.706729],[0.906053,41.706758],[0.906114,41.706744],[0.9057,41.7063],[0.905672,41.70625],[0.905627,41.706262],[0.905574,41.706276],[0.905522,41.706291],[0.905358,41.706333],[0.905193,41.706372],[0.905082,41.706396],[0.904941,41.706425],[0.904799,41.706454],[0.904709,41.706472],[0.904658,41.706486],[0.90462,41.706495],[0.9046,41.706501],[0.904594,41.706367],[0.90459,41.706158],[0.904596,41.706086],[0.904601,41.706042],[0.904608,41.706011],[0.904618,41.705985],[0.904631,41.705957],[0.90464,41.705856],[0.90465,41.705749],[0.904616,41.705732],[0.904541,41.705696],[0.90455,41.70522],[0.904519,41.705127],[0.90446,41.705084],[0.904361,41.705131],[0.904299,41.705017],[0.904202,41.704839],[0.903996,41.704936],[0.904127,41.705184],[0.904151,41.705232],[0.904075,41.705268],[0.903908,41.705349],[0.903742,41.70543],[0.903662,41.70547],[0.903631,41.705482],[0.903615,41.705485],[0.903604,41.705485],[0.903581,41.705483],[0.903562,41.705475],[0.903544,41.705464],[0.903533,41.705455],[0.903514,41.705438],[0.903498,41.705415],[0.903449,41.705294],[0.903425,41.705235],[0.90334,41.705258],[0.903148,41.70528],[0.903085,41.705281],[0.902875,41.705325],[0.902921,41.70546],[0.902604,41.705515],[0.902579,41.705478],[0.902145,41.705509],[0.901949,41.705512],[0.901703,41.705517],[0.901676,41.705497],[0.90149,41.705548],[0.900953,41.705771],[0.900848,41.705822],[0.90083,41.705831],[0.901167,41.706293],[0.900936,41.706376],[0.900793,41.706166],[0.900344,41.706358],[0.89999,41.706544],[0.900216,41.706764],[0.900053,41.706863],[0.899977,41.706844],[0.899839,41.706709],[0.899647,41.706504],[0.899631,41.706488],[0.89954,41.706537],[0.899445,41.706644],[0.899411,41.706651],[0.899356,41.706721],[0.899123,41.70698],[0.899029,41.706936],[0.898852,41.707139],[0.898206,41.707931],[0.898116,41.707894],[0.897166,41.707486],[0.896984,41.707709],[0.896892,41.707822],[0.896996,41.707904],[0.897105,41.707982],[0.897103,41.707993],[0.897085,41.707993],[0.897028,41.70799],[0.896915,41.707973],[0.896523,41.707911],[0.896494,41.707905],[0.896295,41.707868],[0.896094,41.707836],[0.895895,41.707811],[0.895892,41.70781],[0.895688,41.70779],[0.895552,41.707781],[0.895449,41.707774],[0.895439,41.707886],[0.895449,41.708121],[0.894925,41.708135],[0.894939,41.708305],[0.894945,41.708387],[0.894958,41.708564],[0.894986,41.708942],[0.894988,41.708967],[0.895,41.709127],[0.895032,41.709549],[0.895026,41.709677],[0.895365,41.709661],[0.895457,41.710758],[0.895895,41.710749],[0.896313,41.710741],[0.896331,41.710831],[0.896357,41.711042],[0.896382,41.711275],[0.896461,41.711799],[0.896494,41.71207],[0.896518,41.712191],[0.896536,41.712207],[0.896483,41.712215],[0.896421,41.712223],[0.896308,41.712236],[0.896193,41.712246],[0.896132,41.712251],[0.896093,41.712255],[0.896061,41.712257],[0.896074,41.712352],[0.896077,41.712358],[0.89609,41.712622],[0.896091,41.712673],[0.896697,41.712625],[0.896712,41.712804],[0.897123,41.71279],[0.897145,41.712789],[0.897602,41.712773],[0.897601,41.712742],[0.897903,41.712723],[0.898213,41.712707],[0.898207,41.712494],[0.898421,41.71248],[0.898723,41.712466],[0.898729,41.71251],[0.898738,41.712589],[0.898749,41.71268],[0.899103,41.712675],[0.89927,41.712622],[0.899705,41.712484],[0.899896,41.712887],[0.900736,41.712841],[0.901062,41.712828],[0.901178,41.712832],[0.901293,41.712835],[0.90138,41.712834],[0.901423,41.712835],[0.901465,41.712841],[0.901488,41.712846],[0.90151,41.712852],[0.901479,41.713085],[0.90075,41.713072],[0.900847,41.713941],[0.900931,41.714427],[0.900975,41.714524],[0.901515,41.714201],[0.901628,41.714211],[0.901919,41.714645],[0.901911,41.715224],[0.901891,41.715653],[0.901891,41.715686],[0.901917,41.715699],[0.901945,41.715706],[0.901977,41.715707],[0.902021,41.715709],[0.902063,41.715711],[0.902106,41.715713],[0.902149,41.715714],[0.902155,41.715714],[0.902451,41.715658],[0.902545,41.715656],[0.902631,41.71568],[0.902665,41.71569],[0.902975,41.715789]]]]}}]}