{"type":"FeatureCollection","name":"ICGC Àrees de poblament - Llavorsí","features":[{"type":"Feature","id":"251266_251266 AP04 PSO 3","properties":{"area_id":"251266_251266 AP04 PSO 3","nom":"Aidí","codi_icgc":"251266 AP04 PSO 3","categoria":"Àrees de poblament","codi_municipi":"251266","municipi":"Llavorsí","codi_comarca":"26","comarca":"Pallars Sobirà","provincia":"Lleida","font":"ICGC Àrees de poblament v3r1 202602"},"geometry":{"type":"MultiPolygon","coordinates":[[[[1.198244,42.521943],[1.198265,42.521865],[1.198286,42.521831],[1.198036,42.521744],[1.198006,42.521751],[1.197964,42.521761],[1.19788,42.521771],[1.197833,42.521651],[1.197811,42.521597],[1.197802,42.521573],[1.197801,42.521571],[1.197778,42.521576],[1.197736,42.521585],[1.197671,42.521607],[1.197632,42.52162],[1.197631,42.521619],[1.19748,42.521524],[1.197322,42.521563],[1.197203,42.521651],[1.197068,42.521586],[1.196853,42.521505],[1.19671,42.521551],[1.196574,42.52163],[1.196592,42.521669],[1.196766,42.521753],[1.196922,42.521778],[1.196924,42.521798],[1.196925,42.521818],[1.196928,42.521847],[1.19693,42.521876],[1.196932,42.521889],[1.196934,42.521892],[1.197008,42.521911],[1.197171,42.521951],[1.197173,42.521951],[1.197226,42.521946],[1.197222,42.521925],[1.19722,42.521893],[1.19723,42.521865],[1.197257,42.521876],[1.19732,42.521916],[1.1974,42.521964],[1.197507,42.522009],[1.197491,42.522052],[1.197479,42.522085],[1.197649,42.522154],[1.197711,42.522194],[1.197703,42.522218],[1.197701,42.522226],[1.197781,42.522248],[1.197829,42.522261],[1.197852,42.522267],[1.197879,42.522262],[1.197899,42.522259],[1.19792,42.522255],[1.198121,42.522219],[1.198213,42.522178],[1.198215,42.522172],[1.198227,42.522141],[1.198244,42.522099],[1.198215,42.522077],[1.198215,42.522054],[1.198206,42.522007],[1.198244,42.521943]]]]}},{"type":"Feature","id":"251266_251266 AP05 PSO 3","properties":{"area_id":"251266_251266 AP05 PSO 3","nom":"Arestui","codi_icgc":"251266 AP05 PSO 3","categoria":"Àrees de poblament","codi_municipi":"251266","municipi":"Llavorsí","codi_comarca":"26","comarca":"Pallars Sobirà","provincia":"Lleida","font":"ICGC Àrees de poblament v3r1 202602"},"geometry":{"type":"MultiPolygon","coordinates":[[[[1.166862,42.508416],[1.167093,42.50845],[1.167105,42.508601],[1.167269,42.508596],[1.167425,42.508544],[1.167513,42.508519],[1.167702,42.508532],[1.167703,42.508403],[1.167705,42.508336],[1.16753,42.508252],[1.167382,42.508278],[1.167372,42.508201],[1.167309,42.508057],[1.167073,42.508092],[1.167061,42.508004],[1.167038,42.507899],[1.167057,42.507765],[1.167032,42.50767],[1.16691,42.507593],[1.166904,42.507555],[1.166844,42.50747],[1.166725,42.507417],[1.166689,42.507315],[1.166445,42.50738],[1.16641,42.507435],[1.166391,42.50751],[1.166285,42.507561],[1.166243,42.507611],[1.166171,42.507665],[1.166093,42.507673],[1.16607,42.507651],[1.166035,42.507635],[1.165996,42.507627],[1.165922,42.507633],[1.165851,42.507656],[1.165762,42.507695],[1.165882,42.507907],[1.166046,42.507919],[1.166152,42.507923],[1.166151,42.508073],[1.166266,42.508099],[1.1664,42.508134],[1.166522,42.508165],[1.166656,42.50821],[1.16678,42.508233],[1.166885,42.508259],[1.166862,42.508416]]]]}},{"type":"Feature","id":"251266_251266 AP06 PSO 3","properties":{"area_id":"251266_251266 AP06 PSO 3","nom":"Baiasca","codi_icgc":"251266 AP06 PSO 3","categoria":"Àrees de poblament","codi_municipi":"251266","municipi":"Llavorsí","codi_comarca":"26","comarca":"Pallars Sobirà","provincia":"Lleida","font":"ICGC Àrees de poblament v3r1 202602"},"geometry":{"type":"MultiPolygon","coordinates":[[[[1.143743,42.509789],[1.143655,42.509715],[1.143593,42.509646],[1.143588,42.509438],[1.143507,42.509439],[1.143385,42.50942],[1.143345,42.509419],[1.143295,42.509417],[1.143149,42.509406],[1.142891,42.509347],[1.142871,42.509318],[1.142848,42.509313],[1.142803,42.509338],[1.142803,42.509339],[1.142563,42.509272],[1.142563,42.50927],[1.142578,42.509165],[1.142231,42.509073],[1.142181,42.50917],[1.142174,42.509184],[1.142138,42.509196],[1.142127,42.5092],[1.142121,42.509201],[1.142121,42.509201],[1.142106,42.509206],[1.142096,42.50921],[1.142079,42.509219],[1.142065,42.509225],[1.142054,42.509228],[1.141984,42.509243],[1.141914,42.50926],[1.141872,42.509274],[1.141831,42.509287],[1.141664,42.509291],[1.141638,42.509283],[1.141614,42.509274],[1.141597,42.509264],[1.141581,42.509252],[1.141582,42.509238],[1.141511,42.509233],[1.141511,42.509235],[1.141508,42.509372],[1.1415,42.509427],[1.141584,42.509434],[1.141587,42.509416],[1.141639,42.509421],[1.141638,42.509424],[1.141676,42.509472],[1.141746,42.509506],[1.141817,42.509539],[1.141859,42.509556],[1.141902,42.509572],[1.142004,42.509567],[1.142046,42.509585],[1.142088,42.509604],[1.142104,42.509608],[1.142106,42.509608],[1.142129,42.509609],[1.142177,42.509603],[1.142189,42.5096],[1.142255,42.509659],[1.142297,42.509687],[1.142292,42.509693],[1.142375,42.509728],[1.142386,42.509732],[1.142388,42.509729],[1.142429,42.509741],[1.142469,42.509753],[1.142497,42.509762],[1.142524,42.509773],[1.142574,42.5098],[1.142603,42.509821],[1.142644,42.509852],[1.142684,42.509885],[1.142842,42.509915],[1.142909,42.509938],[1.142977,42.509962],[1.143002,42.509968],[1.143028,42.509971],[1.14308,42.509976],[1.143145,42.50999],[1.143161,42.509994],[1.143182,42.509997],[1.143196,42.510003],[1.143208,42.510007],[1.143244,42.510021],[1.143279,42.510037],[1.143346,42.510075],[1.143364,42.510088],[1.14338,42.510103],[1.143408,42.51013],[1.143412,42.510133],[1.143431,42.510147],[1.143483,42.510163],[1.143638,42.51021],[1.14377,42.51026],[1.143878,42.510277],[1.143961,42.510177],[1.143979,42.510075],[1.14394,42.510054],[1.14396,42.510015],[1.14395,42.510012],[1.143912,42.509992],[1.143877,42.509971],[1.143851,42.509947],[1.143817,42.509908],[1.143785,42.509868],[1.143798,42.509863],[1.143743,42.509789]]]]}},{"type":"Feature","id":"251266_251266 AP01 PSO 3","properties":{"area_id":"251266_251266 AP01 PSO 3","nom":"Llavorsí","codi_icgc":"251266 AP01 PSO 3","categoria":"Àrees de poblament","codi_municipi":"251266","municipi":"Llavorsí","codi_comarca":"26","comarca":"Pallars Sobirà","provincia":"Lleida","font":"ICGC Àrees de poblament v3r1 202602"},"geometry":{"type":"MultiPolygon","coordinates":[[[[1.208981,42.498089],[1.208983,42.498088],[1.209127,42.498086],[1.209115,42.498302],[1.209009,42.498817],[1.208924,42.499137],[1.208875,42.499294],[1.208779,42.499409],[1.20867,42.499544],[1.208582,42.499652],[1.208502,42.499738],[1.208336,42.499917],[1.208309,42.499947],[1.208378,42.49998],[1.208451,42.500016],[1.208476,42.499987],[1.208531,42.500014],[1.208569,42.499972],[1.208669,42.499971],[1.208964,42.499839],[1.208943,42.499808],[1.208968,42.499797],[1.208982,42.499813],[1.209202,42.499713],[1.209309,42.499683],[1.209409,42.499612],[1.209439,42.499579],[1.209906,42.499067],[1.209992,42.498924],[1.209998,42.498924],[1.21003,42.498779],[1.210034,42.498761],[1.210044,42.498673],[1.21005,42.498622],[1.210089,42.498514],[1.21009,42.498381],[1.210078,42.498272],[1.210054,42.498045],[1.210034,42.497848],[1.210002,42.497608],[1.209969,42.497366],[1.209976,42.497102],[1.20999,42.497032],[1.210015,42.496948],[1.210062,42.496863],[1.210115,42.496784],[1.210181,42.496713],[1.210224,42.496671],[1.210356,42.496578],[1.210496,42.496501],[1.210624,42.49642],[1.210781,42.496346],[1.210944,42.49628],[1.211267,42.496142],[1.21141,42.49608],[1.211579,42.496008],[1.211571,42.495991],[1.21169,42.495921],[1.212051,42.49565],[1.212107,42.495583],[1.212107,42.495557],[1.212108,42.495477],[1.212092,42.495474],[1.212064,42.495467],[1.212052,42.49546],[1.212038,42.495444],[1.212007,42.495409],[1.212003,42.495404],[1.211995,42.495392],[1.211954,42.495338],[1.211928,42.495304],[1.211884,42.49525],[1.21187,42.49523],[1.211862,42.495218],[1.21186,42.495211],[1.211849,42.495176],[1.211844,42.495157],[1.211823,42.495072],[1.211821,42.495065],[1.211795,42.494952],[1.211781,42.494908],[1.211772,42.494877],[1.211765,42.494858],[1.211756,42.494836],[1.211763,42.494833],[1.211787,42.494839],[1.211777,42.494795],[1.211774,42.494785],[1.212081,42.494768],[1.212245,42.494637],[1.212145,42.49451],[1.212149,42.494494],[1.212154,42.494476],[1.212157,42.494437],[1.212158,42.494426],[1.212149,42.494388],[1.212135,42.494367],[1.212023,42.494199],[1.21196,42.494097],[1.211914,42.494022],[1.211868,42.493992],[1.211821,42.493962],[1.211792,42.493948],[1.21177,42.493938],[1.211696,42.493922],[1.211691,42.493923],[1.211636,42.493937],[1.211633,42.493938],[1.211589,42.49397],[1.211587,42.493979],[1.211582,42.49401],[1.211586,42.494078],[1.21161,42.494305],[1.211609,42.494306],[1.211527,42.494317],[1.21146,42.494326],[1.21146,42.494326],[1.211416,42.494288],[1.211312,42.494199],[1.211302,42.49419],[1.211234,42.494143],[1.211182,42.494146],[1.211122,42.494174],[1.211049,42.494219],[1.211049,42.494224],[1.211055,42.494264],[1.211074,42.4944],[1.211206,42.494393],[1.211231,42.494415],[1.211217,42.494545],[1.211185,42.494762],[1.211671,42.49488],[1.211748,42.495152],[1.210984,42.495041],[1.21099,42.495049],[1.210885,42.495013],[1.210883,42.495013],[1.21063,42.494965],[1.210624,42.494963],[1.210464,42.494932],[1.21042,42.494886],[1.21038,42.494819],[1.210317,42.494811],[1.210289,42.494808],[1.210136,42.494789],[1.210096,42.494953],[1.210128,42.495068],[1.210191,42.495123],[1.210251,42.49526],[1.210263,42.49532],[1.210079,42.495329],[1.209988,42.49523],[1.209879,42.495214],[1.209814,42.495141],[1.20969,42.495173],[1.209481,42.49517],[1.209482,42.495377],[1.209515,42.495454],[1.209589,42.495471],[1.209704,42.495495],[1.209715,42.4955],[1.209723,42.495504],[1.209745,42.495507],[1.209767,42.495507],[1.209794,42.495496],[1.209821,42.495482],[1.209833,42.495474],[1.209846,42.495466],[1.209875,42.495439],[1.209888,42.495429],[1.209898,42.495422],[1.209901,42.495422],[1.20991,42.49542],[1.209916,42.495422],[1.209918,42.495429],[1.209881,42.495485],[1.209873,42.495502],[1.209863,42.495523],[1.209857,42.495574],[1.209857,42.495579],[1.209842,42.495598],[1.209833,42.495609],[1.209829,42.495613],[1.209737,42.495714],[1.209697,42.495753],[1.209679,42.49577],[1.209592,42.495832],[1.209565,42.495859],[1.209563,42.49586],[1.209478,42.495901],[1.20945,42.495914],[1.209409,42.495934],[1.209195,42.496106],[1.209146,42.496219],[1.209077,42.496298],[1.208938,42.496386],[1.208682,42.4965],[1.208595,42.496564],[1.208543,42.496664],[1.208476,42.496754],[1.208454,42.496797],[1.208439,42.496825],[1.208433,42.496837],[1.208432,42.496863],[1.208431,42.496887],[1.20843,42.49689],[1.208418,42.496915],[1.208391,42.496947],[1.208386,42.496958],[1.208383,42.496963],[1.208374,42.49698],[1.208378,42.497],[1.208386,42.49704],[1.208388,42.497055],[1.208441,42.497061],[1.208742,42.497069],[1.208741,42.497257],[1.208715,42.497304],[1.208676,42.497422],[1.208676,42.497708],[1.208723,42.497754],[1.208744,42.49798],[1.208793,42.498097],[1.208981,42.498089]]]]}},{"type":"Feature","id":"251266_251266 AP03 PSO 3","properties":{"area_id":"251266_251266 AP03 PSO 3","nom":"Montenartró","codi_icgc":"251266 AP03 PSO 3","categoria":"Àrees de poblament","codi_municipi":"251266","municipi":"Llavorsí","codi_comarca":"26","comarca":"Pallars Sobirà","provincia":"Lleida","font":"ICGC Àrees de poblament v3r1 202602"},"geometry":{"type":"MultiPolygon","coordinates":[[[[1.225602,42.449476],[1.225667,42.449534],[1.225686,42.449582],[1.225533,42.449627],[1.225564,42.449738],[1.225652,42.449785],[1.225698,42.450156],[1.225748,42.450235],[1.225715,42.450303],[1.225584,42.450278],[1.225432,42.450287],[1.225392,42.450336],[1.225395,42.450425],[1.2254,42.450601],[1.225361,42.450728],[1.22577,42.450828],[1.225822,42.450707],[1.225766,42.450671],[1.225853,42.450417],[1.225882,42.450416],[1.22595,42.450289],[1.225861,42.45016],[1.225911,42.449839],[1.225902,42.449779],[1.225878,42.449735],[1.22628,42.449787],[1.226512,42.449697],[1.226568,42.449628],[1.226689,42.449624],[1.226679,42.449435],[1.226499,42.449421],[1.226496,42.449345],[1.226653,42.449069],[1.226579,42.449056],[1.226476,42.449045],[1.226353,42.449039],[1.226309,42.44905],[1.226279,42.44909],[1.226276,42.449135],[1.226292,42.449189],[1.225923,42.449212],[1.225873,42.449182],[1.225733,42.44911],[1.2257,42.449086],[1.225608,42.449016],[1.225499,42.448971],[1.225227,42.44889],[1.22516,42.449093],[1.225183,42.449215],[1.225461,42.449342],[1.225602,42.449476]]]]}},{"type":"Feature","id":"251266_251266 AP02 PSO 3","properties":{"area_id":"251266_251266 AP02 PSO 3","nom":"Romadriu","codi_icgc":"251266 AP02 PSO 3","categoria":"Àrees de poblament","codi_municipi":"251266","municipi":"Llavorsí","codi_comarca":"26","comarca":"Pallars Sobirà","provincia":"Lleida","font":"ICGC Àrees de poblament v3r1 202602"},"geometry":{"type":"MultiPolygon","coordinates":[[[[1.268206,42.446484],[1.268205,42.446568],[1.268416,42.446567],[1.268416,42.446481],[1.2685,42.446392],[1.26857,42.446317],[1.268589,42.446296],[1.268718,42.446183],[1.26871,42.446129],[1.268604,42.446026],[1.268516,42.446033],[1.268435,42.446029],[1.268347,42.446013],[1.268335,42.445867],[1.268265,42.445842],[1.268231,42.445845],[1.268154,42.445853],[1.268127,42.445858],[1.268095,42.445869],[1.268061,42.445876],[1.268023,42.445879],[1.267981,42.445874],[1.267938,42.44586],[1.267854,42.44583],[1.267868,42.4458],[1.267847,42.445791],[1.267823,42.445791],[1.267658,42.445785],[1.267601,42.445669],[1.26752,42.445683],[1.267415,42.445702],[1.267359,42.445737],[1.267327,42.445752],[1.267405,42.445839],[1.267392,42.445855],[1.267376,42.445874],[1.267372,42.445885],[1.267375,42.445921],[1.267379,42.445945],[1.267402,42.445989],[1.26746,42.445973],[1.267481,42.445968],[1.267509,42.445993],[1.267539,42.446016],[1.267618,42.446062],[1.267709,42.446122],[1.267767,42.446183],[1.267784,42.446211],[1.267822,42.446285],[1.267842,42.446353],[1.267853,42.446393],[1.267868,42.44642],[1.267911,42.446488],[1.268145,42.446369],[1.268247,42.446484],[1.268206,42.446484]]]]}},{"type":"Feature","id":"251266_251266 AP07 PSO 3","properties":{"area_id":"251266_251266 AP07 PSO 3","nom":"Sant Romà de Tavernoles","codi_icgc":"251266 AP07 PSO 3","categoria":"Àrees de poblament","codi_municipi":"251266","municipi":"Llavorsí","codi_comarca":"26","comarca":"Pallars Sobirà","provincia":"Lleida","font":"ICGC Àrees de poblament v3r1 202602"},"geometry":{"type":"MultiPolygon","coordinates":[[[[1.18743,42.47287],[1.186971,42.472929],[1.186543,42.473032],[1.18623,42.473175],[1.185778,42.473463],[1.185368,42.473604],[1.184852,42.473844],[1.185041,42.474019],[1.186184,42.473646],[1.186677,42.473535],[1.187297,42.473225],[1.187572,42.473067],[1.18743,42.47287]]]]}}]}