{"type":"FeatureCollection","name":"ICGC Àrees de poblament - Menàrguens","features":[{"type":"Feature","id":"251348_251348 SI02 NOG 2","properties":{"area_id":"251348_251348 SI02 NOG 2","nom":"Cooperativa","codi_icgc":"251348 SI02 NOG 2","categoria":"Sector industrial","codi_municipi":"251348","municipi":"Menàrguens","codi_comarca":"23","comarca":"Noguera","provincia":"Lleida","font":"ICGC Àrees de poblament v3r1 202602"},"geometry":{"type":"MultiPolygon","coordinates":[[[[0.749127,41.73552],[0.749227,41.736503],[0.749224,41.736577],[0.749375,41.73662],[0.749512,41.736662],[0.749593,41.736677],[0.749693,41.736672],[0.749871,41.736647],[0.750437,41.736544],[0.750792,41.736487],[0.750996,41.736447],[0.75106,41.736433],[0.75106,41.736418],[0.751034,41.736373],[0.750976,41.736333],[0.750846,41.736235],[0.750567,41.736015],[0.750053,41.735614],[0.749508,41.735184],[0.749383,41.735291],[0.749146,41.735344],[0.749127,41.73552]]]]}},{"type":"Feature","id":"251348_251348 AP01 NOG 3","properties":{"area_id":"251348_251348 AP01 NOG 3","nom":"Menàrguens","codi_icgc":"251348 AP01 NOG 3","categoria":"Àrees de poblament","codi_municipi":"251348","municipi":"Menàrguens","codi_comarca":"23","comarca":"Noguera","provincia":"Lleida","font":"ICGC Àrees de poblament v3r1 202602"},"geometry":{"type":"MultiPolygon","coordinates":[[[[0.748836,41.735146],[0.749166,41.734908],[0.749247,41.734848],[0.749508,41.735044],[0.749756,41.73523],[0.750035,41.73544],[0.750332,41.735685],[0.750596,41.735875],[0.750907,41.735665],[0.750619,41.735437],[0.75065,41.735415],[0.750003,41.734909],[0.749982,41.734893],[0.749833,41.734777],[0.749803,41.734753],[0.749421,41.734455],[0.749587,41.734342],[0.749322,41.734139],[0.749262,41.734095],[0.749249,41.734084],[0.749213,41.734054],[0.749042,41.733919],[0.748946,41.733842],[0.748361,41.734139],[0.748165,41.733963],[0.748118,41.73392],[0.748049,41.733868],[0.748249,41.733744],[0.748149,41.733658],[0.747944,41.733785],[0.747899,41.733747],[0.74783,41.733679],[0.747764,41.733608],[0.747691,41.733529],[0.747647,41.733473],[0.74759,41.73339],[0.747915,41.733204],[0.747826,41.733139],[0.747813,41.733147],[0.747734,41.733085],[0.747746,41.733079],[0.747727,41.733058],[0.747678,41.733084],[0.747675,41.733079],[0.747718,41.733053],[0.747657,41.732976],[0.747605,41.732911],[0.747587,41.732901],[0.747643,41.732866],[0.747604,41.732824],[0.747638,41.732804],[0.747549,41.732716],[0.747487,41.732749],[0.747408,41.732681],[0.747341,41.732628],[0.747289,41.732602],[0.747175,41.732561],[0.747132,41.732536],[0.747087,41.732495],[0.747046,41.732431],[0.747,41.732356],[0.746994,41.732302],[0.746986,41.732253],[0.746975,41.732203],[0.746942,41.732086],[0.747136,41.732005],[0.747149,41.732],[0.747164,41.732],[0.74718,41.732004],[0.747283,41.73205],[0.747355,41.731998],[0.747546,41.731867],[0.747372,41.731667],[0.747355,41.731621],[0.747485,41.73154],[0.747348,41.731332],[0.747457,41.731267],[0.747256,41.731052],[0.747564,41.730876],[0.74748,41.730793],[0.74745,41.730812],[0.747294,41.730675],[0.747331,41.730653],[0.747184,41.730498],[0.746842,41.730679],[0.74676,41.730718],[0.746559,41.730528],[0.746274,41.730682],[0.746018,41.730823],[0.745987,41.730798],[0.745933,41.730747],[0.745808,41.730595],[0.745681,41.730443],[0.745629,41.730369],[0.745625,41.730347],[0.745802,41.730258],[0.74589,41.730209],[0.746051,41.730115],[0.74616,41.730061],[0.746024,41.729901],[0.745914,41.729954],[0.745857,41.729984],[0.745839,41.729961],[0.745844,41.729919],[0.745766,41.729825],[0.745738,41.729791],[0.745553,41.729887],[0.745485,41.729921],[0.745448,41.729939],[0.745329,41.730004],[0.745231,41.729923],[0.745168,41.729848],[0.745208,41.729827],[0.745428,41.729714],[0.745202,41.729529],[0.745172,41.729515],[0.745137,41.729532],[0.744994,41.729604],[0.744934,41.729609],[0.744866,41.729556],[0.744785,41.729497],[0.744611,41.729376],[0.74444,41.729254],[0.744403,41.729225],[0.744231,41.729094],[0.744025,41.728933],[0.744018,41.728917],[0.744194,41.728825],[0.744473,41.728684],[0.744407,41.728598],[0.744157,41.728322],[0.744149,41.728296],[0.744046,41.728031],[0.743801,41.72817],[0.743763,41.728194],[0.743732,41.728206],[0.743632,41.728003],[0.743695,41.72795],[0.743753,41.727906],[0.743842,41.72784],[0.743931,41.727773],[0.743953,41.727755],[0.743975,41.727737],[0.743946,41.727719],[0.743774,41.727523],[0.743906,41.727435],[0.743928,41.727423],[0.743812,41.727218],[0.7443,41.726944],[0.74438,41.726899],[0.744304,41.726838],[0.744164,41.726673],[0.743356,41.727107],[0.743265,41.726999],[0.743227,41.726962],[0.742896,41.727148],[0.742874,41.727161],[0.743098,41.727388],[0.742708,41.727615],[0.742676,41.727531],[0.742525,41.727386],[0.742409,41.727319],[0.742315,41.727277],[0.742137,41.727218],[0.742008,41.727163],[0.741917,41.727117],[0.741745,41.727026],[0.741604,41.726965],[0.741584,41.726984],[0.741537,41.726961],[0.741504,41.726998],[0.741501,41.727],[0.741106,41.726918],[0.740433,41.726869],[0.740021,41.726845],[0.739948,41.726837],[0.740077,41.726581],[0.740172,41.726453],[0.740153,41.726441],[0.7401,41.726442],[0.739758,41.726239],[0.739592,41.726125],[0.73942,41.726021],[0.739337,41.725987],[0.739357,41.725932],[0.739241,41.72591],[0.73909,41.725857],[0.739033,41.725853],[0.739002,41.725866],[0.738938,41.725928],[0.738901,41.725918],[0.738854,41.725972],[0.738759,41.726043],[0.738693,41.726088],[0.738635,41.726107],[0.738564,41.72612],[0.738465,41.726116],[0.738248,41.726095],[0.7382,41.726094],[0.738181,41.726091],[0.738093,41.726097],[0.737722,41.726173],[0.737741,41.726207],[0.737873,41.726341],[0.737946,41.726334],[0.738037,41.726334],[0.73813,41.726343],[0.738255,41.726362],[0.73832,41.726375],[0.738376,41.72639],[0.738445,41.726411],[0.738566,41.726454],[0.738719,41.726519],[0.739244,41.726743],[0.739416,41.726808],[0.73961,41.726864],[0.739584,41.726884],[0.739557,41.72689],[0.739458,41.726874],[0.738702,41.726711],[0.738675,41.726769],[0.738565,41.726948],[0.738503,41.727049],[0.738786,41.727302],[0.738968,41.727476],[0.739149,41.727285],[0.739245,41.72717],[0.739364,41.726919],[0.739372,41.726921],[0.739541,41.726951],[0.739645,41.726968],[0.739784,41.726993],[0.739901,41.727022],[0.740001,41.727058],[0.739751,41.727504],[0.740209,41.727759],[0.74037,41.727822],[0.740317,41.727883],[0.740215,41.727956],[0.740349,41.728281],[0.740363,41.728345],[0.74046,41.728375],[0.740506,41.728396],[0.740562,41.728513],[0.740588,41.728569],[0.740713,41.72854],[0.740786,41.728527],[0.740939,41.728845],[0.741097,41.728794],[0.741055,41.728673],[0.741153,41.728662],[0.741461,41.728649],[0.741578,41.728651],[0.741686,41.728682],[0.741778,41.728754],[0.741819,41.728826],[0.74181,41.728889],[0.74171,41.729008],[0.741594,41.729108],[0.741426,41.729213],[0.741441,41.729225],[0.741505,41.729278],[0.741433,41.729307],[0.74129,41.729364],[0.741166,41.729378],[0.741146,41.729406],[0.741385,41.729661],[0.741219,41.72975],[0.741329,41.729846],[0.74118,41.729948],[0.741147,41.729971],[0.741184,41.730004],[0.740891,41.730214],[0.740821,41.730273],[0.740816,41.73028],[0.740766,41.730337],[0.740757,41.730345],[0.740667,41.730432],[0.740577,41.730522],[0.740555,41.730545],[0.740539,41.730562],[0.740508,41.730595],[0.740499,41.730604],[0.740475,41.73063],[0.740471,41.730636],[0.740449,41.730664],[0.740416,41.730696],[0.740382,41.730727],[0.740373,41.730735],[0.740364,41.730743],[0.740341,41.730768],[0.740119,41.730702],[0.740061,41.730824],[0.740038,41.730873],[0.740127,41.730899],[0.740134,41.730901],[0.740209,41.730926],[0.740011,41.731182],[0.740081,41.73121],[0.740272,41.731349],[0.740357,41.731411],[0.74036,41.731409],[0.740544,41.731291],[0.740564,41.731276],[0.740648,41.73122],[0.740668,41.731207],[0.740699,41.731191],[0.740704,41.731189],[0.740758,41.73117],[0.740828,41.731212],[0.740871,41.731235],[0.740966,41.731275],[0.74071,41.731647],[0.740889,41.731716],[0.741093,41.731606],[0.741172,41.731466],[0.741357,41.731231],[0.741741,41.7314],[0.741668,41.731696],[0.741908,41.731961],[0.742211,41.732395],[0.742338,41.732327],[0.742582,41.732226],[0.742615,41.732273],[0.742647,41.73232],[0.742737,41.732445],[0.74283,41.732568],[0.742872,41.732625],[0.742913,41.732682],[0.742944,41.732706],[0.742948,41.732709],[0.742955,41.732714],[0.742966,41.732722],[0.742979,41.732729],[0.742984,41.732731],[0.743007,41.732741],[0.743112,41.732695],[0.743225,41.732635],[0.743308,41.73255],[0.743366,41.732462],[0.743383,41.732331],[0.743355,41.732208],[0.74327,41.732043],[0.743506,41.732107],[0.743625,41.73199],[0.743712,41.731906],[0.743816,41.731878],[0.74387,41.731921],[0.743955,41.732009],[0.743972,41.732077],[0.743958,41.732149],[0.743885,41.732189],[0.743811,41.732256],[0.743715,41.732397],[0.743707,41.732513],[0.74374,41.732585],[0.743887,41.732576],[0.744,41.732552],[0.744086,41.732583],[0.744128,41.732733],[0.744229,41.732693],[0.744413,41.732667],[0.744572,41.732673],[0.74472,41.732762],[0.744856,41.732857],[0.744939,41.732984],[0.744928,41.733282],[0.744906,41.733478],[0.7449,41.733648],[0.744933,41.73372],[0.745028,41.733731],[0.745315,41.733834],[0.745565,41.733944],[0.745732,41.733846],[0.745914,41.733876],[0.74589,41.733977],[0.74578,41.734055],[0.745662,41.734148],[0.745641,41.734282],[0.745712,41.7344],[0.745782,41.734397],[0.745977,41.734409],[0.746008,41.73439],[0.746075,41.734378],[0.746137,41.734379],[0.74621,41.734393],[0.746304,41.734398],[0.746475,41.734397],[0.746629,41.734329],[0.746688,41.734278],[0.746733,41.734212],[0.746595,41.733956],[0.746568,41.733934],[0.746332,41.733956],[0.74631,41.733794],[0.746079,41.733814],[0.746093,41.733629],[0.746095,41.733474],[0.746075,41.733343],[0.746036,41.733211],[0.745914,41.733075],[0.746151,41.732883],[0.746316,41.733181],[0.746375,41.733304],[0.746438,41.733547],[0.746482,41.733652],[0.746604,41.7338],[0.74668,41.733906],[0.746789,41.734051],[0.746788,41.734077],[0.746816,41.734104],[0.746896,41.734131],[0.746957,41.734151],[0.746991,41.734184],[0.747017,41.734206],[0.747058,41.734217],[0.747104,41.734219],[0.747168,41.734218],[0.747288,41.734205],[0.747497,41.734203],[0.747685,41.734225],[0.747743,41.734239],[0.747779,41.734239],[0.747798,41.734229],[0.747867,41.734302],[0.747977,41.73434],[0.74795,41.734408],[0.747932,41.734443],[0.747909,41.734476],[0.747889,41.734499],[0.748067,41.734624],[0.748405,41.734845],[0.748607,41.734989],[0.748836,41.735146]]]]}},{"type":"Feature","id":"251348_251348 SI01 NOG 2","properties":{"area_id":"251348_251348 SI01 NOG 2","nom":"Polígon industrial de la Sucrera","codi_icgc":"251348 SI01 NOG 2","categoria":"Sector industrial","codi_municipi":"251348","municipi":"Menàrguens","codi_comarca":"23","comarca":"Noguera","provincia":"Lleida","font":"ICGC Àrees de poblament v3r1 202602"},"geometry":{"type":"MultiPolygon","coordinates":[[[[0.750467,41.723544],[0.750635,41.72344],[0.750651,41.723454],[0.75079,41.723367],[0.750524,41.723127],[0.750406,41.723018],[0.750347,41.722915],[0.750398,41.722883],[0.750937,41.72254],[0.751193,41.722385],[0.751243,41.722352],[0.751693,41.722068],[0.751802,41.722159],[0.752197,41.722497],[0.752696,41.722153],[0.752818,41.722079],[0.752622,41.721899],[0.75266,41.721876],[0.752547,41.721773],[0.752468,41.721692],[0.7524,41.721621],[0.752511,41.721551],[0.752551,41.721526],[0.753028,41.721225],[0.753033,41.721221],[0.753128,41.721161],[0.753258,41.721083],[0.753615,41.721085],[0.753639,41.721084],[0.753639,41.721075],[0.753639,41.721066],[0.75364,41.721061],[0.753656,41.720991],[0.75366,41.720971],[0.753662,41.720959],[0.753663,41.720947],[0.753664,41.720927],[0.753664,41.720891],[0.753662,41.720855],[0.753661,41.720837],[0.753659,41.720824],[0.753655,41.72081],[0.753652,41.720802],[0.753649,41.720794],[0.753641,41.720782],[0.753636,41.720777],[0.753624,41.720768],[0.753611,41.720758],[0.753597,41.720748],[0.753574,41.720733],[0.753552,41.720719],[0.753532,41.720708],[0.753482,41.720684],[0.753194,41.72055],[0.753121,41.720513],[0.752984,41.72044],[0.752972,41.720433],[0.75295,41.72042],[0.752921,41.7204],[0.752903,41.720387],[0.752886,41.720374],[0.752812,41.720313],[0.752782,41.72029],[0.75273,41.720252],[0.75261,41.720169],[0.752598,41.720161],[0.752473,41.720085],[0.752463,41.720078],[0.752438,41.720058],[0.752393,41.720024],[0.752329,41.719983],[0.752302,41.719969],[0.752266,41.719988],[0.752228,41.720016],[0.751026,41.720768],[0.751019,41.720772],[0.749744,41.721562],[0.749425,41.721768],[0.747908,41.722728],[0.747858,41.722784],[0.74786,41.722904],[0.748161,41.723118],[0.748558,41.723402],[0.748826,41.723595],[0.749063,41.723766],[0.749057,41.723776],[0.749035,41.723798],[0.74888,41.723907],[0.748863,41.723919],[0.748911,41.723953],[0.748924,41.723954],[0.748945,41.723966],[0.749101,41.72407],[0.749334,41.724229],[0.749487,41.724119],[0.749535,41.724101],[0.749602,41.724075],[0.749639,41.724073],[0.750228,41.723687],[0.750335,41.723682],[0.750498,41.723571],[0.750467,41.723544]]],[[[0.74611,41.725795],[0.745796,41.725463],[0.745459,41.725653],[0.74425,41.726364],[0.74403,41.726515],[0.744164,41.726673],[0.744304,41.726838],[0.74438,41.726899],[0.744472,41.726847],[0.744763,41.726684],[0.744956,41.726573],[0.745026,41.726532],[0.745096,41.72649],[0.745245,41.726403],[0.745395,41.726317],[0.745498,41.726255],[0.745598,41.726193],[0.745798,41.726067],[0.746034,41.725922],[0.746168,41.72584],[0.74611,41.725795]]]]}}]}