{"type":"FeatureCollection","name":"ICGC Àrees de poblament - Massoteres","features":[{"type":"Feature","id":"251327_251327 AP01 SGA 3","properties":{"area_id":"251327_251327 AP01 SGA 3","nom":"Massoteres","codi_icgc":"251327 AP01 SGA 3","categoria":"Àrees de poblament","codi_municipi":"251327","municipi":"Massoteres","codi_comarca":"32","comarca":"Segarra","provincia":"Lleida","font":"ICGC Àrees de poblament v3r1 202602"},"geometry":{"type":"MultiPolygon","coordinates":[[[[1.31111,41.798846],[1.311176,41.798754],[1.311217,41.79869],[1.311297,41.798548],[1.311371,41.798404],[1.311435,41.798276],[1.311494,41.798145],[1.311521,41.798063],[1.311539,41.798005],[1.311546,41.797981],[1.31155,41.797965],[1.311554,41.797952],[1.311556,41.797946],[1.311558,41.797901],[1.311547,41.797848],[1.311532,41.797798],[1.311518,41.797743],[1.311505,41.797723],[1.311495,41.797702],[1.311487,41.797685],[1.311455,41.797617],[1.311424,41.797549],[1.311399,41.797497],[1.311375,41.797445],[1.311375,41.797435],[1.311379,41.797426],[1.311384,41.797417],[1.311591,41.797358],[1.311598,41.797356],[1.311596,41.797351],[1.311599,41.797349],[1.311629,41.797325],[1.311709,41.797263],[1.311814,41.797182],[1.311863,41.797135],[1.311903,41.797096],[1.311907,41.797096],[1.311915,41.797093],[1.311928,41.797088],[1.311941,41.797067],[1.311994,41.797007],[1.312015,41.796991],[1.312067,41.796949],[1.312098,41.796932],[1.312129,41.796919],[1.312184,41.796865],[1.312357,41.796724],[1.312351,41.796695],[1.312121,41.796596],[1.312008,41.796568],[1.311976,41.796539],[1.311929,41.796489],[1.311893,41.796427],[1.311884,41.796394],[1.311889,41.796372],[1.311903,41.796349],[1.311937,41.796332],[1.311981,41.796332],[1.312025,41.796341],[1.312201,41.796089],[1.311914,41.795989],[1.312083,41.795779],[1.312154,41.795704],[1.31222,41.795681],[1.312426,41.795768],[1.312532,41.795644],[1.312592,41.795673],[1.312674,41.79557],[1.312585,41.795527],[1.312441,41.795476],[1.312519,41.795427],[1.312552,41.79539],[1.312578,41.795351],[1.312684,41.795212],[1.312593,41.795168],[1.312498,41.795122],[1.312679,41.794905],[1.312664,41.794896],[1.312501,41.794799],[1.312322,41.794954],[1.312239,41.79504],[1.311775,41.795454],[1.311767,41.795461],[1.311757,41.79548],[1.311753,41.795506],[1.311765,41.795525],[1.311855,41.795566],[1.311929,41.795599],[1.311882,41.795627],[1.311661,41.795896],[1.311514,41.795824],[1.311483,41.795851],[1.311318,41.795997],[1.31112,41.795905],[1.311092,41.795892],[1.310937,41.796037],[1.310884,41.796085],[1.310769,41.795972],[1.310371,41.796211],[1.310213,41.796306],[1.31016,41.796263],[1.309818,41.795921],[1.309746,41.795855],[1.309594,41.795713],[1.309539,41.795668],[1.309507,41.795629],[1.309419,41.795549],[1.309376,41.795519],[1.308624,41.795214],[1.308409,41.795524],[1.308402,41.795534],[1.308183,41.795849],[1.308173,41.795845],[1.308117,41.795926],[1.308452,41.796045],[1.308407,41.796109],[1.308351,41.796219],[1.308401,41.796229],[1.308475,41.796238],[1.308546,41.796239],[1.308523,41.796263],[1.308093,41.796705],[1.307654,41.796566],[1.307504,41.796767],[1.307493,41.79678],[1.30747,41.79681],[1.307432,41.796862],[1.307366,41.796953],[1.307271,41.797083],[1.307173,41.797229],[1.306972,41.797541],[1.306952,41.797584],[1.306969,41.797611],[1.30702,41.797618],[1.307068,41.797627],[1.307183,41.797652],[1.307298,41.797676],[1.307418,41.797702],[1.307547,41.797731],[1.307564,41.797737],[1.307652,41.797758],[1.307668,41.79776],[1.307693,41.797764],[1.307891,41.797808],[1.30797,41.797824],[1.308064,41.797845],[1.308164,41.797879],[1.30822,41.797898],[1.308275,41.797916],[1.30832,41.797931],[1.308366,41.797946],[1.308391,41.797951],[1.308409,41.797953],[1.308439,41.79795],[1.308505,41.797876],[1.308532,41.797802],[1.308367,41.797741],[1.308406,41.797635],[1.308379,41.797568],[1.308344,41.797524],[1.308252,41.797487],[1.308174,41.797467],[1.308329,41.797234],[1.308413,41.797148],[1.308446,41.797128],[1.308477,41.797127],[1.30853,41.797157],[1.308536,41.797293],[1.308562,41.797397],[1.308976,41.797351],[1.308967,41.797253],[1.308816,41.797262],[1.308748,41.797269],[1.30873,41.7971],[1.308794,41.797066],[1.308865,41.797037],[1.308886,41.796979],[1.308858,41.796888],[1.308762,41.796753],[1.308656,41.796635],[1.308591,41.796565],[1.30858,41.796508],[1.308602,41.796438],[1.308662,41.796381],[1.308766,41.796326],[1.30882,41.796296],[1.308921,41.79633],[1.308991,41.796384],[1.30914,41.796436],[1.309246,41.796478],[1.309394,41.796537],[1.30951,41.796586],[1.309586,41.796614],[1.309335,41.796771],[1.309395,41.796821],[1.30949,41.79687],[1.309628,41.796947],[1.309472,41.797076],[1.309625,41.797154],[1.309517,41.797267],[1.309545,41.797282],[1.309624,41.79734],[1.309653,41.797378],[1.309645,41.797412],[1.309597,41.797488],[1.309519,41.797543],[1.309502,41.79762],[1.309442,41.797693],[1.309352,41.797721],[1.309302,41.797749],[1.309357,41.797836],[1.309518,41.797878],[1.309598,41.797889],[1.30974,41.797901],[1.309806,41.797912],[1.309783,41.798117],[1.309772,41.798117],[1.309766,41.798206],[1.309827,41.79821],[1.309827,41.798224],[1.310009,41.798223],[1.31007,41.798255],[1.310072,41.798266],[1.310134,41.798521],[1.310277,41.798699],[1.310386,41.798779],[1.310442,41.7988],[1.31057,41.79882],[1.310577,41.798809],[1.310607,41.798818],[1.31064,41.798828],[1.310772,41.798867],[1.310904,41.798907],[1.310932,41.798917],[1.310959,41.798928],[1.310964,41.798933],[1.310985,41.798945],[1.311024,41.798955],[1.311039,41.798937],[1.31111,41.798846]]]]}},{"type":"Feature","id":"251327_251327 AP02 SGA 3","properties":{"area_id":"251327_251327 AP02 SGA 3","nom":"Palouet","codi_icgc":"251327 AP02 SGA 3","categoria":"Àrees de poblament","codi_municipi":"251327","municipi":"Massoteres","codi_comarca":"32","comarca":"Segarra","provincia":"Lleida","font":"ICGC Àrees de poblament v3r1 202602"},"geometry":{"type":"MultiPolygon","coordinates":[[[[1.356102,41.797193],[1.356292,41.79735],[1.356402,41.797446],[1.356564,41.797583],[1.356707,41.797697],[1.356837,41.7978],[1.356849,41.797802],[1.356916,41.797773],[1.356931,41.797754],[1.357062,41.797587],[1.357046,41.79758],[1.357114,41.797511],[1.35713,41.797486],[1.357167,41.797449],[1.357197,41.7974],[1.357175,41.797382],[1.35716,41.797356],[1.357177,41.797338],[1.357155,41.797322],[1.357203,41.7973],[1.357244,41.797286],[1.357253,41.797283],[1.357261,41.797279],[1.357293,41.79724],[1.357328,41.797177],[1.357364,41.797115],[1.357413,41.797047],[1.357447,41.797004],[1.357477,41.796958],[1.357495,41.796932],[1.357529,41.796885],[1.357536,41.796875],[1.357542,41.796869],[1.357579,41.796827],[1.3576,41.796803],[1.357684,41.79671],[1.357698,41.796661],[1.357721,41.796603],[1.357742,41.796566],[1.35776,41.79654],[1.357777,41.796513],[1.357838,41.796418],[1.357898,41.796322],[1.357922,41.796279],[1.357944,41.796235],[1.35798,41.796145],[1.357985,41.796119],[1.357979,41.796092],[1.357968,41.796074],[1.357946,41.796051],[1.357927,41.796037],[1.357908,41.796026],[1.35787,41.796011],[1.357789,41.79599],[1.357657,41.795953],[1.357525,41.795915],[1.357506,41.795909],[1.357489,41.795902],[1.357385,41.795944],[1.35713,41.796119],[1.357065,41.796142],[1.356777,41.796336],[1.356548,41.796489],[1.356407,41.796643],[1.356186,41.796787],[1.356044,41.796834],[1.355859,41.796874],[1.35568,41.796928],[1.355616,41.796942],[1.355579,41.796962],[1.355478,41.796988],[1.355443,41.796996],[1.355368,41.797015],[1.355293,41.797035],[1.355196,41.797078],[1.355023,41.797117],[1.354839,41.797134],[1.354816,41.797136],[1.354799,41.79714],[1.354844,41.797165],[1.354888,41.797189],[1.354909,41.797204],[1.354932,41.797231],[1.354954,41.79726],[1.354989,41.797307],[1.355027,41.797354],[1.355049,41.797377],[1.355069,41.7974],[1.355221,41.797508],[1.355308,41.79744],[1.35538,41.797457],[1.355394,41.797475],[1.355409,41.797492],[1.355422,41.797505],[1.355437,41.797517],[1.355447,41.797519],[1.355458,41.797518],[1.355483,41.797512],[1.355492,41.797507],[1.355496,41.7975],[1.355494,41.797493],[1.355491,41.797486],[1.355488,41.797475],[1.355493,41.797467],[1.355498,41.797459],[1.355524,41.797447],[1.355546,41.797433],[1.35558,41.797409],[1.355611,41.797384],[1.355634,41.797371],[1.355693,41.797342],[1.355753,41.797312],[1.355832,41.797266],[1.355909,41.797217],[1.355952,41.797188],[1.355996,41.797158],[1.356023,41.79714],[1.356054,41.797116],[1.356058,41.797118],[1.356123,41.797171],[1.356102,41.797193]]]]}},{"type":"Feature","id":"251327_251327 AP03 SGA 3","properties":{"area_id":"251327_251327 AP03 SGA 3","nom":"Talteüll","codi_icgc":"251327 AP03 SGA 3","categoria":"Àrees de poblament","codi_municipi":"251327","municipi":"Massoteres","codi_comarca":"32","comarca":"Segarra","provincia":"Lleida","font":"ICGC Àrees de poblament v3r1 202602"},"geometry":{"type":"MultiPolygon","coordinates":[[[[1.3287,41.819599],[1.328741,41.819533],[1.32878,41.819466],[1.328817,41.819392],[1.328853,41.819318],[1.328881,41.819266],[1.328911,41.819214],[1.328987,41.819083],[1.329027,41.819033],[1.329066,41.818982],[1.329111,41.818919],[1.329148,41.818852],[1.329167,41.818804],[1.32917,41.818781],[1.329168,41.818759],[1.329157,41.818716],[1.329152,41.818701],[1.329142,41.818675],[1.329097,41.818636],[1.329043,41.81861],[1.328984,41.8186],[1.328904,41.818583],[1.328765,41.818562],[1.328741,41.818588],[1.328692,41.818564],[1.328689,41.818559],[1.328687,41.818547],[1.32868,41.818522],[1.328675,41.818498],[1.328651,41.818498],[1.328455,41.81851],[1.328454,41.818499],[1.328453,41.818453],[1.328458,41.818406],[1.328461,41.818382],[1.328391,41.818379],[1.328356,41.818376],[1.328336,41.818374],[1.328271,41.818379],[1.328242,41.818381],[1.328239,41.818356],[1.328227,41.818317],[1.328207,41.818279],[1.328187,41.818256],[1.328162,41.818238],[1.328137,41.818227],[1.328112,41.818221],[1.328095,41.81822],[1.328049,41.818223],[1.328003,41.818232],[1.327921,41.818255],[1.327837,41.818277],[1.327776,41.818287],[1.327714,41.818291],[1.327683,41.81829],[1.327717,41.818373],[1.327841,41.818581],[1.327863,41.818606],[1.328228,41.818481],[1.328216,41.818517],[1.328193,41.818579],[1.328166,41.818642],[1.328139,41.818708],[1.328135,41.818724],[1.328136,41.818752],[1.328146,41.818792],[1.328153,41.818829],[1.328154,41.818866],[1.32815,41.818883],[1.328142,41.8189],[1.328112,41.818933],[1.328075,41.818963],[1.328042,41.818986],[1.328011,41.818998],[1.327714,41.818894],[1.327702,41.818911],[1.327657,41.818985],[1.327941,41.819082],[1.327976,41.819099],[1.327953,41.819149],[1.327936,41.819303],[1.327948,41.819365],[1.327952,41.819456],[1.3279,41.81948],[1.327719,41.819524],[1.327474,41.819512],[1.327469,41.819573],[1.327459,41.819601],[1.327458,41.819615],[1.327458,41.81962],[1.327459,41.819625],[1.327463,41.819656],[1.327495,41.819658],[1.327604,41.819665],[1.327711,41.81967],[1.327818,41.819675],[1.327894,41.819682],[1.32797,41.819691],[1.328066,41.819704],[1.328163,41.819716],[1.328232,41.81972],[1.328302,41.819718],[1.328394,41.819711],[1.328486,41.819701],[1.328555,41.81969],[1.328622,41.819672],[1.328648,41.819661],[1.328668,41.819646],[1.328685,41.819623],[1.3287,41.819599]]]]}}]}