{"type":"FeatureCollection","name":"ICGC Àrees de poblament - Montoliu de Segarra","features":[{"type":"Feature","id":"251410_251410 AP04 SGA 3","properties":{"area_id":"251410_251410 AP04 SGA 3","nom":"Cabestany","codi_icgc":"251410 AP04 SGA 3","categoria":"Àrees de poblament","codi_municipi":"251410","municipi":"Montoliu de Segarra","codi_comarca":"32","comarca":"Segarra","provincia":"Lleida","font":"ICGC Àrees de poblament v3r1 202602"},"geometry":{"type":"MultiPolygon","coordinates":[[[[1.278735,41.579533],[1.278673,41.579499],[1.278592,41.579474],[1.278506,41.57947],[1.278484,41.579432],[1.278444,41.579433],[1.278393,41.579444],[1.278326,41.579464],[1.278304,41.579467],[1.278204,41.5795],[1.278213,41.579537],[1.278217,41.57955],[1.278224,41.579575],[1.278253,41.579663],[1.278215,41.579676],[1.278196,41.579683],[1.278174,41.579692],[1.278146,41.579704],[1.278101,41.579723],[1.278068,41.579735],[1.278049,41.579741],[1.27803,41.579747],[1.278015,41.579864],[1.278207,41.580113],[1.278324,41.580257],[1.278336,41.580267],[1.278359,41.580255],[1.278381,41.580243],[1.278462,41.580201],[1.278595,41.580141],[1.278614,41.580132],[1.278656,41.580134],[1.278678,41.580135],[1.278685,41.580103],[1.278738,41.580104],[1.27883,41.580105],[1.278974,41.580131],[1.278981,41.580132],[1.279,41.580136],[1.27901,41.580138],[1.279037,41.580065],[1.279038,41.580045],[1.279044,41.579942],[1.27905,41.579858],[1.279194,41.579852],[1.279249,41.57985],[1.279334,41.579843],[1.279321,41.579755],[1.279236,41.579764],[1.279204,41.579752],[1.279105,41.579719],[1.279038,41.57971],[1.279015,41.579699],[1.278934,41.579675],[1.278855,41.579651],[1.278804,41.579636],[1.27878,41.579615],[1.27876,41.579596],[1.278759,41.579573],[1.278767,41.579543],[1.278735,41.579533]]]]}},{"type":"Feature","id":"251410_251410 AP01 SGA 3","properties":{"area_id":"251410_251410 AP01 SGA 3","nom":"Montoliu de Segarra","codi_icgc":"251410 AP01 SGA 3","categoria":"Àrees de poblament","codi_municipi":"251410","municipi":"Montoliu de Segarra","codi_comarca":"32","comarca":"Segarra","provincia":"Lleida","font":"ICGC Àrees de poblament v3r1 202602"},"geometry":{"type":"MultiPolygon","coordinates":[[[[1.267873,41.589905],[1.267892,41.589886],[1.267897,41.58989],[1.268007,41.590001],[1.268043,41.589997],[1.268044,41.589998],[1.268077,41.590024],[1.268099,41.590048],[1.268127,41.590087],[1.268151,41.590127],[1.268172,41.590161],[1.268191,41.590196],[1.268213,41.59024],[1.268233,41.590284],[1.268254,41.590338],[1.268272,41.590392],[1.268284,41.59043],[1.268291,41.590469],[1.268292,41.590501],[1.268292,41.590532],[1.268294,41.590555],[1.268295,41.590577],[1.268297,41.590596],[1.26835,41.590597],[1.268456,41.590545],[1.268421,41.59029],[1.268477,41.590285],[1.268509,41.590225],[1.268605,41.590156],[1.268578,41.590121],[1.26854,41.590067],[1.268623,41.590036],[1.268671,41.590016],[1.268737,41.590084],[1.268811,41.590131],[1.268898,41.590183],[1.269018,41.590232],[1.269092,41.590262],[1.269105,41.590241],[1.269193,41.590271],[1.269299,41.590384],[1.269362,41.590426],[1.269444,41.590444],[1.269562,41.590446],[1.269653,41.590447],[1.26974,41.590456],[1.269806,41.590508],[1.269857,41.590549],[1.269881,41.590568],[1.269908,41.590585],[1.269926,41.590602],[1.269945,41.590619],[1.269961,41.590627],[1.269975,41.59063],[1.269988,41.590631],[1.270016,41.59063],[1.270059,41.59063],[1.270101,41.590631],[1.270119,41.590634],[1.270135,41.590642],[1.270159,41.59066],[1.270177,41.590682],[1.270185,41.590697],[1.270388,41.590654],[1.270376,41.590585],[1.270394,41.590581],[1.270546,41.590547],[1.270616,41.590531],[1.270686,41.590514],[1.270718,41.590509],[1.27075,41.590504],[1.270759,41.590503],[1.270767,41.590504],[1.27077,41.590509],[1.270794,41.590569],[1.270784,41.590665],[1.270902,41.590668],[1.271604,41.590688],[1.271614,41.590491],[1.27165,41.590494],[1.271707,41.590497],[1.271762,41.590493],[1.271813,41.590483],[1.271861,41.59047],[1.271866,41.590468],[1.271917,41.59045],[1.271996,41.590414],[1.272072,41.59038],[1.272047,41.590329],[1.27197,41.59022],[1.271908,41.590246],[1.271929,41.590277],[1.271754,41.590346],[1.271811,41.590428],[1.271803,41.590435],[1.271789,41.590442],[1.271773,41.590446],[1.271751,41.59045],[1.271706,41.590454],[1.27166,41.590452],[1.271655,41.590452],[1.271604,41.590447],[1.271512,41.590436],[1.271474,41.590431],[1.271447,41.590428],[1.271421,41.590425],[1.271324,41.590414],[1.271304,41.590411],[1.27125,41.590328],[1.271212,41.590304],[1.271193,41.590299],[1.271157,41.590243],[1.271027,41.590266],[1.271017,41.590252],[1.271,41.590229],[1.270983,41.590215],[1.270963,41.590203],[1.270929,41.590183],[1.270902,41.590166],[1.270895,41.590162],[1.270856,41.590134],[1.270817,41.590105],[1.270763,41.590067],[1.270707,41.59003],[1.270656,41.589999],[1.270601,41.58997],[1.270595,41.589961],[1.27059,41.589951],[1.270588,41.58994],[1.270587,41.58993],[1.270592,41.589915],[1.270648,41.589878],[1.270691,41.589843],[1.270744,41.589913],[1.270928,41.589793],[1.270838,41.589721],[1.270803,41.589742],[1.270731,41.589785],[1.270668,41.589822],[1.270655,41.58983],[1.270607,41.589855],[1.270441,41.589792],[1.27032,41.589745],[1.270326,41.589725],[1.270272,41.589671],[1.270123,41.589685],[1.270022,41.589638],[1.270023,41.589611],[1.270001,41.589591],[1.2698,41.589557],[1.269648,41.589534],[1.269517,41.589524],[1.269411,41.589529],[1.269404,41.589501],[1.269305,41.589517],[1.269215,41.589587],[1.269181,41.589603],[1.269124,41.589626],[1.268976,41.589678],[1.26895,41.589613],[1.268939,41.589584],[1.268903,41.589593],[1.268866,41.589601],[1.268793,41.589619],[1.26872,41.589636],[1.268593,41.589667],[1.268467,41.589702],[1.268401,41.589723],[1.268336,41.589744],[1.268125,41.589785],[1.268089,41.589762],[1.268048,41.589727],[1.268014,41.58969],[1.268239,41.589611],[1.268237,41.589595],[1.268217,41.589581],[1.268153,41.589537],[1.268036,41.589449],[1.268026,41.589441],[1.268006,41.589429],[1.267982,41.589423],[1.267957,41.589423],[1.26786,41.589451],[1.267855,41.58947],[1.267836,41.589492],[1.267816,41.589512],[1.267816,41.589545],[1.267822,41.589591],[1.267819,41.589642],[1.267623,41.589727],[1.267676,41.589795],[1.267753,41.589856],[1.26782,41.589902],[1.267843,41.589915],[1.267861,41.589898],[1.267873,41.589905]]]]}},{"type":"Feature","id":"251410_251410 AP02 SGA 3","properties":{"area_id":"251410_251410 AP02 SGA 3","nom":"Vilagrasseta","codi_icgc":"251410 AP02 SGA 3","categoria":"Àrees de poblament","codi_municipi":"251410","municipi":"Montoliu de Segarra","codi_comarca":"32","comarca":"Segarra","provincia":"Lleida","font":"ICGC Àrees de poblament v3r1 202602"},"geometry":{"type":"MultiPolygon","coordinates":[[[[1.28239,41.6043],[1.282305,41.604286],[1.282294,41.604173],[1.282257,41.604178],[1.282154,41.604196],[1.282117,41.604214],[1.28209,41.604233],[1.282077,41.604245],[1.282052,41.604274],[1.282025,41.604275],[1.282009,41.604264],[1.281991,41.604251],[1.281982,41.604233],[1.281929,41.604238],[1.281894,41.604266],[1.281878,41.604281],[1.281859,41.604295],[1.281826,41.604312],[1.281793,41.604329],[1.281696,41.604372],[1.281617,41.604404],[1.281551,41.604413],[1.281466,41.604433],[1.281401,41.604451],[1.281386,41.60446],[1.28137,41.604469],[1.281352,41.604485],[1.281333,41.604511],[1.281324,41.604522],[1.281314,41.604531],[1.281297,41.60454],[1.281287,41.604545],[1.281242,41.604555],[1.281185,41.604578],[1.281133,41.604599],[1.281116,41.604628],[1.281126,41.604656],[1.281151,41.604668],[1.281195,41.604668],[1.281247,41.60466],[1.281281,41.60465],[1.281283,41.604668],[1.281285,41.604691],[1.281296,41.60472],[1.281343,41.604719],[1.281362,41.604753],[1.281367,41.604795],[1.28142,41.604785],[1.281422,41.604799],[1.281424,41.604813],[1.281429,41.60482],[1.281439,41.604824],[1.281451,41.604826],[1.281463,41.604826],[1.281474,41.604826],[1.281485,41.604826],[1.281496,41.604829],[1.281504,41.604836],[1.28151,41.604845],[1.281513,41.604855],[1.281514,41.604865],[1.281513,41.604875],[1.281509,41.604879],[1.281501,41.604881],[1.28147,41.604883],[1.281439,41.604886],[1.281409,41.604895],[1.28138,41.604905],[1.281367,41.604908],[1.28136,41.604912],[1.28136,41.60492],[1.28136,41.604922],[1.281362,41.604929],[1.281366,41.604935],[1.281374,41.604939],[1.281393,41.60494],[1.281412,41.60494],[1.281459,41.604936],[1.281506,41.604933],[1.281521,41.604932],[1.281537,41.604935],[1.281544,41.604941],[1.281549,41.604949],[1.281559,41.604967],[1.281568,41.604986],[1.281572,41.604995],[1.281498,41.605035],[1.281418,41.605054],[1.281431,41.605086],[1.281332,41.605099],[1.28134,41.605107],[1.281325,41.605122],[1.281456,41.605237],[1.281492,41.605268],[1.281506,41.605259],[1.281538,41.605244],[1.281572,41.605232],[1.281598,41.605227],[1.281625,41.605223],[1.281641,41.605222],[1.281655,41.605223],[1.281713,41.605241],[1.281773,41.60526],[1.281832,41.605278],[1.281892,41.605296],[1.281939,41.605308],[1.281957,41.605311],[1.282029,41.605389],[1.282039,41.605446],[1.282057,41.605486],[1.282079,41.60551],[1.282132,41.605533],[1.282282,41.605601],[1.282339,41.605537],[1.282338,41.605509],[1.282336,41.605494],[1.282331,41.605484],[1.282322,41.605476],[1.282305,41.605463],[1.282281,41.605438],[1.282257,41.605413],[1.282229,41.605384],[1.282201,41.605355],[1.282186,41.605338],[1.282197,41.605287],[1.282214,41.605172],[1.282328,41.605188],[1.282367,41.605173],[1.282413,41.60515],[1.282443,41.605119],[1.282452,41.605099],[1.282478,41.605028],[1.282496,41.604998],[1.282509,41.604979],[1.282546,41.605004],[1.282598,41.605034],[1.28264,41.605014],[1.282684,41.604984],[1.282711,41.604967],[1.282726,41.604958],[1.282842,41.605064],[1.283034,41.604976],[1.283207,41.605065],[1.283292,41.604943],[1.283215,41.604899],[1.283395,41.604719],[1.283324,41.604669],[1.283282,41.604638],[1.283249,41.604648],[1.283213,41.604668],[1.283155,41.604709],[1.283112,41.604739],[1.283077,41.604755],[1.283005,41.60472],[1.282965,41.6047],[1.282937,41.604727],[1.282913,41.604744],[1.282885,41.604757],[1.28286,41.604767],[1.28282,41.60477],[1.282885,41.604696],[1.28282,41.604649],[1.282715,41.604572],[1.282674,41.604584],[1.282642,41.604557],[1.282742,41.604504],[1.282761,41.604471],[1.28257,41.604416],[1.282526,41.6044],[1.282456,41.604442],[1.282407,41.604405],[1.282405,41.604302],[1.28239,41.6043]]]]}},{"type":"Feature","id":"251410_251410 AP05 SGA 3","properties":{"area_id":"251410_251410 AP05 SGA 3","nom":"l'Ametlla de Segarra","codi_icgc":"251410 AP05 SGA 3","categoria":"Àrees de poblament","codi_municipi":"251410","municipi":"Montoliu de Segarra","codi_comarca":"32","comarca":"Segarra","provincia":"Lleida","font":"ICGC Àrees de poblament v3r1 202602"},"geometry":{"type":"MultiPolygon","coordinates":[[[[1.239095,41.575835],[1.239157,41.575815],[1.23932,41.575801],[1.239461,41.576175],[1.239551,41.576166],[1.239597,41.576159],[1.239662,41.576143],[1.239723,41.576128],[1.239768,41.576119],[1.239788,41.576118],[1.239831,41.576096],[1.239861,41.576075],[1.239893,41.576035],[1.239955,41.575982],[1.240043,41.575902],[1.240088,41.57588],[1.240142,41.575873],[1.240226,41.575878],[1.240298,41.575906],[1.240483,41.576008],[1.240553,41.576058],[1.240587,41.576094],[1.240567,41.576127],[1.240497,41.576177],[1.24041,41.576238],[1.240368,41.57627],[1.240205,41.576395],[1.240225,41.576442],[1.2402,41.576487],[1.240098,41.576568],[1.240134,41.5766],[1.240335,41.576736],[1.240467,41.576605],[1.240626,41.576479],[1.24071,41.57641],[1.2409,41.576191],[1.240872,41.576171],[1.240894,41.576153],[1.240917,41.576134],[1.240944,41.576111],[1.240974,41.576085],[1.24099,41.57606],[1.241005,41.576036],[1.241022,41.576011],[1.241038,41.575986],[1.241045,41.575979],[1.241053,41.575971],[1.241061,41.575963],[1.241072,41.575957],[1.241082,41.575955],[1.241133,41.575946],[1.241181,41.575941],[1.241241,41.575935],[1.241261,41.57593],[1.241277,41.575927],[1.241307,41.575922],[1.24133,41.57592],[1.241356,41.575873],[1.241374,41.575841],[1.241356,41.575726],[1.241331,41.575584],[1.241324,41.575533],[1.241141,41.575558],[1.241099,41.575445],[1.241241,41.575433],[1.241384,41.575439],[1.241448,41.575403],[1.241474,41.57534],[1.241462,41.575257],[1.241449,41.575203],[1.241576,41.575198],[1.241678,41.575192],[1.241725,41.575202],[1.241759,41.575223],[1.241786,41.575249],[1.241797,41.575277],[1.241808,41.575299],[1.241834,41.575321],[1.24185,41.575321],[1.2419,41.575316],[1.241929,41.575304],[1.241945,41.575264],[1.241952,41.575211],[1.241925,41.575171],[1.241882,41.575139],[1.241864,41.575117],[1.241844,41.575072],[1.241827,41.575048],[1.241807,41.575025],[1.24181,41.574973],[1.241814,41.574904],[1.241814,41.574898],[1.241819,41.574865],[1.241832,41.574816],[1.241846,41.574767],[1.241851,41.57474],[1.241852,41.574712],[1.241847,41.574703],[1.241848,41.574697],[1.241864,41.574651],[1.241888,41.574542],[1.241649,41.574504],[1.24161,41.574496],[1.241594,41.57453],[1.24157,41.574562],[1.241541,41.57459],[1.241506,41.574615],[1.241495,41.574621],[1.241481,41.574625],[1.241247,41.574613],[1.241235,41.57469],[1.241239,41.574713],[1.241247,41.574725],[1.241285,41.574752],[1.241266,41.574776],[1.241298,41.574791],[1.241303,41.574796],[1.241307,41.574804],[1.241307,41.574813],[1.241291,41.574884],[1.24128,41.574935],[1.24103,41.574992],[1.241068,41.575097],[1.24101,41.575116],[1.240968,41.575129],[1.240992,41.575189],[1.240902,41.575195],[1.240921,41.575284],[1.240875,41.575295],[1.240797,41.575299],[1.240761,41.575304],[1.240752,41.575206],[1.24073,41.575208],[1.240726,41.575132],[1.240346,41.575129],[1.240172,41.575123],[1.240023,41.575133],[1.239862,41.575129],[1.239708,41.575129],[1.239648,41.5751],[1.239477,41.575044],[1.239375,41.575026],[1.239307,41.575016],[1.239286,41.575059],[1.239166,41.57501],[1.239116,41.575081],[1.239059,41.575048],[1.239009,41.575015],[1.238937,41.574967],[1.238903,41.574942],[1.238873,41.574915],[1.238849,41.574888],[1.238827,41.574857],[1.238809,41.574835],[1.238803,41.574826],[1.2388,41.574817],[1.238798,41.57481],[1.238797,41.574803],[1.238742,41.574811],[1.238532,41.574873],[1.238558,41.574936],[1.238492,41.574957],[1.238508,41.575018],[1.238563,41.575007],[1.238607,41.575089],[1.238815,41.575049],[1.238993,41.575158],[1.239088,41.575231],[1.238711,41.575304],[1.238646,41.575317],[1.238273,41.575394],[1.238277,41.575573],[1.238366,41.575611],[1.238489,41.575578],[1.238502,41.575621],[1.23852,41.575663],[1.238529,41.575685],[1.238563,41.57569],[1.238619,41.575703],[1.238721,41.575741],[1.238766,41.575773],[1.238792,41.575812],[1.238769,41.575898],[1.238741,41.575938],[1.238917,41.575986],[1.238987,41.575871],[1.239095,41.575835]]]]}},{"type":"Feature","id":"251410_251410 AP03 SGA 3","properties":{"area_id":"251410_251410 AP03 SGA 3","nom":"la Guàrdia Lada","codi_icgc":"251410 AP03 SGA 3","categoria":"Àrees de poblament","codi_municipi":"251410","municipi":"Montoliu de Segarra","codi_comarca":"32","comarca":"Segarra","provincia":"Lleida","font":"ICGC Àrees de poblament v3r1 202602"},"geometry":{"type":"MultiPolygon","coordinates":[[[[1.295164,41.590115],[1.295166,41.590107],[1.295171,41.590099],[1.29518,41.590093],[1.295191,41.590088],[1.295203,41.590086],[1.295219,41.590085],[1.295231,41.590084],[1.295267,41.590088],[1.295295,41.590092],[1.295344,41.590102],[1.295354,41.590111],[1.295387,41.590103],[1.295425,41.590089],[1.29546,41.590075],[1.295474,41.590074],[1.295488,41.590074],[1.295501,41.590072],[1.295538,41.590064],[1.295574,41.590056],[1.295628,41.590049],[1.295687,41.590046],[1.295767,41.590042],[1.295886,41.590042],[1.296003,41.590042],[1.296094,41.590041],[1.296183,41.590039],[1.296234,41.590035],[1.296285,41.590027],[1.296343,41.590012],[1.296397,41.589993],[1.296446,41.58997],[1.296493,41.589942],[1.29654,41.589909],[1.296559,41.589892],[1.296577,41.589874],[1.296585,41.589863],[1.296589,41.589855],[1.296592,41.589848],[1.296594,41.589838],[1.296593,41.58983],[1.296614,41.589785],[1.296672,41.589666],[1.296758,41.589498],[1.296841,41.589334],[1.296909,41.589176],[1.296929,41.58911],[1.296953,41.589083],[1.296984,41.589062],[1.297021,41.589051],[1.297027,41.589043],[1.297059,41.58902],[1.29709,41.588998],[1.297177,41.588932],[1.297212,41.588907],[1.297264,41.588869],[1.297281,41.588854],[1.297292,41.588845],[1.297299,41.588837],[1.297306,41.588829],[1.297312,41.588821],[1.297318,41.588812],[1.297322,41.588805],[1.297336,41.588782],[1.297343,41.588767],[1.297347,41.588751],[1.297354,41.588727],[1.29736,41.588698],[1.297364,41.588678],[1.297369,41.588669],[1.297375,41.588661],[1.297392,41.588646],[1.297581,41.588665],[1.297784,41.588653],[1.297903,41.588643],[1.297996,41.588612],[1.298064,41.588577],[1.298089,41.588542],[1.298122,41.588486],[1.298155,41.588404],[1.298179,41.588306],[1.298178,41.588259],[1.298169,41.588211],[1.298151,41.588186],[1.298094,41.588183],[1.297943,41.588179],[1.297889,41.588191],[1.297874,41.588211],[1.297867,41.588225],[1.297864,41.588239],[1.297859,41.588269],[1.29785,41.588288],[1.29784,41.588297],[1.297827,41.588303],[1.297792,41.588307],[1.297757,41.588307],[1.297699,41.588302],[1.297642,41.588294],[1.297604,41.588285],[1.297585,41.588277],[1.297571,41.588265],[1.297567,41.588258],[1.297566,41.588249],[1.297571,41.588233],[1.297582,41.588217],[1.297598,41.588202],[1.297647,41.588171],[1.29768,41.588149],[1.297696,41.588139],[1.297703,41.588135],[1.297768,41.588092],[1.297854,41.588034],[1.297937,41.587971],[1.298032,41.587902],[1.298039,41.587908],[1.298055,41.587923],[1.298096,41.587943],[1.298192,41.587978],[1.298283,41.587997],[1.298358,41.588028],[1.298425,41.588078],[1.298441,41.588111],[1.298469,41.588109],[1.298497,41.588104],[1.298543,41.588083],[1.29863,41.58804],[1.298705,41.587986],[1.298753,41.587928],[1.298625,41.587848],[1.298794,41.587701],[1.298627,41.587577],[1.29862,41.587548],[1.298606,41.587496],[1.298583,41.587451],[1.298281,41.587333],[1.298033,41.587483],[1.297978,41.58747],[1.297989,41.587438],[1.297927,41.587414],[1.297848,41.587525],[1.297837,41.587549],[1.29781,41.587608],[1.297636,41.587765],[1.29761,41.587776],[1.297439,41.58785],[1.297315,41.587873],[1.297259,41.587801],[1.297228,41.587773],[1.2972,41.587779],[1.296968,41.587889],[1.297088,41.588063],[1.297367,41.588357],[1.297362,41.588396],[1.297343,41.5885],[1.297333,41.588571],[1.297323,41.58864],[1.29732,41.58866],[1.297255,41.588696],[1.297222,41.588715],[1.297174,41.588688],[1.297097,41.588731],[1.297078,41.588734],[1.297035,41.588761],[1.296941,41.588789],[1.296876,41.588819],[1.29682,41.588843],[1.296709,41.588889],[1.296686,41.588868],[1.296661,41.58886],[1.296622,41.588856],[1.296255,41.588966],[1.295966,41.589082],[1.29595,41.589106],[1.29601,41.589162],[1.295893,41.589208],[1.295851,41.589147],[1.295713,41.589196],[1.295741,41.589244],[1.295481,41.58934],[1.295412,41.589297],[1.295426,41.589249],[1.29521,41.589163],[1.2952,41.589138],[1.295149,41.589107],[1.295169,41.58907],[1.295112,41.589049],[1.295101,41.589045],[1.295062,41.589046],[1.295029,41.589035],[1.295053,41.58898],[1.294975,41.58896],[1.294951,41.589016],[1.294905,41.58902],[1.294859,41.58902],[1.294863,41.588989],[1.294839,41.588976],[1.294693,41.588928],[1.294575,41.5889],[1.294421,41.588834],[1.294365,41.588916],[1.294313,41.588896],[1.294239,41.588936],[1.294219,41.588926],[1.29418,41.588903],[1.294121,41.588867],[1.294058,41.588827],[1.294029,41.588812],[1.29399,41.588791],[1.293923,41.588757],[1.293866,41.588728],[1.293811,41.5887],[1.293782,41.588683],[1.293759,41.588663],[1.293747,41.588648],[1.29368,41.588645],[1.293492,41.588625],[1.293472,41.58874],[1.293707,41.58876],[1.293704,41.588791],[1.293691,41.588861],[1.293542,41.588875],[1.29355,41.588938],[1.293567,41.588958],[1.293496,41.589019],[1.293426,41.588981],[1.293375,41.588953],[1.293333,41.588939],[1.293229,41.588913],[1.2932,41.588907],[1.293188,41.588939],[1.293157,41.589031],[1.293157,41.58906],[1.293185,41.589102],[1.293189,41.589119],[1.293198,41.589174],[1.293253,41.58919],[1.293332,41.589206],[1.293399,41.589219],[1.293471,41.589287],[1.293519,41.58932],[1.293514,41.589347],[1.293501,41.589348],[1.293488,41.589358],[1.293474,41.589367],[1.293461,41.589377],[1.29345,41.589389],[1.293436,41.589418],[1.293421,41.589447],[1.293417,41.589447],[1.293419,41.589454],[1.293416,41.589491],[1.29342,41.589527],[1.293431,41.589563],[1.29345,41.589598],[1.293595,41.589662],[1.293683,41.589694],[1.29375,41.589758],[1.293781,41.589752],[1.293911,41.589724],[1.293955,41.589691],[1.293976,41.589674],[1.294026,41.589655],[1.294061,41.589688],[1.294088,41.589632],[1.294167,41.589663],[1.294153,41.589729],[1.294243,41.589742],[1.29426,41.589677],[1.294318,41.589684],[1.294364,41.589682],[1.294362,41.58972],[1.294352,41.589764],[1.294402,41.589768],[1.294572,41.589757],[1.294569,41.589647],[1.294657,41.58965],[1.294685,41.58965],[1.294848,41.5897],[1.294922,41.589751],[1.294977,41.589771],[1.294961,41.58979],[1.294986,41.589817],[1.295051,41.589847],[1.295019,41.589887],[1.294973,41.589944],[1.29496,41.58994],[1.294929,41.589986],[1.294945,41.589994],[1.294928,41.590018],[1.294937,41.590058],[1.294957,41.590064],[1.29495,41.590072],[1.29496,41.590074],[1.294953,41.590088],[1.294982,41.590107],[1.295002,41.590112],[1.295016,41.590112],[1.295043,41.590112],[1.295155,41.590137],[1.295164,41.590115]]]]}}]}