{"type":"FeatureCollection","name":"ICGC Àrees de poblament - la Pobla de Cérvoles","features":[{"type":"Feature","id":"251692_251692 AP01 GAR 3","properties":{"area_id":"251692_251692 AP01 GAR 3","nom":"la Pobla de Cérvoles","codi_icgc":"251692 AP01 GAR 3","categoria":"Àrees de poblament","codi_municipi":"251692","municipi":"la Pobla de Cérvoles","codi_comarca":"18","comarca":"Garrigues","provincia":"Lleida","font":"ICGC Àrees de poblament v3r1 202602"},"geometry":{"type":"MultiPolygon","coordinates":[[[[0.915598,41.368607],[0.915612,41.368569],[0.91565,41.368463],[0.915661,41.368432],[0.915684,41.36837],[0.915766,41.36815],[0.91578,41.368137],[0.915799,41.368127],[0.915819,41.368123],[0.915883,41.368111],[0.915928,41.368102],[0.915956,41.368094],[0.915989,41.368081],[0.916036,41.368055],[0.916105,41.368017],[0.916175,41.367987],[0.91622,41.367969],[0.916257,41.367954],[0.916295,41.36794],[0.916383,41.367913],[0.916471,41.367887],[0.916606,41.367844],[0.916741,41.367799],[0.916898,41.367747],[0.917055,41.367694],[0.91714,41.367673],[0.917225,41.367652],[0.917277,41.36764],[0.91733,41.367629],[0.917378,41.367618],[0.917374,41.367567],[0.917373,41.367544],[0.917376,41.367515],[0.917384,41.367449],[0.917387,41.367413],[0.917406,41.3673],[0.917411,41.36726],[0.917436,41.367254],[0.917501,41.36724],[0.917456,41.367088],[0.917465,41.36708],[0.917439,41.367036],[0.917426,41.367013],[0.917497,41.366968],[0.917531,41.366939],[0.917501,41.366925],[0.917589,41.366825],[0.917592,41.366814],[0.917587,41.366804],[0.917584,41.366802],[0.917584,41.366734],[0.917596,41.366716],[0.917518,41.366689],[0.917516,41.366677],[0.917517,41.36665],[0.917523,41.366617],[0.91755,41.366556],[0.917573,41.366506],[0.917596,41.366457],[0.917611,41.366426],[0.917629,41.366397],[0.917644,41.366381],[0.917676,41.366352],[0.917709,41.366324],[0.917747,41.36629],[0.917785,41.366256],[0.917822,41.366225],[0.91786,41.366195],[0.917888,41.366177],[0.917917,41.366163],[0.917944,41.366156],[0.917973,41.366153],[0.918028,41.366149],[0.918084,41.366146],[0.918164,41.366143],[0.918244,41.36614],[0.91839,41.366139],[0.918537,41.366136],[0.918651,41.366131],[0.918808,41.366123],[0.918842,41.366123],[0.918826,41.366208],[0.918804,41.366292],[0.918355,41.366392],[0.918369,41.366438],[0.918409,41.36655],[0.919068,41.366438],[0.919251,41.366405],[0.919381,41.366381],[0.919346,41.366266],[0.919215,41.366288],[0.919176,41.366161],[0.919183,41.366113],[0.919222,41.365846],[0.919154,41.365843],[0.919076,41.36584],[0.919077,41.365769],[0.919077,41.365751],[0.919051,41.36575],[0.918989,41.365747],[0.91889,41.365752],[0.918774,41.365797],[0.918775,41.365834],[0.918609,41.365841],[0.918605,41.365841],[0.918523,41.365853],[0.918455,41.365871],[0.918448,41.365861],[0.918407,41.365866],[0.918231,41.365889],[0.918162,41.365923],[0.917989,41.366037],[0.91788,41.365976],[0.917839,41.366021],[0.917833,41.366034],[0.91775,41.366014],[0.917724,41.366021],[0.917644,41.366043],[0.917589,41.366054],[0.917516,41.366064],[0.91729,41.366095],[0.91704,41.366109],[0.916987,41.366134],[0.916953,41.366134],[0.916945,41.366181],[0.916898,41.366285],[0.916828,41.366286],[0.916707,41.366616],[0.916386,41.366474],[0.916006,41.366291],[0.915928,41.366257],[0.91584,41.36622],[0.91587,41.366192],[0.915938,41.366123],[0.915956,41.366106],[0.915933,41.366091],[0.915764,41.366013],[0.915595,41.365935],[0.915567,41.365923],[0.915511,41.365897],[0.915515,41.365887],[0.915516,41.365885],[0.915517,41.365882],[0.91552,41.365875],[0.915521,41.365869],[0.915523,41.365865],[0.915533,41.365836],[0.915557,41.365759],[0.915579,41.365683],[0.915604,41.365606],[0.915629,41.365529],[0.915636,41.36551],[0.915557,41.365498],[0.915128,41.365455],[0.915101,41.365542],[0.915036,41.365531],[0.915026,41.365524],[0.914963,41.365475],[0.914743,41.365302],[0.914539,41.365146],[0.914305,41.36531],[0.91428,41.365323],[0.914195,41.365259],[0.914109,41.365195],[0.913992,41.365103],[0.913965,41.36508],[0.913914,41.365115],[0.913707,41.365233],[0.913917,41.365391],[0.91358,41.365573],[0.913392,41.365439],[0.91301,41.365646],[0.912733,41.365449],[0.912556,41.365763],[0.912787,41.365836],[0.912858,41.365858],[0.912995,41.365948],[0.912995,41.365963],[0.912996,41.365974],[0.912996,41.365981],[0.912995,41.365989],[0.912995,41.366008],[0.912994,41.366015],[0.912992,41.366043],[0.912992,41.366055],[0.912991,41.36607],[0.912992,41.366097],[0.912993,41.366114],[0.912996,41.366127],[0.912997,41.36613],[0.912993,41.366174],[0.913007,41.366186],[0.913046,41.366219],[0.913083,41.366253],[0.913111,41.366279],[0.913137,41.366306],[0.913172,41.366342],[0.913206,41.366379],[0.913219,41.366396],[0.913232,41.366414],[0.913258,41.366447],[0.913278,41.366469],[0.913289,41.36648],[0.913319,41.366503],[0.913347,41.366519],[0.913265,41.366593],[0.913288,41.366607],[0.913386,41.366672],[0.913469,41.366593],[0.913476,41.366666],[0.913485,41.366672],[0.913645,41.366789],[0.913721,41.366708],[0.913982,41.366854],[0.914073,41.366826],[0.914088,41.366815],[0.914176,41.366879],[0.914218,41.366908],[0.914246,41.366927],[0.914401,41.367022],[0.914546,41.367115],[0.914566,41.367137],[0.914581,41.36716],[0.914598,41.367184],[0.914626,41.367238],[0.914639,41.367269],[0.91468,41.367438],[0.914469,41.367501],[0.914507,41.367568],[0.914512,41.367575],[0.914617,41.367724],[0.914592,41.367728],[0.914599,41.367772],[0.914624,41.367901],[0.914644,41.367944],[0.914646,41.368032],[0.914646,41.368069],[0.914647,41.368133],[0.914647,41.368167],[0.914647,41.368218],[0.914651,41.368243],[0.914442,41.368354],[0.914566,41.368493],[0.914943,41.368608],[0.914992,41.36862],[0.914999,41.368605],[0.915006,41.36859],[0.915013,41.368573],[0.915095,41.368598],[0.915367,41.368698],[0.915301,41.368875],[0.915275,41.368952],[0.915322,41.368961],[0.915461,41.368985],[0.91547,41.368961],[0.915523,41.368816],[0.915541,41.368765],[0.915557,41.368721],[0.915598,41.368607]]]]}}]}