{"type":"FeatureCollection","name":"ICGC Àrees de poblament - el Pont de Suert","features":[{"type":"Feature","id":"251734_251734 AP27 ARI 3","properties":{"area_id":"251734_251734 AP27 ARI 3","nom":"Abella d'Adons","codi_icgc":"251734 AP27 ARI 3","categoria":"Àrees de poblament","codi_municipi":"251734","municipi":"el Pont de Suert","codi_comarca":"05","comarca":"Alta Ribagorça","provincia":"Lleida","font":"ICGC Àrees de poblament v3r1 202602"},"geometry":{"type":"MultiPolygon","coordinates":[[[[0.818245,42.338601],[0.817983,42.338632],[0.817905,42.338761],[0.817868,42.338808],[0.817926,42.338925],[0.818079,42.338929],[0.818165,42.339055],[0.818168,42.339226],[0.818343,42.339272],[0.818713,42.339096],[0.818605,42.338956],[0.818465,42.338729],[0.818245,42.338601]]]]}},{"type":"Feature","id":"251734_251734 AP28 ARI 3","properties":{"area_id":"251734_251734 AP28 ARI 3","nom":"Adons","codi_icgc":"251734 AP28 ARI 3","categoria":"Àrees de poblament","codi_municipi":"251734","municipi":"el Pont de Suert","codi_comarca":"05","comarca":"Alta Ribagorça","provincia":"Lleida","font":"ICGC Àrees de poblament v3r1 202602"},"geometry":{"type":"MultiPolygon","coordinates":[[[[0.828169,42.332998],[0.828258,42.333002],[0.828269,42.333014],[0.828281,42.33309],[0.828295,42.333134],[0.828358,42.33324],[0.828412,42.333319],[0.828451,42.333385],[0.828477,42.333446],[0.828479,42.333542],[0.828473,42.333656],[0.828461,42.333755],[0.828618,42.333767],[0.828706,42.333662],[0.828823,42.333556],[0.828791,42.333502],[0.828874,42.333421],[0.828811,42.333365],[0.828918,42.333268],[0.828957,42.333255],[0.828992,42.333265],[0.829132,42.33347],[0.82941,42.333378],[0.829409,42.333315],[0.829178,42.332951],[0.829156,42.33275],[0.828721,42.332776],[0.82873,42.332601],[0.828717,42.332532],[0.828705,42.332496],[0.82872,42.332452],[0.82864,42.332453],[0.828226,42.332532],[0.828174,42.332552],[0.828296,42.332881],[0.828278,42.332892],[0.828219,42.33282],[0.828033,42.332778],[0.827898,42.33273],[0.827822,42.332849],[0.827815,42.332993],[0.828169,42.332998]]]]}},{"type":"Feature","id":"251734_251734 AP22 ARI 3","properties":{"area_id":"251734_251734 AP22 ARI 3","nom":"Castellàs","codi_icgc":"251734 AP22 ARI 3","categoria":"Àrees de poblament","codi_municipi":"251734","municipi":"el Pont de Suert","codi_comarca":"05","comarca":"Alta Ribagorça","provincia":"Lleida","font":"ICGC Àrees de poblament v3r1 202602"},"geometry":{"type":"MultiPolygon","coordinates":[[[[0.80873,42.414197],[0.80901,42.414449],[0.809443,42.4145],[0.809937,42.414435],[0.809979,42.414067],[0.809655,42.414076],[0.80925,42.414089],[0.809178,42.414059],[0.809039,42.413917],[0.808969,42.413848],[0.808964,42.413716],[0.809004,42.413523],[0.80904,42.413335],[0.809058,42.413224],[0.809112,42.413182],[0.809272,42.413168],[0.80934,42.413158],[0.809317,42.41284],[0.809057,42.412831],[0.808762,42.412868],[0.808359,42.413204],[0.808293,42.413306],[0.808178,42.413425],[0.808182,42.41359],[0.808388,42.413622],[0.808437,42.413745],[0.808485,42.413889],[0.808577,42.414005],[0.80873,42.414197]]]]}},{"type":"Feature","id":"251734_251734 AP15 ARI 3","properties":{"area_id":"251734_251734 AP15 ARI 3","nom":"Castilló de Tor","codi_icgc":"251734 AP15 ARI 3","categoria":"Àrees de poblament","codi_municipi":"251734","municipi":"el Pont de Suert","codi_comarca":"05","comarca":"Alta Ribagorça","provincia":"Lleida","font":"ICGC Àrees de poblament v3r1 202602"},"geometry":{"type":"MultiPolygon","coordinates":[[[[0.740326,42.432681],[0.740142,42.432577],[0.73992,42.432467],[0.739831,42.432439],[0.739715,42.432441],[0.739638,42.432443],[0.739749,42.432639],[0.739925,42.432759],[0.740084,42.432854],[0.740275,42.432962],[0.740425,42.43303],[0.740656,42.433103],[0.7408,42.433156],[0.740861,42.433191],[0.74078,42.43338],[0.740915,42.433425],[0.741015,42.43344],[0.741112,42.43345],[0.741197,42.433448],[0.741283,42.433428],[0.741342,42.433431],[0.741377,42.433447],[0.741432,42.433487],[0.741503,42.433518],[0.741588,42.433522],[0.741815,42.433574],[0.741902,42.433439],[0.741737,42.433382],[0.741633,42.433336],[0.741589,42.433284],[0.74147,42.433217],[0.741324,42.433132],[0.741301,42.433126],[0.741243,42.433096],[0.740914,42.432882],[0.740856,42.432848],[0.740805,42.43283],[0.740644,42.432794],[0.740527,42.43276],[0.740392,42.432715],[0.740326,42.432681]]]]}},{"type":"Feature","id":"251734_251734 AP05 ARI 2","properties":{"area_id":"251734_251734 AP05 ARI 2","nom":"Casòs","codi_icgc":"251734 AP05 ARI 2","categoria":"Àrees de poblament","codi_municipi":"251734","municipi":"el Pont de Suert","codi_comarca":"05","comarca":"Alta Ribagorça","provincia":"Lleida","font":"ICGC Àrees de poblament v3r1 202602"},"geometry":{"type":"MultiPolygon","coordinates":[[[[0.757525,42.382661],[0.757758,42.382665],[0.75782,42.382637],[0.75784,42.38261],[0.757814,42.382595],[0.757796,42.382567],[0.757778,42.38252],[0.757759,42.382473],[0.75772,42.382431],[0.757681,42.382386],[0.757671,42.382353],[0.757652,42.382339],[0.757525,42.382318],[0.757247,42.382541],[0.757284,42.382584],[0.757377,42.382623],[0.757438,42.382642],[0.757525,42.382661]]]]}},{"type":"Feature","id":"251734_251734 AP08 ARI 3","properties":{"area_id":"251734_251734 AP08 ARI 3","nom":"Casós","codi_icgc":"251734 AP08 ARI 3","categoria":"Àrees de poblament","codi_municipi":"251734","municipi":"el Pont de Suert","codi_comarca":"05","comarca":"Alta Ribagorça","provincia":"Lleida","font":"ICGC Àrees de poblament v3r1 202602"},"geometry":{"type":"MultiPolygon","coordinates":[[[[0.733093,42.48284],[0.732897,42.483021],[0.733015,42.483193],[0.733224,42.48311],[0.73334,42.483235],[0.733453,42.483213],[0.733491,42.48314],[0.7336,42.48304],[0.733761,42.482939],[0.733884,42.482861],[0.734045,42.482763],[0.73418,42.482703],[0.734316,42.48262],[0.734306,42.482566],[0.734184,42.482468],[0.734075,42.48238],[0.734003,42.482369],[0.73391,42.482367],[0.73378,42.482416],[0.733596,42.482501],[0.733501,42.482547],[0.73337,42.482625],[0.733267,42.482691],[0.73313,42.482793],[0.733093,42.48284]]]]}},{"type":"Feature","id":"251734_251734 AP30 ARI 3","properties":{"area_id":"251734_251734 AP30 ARI 3","nom":"Corroncui","codi_icgc":"251734 AP30 ARI 3","categoria":"Àrees de poblament","codi_municipi":"251734","municipi":"el Pont de Suert","codi_comarca":"05","comarca":"Alta Ribagorça","provincia":"Lleida","font":"ICGC Àrees de poblament v3r1 202602"},"geometry":{"type":"MultiPolygon","coordinates":[[[[0.851536,42.333584],[0.851458,42.333625],[0.85107,42.333792],[0.850966,42.333828],[0.850841,42.333818],[0.850645,42.333812],[0.850576,42.333854],[0.850623,42.333995],[0.850699,42.334297],[0.850986,42.334183],[0.851076,42.334164],[0.851208,42.334154],[0.851507,42.334064],[0.851651,42.334251],[0.852078,42.334146],[0.851898,42.333925],[0.851921,42.33392],[0.852063,42.333903],[0.852241,42.333899],[0.852398,42.333891],[0.852475,42.334044],[0.852527,42.334183],[0.852566,42.334227],[0.852619,42.334245],[0.852694,42.334235],[0.853054,42.334162],[0.853241,42.334114],[0.85331,42.334098],[0.853447,42.334076],[0.85353,42.334055],[0.853695,42.334201],[0.853768,42.334236],[0.853845,42.334249],[0.854226,42.334235],[0.854412,42.334102],[0.854142,42.333822],[0.854226,42.333774],[0.854431,42.333711],[0.854471,42.33375],[0.854498,42.333768],[0.854807,42.333749],[0.855096,42.333728],[0.855052,42.333498],[0.854862,42.333498],[0.854567,42.333485],[0.854339,42.333479],[0.854123,42.333477],[0.853935,42.333483],[0.853793,42.333494],[0.853649,42.333523],[0.853468,42.333606],[0.853186,42.333762],[0.853053,42.333584],[0.852572,42.333688],[0.85252,42.333687],[0.852494,42.333643],[0.852398,42.33357],[0.852351,42.333526],[0.852255,42.333489],[0.852167,42.333425],[0.852109,42.333388],[0.852069,42.333364],[0.852031,42.333356],[0.851974,42.333349],[0.851938,42.333348],[0.851904,42.333363],[0.851854,42.3334],[0.851848,42.333433],[0.851536,42.333584]]]]}},{"type":"Feature","id":"251734_251734 AP19 ARI 3","properties":{"area_id":"251734_251734 AP19 ARI 3","nom":"Erillcastell","codi_icgc":"251734 AP19 ARI 3","categoria":"Àrees de poblament","codi_municipi":"251734","municipi":"el Pont de Suert","codi_comarca":"05","comarca":"Alta Ribagorça","provincia":"Lleida","font":"ICGC Àrees de poblament v3r1 202602"},"geometry":{"type":"MultiPolygon","coordinates":[[[[0.802214,42.423903],[0.801956,42.423803],[0.801544,42.423736],[0.801309,42.423776],[0.801358,42.423875],[0.801007,42.424035],[0.800944,42.424117],[0.801065,42.424209],[0.80126,42.424165],[0.801392,42.424165],[0.801568,42.424317],[0.801782,42.424401],[0.802077,42.424365],[0.802426,42.424262],[0.802557,42.424202],[0.802474,42.42403],[0.802214,42.423903]]]]}},{"type":"Feature","id":"251734_251734 AP21 ARI 3","properties":{"area_id":"251734_251734 AP21 ARI 3","nom":"Erta","codi_icgc":"251734 AP21 ARI 3","categoria":"Àrees de poblament","codi_municipi":"251734","municipi":"el Pont de Suert","codi_comarca":"05","comarca":"Alta Ribagorça","provincia":"Lleida","font":"ICGC Àrees de poblament v3r1 202602"},"geometry":{"type":"MultiPolygon","coordinates":[[[[0.843158,42.426659],[0.843178,42.426638],[0.843209,42.426628],[0.843323,42.426632],[0.843391,42.426632],[0.843493,42.426507],[0.843506,42.426471],[0.843485,42.426458],[0.843494,42.426359],[0.843593,42.426357],[0.843634,42.426285],[0.843703,42.426079],[0.843724,42.426024],[0.843734,42.425972],[0.843788,42.42592],[0.843758,42.425869],[0.843683,42.425823],[0.84362,42.425792],[0.843557,42.425764],[0.84344,42.42575],[0.843356,42.42575],[0.843271,42.42577],[0.843159,42.425861],[0.843129,42.425914],[0.843077,42.426026],[0.843144,42.426066],[0.843097,42.426145],[0.84306,42.426174],[0.842957,42.426143],[0.842839,42.426292],[0.842962,42.426351],[0.842926,42.426385],[0.843104,42.426473],[0.843146,42.426494],[0.843168,42.426538],[0.843111,42.426593],[0.842982,42.426686],[0.842878,42.42674],[0.842826,42.426782],[0.842784,42.426848],[0.842955,42.426922],[0.843032,42.426871],[0.843096,42.426756],[0.84313,42.426701],[0.843158,42.426659]]]]}},{"type":"Feature","id":"251734_251734 AP18 ARI 3","properties":{"area_id":"251734_251734 AP18 ARI 3","nom":"Esperan","codi_icgc":"251734 AP18 ARI 3","categoria":"Àrees de poblament","codi_municipi":"251734","municipi":"el Pont de Suert","codi_comarca":"05","comarca":"Alta Ribagorça","provincia":"Lleida","font":"ICGC Àrees de poblament v3r1 202602"},"geometry":{"type":"MultiPolygon","coordinates":[[[[0.791654,42.434523],[0.791961,42.434469],[0.79169,42.434178],[0.791649,42.433963],[0.791838,42.433854],[0.791974,42.433666],[0.791826,42.433526],[0.791635,42.433462],[0.791553,42.433514],[0.791401,42.433702],[0.791242,42.433651],[0.791121,42.433887],[0.791349,42.434041],[0.791502,42.43427],[0.791416,42.434417],[0.791493,42.434526],[0.791654,42.434523]]]]}},{"type":"Feature","id":"251734_251734 AP04 ARI 2","properties":{"area_id":"251734_251734 AP04 ARI 2","nom":"Gironella","codi_icgc":"251734 AP04 ARI 2","categoria":"Àrees de poblament","codi_municipi":"251734","municipi":"el Pont de Suert","codi_comarca":"05","comarca":"Alta Ribagorça","provincia":"Lleida","font":"ICGC Àrees de poblament v3r1 202602"},"geometry":{"type":"MultiPolygon","coordinates":[[[[0.789306,42.394689],[0.78953,42.394682],[0.789523,42.394575],[0.789694,42.394531],[0.789754,42.394472],[0.79008,42.394371],[0.790006,42.394277],[0.789966,42.394201],[0.789933,42.394175],[0.789866,42.394167],[0.78973,42.394171],[0.78962,42.394169],[0.789538,42.394142],[0.789458,42.394105],[0.789391,42.394086],[0.789343,42.394089],[0.789322,42.394131],[0.789348,42.394225],[0.789375,42.394275],[0.789398,42.394342],[0.789369,42.394351],[0.789357,42.394398],[0.7894,42.394439],[0.789372,42.39448],[0.789298,42.394485],[0.789306,42.394689]]]]}},{"type":"Feature","id":"251734_251734 AP16 ARI 3","properties":{"area_id":"251734_251734 AP16 ARI 3","nom":"Gotarta","codi_icgc":"251734 AP16 ARI 3","categoria":"Àrees de poblament","codi_municipi":"251734","municipi":"el Pont de Suert","codi_comarca":"05","comarca":"Alta Ribagorça","provincia":"Lleida","font":"ICGC Àrees de poblament v3r1 202602"},"geometry":{"type":"MultiPolygon","coordinates":[[[[0.763327,42.421277],[0.763329,42.421292],[0.76334,42.421417],[0.763347,42.421518],[0.763355,42.421651],[0.763357,42.421796],[0.763357,42.421949],[0.763444,42.421975],[0.764095,42.421967],[0.764096,42.421994],[0.764115,42.422042],[0.764166,42.422075],[0.764199,42.422081],[0.764248,42.422073],[0.764264,42.42205],[0.764303,42.421979],[0.764337,42.421892],[0.76435,42.4218],[0.764292,42.421715],[0.764198,42.421593],[0.764243,42.421554],[0.764376,42.42145],[0.764451,42.421362],[0.764498,42.42134],[0.764603,42.421205],[0.764492,42.421153],[0.764313,42.421117],[0.764071,42.421038],[0.764019,42.421001],[0.763946,42.420946],[0.763906,42.420922],[0.76379,42.420918],[0.763759,42.420923],[0.763526,42.420959],[0.763191,42.420752],[0.763032,42.420877],[0.763135,42.420957],[0.763233,42.42109],[0.763292,42.421175],[0.763327,42.421277]]]]}},{"type":"Feature","id":"251734_251734 AP17 ARI 3","properties":{"area_id":"251734_251734 AP17 ARI 3","nom":"Igüerri","codi_icgc":"251734 AP17 ARI 3","categoria":"Àrees de poblament","codi_municipi":"251734","municipi":"el Pont de Suert","codi_comarca":"05","comarca":"Alta Ribagorça","provincia":"Lleida","font":"ICGC Àrees de poblament v3r1 202602"},"geometry":{"type":"MultiPolygon","coordinates":[[[[0.766857,42.430377],[0.766857,42.430379],[0.766982,42.430549],[0.767048,42.43059],[0.767265,42.430482],[0.767357,42.430495],[0.767743,42.430295],[0.767808,42.430052],[0.767715,42.429915],[0.767713,42.429915],[0.767627,42.429921],[0.767529,42.429929],[0.767431,42.429936],[0.767344,42.429944],[0.767258,42.429956],[0.767214,42.429959],[0.767152,42.429971],[0.766977,42.43004],[0.76694,42.430144],[0.76696,42.43016],[0.766893,42.43024],[0.766913,42.43026],[0.766911,42.430317],[0.766905,42.430349],[0.766889,42.430364],[0.766857,42.430377]]]]}},{"type":"Feature","id":"251734_251734 AP13 ARI 3","properties":{"area_id":"251734_251734 AP13 ARI 3","nom":"Iran","codi_icgc":"251734 AP13 ARI 3","categoria":"Àrees de poblament","codi_municipi":"251734","municipi":"el Pont de Suert","codi_comarca":"05","comarca":"Alta Ribagorça","provincia":"Lleida","font":"ICGC Àrees de poblament v3r1 202602"},"geometry":{"type":"MultiPolygon","coordinates":[[[[0.779776,42.459344],[0.779838,42.459443],[0.780154,42.459551],[0.780228,42.4594],[0.780433,42.459303],[0.780459,42.459253],[0.780774,42.459217],[0.780695,42.459052],[0.780444,42.459071],[0.780276,42.458995],[0.78021,42.459004],[0.780159,42.459011],[0.780048,42.459008],[0.779955,42.4591],[0.779856,42.459209],[0.779776,42.459344]]]]}},{"type":"Feature","id":"251734_251734 AP14 ARI 3","properties":{"area_id":"251734_251734 AP14 ARI 3","nom":"Irgo","codi_icgc":"251734 AP14 ARI 3","categoria":"Àrees de poblament","codi_municipi":"251734","municipi":"el Pont de Suert","codi_comarca":"05","comarca":"Alta Ribagorça","provincia":"Lleida","font":"ICGC Àrees de poblament v3r1 202602"},"geometry":{"type":"MultiPolygon","coordinates":[[[[0.771764,42.445084],[0.771817,42.445116],[0.771859,42.445164],[0.77188,42.445302],[0.771914,42.44534],[0.77198,42.445382],[0.772036,42.445389],[0.772124,42.445379],[0.772202,42.445346],[0.772357,42.445267],[0.772399,42.445247],[0.772438,42.44523],[0.772567,42.445227],[0.772629,42.445221],[0.772691,42.445201],[0.772718,42.445179],[0.772737,42.445145],[0.772783,42.445012],[0.772808,42.444961],[0.772886,42.444856],[0.772929,42.444798],[0.772954,42.444739],[0.772964,42.444695],[0.772968,42.444648],[0.772958,42.444562],[0.77295,42.444514],[0.772896,42.444427],[0.772837,42.444214],[0.772788,42.444055],[0.772712,42.443875],[0.772599,42.443661],[0.772548,42.443568],[0.772514,42.443446],[0.772406,42.443432],[0.772241,42.443675],[0.77214,42.443839],[0.772074,42.443939],[0.772014,42.444056],[0.772013,42.444151],[0.772017,42.444321],[0.772007,42.444471],[0.771958,42.444617],[0.771876,42.444741],[0.771806,42.444896],[0.771775,42.444979],[0.771764,42.445069],[0.771764,42.445084]]]]}},{"type":"Feature","id":"251734_251734 AP12 ARI 3","properties":{"area_id":"251734_251734 AP12 ARI 3","nom":"Llesp","codi_icgc":"251734 AP12 ARI 3","categoria":"Àrees de poblament","codi_municipi":"251734","municipi":"el Pont de Suert","codi_comarca":"05","comarca":"Alta Ribagorça","provincia":"Lleida","font":"ICGC Àrees de poblament v3r1 202602"},"geometry":{"type":"MultiPolygon","coordinates":[[[[0.757536,42.456289],[0.757606,42.456396],[0.757745,42.456563],[0.757887,42.45664],[0.758024,42.45672],[0.75802,42.456738],[0.758011,42.456769],[0.758085,42.456803],[0.758129,42.456857],[0.758176,42.456911],[0.758244,42.456956],[0.758277,42.456966],[0.75826,42.457019],[0.758154,42.457105],[0.758383,42.457165],[0.758535,42.457179],[0.758482,42.457283],[0.75859,42.457299],[0.75872,42.45732],[0.758801,42.457358],[0.758865,42.457373],[0.758905,42.457398],[0.758942,42.457464],[0.759002,42.457509],[0.75897,42.457533],[0.759017,42.457583],[0.759043,42.457594],[0.759052,42.457607],[0.759187,42.457648],[0.759267,42.457565],[0.759212,42.457522],[0.759271,42.457459],[0.759234,42.457431],[0.759315,42.457324],[0.759378,42.457289],[0.759373,42.457266],[0.759615,42.457284],[0.759645,42.457008],[0.759559,42.456963],[0.759586,42.456927],[0.759566,42.456906],[0.759606,42.456792],[0.759606,42.456793],[0.759606,42.456793],[0.759642,42.456801],[0.759686,42.456809],[0.759914,42.456686],[0.759508,42.456316],[0.759479,42.45633],[0.759064,42.455989],[0.759016,42.455967],[0.758945,42.455996],[0.758875,42.45593],[0.75891,42.455902],[0.758758,42.455756],[0.758821,42.45565],[0.758728,42.455572],[0.758712,42.455519],[0.758638,42.455433],[0.758589,42.455375],[0.758464,42.455197],[0.758409,42.455137],[0.758362,42.455096],[0.758286,42.45507],[0.758062,42.455001],[0.757956,42.455077],[0.757749,42.455403],[0.75767,42.455359],[0.757592,42.455331],[0.757513,42.45531],[0.757395,42.455285],[0.757257,42.455321],[0.757144,42.455404],[0.757113,42.455474],[0.756994,42.455498],[0.756863,42.455561],[0.756836,42.455575],[0.756865,42.455704],[0.757341,42.455801],[0.757266,42.455967],[0.757206,42.455956],[0.757147,42.455951],[0.757113,42.455966],[0.757072,42.456055],[0.757042,42.456115],[0.757065,42.456129],[0.757142,42.456151],[0.757243,42.45618],[0.757329,42.456195],[0.757419,42.456215],[0.757478,42.456239],[0.757536,42.456289]]]]}},{"type":"Feature","id":"251734_251734 AP23 ARI 3","properties":{"area_id":"251734_251734 AP23 ARI 3","nom":"Malpàs","codi_icgc":"251734 AP23 ARI 3","categoria":"Àrees de poblament","codi_municipi":"251734","municipi":"el Pont de Suert","codi_comarca":"05","comarca":"Alta Ribagorça","provincia":"Lleida","font":"ICGC Àrees de poblament v3r1 202602"},"geometry":{"type":"MultiPolygon","coordinates":[[[[0.791955,42.40996],[0.791939,42.410111],[0.791943,42.41029],[0.792025,42.410316],[0.792108,42.410359],[0.792201,42.410344],[0.792235,42.410318],[0.79225,42.41028],[0.792327,42.409914],[0.79239,42.409637],[0.792478,42.409208],[0.792806,42.409223],[0.793014,42.409247],[0.793199,42.409244],[0.793282,42.409225],[0.793327,42.409203],[0.793359,42.409148],[0.7934,42.409084],[0.793416,42.40906],[0.793405,42.409027],[0.793383,42.408991],[0.793353,42.408973],[0.793322,42.408976],[0.79328,42.408998],[0.79323,42.409028],[0.793173,42.40904],[0.79321,42.408934],[0.793217,42.408869],[0.793212,42.408793],[0.793209,42.408755],[0.793247,42.408696],[0.793336,42.408647],[0.793406,42.408619],[0.793451,42.408578],[0.793506,42.408495],[0.79352,42.408465],[0.793539,42.408277],[0.793546,42.408144],[0.793544,42.408069],[0.793558,42.407947],[0.793567,42.407849],[0.793564,42.407786],[0.793556,42.407721],[0.793537,42.407665],[0.793489,42.407584],[0.79344,42.407516],[0.793401,42.407456],[0.793294,42.407353],[0.793295,42.407317],[0.793229,42.407293],[0.793256,42.407246],[0.793229,42.407205],[0.793056,42.407177],[0.792966,42.407174],[0.792893,42.407203],[0.792927,42.407245],[0.792856,42.407305],[0.7928,42.407348],[0.792696,42.40739],[0.792644,42.407408],[0.792582,42.407466],[0.792537,42.40751],[0.792468,42.407641],[0.792445,42.407718],[0.792447,42.407812],[0.792475,42.407955],[0.792518,42.408118],[0.792388,42.408175],[0.792197,42.408175],[0.792197,42.408249],[0.792292,42.40826],[0.792299,42.408297],[0.792409,42.408297],[0.792411,42.408328],[0.792505,42.408354],[0.792397,42.408497],[0.792455,42.408673],[0.792432,42.408683],[0.792377,42.408693],[0.792219,42.40902],[0.792408,42.409071],[0.792303,42.409282],[0.792114,42.409605],[0.791952,42.409884],[0.791955,42.40996]]]]}},{"type":"Feature","id":"251734_251734 AP03 ARI 2","properties":{"area_id":"251734_251734 AP03 ARI 2","nom":"Massivert","codi_icgc":"251734 AP03 ARI 2","categoria":"Àrees de poblament","codi_municipi":"251734","municipi":"el Pont de Suert","codi_comarca":"05","comarca":"Alta Ribagorça","provincia":"Lleida","font":"ICGC Àrees de poblament v3r1 202602"},"geometry":{"type":"MultiPolygon","coordinates":[[[[0.815172,42.399756],[0.815426,42.399814],[0.815613,42.399421],[0.815683,42.399354],[0.815878,42.399412],[0.816009,42.39925],[0.815876,42.399197],[0.815932,42.399105],[0.815901,42.399023],[0.815812,42.398967],[0.815687,42.399086],[0.815597,42.399031],[0.815518,42.399094],[0.81548,42.399086],[0.815427,42.399089],[0.815373,42.399102],[0.815284,42.399036],[0.814984,42.399202],[0.8151,42.399325],[0.815232,42.399403],[0.81508,42.39964],[0.815172,42.399756]]]]}},{"type":"Feature","id":"251734_251734 AP06 ARI 2","properties":{"area_id":"251734_251734 AP06 ARI 2","nom":"Montiberri","codi_icgc":"251734 AP06 ARI 2","categoria":"Àrees de poblament","codi_municipi":"251734","municipi":"el Pont de Suert","codi_comarca":"05","comarca":"Alta Ribagorça","provincia":"Lleida","font":"ICGC Àrees de poblament v3r1 202602"},"geometry":{"type":"MultiPolygon","coordinates":[[[[0.768156,42.385685],[0.768215,42.385693],[0.76839,42.385713],[0.768486,42.385715],[0.768705,42.385681],[0.768808,42.385674],[0.768903,42.385542],[0.768703,42.385376],[0.768321,42.385273],[0.76819,42.385357],[0.768054,42.385496],[0.76801,42.385548],[0.768046,42.385618],[0.768103,42.385655],[0.768156,42.385685]]]]}},{"type":"Feature","id":"251734_251734 AP20 ARI 3","properties":{"area_id":"251734_251734 AP20 ARI 3","nom":"Peranera","codi_icgc":"251734 AP20 ARI 3","categoria":"Àrees de poblament","codi_municipi":"251734","municipi":"el Pont de Suert","codi_comarca":"05","comarca":"Alta Ribagorça","provincia":"Lleida","font":"ICGC Àrees de poblament v3r1 202602"},"geometry":{"type":"MultiPolygon","coordinates":[[[[0.813888,42.421445],[0.814046,42.421563],[0.814152,42.421529],[0.814262,42.421414],[0.814368,42.421409],[0.814558,42.421499],[0.814887,42.421462],[0.814899,42.4214],[0.815038,42.421377],[0.815009,42.421295],[0.815183,42.421275],[0.815234,42.421297],[0.815298,42.421298],[0.815382,42.42129],[0.81545,42.42128],[0.815508,42.421176],[0.815416,42.421069],[0.815143,42.421148],[0.815066,42.421127],[0.814877,42.421112],[0.814762,42.421081],[0.814582,42.42108],[0.814535,42.420964],[0.814281,42.420957],[0.814184,42.420965],[0.814165,42.421143],[0.81392,42.421158],[0.813847,42.421195],[0.813888,42.421445]]]]}},{"type":"Feature","id":"251734_251734 AP26 ARI 3","properties":{"area_id":"251734_251734 AP26 ARI 3","nom":"Perves","codi_icgc":"251734 AP26 ARI 3","categoria":"Àrees de poblament","codi_municipi":"251734","municipi":"el Pont de Suert","codi_comarca":"05","comarca":"Alta Ribagorça","provincia":"Lleida","font":"ICGC Àrees de poblament v3r1 202602"},"geometry":{"type":"MultiPolygon","coordinates":[[[[0.849623,42.361948],[0.84947,42.361976],[0.849409,42.361958],[0.849308,42.361975],[0.8492,42.361889],[0.849175,42.361873],[0.849139,42.361869],[0.849122,42.361847],[0.849107,42.361777],[0.849051,42.361757],[0.848933,42.361663],[0.848844,42.361718],[0.848896,42.361756],[0.848877,42.361805],[0.849037,42.361926],[0.848967,42.361963],[0.848812,42.361969],[0.848734,42.362002],[0.848671,42.362047],[0.848633,42.362098],[0.848601,42.362133],[0.84858,42.362148],[0.848538,42.362145],[0.84848,42.362119],[0.848424,42.362097],[0.84833,42.362066],[0.848272,42.362107],[0.8482,42.362253],[0.848412,42.362322],[0.848727,42.362335],[0.849006,42.362306],[0.849127,42.362358],[0.849315,42.362346],[0.849428,42.362289],[0.849511,42.362422],[0.849676,42.362387],[0.849806,42.362369],[0.849938,42.362351],[0.850079,42.36234],[0.850172,42.362351],[0.850271,42.362368],[0.850343,42.362377],[0.850429,42.362337],[0.850536,42.36228],[0.850555,42.362248],[0.850657,42.362202],[0.85073,42.362169],[0.850774,42.362185],[0.850969,42.362113],[0.851094,42.362052],[0.851182,42.361966],[0.851336,42.361895],[0.851379,42.361846],[0.851427,42.361788],[0.851485,42.361751],[0.851507,42.361711],[0.851493,42.361677],[0.851452,42.361647],[0.851404,42.361631],[0.85132,42.361622],[0.851234,42.361651],[0.851161,42.36167],[0.851112,42.361669],[0.851051,42.361653],[0.850982,42.36157],[0.850877,42.361493],[0.85078,42.361551],[0.850755,42.361586],[0.85062,42.361628],[0.850358,42.361785],[0.850347,42.361817],[0.85039,42.361892],[0.850437,42.361956],[0.850459,42.361977],[0.850277,42.361968],[0.85011,42.361967],[0.849879,42.361965],[0.849807,42.361963],[0.849623,42.361948]]]]}},{"type":"Feature","id":"251734_251734 AP31 ARI 3","properties":{"area_id":"251734_251734 AP31 ARI 3","nom":"Pinyana","codi_icgc":"251734 AP31 ARI 3","categoria":"Àrees de poblament","codi_municipi":"251734","municipi":"el Pont de Suert","codi_comarca":"05","comarca":"Alta Ribagorça","provincia":"Lleida","font":"ICGC Àrees de poblament v3r1 202602"},"geometry":{"type":"MultiPolygon","coordinates":[[[[0.884012,42.329758],[0.884015,42.32976],[0.884192,42.329734],[0.884366,42.329718],[0.884449,42.329734],[0.884505,42.329769],[0.884536,42.329824],[0.884537,42.329876],[0.884459,42.329994],[0.884375,42.330036],[0.884497,42.330123],[0.884807,42.330109],[0.885021,42.329994],[0.884998,42.32986],[0.88492,42.32975],[0.885066,42.32961],[0.885205,42.329503],[0.88534,42.329387],[0.885503,42.32925],[0.885641,42.329122],[0.885545,42.329025],[0.885233,42.328958],[0.885061,42.328811],[0.884893,42.328902],[0.884882,42.329019],[0.885063,42.329236],[0.884888,42.329368],[0.884793,42.329347],[0.884628,42.329268],[0.884448,42.329281],[0.884324,42.329353],[0.884146,42.329464],[0.883943,42.329649],[0.884012,42.329758]]]]}},{"type":"Feature","id":"251734_251734 SI01 ARI 2","properties":{"area_id":"251734_251734 SI01 ARI 2","nom":"Polígon industrial Sores","codi_icgc":"251734 SI01 ARI 2","categoria":"Sector industrial","codi_municipi":"251734","municipi":"el Pont de Suert","codi_comarca":"05","comarca":"Alta Ribagorça","provincia":"Lleida","font":"ICGC Àrees de poblament v3r1 202602"},"geometry":{"type":"MultiPolygon","coordinates":[[[[0.735561,42.421605],[0.735498,42.421761],[0.735453,42.421939],[0.73545,42.422161],[0.735753,42.422178],[0.735707,42.422387],[0.735698,42.422502],[0.73574,42.422553],[0.735815,42.422608],[0.735871,42.42265],[0.735903,42.422713],[0.736195,42.422753],[0.736575,42.422789],[0.736687,42.422099],[0.736743,42.421879],[0.73671,42.421449],[0.736704,42.421325],[0.736693,42.42112],[0.7367,42.421053],[0.73688,42.421007],[0.736715,42.420657],[0.736583,42.420426],[0.736167,42.419799],[0.73573,42.419187],[0.735605,42.419056],[0.735509,42.419318],[0.735294,42.419925],[0.735159,42.42018],[0.73503,42.420412],[0.735153,42.42061],[0.735361,42.420862],[0.735461,42.42103],[0.735523,42.421062],[0.73559,42.421199],[0.73557,42.421499],[0.735561,42.421605]]]]}},{"type":"Feature","id":"251734_251734 AP02 ARI 2","properties":{"area_id":"251734_251734 AP02 ARI 2","nom":"Raons","codi_icgc":"251734 AP02 ARI 2","categoria":"Àrees de poblament","codi_municipi":"251734","municipi":"el Pont de Suert","codi_comarca":"05","comarca":"Alta Ribagorça","provincia":"Lleida","font":"ICGC Àrees de poblament v3r1 202602"},"geometry":{"type":"MultiPolygon","coordinates":[[[[0.780055,42.421241],[0.780275,42.421174],[0.780286,42.42111],[0.780252,42.420991],[0.780097,42.420867],[0.779927,42.420213],[0.779841,42.420208],[0.779404,42.420292],[0.779463,42.420654],[0.779587,42.420696],[0.779717,42.420706],[0.779763,42.420757],[0.779789,42.420861],[0.779795,42.420961],[0.779777,42.421061],[0.779735,42.421146],[0.780055,42.421241]]]]}},{"type":"Feature","id":"251734_251734 AP11 ARI 3","properties":{"area_id":"251734_251734 AP11 ARI 3","nom":"Sarroqueta","codi_icgc":"251734 AP11 ARI 3","categoria":"Àrees de poblament","codi_municipi":"251734","municipi":"el Pont de Suert","codi_comarca":"05","comarca":"Alta Ribagorça","provincia":"Lleida","font":"ICGC Àrees de poblament v3r1 202602"},"geometry":{"type":"MultiPolygon","coordinates":[[[[0.72297,42.443053],[0.722943,42.44324],[0.723102,42.443276],[0.723235,42.443279],[0.723291,42.443297],[0.723394,42.443332],[0.723389,42.443356],[0.723503,42.443439],[0.723589,42.443512],[0.723672,42.443546],[0.723852,42.443559],[0.723984,42.443573],[0.72404,42.443595],[0.724014,42.443645],[0.723874,42.443732],[0.724155,42.443872],[0.724259,42.443874],[0.724344,42.443872],[0.724376,42.443855],[0.724389,42.443736],[0.724497,42.443735],[0.724613,42.443771],[0.724697,42.443769],[0.724807,42.443745],[0.724848,42.443725],[0.724662,42.443521],[0.724588,42.443556],[0.724526,42.443498],[0.724313,42.443592],[0.724246,42.443567],[0.724187,42.443542],[0.724042,42.44344],[0.723991,42.443404],[0.723845,42.443317],[0.723747,42.443235],[0.72368,42.443195],[0.723641,42.44317],[0.723522,42.443135],[0.723391,42.443094],[0.723319,42.443075],[0.723243,42.443058],[0.723163,42.443054],[0.723055,42.443031],[0.722975,42.443011],[0.722979,42.443055],[0.72297,42.443053]]]]}},{"type":"Feature","id":"251734_251734 AP24 ARI 3","properties":{"area_id":"251734_251734 AP24 ARI 3","nom":"Ventolà","codi_icgc":"251734 AP24 ARI 3","categoria":"Àrees de poblament","codi_municipi":"251734","municipi":"el Pont de Suert","codi_comarca":"05","comarca":"Alta Ribagorça","provincia":"Lleida","font":"ICGC Àrees de poblament v3r1 202602"},"geometry":{"type":"MultiPolygon","coordinates":[[[[0.752693,42.401328],[0.752717,42.401363],[0.752755,42.401407],[0.752793,42.40145],[0.75282,42.401481],[0.75284,42.401484],[0.752854,42.401485],[0.753031,42.401498],[0.753139,42.401501],[0.753168,42.401478],[0.753211,42.401445],[0.753217,42.401445],[0.753218,42.401445],[0.753409,42.401443],[0.753447,42.401442],[0.753568,42.401438],[0.75381,42.40143],[0.753809,42.401429],[0.753717,42.401378],[0.753713,42.401377],[0.753681,42.401363],[0.753644,42.401347],[0.753591,42.401324],[0.753551,42.40131],[0.753508,42.401299],[0.75348,42.401293],[0.75347,42.401291],[0.753433,42.401283],[0.753439,42.401199],[0.753418,42.401177],[0.753397,42.401154],[0.753388,42.401138],[0.753383,42.40112],[0.753376,42.401109],[0.753356,42.401093],[0.753332,42.401081],[0.753293,42.401065],[0.753283,42.401062],[0.753189,42.401013],[0.753087,42.400961],[0.753087,42.40096],[0.753084,42.400956],[0.753068,42.400955],[0.752998,42.40095],[0.753035,42.400898],[0.752872,42.400836],[0.752822,42.400832],[0.752788,42.40083],[0.752752,42.400828],[0.752749,42.400828],[0.752604,42.400754],[0.752598,42.40075],[0.752598,42.40075],[0.752545,42.400753],[0.752538,42.400753],[0.752538,42.400823],[0.752537,42.400856],[0.752454,42.400853],[0.752447,42.400852],[0.75244,42.400914],[0.752429,42.401006],[0.752433,42.401054],[0.752447,42.401089],[0.752449,42.401094],[0.752454,42.401099],[0.752461,42.401104],[0.752527,42.401161],[0.752531,42.401165],[0.752565,42.401205],[0.752568,42.401209],[0.752641,42.40127],[0.752687,42.401321],[0.752693,42.401328]]]]}},{"type":"Feature","id":"251734_251734 AP25 ARI 3","properties":{"area_id":"251734_251734 AP25 ARI 3","nom":"Viu de Llevata","codi_icgc":"251734 AP25 ARI 3","categoria":"Àrees de poblament","codi_municipi":"251734","municipi":"el Pont de Suert","codi_comarca":"05","comarca":"Alta Ribagorça","provincia":"Lleida","font":"ICGC Àrees de poblament v3r1 202602"},"geometry":{"type":"MultiPolygon","coordinates":[[[[0.811756,42.369485],[0.811446,42.369551],[0.811469,42.369797],[0.811266,42.369902],[0.81144,42.370082],[0.811659,42.369965],[0.811821,42.370039],[0.811961,42.369975],[0.811975,42.36995],[0.81225,42.369883],[0.812489,42.369807],[0.812591,42.369748],[0.812863,42.369845],[0.812995,42.369891],[0.812961,42.369984],[0.813016,42.370023],[0.813128,42.370052],[0.813193,42.370116],[0.813337,42.370043],[0.813175,42.369889],[0.813136,42.369824],[0.813112,42.369768],[0.813119,42.36973],[0.813136,42.369682],[0.813122,42.369631],[0.813331,42.369625],[0.813509,42.36959],[0.813591,42.36952],[0.81367,42.369487],[0.81372,42.36952],[0.813822,42.369465],[0.81382,42.369377],[0.813783,42.36934],[0.813759,42.369288],[0.813907,42.369242],[0.813996,42.369203],[0.814027,42.369126],[0.814113,42.369091],[0.81438,42.368934],[0.814517,42.369065],[0.81462,42.368986],[0.814647,42.369012],[0.814775,42.368959],[0.814809,42.368961],[0.814863,42.368951],[0.814816,42.368893],[0.814773,42.368875],[0.814704,42.368796],[0.814806,42.368752],[0.8149,42.368708],[0.815025,42.36864],[0.815106,42.368613],[0.815118,42.368638],[0.815129,42.36868],[0.815392,42.368662],[0.815548,42.368619],[0.815598,42.368591],[0.815785,42.368523],[0.815895,42.36853],[0.816068,42.368456],[0.816069,42.368417],[0.816139,42.368386],[0.816118,42.36835],[0.81624,42.368293],[0.816152,42.368173],[0.816042,42.368148],[0.816029,42.368083],[0.816003,42.368033],[0.815982,42.36804],[0.815831,42.3681],[0.815654,42.368146],[0.815509,42.368193],[0.815443,42.36831],[0.815351,42.368377],[0.815184,42.368433],[0.815051,42.368501],[0.81491,42.368557],[0.814809,42.368574],[0.814595,42.368666],[0.814482,42.368824],[0.814283,42.368911],[0.814123,42.369006],[0.813958,42.3691],[0.813877,42.369132],[0.813725,42.369149],[0.813578,42.369167],[0.813433,42.3692],[0.813261,42.369254],[0.81318,42.369287],[0.813085,42.369291],[0.812934,42.369282],[0.812733,42.369278],[0.812571,42.36929],[0.812403,42.36931],[0.812323,42.369322],[0.812235,42.369351],[0.812152,42.369376],[0.812107,42.36932],[0.811901,42.369344],[0.811915,42.369454],[0.811756,42.369485]]]]}},{"type":"Feature","id":"251734_251734 AP10 ARI 3","properties":{"area_id":"251734_251734 AP10 ARI 3","nom":"Viuet","codi_icgc":"251734 AP10 ARI 3","categoria":"Àrees de poblament","codi_municipi":"251734","municipi":"el Pont de Suert","codi_comarca":"05","comarca":"Alta Ribagorça","provincia":"Lleida","font":"ICGC Àrees de poblament v3r1 202602"},"geometry":{"type":"MultiPolygon","coordinates":[[[[0.715953,42.448425],[0.715848,42.448316],[0.715534,42.448235],[0.715248,42.448242],[0.715245,42.448328],[0.714835,42.448528],[0.714747,42.448784],[0.714632,42.449036],[0.714772,42.449048],[0.714904,42.448854],[0.715325,42.448678],[0.715404,42.448703],[0.715953,42.448425]]]]}},{"type":"Feature","id":"251734_251734 AP01 ARI 3","properties":{"area_id":"251734_251734 AP01 ARI 3","nom":"el Pont de Suert","codi_icgc":"251734 AP01 ARI 3","categoria":"Àrees de poblament","codi_municipi":"251734","municipi":"el Pont de Suert","codi_comarca":"05","comarca":"Alta Ribagorça","provincia":"Lleida","font":"ICGC Àrees de poblament v3r1 202602"},"geometry":{"type":"MultiPolygon","coordinates":[[[[0.741079,42.412709],[0.740902,42.412586],[0.741035,42.412595],[0.741137,42.412546],[0.74115,42.412401],[0.74125,42.412409],[0.741268,42.412242],[0.741319,42.412178],[0.741294,42.412082],[0.741254,42.411959],[0.741179,42.411922],[0.741197,42.411877],[0.741175,42.411808],[0.7412,42.411672],[0.741135,42.411605],[0.741016,42.411558],[0.741022,42.411385],[0.741044,42.411219],[0.741218,42.410946],[0.741168,42.410903],[0.741122,42.410831],[0.741103,42.410797],[0.741159,42.410697],[0.741262,42.410616],[0.741418,42.410547],[0.741504,42.410484],[0.741668,42.410412],[0.741789,42.410501],[0.741955,42.410466],[0.742018,42.410407],[0.742104,42.410349],[0.742184,42.410366],[0.742339,42.410283],[0.74225,42.410203],[0.742363,42.410087],[0.742487,42.409988],[0.742664,42.409872],[0.742884,42.409787],[0.743087,42.409717],[0.743246,42.409654],[0.743358,42.40957],[0.743511,42.409457],[0.743756,42.409343],[0.743972,42.409263],[0.744073,42.40923],[0.744104,42.40926],[0.744217,42.409244],[0.744268,42.409189],[0.744373,42.409152],[0.744498,42.409146],[0.74463,42.409178],[0.744734,42.409198],[0.744795,42.409161],[0.744803,42.40905],[0.744886,42.408975],[0.744976,42.408938],[0.744977,42.408801],[0.744813,42.408768],[0.744672,42.408795],[0.744623,42.408806],[0.74463,42.408714],[0.744397,42.408712],[0.744317,42.408722],[0.744227,42.408518],[0.744237,42.408473],[0.744156,42.408454],[0.743946,42.408411],[0.743669,42.408278],[0.743404,42.408159],[0.743056,42.407997],[0.743026,42.407986],[0.743006,42.40794],[0.74295,42.40791],[0.743104,42.407705],[0.742985,42.407556],[0.7428,42.407538],[0.742752,42.407427],[0.742763,42.407361],[0.742761,42.407287],[0.742737,42.407182],[0.742685,42.407047],[0.742615,42.406876],[0.742956,42.406779],[0.742733,42.406286],[0.742628,42.406197],[0.742618,42.405893],[0.742633,42.405822],[0.742324,42.405801],[0.742236,42.405796],[0.742288,42.405586],[0.742353,42.405328],[0.742409,42.405115],[0.742439,42.404961],[0.742439,42.404832],[0.742422,42.404653],[0.742456,42.404589],[0.742523,42.404527],[0.742712,42.404394],[0.74271,42.404349],[0.742836,42.404319],[0.742789,42.404166],[0.742647,42.404202],[0.742604,42.404151],[0.7423,42.403897],[0.742199,42.403806],[0.742189,42.403755],[0.742192,42.403675],[0.742296,42.403689],[0.742446,42.40374],[0.742586,42.40376],[0.742587,42.403525],[0.742625,42.403454],[0.742636,42.403383],[0.742698,42.403348],[0.742779,42.4031],[0.742783,42.403011],[0.742915,42.402904],[0.743042,42.402768],[0.74311,42.402686],[0.743162,42.402591],[0.743214,42.402476],[0.743246,42.402379],[0.743248,42.402319],[0.743191,42.402278],[0.743087,42.402215],[0.742873,42.402084],[0.742765,42.402014],[0.74271,42.401963],[0.7427,42.401903],[0.74271,42.40185],[0.742831,42.401724],[0.742895,42.401636],[0.742925,42.401583],[0.742966,42.401545],[0.743058,42.401464],[0.74312,42.401417],[0.743178,42.401371],[0.742602,42.401184],[0.74238,42.40154],[0.742283,42.401609],[0.742208,42.401622],[0.742089,42.401636],[0.742023,42.40178],[0.74196,42.401921],[0.742071,42.40195],[0.742052,42.402031],[0.742044,42.402092],[0.742081,42.402136],[0.742141,42.402147],[0.742247,42.402151],[0.742252,42.402194],[0.742238,42.402332],[0.742102,42.402451],[0.742024,42.402545],[0.741947,42.402648],[0.741903,42.402777],[0.741874,42.402981],[0.741851,42.40316],[0.741759,42.403222],[0.741706,42.403266],[0.741669,42.403313],[0.741635,42.403367],[0.741591,42.403409],[0.741502,42.403477],[0.741436,42.40354],[0.741402,42.403575],[0.741339,42.40355],[0.741201,42.403533],[0.741027,42.403534],[0.740898,42.403562],[0.740815,42.403603],[0.740774,42.403638],[0.740656,42.403797],[0.740439,42.404001],[0.740307,42.4041],[0.74011,42.404227],[0.740018,42.40432],[0.739932,42.404473],[0.739743,42.404577],[0.739654,42.404611],[0.739509,42.404626],[0.739324,42.404604],[0.739237,42.404585],[0.739128,42.404497],[0.739106,42.404452],[0.739046,42.404335],[0.738968,42.404268],[0.738912,42.404226],[0.738846,42.404197],[0.738782,42.40419],[0.7387,42.404194],[0.738557,42.404225],[0.738393,42.404264],[0.738313,42.404279],[0.738242,42.404253],[0.738116,42.404182],[0.737928,42.404041],[0.737851,42.403982],[0.73777,42.403933],[0.73777,42.404],[0.737707,42.404404],[0.737709,42.404406],[0.737549,42.405681],[0.737532,42.405815],[0.737522,42.406033],[0.737521,42.406071],[0.737577,42.406073],[0.737933,42.406156],[0.738101,42.406164],[0.738223,42.406207],[0.738293,42.406241],[0.738426,42.406312],[0.738564,42.406388],[0.738634,42.406436],[0.738691,42.406481],[0.738718,42.406492],[0.738741,42.406494],[0.738774,42.406492],[0.738936,42.406574],[0.73897,42.406621],[0.738988,42.406688],[0.739006,42.406772],[0.73897,42.406819],[0.738908,42.406859],[0.738806,42.40689],[0.738701,42.406924],[0.7386,42.406928],[0.738423,42.40693],[0.738234,42.406929],[0.73813,42.406936],[0.737764,42.406929],[0.737378,42.406948],[0.73714,42.406958],[0.73716,42.407066],[0.737187,42.407323],[0.737207,42.407546],[0.737235,42.407785],[0.737218,42.407818],[0.737205,42.407825],[0.73719,42.407829],[0.737159,42.407828],[0.737118,42.40782],[0.737019,42.407806],[0.736691,42.407761],[0.736422,42.407725],[0.736422,42.407733],[0.736376,42.407717],[0.736005,42.407662],[0.735762,42.407621],[0.735727,42.407622],[0.735701,42.407634],[0.735692,42.407652],[0.73565,42.40819],[0.735621,42.408524],[0.735611,42.408646],[0.735588,42.408911],[0.735564,42.409141],[0.735564,42.409587],[0.735572,42.409852],[0.736161,42.409937],[0.736386,42.40997],[0.73702,42.410065],[0.737494,42.410144],[0.737934,42.409838],[0.738095,42.409699],[0.73722,42.409562],[0.737217,42.409536],[0.737169,42.409047],[0.737122,42.408601],[0.737111,42.408501],[0.73708,42.408182],[0.737066,42.408028],[0.737061,42.408003],[0.737135,42.407987],[0.737143,42.407885],[0.737207,42.40789],[0.737248,42.407876],[0.737271,42.407849],[0.737326,42.407868],[0.737468,42.40787],[0.737713,42.407885],[0.737945,42.407892],[0.738241,42.407958],[0.738299,42.407956],[0.738354,42.407948],[0.73845,42.407964],[0.738565,42.407983],[0.738743,42.408039],[0.738999,42.40808],[0.738954,42.408422],[0.738911,42.40864],[0.738845,42.408772],[0.738759,42.408928],[0.738648,42.409071],[0.738584,42.409158],[0.738437,42.409308],[0.738233,42.409518],[0.738138,42.409583],[0.738201,42.40962],[0.738862,42.409919],[0.73902,42.409803],[0.739067,42.409756],[0.739091,42.409707],[0.739113,42.409645],[0.73914,42.409507],[0.739129,42.409202],[0.739651,42.409174],[0.739714,42.409128],[0.739813,42.409218],[0.739915,42.409334],[0.73998,42.4094],[0.740012,42.409489],[0.740013,42.409553],[0.74,42.409667],[0.739885,42.410173],[0.739644,42.410437],[0.739367,42.410715],[0.739236,42.410867],[0.739125,42.411015],[0.738969,42.411236],[0.738836,42.411441],[0.738728,42.411586],[0.738701,42.411621],[0.7386,42.411734],[0.738528,42.411796],[0.738526,42.411795],[0.738456,42.411711],[0.738113,42.411697],[0.738044,42.411644],[0.737935,42.411634],[0.737877,42.411647],[0.737808,42.411677],[0.737693,42.411734],[0.737644,42.411769],[0.737492,42.411969],[0.737313,42.412206],[0.737256,42.412286],[0.737236,42.412325],[0.737229,42.412316],[0.73703,42.412477],[0.736989,42.412547],[0.737171,42.412674],[0.7374,42.412816],[0.737684,42.412947],[0.737781,42.412975],[0.737776,42.412969],[0.7378,42.41298],[0.737918,42.412992],[0.738031,42.412999],[0.738115,42.412991],[0.73818,42.412952],[0.73824,42.412889],[0.738291,42.412826],[0.738357,42.412763],[0.73922,42.412822],[0.739267,42.412671],[0.739382,42.41246],[0.739271,42.41242],[0.739157,42.412361],[0.739076,42.412288],[0.739023,42.41222],[0.738885,42.412046],[0.738786,42.411944],[0.738617,42.411831],[0.738658,42.411774],[0.738786,42.411651],[0.739057,42.411744],[0.739241,42.411815],[0.7394,42.412046],[0.739541,42.412245],[0.739645,42.412371],[0.739703,42.412367],[0.739749,42.412363],[0.739786,42.412407],[0.739903,42.412469],[0.739929,42.412487],[0.739963,42.412541],[0.739957,42.412606],[0.740079,42.412686],[0.740414,42.412967],[0.7406,42.412831],[0.740549,42.412681],[0.740579,42.412517],[0.740723,42.41255],[0.740746,42.412699],[0.740808,42.412867],[0.74091,42.413033],[0.741038,42.413161],[0.74116,42.413259],[0.741278,42.413323],[0.741513,42.413042],[0.741301,42.412895],[0.741253,42.412772],[0.741079,42.412709]]]]}},{"type":"Feature","id":"251734_251734 AP07 ARI 2","properties":{"area_id":"251734_251734 AP07 ARI 2","nom":"la Bastideta de Corroncui","codi_icgc":"251734 AP07 ARI 2","categoria":"Àrees de poblament","codi_municipi":"251734","municipi":"el Pont de Suert","codi_comarca":"05","comarca":"Alta Ribagorça","provincia":"Lleida","font":"ICGC Àrees de poblament v3r1 202602"},"geometry":{"type":"MultiPolygon","coordinates":[[[[0.865132,42.32657],[0.864976,42.326643],[0.865162,42.326837],[0.865263,42.326887],[0.865493,42.32692],[0.865632,42.326979],[0.865747,42.327001],[0.865888,42.327003],[0.865992,42.326986],[0.86606,42.326873],[0.865911,42.326727],[0.865514,42.326691],[0.865361,42.326641],[0.865132,42.32657]]]]}},{"type":"Feature","id":"251734_251734 AP29 ARI 3","properties":{"area_id":"251734_251734 AP29 ARI 3","nom":"la Beguda d'Adons","codi_icgc":"251734 AP29 ARI 3","categoria":"Àrees de poblament","codi_municipi":"251734","municipi":"el Pont de Suert","codi_comarca":"05","comarca":"Alta Ribagorça","provincia":"Lleida","font":"ICGC Àrees de poblament v3r1 202602"},"geometry":{"type":"MultiPolygon","coordinates":[[[[0.833823,42.333751],[0.833659,42.333736],[0.83359,42.333792],[0.833511,42.333855],[0.83346,42.333942],[0.833411,42.334039],[0.833456,42.33413],[0.833573,42.334182],[0.833742,42.334219],[0.833941,42.334137],[0.833993,42.33395],[0.833823,42.333751]]]]}},{"type":"Feature","id":"251734_251734 AP09 ARI 3","properties":{"area_id":"251734_251734 AP09 ARI 3","nom":"les Bordes","codi_icgc":"251734 AP09 ARI 3","categoria":"Àrees de poblament","codi_municipi":"251734","municipi":"el Pont de Suert","codi_comarca":"05","comarca":"Alta Ribagorça","provincia":"Lleida","font":"ICGC Àrees de poblament v3r1 202602"},"geometry":{"type":"MultiPolygon","coordinates":[[[[0.709859,42.449166],[0.710041,42.449213],[0.71005,42.449173],[0.710087,42.449051],[0.710111,42.448951],[0.710123,42.448899],[0.710127,42.448876],[0.710095,42.448845],[0.710002,42.448808],[0.70982,42.448786],[0.709658,42.44873],[0.709782,42.448575],[0.709591,42.448517],[0.709374,42.448687],[0.709337,42.448747],[0.70954,42.448813],[0.709634,42.448837],[0.709532,42.449079],[0.709859,42.449166]]]]}}]}