{"type":"FeatureCollection","name":"ICGC Àrees de poblament - Riner","features":[{"type":"Feature","id":"251863_251863 AP03 SOL 3","properties":{"area_id":"251863_251863 AP03 SOL 3","nom":"Freixinet","codi_icgc":"251863 AP03 SOL 3","categoria":"Àrees de poblament","codi_municipi":"251863","municipi":"Riner","codi_comarca":"35","comarca":"Solsonès","provincia":"Lleida","font":"ICGC Àrees de poblament v3r1 202602"},"geometry":{"type":"MultiPolygon","coordinates":[[[[1.565761,41.923224],[1.565757,41.923123],[1.565977,41.923203],[1.566114,41.923145],[1.566138,41.923139],[1.566209,41.923058],[1.56622,41.923045],[1.566254,41.92304],[1.56657,41.922991],[1.56687,41.922758],[1.567171,41.922843],[1.567325,41.922887],[1.567357,41.922896],[1.567462,41.922881],[1.567461,41.922873],[1.567467,41.922872],[1.56753,41.922865],[1.56754,41.922855],[1.567543,41.922853],[1.567564,41.922846],[1.567589,41.922841],[1.567642,41.922842],[1.567701,41.922847],[1.567762,41.922853],[1.567811,41.922857],[1.56785,41.922852],[1.567897,41.922847],[1.567985,41.922836],[1.568074,41.922816],[1.568183,41.922791],[1.568288,41.922765],[1.568364,41.922744],[1.56844,41.922722],[1.568518,41.922695],[1.568631,41.922654],[1.568704,41.922629],[1.568733,41.922618],[1.568752,41.92261],[1.568757,41.922602],[1.568759,41.922591],[1.56876,41.922563],[1.568768,41.922562],[1.568774,41.922572],[1.568917,41.922567],[1.569043,41.922387],[1.569216,41.922292],[1.569217,41.922285],[1.56923,41.922277],[1.569242,41.922147],[1.569025,41.922094],[1.569055,41.922022],[1.569077,41.921968],[1.56907,41.921966],[1.569037,41.921957],[1.569001,41.921943],[1.568966,41.921927],[1.568948,41.921917],[1.568934,41.921907],[1.568931,41.921898],[1.568934,41.921862],[1.568945,41.921704],[1.568705,41.921707],[1.568466,41.921711],[1.568283,41.921714],[1.5681,41.921716],[1.568077,41.921686],[1.56823,41.921643],[1.568294,41.921621],[1.568462,41.921558],[1.56862,41.921507],[1.56864,41.921485],[1.568665,41.921443],[1.568674,41.921402],[1.568675,41.921366],[1.56866,41.921312],[1.568624,41.921254],[1.568513,41.921226],[1.568472,41.921189],[1.568422,41.921149],[1.568367,41.921112],[1.568328,41.921093],[1.568286,41.921077],[1.568228,41.921059],[1.568169,41.921043],[1.568078,41.921021],[1.568033,41.921011],[1.567986,41.921004],[1.567895,41.920992],[1.567803,41.92098],[1.567808,41.920937],[1.567834,41.920901],[1.567912,41.920919],[1.56799,41.920936],[1.568031,41.920946],[1.568047,41.92095],[1.568051,41.92094],[1.568071,41.920888],[1.568115,41.920817],[1.568278,41.920777],[1.568543,41.920715],[1.568618,41.920686],[1.568714,41.920635],[1.568789,41.920596],[1.568858,41.920538],[1.568902,41.920513],[1.56903,41.92045],[1.5691,41.920416],[1.56924,41.920379],[1.569134,41.920036],[1.569108,41.919981],[1.569103,41.919946],[1.569101,41.919852],[1.569129,41.919758],[1.56915,41.919719],[1.569191,41.919681],[1.569166,41.919661],[1.569206,41.919649],[1.569267,41.919625],[1.569346,41.91959],[1.569421,41.919563],[1.569478,41.919544],[1.56956,41.919527],[1.569599,41.919523],[1.569638,41.919539],[1.569707,41.919584],[1.569806,41.919649],[1.569854,41.919683],[1.569861,41.919687],[1.569864,41.91969],[1.569874,41.919697],[1.569915,41.919725],[1.570036,41.919813],[1.570152,41.919905],[1.570187,41.919938],[1.570219,41.919973],[1.570278,41.920047],[1.570311,41.920093],[1.570341,41.920141],[1.5704,41.92024],[1.57044,41.920309],[1.570469,41.920343],[1.57049,41.920358],[1.5705,41.920365],[1.570539,41.92038],[1.570584,41.920397],[1.570617,41.920417],[1.570631,41.920429],[1.570638,41.920439],[1.570648,41.92045],[1.570657,41.920469],[1.570655,41.920482],[1.570664,41.920475],[1.57082,41.920381],[1.570993,41.920277],[1.570995,41.920267],[1.571136,41.920179],[1.570973,41.919886],[1.570953,41.91985],[1.570861,41.919685],[1.570776,41.91971],[1.570279,41.919861],[1.570261,41.919873],[1.570248,41.919888],[1.570243,41.919906],[1.570245,41.919923],[1.570222,41.919897],[1.570197,41.919871],[1.570157,41.919842],[1.570115,41.919814],[1.570141,41.919824],[1.570166,41.919828],[1.570192,41.919826],[1.57022,41.919818],[1.570247,41.919806],[1.570262,41.919796],[1.570274,41.919785],[1.57029,41.919764],[1.570302,41.919742],[1.570308,41.919722],[1.570313,41.919703],[1.570331,41.91963],[1.570339,41.919594],[1.570344,41.919557],[1.570352,41.919428],[1.570354,41.919394],[1.570365,41.919231],[1.570287,41.919108],[1.569903,41.919198],[1.569718,41.919416],[1.569687,41.919429],[1.569616,41.919456],[1.569226,41.919609],[1.569208,41.919598],[1.569199,41.919602],[1.56914,41.919619],[1.569101,41.91959],[1.569077,41.919595],[1.568828,41.919645],[1.568804,41.919653],[1.568776,41.919662],[1.568724,41.919682],[1.568624,41.919725],[1.568466,41.919788],[1.568441,41.919794],[1.56837,41.919803],[1.568175,41.919821],[1.568048,41.919833],[1.567966,41.919848],[1.567947,41.919911],[1.567922,41.919986],[1.567894,41.919988],[1.567628,41.91976],[1.567302,41.920266],[1.567044,41.920773],[1.56704,41.920779],[1.567009,41.920778],[1.567001,41.920827],[1.567,41.920834],[1.566992,41.920839],[1.566954,41.920886],[1.566917,41.920923],[1.566879,41.92096],[1.566866,41.920972],[1.566815,41.921017],[1.566751,41.921074],[1.566681,41.921138],[1.566612,41.921202],[1.566577,41.921238],[1.566562,41.921258],[1.566547,41.921276],[1.56644,41.921461],[1.566432,41.921479],[1.56641,41.921529],[1.566448,41.921779],[1.566455,41.921815],[1.566443,41.921869],[1.566424,41.921889],[1.566398,41.921922],[1.566377,41.921946],[1.566374,41.921949],[1.56635,41.921976],[1.566331,41.921998],[1.566312,41.922019],[1.566276,41.922068],[1.566242,41.922118],[1.566218,41.92215],[1.566194,41.922182],[1.566168,41.92221],[1.56614,41.922236],[1.566087,41.922288],[1.566049,41.922338],[1.566017,41.92239],[1.565999,41.922426],[1.565983,41.922464],[1.565972,41.922495],[1.565965,41.922526],[1.565964,41.922547],[1.565964,41.922562],[1.565937,41.922564],[1.565932,41.922563],[1.565883,41.922578],[1.565801,41.922586],[1.565738,41.92261],[1.565735,41.922611],[1.565713,41.922626],[1.565705,41.922632],[1.565649,41.922668],[1.565572,41.922718],[1.565542,41.922748],[1.565559,41.923006],[1.565565,41.923092],[1.565571,41.923168],[1.565713,41.923247],[1.565761,41.923224]]]]}},{"type":"Feature","id":"251863_251863 AP06 SOL 3","properties":{"area_id":"251863_251863 AP06 SOL 3","nom":"Riner","codi_icgc":"251863 AP06 SOL 3","categoria":"Àrees de poblament","codi_municipi":"251863","municipi":"Riner","codi_comarca":"35","comarca":"Solsonès","provincia":"Lleida","font":"ICGC Àrees de poblament v3r1 202602"},"geometry":{"type":"MultiPolygon","coordinates":[[[[1.563632,41.941196],[1.563648,41.941225],[1.563654,41.941247],[1.563668,41.941293],[1.563675,41.941319],[1.563662,41.941359],[1.563639,41.941384],[1.563583,41.941402],[1.563532,41.94145],[1.563492,41.94151],[1.563486,41.941549],[1.563477,41.941605],[1.56346,41.941673],[1.56348,41.941734],[1.563505,41.941764],[1.563523,41.941786],[1.563572,41.941802],[1.563591,41.941803],[1.563641,41.941805],[1.563695,41.941802],[1.563741,41.941794],[1.563825,41.941804],[1.56385,41.94181],[1.563884,41.941817],[1.564085,41.941746],[1.563974,41.941601],[1.563951,41.94157],[1.56395,41.941522],[1.563953,41.941496],[1.563957,41.941457],[1.563935,41.941422],[1.563924,41.941376],[1.563928,41.941315],[1.563918,41.941249],[1.563908,41.941221],[1.563882,41.941148],[1.563869,41.941118],[1.563827,41.941088],[1.56362,41.941104],[1.563632,41.941196]]]]}},{"type":"Feature","id":"251863_251863 AP04 SOL 3","properties":{"area_id":"251863_251863 AP04 SOL 3","nom":"Santa Susanna","codi_icgc":"251863 AP04 SOL 3","categoria":"Àrees de poblament","codi_municipi":"251863","municipi":"Riner","codi_comarca":"35","comarca":"Solsonès","provincia":"Lleida","font":"ICGC Àrees de poblament v3r1 202602"},"geometry":{"type":"MultiPolygon","coordinates":[[[[1.60198,41.946163],[1.602001,41.946095],[1.602011,41.946061],[1.602017,41.946028],[1.602017,41.945994],[1.602013,41.945978],[1.602006,41.945961],[1.601981,41.945921],[1.601939,41.945866],[1.601898,41.945812],[1.601871,41.945769],[1.601843,41.945725],[1.601835,41.945722],[1.601825,41.945724],[1.601791,41.945746],[1.601819,41.945716],[1.601851,41.9457],[1.601894,41.945688],[1.60194,41.945683],[1.601988,41.945681],[1.602005,41.945681],[1.602023,41.94568],[1.602062,41.945688],[1.60208,41.945692],[1.602119,41.945703],[1.602176,41.945727],[1.602231,41.945756],[1.602318,41.945806],[1.602407,41.945856],[1.602459,41.945882],[1.602538,41.945917],[1.602616,41.945953],[1.602697,41.945996],[1.602746,41.946022],[1.602771,41.946045],[1.602842,41.946079],[1.602912,41.946113],[1.60296,41.946138],[1.602983,41.946153],[1.603005,41.946171],[1.603015,41.946183],[1.603025,41.946202],[1.603025,41.946221],[1.603002,41.946299],[1.60298,41.946378],[1.602944,41.946498],[1.602938,41.94652],[1.602936,41.946541],[1.602921,41.946674],[1.603226,41.946732],[1.60361,41.946576],[1.603642,41.946563],[1.603966,41.946432],[1.60407,41.946369],[1.604124,41.946305],[1.604139,41.94627],[1.604149,41.946227],[1.60415,41.946184],[1.604151,41.946134],[1.604152,41.946084],[1.604154,41.94603],[1.60414,41.94598],[1.604141,41.945948],[1.604186,41.945802],[1.604123,41.945792],[1.603901,41.94581],[1.603895,41.945811],[1.603874,41.945812],[1.603868,41.945829],[1.603856,41.945842],[1.603846,41.945847],[1.603821,41.945848],[1.603793,41.945849],[1.603695,41.945856],[1.603597,41.945866],[1.603483,41.945881],[1.60337,41.945897],[1.603267,41.945911],[1.603163,41.945926],[1.603086,41.945939],[1.603009,41.94595],[1.602958,41.945954],[1.602814,41.945956],[1.602778,41.945956],[1.602752,41.945963],[1.60274,41.945957],[1.602684,41.945957],[1.602635,41.945931],[1.602556,41.945895],[1.602477,41.94586],[1.602427,41.945835],[1.60234,41.945785],[1.602329,41.945779],[1.602324,41.945761],[1.602322,41.945756],[1.602233,41.94571],[1.602212,41.945715],[1.602195,41.945706],[1.602135,41.945679],[1.602091,41.945667],[1.602072,41.945663],[1.602023,41.945661],[1.602005,41.945661],[1.601987,41.945661],[1.601938,41.945663],[1.601888,41.945669],[1.601839,41.945678],[1.601794,41.945691],[1.60174,41.945709],[1.601747,41.945696],[1.601752,41.945683],[1.601752,41.94567],[1.601746,41.94565],[1.601737,41.94563],[1.601709,41.945581],[1.601675,41.945534],[1.601633,41.945492],[1.601587,41.945452],[1.601579,41.945446],[1.601501,41.94542],[1.601442,41.945448],[1.601427,41.945458],[1.60139,41.945485],[1.601369,41.945502],[1.601358,41.945508],[1.601348,41.945509],[1.601338,41.945503],[1.601325,41.945485],[1.601312,41.945468],[1.601256,41.945419],[1.601197,41.945371],[1.601115,41.94531],[1.601029,41.945253],[1.600931,41.945196],[1.600898,41.945178],[1.600832,41.945141],[1.60078,41.945113],[1.600728,41.945086],[1.600713,41.945082],[1.600698,41.945081],[1.600639,41.945055],[1.600615,41.945044],[1.600589,41.945035],[1.600565,41.945026],[1.60054,41.945018],[1.600508,41.945016],[1.600476,41.945016],[1.600438,41.945016],[1.600399,41.945016],[1.600353,41.945015],[1.600307,41.945013],[1.600269,41.94501],[1.600231,41.945005],[1.600207,41.944999],[1.600166,41.944985],[1.600115,41.945042],[1.600102,41.945049],[1.600093,41.94506],[1.600048,41.945115],[1.600016,41.945155],[1.600004,41.945171],[1.599813,41.945397],[1.599345,41.945955],[1.599202,41.946077],[1.599111,41.946073],[1.598981,41.94604],[1.598851,41.945996],[1.598815,41.946012],[1.598802,41.946009],[1.598728,41.945981],[1.598553,41.945938],[1.598505,41.94592],[1.598487,41.945916],[1.598482,41.945916],[1.598471,41.945919],[1.598008,41.946032],[1.598038,41.946107],[1.598044,41.946121],[1.598065,41.946117],[1.598098,41.946109],[1.598265,41.946185],[1.598766,41.946406],[1.598819,41.946419],[1.59893,41.946446],[1.598833,41.946568],[1.598751,41.946695],[1.598633,41.946827],[1.598708,41.946849],[1.598883,41.946916],[1.598951,41.946954],[1.599063,41.947015],[1.599142,41.947058],[1.599173,41.947075],[1.599221,41.947101],[1.599251,41.94712],[1.599281,41.947138],[1.599292,41.947142],[1.599303,41.947139],[1.599345,41.947099],[1.599385,41.947058],[1.599467,41.946984],[1.599468,41.946981],[1.599589,41.946869],[1.599669,41.946786],[1.599674,41.946782],[1.599691,41.946761],[1.599866,41.946586],[1.599871,41.946588],[1.5999,41.946556],[1.599923,41.94657],[1.599955,41.946591],[1.599995,41.946552],[1.600031,41.946518],[1.600078,41.946486],[1.600086,41.946481],[1.600184,41.946412],[1.600316,41.94628],[1.600422,41.946166],[1.600592,41.946113],[1.600762,41.946266],[1.600774,41.946309],[1.60088,41.946411],[1.600966,41.946569],[1.601027,41.946698],[1.601095,41.946818],[1.601159,41.947086],[1.601191,41.947363],[1.600889,41.947462],[1.600819,41.947485],[1.600558,41.94757],[1.600557,41.94758],[1.600584,41.947646],[1.600611,41.947712],[1.600655,41.947829],[1.60066,41.947843],[1.600698,41.947915],[1.600711,41.947939],[1.600715,41.947959],[1.600727,41.947991],[1.60073,41.948001],[1.600731,41.948003],[1.600738,41.948013],[1.600823,41.94809],[1.60083,41.948102],[1.600832,41.948112],[1.600832,41.94812],[1.600828,41.948128],[1.600818,41.948164],[1.600723,41.948493],[1.600539,41.948799],[1.600531,41.948805],[1.600425,41.948876],[1.600397,41.948886],[1.600333,41.948909],[1.600249,41.948916],[1.600122,41.948983],[1.600068,41.949037],[1.600226,41.94918],[1.600251,41.949202],[1.600299,41.949182],[1.600365,41.94915],[1.600402,41.949132],[1.600565,41.94905],[1.600711,41.948997],[1.600864,41.948941],[1.601,41.948841],[1.601319,41.948402],[1.601548,41.948237],[1.601576,41.948231],[1.601494,41.94781],[1.601725,41.947774],[1.601757,41.94771],[1.601756,41.947696],[1.601753,41.94761],[1.60175,41.947594],[1.601736,41.94757],[1.60167,41.947501],[1.60159,41.947409],[1.60155,41.947363],[1.601512,41.947314],[1.601498,41.947291],[1.601493,41.947273],[1.601479,41.947257],[1.601486,41.947249],[1.601479,41.947215],[1.601473,41.947178],[1.601474,41.947159],[1.601479,41.947141],[1.601501,41.947102],[1.601541,41.947047],[1.601586,41.946993],[1.601651,41.946926],[1.601683,41.946893],[1.601711,41.946858],[1.601747,41.946807],[1.60178,41.946763],[1.601792,41.946749],[1.601819,41.946702],[1.601825,41.946691],[1.601841,41.946663],[1.601866,41.946619],[1.601889,41.946589],[1.601936,41.946546],[1.601982,41.946502],[1.602006,41.946471],[1.602015,41.946455],[1.602019,41.946439],[1.602016,41.946412],[1.601998,41.946371],[1.601989,41.946351],[1.601983,41.94633],[1.601975,41.946269],[1.601973,41.946208],[1.60198,41.946163]]]]}},{"type":"Feature","id":"251863_251863 AP05 SOL 3","properties":{"area_id":"251863_251863 AP05 SOL 3","nom":"Su","codi_icgc":"251863 AP05 SOL 3","categoria":"Àrees de poblament","codi_municipi":"251863","municipi":"Riner","codi_comarca":"35","comarca":"Solsonès","provincia":"Lleida","font":"ICGC Àrees de poblament v3r1 202602"},"geometry":{"type":"MultiPolygon","coordinates":[[[[1.563273,41.888553],[1.563334,41.888629],[1.563272,41.888707],[1.56318,41.888748],[1.56313,41.888761],[1.563118,41.888767],[1.563109,41.8888],[1.563139,41.888814],[1.563151,41.88886],[1.563151,41.888865],[1.563153,41.888895],[1.563188,41.888892],[1.563198,41.888962],[1.563199,41.888985],[1.563191,41.889016],[1.563183,41.88901],[1.563144,41.889032],[1.563153,41.889038],[1.563093,41.889078],[1.563063,41.889051],[1.563033,41.889071],[1.563008,41.889086],[1.563056,41.889154],[1.563169,41.889246],[1.563177,41.889248],[1.563187,41.88925],[1.563233,41.88928],[1.563273,41.889252],[1.563317,41.88922],[1.563438,41.889133],[1.563446,41.889127],[1.563617,41.889227],[1.56362,41.889229],[1.56366,41.889186],[1.563667,41.88918],[1.563675,41.889177],[1.563691,41.889203],[1.563701,41.8892],[1.563674,41.889233],[1.563683,41.889238],[1.563804,41.889309],[1.563859,41.889346],[1.564102,41.88951],[1.56425,41.88961],[1.564377,41.889528],[1.564562,41.889662],[1.564633,41.889612],[1.564694,41.88957],[1.564255,41.889203],[1.564387,41.889096],[1.564418,41.889072],[1.564494,41.889126],[1.564664,41.888993],[1.564685,41.888969],[1.564791,41.889039],[1.564894,41.888962],[1.564915,41.888984],[1.564945,41.889009],[1.564968,41.88903],[1.565025,41.889073],[1.565038,41.889082],[1.565087,41.889117],[1.565141,41.889081],[1.56525,41.889007],[1.56525,41.889004],[1.565245,41.888986],[1.565236,41.88897],[1.565209,41.888928],[1.565194,41.888907],[1.565187,41.888887],[1.565185,41.88887],[1.565185,41.888848],[1.565187,41.888833],[1.565191,41.888824],[1.565196,41.888815],[1.565203,41.888805],[1.565281,41.888736],[1.565378,41.888632],[1.565456,41.888575],[1.565487,41.888546],[1.565315,41.888393],[1.565044,41.888577],[1.564661,41.888305],[1.564588,41.888306],[1.564581,41.888291],[1.564607,41.888253],[1.564637,41.888217],[1.564664,41.888182],[1.564681,41.888162],[1.564642,41.888117],[1.56462,41.888108],[1.564559,41.888088],[1.564417,41.888032],[1.564452,41.887972],[1.564526,41.887885],[1.564446,41.88785],[1.564242,41.887761],[1.564211,41.887738],[1.564169,41.887736],[1.564161,41.887735],[1.564151,41.887739],[1.564124,41.887742],[1.564102,41.887745],[1.564081,41.887751],[1.564015,41.88778],[1.563984,41.887798],[1.563956,41.887817],[1.563904,41.887858],[1.563833,41.887922],[1.563764,41.887987],[1.563749,41.888008],[1.56373,41.888041],[1.563717,41.888055],[1.563703,41.888062],[1.563699,41.888064],[1.563628,41.888083],[1.563541,41.888109],[1.5635,41.888107],[1.563433,41.888109],[1.563394,41.888115],[1.56337,41.888124],[1.563357,41.888152],[1.563346,41.888181],[1.563342,41.888195],[1.56335,41.888255],[1.563352,41.888284],[1.563412,41.888378],[1.563298,41.888388],[1.563301,41.888468],[1.563318,41.888531],[1.563273,41.888553]]]]}},{"type":"Feature","id":"251863_251863 AP01 SOL 3","properties":{"area_id":"251863_251863 AP01 SOL 3","nom":"el Miracle","codi_icgc":"251863 AP01 SOL 3","categoria":"Àrees de poblament","codi_municipi":"251863","municipi":"Riner","codi_comarca":"35","comarca":"Solsonès","provincia":"Lleida","font":"ICGC Àrees de poblament v3r1 202602"},"geometry":{"type":"MultiPolygon","coordinates":[[[[1.52541,41.914004],[1.52534,41.91397],[1.525262,41.914019],[1.525169,41.914074],[1.525069,41.914128],[1.525019,41.914128],[1.524912,41.91414],[1.524822,41.914166],[1.524625,41.914223],[1.52448,41.914253],[1.524209,41.914306],[1.523922,41.914352],[1.52369,41.914401],[1.523585,41.914425],[1.523516,41.914426],[1.523457,41.914412],[1.523405,41.914381],[1.523389,41.914357],[1.52336,41.914361],[1.523272,41.914407],[1.523297,41.914491],[1.523313,41.914498],[1.523328,41.914511],[1.523336,41.914528],[1.523358,41.914559],[1.523385,41.914587],[1.523418,41.914611],[1.523455,41.91463],[1.523478,41.914639],[1.523559,41.914671],[1.523645,41.914695],[1.523745,41.914715],[1.523786,41.914722],[1.523789,41.914722],[1.523778,41.914732],[1.523765,41.914738],[1.523815,41.914725],[1.523847,41.914729],[1.523969,41.914737],[1.524091,41.914743],[1.524136,41.914745],[1.524274,41.91475],[1.524303,41.914751],[1.524348,41.914751],[1.524392,41.914751],[1.524472,41.914754],[1.524511,41.914759],[1.524548,41.914767],[1.524567,41.914775],[1.524592,41.914792],[1.524614,41.914814],[1.524635,41.914846],[1.52465,41.91488],[1.524658,41.914918],[1.524658,41.914956],[1.524649,41.915016],[1.524632,41.915076],[1.524562,41.915248],[1.524497,41.915405],[1.52421,41.915331],[1.524084,41.915608],[1.524147,41.915629],[1.524213,41.91564],[1.524249,41.915646],[1.524284,41.915658],[1.524315,41.91567],[1.52436,41.915676],[1.524402,41.915678],[1.524393,41.915708],[1.524389,41.915727],[1.524379,41.915769],[1.524378,41.915773],[1.524374,41.915794],[1.524373,41.915819],[1.524375,41.915845],[1.52438,41.915871],[1.524385,41.91589],[1.524423,41.916005],[1.52476,41.916011],[1.524759,41.915948],[1.524758,41.915915],[1.524733,41.915766],[1.524738,41.91557],[1.524757,41.915421],[1.524802,41.915219],[1.524867,41.915172],[1.524924,41.91512],[1.525037,41.915055],[1.525214,41.914974],[1.525463,41.914906],[1.525624,41.914857],[1.525816,41.914821],[1.525872,41.91481],[1.526,41.914806],[1.526199,41.914802],[1.526567,41.914777],[1.526703,41.914767],[1.526952,41.914891],[1.527001,41.914906],[1.527071,41.914857],[1.527261,41.914726],[1.527364,41.91465],[1.527483,41.914697],[1.527603,41.914745],[1.52766,41.914767],[1.527756,41.914716],[1.52785,41.914666],[1.527899,41.914623],[1.527926,41.914389],[1.527922,41.914362],[1.527917,41.91433],[1.52787,41.914299],[1.527808,41.914284],[1.527707,41.914258],[1.527576,41.914229],[1.52757,41.914167],[1.527558,41.914106],[1.527545,41.914066],[1.527515,41.914065],[1.527437,41.914062],[1.52726,41.914119],[1.52688,41.914317],[1.526623,41.914426],[1.526511,41.914449],[1.526359,41.914459],[1.526224,41.914439],[1.526043,41.914336],[1.52587,41.914225],[1.52575,41.914148],[1.525722,41.914092],[1.525697,41.914042],[1.525609,41.914035],[1.525523,41.914019],[1.52541,41.914004]]]]}},{"type":"Feature","id":"251863_251863 AP02 SOL 2","properties":{"area_id":"251863_251863 AP02 SOL 2","nom":"l'Avellanosa","codi_icgc":"251863 AP02 SOL 2","categoria":"Àrees de poblament","codi_municipi":"251863","municipi":"Riner","codi_comarca":"35","comarca":"Solsonès","provincia":"Lleida","font":"ICGC Àrees de poblament v3r1 202602"},"geometry":{"type":"MultiPolygon","coordinates":[[[[1.550773,41.90789],[1.55086,41.907987],[1.550933,41.908005],[1.551287,41.908432],[1.551086,41.908559],[1.551024,41.908605],[1.551299,41.908872],[1.551735,41.90853],[1.551854,41.908332],[1.551925,41.908182],[1.551938,41.908039],[1.552093,41.907956],[1.552228,41.907879],[1.552261,41.907715],[1.552292,41.907608],[1.552311,41.907594],[1.552408,41.907531],[1.552416,41.907216],[1.552475,41.90711],[1.552597,41.906825],[1.552714,41.906855],[1.552723,41.906838],[1.552973,41.906669],[1.552977,41.906522],[1.552892,41.906443],[1.552895,41.906322],[1.553015,41.906133],[1.552969,41.906001],[1.552888,41.905952],[1.552784,41.90589],[1.552741,41.905879],[1.552615,41.90577],[1.552621,41.905725],[1.55245,41.905602],[1.552389,41.905518],[1.55252,41.905296],[1.55221,41.905211],[1.55202,41.905532],[1.552271,41.905584],[1.552364,41.9057],[1.552362,41.905764],[1.552113,41.905761],[1.551924,41.905694],[1.551665,41.905691],[1.551476,41.905617],[1.551204,41.905407],[1.551127,41.905459],[1.55102,41.905559],[1.551313,41.905774],[1.551414,41.905788],[1.551691,41.905827],[1.551681,41.905856],[1.552032,41.906202],[1.552211,41.906084],[1.552419,41.90623],[1.552551,41.906317],[1.552521,41.906781],[1.55226,41.906914],[1.552032,41.906901],[1.551642,41.907239],[1.551098,41.907604],[1.550698,41.907741],[1.550773,41.90789]]]]}}]}