{"type":"FeatureCollection","name":"ICGC Àrees de poblament - Sant Ramon","features":[{"type":"Feature","id":"251945_251945 SI02 SGA 2","properties":{"area_id":"251945_251945 SI02 SGA 2","nom":"Embotits Rubí","codi_icgc":"251945 SI02 SGA 2","categoria":"Sector industrial","codi_municipi":"251945","municipi":"Sant Ramon","codi_comarca":"32","comarca":"Segarra","provincia":"Lleida","font":"ICGC Àrees de poblament v3r1 202602"},"geometry":{"type":"MultiPolygon","coordinates":[[[[1.363901,41.725475],[1.363933,41.725398],[1.363935,41.725399],[1.363965,41.725356],[1.363855,41.725306],[1.363881,41.725248],[1.363743,41.725201],[1.36384,41.724998],[1.363771,41.724986],[1.363769,41.724986],[1.36348,41.724913],[1.363438,41.72493],[1.363345,41.725152],[1.363305,41.725246],[1.363299,41.725267],[1.363508,41.725317],[1.363456,41.725619],[1.363477,41.725622],[1.363624,41.725641],[1.363846,41.72567],[1.363901,41.725475]]]]}},{"type":"Feature","id":"251945_251945 AP04 SGA 3","properties":{"area_id":"251945_251945 AP04 SGA 3","nom":"Gospí","codi_icgc":"251945 AP04 SGA 3","categoria":"Àrees de poblament","codi_municipi":"251945","municipi":"Sant Ramon","codi_comarca":"32","comarca":"Segarra","provincia":"Lleida","font":"ICGC Àrees de poblament v3r1 202602"},"geometry":{"type":"MultiPolygon","coordinates":[[[[1.348545,41.738535],[1.348548,41.738547],[1.348657,41.738557],[1.348715,41.73858],[1.348766,41.738597],[1.348805,41.738604],[1.348919,41.738618],[1.348964,41.738635],[1.349007,41.73865],[1.349074,41.738675],[1.349103,41.738672],[1.349127,41.738666],[1.349148,41.738658],[1.349189,41.738665],[1.349271,41.738686],[1.349345,41.738703],[1.349403,41.738713],[1.349493,41.738734],[1.349552,41.738745],[1.349583,41.738745],[1.349614,41.738734],[1.349656,41.738707],[1.349664,41.738693],[1.349667,41.738678],[1.349667,41.738659],[1.349662,41.738638],[1.349654,41.738626],[1.34964,41.738612],[1.349605,41.73858],[1.349678,41.73858],[1.349696,41.738503],[1.349717,41.73851],[1.34979,41.738531],[1.349801,41.738534],[1.349811,41.73854],[1.349883,41.738557],[1.349892,41.738576],[1.349912,41.738601],[1.349935,41.738625],[1.349952,41.738641],[1.349978,41.738654],[1.350002,41.738664],[1.350032,41.738667],[1.350063,41.738673],[1.350174,41.738691],[1.350241,41.738705],[1.350352,41.738736],[1.350437,41.738767],[1.350541,41.738806],[1.350557,41.738783],[1.350571,41.738766],[1.350585,41.73875],[1.350634,41.738685],[1.350596,41.738669],[1.350534,41.738634],[1.350468,41.738607],[1.35043,41.738589],[1.350524,41.738429],[1.35054,41.7384],[1.350523,41.738394],[1.350476,41.738377],[1.350429,41.738361],[1.3504,41.738352],[1.350369,41.738346],[1.350339,41.738345],[1.350341,41.738321],[1.350362,41.738298],[1.35037,41.738297],[1.350377,41.738294],[1.350378,41.73829],[1.350376,41.738282],[1.350375,41.738274],[1.350372,41.738271],[1.350358,41.738262],[1.350325,41.738245],[1.350296,41.738229],[1.350329,41.738194],[1.350062,41.738054],[1.350058,41.738058],[1.350038,41.738043],[1.349959,41.738005],[1.349967,41.737997],[1.349864,41.737943],[1.349901,41.737916],[1.349946,41.737893],[1.34997,41.737895],[1.350028,41.737912],[1.350141,41.737938],[1.35023,41.737962],[1.350259,41.7379],[1.350286,41.737843],[1.350578,41.737939],[1.350602,41.737914],[1.350626,41.737847],[1.350631,41.737837],[1.350636,41.737829],[1.350645,41.73781],[1.350654,41.737791],[1.350726,41.73781],[1.350825,41.737832],[1.350865,41.737834],[1.350883,41.737836],[1.350903,41.737839],[1.350967,41.737853],[1.351031,41.737867],[1.351076,41.737876],[1.351103,41.737879],[1.351134,41.737881],[1.351178,41.737881],[1.351242,41.737883],[1.351265,41.737883],[1.351288,41.737883],[1.351317,41.737883],[1.351324,41.737875],[1.35136,41.737831],[1.351361,41.737829],[1.351358,41.737826],[1.351296,41.737804],[1.351233,41.737783],[1.350976,41.737697],[1.350938,41.737684],[1.350858,41.737658],[1.35066,41.737592],[1.350307,41.737494],[1.350225,41.737479],[1.350132,41.737468],[1.350092,41.737451],[1.350059,41.737434],[1.349825,41.737415],[1.349765,41.737425],[1.34975,41.737394],[1.349512,41.737366],[1.349515,41.737351],[1.348874,41.737271],[1.348758,41.737254],[1.348787,41.737278],[1.348814,41.737301],[1.348904,41.737366],[1.348993,41.737431],[1.349083,41.737498],[1.34917,41.73757],[1.349177,41.737578],[1.349181,41.737586],[1.34918,41.737591],[1.348695,41.737578],[1.348669,41.737656],[1.348646,41.737652],[1.348574,41.737641],[1.348566,41.73764],[1.348557,41.737642],[1.348541,41.737653],[1.348531,41.737667],[1.348528,41.737676],[1.348528,41.737685],[1.348529,41.737704],[1.348524,41.737716],[1.348495,41.737747],[1.348466,41.737778],[1.348427,41.73782],[1.348391,41.737867],[1.348382,41.737887],[1.348293,41.737844],[1.34824,41.737819],[1.348186,41.737882],[1.348245,41.73791],[1.348372,41.737966],[1.348375,41.738007],[1.348385,41.73806],[1.34839,41.738067],[1.348394,41.738074],[1.348391,41.738082],[1.3484,41.73811],[1.348418,41.738129],[1.348451,41.738151],[1.348489,41.738171],[1.348567,41.738197],[1.348565,41.738218],[1.348642,41.738236],[1.348587,41.738444],[1.348533,41.738445],[1.348545,41.738535]]]]}},{"type":"Feature","id":"251945_251945 AP03 SGA 3","properties":{"area_id":"251945_251945 AP03 SGA 3","nom":"Portell","codi_icgc":"251945 AP03 SGA 3","categoria":"Àrees de poblament","codi_municipi":"251945","municipi":"Sant Ramon","codi_comarca":"32","comarca":"Segarra","provincia":"Lleida","font":"ICGC Àrees de poblament v3r1 202602"},"geometry":{"type":"MultiPolygon","coordinates":[[[[1.389117,41.744986],[1.389181,41.744963],[1.389017,41.74479],[1.388988,41.744803],[1.388916,41.744716],[1.388871,41.744681],[1.388755,41.744554],[1.388751,41.744549],[1.388679,41.74459],[1.388563,41.744466],[1.388494,41.744428],[1.388478,41.744392],[1.388561,41.744357],[1.388575,41.744352],[1.388624,41.744317],[1.388151,41.743798],[1.388068,41.743844],[1.388042,41.743819],[1.387763,41.743579],[1.387589,41.743461],[1.387575,41.74345],[1.387362,41.743287],[1.387128,41.743103],[1.386965,41.742993],[1.386902,41.742938],[1.386905,41.742934],[1.386882,41.74292],[1.386879,41.742923],[1.386808,41.742874],[1.386687,41.742771],[1.386521,41.742631],[1.386562,41.742606],[1.386656,41.742551],[1.386554,41.742479],[1.386353,41.742287],[1.386331,41.742272],[1.386416,41.742121],[1.386446,41.742074],[1.38646,41.742048],[1.386541,41.742056],[1.386584,41.742078],[1.386611,41.742047],[1.386568,41.742025],[1.386588,41.741987],[1.386136,41.741912],[1.386159,41.741831],[1.386184,41.741731],[1.386228,41.741573],[1.386229,41.741539],[1.386239,41.741476],[1.386353,41.74111],[1.386374,41.741071],[1.386277,41.741075],[1.38624,41.741079],[1.386204,41.741084],[1.386135,41.741098],[1.386036,41.741116],[1.385937,41.741134],[1.385786,41.74116],[1.385636,41.741186],[1.385536,41.741204],[1.385437,41.741222],[1.385374,41.74123],[1.38531,41.741235],[1.385231,41.741242],[1.385153,41.741247],[1.385052,41.741248],[1.384951,41.741249],[1.384873,41.74125],[1.384857,41.741251],[1.384795,41.741253],[1.384742,41.741257],[1.38469,41.741268],[1.384631,41.741284],[1.384574,41.741299],[1.384516,41.741315],[1.384485,41.74132],[1.384408,41.741344],[1.384377,41.741355],[1.384345,41.741366],[1.384327,41.741371],[1.384308,41.741374],[1.384269,41.741378],[1.384243,41.741383],[1.384199,41.741395],[1.384172,41.741405],[1.384129,41.741423],[1.384098,41.741436],[1.38399,41.741488],[1.383888,41.741558],[1.383857,41.741572],[1.383771,41.741591],[1.383715,41.741608],[1.38366,41.741638],[1.383635,41.741669],[1.3836,41.741716],[1.383593,41.741719],[1.383583,41.741722],[1.383566,41.741724],[1.383555,41.741723],[1.383381,41.741867],[1.383347,41.741907],[1.383316,41.74192],[1.383283,41.741932],[1.383218,41.741955],[1.383135,41.741997],[1.383063,41.742033],[1.38305,41.74204],[1.383037,41.742046],[1.383067,41.742143],[1.383262,41.742205],[1.383348,41.742254],[1.383365,41.742261],[1.383406,41.742284],[1.383445,41.742308],[1.383496,41.742341],[1.383518,41.742363],[1.383612,41.742405],[1.383661,41.742415],[1.383696,41.742405],[1.383789,41.742383],[1.383831,41.742359],[1.383944,41.742294],[1.384023,41.74238],[1.384166,41.74231],[1.384286,41.742249],[1.384326,41.742282],[1.384435,41.742382],[1.384454,41.742419],[1.384506,41.742414],[1.384549,41.742403],[1.384608,41.742381],[1.38465,41.742365],[1.38469,41.742356],[1.38472,41.742356],[1.384725,41.742356],[1.384745,41.742357],[1.384758,41.742361],[1.384771,41.742369],[1.384802,41.742391],[1.38481,41.742397],[1.384821,41.74243],[1.384832,41.74246],[1.384839,41.742485],[1.384867,41.742521],[1.384896,41.742556],[1.384921,41.74258],[1.38493,41.74259],[1.384934,41.742601],[1.384936,41.742629],[1.384939,41.742663],[1.384875,41.742669],[1.384888,41.742746],[1.384892,41.742768],[1.385019,41.742756],[1.385039,41.742793],[1.385129,41.742866],[1.385164,41.742925],[1.385174,41.743034],[1.385221,41.74302],[1.385457,41.742992],[1.385469,41.743057],[1.385504,41.743289],[1.385608,41.743291],[1.385861,41.74328],[1.385974,41.743271],[1.386004,41.743283],[1.386033,41.743295],[1.386056,41.743301],[1.38608,41.743301],[1.386128,41.74329],[1.386164,41.743279],[1.386175,41.743275],[1.38621,41.743261],[1.386244,41.743246],[1.386269,41.743239],[1.386315,41.743229],[1.386362,41.743219],[1.386395,41.743231],[1.386428,41.743244],[1.386457,41.743258],[1.386482,41.743276],[1.386531,41.743319],[1.386568,41.743345],[1.386625,41.74338],[1.386685,41.743422],[1.386658,41.74343],[1.38668,41.743472],[1.386711,41.743503],[1.386746,41.74352],[1.38672,41.743551],[1.386752,41.743566],[1.386715,41.74361],[1.386907,41.743776],[1.386626,41.743915],[1.386597,41.743959],[1.386593,41.74422],[1.386881,41.744274],[1.386886,41.744275],[1.386958,41.744294],[1.387161,41.744343],[1.387374,41.744399],[1.387514,41.744459],[1.387935,41.744652],[1.388294,41.744801],[1.388513,41.744892],[1.388531,41.744901],[1.388586,41.744951],[1.388638,41.744996],[1.38869,41.745039],[1.38872,41.745069],[1.388741,41.745096],[1.388773,41.74514],[1.388816,41.745197],[1.388859,41.745254],[1.388917,41.745329],[1.388976,41.745404],[1.389027,41.745466],[1.389082,41.745526],[1.389142,41.745587],[1.389202,41.745647],[1.389248,41.745698],[1.389296,41.745749],[1.389345,41.745788],[1.38969,41.745642],[1.389615,41.74556],[1.389117,41.744986]]]]}},{"type":"Feature","id":"251945_251945 AP01 SGA 3","properties":{"area_id":"251945_251945 AP01 SGA 3","nom":"Sant Ramon","codi_icgc":"251945 AP01 SGA 3","categoria":"Àrees de poblament","codi_municipi":"251945","municipi":"Sant Ramon","codi_comarca":"32","comarca":"Segarra","provincia":"Lleida","font":"ICGC Àrees de poblament v3r1 202602"},"geometry":{"type":"MultiPolygon","coordinates":[[[[1.369091,41.727196],[1.369088,41.727152],[1.369468,41.727145],[1.369464,41.727073],[1.369737,41.727063],[1.369718,41.72649],[1.369742,41.726461],[1.369759,41.726442],[1.36978,41.726424],[1.36979,41.726418],[1.369801,41.726415],[1.369853,41.726413],[1.369905,41.726416],[1.369983,41.726422],[1.37006,41.726426],[1.370068,41.72658],[1.370081,41.726858],[1.370088,41.727109],[1.37009,41.727272],[1.37009,41.727347],[1.370091,41.727478],[1.370099,41.727629],[1.37041,41.727633],[1.370411,41.727443],[1.370378,41.726992],[1.370393,41.726445],[1.37064,41.72646],[1.37065,41.72711],[1.370727,41.727126],[1.371063,41.727124],[1.371062,41.726668],[1.37138,41.726694],[1.37138,41.727164],[1.371518,41.727171],[1.371573,41.727173],[1.37158,41.726959],[1.371608,41.726874],[1.371748,41.726892],[1.372055,41.726926],[1.372224,41.726947],[1.372275,41.726733],[1.372295,41.726604],[1.371828,41.726559],[1.371819,41.726558],[1.371802,41.726556],[1.371749,41.726551],[1.371701,41.72655],[1.371697,41.72655],[1.371458,41.726534],[1.371309,41.726519],[1.371199,41.72651],[1.371219,41.726327],[1.37122,41.726321],[1.371232,41.726205],[1.371256,41.725817],[1.371214,41.725803],[1.370657,41.725761],[1.370099,41.725718],[1.370065,41.725686],[1.370055,41.725682],[1.370034,41.725671],[1.370003,41.725657],[1.369982,41.72565],[1.369947,41.725647],[1.369912,41.725646],[1.3694,41.725622],[1.368857,41.725595],[1.368521,41.72558],[1.368495,41.725576],[1.368434,41.725586],[1.368382,41.725591],[1.368344,41.725601],[1.368331,41.725801],[1.368227,41.725798],[1.368175,41.725796],[1.367961,41.725788],[1.367775,41.725855],[1.367659,41.725849],[1.367667,41.725757],[1.367669,41.725744],[1.367506,41.725738],[1.367506,41.725755],[1.367506,41.725852],[1.367496,41.726057],[1.367319,41.726051],[1.367329,41.725893],[1.367318,41.725828],[1.36733,41.725736],[1.36717,41.725732],[1.36716,41.725811],[1.367003,41.725824],[1.366854,41.725827],[1.366607,41.725827],[1.366632,41.725704],[1.366522,41.725693],[1.366447,41.725683],[1.366351,41.725682],[1.366319,41.725684],[1.366344,41.725564],[1.366206,41.725545],[1.366203,41.725558],[1.366164,41.725697],[1.365973,41.72568],[1.365964,41.72573],[1.365454,41.725684],[1.365449,41.725684],[1.365437,41.725745],[1.365354,41.725739],[1.365329,41.725825],[1.365274,41.725818],[1.365306,41.725677],[1.365303,41.725676],[1.365137,41.725659],[1.365114,41.725737],[1.364888,41.725725],[1.364906,41.72567],[1.364805,41.725663],[1.36479,41.725689],[1.364725,41.725684],[1.364741,41.725617],[1.364645,41.725607],[1.364618,41.725742],[1.364225,41.72571],[1.3639,41.725676],[1.363846,41.72567],[1.363624,41.725641],[1.363477,41.725622],[1.363456,41.725619],[1.363329,41.725601],[1.363227,41.725588],[1.363072,41.725558],[1.363035,41.725551],[1.363008,41.725566],[1.362982,41.725595],[1.362932,41.725572],[1.362948,41.725554],[1.362744,41.725474],[1.362718,41.725515],[1.362631,41.725498],[1.362589,41.725588],[1.362412,41.725558],[1.362442,41.7255],[1.362388,41.725483],[1.362385,41.72549],[1.362336,41.725479],[1.362357,41.725441],[1.362387,41.725369],[1.362299,41.725347],[1.362364,41.72521],[1.362197,41.725172],[1.362132,41.725164],[1.362106,41.72525],[1.36195,41.725225],[1.361917,41.725334],[1.361657,41.725295],[1.36163,41.725374],[1.361396,41.725336],[1.361348,41.72534],[1.361391,41.725222],[1.361312,41.725213],[1.361253,41.725204],[1.361272,41.725137],[1.361222,41.725129],[1.361075,41.725134],[1.360939,41.725114],[1.36091,41.725195],[1.360764,41.725168],[1.360787,41.725104],[1.360663,41.725079],[1.360598,41.725069],[1.360577,41.725036],[1.36057,41.725035],[1.36052,41.725032],[1.360403,41.725012],[1.360383,41.725017],[1.360357,41.72508],[1.360351,41.725105],[1.360294,41.725334],[1.360217,41.725304],[1.360091,41.725266],[1.359882,41.725155],[1.359705,41.725061],[1.359276,41.724835],[1.3594,41.724724],[1.359327,41.724678],[1.35921,41.72458],[1.358962,41.724399],[1.359016,41.724322],[1.359076,41.724244],[1.359091,41.724228],[1.359006,41.724166],[1.358715,41.723914],[1.358589,41.723981],[1.358503,41.724044],[1.358469,41.724018],[1.358349,41.723919],[1.358163,41.724038],[1.358145,41.724053],[1.358084,41.724087],[1.358046,41.724055],[1.357976,41.724007],[1.35783,41.724042],[1.357726,41.724066],[1.357618,41.724081],[1.357518,41.724094],[1.357432,41.724102],[1.357461,41.724258],[1.357359,41.724284],[1.35721,41.724318],[1.357223,41.724399],[1.357179,41.724458],[1.356805,41.72457],[1.356741,41.724494],[1.356565,41.724549],[1.356674,41.724698],[1.356692,41.724723],[1.356714,41.724721],[1.356748,41.724714],[1.35678,41.724708],[1.35684,41.724696],[1.3569,41.724687],[1.356977,41.724682],[1.357056,41.724679],[1.357077,41.724677],[1.357118,41.724674],[1.357181,41.724665],[1.357205,41.724656],[1.357224,41.724643],[1.357248,41.724627],[1.357291,41.724607],[1.357359,41.724539],[1.357413,41.724566],[1.357342,41.724642],[1.357344,41.724644],[1.357376,41.724684],[1.357466,41.724727],[1.357506,41.724746],[1.357512,41.724786],[1.357502,41.724817],[1.357434,41.724896],[1.357489,41.724921],[1.35761,41.724972],[1.357671,41.724999],[1.357658,41.725006],[1.357651,41.725017],[1.357651,41.72503],[1.357659,41.725041],[1.357672,41.725048],[1.357688,41.72505],[1.357705,41.725046],[1.357673,41.725087],[1.357728,41.72511],[1.357716,41.725131],[1.357831,41.725194],[1.357846,41.725184],[1.357904,41.725216],[1.357959,41.725258],[1.358057,41.725289],[1.358078,41.725253],[1.3581,41.725219],[1.358171,41.725241],[1.35845,41.725362],[1.358541,41.725584],[1.358666,41.725555],[1.358631,41.725472],[1.358648,41.725483],[1.358673,41.725493],[1.358697,41.725501],[1.358722,41.725506],[1.358755,41.725509],[1.358786,41.725509],[1.35887,41.725502],[1.358953,41.725495],[1.359001,41.725495],[1.359048,41.725499],[1.359068,41.725503],[1.359109,41.725455],[1.359135,41.725369],[1.359194,41.725265],[1.359241,41.7252],[1.359338,41.725249],[1.359237,41.725377],[1.359358,41.725443],[1.35945,41.725346],[1.359673,41.725449],[1.359558,41.725601],[1.359654,41.725645],[1.359805,41.725695],[1.359966,41.72574],[1.360023,41.725723],[1.360146,41.725399],[1.360216,41.725406],[1.360466,41.725454],[1.360209,41.726186],[1.360368,41.726218],[1.360399,41.726149],[1.360503,41.726176],[1.360573,41.726188],[1.360662,41.725909],[1.360725,41.725932],[1.360832,41.725952],[1.360901,41.725863],[1.361129,41.725921],[1.361184,41.725837],[1.361328,41.72589],[1.361426,41.725747],[1.361477,41.725724],[1.361612,41.725828],[1.361799,41.725986],[1.361853,41.726004],[1.361836,41.726017],[1.361877,41.726049],[1.36189,41.726041],[1.361978,41.726087],[1.361957,41.726102],[1.362033,41.72616],[1.362089,41.726113],[1.36236,41.726196],[1.362409,41.726214],[1.362447,41.726154],[1.362552,41.726188],[1.362603,41.726089],[1.362674,41.726113],[1.362698,41.726071],[1.362766,41.726093],[1.362681,41.726256],[1.362891,41.726316],[1.362914,41.726276],[1.363067,41.726331],[1.363126,41.726234],[1.363202,41.72626],[1.363114,41.726396],[1.363327,41.726466],[1.36345,41.726505],[1.363595,41.726253],[1.363632,41.726204],[1.363716,41.726065],[1.363861,41.726069],[1.363805,41.726209],[1.363781,41.726266],[1.363757,41.726311],[1.363713,41.726411],[1.363923,41.726451],[1.36396,41.72638],[1.364198,41.726448],[1.364252,41.726337],[1.364367,41.72637],[1.364418,41.726374],[1.364438,41.726337],[1.364685,41.726375],[1.364676,41.726393],[1.364618,41.726497],[1.364764,41.726528],[1.364806,41.72645],[1.364855,41.726467],[1.364974,41.726521],[1.365056,41.726542],[1.365111,41.726444],[1.365397,41.726483],[1.365631,41.726519],[1.365675,41.726428],[1.365774,41.726443],[1.365931,41.72645],[1.366273,41.726442],[1.3663,41.726377],[1.366301,41.726377],[1.366341,41.726385],[1.366348,41.726358],[1.366397,41.726358],[1.366411,41.726324],[1.366714,41.726363],[1.366824,41.726374],[1.366847,41.726375],[1.3668,41.72652],[1.366934,41.726548],[1.366912,41.7266],[1.366945,41.726614],[1.367215,41.726666],[1.367217,41.726666],[1.367218,41.726669],[1.367072,41.726885],[1.367601,41.727072],[1.367833,41.726773],[1.367919,41.726669],[1.368055,41.726712],[1.368538,41.726855],[1.36854,41.726849],[1.368584,41.726847],[1.368585,41.72688],[1.368573,41.726898],[1.36856,41.726936],[1.368558,41.726964],[1.368563,41.727042],[1.368564,41.727149],[1.368564,41.727256],[1.368565,41.727364],[1.368565,41.727471],[1.368565,41.727551],[1.368566,41.727631],[1.368568,41.727663],[1.368572,41.72768],[1.368575,41.727707],[1.36857,41.727727],[1.36857,41.727739],[1.368573,41.727758],[1.368598,41.72778],[1.36862,41.727789],[1.368651,41.727797],[1.36868,41.727802],[1.36875,41.727811],[1.36882,41.727815],[1.368948,41.727818],[1.368961,41.727821],[1.368971,41.727826],[1.368981,41.727834],[1.368802,41.727836],[1.368693,41.727835],[1.368569,41.727833],[1.368574,41.728097],[1.368565,41.728212],[1.368551,41.728287],[1.368551,41.728377],[1.36855,41.728399],[1.368504,41.728415],[1.368449,41.728434],[1.368426,41.728459],[1.368448,41.72853],[1.36847,41.728597],[1.368493,41.728664],[1.368509,41.728717],[1.368521,41.72877],[1.368525,41.728806],[1.368528,41.728869],[1.36853,41.728932],[1.368537,41.729007],[1.368547,41.729081],[1.368559,41.729127],[1.36858,41.729172],[1.368599,41.729201],[1.368607,41.729211],[1.368613,41.729217],[1.36863,41.729231],[1.368667,41.729254],[1.368725,41.729281],[1.368787,41.729301],[1.368845,41.729291],[1.36884,41.729277],[1.368836,41.729264],[1.368838,41.729254],[1.368855,41.729241],[1.368874,41.729229],[1.368892,41.729211],[1.368897,41.729205],[1.368921,41.729181],[1.368934,41.729171],[1.368957,41.729159],[1.368978,41.729144],[1.368993,41.729123],[1.368999,41.729099],[1.369001,41.729073],[1.369002,41.729047],[1.369001,41.729029],[1.369003,41.729011],[1.368998,41.728847],[1.368996,41.728723],[1.368997,41.728648],[1.368999,41.728609],[1.369,41.728599],[1.369002,41.728589],[1.369004,41.728573],[1.369006,41.728557],[1.369013,41.728554],[1.369023,41.72855],[1.369042,41.728539],[1.369058,41.728525],[1.369067,41.728514],[1.369077,41.728501],[1.369092,41.728478],[1.369098,41.728452],[1.369099,41.728403],[1.369099,41.728358],[1.369098,41.728262],[1.369098,41.728165],[1.369094,41.728022],[1.369091,41.72788],[1.36909,41.727747],[1.36909,41.727614],[1.369089,41.727499],[1.36909,41.727383],[1.369091,41.727196]]]]}},{"type":"Feature","id":"251945_251945 SI01 SGA 2","properties":{"area_id":"251945_251945 SI01 SGA 2","nom":"TAP","codi_icgc":"251945 SI01 SGA 2","categoria":"Sector industrial","codi_municipi":"251945","municipi":"Sant Ramon","codi_comarca":"32","comarca":"Segarra","provincia":"Lleida","font":"ICGC Àrees de poblament v3r1 202602"},"geometry":{"type":"MultiPolygon","coordinates":[[[[1.360768,41.721859],[1.360724,41.721866],[1.360644,41.721896],[1.360353,41.722234],[1.360315,41.722279],[1.360027,41.722661],[1.360003,41.722716],[1.359985,41.722772],[1.359975,41.72283],[1.359971,41.722888],[1.359975,41.722948],[1.359987,41.723007],[1.360006,41.723065],[1.360033,41.723121],[1.360067,41.723175],[1.360107,41.723227],[1.360154,41.723275],[1.360207,41.72332],[1.360265,41.723361],[1.360321,41.723386],[1.360379,41.723408],[1.36044,41.723427],[1.360503,41.723443],[1.360568,41.723455],[1.360639,41.723465],[1.360712,41.723469],[1.360785,41.72347],[1.360857,41.723465],[1.360926,41.723466],[1.363338,41.723415],[1.363368,41.723397],[1.363393,41.723376],[1.363413,41.723352],[1.363428,41.723326],[1.363437,41.723298],[1.36344,41.72327],[1.363436,41.723242],[1.363426,41.723214],[1.363411,41.723188],[1.36339,41.723164],[1.363364,41.723144],[1.362586,41.722713],[1.362284,41.722594],[1.362224,41.722536],[1.362158,41.722482],[1.362086,41.722431],[1.362009,41.722386],[1.361924,41.722343],[1.361834,41.722306],[1.36174,41.722275],[1.361643,41.72225],[1.361544,41.722231],[1.361443,41.722219],[1.361341,41.722213],[1.360813,41.721856],[1.360768,41.721859]]]]}},{"type":"Feature","id":"251945_251945 AP02 SGA 3","properties":{"area_id":"251945_251945 AP02 SGA 3","nom":"Viver de Segarra","codi_icgc":"251945 AP02 SGA 3","categoria":"Àrees de poblament","codi_municipi":"251945","municipi":"Sant Ramon","codi_comarca":"32","comarca":"Segarra","provincia":"Lleida","font":"ICGC Àrees de poblament v3r1 202602"},"geometry":{"type":"MultiPolygon","coordinates":[[[[1.36859,41.749879],[1.368645,41.749658],[1.36864,41.749623],[1.368263,41.74964],[1.368318,41.749519],[1.368335,41.74948],[1.368307,41.749475],[1.368185,41.749456],[1.368064,41.749437],[1.367985,41.749422],[1.36792,41.749398],[1.367965,41.749316],[1.367867,41.749301],[1.367833,41.749339],[1.367838,41.749321],[1.367867,41.74926],[1.367889,41.749226],[1.367912,41.749185],[1.367934,41.749145],[1.367945,41.749128],[1.367892,41.749105],[1.367731,41.749074],[1.367761,41.748993],[1.367589,41.748966],[1.367571,41.749032],[1.367525,41.749201],[1.367509,41.749247],[1.367298,41.749181],[1.367219,41.749174],[1.366933,41.749167],[1.366909,41.749176],[1.366845,41.749191],[1.366812,41.749199],[1.366717,41.748946],[1.3666,41.748972],[1.366396,41.748993],[1.366212,41.749098],[1.366333,41.749319],[1.366247,41.749351],[1.366196,41.749343],[1.365762,41.749399],[1.365798,41.749616],[1.365814,41.749724],[1.365884,41.749732],[1.366103,41.749745],[1.366249,41.749754],[1.366293,41.749706],[1.366308,41.74972],[1.366459,41.749788],[1.36669,41.74969],[1.366746,41.749702],[1.366768,41.749729],[1.366817,41.749892],[1.366813,41.749952],[1.366755,41.750016],[1.366836,41.750033],[1.366943,41.750057],[1.367051,41.750078],[1.367075,41.750086],[1.36713,41.750103],[1.36716,41.75011],[1.36719,41.750115],[1.36726,41.750122],[1.367284,41.750125],[1.367307,41.750129],[1.367332,41.750132],[1.367353,41.750132],[1.367374,41.750131],[1.367425,41.750124],[1.367474,41.750115],[1.367497,41.750111],[1.367544,41.750082],[1.367563,41.750063],[1.367571,41.75004],[1.367593,41.749943],[1.367764,41.749946],[1.367751,41.749759],[1.367809,41.749761],[1.367964,41.749796],[1.368187,41.749832],[1.368247,41.749854],[1.368543,41.74997],[1.368708,41.750032],[1.368747,41.749985],[1.368765,41.749963],[1.3687,41.749929],[1.36859,41.749879]]]]}}]}