{"type":"FeatureCollection","name":"ICGC Àrees de poblament - Sant Guim de Freixenet","features":[{"type":"Feature","id":"251924_251924 AP04 SGA 3","properties":{"area_id":"251924_251924 AP04 SGA 3","nom":"Altadill","codi_icgc":"251924 AP04 SGA 3","categoria":"Àrees de poblament","codi_municipi":"251924","municipi":"Sant Guim de Freixenet","codi_comarca":"32","comarca":"Segarra","provincia":"Lleida","font":"ICGC Àrees de poblament v3r1 202602"},"geometry":{"type":"MultiPolygon","coordinates":[[[[1.388253,41.670534],[1.388331,41.670492],[1.388334,41.670493],[1.38836,41.670495],[1.388431,41.670469],[1.388558,41.670455],[1.388621,41.670451],[1.388799,41.670439],[1.389015,41.670436],[1.38912,41.670429],[1.389156,41.670432],[1.389193,41.67039],[1.389266,41.670306],[1.389298,41.670179],[1.389207,41.67005],[1.389135,41.669955],[1.38907,41.669945],[1.388972,41.669934],[1.388873,41.669927],[1.388733,41.669923],[1.388592,41.669927],[1.388499,41.669936],[1.388364,41.669957],[1.388297,41.669966],[1.388231,41.669974],[1.388144,41.66998],[1.388012,41.669985],[1.38788,41.669989],[1.387811,41.669988],[1.387806,41.670034],[1.387798,41.670101],[1.387787,41.670203],[1.387837,41.670363],[1.388068,41.670424],[1.388151,41.670455],[1.388253,41.670534]]]]}},{"type":"Feature","id":"251924_251924 AP07 SGA 3","properties":{"area_id":"251924_251924 AP07 SGA 3","nom":"Amorós","codi_icgc":"251924 AP07 SGA 3","categoria":"Àrees de poblament","codi_municipi":"251924","municipi":"Sant Guim de Freixenet","codi_comarca":"32","comarca":"Segarra","provincia":"Lleida","font":"ICGC Àrees de poblament v3r1 202602"},"geometry":{"type":"MultiPolygon","coordinates":[[[[1.427156,41.653437],[1.427196,41.65341],[1.427261,41.653373],[1.427293,41.653353],[1.427324,41.653332],[1.427367,41.653298],[1.427409,41.653265],[1.42744,41.653248],[1.427474,41.653231],[1.427516,41.653212],[1.427552,41.653196],[1.427585,41.653177],[1.42762,41.653149],[1.427643,41.65312],[1.42765,41.653105],[1.427654,41.653089],[1.427652,41.653069],[1.427601,41.653057],[1.427561,41.652931],[1.427512,41.6529],[1.42744,41.652856],[1.427373,41.6529],[1.427308,41.652857],[1.427126,41.652746],[1.427079,41.652706],[1.427045,41.652719],[1.426971,41.652788],[1.426956,41.65281],[1.426892,41.652888],[1.426849,41.652874],[1.426798,41.653048],[1.426585,41.652975],[1.426391,41.652914],[1.426323,41.652936],[1.425973,41.652944],[1.426009,41.653424],[1.426013,41.653437],[1.426014,41.65345],[1.426013,41.653457],[1.426014,41.653467],[1.426018,41.653511],[1.426051,41.653502],[1.426094,41.653491],[1.426168,41.653469],[1.426277,41.653442],[1.426355,41.653425],[1.426412,41.653415],[1.426456,41.653411],[1.426481,41.653411],[1.426516,41.65342],[1.426555,41.653435],[1.426603,41.653456],[1.426672,41.653493],[1.426695,41.653504],[1.426744,41.653529],[1.426749,41.653531],[1.42677,41.653539],[1.426809,41.653551],[1.426848,41.653559],[1.426852,41.653559],[1.426895,41.653563],[1.426939,41.653559],[1.426978,41.65355],[1.427012,41.653536],[1.427047,41.653516],[1.427103,41.653479],[1.42712,41.653466],[1.427156,41.653437]]]]}},{"type":"Feature","id":"251924_251924 SI02 SGA 2","properties":{"area_id":"251924_251924 SI02 SGA 2","nom":"Bosc del Ferran","codi_icgc":"251924 SI02 SGA 2","categoria":"Sector industrial","codi_municipi":"251924","municipi":"Sant Guim de Freixenet","codi_comarca":"32","comarca":"Segarra","provincia":"Lleida","font":"ICGC Àrees de poblament v3r1 202602"},"geometry":{"type":"MultiPolygon","coordinates":[[[[1.411569,41.655007],[1.411862,41.654894],[1.411822,41.654824],[1.411824,41.654776],[1.411837,41.654699],[1.411819,41.654636],[1.411736,41.654483],[1.411676,41.654303],[1.411675,41.654205],[1.4117,41.654137],[1.411773,41.654084],[1.411893,41.654047],[1.412169,41.653985],[1.412269,41.653948],[1.412334,41.653892],[1.412195,41.653566],[1.412129,41.653493],[1.411962,41.653527],[1.411547,41.653619],[1.411004,41.653749],[1.409834,41.654001],[1.409104,41.654161],[1.409091,41.654202],[1.409058,41.654242],[1.408982,41.654301],[1.408973,41.654359],[1.408987,41.654404],[1.409025,41.654472],[1.409079,41.654522],[1.409149,41.654572],[1.409222,41.654609],[1.409281,41.654622],[1.409344,41.654632],[1.40942,41.654633],[1.409523,41.654619],[1.409655,41.654602],[1.409749,41.654592],[1.409823,41.654593],[1.409901,41.65461],[1.409972,41.654651],[1.410019,41.6547],[1.410127,41.654867],[1.410231,41.655002],[1.410342,41.655128],[1.410483,41.655287],[1.410577,41.655318],[1.410634,41.655322],[1.410696,41.655321],[1.410747,41.655318],[1.410795,41.655307],[1.410857,41.655285],[1.41116,41.655172],[1.411569,41.655007]]]]}},{"type":"Feature","id":"251924_251924 AP06 SGA 3","properties":{"area_id":"251924_251924 AP06 SGA 3","nom":"Freixenet de Segarra","codi_icgc":"251924 AP06 SGA 3","categoria":"Àrees de poblament","codi_municipi":"251924","municipi":"Sant Guim de Freixenet","codi_comarca":"32","comarca":"Segarra","provincia":"Lleida","font":"ICGC Àrees de poblament v3r1 202602"},"geometry":{"type":"MultiPolygon","coordinates":[[[[1.397128,41.661397],[1.397139,41.661385],[1.397141,41.661381],[1.39716,41.661356],[1.397191,41.661305],[1.39722,41.661254],[1.397253,41.661202],[1.397281,41.661169],[1.397315,41.661139],[1.397388,41.661091],[1.397464,41.661045],[1.397529,41.661009],[1.397595,41.660975],[1.397641,41.660955],[1.397656,41.660951],[1.397716,41.660917],[1.397731,41.660906],[1.397749,41.660893],[1.397767,41.660878],[1.397783,41.660859],[1.397789,41.660845],[1.39779,41.66083],[1.397786,41.660803],[1.397774,41.660762],[1.397764,41.660723],[1.397766,41.660712],[1.397731,41.660689],[1.397684,41.66067],[1.397652,41.660659],[1.397623,41.660644],[1.397608,41.660632],[1.397594,41.660614],[1.397587,41.660597],[1.397586,41.660586],[1.397589,41.660571],[1.397607,41.660527],[1.397626,41.660481],[1.397672,41.660419],[1.397723,41.660356],[1.397768,41.660305],[1.397818,41.660258],[1.397915,41.660184],[1.397886,41.660153],[1.397752,41.660064],[1.397684,41.66002],[1.397656,41.660002],[1.397586,41.659975],[1.397646,41.659887],[1.397683,41.659836],[1.397637,41.659817],[1.397343,41.659728],[1.397284,41.659711],[1.397164,41.659677],[1.396831,41.659486],[1.396638,41.659637],[1.396617,41.659654],[1.396639,41.659668],[1.396543,41.659742],[1.396511,41.659751],[1.396479,41.659772],[1.396337,41.659888],[1.396317,41.65989],[1.396271,41.659894],[1.396244,41.659919],[1.396184,41.659971],[1.396127,41.660024],[1.396066,41.660094],[1.396011,41.660167],[1.395974,41.660223],[1.395943,41.66028],[1.395929,41.660319],[1.395907,41.660397],[1.395895,41.660438],[1.395862,41.660557],[1.395885,41.660596],[1.395885,41.660628],[1.395885,41.660659],[1.395881,41.660692],[1.395869,41.660723],[1.395858,41.660743],[1.395807,41.660807],[1.395753,41.660868],[1.395721,41.66091],[1.395659,41.660999],[1.395597,41.661089],[1.395503,41.661089],[1.395476,41.661093],[1.395444,41.661098],[1.395402,41.661105],[1.395366,41.661112],[1.395335,41.661119],[1.39533,41.66112],[1.395304,41.661127],[1.395259,41.661139],[1.39525,41.661142],[1.395164,41.66116],[1.395196,41.661129],[1.395226,41.661083],[1.395227,41.661076],[1.395226,41.661069],[1.395222,41.661064],[1.395211,41.66106],[1.395188,41.661055],[1.395162,41.661048],[1.395047,41.661023],[1.39493,41.661001],[1.394873,41.660992],[1.394835,41.660991],[1.394774,41.661005],[1.394761,41.661025],[1.394737,41.661089],[1.394682,41.661118],[1.394594,41.661102],[1.394559,41.661093],[1.39455,41.661078],[1.394558,41.661066],[1.394593,41.661039],[1.39464,41.660993],[1.39469,41.66095],[1.394775,41.660878],[1.3949,41.660753],[1.395084,41.660528],[1.395303,41.660263],[1.395342,41.660213],[1.395415,41.660127],[1.395438,41.660093],[1.395337,41.660027],[1.395279,41.65998],[1.395187,41.660028],[1.395147,41.660056],[1.395082,41.660112],[1.39504,41.660157],[1.394834,41.66046],[1.394788,41.660472],[1.394758,41.660483],[1.394672,41.660606],[1.394566,41.6606],[1.394476,41.660704],[1.394464,41.660722],[1.39438,41.660824],[1.394347,41.660867],[1.394334,41.660901],[1.394328,41.660938],[1.394327,41.660998],[1.394315,41.661034],[1.394285,41.661054],[1.394234,41.661058],[1.394195,41.661053],[1.394134,41.661033],[1.39409,41.661021],[1.394094,41.66099],[1.394157,41.660843],[1.393871,41.6607],[1.393755,41.660828],[1.393727,41.660841],[1.393579,41.660907],[1.393532,41.661001],[1.393515,41.661048],[1.393498,41.661076],[1.39355,41.661092],[1.393604,41.6611],[1.393646,41.661103],[1.393699,41.661152],[1.393838,41.661272],[1.393945,41.661371],[1.394042,41.661453],[1.394083,41.661487],[1.394168,41.661432],[1.394335,41.661525],[1.394352,41.661535],[1.394451,41.66147],[1.394553,41.661408],[1.394608,41.661378],[1.394645,41.661358],[1.394659,41.661355],[1.394672,41.661355],[1.39467,41.661361],[1.394672,41.661367],[1.394689,41.661383],[1.394716,41.661402],[1.39473,41.661408],[1.39475,41.661414],[1.394772,41.661418],[1.394801,41.661418],[1.394833,41.661417],[1.394889,41.661423],[1.394945,41.661429],[1.394983,41.661433],[1.395021,41.661436],[1.395035,41.661434],[1.395054,41.661423],[1.395067,41.661408],[1.395103,41.661344],[1.395138,41.66128],[1.395154,41.661252],[1.39517,41.661225],[1.395169,41.661222],[1.395163,41.661219],[1.395155,41.661218],[1.395161,41.66121],[1.395186,41.6612],[1.395223,41.661186],[1.395242,41.661178],[1.395267,41.661169],[1.395296,41.661161],[1.395303,41.661159],[1.395353,41.661149],[1.395411,41.66114],[1.395473,41.66113],[1.395502,41.661127],[1.395514,41.661131],[1.395552,41.661158],[1.395457,41.661351],[1.395392,41.6615],[1.395479,41.661603],[1.395639,41.661628],[1.395685,41.661461],[1.395821,41.661489],[1.395885,41.661508],[1.395897,41.661545],[1.395907,41.661589],[1.395918,41.661634],[1.395948,41.661631],[1.395965,41.661621],[1.396053,41.661587],[1.396068,41.661581],[1.396079,41.661573],[1.396089,41.661566],[1.396098,41.661556],[1.396109,41.66154],[1.396222,41.661538],[1.396243,41.661538],[1.396248,41.661538],[1.396249,41.661629],[1.396249,41.661648],[1.396248,41.661653],[1.396276,41.661819],[1.39628,41.661818],[1.396389,41.661811],[1.396411,41.66181],[1.396465,41.661807],[1.396533,41.661812],[1.396562,41.661726],[1.396618,41.661733],[1.396675,41.66174],[1.396749,41.661748],[1.396774,41.661748],[1.396805,41.661742],[1.396854,41.661728],[1.396903,41.661714],[1.396931,41.661705],[1.396939,41.661687],[1.396964,41.661643],[1.396978,41.661618],[1.396984,41.661605],[1.397027,41.661516],[1.39706,41.661466],[1.397106,41.661418],[1.397128,41.661397]]]]}},{"type":"Feature","id":"251924_251924 SI03 SGA 2","properties":{"area_id":"251924_251924 SI03 SGA 2","nom":"La Tallada","codi_icgc":"251924 SI03 SGA 2","categoria":"Sector industrial","codi_municipi":"251924","municipi":"Sant Guim de Freixenet","codi_comarca":"32","comarca":"Segarra","provincia":"Lleida","font":"ICGC Àrees de poblament v3r1 202602"},"geometry":{"type":"MultiPolygon","coordinates":[[[[1.41837,41.642789],[1.417643,41.642693],[1.4176,41.642719],[1.417517,41.642763],[1.417463,41.642808],[1.417426,41.642844],[1.417397,41.642898],[1.417499,41.643406],[1.417237,41.643424],[1.417202,41.643495],[1.417185,41.643573],[1.417198,41.643656],[1.417375,41.644062],[1.417681,41.643989],[1.417539,41.643659],[1.417738,41.643629],[1.417723,41.64359],[1.41785,41.643574],[1.4185,41.643493],[1.418998,41.643426],[1.418937,41.643108],[1.418856,41.642978],[1.418877,41.642955],[1.418888,41.64293],[1.418893,41.642907],[1.418895,41.642871],[1.418822,41.642863],[1.418766,41.642782],[1.418738,41.642733],[1.418704,41.642712],[1.418682,41.642706],[1.418648,41.642708],[1.418618,41.642714],[1.418594,41.642726],[1.418561,41.64276],[1.418526,41.642778],[1.41848,41.642788],[1.418397,41.642789],[1.41837,41.642789]]]]}},{"type":"Feature","id":"251924_251924 AP03 SGA 3","properties":{"area_id":"251924_251924 AP03 SGA 3","nom":"Melió","codi_icgc":"251924 AP03 SGA 3","categoria":"Àrees de poblament","codi_municipi":"251924","municipi":"Sant Guim de Freixenet","codi_comarca":"32","comarca":"Segarra","provincia":"Lleida","font":"ICGC Àrees de poblament v3r1 202602"},"geometry":{"type":"MultiPolygon","coordinates":[[[[1.397039,41.672533],[1.396927,41.6725],[1.396846,41.672458],[1.396894,41.672405],[1.396909,41.67238],[1.396925,41.672356],[1.396923,41.672323],[1.396821,41.672292],[1.396735,41.672253],[1.396692,41.672232],[1.396622,41.672206],[1.396565,41.672199],[1.39647,41.672189],[1.396222,41.672194],[1.3962,41.6722],[1.39616,41.672198],[1.39612,41.672196],[1.396101,41.67219],[1.396079,41.672172],[1.396067,41.672163],[1.396054,41.672155],[1.396034,41.672147],[1.396014,41.672142],[1.395981,41.672143],[1.395949,41.672151],[1.395907,41.672171],[1.395868,41.672194],[1.395848,41.672209],[1.395827,41.672224],[1.395761,41.672328],[1.39576,41.672357],[1.395768,41.672379],[1.395805,41.672402],[1.395841,41.672415],[1.395888,41.672424],[1.395944,41.67243],[1.395994,41.672438],[1.396046,41.672457],[1.396079,41.672483],[1.396156,41.672496],[1.396183,41.672504],[1.396202,41.672509],[1.396222,41.672513],[1.396242,41.672515],[1.396263,41.672515],[1.396284,41.672513],[1.396305,41.672511],[1.396325,41.672508],[1.396348,41.672506],[1.396351,41.672509],[1.396357,41.672513],[1.396364,41.672515],[1.396379,41.672519],[1.396395,41.672522],[1.396413,41.672524],[1.396431,41.672526],[1.396448,41.672528],[1.396465,41.672529],[1.396482,41.672529],[1.396581,41.67254],[1.396765,41.672598],[1.397023,41.672663],[1.397039,41.672533]]]]}},{"type":"Feature","id":"251924_251924 AP09 SGA 3","properties":{"area_id":"251924_251924 AP09 SGA 3","nom":"Palamós","codi_icgc":"251924 AP09 SGA 3","categoria":"Àrees de poblament","codi_municipi":"251924","municipi":"Sant Guim de Freixenet","codi_comarca":"32","comarca":"Segarra","provincia":"Lleida","font":"ICGC Àrees de poblament v3r1 202602"},"geometry":{"type":"MultiPolygon","coordinates":[[[[1.378963,41.640856],[1.379241,41.64074],[1.379576,41.640745],[1.379587,41.640714],[1.37962,41.640529],[1.379412,41.640518],[1.379382,41.64037],[1.379136,41.640391],[1.379055,41.640398],[1.379026,41.640402],[1.378959,41.64041],[1.378918,41.640418],[1.378877,41.640434],[1.378861,41.640446],[1.378851,41.640458],[1.378836,41.640481],[1.378825,41.640493],[1.378794,41.640516],[1.378759,41.640536],[1.378706,41.640558],[1.378683,41.640563],[1.378667,41.640577],[1.378643,41.640602],[1.378643,41.640608],[1.378643,41.640612],[1.378631,41.640637],[1.378607,41.640709],[1.378599,41.64072],[1.378596,41.640727],[1.378591,41.64077],[1.378603,41.640799],[1.378633,41.640828],[1.378651,41.640835],[1.378699,41.640856],[1.37875,41.640856],[1.378963,41.640856]]]]}},{"type":"Feature","id":"251924_251924 SI01 SGA 2","properties":{"area_id":"251924_251924 SI01 SGA 2","nom":"Polígon industrial La Vaqueria","codi_icgc":"251924 SI01 SGA 2","categoria":"Sector industrial","codi_municipi":"251924","municipi":"Sant Guim de Freixenet","codi_comarca":"32","comarca":"Segarra","provincia":"Lleida","font":"ICGC Àrees de poblament v3r1 202602"},"geometry":{"type":"MultiPolygon","coordinates":[[[[1.421398,41.648126],[1.421107,41.647153],[1.420948,41.647179],[1.420827,41.6472],[1.420629,41.6471],[1.420629,41.647099],[1.420601,41.64707],[1.420269,41.645945],[1.420247,41.645872],[1.420122,41.645458],[1.420008,41.645031],[1.419903,41.644571],[1.419893,41.644548],[1.419875,41.644527],[1.419862,41.644518],[1.419851,41.644511],[1.419823,41.644499],[1.419792,41.644492],[1.41976,41.644491],[1.419728,41.644495],[1.419728,41.644495],[1.4197,41.644507],[1.419322,41.644666],[1.418746,41.644911],[1.418474,41.645028],[1.418259,41.645103],[1.417932,41.645206],[1.417772,41.645252],[1.417428,41.645335],[1.417223,41.645395],[1.417244,41.645444],[1.417283,41.645541],[1.417356,41.645699],[1.41743,41.645855],[1.417437,41.645872],[1.417497,41.646003],[1.417565,41.646152],[1.417579,41.64618],[1.417592,41.646209],[1.417636,41.646302],[1.417656,41.646345],[1.41766,41.646355],[1.41768,41.646397],[1.417762,41.646564],[1.417846,41.64673],[1.417939,41.646912],[1.418032,41.647094],[1.418115,41.647257],[1.418198,41.647421],[1.418272,41.647561],[1.418274,41.647565],[1.418299,41.647614],[1.418344,41.6477],[1.41841,41.64784],[1.418475,41.64798],[1.418507,41.648046],[1.418657,41.648022],[1.420038,41.6478],[1.420041,41.647973],[1.420083,41.648206],[1.420203,41.6485],[1.420323,41.648799],[1.420478,41.649275],[1.420479,41.649275],[1.420737,41.649231],[1.420793,41.649221],[1.421031,41.649179],[1.421103,41.649166],[1.421134,41.649154],[1.421161,41.649136],[1.421182,41.649115],[1.421191,41.649102],[1.421197,41.649091],[1.421205,41.649065],[1.421204,41.649038],[1.421131,41.648759],[1.421095,41.648653],[1.42106,41.648547],[1.421033,41.648456],[1.421016,41.648392],[1.420999,41.64834],[1.420988,41.648308],[1.421066,41.648231],[1.421125,41.648173],[1.421233,41.648153],[1.421398,41.648126]]]]}},{"type":"Feature","id":"251924_251924 AP05 SGA 3","properties":{"area_id":"251924_251924 AP05 SGA 3","nom":"Sant Domí","codi_icgc":"251924 AP05 SGA 3","categoria":"Àrees de poblament","codi_municipi":"251924","municipi":"Sant Guim de Freixenet","codi_comarca":"32","comarca":"Segarra","provincia":"Lleida","font":"ICGC Àrees de poblament v3r1 202602"},"geometry":{"type":"MultiPolygon","coordinates":[[[[1.41394,41.666479],[1.413964,41.666469],[1.41399,41.666456],[1.414236,41.666336],[1.414246,41.66632],[1.414361,41.666248],[1.41434,41.666237],[1.414283,41.666203],[1.414229,41.666169],[1.414172,41.666135],[1.414117,41.666099],[1.414082,41.666069],[1.414069,41.666054],[1.414064,41.666039],[1.414066,41.666029],[1.414088,41.665989],[1.41411,41.665949],[1.414148,41.665867],[1.414154,41.665854],[1.414186,41.665785],[1.414219,41.665712],[1.414254,41.665641],[1.41427,41.665622],[1.414292,41.665606],[1.414344,41.665581],[1.414416,41.665549],[1.414481,41.665522],[1.414625,41.665719],[1.414664,41.665803],[1.414873,41.665735],[1.41516,41.665543],[1.415335,41.665498],[1.41543,41.665474],[1.415384,41.665363],[1.415472,41.665341],[1.415572,41.66531],[1.415677,41.665274],[1.415776,41.665229],[1.415834,41.6652],[1.415811,41.665152],[1.415721,41.665142],[1.41561,41.665083],[1.415586,41.665061],[1.415583,41.664951],[1.415431,41.664996],[1.415349,41.664899],[1.415313,41.664909],[1.415217,41.664942],[1.415121,41.664975],[1.415119,41.66498],[1.415043,41.665004],[1.414969,41.664941],[1.41492,41.664961],[1.414975,41.665006],[1.414863,41.665052],[1.414791,41.665074],[1.414756,41.665084],[1.414518,41.665146],[1.414499,41.665123],[1.413896,41.665319],[1.413584,41.665386],[1.413477,41.665363],[1.413458,41.665368],[1.413429,41.665371],[1.413385,41.665372],[1.41331,41.665378],[1.413269,41.665367],[1.41326,41.665369],[1.413233,41.665382],[1.413223,41.665384],[1.413212,41.665384],[1.41319,41.665385],[1.413172,41.66539],[1.413136,41.665368],[1.413073,41.665334],[1.412969,41.665384],[1.412827,41.665312],[1.412822,41.665314],[1.412704,41.665515],[1.412842,41.665567],[1.412998,41.665636],[1.412951,41.665699],[1.413108,41.665771],[1.413081,41.66581],[1.41316,41.665847],[1.413133,41.665882],[1.413068,41.665898],[1.413001,41.665967],[1.412966,41.666038],[1.412977,41.666097],[1.41296,41.666199],[1.4132,41.666243],[1.413299,41.666269],[1.413326,41.666302],[1.413342,41.666344],[1.413342,41.666374],[1.413251,41.666436],[1.4131,41.666559],[1.413056,41.666587],[1.413281,41.666762],[1.413541,41.666648],[1.41394,41.666479]]]]}},{"type":"Feature","id":"251924_251924 AP01 SGA 3","properties":{"area_id":"251924_251924 AP01 SGA 3","nom":"Sant Guim de Freixenet","codi_icgc":"251924 AP01 SGA 3","categoria":"Àrees de poblament","codi_municipi":"251924","municipi":"Sant Guim de Freixenet","codi_comarca":"32","comarca":"Segarra","provincia":"Lleida","font":"ICGC Àrees de poblament v3r1 202602"},"geometry":{"type":"MultiPolygon","coordinates":[[[[1.422192,41.655374],[1.422228,41.655353],[1.422289,41.655368],[1.42284,41.655505],[1.423014,41.65564],[1.423529,41.655766],[1.423682,41.655413],[1.42373,41.655312],[1.423194,41.655178],[1.423109,41.655157],[1.42299,41.655127],[1.422841,41.655089],[1.422741,41.655065],[1.422775,41.654984],[1.422796,41.654933],[1.422847,41.654813],[1.422999,41.654629],[1.423028,41.654616],[1.422951,41.654523],[1.422913,41.654524],[1.422822,41.654436],[1.422524,41.654569],[1.422501,41.654583],[1.422464,41.65454],[1.422249,41.654294],[1.422024,41.654389],[1.421975,41.654422],[1.421908,41.65445],[1.421882,41.654458],[1.422075,41.654738],[1.421997,41.654784],[1.421285,41.654611],[1.42124,41.654557],[1.421236,41.654507],[1.421245,41.654458],[1.421304,41.654424],[1.421362,41.654377],[1.421394,41.654284],[1.421397,41.65416],[1.421394,41.654088],[1.421355,41.65403],[1.421268,41.653924],[1.421199,41.653845],[1.421131,41.653812],[1.421166,41.653599],[1.421118,41.653594],[1.421138,41.653444],[1.421154,41.653346],[1.421392,41.653362],[1.421436,41.653376],[1.421573,41.653381],[1.421643,41.653364],[1.421666,41.653132],[1.421585,41.653094],[1.421631,41.652564],[1.421864,41.65258],[1.421876,41.652523],[1.421895,41.652351],[1.421898,41.652317],[1.421908,41.652234],[1.422054,41.652229],[1.422039,41.652103],[1.422033,41.652059],[1.422316,41.652041],[1.422298,41.651978],[1.422228,41.651788],[1.422188,41.651545],[1.421977,41.65156],[1.421948,41.651406],[1.42193,41.651245],[1.42191,41.651089],[1.421907,41.651067],[1.421901,41.651025],[1.421862,41.651012],[1.421798,41.651012],[1.421481,41.651035],[1.42147,41.651036],[1.421324,41.651043],[1.421331,41.650956],[1.421342,41.650853],[1.421356,41.650746],[1.421369,41.650638],[1.421386,41.650472],[1.421402,41.650305],[1.421415,41.650171],[1.421428,41.650037],[1.421438,41.649901],[1.421443,41.649825],[1.421447,41.649766],[1.421452,41.649696],[1.421453,41.649681],[1.421786,41.649685],[1.422104,41.649691],[1.422179,41.649693],[1.422301,41.649696],[1.422319,41.649696],[1.422566,41.649701],[1.422594,41.649376],[1.422605,41.649153],[1.422173,41.649144],[1.42203,41.649138],[1.421763,41.649127],[1.421718,41.649137],[1.421673,41.649147],[1.421655,41.649153],[1.421631,41.649167],[1.421444,41.649239],[1.421359,41.649272],[1.421248,41.649314],[1.420818,41.649445],[1.42073,41.649471],[1.420611,41.649507],[1.420767,41.649928],[1.420852,41.650013],[1.421047,41.649917],[1.421155,41.649872],[1.421211,41.649831],[1.421337,41.649841],[1.421329,41.649933],[1.421308,41.65002],[1.42129,41.650059],[1.421219,41.650116],[1.421075,41.650156],[1.420727,41.65031],[1.420664,41.650339],[1.420693,41.650374],[1.420809,41.650504],[1.420796,41.650538],[1.420782,41.650576],[1.420754,41.65065],[1.420954,41.650882],[1.421157,41.650784],[1.421229,41.650746],[1.421289,41.650759],[1.421287,41.650771],[1.421277,41.650849],[1.421266,41.650953],[1.421257,41.651056],[1.421255,41.651076],[1.421244,41.651188],[1.42123,41.651321],[1.421217,41.651442],[1.421204,41.651562],[1.421191,41.651688],[1.421178,41.651813],[1.421163,41.651955],[1.421149,41.652098],[1.421136,41.652224],[1.421132,41.65226],[1.421097,41.652287],[1.421075,41.652299],[1.421061,41.652303],[1.421049,41.652307],[1.42098,41.65232],[1.420909,41.652327],[1.420825,41.65233],[1.42074,41.652332],[1.420677,41.652332],[1.420616,41.65233],[1.420577,41.652324],[1.420502,41.652309],[1.420436,41.652295],[1.42042,41.652291],[1.420409,41.652312],[1.420395,41.652334],[1.420383,41.652358],[1.420392,41.652408],[1.420405,41.652457],[1.420431,41.652552],[1.420458,41.652647],[1.420475,41.6527],[1.420496,41.652754],[1.420518,41.652804],[1.420542,41.652854],[1.420557,41.652883],[1.420582,41.652925],[1.420607,41.652967],[1.420622,41.652992],[1.420629,41.653014],[1.420632,41.653028],[1.420627,41.653175],[1.420628,41.653187],[1.420621,41.653244],[1.420615,41.653301],[1.420591,41.653492],[1.420568,41.653684],[1.420549,41.653863],[1.42053,41.654042],[1.420513,41.654192],[1.420495,41.654341],[1.420495,41.654358],[1.420494,41.654375],[1.420489,41.654381],[1.420414,41.654365],[1.420406,41.654327],[1.419726,41.654163],[1.419745,41.653909],[1.419753,41.653666],[1.419608,41.65362],[1.419262,41.653819],[1.419132,41.653897],[1.419004,41.653974],[1.41897,41.653994],[1.418917,41.654025],[1.418828,41.654076],[1.418798,41.654096],[1.418759,41.654129],[1.418725,41.654165],[1.418677,41.654221],[1.418632,41.654285],[1.418611,41.654323],[1.41859,41.654372],[1.418583,41.654389],[1.41857,41.654432],[1.418557,41.654474],[1.418532,41.654539],[1.418495,41.65463],[1.418494,41.654635],[1.418492,41.654639],[1.418482,41.654662],[1.41848,41.654666],[1.418471,41.654681],[1.418466,41.654688],[1.418334,41.654709],[1.418219,41.65465],[1.418214,41.654647],[1.417508,41.654292],[1.417435,41.654361],[1.417353,41.654441],[1.416841,41.654204],[1.416473,41.654025],[1.416128,41.653866],[1.415248,41.654237],[1.415272,41.654276],[1.415491,41.654545],[1.415752,41.654436],[1.415808,41.654535],[1.415891,41.654643],[1.415974,41.654711],[1.416385,41.654926],[1.416366,41.65497],[1.416339,41.655038],[1.416322,41.655121],[1.416338,41.655186],[1.416367,41.655248],[1.416447,41.655304],[1.416532,41.655382],[1.416581,41.655393],[1.416374,41.655604],[1.416399,41.655617],[1.416615,41.655733],[1.416627,41.65574],[1.41678,41.65583],[1.416938,41.655913],[1.416991,41.655942],[1.416819,41.656094],[1.416866,41.656124],[1.416888,41.656105],[1.416983,41.656153],[1.417077,41.656198],[1.417133,41.65622],[1.417282,41.656161],[1.417376,41.656131],[1.417431,41.656139],[1.417817,41.65633],[1.417856,41.656351],[1.417904,41.656375],[1.417994,41.656421],[1.417945,41.656496],[1.41809,41.656569],[1.418117,41.656582],[1.418193,41.656533],[1.418197,41.656531],[1.418263,41.656486],[1.418312,41.656451],[1.418367,41.656407],[1.41865,41.656629],[1.418802,41.656771],[1.418886,41.656806],[1.418847,41.656839],[1.418837,41.656848],[1.418785,41.656873],[1.418785,41.656971],[1.418799,41.656974],[1.418834,41.65699],[1.418863,41.657005],[1.418972,41.657067],[1.419101,41.657142],[1.419231,41.657217],[1.419358,41.657303],[1.419389,41.657332],[1.419383,41.657363],[1.419377,41.657394],[1.419377,41.657411],[1.419383,41.657437],[1.419386,41.657463],[1.419381,41.657484],[1.419367,41.657515],[1.419356,41.657529],[1.419342,41.657542],[1.419291,41.657578],[1.419239,41.657611],[1.419121,41.657702],[1.418976,41.657804],[1.418923,41.657841],[1.418738,41.658016],[1.418499,41.658297],[1.418485,41.658327],[1.418487,41.658346],[1.418506,41.658373],[1.418569,41.658417],[1.418859,41.658624],[1.419114,41.658791],[1.41957,41.659071],[1.419598,41.659083],[1.41962,41.659083],[1.419633,41.659071],[1.420023,41.65869],[1.420039,41.6587],[1.420054,41.65871],[1.420072,41.658723],[1.420089,41.658737],[1.420103,41.658756],[1.420115,41.658775],[1.420126,41.658785],[1.420142,41.658795],[1.420157,41.658805],[1.420161,41.658807],[1.420204,41.658824],[1.420249,41.658834],[1.420285,41.658838],[1.420313,41.658838],[1.420328,41.658836],[1.420358,41.658838],[1.420371,41.658824],[1.420382,41.658813],[1.420393,41.658803],[1.420517,41.658862],[1.42079,41.658577],[1.421078,41.658292],[1.420986,41.658243],[1.420856,41.658168],[1.420838,41.658158],[1.420864,41.658162],[1.420902,41.658176],[1.420956,41.658198],[1.421016,41.658217],[1.421035,41.658219],[1.421049,41.658219],[1.421078,41.658214],[1.42112,41.658205],[1.421144,41.658196],[1.421172,41.658183],[1.421195,41.658174],[1.421205,41.658172],[1.421217,41.658169],[1.421228,41.658171],[1.421241,41.658173],[1.421311,41.658212],[1.421468,41.658296],[1.42173,41.658438],[1.421833,41.658496],[1.421973,41.658572],[1.421992,41.658554],[1.422032,41.658514],[1.422158,41.658397],[1.422339,41.658232],[1.422651,41.657999],[1.422624,41.65798],[1.422634,41.657972],[1.422657,41.657955],[1.422524,41.657872],[1.422801,41.6576],[1.42296,41.657694],[1.422955,41.657687],[1.422991,41.657698],[1.423006,41.657704],[1.423028,41.657717],[1.423083,41.65775],[1.423328,41.657902],[1.423177,41.658074],[1.423167,41.658085],[1.423669,41.658388],[1.423505,41.658552],[1.423695,41.658713],[1.423753,41.65869],[1.423865,41.658648],[1.423986,41.658636],[1.424056,41.658649],[1.424134,41.658678],[1.424222,41.658715],[1.424402,41.658537],[1.4244,41.658483],[1.424422,41.658462],[1.424192,41.658326],[1.424181,41.65832],[1.424574,41.657963],[1.424532,41.65794],[1.424383,41.657863],[1.424373,41.657858],[1.424211,41.657779],[1.424054,41.657697],[1.423735,41.657503],[1.423347,41.657312],[1.42332,41.657333],[1.42324,41.657418],[1.423235,41.657469],[1.423177,41.65747],[1.423098,41.657474],[1.423032,41.657476],[1.422966,41.657476],[1.422833,41.657474],[1.42281,41.657474],[1.422787,41.657474],[1.422771,41.65747],[1.422756,41.657461],[1.422691,41.657421],[1.422625,41.657382],[1.422489,41.657299],[1.422351,41.657217],[1.422212,41.657138],[1.422058,41.657054],[1.422055,41.657052],[1.422317,41.656816],[1.42222,41.656765],[1.422178,41.656742],[1.422019,41.656675],[1.422048,41.65664],[1.421848,41.656562],[1.422005,41.656409],[1.422207,41.656198],[1.422219,41.656187],[1.422264,41.656211],[1.422282,41.656223],[1.422296,41.656234],[1.422333,41.656283],[1.422368,41.656333],[1.422404,41.656383],[1.422446,41.656433],[1.422489,41.65648],[1.422503,41.656496],[1.422525,41.656516],[1.422548,41.656526],[1.422572,41.65653],[1.422596,41.656528],[1.422617,41.65652],[1.422642,41.656502],[1.422659,41.656486],[1.42292,41.656224],[1.42318,41.655962],[1.422917,41.655851],[1.422906,41.655843],[1.422889,41.655828],[1.422883,41.655816],[1.422874,41.655799],[1.422859,41.655779],[1.422791,41.655746],[1.42272,41.655715],[1.42263,41.655676],[1.422538,41.655638],[1.422377,41.655579],[1.422212,41.655529],[1.422156,41.655514],[1.4221,41.655501],[1.42207,41.655492],[1.422063,41.655486],[1.422059,41.655479],[1.422059,41.655475],[1.422066,41.655459],[1.42208,41.655441],[1.422103,41.655421],[1.42213,41.655405],[1.422192,41.655374]]]]}},{"type":"Feature","id":"251924_251924 AP12 SGA 3","properties":{"area_id":"251924_251924 AP12 SGA 3","nom":"Sant Guim de la Rabassa","codi_icgc":"251924 AP12 SGA 3","categoria":"Àrees de poblament","codi_municipi":"251924","municipi":"Sant Guim de Freixenet","codi_comarca":"32","comarca":"Segarra","provincia":"Lleida","font":"ICGC Àrees de poblament v3r1 202602"},"geometry":{"type":"MultiPolygon","coordinates":[[[[1.405424,41.646824],[1.405566,41.646748],[1.405581,41.646698],[1.405498,41.646579],[1.405459,41.646595],[1.405416,41.646563],[1.405358,41.646519],[1.405335,41.646489],[1.405339,41.646462],[1.405413,41.646438],[1.405415,41.646403],[1.405429,41.646143],[1.405416,41.646123],[1.405237,41.646119],[1.405196,41.646117],[1.405101,41.646115],[1.404883,41.646186],[1.404953,41.646298],[1.405086,41.646289],[1.405225,41.646268],[1.40523,41.646282],[1.405236,41.646317],[1.405234,41.646357],[1.405221,41.64638],[1.405198,41.646408],[1.405169,41.646433],[1.405135,41.646454],[1.405096,41.646471],[1.405054,41.646482],[1.405017,41.646484],[1.404902,41.646489],[1.404948,41.646592],[1.40496,41.646619],[1.405016,41.646775],[1.405065,41.646775],[1.405268,41.646917],[1.405302,41.646941],[1.405359,41.646941],[1.40542,41.646939],[1.405481,41.646934],[1.405504,41.64693],[1.405486,41.646901],[1.405424,41.646824]]],[[[1.406506,41.64893],[1.406537,41.648894],[1.406622,41.64893],[1.406721,41.648797],[1.406747,41.648808],[1.406795,41.648736],[1.406835,41.648674],[1.406847,41.648656],[1.406836,41.64861],[1.406697,41.648558],[1.406711,41.648512],[1.406674,41.648512],[1.406666,41.648483],[1.406649,41.648471],[1.406626,41.648473],[1.406621,41.648453],[1.406578,41.648464],[1.406512,41.648478],[1.406543,41.64845],[1.406574,41.648421],[1.406595,41.648405],[1.406638,41.648371],[1.40664,41.648368],[1.406663,41.648352],[1.406675,41.648345],[1.40669,41.648338],[1.406705,41.648334],[1.406713,41.648333],[1.406736,41.648335],[1.406779,41.64834],[1.406823,41.648346],[1.406878,41.648355],[1.406931,41.648365],[1.406979,41.648379],[1.40703,41.648395],[1.407067,41.648403],[1.407134,41.648409],[1.407201,41.648414],[1.407257,41.648417],[1.407294,41.64842],[1.407387,41.648425],[1.407461,41.648427],[1.407535,41.648427],[1.407604,41.648424],[1.407674,41.648415],[1.407766,41.648396],[1.407854,41.648371],[1.40798,41.648329],[1.408105,41.648287],[1.408226,41.648248],[1.408348,41.648208],[1.408469,41.648167],[1.40859,41.648126],[1.408695,41.64809],[1.408731,41.648077],[1.408799,41.648052],[1.408971,41.647969],[1.409006,41.647952],[1.409199,41.64783],[1.409452,41.647651],[1.409603,41.647551],[1.409751,41.647488],[1.409837,41.647623],[1.409876,41.647659],[1.409895,41.647668],[1.409943,41.647675],[1.410003,41.647667],[1.410111,41.647606],[1.410173,41.647529],[1.410099,41.647379],[1.410164,41.647359],[1.41028,41.647324],[1.41032,41.647314],[1.410314,41.647284],[1.41031,41.647261],[1.410306,41.647218],[1.410301,41.64719],[1.410288,41.647148],[1.41027,41.647107],[1.410247,41.647071],[1.410229,41.647055],[1.410205,41.647042],[1.410166,41.647033],[1.410129,41.647029],[1.410076,41.647016],[1.409955,41.647061],[1.409891,41.647085],[1.409817,41.647087],[1.409755,41.647088],[1.409631,41.647119],[1.409595,41.647149],[1.409518,41.647204],[1.409446,41.647215],[1.409067,41.647266],[1.408843,41.647402],[1.408708,41.647485],[1.40859,41.647614],[1.408059,41.647905],[1.407947,41.647945],[1.407783,41.647973],[1.407639,41.648],[1.40742,41.64806],[1.407239,41.64812],[1.407168,41.648134],[1.407136,41.648121],[1.407186,41.648048],[1.407291,41.647959],[1.407283,41.647954],[1.407288,41.647924],[1.407603,41.64769],[1.407893,41.64756],[1.407751,41.647393],[1.407499,41.647496],[1.407481,41.647504],[1.407484,41.647511],[1.407491,41.647535],[1.407492,41.647559],[1.407489,41.647591],[1.407484,41.647605],[1.407476,41.647619],[1.407434,41.647667],[1.407387,41.647713],[1.407304,41.647791],[1.407228,41.647858],[1.407194,41.647885],[1.407152,41.647919],[1.407046,41.648001],[1.406707,41.648249],[1.406687,41.648263],[1.406677,41.648283],[1.406679,41.648306],[1.406679,41.648309],[1.406679,41.648309],[1.406678,41.648309],[1.406678,41.648309],[1.406653,41.648325],[1.406638,41.648335],[1.406617,41.648352],[1.406611,41.648357],[1.406597,41.648368],[1.406574,41.648383],[1.406551,41.648393],[1.406543,41.648394],[1.406525,41.648393],[1.406507,41.648389],[1.406475,41.648378],[1.406442,41.648366],[1.406383,41.64835],[1.406325,41.648334],[1.406286,41.648319],[1.406248,41.6483],[1.406213,41.648281],[1.406178,41.648261],[1.406156,41.64825],[1.406131,41.64824],[1.406108,41.648235],[1.406086,41.648232],[1.406074,41.648231],[1.40605,41.648231],[1.406018,41.648233],[1.405988,41.648235],[1.405983,41.648226],[1.406024,41.648199],[1.405888,41.648129],[1.405848,41.648146],[1.405804,41.648175],[1.405708,41.648112],[1.405668,41.648144],[1.40565,41.648132],[1.405613,41.648163],[1.405566,41.64817],[1.40557,41.648164],[1.405572,41.64816],[1.405581,41.648147],[1.405595,41.648128],[1.405572,41.648126],[1.405562,41.64814],[1.405555,41.648148],[1.405548,41.648155],[1.405541,41.648162],[1.405515,41.648186],[1.405487,41.648239],[1.405439,41.648305],[1.405343,41.648273],[1.405318,41.64827],[1.405294,41.648273],[1.405271,41.648281],[1.405253,41.648294],[1.405241,41.64831],[1.405236,41.648328],[1.405239,41.648347],[1.405248,41.648363],[1.405166,41.648451],[1.405105,41.648513],[1.405094,41.648529],[1.405085,41.648549],[1.405079,41.648567],[1.405091,41.648596],[1.405094,41.648602],[1.405095,41.648606],[1.405093,41.648616],[1.405085,41.648625],[1.405035,41.648668],[1.405007,41.648696],[1.404988,41.648717],[1.40495,41.64879],[1.405055,41.648812],[1.405056,41.648812],[1.405103,41.64882],[1.405106,41.64882],[1.405151,41.648698],[1.405233,41.648604],[1.405233,41.648603],[1.405233,41.648603],[1.405344,41.648502],[1.405456,41.648386],[1.405472,41.648369],[1.405582,41.648394],[1.405588,41.648484],[1.40561,41.648531],[1.405603,41.648563],[1.405595,41.648646],[1.4056,41.648664],[1.405622,41.648706],[1.405633,41.648728],[1.405656,41.648764],[1.405689,41.648797],[1.405738,41.64883],[1.405764,41.648843],[1.405793,41.648855],[1.405862,41.648877],[1.405933,41.648893],[1.406002,41.648903],[1.406071,41.648913],[1.406124,41.648922],[1.406177,41.648934],[1.406212,41.648947],[1.406262,41.648971],[1.406315,41.648995],[1.406345,41.649004],[1.406376,41.64901],[1.406403,41.64901],[1.406429,41.649004],[1.406456,41.648991],[1.406476,41.648974],[1.406506,41.64893]]]]}},{"type":"Feature","id":"251924_251924 AP11 SGA 2","properties":{"area_id":"251924_251924 AP11 SGA 2","nom":"el Barri de Dalt","codi_icgc":"251924 AP11 SGA 2","categoria":"Àrees de poblament","codi_municipi":"251924","municipi":"Sant Guim de Freixenet","codi_comarca":"32","comarca":"Segarra","provincia":"Lleida","font":"ICGC Àrees de poblament v3r1 202602"},"geometry":{"type":"MultiPolygon","coordinates":[[[[1.404179,41.647352],[1.404198,41.647358],[1.404413,41.647425],[1.404527,41.647285],[1.404602,41.647318],[1.404664,41.647298],[1.404744,41.64728],[1.40481,41.647287],[1.405109,41.647163],[1.405118,41.647055],[1.405127,41.646955],[1.405117,41.646921],[1.405003,41.646924],[1.404888,41.646927],[1.404873,41.646927],[1.404675,41.646921],[1.404316,41.646976],[1.404295,41.646931],[1.404165,41.646971],[1.40404,41.647007],[1.40406,41.647046],[1.404057,41.647051],[1.404051,41.647055],[1.404016,41.647065],[1.403981,41.647074],[1.403952,41.647081],[1.403902,41.647089],[1.40385,41.647097],[1.403815,41.647105],[1.403782,41.647118],[1.403751,41.647132],[1.403766,41.647153],[1.403774,41.647161],[1.403831,41.647209],[1.403981,41.647301],[1.404054,41.647319],[1.404133,41.647341],[1.404179,41.647352]]]]}},{"type":"Feature","id":"251924_251924 AP02 SGA 3","properties":{"area_id":"251924_251924 AP02 SGA 3","nom":"el Castell de Santa Maria","codi_icgc":"251924 AP02 SGA 3","categoria":"Àrees de poblament","codi_municipi":"251924","municipi":"Sant Guim de Freixenet","codi_comarca":"32","comarca":"Segarra","provincia":"Lleida","font":"ICGC Àrees de poblament v3r1 202602"},"geometry":{"type":"MultiPolygon","coordinates":[[[[1.404731,41.680752],[1.404747,41.680837],[1.404558,41.680861],[1.404571,41.680907],[1.404593,41.680974],[1.404588,41.681016],[1.404553,41.681086],[1.40453,41.681115],[1.40454,41.681118],[1.404549,41.68112],[1.404556,41.681123],[1.404558,41.681127],[1.40456,41.681136],[1.404566,41.681149],[1.404572,41.68116],[1.404578,41.681173],[1.404585,41.681187],[1.404591,41.681204],[1.404598,41.681222],[1.404609,41.68124],[1.404616,41.681246],[1.404614,41.681251],[1.404612,41.681256],[1.404607,41.681283],[1.404633,41.681285],[1.404659,41.681287],[1.404673,41.681287],[1.404687,41.681287],[1.404705,41.681293],[1.404729,41.681298],[1.404752,41.681299],[1.404793,41.681297],[1.404833,41.681294],[1.404856,41.681295],[1.404887,41.681298],[1.404893,41.681299],[1.404912,41.681305],[1.404903,41.681324],[1.404876,41.68138],[1.405071,41.681434],[1.405264,41.681465],[1.405339,41.681477],[1.405506,41.681504],[1.405561,41.681507],[1.405749,41.681525],[1.405751,41.681247],[1.405724,41.681212],[1.405697,41.681213],[1.405671,41.681215],[1.405649,41.681216],[1.405601,41.681221],[1.405583,41.681066],[1.40556,41.681038],[1.405503,41.681034],[1.405336,41.681012],[1.405325,41.680917],[1.405096,41.680921],[1.405092,41.680909],[1.405086,41.680889],[1.405059,41.680795],[1.405024,41.680708],[1.404731,41.680752]]]]}},{"type":"Feature","id":"251924_251924 AP08 SGA 3","properties":{"area_id":"251924_251924 AP08 SGA 3","nom":"la Rabassa","codi_icgc":"251924 AP08 SGA 3","categoria":"Àrees de poblament","codi_municipi":"251924","municipi":"Sant Guim de Freixenet","codi_comarca":"32","comarca":"Segarra","provincia":"Lleida","font":"ICGC Àrees de poblament v3r1 202602"},"geometry":{"type":"MultiPolygon","coordinates":[[[[1.382956,41.648213],[1.382984,41.64814],[1.383029,41.648149],[1.38329,41.648178],[1.383342,41.648181],[1.383362,41.648153],[1.383374,41.648142],[1.383388,41.648136],[1.383402,41.648135],[1.383441,41.648143],[1.383457,41.648044],[1.383465,41.647996],[1.383476,41.647916],[1.383191,41.647717],[1.383081,41.647637],[1.383126,41.647597],[1.383005,41.64752],[1.382991,41.647534],[1.382854,41.647445],[1.38275,41.647399],[1.382711,41.647382],[1.382693,41.647374],[1.382692,41.647369],[1.382691,41.647361],[1.38269,41.647353],[1.382683,41.647319],[1.382558,41.647259],[1.382428,41.647263],[1.382364,41.647293],[1.382362,41.647299],[1.382349,41.647343],[1.382329,41.647391],[1.382303,41.647429],[1.382286,41.647443],[1.382266,41.647454],[1.382238,41.647467],[1.382194,41.647488],[1.382154,41.647502],[1.382108,41.647518],[1.38206,41.647535],[1.382075,41.647581],[1.382079,41.64761],[1.382086,41.647664],[1.381925,41.647691],[1.381927,41.64771],[1.381929,41.647737],[1.381931,41.647757],[1.381934,41.647831],[1.381938,41.647984],[1.382171,41.648059],[1.382228,41.648086],[1.382277,41.648109],[1.382373,41.64813],[1.382447,41.648131],[1.382515,41.648131],[1.382566,41.648149],[1.382548,41.648167],[1.382539,41.648176],[1.38253,41.648184],[1.382513,41.648201],[1.382605,41.648241],[1.382628,41.648251],[1.382663,41.648266],[1.382756,41.64831],[1.382841,41.648348],[1.382956,41.648213]]]]}},{"type":"Feature","id":"251924_251924 AP10 SGA 3","properties":{"area_id":"251924_251924 AP10 SGA 3","nom":"la Tallada","codi_icgc":"251924 AP10 SGA 3","categoria":"Àrees de poblament","codi_municipi":"251924","municipi":"Sant Guim de Freixenet","codi_comarca":"32","comarca":"Segarra","provincia":"Lleida","font":"ICGC Àrees de poblament v3r1 202602"},"geometry":{"type":"MultiPolygon","coordinates":[[[[1.419335,41.640814],[1.419319,41.640849],[1.419278,41.640852],[1.419143,41.64084],[1.418971,41.640816],[1.418843,41.640814],[1.418842,41.640871],[1.418832,41.640911],[1.418732,41.640894],[1.418579,41.64087],[1.41843,41.640867],[1.418425,41.640838],[1.41837,41.640844],[1.418375,41.640873],[1.418405,41.641073],[1.418394,41.641076],[1.418383,41.64108],[1.418349,41.641092],[1.418315,41.641103],[1.418159,41.641135],[1.418128,41.641131],[1.418121,41.641127],[1.418116,41.641121],[1.418103,41.641098],[1.418089,41.641074],[1.41807,41.641059],[1.418062,41.641055],[1.418004,41.641036],[1.417849,41.641037],[1.417749,41.641052],[1.417676,41.641027],[1.417699,41.640892],[1.417704,41.640857],[1.417666,41.640854],[1.417666,41.640861],[1.417554,41.640844],[1.417479,41.640833],[1.417346,41.640748],[1.417395,41.64072],[1.417331,41.64066],[1.41738,41.640622],[1.417338,41.640587],[1.417208,41.640477],[1.417135,41.640412],[1.417028,41.640333],[1.417068,41.640301],[1.416984,41.640236],[1.416907,41.64017],[1.416816,41.64011],[1.416731,41.640073],[1.416615,41.640031],[1.416421,41.639981],[1.416378,41.639982],[1.416379,41.639987],[1.416389,41.64001],[1.416403,41.640042],[1.416417,41.640075],[1.416421,41.640105],[1.416415,41.640135],[1.416306,41.640087],[1.416012,41.640087],[1.415936,41.6401],[1.415921,41.640136],[1.415896,41.640164],[1.415837,41.640138],[1.415778,41.640113],[1.415735,41.640097],[1.41569,41.640085],[1.415596,41.640068],[1.415546,41.640062],[1.415496,41.640058],[1.415396,41.640055],[1.415355,41.640057],[1.415314,41.640063],[1.415283,41.640067],[1.415217,41.640101],[1.415194,41.640119],[1.415184,41.640141],[1.415187,41.640174],[1.415227,41.640202],[1.415301,41.640253],[1.415387,41.640312],[1.415475,41.64037],[1.415544,41.640415],[1.415614,41.640459],[1.415666,41.64049],[1.415688,41.640502],[1.415702,41.64051],[1.415827,41.640553],[1.415833,41.640556],[1.415837,41.640562],[1.415836,41.640573],[1.415824,41.640607],[1.41582,41.640617],[1.415819,41.640632],[1.41582,41.640649],[1.415827,41.640667],[1.415834,41.640676],[1.415842,41.640683],[1.415854,41.64069],[1.415926,41.640727],[1.416008,41.640769],[1.416045,41.640791],[1.416049,41.640793],[1.416095,41.640817],[1.416133,41.640834],[1.416173,41.640851],[1.416242,41.640879],[1.416312,41.640907],[1.416367,41.640929],[1.41642,41.640951],[1.416446,41.640965],[1.416527,41.640981],[1.416579,41.640989],[1.416611,41.640964],[1.416651,41.640942],[1.416711,41.640913],[1.416773,41.640886],[1.416824,41.640869],[1.416877,41.640852],[1.416903,41.640845],[1.416924,41.640842],[1.416935,41.640844],[1.41695,41.640848],[1.416962,41.640853],[1.416975,41.640858],[1.416991,41.64087],[1.417003,41.640887],[1.417014,41.640912],[1.417036,41.640963],[1.417062,41.641015],[1.417076,41.641031],[1.417101,41.641049],[1.417126,41.641066],[1.417221,41.641132],[1.417315,41.641198],[1.417381,41.641244],[1.417444,41.641292],[1.417469,41.641319],[1.417485,41.641349],[1.417501,41.641393],[1.417517,41.641438],[1.417548,41.641434],[1.417568,41.641413],[1.417578,41.641402],[1.417584,41.641397],[1.417593,41.641389],[1.417602,41.641385],[1.417624,41.641376],[1.417687,41.641364],[1.417743,41.641355],[1.417805,41.641343],[1.417907,41.64133],[1.417975,41.641318],[1.418076,41.641297],[1.418177,41.641276],[1.41834,41.641244],[1.418503,41.641212],[1.418574,41.641199],[1.41868,41.641184],[1.418788,41.641173],[1.418925,41.641164],[1.419063,41.641159],[1.419074,41.641159],[1.419086,41.641159],[1.419167,41.641164],[1.419207,41.641166],[1.419248,41.641167],[1.419368,41.641162],[1.419488,41.641157],[1.419633,41.641144],[1.419777,41.641132],[1.419806,41.64113],[1.419808,41.641098],[1.419775,41.64095],[1.419582,41.640878],[1.419574,41.640869],[1.419346,41.640791],[1.419335,41.640814]]]]}}]}