{"type":"FeatureCollection","name":"ICGC Àrees de poblament - Seròs","features":[{"type":"Feature","id":"252043_252043 SI02 SGR 2","properties":{"area_id":"252043_252043 SI02 SGR 2","nom":"CHINE","codi_icgc":"252043 SI02 SGR 2","categoria":"Sector industrial","codi_municipi":"252043","municipi":"Seròs","codi_comarca":"33","comarca":"Segrià","provincia":"Lleida","font":"ICGC Àrees de poblament v3r1 202602"},"geometry":{"type":"MultiPolygon","coordinates":[[[[0.38394,41.486008],[0.383954,41.486029],[0.384051,41.486034],[0.384287,41.486078],[0.384615,41.486135],[0.385008,41.486201],[0.385143,41.486231],[0.385175,41.486224],[0.385195,41.486208],[0.385295,41.486234],[0.385569,41.486279],[0.385764,41.486316],[0.385858,41.48634],[0.385979,41.486333],[0.386141,41.486324],[0.386275,41.485533],[0.385386,41.485422],[0.385613,41.484635],[0.384807,41.48448],[0.384726,41.484681],[0.383921,41.484546],[0.383921,41.484558],[0.38392,41.484625],[0.383919,41.484692],[0.383918,41.484763],[0.383917,41.484834],[0.383918,41.484891],[0.38392,41.484948],[0.38392,41.485022],[0.383919,41.485095],[0.383918,41.485172],[0.383917,41.485249],[0.383916,41.485302],[0.383915,41.485355],[0.383914,41.485412],[0.383912,41.485468],[0.383909,41.485524],[0.383905,41.485581],[0.383903,41.485665],[0.383907,41.48575],[0.383912,41.485813],[0.383917,41.485875],[0.38392,41.485911],[0.383923,41.485948],[0.383925,41.485966],[0.38393,41.485985],[0.38394,41.486008]]]]}},{"type":"Feature","id":"252043_252043 SI01 SGR 2","properties":{"area_id":"252043_252043 SI01 SGR 2","nom":"Sector industrial de Seròs","codi_icgc":"252043 SI01 SGR 2","categoria":"Sector industrial","codi_municipi":"252043","municipi":"Seròs","codi_comarca":"33","comarca":"Segrià","provincia":"Lleida","font":"ICGC Àrees de poblament v3r1 202602"},"geometry":{"type":"MultiPolygon","coordinates":[[[[0.445054,41.422159],[0.445008,41.422003],[0.444999,41.421973],[0.44469,41.420931],[0.442982,41.421208],[0.442967,41.421293],[0.443299,41.422538],[0.442741,41.422615],[0.442739,41.422624],[0.44273,41.422678],[0.442555,41.422703],[0.442919,41.424046],[0.445685,41.423641],[0.44567,41.422473],[0.445455,41.422471],[0.445441,41.422405],[0.445413,41.422295],[0.445394,41.422222],[0.445085,41.42227],[0.445054,41.422159]]]]}},{"type":"Feature","id":"252043_252043 AP01 SGR 3","properties":{"area_id":"252043_252043 AP01 SGR 3","nom":"Seròs","codi_icgc":"252043 AP01 SGR 3","categoria":"Àrees de poblament","codi_municipi":"252043","municipi":"Seròs","codi_comarca":"33","comarca":"Segrià","provincia":"Lleida","font":"ICGC Àrees de poblament v3r1 202602"},"geometry":{"type":"MultiPolygon","coordinates":[[[[0.416269,41.466746],[0.416647,41.466373],[0.416787,41.466406],[0.417036,41.466516],[0.417238,41.466603],[0.417341,41.466513],[0.417488,41.466389],[0.41757,41.466337],[0.417776,41.466225],[0.417804,41.466208],[0.417164,41.465867],[0.41711,41.465841],[0.417164,41.465793],[0.417107,41.465775],[0.417052,41.46575],[0.416967,41.465707],[0.416887,41.465663],[0.417002,41.465532],[0.416987,41.465511],[0.416862,41.465463],[0.4168,41.465429],[0.416731,41.465383],[0.416649,41.46536],[0.416568,41.465296],[0.416525,41.46528],[0.416463,41.465258],[0.416367,41.465178],[0.416266,41.465128],[0.4162,41.465091],[0.41608,41.465023],[0.415998,41.464991],[0.415979,41.464961],[0.415918,41.464921],[0.415786,41.464852],[0.415716,41.464818],[0.415634,41.464748],[0.415551,41.464722],[0.415352,41.464607],[0.41519,41.464493],[0.414881,41.464391],[0.414689,41.464302],[0.414656,41.464286],[0.414455,41.464185],[0.414216,41.464016],[0.414031,41.463892],[0.413493,41.463573],[0.413254,41.46341],[0.413166,41.463325],[0.413082,41.463254],[0.412921,41.463091],[0.412866,41.463052],[0.41276,41.462965],[0.412633,41.462832],[0.412621,41.462842],[0.412508,41.462714],[0.412362,41.462595],[0.412319,41.462539],[0.412341,41.46253],[0.412375,41.462507],[0.412411,41.462485],[0.412438,41.462467],[0.412455,41.462457],[0.412472,41.462456],[0.412557,41.462403],[0.412715,41.462481],[0.412937,41.462256],[0.413002,41.462289],[0.413071,41.462223],[0.413427,41.46243],[0.413627,41.462222],[0.413479,41.462128],[0.413456,41.462114],[0.413353,41.462065],[0.413292,41.461999],[0.413242,41.462008],[0.413225,41.461973],[0.413096,41.461924],[0.413049,41.461838],[0.413014,41.461846],[0.412999,41.461822],[0.412973,41.461828],[0.412888,41.461704],[0.412848,41.461682],[0.412795,41.461653],[0.412758,41.461697],[0.412661,41.461812],[0.412597,41.461889],[0.412557,41.461935],[0.412517,41.461982],[0.41248,41.46202],[0.412439,41.462057],[0.412401,41.462087],[0.412358,41.462112],[0.412325,41.462123],[0.412313,41.462126],[0.412284,41.462134],[0.412256,41.462141],[0.412244,41.462146],[0.41214,41.462014],[0.412113,41.461991],[0.412085,41.461968],[0.412058,41.46195],[0.412029,41.461933],[0.412009,41.461925],[0.411934,41.461864],[0.411895,41.461831],[0.411854,41.461773],[0.411821,41.461728],[0.411767,41.461681],[0.411689,41.461712],[0.411511,41.461805],[0.411401,41.461848],[0.41133,41.461682],[0.411211,41.461506],[0.411004,41.46122],[0.411127,41.461113],[0.411105,41.461091],[0.41113,41.461065],[0.411061,41.461],[0.411045,41.460986],[0.41104,41.460986],[0.411008,41.460988],[0.41088,41.460902],[0.410782,41.460839],[0.41074,41.460789],[0.410729,41.460774],[0.410717,41.46074],[0.41072,41.460708],[0.410721,41.460649],[0.410738,41.460535],[0.410746,41.460489],[0.410584,41.460423],[0.410461,41.460389],[0.410423,41.460382],[0.410408,41.460397],[0.410213,41.460357],[0.410193,41.460407],[0.409951,41.460361],[0.409845,41.460318],[0.409776,41.460282],[0.409546,41.460136],[0.409415,41.459942],[0.409308,41.459955],[0.409164,41.459983],[0.409018,41.460025],[0.40891,41.460063],[0.408806,41.460106],[0.408712,41.460151],[0.408686,41.460179],[0.408668,41.460201],[0.40865,41.460224],[0.408589,41.460292],[0.4085,41.460391],[0.40848,41.460411],[0.40898,41.460688],[0.408931,41.460717],[0.408808,41.460756],[0.408616,41.460798],[0.408448,41.460823],[0.408183,41.460864],[0.408066,41.460873],[0.407975,41.460915],[0.407942,41.460954],[0.407595,41.461334],[0.407489,41.461369],[0.407375,41.461486],[0.407293,41.461579],[0.407265,41.461611],[0.407554,41.461726],[0.40749,41.461828],[0.407423,41.461935],[0.407419,41.461941],[0.407388,41.462032],[0.407457,41.462048],[0.407444,41.462064],[0.407273,41.462267],[0.407195,41.462348],[0.407131,41.46238],[0.406836,41.462496],[0.406617,41.462571],[0.406504,41.462594],[0.406384,41.462582],[0.406349,41.462621],[0.406271,41.462704],[0.406211,41.462766],[0.405964,41.462642],[0.405939,41.462646],[0.405915,41.462649],[0.405899,41.462646],[0.405884,41.462642],[0.405861,41.462631],[0.405839,41.462621],[0.405815,41.462607],[0.40579,41.462592],[0.405774,41.46258],[0.405731,41.462579],[0.405682,41.462584],[0.405626,41.462594],[0.405595,41.462599],[0.405564,41.462604],[0.405528,41.462612],[0.405473,41.462626],[0.405459,41.462631],[0.405419,41.462654],[0.405392,41.462674],[0.405323,41.462739],[0.405268,41.462789],[0.405212,41.462839],[0.405174,41.462873],[0.405138,41.46291],[0.405133,41.462916],[0.405049,41.462935],[0.4049,41.463009],[0.404897,41.46301],[0.404872,41.463025],[0.404812,41.463064],[0.404801,41.463071],[0.404463,41.463258],[0.404435,41.463242],[0.40441,41.463223],[0.404046,41.463598],[0.404006,41.46364],[0.404055,41.463667],[0.40401,41.46371],[0.403972,41.463757],[0.40394,41.463806],[0.403903,41.463871],[0.403841,41.463964],[0.403775,41.464062],[0.402978,41.463992],[0.402875,41.464519],[0.403582,41.464644],[0.403994,41.464733],[0.404073,41.464674],[0.404129,41.464604],[0.404467,41.464182],[0.404699,41.46408],[0.404863,41.46391],[0.404891,41.463883],[0.405232,41.463512],[0.405238,41.4635],[0.405367,41.463389],[0.405353,41.463368],[0.405349,41.463339],[0.40535,41.463314],[0.405364,41.463284],[0.405385,41.463267],[0.405431,41.463242],[0.405475,41.463241],[0.405517,41.463245],[0.405557,41.463264],[0.405579,41.463285],[0.405596,41.463308],[0.405595,41.463325],[0.405782,41.463297],[0.405792,41.463297],[0.405827,41.463287],[0.405969,41.46323],[0.406091,41.463163],[0.406211,41.463103],[0.406295,41.463176],[0.406299,41.463194],[0.406303,41.463213],[0.40634,41.463209],[0.406352,41.46327],[0.406366,41.46332],[0.406497,41.463309],[0.406634,41.463316],[0.406726,41.463333],[0.40678,41.46335],[0.406871,41.463449],[0.406868,41.463451],[0.407009,41.463569],[0.407045,41.463644],[0.407089,41.463621],[0.407172,41.463755],[0.407179,41.463766],[0.407223,41.463776],[0.407284,41.463793],[0.407318,41.46374],[0.407351,41.463687],[0.407397,41.463627],[0.407423,41.463489],[0.407436,41.463419],[0.407481,41.463369],[0.407638,41.463292],[0.407793,41.463225],[0.407922,41.463165],[0.408085,41.463091],[0.408199,41.463162],[0.408304,41.463242],[0.408364,41.463282],[0.408344,41.463323],[0.408257,41.463411],[0.408066,41.463622],[0.408032,41.463646],[0.407939,41.463625],[0.407914,41.463622],[0.407811,41.463784],[0.407803,41.463838],[0.407788,41.463863],[0.407727,41.463909],[0.40769,41.464004],[0.407704,41.464087],[0.407779,41.464186],[0.407836,41.464191],[0.407916,41.46409],[0.407963,41.464032],[0.408002,41.463995],[0.408026,41.463976],[0.408047,41.463988],[0.408096,41.464019],[0.408127,41.464037],[0.408157,41.464054],[0.408218,41.464094],[0.408277,41.464136],[0.408349,41.464188],[0.408358,41.464195],[0.40844,41.464254],[0.408504,41.464299],[0.408571,41.464344],[0.408622,41.464375],[0.408674,41.464406],[0.408709,41.464428],[0.408743,41.464451],[0.408765,41.464469],[0.408777,41.464479],[0.40878,41.464482],[0.408796,41.464496],[0.408819,41.464516],[0.40887,41.464552],[0.408914,41.464589],[0.408963,41.46463],[0.408999,41.46466],[0.409036,41.464692],[0.409082,41.464741],[0.4091,41.464766],[0.40912,41.464793],[0.409252,41.464904],[0.409409,41.465029],[0.409602,41.465142],[0.409781,41.465228],[0.409881,41.465171],[0.410056,41.465338],[0.410185,41.465419],[0.410256,41.465488],[0.410395,41.465615],[0.410496,41.465718],[0.41064,41.465839],[0.410712,41.465904],[0.410772,41.465859],[0.410818,41.465828],[0.410884,41.465743],[0.410821,41.465708],[0.410749,41.465679],[0.410766,41.465676],[0.410797,41.465671],[0.410827,41.465665],[0.410854,41.465657],[0.410878,41.465646],[0.410912,41.465629],[0.410936,41.465615],[0.411093,41.465669],[0.411125,41.465682],[0.411158,41.465698],[0.411261,41.465772],[0.411362,41.465848],[0.411449,41.465913],[0.411536,41.465977],[0.411611,41.466033],[0.411688,41.466089],[0.411746,41.466134],[0.411858,41.466215],[0.411876,41.466219],[0.411911,41.466221],[0.411942,41.466223],[0.411955,41.4662],[0.411972,41.466179],[0.411997,41.466158],[0.412064,41.466095],[0.41213,41.466032],[0.412237,41.465936],[0.412344,41.46584],[0.41248,41.465718],[0.412616,41.465596],[0.412677,41.465542],[0.412758,41.465576],[0.412813,41.465608],[0.41284,41.465625],[0.412851,41.465632],[0.413134,41.46584],[0.413146,41.465848],[0.413203,41.46588],[0.413267,41.465835],[0.413413,41.465861],[0.413588,41.465966],[0.413751,41.46582],[0.413932,41.465931],[0.414128,41.465762],[0.414196,41.46577],[0.41425,41.465786],[0.41432,41.465817],[0.414409,41.465876],[0.41454,41.465965],[0.414706,41.46607],[0.415004,41.466268],[0.415052,41.466225],[0.41598,41.465321],[0.41605,41.465353],[0.416563,41.465583],[0.415573,41.466568],[0.415546,41.466634],[0.415438,41.466752],[0.415187,41.466988],[0.415522,41.467218],[0.415669,41.467308],[0.415989,41.466989],[0.416103,41.466909],[0.416269,41.466746]]]]}}]}