{"type":"FeatureCollection","name":"ICGC Àrees de poblament - Sort","features":[{"type":"Feature","id":"252094_252094 AP13 PSO 3","properties":{"area_id":"252094_252094 AP13 PSO 3","nom":"Altron","codi_icgc":"252094 AP13 PSO 3","categoria":"Àrees de poblament","codi_municipi":"252094","municipi":"Sort","codi_comarca":"26","comarca":"Pallars Sobirà","provincia":"Lleida","font":"ICGC Àrees de poblament v3r1 202602"},"geometry":{"type":"MultiPolygon","coordinates":[[[[1.103909,42.451189],[1.103949,42.451134],[1.104001,42.451158],[1.104038,42.451151],[1.104087,42.451143],[1.10408,42.451066],[1.104084,42.45092],[1.104149,42.45079],[1.104245,42.450675],[1.104303,42.450617],[1.10418,42.450561],[1.104069,42.4505],[1.104079,42.450291],[1.104191,42.45018],[1.104233,42.450115],[1.104265,42.450017],[1.104259,42.449931],[1.104142,42.449813],[1.104039,42.449772],[1.104085,42.449687],[1.104131,42.449646],[1.104192,42.449614],[1.104262,42.449571],[1.104351,42.449557],[1.104415,42.449554],[1.104435,42.449553],[1.104531,42.449561],[1.104568,42.449564],[1.104696,42.449566],[1.104697,42.449564],[1.104746,42.449272],[1.104364,42.449251],[1.104309,42.449473],[1.104248,42.449502],[1.104155,42.44953],[1.104074,42.449541],[1.104002,42.449533],[1.103836,42.449478],[1.103834,42.449477],[1.103759,42.449461],[1.103733,42.44946],[1.103674,42.449457],[1.103621,42.449456],[1.103574,42.449455],[1.103383,42.449496],[1.102877,42.449634],[1.102634,42.449687],[1.102516,42.449735],[1.102452,42.449762],[1.102423,42.449774],[1.102408,42.449774],[1.102304,42.449771],[1.102296,42.449804],[1.10229,42.449832],[1.102297,42.449861],[1.102302,42.449882],[1.102305,42.449902],[1.102302,42.449921],[1.102288,42.449938],[1.102272,42.449954],[1.102256,42.449978],[1.10224,42.450001],[1.102231,42.450012],[1.102222,42.450023],[1.102143,42.45021],[1.102109,42.450228],[1.102094,42.450236],[1.102102,42.450248],[1.102316,42.450302],[1.102462,42.450443],[1.102548,42.450581],[1.102488,42.45064],[1.102665,42.450765],[1.102686,42.450771],[1.102742,42.450774],[1.102778,42.450772],[1.103045,42.450882],[1.103217,42.450935],[1.103319,42.451033],[1.103364,42.451129],[1.103402,42.451173],[1.103412,42.451184],[1.103426,42.451197],[1.103449,42.45121],[1.103462,42.451213],[1.103476,42.451214],[1.103552,42.451211],[1.103627,42.451208],[1.103823,42.451201],[1.103909,42.451189]]]]}},{"type":"Feature","id":"252094_252094 AP15 PSO 3","properties":{"area_id":"252094_252094 AP15 PSO 3","nom":"Bernui","codi_icgc":"252094 AP15 PSO 3","categoria":"Àrees de poblament","codi_municipi":"252094","municipi":"Sort","codi_comarca":"26","comarca":"Pallars Sobirà","provincia":"Lleida","font":"ICGC Àrees de poblament v3r1 202602"},"geometry":{"type":"MultiPolygon","coordinates":[[[[1.082527,42.448167],[1.082627,42.448281],[1.082738,42.44824],[1.082786,42.448244],[1.082804,42.448236],[1.082836,42.448223],[1.08293,42.448182],[1.082974,42.448232],[1.082989,42.448307],[1.082991,42.448314],[1.082985,42.448397],[1.082984,42.448414],[1.08303,42.448481],[1.083087,42.448518],[1.08309,42.44852],[1.083187,42.448527],[1.083279,42.44855],[1.083385,42.448563],[1.083532,42.448574],[1.083552,42.448576],[1.083663,42.448572],[1.083774,42.448499],[1.083823,42.448546],[1.083864,42.448583],[1.083867,42.448583],[1.083901,42.448597],[1.083945,42.448614],[1.083956,42.448618],[1.083994,42.448626],[1.083994,42.448626],[1.084039,42.448636],[1.084076,42.448637],[1.084087,42.448637],[1.084104,42.448632],[1.084116,42.448628],[1.084117,42.448628],[1.084117,42.448628],[1.084139,42.448599],[1.08414,42.448597],[1.084142,42.448579],[1.084022,42.448419],[1.083967,42.448307],[1.083832,42.448195],[1.083772,42.448174],[1.083695,42.44815],[1.083582,42.448085],[1.083596,42.448067],[1.083609,42.448049],[1.083611,42.448042],[1.083608,42.448035],[1.083593,42.448021],[1.08358,42.448016],[1.083513,42.447998],[1.083445,42.44798],[1.083398,42.44796],[1.083399,42.447954],[1.083401,42.447948],[1.083401,42.447936],[1.083395,42.447926],[1.083385,42.447921],[1.083362,42.447912],[1.083339,42.447902],[1.083293,42.447884],[1.083229,42.447859],[1.083165,42.447835],[1.08314,42.447829],[1.083113,42.447828],[1.08307,42.447829],[1.083058,42.44783],[1.083022,42.447827],[1.082951,42.447812],[1.08288,42.447796],[1.082814,42.447783],[1.082749,42.447769],[1.082727,42.447767],[1.082705,42.447767],[1.08266,42.447775],[1.082631,42.447783],[1.082597,42.447796],[1.082565,42.44781],[1.082508,42.447841],[1.082453,42.447873],[1.082394,42.447902],[1.082355,42.447926],[1.082334,42.447946],[1.082415,42.448101],[1.082424,42.448118],[1.082425,42.44812],[1.08245,42.448112],[1.08252,42.448093],[1.082556,42.448082],[1.082573,42.448079],[1.082589,42.448079],[1.082606,42.44808],[1.082613,42.44808],[1.082614,42.448081],[1.082619,42.448081],[1.08262,42.448081],[1.082614,42.448092],[1.082599,42.44811],[1.082527,42.448167]]]]}},{"type":"Feature","id":"252094_252094 AP19 PSO 2","properties":{"area_id":"252094_252094 AP19 PSO 2","nom":"Bordes de Llessui","codi_icgc":"252094 AP19 PSO 2","categoria":"Àrees de poblament","codi_municipi":"252094","municipi":"Sort","codi_comarca":"26","comarca":"Pallars Sobirà","provincia":"Lleida","font":"ICGC Àrees de poblament v3r1 202602"},"geometry":{"type":"MultiPolygon","coordinates":[[[[1.059074,42.480924],[1.059122,42.480916],[1.059201,42.480905],[1.059259,42.480854],[1.059317,42.4808],[1.059364,42.480774],[1.059412,42.480735],[1.059442,42.480689],[1.059455,42.480641],[1.059462,42.480585],[1.059464,42.480513],[1.059453,42.480505],[1.059333,42.480473],[1.059173,42.48047],[1.059135,42.480471],[1.058988,42.480653],[1.058934,42.48072],[1.058928,42.480754],[1.058939,42.480787],[1.058955,42.480835],[1.05898,42.480899],[1.059024,42.480918],[1.059074,42.480924]]]]}},{"type":"Feature","id":"252094_252094 AP08 PSO 3","properties":{"area_id":"252094_252094 AP08 PSO 3","nom":"Bressui","codi_icgc":"252094 AP08 PSO 3","categoria":"Àrees de poblament","codi_municipi":"252094","municipi":"Sort","codi_comarca":"26","comarca":"Pallars Sobirà","provincia":"Lleida","font":"ICGC Àrees de poblament v3r1 202602"},"geometry":{"type":"MultiPolygon","coordinates":[[[[1.122565,42.406741],[1.122601,42.40695],[1.122567,42.406953],[1.12251,42.40696],[1.122448,42.40697],[1.122399,42.406983],[1.122304,42.406974],[1.122225,42.406946],[1.12217,42.406897],[1.122116,42.406809],[1.122007,42.406729],[1.121763,42.406635],[1.121609,42.406909],[1.121757,42.406946],[1.121846,42.406976],[1.121951,42.406978],[1.122026,42.406983],[1.122063,42.407017],[1.122136,42.407063],[1.122117,42.40711],[1.12211,42.407156],[1.122104,42.407214],[1.122079,42.407262],[1.122099,42.407283],[1.122166,42.407351],[1.122228,42.407445],[1.12229,42.407532],[1.122374,42.407625],[1.122528,42.407557],[1.12276,42.40745],[1.122615,42.407311],[1.122824,42.407219],[1.122913,42.407179],[1.123136,42.407217],[1.1232,42.407013],[1.123217,42.406866],[1.123248,42.406711],[1.123257,42.406614],[1.123246,42.406542],[1.123209,42.406491],[1.123159,42.40645],[1.123098,42.406442],[1.122938,42.406432],[1.122893,42.406429],[1.122546,42.406526],[1.122565,42.406741]]]]}},{"type":"Feature","id":"252094_252094 AP10 PSO 3","properties":{"area_id":"252094_252094 AP10 PSO 3","nom":"Castellviny","codi_icgc":"252094 AP10 PSO 3","categoria":"Àrees de poblament","codi_municipi":"252094","municipi":"Sort","codi_comarca":"26","comarca":"Pallars Sobirà","provincia":"Lleida","font":"ICGC Àrees de poblament v3r1 202602"},"geometry":{"type":"MultiPolygon","coordinates":[[[[1.116703,42.422449],[1.116878,42.422508],[1.11681,42.422644],[1.116751,42.42273],[1.116709,42.422801],[1.116599,42.422843],[1.116537,42.422893],[1.116588,42.422927],[1.116746,42.423025],[1.116897,42.423036],[1.117071,42.423022],[1.117231,42.422963],[1.117348,42.422913],[1.117408,42.422842],[1.117465,42.422767],[1.117473,42.422655],[1.117458,42.422604],[1.117422,42.422476],[1.117262,42.422452],[1.117192,42.422362],[1.117084,42.422348],[1.11709,42.422271],[1.117057,42.422184],[1.11684,42.422162],[1.116703,42.422449]]]]}},{"type":"Feature","id":"252094_252094 AP07 PSO 3","properties":{"area_id":"252094_252094 AP07 PSO 3","nom":"Enviny","codi_icgc":"252094 AP07 PSO 3","categoria":"Àrees de poblament","codi_municipi":"252094","municipi":"Sort","codi_comarca":"26","comarca":"Pallars Sobirà","provincia":"Lleida","font":"ICGC Àrees de poblament v3r1 202602"},"geometry":{"type":"MultiPolygon","coordinates":[[[[1.103636,42.402846],[1.103711,42.402805],[1.10377,42.402785],[1.103805,42.402785],[1.103844,42.402752],[1.103872,42.402726],[1.103897,42.402722],[1.104009,42.402721],[1.103963,42.402653],[1.103948,42.402606],[1.104055,42.402405],[1.104105,42.402399],[1.104117,42.402244],[1.104124,42.402215],[1.10419,42.402063],[1.104226,42.401982],[1.104262,42.401902],[1.104349,42.401723],[1.104411,42.401482],[1.10434,42.401435],[1.104302,42.401404],[1.104269,42.401329],[1.104149,42.401277],[1.104071,42.401242],[1.103974,42.401198],[1.103876,42.401104],[1.10399,42.400915],[1.103891,42.400857],[1.1039,42.400827],[1.103849,42.400809],[1.1037,42.400806],[1.103563,42.400825],[1.103469,42.400859],[1.103515,42.400955],[1.103596,42.401046],[1.103694,42.401128],[1.103726,42.401203],[1.103724,42.401203],[1.10369,42.401262],[1.103611,42.401306],[1.103532,42.401368],[1.103494,42.401432],[1.10346,42.401521],[1.103402,42.401743],[1.10338,42.401804],[1.103347,42.401859],[1.103251,42.401994],[1.103189,42.402068],[1.10309,42.402196],[1.103035,42.402223],[1.103018,42.402245],[1.10312,42.402361],[1.103196,42.402495],[1.103199,42.40257],[1.103286,42.40259],[1.103439,42.402631],[1.10344,42.402682],[1.103448,42.402747],[1.103489,42.402849],[1.103636,42.402846]]]]}},{"type":"Feature","id":"252094_252094 AP06 PSO 3","properties":{"area_id":"252094_252094 AP06 PSO 3","nom":"Llarvén","codi_icgc":"252094 AP06 PSO 3","categoria":"Àrees de poblament","codi_municipi":"252094","municipi":"Sort","codi_comarca":"26","comarca":"Pallars Sobirà","provincia":"Lleida","font":"ICGC Àrees de poblament v3r1 202602"},"geometry":{"type":"MultiPolygon","coordinates":[[[[1.093492,42.401155],[1.093441,42.401235],[1.093512,42.401246],[1.093614,42.401284],[1.093699,42.401325],[1.093791,42.401375],[1.093908,42.401315],[1.094021,42.401202],[1.09403,42.401056],[1.094166,42.401048],[1.094398,42.401042],[1.094492,42.400983],[1.094558,42.400927],[1.094423,42.400822],[1.094286,42.40082],[1.094199,42.40082],[1.094155,42.40081],[1.094132,42.400739],[1.094093,42.400675],[1.094091,42.400633],[1.09411,42.400599],[1.094645,42.400612],[1.094676,42.400431],[1.09466,42.400284],[1.0945,42.400293],[1.094431,42.400302],[1.094362,42.400348],[1.094289,42.400396],[1.094076,42.40038],[1.093974,42.400298],[1.09367,42.400278],[1.09362,42.400471],[1.093552,42.400571],[1.093337,42.400636],[1.093299,42.400719],[1.093304,42.400802],[1.093525,42.400812],[1.093485,42.400924],[1.093443,42.40101],[1.093561,42.401054],[1.093492,42.401155]]]]}},{"type":"Feature","id":"252094_252094 AP17 PSO 3","properties":{"area_id":"252094_252094 AP17 PSO 3","nom":"Llessui","codi_icgc":"252094 AP17 PSO 3","categoria":"Àrees de poblament","codi_municipi":"252094","municipi":"Sort","codi_comarca":"26","comarca":"Pallars Sobirà","provincia":"Lleida","font":"ICGC Àrees de poblament v3r1 202602"},"geometry":{"type":"MultiPolygon","coordinates":[[[[1.076256,42.452298],[1.076238,42.452241],[1.076195,42.452202],[1.076171,42.452199],[1.076068,42.452186],[1.075995,42.452177],[1.07584,42.452147],[1.075283,42.452037],[1.075227,42.45203],[1.075059,42.452007],[1.075,42.451999],[1.074983,42.451997],[1.074967,42.451998],[1.074813,42.452012],[1.074623,42.45202],[1.074559,42.452022],[1.07446,42.452009],[1.074459,42.452009],[1.074459,42.452008],[1.074372,42.45198],[1.07428,42.451949],[1.07421,42.451914],[1.074169,42.451894],[1.07418,42.451795],[1.074251,42.451713],[1.074321,42.451646],[1.074355,42.451614],[1.074363,42.451607],[1.074623,42.451389],[1.074434,42.451267],[1.074457,42.45116],[1.074337,42.451128],[1.074145,42.451119],[1.074029,42.451078],[1.073942,42.451026],[1.07367,42.450969],[1.073367,42.450829],[1.073232,42.45078],[1.073199,42.450768],[1.073198,42.450768],[1.073137,42.450789],[1.072913,42.450742],[1.072904,42.450757],[1.072896,42.45077],[1.072856,42.450835],[1.072627,42.450777],[1.072665,42.450702],[1.072607,42.450682],[1.072664,42.450553],[1.072052,42.450449],[1.072018,42.450575],[1.071825,42.450555],[1.071731,42.45055],[1.071684,42.450554],[1.071604,42.450561],[1.071549,42.450588],[1.07153,42.450609],[1.07153,42.450609],[1.071529,42.450635],[1.071562,42.450673],[1.071616,42.450752],[1.071607,42.450791],[1.071585,42.450817],[1.07147,42.450854],[1.071446,42.450864],[1.071441,42.450867],[1.071434,42.450868],[1.071406,42.450875],[1.071355,42.450887],[1.071248,42.450912],[1.07116,42.450939],[1.071092,42.450971],[1.071041,42.451007],[1.07102,42.451048],[1.071022,42.451059],[1.071027,42.45108],[1.071064,42.451101],[1.071065,42.451102],[1.07108,42.451108],[1.071132,42.451116],[1.07118,42.451122],[1.071267,42.451128],[1.071344,42.451134],[1.0714,42.451138],[1.071397,42.451173],[1.071395,42.451216],[1.071401,42.451221],[1.071417,42.451236],[1.071445,42.451256],[1.071547,42.451321],[1.071584,42.451361],[1.071543,42.451418],[1.071552,42.451424],[1.071491,42.45149],[1.071568,42.451529],[1.07159,42.451506],[1.071621,42.451522],[1.07166,42.45148],[1.071693,42.451453],[1.071775,42.451487],[1.071825,42.451433],[1.071905,42.451463],[1.071995,42.451456],[1.072169,42.451515],[1.072236,42.451554],[1.072401,42.451614],[1.072361,42.451671],[1.072316,42.451739],[1.072452,42.451788],[1.072497,42.451721],[1.072527,42.451676],[1.072584,42.451638],[1.072622,42.451579],[1.072647,42.451588],[1.07266,42.451604],[1.072486,42.451804],[1.072472,42.45182],[1.072462,42.451876],[1.072482,42.451885],[1.07247,42.451905],[1.072578,42.451934],[1.072632,42.451876],[1.072658,42.451888],[1.072698,42.451836],[1.072676,42.451824],[1.072719,42.451779],[1.07281,42.451849],[1.072923,42.45179],[1.072984,42.451759],[1.073044,42.451727],[1.073072,42.45171],[1.073099,42.451692],[1.073121,42.451699],[1.073131,42.451701],[1.073152,42.451704],[1.073154,42.451704],[1.073282,42.451715],[1.073478,42.451739],[1.073519,42.451748],[1.073605,42.451769],[1.073614,42.451771],[1.073712,42.451807],[1.073717,42.451809],[1.07372,42.451809],[1.073793,42.451822],[1.07393,42.451824],[1.073932,42.451826],[1.073948,42.451826],[1.073999,42.451826],[1.074,42.451826],[1.074014,42.451842],[1.074047,42.451865],[1.074019,42.451933],[1.074014,42.451949],[1.074012,42.45196],[1.074111,42.452017],[1.074193,42.452054],[1.074251,42.452107],[1.074267,42.452119],[1.074299,42.452161],[1.074321,42.452191],[1.074329,42.452197],[1.074368,42.452227],[1.074372,42.452231],[1.074412,42.45224],[1.074438,42.452241],[1.074453,42.452241],[1.074508,42.452242],[1.074619,42.452241],[1.074621,42.452241],[1.074645,42.452259],[1.074658,42.452274],[1.074684,42.452301],[1.07473,42.452353],[1.074804,42.452434],[1.074879,42.452501],[1.074933,42.45255],[1.074938,42.452551],[1.074988,42.452563],[1.075305,42.452636],[1.075845,42.452735],[1.075911,42.452707],[1.075942,42.452695],[1.075967,42.452679],[1.076004,42.452657],[1.076005,42.452657],[1.076078,42.452596],[1.076199,42.452458],[1.076258,42.452366],[1.076256,42.452298]]]]}},{"type":"Feature","id":"252094_252094 AP04 PSO 3","properties":{"area_id":"252094_252094 AP04 PSO 3","nom":"Montardit de Baix","codi_icgc":"252094 AP04 PSO 3","categoria":"Àrees de poblament","codi_municipi":"252094","municipi":"Sort","codi_comarca":"26","comarca":"Pallars Sobirà","provincia":"Lleida","font":"ICGC Àrees de poblament v3r1 202602"},"geometry":{"type":"MultiPolygon","coordinates":[[[[1.115226,42.383933],[1.115059,42.384191],[1.115208,42.384544],[1.11506,42.38482],[1.114841,42.38487],[1.114705,42.384921],[1.114617,42.38497],[1.114533,42.385026],[1.114449,42.385107],[1.114609,42.385213],[1.114698,42.385147],[1.114791,42.385105],[1.114941,42.385083],[1.115183,42.385058],[1.115445,42.384998],[1.115719,42.385024],[1.115807,42.384983],[1.11592,42.384902],[1.116013,42.384879],[1.116099,42.384884],[1.116305,42.384926],[1.1165,42.384869],[1.116369,42.384574],[1.116176,42.384263],[1.11613,42.384183],[1.115857,42.38428],[1.115817,42.384239],[1.115817,42.384225],[1.115794,42.384034],[1.115772,42.383886],[1.115763,42.383803],[1.115226,42.383933]]]]}},{"type":"Feature","id":"252094_252094 AP05 PSO 3","properties":{"area_id":"252094_252094 AP05 PSO 3","nom":"Montardit de Dalt","codi_icgc":"252094 AP05 PSO 3","categoria":"Àrees de poblament","codi_municipi":"252094","municipi":"Sort","codi_comarca":"26","comarca":"Pallars Sobirà","provincia":"Lleida","font":"ICGC Àrees de poblament v3r1 202602"},"geometry":{"type":"MultiPolygon","coordinates":[[[[1.104785,42.395225],[1.104821,42.395176],[1.104843,42.395111],[1.104841,42.395039],[1.104943,42.394999],[1.104873,42.394909],[1.104943,42.394856],[1.105191,42.394756],[1.105157,42.394684],[1.105132,42.394594],[1.105121,42.394537],[1.105111,42.394469],[1.105085,42.394397],[1.105058,42.394364],[1.104979,42.394341],[1.104916,42.394138],[1.104827,42.394184],[1.10473,42.3942],[1.104665,42.394214],[1.104632,42.394115],[1.104575,42.394123],[1.104343,42.394218],[1.104164,42.394289],[1.104004,42.394287],[1.103822,42.39431],[1.103717,42.394341],[1.103587,42.394378],[1.10347,42.394394],[1.103402,42.394387],[1.103329,42.394412],[1.103275,42.394471],[1.103297,42.394531],[1.103361,42.394684],[1.10339,42.394777],[1.103376,42.394869],[1.103597,42.394995],[1.103644,42.395016],[1.103695,42.395065],[1.103989,42.395174],[1.104016,42.395213],[1.104155,42.395287],[1.104273,42.395343],[1.104314,42.395415],[1.104394,42.395587],[1.104471,42.395554],[1.104548,42.395535],[1.104661,42.395525],[1.104746,42.395514],[1.104678,42.395382],[1.104788,42.395336],[1.104804,42.395305],[1.104785,42.395225]]]]}},{"type":"Feature","id":"252094_252094 AP12 PSO 3","properties":{"area_id":"252094_252094 AP12 PSO 3","nom":"Olp","codi_icgc":"252094 AP12 PSO 3","categoria":"Àrees de poblament","codi_municipi":"252094","municipi":"Sort","codi_comarca":"26","comarca":"Pallars Sobirà","provincia":"Lleida","font":"ICGC Àrees de poblament v3r1 202602"},"geometry":{"type":"MultiPolygon","coordinates":[[[[1.113595,42.431015],[1.113658,42.430866],[1.113647,42.430811],[1.113641,42.430772],[1.113671,42.430678],[1.11366,42.430673],[1.113751,42.430622],[1.113848,42.430714],[1.113995,42.430847],[1.113997,42.430897],[1.114022,42.430922],[1.114127,42.430971],[1.114145,42.43097],[1.114259,42.431028],[1.114296,42.430995],[1.114319,42.43096],[1.114318,42.430957],[1.114485,42.430941],[1.11464,42.430925],[1.114749,42.431024],[1.114908,42.43097],[1.115051,42.430924],[1.115088,42.430949],[1.11513,42.430978],[1.11526,42.431035],[1.115284,42.431048],[1.11529,42.431051],[1.115295,42.431055],[1.115318,42.431124],[1.115357,42.431246],[1.115419,42.431354],[1.115436,42.431383],[1.115502,42.43138],[1.115546,42.431378],[1.115542,42.431304],[1.115543,42.431296],[1.115553,42.431242],[1.11559,42.431207],[1.115617,42.431187],[1.115636,42.431174],[1.115652,42.43117],[1.115691,42.431161],[1.115748,42.431181],[1.11592,42.431244],[1.115926,42.431246],[1.115938,42.43125],[1.116044,42.431291],[1.116057,42.431294],[1.116181,42.431326],[1.116313,42.431331],[1.116552,42.43129],[1.116682,42.431256],[1.116863,42.431214],[1.116845,42.431063],[1.116817,42.430922],[1.116777,42.430848],[1.116771,42.430838],[1.116834,42.430799],[1.116731,42.430685],[1.11663,42.430621],[1.116481,42.430557],[1.116315,42.430511],[1.116191,42.430471],[1.116136,42.430458],[1.11607,42.430426],[1.116038,42.430428],[1.116036,42.430429],[1.115829,42.430503],[1.115791,42.430501],[1.115778,42.4305],[1.115765,42.430496],[1.11575,42.430491],[1.115746,42.43049],[1.115619,42.430324],[1.115576,42.430265],[1.11552,42.430191],[1.115421,42.430075],[1.115361,42.430026],[1.115351,42.430021],[1.115314,42.430005],[1.115307,42.430002],[1.115298,42.430001],[1.115232,42.429998],[1.115224,42.429998],[1.115137,42.429999],[1.11509,42.429982],[1.115089,42.429981],[1.115088,42.42998],[1.11502,42.429935],[1.115161,42.429837],[1.115339,42.429686],[1.115339,42.429685],[1.115257,42.429681],[1.115257,42.429681],[1.11505,42.429671],[1.114972,42.429666],[1.114944,42.429664],[1.114787,42.429671],[1.114774,42.429671],[1.114674,42.429667],[1.114625,42.429654],[1.114566,42.429639],[1.114565,42.429641],[1.114477,42.429804],[1.114391,42.429781],[1.114384,42.429779],[1.114292,42.429742],[1.114243,42.429714],[1.114169,42.429673],[1.114167,42.429672],[1.114131,42.429651],[1.114106,42.429675],[1.114116,42.429683],[1.114143,42.429699],[1.113992,42.429814],[1.113959,42.429859],[1.113941,42.429894],[1.113946,42.429943],[1.113925,42.429954],[1.113918,42.430031],[1.11384,42.430076],[1.11369,42.430148],[1.113584,42.430179],[1.113579,42.4302],[1.113576,42.430203],[1.113526,42.430181],[1.113491,42.430186],[1.113445,42.430204],[1.113432,42.430238],[1.11343,42.430288],[1.113439,42.430296],[1.113492,42.430351],[1.113575,42.430397],[1.113618,42.43046],[1.113588,42.430488],[1.113549,42.430504],[1.113488,42.430505],[1.113418,42.430569],[1.113215,42.430501],[1.113195,42.430522],[1.113134,42.430635],[1.113076,42.430737],[1.113013,42.4308],[1.112954,42.430835],[1.112886,42.43087],[1.112843,42.430866],[1.112684,42.430854],[1.112623,42.430853],[1.112527,42.430852],[1.11252,42.430852],[1.112515,42.430877],[1.112489,42.431031],[1.112485,42.431057],[1.112484,42.431061],[1.112565,42.431172],[1.112526,42.431206],[1.112499,42.43123],[1.112499,42.431231],[1.1125,42.431271],[1.112501,42.431273],[1.112648,42.431283],[1.112808,42.431299],[1.112869,42.431305],[1.112919,42.431318],[1.112965,42.431329],[1.112965,42.431329],[1.113023,42.431344],[1.113092,42.431385],[1.113127,42.431412],[1.113158,42.431436],[1.113168,42.431444],[1.113192,42.431473],[1.11322,42.431508],[1.113227,42.431516],[1.113276,42.431501],[1.113326,42.431486],[1.113359,42.431475],[1.113366,42.431473],[1.113359,42.43138],[1.113344,42.431346],[1.113418,42.431233],[1.113474,42.431079],[1.113515,42.431064],[1.11354,42.431054],[1.113565,42.431036],[1.113595,42.431015]]]]}},{"type":"Feature","id":"252094_252094 AP02 PSO 2","properties":{"area_id":"252094_252094 AP02 PSO 2","nom":"Pernui","codi_icgc":"252094 AP02 PSO 2","categoria":"Àrees de poblament","codi_municipi":"252094","municipi":"Sort","codi_comarca":"26","comarca":"Pallars Sobirà","provincia":"Lleida","font":"ICGC Àrees de poblament v3r1 202602"},"geometry":{"type":"MultiPolygon","coordinates":[[[[1.141924,42.414517],[1.142131,42.414559],[1.142318,42.414584],[1.142466,42.414458],[1.142444,42.414239],[1.142445,42.41405],[1.142393,42.413856],[1.142085,42.413822],[1.141805,42.413811],[1.141552,42.413914],[1.14149,42.414031],[1.141678,42.414198],[1.141778,42.414407],[1.141924,42.414517]]]]}},{"type":"Feature","id":"252094_252094 SI01 PSO 2","properties":{"area_id":"252094_252094 SI01 PSO 2","nom":"Polígon industrial Els Salacons","codi_icgc":"252094 SI01 PSO 2","categoria":"Sector industrial","codi_municipi":"252094","municipi":"Sort","codi_comarca":"26","comarca":"Pallars Sobirà","provincia":"Lleida","font":"ICGC Àrees de poblament v3r1 202602"},"geometry":{"type":"MultiPolygon","coordinates":[[[[1.131311,42.406114],[1.131504,42.40614],[1.131645,42.405888],[1.131823,42.405569],[1.131898,42.405442],[1.132014,42.405252],[1.132129,42.405064],[1.132359,42.404669],[1.132478,42.404459],[1.132488,42.404442],[1.132529,42.404369],[1.132547,42.404338],[1.132584,42.404273],[1.132593,42.404258],[1.132596,42.404256],[1.132594,42.404255],[1.132334,42.404177],[1.131723,42.403983],[1.131689,42.404072],[1.131654,42.404162],[1.131617,42.404252],[1.131557,42.404387],[1.131496,42.404522],[1.131399,42.404745],[1.131302,42.404968],[1.13124,42.405103],[1.13121,42.405166],[1.131191,42.405207],[1.131224,42.405302],[1.131354,42.405343],[1.13135,42.405353],[1.131255,42.405514],[1.131265,42.405618],[1.131234,42.405622],[1.131236,42.405637],[1.131254,42.405873],[1.131334,42.405998],[1.131311,42.406114]]]]}},{"type":"Feature","id":"252094_252094 AP09 PSO 3","properties":{"area_id":"252094_252094 AP09 PSO 3","nom":"Pujalt","codi_icgc":"252094 AP09 PSO 3","categoria":"Àrees de poblament","codi_municipi":"252094","municipi":"Sort","codi_comarca":"26","comarca":"Pallars Sobirà","provincia":"Lleida","font":"ICGC Àrees de poblament v3r1 202602"},"geometry":{"type":"MultiPolygon","coordinates":[[[[1.112017,42.416792],[1.11217,42.41683],[1.112395,42.416716],[1.112129,42.41656],[1.112051,42.41646],[1.112019,42.416402],[1.111982,42.416348],[1.111921,42.416286],[1.111855,42.41625],[1.11174,42.416215],[1.111638,42.416217],[1.111532,42.41623],[1.11127,42.416118],[1.11123,42.416007],[1.111154,42.415959],[1.110772,42.415824],[1.110582,42.41575],[1.110482,42.415687],[1.110412,42.415632],[1.110346,42.41556],[1.110259,42.415583],[1.110128,42.415606],[1.110022,42.41559],[1.109729,42.416043],[1.109776,42.416062],[1.109933,42.416132],[1.110072,42.416188],[1.110038,42.416363],[1.110095,42.416388],[1.110329,42.41645],[1.110608,42.41649],[1.110837,42.416572],[1.11096,42.416639],[1.111251,42.416736],[1.111424,42.416782],[1.111602,42.416785],[1.111723,42.416758],[1.111829,42.416766],[1.112017,42.416792]]]]}},{"type":"Feature","id":"252094_252094 AP16 PSO 3","properties":{"area_id":"252094_252094 AP16 PSO 3","nom":"Saurí","codi_icgc":"252094 AP16 PSO 3","categoria":"Àrees de poblament","codi_municipi":"252094","municipi":"Sort","codi_comarca":"26","comarca":"Pallars Sobirà","provincia":"Lleida","font":"ICGC Àrees de poblament v3r1 202602"},"geometry":{"type":"MultiPolygon","coordinates":[[[[1.072277,42.445535],[1.072474,42.445614],[1.072446,42.445683],[1.072456,42.445773],[1.072427,42.445875],[1.072326,42.446028],[1.072251,42.446065],[1.072239,42.446099],[1.072235,42.446109],[1.07223,42.446122],[1.072219,42.446151],[1.072434,42.446278],[1.072651,42.446239],[1.072838,42.446237],[1.073159,42.446247],[1.07317,42.446317],[1.073395,42.446318],[1.073388,42.44643],[1.073837,42.44638],[1.073846,42.446361],[1.073853,42.446346],[1.073864,42.446326],[1.073882,42.446288],[1.073886,42.44628],[1.073897,42.446256],[1.073899,42.446253],[1.073835,42.446228],[1.073785,42.44621],[1.073676,42.44617],[1.073678,42.446168],[1.073724,42.446095],[1.073727,42.44609],[1.073678,42.446068],[1.073716,42.446026],[1.073658,42.445989],[1.073761,42.445903],[1.073775,42.445883],[1.073658,42.445778],[1.073597,42.445738],[1.073603,42.445718],[1.073609,42.445699],[1.073617,42.445686],[1.073628,42.445677],[1.073648,42.44567],[1.073659,42.445669],[1.073669,42.44567],[1.073723,42.445687],[1.073777,42.445704],[1.073787,42.445718],[1.073765,42.445686],[1.073654,42.445524],[1.073679,42.445451],[1.073672,42.44537],[1.073715,42.445326],[1.073717,42.445316],[1.073716,42.445303],[1.073708,42.44527],[1.0737,42.445237],[1.073694,42.44521],[1.07369,42.445183],[1.073685,42.445149],[1.073682,42.445114],[1.073681,42.445096],[1.073687,42.445078],[1.073697,42.445067],[1.073714,42.445058],[1.073732,42.445049],[1.07375,42.44505],[1.073769,42.445054],[1.073789,42.445061],[1.073823,42.445078],[1.073853,42.445099],[1.073866,42.445113],[1.073878,42.445128],[1.073888,42.445144],[1.073895,42.445158],[1.073896,42.445168],[1.073881,42.44521],[1.073875,42.445227],[1.073876,42.445246],[1.073877,42.445272],[1.073884,42.445297],[1.073888,42.445315],[1.073897,42.445334],[1.07391,42.445346],[1.073914,42.445349],[1.073933,42.445362],[1.073956,42.445354],[1.074059,42.445319],[1.074054,42.445283],[1.074178,42.445238],[1.074107,42.445117],[1.073911,42.445123],[1.073858,42.44507],[1.073838,42.445063],[1.073797,42.445048],[1.073752,42.445031],[1.073743,42.445028],[1.073746,42.445001],[1.073748,42.44499],[1.073752,42.444981],[1.073782,42.444921],[1.07379,42.44491],[1.073763,42.444896],[1.07376,42.444895],[1.073787,42.444852],[1.073613,42.44479],[1.07353,42.444793],[1.073452,42.444808],[1.073486,42.444846],[1.073438,42.444873],[1.073411,42.444874],[1.07341,42.444874],[1.073381,42.444875],[1.073359,42.444876],[1.073272,42.444874],[1.073264,42.444879],[1.073229,42.444898],[1.073219,42.44492],[1.073212,42.444968],[1.073174,42.444965],[1.073081,42.444938],[1.072878,42.444844],[1.072836,42.444836],[1.072773,42.444843],[1.072755,42.444844],[1.072704,42.44486],[1.072641,42.444878],[1.072632,42.444976],[1.072637,42.445007],[1.072654,42.445102],[1.072779,42.445102],[1.072943,42.445107],[1.072953,42.445193],[1.072957,42.445293],[1.072957,42.445296],[1.072899,42.445298],[1.072899,42.445329],[1.072838,42.445328],[1.072785,42.44549],[1.072762,42.445495],[1.072677,42.445442],[1.072663,42.445445],[1.072525,42.445473],[1.0723,42.445449],[1.072286,42.445515],[1.072277,42.445535]]]]}},{"type":"Feature","id":"252094_252094 AP14 PSO 3","properties":{"area_id":"252094_252094 AP14 PSO 3","nom":"Sorre","codi_icgc":"252094 AP14 PSO 3","categoria":"Àrees de poblament","codi_municipi":"252094","municipi":"Sort","codi_comarca":"26","comarca":"Pallars Sobirà","provincia":"Lleida","font":"ICGC Àrees de poblament v3r1 202602"},"geometry":{"type":"MultiPolygon","coordinates":[[[[1.097778,42.451776],[1.09777,42.451809],[1.097728,42.451896],[1.097694,42.451967],[1.097641,42.452078],[1.097579,42.452184],[1.097539,42.452252],[1.097508,42.452308],[1.097457,42.452326],[1.097442,42.452349],[1.097424,42.45237],[1.097423,42.452378],[1.097419,42.452409],[1.097422,42.452408],[1.097408,42.452421],[1.097406,42.452423],[1.09729,42.452516],[1.097255,42.452534],[1.097207,42.45256],[1.097206,42.452561],[1.097372,42.452638],[1.097444,42.452672],[1.097444,42.452672],[1.097329,42.452824],[1.097336,42.45288],[1.097341,42.45291],[1.09743,42.453116],[1.097453,42.453169],[1.097456,42.45319],[1.097461,42.453226],[1.097465,42.453226],[1.097582,42.453235],[1.097587,42.453232],[1.097637,42.453203],[1.09767,42.453183],[1.097744,42.45312],[1.097749,42.453112],[1.09778,42.453056],[1.097786,42.453045],[1.097806,42.453003],[1.097806,42.453003],[1.097861,42.45295],[1.097885,42.452935],[1.097924,42.452895],[1.097955,42.452878],[1.098025,42.452933],[1.098014,42.45295],[1.098002,42.452968],[1.097998,42.452979],[1.097999,42.452998],[1.098003,42.453016],[1.098005,42.453026],[1.098017,42.453053],[1.098024,42.453068],[1.098088,42.4531],[1.098139,42.453099],[1.098164,42.453059],[1.098269,42.453038],[1.098347,42.453026],[1.098424,42.452978],[1.098434,42.452975],[1.098494,42.452956],[1.098502,42.452954],[1.098585,42.452945],[1.098662,42.452953],[1.09869,42.452946],[1.098701,42.452943],[1.098708,42.452933],[1.098723,42.452914],[1.098736,42.452897],[1.098772,42.452832],[1.098802,42.452777],[1.098832,42.452734],[1.098842,42.452733],[1.098871,42.452728],[1.098943,42.452747],[1.09902,42.452741],[1.099036,42.452734],[1.099067,42.45272],[1.099089,42.45271],[1.099104,42.452674],[1.099106,42.452618],[1.099107,42.452592],[1.099097,42.45258],[1.098964,42.452418],[1.098958,42.452411],[1.098958,42.452411],[1.098971,42.452378],[1.098972,42.452376],[1.098979,42.452358],[1.098997,42.452313],[1.099005,42.452294],[1.099012,42.452219],[1.099013,42.452187],[1.099015,42.452173],[1.099015,42.452165],[1.099011,42.452157],[1.098997,42.452143],[1.098958,42.452118],[1.098937,42.452106],[1.098914,42.452096],[1.0989,42.452091],[1.098848,42.45207],[1.098836,42.452078],[1.098831,42.452081],[1.098779,42.452115],[1.09864,42.452066],[1.098627,42.452063],[1.098607,42.452054],[1.098576,42.452045],[1.098565,42.452045],[1.098564,42.452045],[1.098559,42.452044],[1.098556,42.452046],[1.098554,42.452047],[1.098533,42.452057],[1.098525,42.452066],[1.098515,42.452084],[1.098489,42.452107],[1.098456,42.452093],[1.098351,42.452051],[1.09832,42.452041],[1.098231,42.45201],[1.098142,42.45198],[1.09808,42.451958],[1.09804,42.451938],[1.097961,42.451899],[1.097919,42.451878],[1.097982,42.4518],[1.098038,42.451731],[1.098082,42.451694],[1.098087,42.451531],[1.09803,42.451423],[1.097886,42.451411],[1.097882,42.451411],[1.097878,42.451653],[1.097784,42.451755],[1.097778,42.451776]]]]}},{"type":"Feature","id":"252094_252094 AP01 PSO 3","properties":{"area_id":"252094_252094 AP01 PSO 3","nom":"Sort","codi_icgc":"252094 AP01 PSO 3","categoria":"Àrees de poblament","codi_municipi":"252094","municipi":"Sort","codi_comarca":"26","comarca":"Pallars Sobirà","provincia":"Lleida","font":"ICGC Àrees de poblament v3r1 202602"},"geometry":{"type":"MultiPolygon","coordinates":[[[[1.130533,42.407547],[1.130481,42.407703],[1.13041,42.407947],[1.130363,42.408213],[1.130361,42.408237],[1.130344,42.408555],[1.130356,42.408736],[1.130425,42.409078],[1.130456,42.409165],[1.130515,42.409329],[1.129995,42.409462],[1.129949,42.409475],[1.129923,42.409473],[1.1299,42.409465],[1.129881,42.409453],[1.129868,42.409437],[1.129849,42.409395],[1.129795,42.409271],[1.129789,42.409258],[1.129733,42.409136],[1.129684,42.408979],[1.129666,42.408892],[1.129616,42.40847],[1.129604,42.408048],[1.12963,42.407676],[1.129653,42.407209],[1.129636,42.407144],[1.129651,42.407064],[1.129659,42.407026],[1.129692,42.406966],[1.129771,42.406821],[1.129843,42.406661],[1.129855,42.406616],[1.129864,42.406583],[1.129887,42.406499],[1.129894,42.406472],[1.129897,42.406447],[1.129919,42.406354],[1.130006,42.406173],[1.130093,42.405988],[1.130215,42.405804],[1.130301,42.40567],[1.130367,42.405535],[1.1304,42.405404],[1.130459,42.405201],[1.130541,42.404959],[1.130593,42.404835],[1.130729,42.404584],[1.130818,42.404418],[1.130891,42.404256],[1.130852,42.404241],[1.130107,42.404],[1.129811,42.404429],[1.129538,42.404882],[1.12934,42.405222],[1.129235,42.405338],[1.129207,42.405456],[1.129144,42.405637],[1.128956,42.405802],[1.128823,42.405892],[1.128782,42.405967],[1.128756,42.406056],[1.128703,42.406205],[1.129041,42.406278],[1.129039,42.406281],[1.129019,42.406312],[1.128863,42.40656],[1.128836,42.406606],[1.128793,42.406679],[1.128652,42.407032],[1.128321,42.4078],[1.128303,42.407842],[1.128266,42.407923],[1.128193,42.407952],[1.127786,42.408332],[1.127359,42.408761],[1.127254,42.409013],[1.127423,42.409342],[1.127501,42.409493],[1.127596,42.409579],[1.127681,42.409635],[1.127614,42.409677],[1.127287,42.409881],[1.127287,42.409881],[1.127323,42.409953],[1.127329,42.410012],[1.12733,42.410012],[1.127413,42.410057],[1.127563,42.410134],[1.127628,42.41021],[1.127672,42.410261],[1.127686,42.410294],[1.127728,42.41039],[1.127786,42.410465],[1.12783,42.410493],[1.127906,42.410484],[1.128169,42.410519],[1.128224,42.410524],[1.128279,42.410528],[1.128303,42.410534],[1.128319,42.410542],[1.12834,42.410556],[1.128356,42.410571],[1.128355,42.410577],[1.128352,42.41058],[1.128342,42.410587],[1.128343,42.410587],[1.128336,42.410595],[1.128333,42.410613],[1.128335,42.410621],[1.128343,42.410628],[1.12837,42.410636],[1.128412,42.41064],[1.128453,42.410647],[1.128597,42.410691],[1.128741,42.410738],[1.1288,42.410759],[1.128887,42.410794],[1.128972,42.410834],[1.128997,42.410849],[1.128999,42.410852],[1.129032,42.410886],[1.12904,42.410894],[1.129041,42.410899],[1.129054,42.410956],[1.129051,42.410964],[1.129045,42.410976],[1.129019,42.411003],[1.128992,42.411031],[1.128968,42.411064],[1.128959,42.41108],[1.128952,42.411098],[1.128951,42.411114],[1.128955,42.411138],[1.128965,42.411162],[1.128999,42.411226],[1.12902,42.411256],[1.129032,42.41127],[1.129045,42.411286],[1.129076,42.411313],[1.129113,42.411337],[1.129137,42.41135],[1.129149,42.411354],[1.129163,42.411356],[1.129193,42.411354],[1.129223,42.411353],[1.129333,42.411527],[1.12935,42.411562],[1.129308,42.4116],[1.129281,42.411625],[1.129362,42.411729],[1.129418,42.411801],[1.129419,42.411801],[1.129421,42.411801],[1.129527,42.411791],[1.129598,42.41179],[1.129633,42.41179],[1.129652,42.41179],[1.129672,42.411791],[1.129789,42.411795],[1.129935,42.411866],[1.1298,42.411953],[1.12983,42.41204],[1.129521,42.412151],[1.129465,42.412278],[1.129463,42.412281],[1.129459,42.412286],[1.129409,42.412349],[1.129403,42.412352],[1.129402,42.412352],[1.129353,42.412382],[1.129337,42.412393],[1.12929,42.412469],[1.129289,42.412475],[1.129284,42.412512],[1.129283,42.412518],[1.12928,42.412525],[1.129251,42.412596],[1.129247,42.412605],[1.129247,42.412606],[1.129247,42.412606],[1.129235,42.412637],[1.129233,42.412644],[1.12922,42.412735],[1.129218,42.412767],[1.129212,42.412877],[1.129211,42.412896],[1.129208,42.412906],[1.129179,42.413023],[1.129115,42.41315],[1.129027,42.413256],[1.128972,42.41335],[1.128975,42.413407],[1.129004,42.413485],[1.129118,42.413594],[1.129267,42.413707],[1.129286,42.413734],[1.129261,42.413769],[1.129256,42.413805],[1.129295,42.413841],[1.129576,42.413993],[1.129717,42.414087],[1.129747,42.414116],[1.129764,42.414118],[1.129841,42.414171],[1.129849,42.414176],[1.129875,42.414196],[1.129891,42.414208],[1.129896,42.414213],[1.129906,42.414223],[1.129917,42.414235],[1.129934,42.414253],[1.129974,42.414301],[1.129996,42.414328],[1.130072,42.414428],[1.130074,42.414432],[1.130075,42.414441],[1.130073,42.414446],[1.130072,42.414447],[1.130144,42.414509],[1.130146,42.414511],[1.130246,42.414494],[1.130326,42.414487],[1.130396,42.414494],[1.130439,42.414487],[1.130488,42.414819],[1.130499,42.414988],[1.130495,42.415063],[1.130465,42.415206],[1.130429,42.415277],[1.130463,42.4153],[1.130452,42.415302],[1.130416,42.415473],[1.130391,42.415569],[1.13038,42.41565],[1.130353,42.415753],[1.130331,42.415814],[1.130366,42.415896],[1.130307,42.415926],[1.130306,42.415929],[1.130253,42.415952],[1.130151,42.415997],[1.13002,42.416049],[1.129888,42.416103],[1.129811,42.416139],[1.129729,42.416172],[1.129671,42.416195],[1.129632,42.416215],[1.129615,42.416231],[1.129607,42.416245],[1.129602,42.416255],[1.129601,42.416279],[1.129605,42.4163],[1.129619,42.416335],[1.129641,42.416368],[1.129683,42.416408],[1.129699,42.41642],[1.129746,42.416446],[1.129797,42.416468],[1.12983,42.416482],[1.129865,42.416492],[1.129928,42.416505],[1.129989,42.416516],[1.13023,42.416554],[1.130469,42.416594],[1.130647,42.416628],[1.130851,42.416669],[1.130979,42.416688],[1.131032,42.41664],[1.131138,42.416465],[1.131311,42.416189],[1.131334,42.416111],[1.131357,42.415841],[1.131612,42.415824],[1.131625,42.415849],[1.131666,42.415932],[1.131711,42.41602],[1.131746,42.416089],[1.131789,42.416149],[1.131828,42.416201],[1.131924,42.416321],[1.131944,42.416349],[1.131992,42.416392],[1.132027,42.416423],[1.13224,42.416384],[1.132273,42.41637],[1.13225,42.41625],[1.132246,42.416209],[1.13224,42.416091],[1.132245,42.415997],[1.132254,42.415877],[1.132277,42.415714],[1.132306,42.415575],[1.132348,42.415387],[1.132409,42.415233],[1.132484,42.415059],[1.132614,42.414755],[1.132713,42.414522],[1.132769,42.414364],[1.132785,42.41426],[1.132791,42.414142],[1.132782,42.414031],[1.132769,42.413955],[1.132731,42.413836],[1.132667,42.413645],[1.132572,42.413379],[1.132419,42.412968],[1.13231,42.412656],[1.132245,42.412439],[1.132147,42.412169],[1.132097,42.412044],[1.131974,42.41175],[1.131856,42.411503],[1.13174,42.411333],[1.131605,42.411167],[1.131476,42.411027],[1.131363,42.410923],[1.131243,42.410816],[1.131022,42.410618],[1.130825,42.410435],[1.130675,42.410288],[1.130533,42.41013],[1.130458,42.410043],[1.130241,42.409773],[1.130112,42.409592],[1.130081,42.409529],[1.130577,42.409408],[1.130611,42.409467],[1.130636,42.409511],[1.130684,42.409594],[1.130777,42.409705],[1.130889,42.409831],[1.130967,42.409807],[1.130975,42.409787],[1.131079,42.409741],[1.131116,42.409732],[1.131133,42.409769],[1.131242,42.409747],[1.131258,42.409778],[1.13139,42.409745],[1.131491,42.409723],[1.131519,42.409673],[1.131542,42.409632],[1.131588,42.409534],[1.131591,42.409513],[1.131597,42.409465],[1.131463,42.409443],[1.131461,42.409442],[1.13139,42.40943],[1.131287,42.409413],[1.131211,42.409399],[1.131155,42.409387],[1.131115,42.409376],[1.131057,42.409356],[1.131003,42.409331],[1.130974,42.409313],[1.130944,42.409292],[1.130893,42.409256],[1.131029,42.409221],[1.131056,42.409214],[1.131147,42.409194],[1.1316,42.409079],[1.131886,42.409012],[1.132084,42.408964],[1.132237,42.408925],[1.132241,42.408924],[1.132295,42.408909],[1.132411,42.408877],[1.132526,42.408827],[1.132642,42.408766],[1.13267,42.408746],[1.132758,42.408685],[1.132841,42.408624],[1.132864,42.408607],[1.132966,42.40851],[1.132993,42.408479],[1.133012,42.408458],[1.133159,42.408294],[1.133289,42.408155],[1.133426,42.408007],[1.133456,42.407975],[1.133694,42.407761],[1.134003,42.407495],[1.134019,42.407482],[1.13413,42.407395],[1.134159,42.407373],[1.134202,42.407344],[1.134222,42.407331],[1.134306,42.407275],[1.134334,42.40726],[1.134479,42.407182],[1.134677,42.407059],[1.134709,42.40704],[1.134976,42.406877],[1.134977,42.406878],[1.135029,42.406929],[1.13503,42.40693],[1.134986,42.406988],[1.134864,42.407098],[1.134738,42.407232],[1.134615,42.407366],[1.134586,42.407412],[1.134576,42.407428],[1.134554,42.407463],[1.134529,42.407551],[1.134489,42.4077],[1.134481,42.40778],[1.134471,42.407866],[1.134469,42.40791],[1.134464,42.408009],[1.134465,42.40808],[1.134466,42.40815],[1.134464,42.408224],[1.134463,42.408269],[1.134465,42.40842],[1.134474,42.408453],[1.134493,42.408525],[1.134496,42.408538],[1.134568,42.408722],[1.134646,42.408879],[1.134654,42.408895],[1.134686,42.40896],[1.134714,42.408991],[1.134747,42.409029],[1.134814,42.409084],[1.134827,42.409094],[1.134941,42.409164],[1.135016,42.409233],[1.135023,42.409298],[1.135029,42.409394],[1.13503,42.409401],[1.135022,42.409508],[1.135022,42.409508],[1.135011,42.40958],[1.13501,42.409583],[1.135021,42.409593],[1.135035,42.409607],[1.135048,42.40962],[1.135047,42.409621],[1.134953,42.409893],[1.134976,42.409898],[1.135125,42.409925],[1.135337,42.409946],[1.135422,42.409951],[1.135753,42.409969],[1.135881,42.409976],[1.136099,42.409933],[1.136184,42.4099],[1.136187,42.409899],[1.136195,42.409856],[1.136197,42.409845],[1.136199,42.409839],[1.136223,42.409839],[1.136262,42.409811],[1.136318,42.409715],[1.136325,42.409648],[1.136317,42.409594],[1.136231,42.409546],[1.136084,42.409465],[1.136421,42.409181],[1.136355,42.409112],[1.136224,42.408988],[1.136094,42.408797],[1.136018,42.40862],[1.135959,42.408424],[1.136053,42.408295],[1.136086,42.408155],[1.136125,42.408151],[1.136427,42.408276],[1.136771,42.408327],[1.137072,42.407932],[1.137015,42.407839],[1.136888,42.40776],[1.136559,42.407751],[1.136221,42.407789],[1.136249,42.407642],[1.136274,42.407443],[1.136318,42.407286],[1.13633,42.407207],[1.136339,42.407201],[1.13639,42.407116],[1.136504,42.406965],[1.136569,42.406845],[1.135836,42.406634],[1.135832,42.406633],[1.135575,42.40653],[1.135499,42.4065],[1.135333,42.406434],[1.135037,42.406348],[1.134346,42.406766],[1.134333,42.406771],[1.134306,42.406784],[1.134274,42.406798],[1.13416,42.4069],[1.134156,42.406903],[1.134065,42.406955],[1.133855,42.407077],[1.13382,42.407043],[1.1338,42.407023],[1.133795,42.407019],[1.133691,42.40702],[1.133546,42.407022],[1.133544,42.407022],[1.133435,42.407051],[1.132951,42.407179],[1.132585,42.407285],[1.132567,42.407289],[1.131854,42.407467],[1.13185,42.407468],[1.131786,42.407331],[1.131744,42.40724],[1.13172,42.407194],[1.131583,42.406923],[1.13158,42.406919],[1.131564,42.406896],[1.131555,42.406882],[1.131514,42.406843],[1.131266,42.406742],[1.131203,42.406715],[1.131331,42.406458],[1.131332,42.406413],[1.131303,42.406113],[1.131289,42.406112],[1.131176,42.40587],[1.130982,42.405845],[1.130976,42.40585],[1.13091,42.406048],[1.130818,42.406056],[1.130755,42.406248],[1.1307,42.406476],[1.130651,42.406704],[1.130645,42.406809],[1.130627,42.406882],[1.130607,42.406911],[1.130513,42.407023],[1.130507,42.407121],[1.13054,42.4073],[1.130553,42.4074],[1.130585,42.407443],[1.130533,42.407547]]]]}},{"type":"Feature","id":"252094_252094 AP03 PSO 2","properties":{"area_id":"252094_252094 AP03 PSO 2","nom":"Torre","codi_icgc":"252094 AP03 PSO 2","categoria":"Àrees de poblament","codi_municipi":"252094","municipi":"Sort","codi_comarca":"26","comarca":"Pallars Sobirà","provincia":"Lleida","font":"ICGC Àrees de poblament v3r1 202602"},"geometry":{"type":"MultiPolygon","coordinates":[[[[1.075346,42.45322],[1.075663,42.453084],[1.075781,42.453088],[1.075804,42.452975],[1.075845,42.452968],[1.075853,42.452966],[1.075858,42.452966],[1.075858,42.452965],[1.075931,42.452848],[1.076024,42.45276],[1.076179,42.452708],[1.076427,42.452711],[1.076459,42.452713],[1.076607,42.452722],[1.076608,42.452725],[1.076628,42.452776],[1.076672,42.452856],[1.07692,42.45283],[1.076894,42.452748],[1.076897,42.452742],[1.076904,42.452725],[1.076892,42.452721],[1.076836,42.452717],[1.076824,42.452713],[1.076814,42.452701],[1.07681,42.452693],[1.07684,42.452693],[1.076852,42.452606],[1.076872,42.452563],[1.07691,42.452572],[1.076955,42.452532],[1.076987,42.452441],[1.076876,42.452416],[1.076873,42.452395],[1.076872,42.452395],[1.076869,42.452368],[1.076862,42.452288],[1.07688,42.45228],[1.07692,42.452254],[1.076939,42.452222],[1.076924,42.45219],[1.076902,42.452094],[1.076894,42.452059],[1.076883,42.452012],[1.076888,42.451996],[1.076897,42.451961],[1.076914,42.451943],[1.076952,42.451895],[1.076997,42.451865],[1.077017,42.451851],[1.077036,42.451851],[1.077054,42.45185],[1.077074,42.451849],[1.077209,42.451884],[1.077289,42.451913],[1.077321,42.451925],[1.077322,42.451923],[1.077336,42.451906],[1.077329,42.451905],[1.077327,42.451904],[1.077267,42.451884],[1.077372,42.451748],[1.077382,42.451727],[1.077392,42.451705],[1.077405,42.451686],[1.077422,42.451669],[1.077436,42.451659],[1.07744,42.451658],[1.077429,42.451634],[1.077404,42.451575],[1.077238,42.451483],[1.077034,42.451423],[1.077102,42.451323],[1.077122,42.451289],[1.077153,42.451237],[1.077157,42.451231],[1.077049,42.451194],[1.076998,42.451182],[1.07692,42.451159],[1.076789,42.451123],[1.076734,42.451105],[1.076644,42.45108],[1.076601,42.451068],[1.076587,42.451064],[1.076582,42.451064],[1.076502,42.451062],[1.076501,42.45106],[1.076488,42.45106],[1.076448,42.451063],[1.07643,42.451029],[1.076389,42.450976],[1.076413,42.450965],[1.076367,42.450912],[1.07631,42.450935],[1.076236,42.450841],[1.076291,42.450829],[1.076252,42.450726],[1.076227,42.450731],[1.076218,42.450701],[1.0762,42.450704],[1.076153,42.450625],[1.07609,42.450594],[1.076009,42.450552],[1.076039,42.450512],[1.075948,42.450469],[1.075835,42.45044],[1.075826,42.450465],[1.075799,42.45047],[1.075785,42.450476],[1.075744,42.450491],[1.075689,42.450505],[1.075674,42.450509],[1.075668,42.450496],[1.075501,42.450573],[1.075437,42.45063],[1.075431,42.450637],[1.075375,42.450707],[1.075377,42.450718],[1.075389,42.450776],[1.075403,42.450788],[1.075409,42.450794],[1.075451,42.450829],[1.075509,42.450936],[1.075566,42.451053],[1.075575,42.451061],[1.075586,42.451071],[1.075623,42.451105],[1.075629,42.45111],[1.075636,42.451116],[1.075873,42.451263],[1.076024,42.451426],[1.076069,42.451531],[1.076072,42.45155],[1.076075,42.451576],[1.076089,42.451688],[1.076185,42.451861],[1.076215,42.451897],[1.076226,42.451911],[1.076272,42.451964],[1.07632,42.452021],[1.076336,42.452066],[1.076386,42.452207],[1.076391,42.452219],[1.076387,42.452347],[1.076386,42.452365],[1.076316,42.452457],[1.07615,42.452639],[1.076149,42.45264],[1.076148,42.45264],[1.076053,42.452685],[1.075945,42.45274],[1.075828,42.452785],[1.075769,42.452794],[1.075758,42.452795],[1.075705,42.452804],[1.075702,42.452804],[1.075701,42.452804],[1.075611,42.452799],[1.07549,42.452793],[1.075423,42.452784],[1.075298,42.452765],[1.075213,42.45276],[1.075223,42.452774],[1.075253,42.452815],[1.075255,42.452851],[1.075256,42.452865],[1.075251,42.45288],[1.075246,42.452886],[1.075224,42.452918],[1.075192,42.45294],[1.075142,42.45297],[1.075134,42.452991],[1.075123,42.453015],[1.075123,42.453015],[1.075123,42.453016],[1.075124,42.453023],[1.075127,42.453052],[1.075146,42.453077],[1.075159,42.453094],[1.075163,42.453102],[1.075176,42.453131],[1.075177,42.453135],[1.075188,42.453169],[1.07519,42.453188],[1.075191,42.453192],[1.075192,42.453201],[1.07519,42.453205],[1.075173,42.453232],[1.075175,42.453232],[1.075223,42.453253],[1.075239,42.453259],[1.075289,42.453277],[1.075289,42.453276],[1.075306,42.45326],[1.075346,42.45322]]]]}},{"type":"Feature","id":"252094_252094 AP11 PSO 3","properties":{"area_id":"252094_252094 AP11 PSO 3","nom":"la Bastida de Sort","codi_icgc":"252094 AP11 PSO 3","categoria":"Àrees de poblament","codi_municipi":"252094","municipi":"Sort","codi_comarca":"26","comarca":"Pallars Sobirà","provincia":"Lleida","font":"ICGC Àrees de poblament v3r1 202602"},"geometry":{"type":"MultiPolygon","coordinates":[[[[1.129948,42.425372],[1.130122,42.425396],[1.13015,42.425439],[1.130142,42.425536],[1.130101,42.425598],[1.129997,42.425652],[1.129875,42.425682],[1.129676,42.4257],[1.129444,42.425709],[1.129243,42.425723],[1.129263,42.425916],[1.12955,42.425949],[1.12972,42.425946],[1.129888,42.425928],[1.129994,42.425897],[1.13014,42.42585],[1.130216,42.425819],[1.130288,42.42579],[1.130534,42.425845],[1.130512,42.425893],[1.130824,42.426022],[1.131138,42.426044],[1.131329,42.426024],[1.131557,42.425959],[1.131503,42.425871],[1.131444,42.425782],[1.131391,42.425728],[1.131354,42.425695],[1.131311,42.425679],[1.131397,42.425383],[1.131323,42.425343],[1.131333,42.425277],[1.13133,42.425185],[1.131328,42.42509],[1.131311,42.425057],[1.13117,42.425055],[1.1307,42.425114],[1.130674,42.42518],[1.130515,42.425187],[1.130364,42.425164],[1.130279,42.425149],[1.130207,42.42515],[1.130118,42.42519],[1.130068,42.425228],[1.129598,42.425136],[1.129562,42.42521],[1.129507,42.42532],[1.129743,42.425346],[1.129948,42.425372]]]]}},{"type":"Feature","id":"252094_252094 AP18 PSO 2","properties":{"area_id":"252094_252094 AP18 PSO 2","nom":"la Borda d'Arnaldo","codi_icgc":"252094 AP18 PSO 2","categoria":"Àrees de poblament","codi_municipi":"252094","municipi":"Sort","codi_comarca":"26","comarca":"Pallars Sobirà","provincia":"Lleida","font":"ICGC Àrees de poblament v3r1 202602"},"geometry":{"type":"MultiPolygon","coordinates":[[[[1.117015,42.382296],[1.117163,42.381863],[1.117221,42.381687],[1.117299,42.381442],[1.117408,42.381158],[1.117473,42.380976],[1.117213,42.380922],[1.117145,42.381061],[1.116455,42.380899],[1.11568,42.380726],[1.115746,42.380583],[1.115384,42.380494],[1.115336,42.380599],[1.115149,42.38105],[1.115061,42.381267],[1.114858,42.381742],[1.114729,42.382051],[1.114689,42.382142],[1.114878,42.38231],[1.115104,42.382499],[1.115186,42.382558],[1.11525,42.382559],[1.115481,42.382582],[1.115654,42.382584],[1.115733,42.382538],[1.115822,42.382344],[1.115881,42.382302],[1.115984,42.382309],[1.116533,42.382437],[1.116649,42.382215],[1.117015,42.382296]]]]}},{"type":"Feature","id":"252094_252094 AP20 PSO 2","properties":{"area_id":"252094_252094 AP20 PSO 2","nom":"les Bordes de Llarvén","codi_icgc":"252094 AP20 PSO 2","categoria":"Àrees de poblament","codi_municipi":"252094","municipi":"Sort","codi_comarca":"26","comarca":"Pallars Sobirà","provincia":"Lleida","font":"ICGC Àrees de poblament v3r1 202602"},"geometry":{"type":"MultiPolygon","coordinates":[[[[1.073857,42.409286],[1.07402,42.409485],[1.074328,42.409351],[1.074159,42.409173],[1.073857,42.409286]]]]}},{"type":"Feature","id":"252094_252094 AP21 PSO 2","properties":{"area_id":"252094_252094 AP21 PSO 2","nom":"les Bordes del Forn","codi_icgc":"252094 AP21 PSO 2","categoria":"Àrees de poblament","codi_municipi":"252094","municipi":"Sort","codi_comarca":"26","comarca":"Pallars Sobirà","provincia":"Lleida","font":"ICGC Àrees de poblament v3r1 202602"},"geometry":{"type":"MultiPolygon","coordinates":[[[[1.088498,42.396857],[1.088663,42.396862],[1.088742,42.396829],[1.088747,42.396807],[1.088746,42.396766],[1.088738,42.396742],[1.088697,42.396731],[1.088667,42.39673],[1.088667,42.396703],[1.088503,42.396704],[1.088498,42.396857]]]]}}]}