{"type":"FeatureCollection","name":"ICGC Àrees de poblament - el Soleràs","features":[{"type":"Feature","id":"252069_252069 AP01 GAR 3","properties":{"area_id":"252069_252069 AP01 GAR 3","nom":"el Soleràs","codi_icgc":"252069 AP01 GAR 3","categoria":"Àrees de poblament","codi_municipi":"252069","municipi":"el Soleràs","codi_comarca":"18","comarca":"Garrigues","provincia":"Lleida","font":"ICGC Àrees de poblament v3r1 202602"},"geometry":{"type":"MultiPolygon","coordinates":[[[[0.681845,41.412047],[0.681618,41.411993],[0.681583,41.412084],[0.681708,41.412254],[0.681789,41.412354],[0.681906,41.412361],[0.681945,41.4125],[0.681947,41.412631],[0.681935,41.412705],[0.68186,41.412699],[0.681566,41.412674],[0.681161,41.412653],[0.681087,41.412421],[0.680967,41.412411],[0.680826,41.412454],[0.680391,41.412426],[0.680341,41.412381],[0.680319,41.412363],[0.680297,41.412344],[0.680251,41.412307],[0.680234,41.412295],[0.680208,41.412324],[0.680032,41.412544],[0.680027,41.412604],[0.680024,41.412635],[0.68002,41.412663],[0.680016,41.412672],[0.680001,41.412746],[0.679991,41.412775],[0.679927,41.412939],[0.67989,41.413037],[0.679875,41.413079],[0.679949,41.413093],[0.679951,41.413091],[0.68013,41.41313],[0.680245,41.413166],[0.68036,41.413225],[0.680338,41.413256],[0.680305,41.413313],[0.680255,41.413449],[0.680221,41.413622],[0.680217,41.413862],[0.680241,41.41398],[0.680282,41.414079],[0.680306,41.41413],[0.680247,41.414141],[0.680159,41.41416],[0.68007,41.414179],[0.680062,41.414185],[0.680056,41.414199],[0.680057,41.414206],[0.680063,41.414216],[0.680077,41.414227],[0.680103,41.414235],[0.680245,41.414284],[0.680315,41.414304],[0.680386,41.414325],[0.680506,41.41436],[0.680627,41.414392],[0.680684,41.414404],[0.680744,41.414418],[0.680763,41.41442],[0.680793,41.414422],[0.680825,41.41442],[0.680862,41.414413],[0.680898,41.414404],[0.681073,41.41433],[0.681261,41.414251],[0.681403,41.414158],[0.681428,41.41415],[0.681495,41.414128],[0.681561,41.414105],[0.68167,41.414062],[0.681675,41.41406],[0.681879,41.413971],[0.681776,41.413631],[0.681762,41.413592],[0.681762,41.413541],[0.681745,41.413527],[0.681966,41.413403],[0.6823,41.413557],[0.682316,41.413612],[0.682777,41.413587],[0.682819,41.413628],[0.68286,41.413928],[0.682436,41.413969],[0.682697,41.414757],[0.682796,41.414753],[0.683403,41.414733],[0.683384,41.414507],[0.683383,41.414493],[0.683376,41.414409],[0.683346,41.414056],[0.683305,41.413468],[0.683304,41.413426],[0.683355,41.413412],[0.683591,41.413353],[0.683827,41.413293],[0.683918,41.413269],[0.683946,41.413263],[0.683973,41.413256],[0.684011,41.41329],[0.68398,41.413633],[0.684131,41.413693],[0.684124,41.413923],[0.684156,41.413922],[0.684341,41.413917],[0.684482,41.413909],[0.684472,41.413836],[0.684461,41.413694],[0.684428,41.413492],[0.684421,41.413426],[0.684684,41.413395],[0.684777,41.41338],[0.684761,41.413344],[0.684974,41.413269],[0.684994,41.413243],[0.684914,41.41308],[0.684757,41.412766],[0.684795,41.412727],[0.684849,41.412675],[0.684906,41.412624],[0.685025,41.412525],[0.685058,41.412497],[0.685189,41.412871],[0.685297,41.412788],[0.685421,41.412749],[0.685406,41.412684],[0.685492,41.412666],[0.685677,41.412628],[0.685887,41.412582],[0.685979,41.412562],[0.685925,41.412483],[0.685895,41.412438],[0.685831,41.412331],[0.685741,41.412323],[0.685617,41.412346],[0.685412,41.412388],[0.685376,41.412287],[0.685369,41.412282],[0.685367,41.412275],[0.68537,41.412271],[0.685378,41.412267],[0.685399,41.41226],[0.685513,41.412222],[0.685628,41.412188],[0.685639,41.412185],[0.685676,41.412172],[0.685708,41.412154],[0.685735,41.412131],[0.685756,41.412105],[0.685769,41.412077],[0.685776,41.412047],[0.685776,41.412041],[0.685774,41.412014],[0.685765,41.411987],[0.685748,41.411963],[0.685725,41.411942],[0.685697,41.411925],[0.685665,41.411913],[0.685631,41.411906],[0.685596,41.411904],[0.685562,41.411902],[0.685533,41.411902],[0.685504,41.411904],[0.685448,41.411915],[0.685411,41.411926],[0.685363,41.411942],[0.685183,41.412007],[0.685004,41.412072],[0.684905,41.412108],[0.684834,41.412133],[0.684819,41.412138],[0.684805,41.412143],[0.684739,41.412161],[0.684666,41.412179],[0.684594,41.412196],[0.684579,41.412141],[0.684532,41.412076],[0.684473,41.412087],[0.684182,41.412093],[0.684158,41.412095],[0.684181,41.412211],[0.684056,41.4122],[0.684057,41.412156],[0.683995,41.412116],[0.6839,41.411931],[0.683877,41.411939],[0.683817,41.41196],[0.683752,41.411979],[0.683668,41.412003],[0.683595,41.412023],[0.683488,41.412059],[0.683446,41.412076],[0.683378,41.412107],[0.683371,41.412111],[0.683361,41.412116],[0.683336,41.412129],[0.683297,41.412149],[0.683258,41.412169],[0.683225,41.412183],[0.68316,41.412201],[0.683056,41.41222],[0.683003,41.41223],[0.68295,41.412244],[0.682883,41.412265],[0.682787,41.412302],[0.682694,41.412346],[0.682676,41.412364],[0.682662,41.412391],[0.682656,41.4124],[0.682648,41.412406],[0.682625,41.412415],[0.682587,41.412427],[0.682547,41.412438],[0.682498,41.412451],[0.682474,41.412451],[0.682449,41.412442],[0.682415,41.412399],[0.68237,41.412405],[0.682358,41.412386],[0.68235,41.412364],[0.68234,41.412335],[0.682328,41.412314],[0.682306,41.412291],[0.682242,41.412246],[0.682181,41.412205],[0.682121,41.412164],[0.682058,41.412122],[0.682023,41.412103],[0.681984,41.412087],[0.681909,41.412064],[0.681845,41.412047]]]]}}]}