{"type":"FeatureCollection","name":"ICGC Àrees de poblament - la Torre de Cabdella","features":[{"type":"Feature","id":"252271_252271 AP07 PJU 3","properties":{"area_id":"252271_252271 AP07 PJU 3","nom":"Aguiró","codi_icgc":"252271 AP07 PJU 3","categoria":"Àrees de poblament","codi_municipi":"252271","municipi":"la Torre de Cabdella","codi_comarca":"25","comarca":"Pallars Jussà","provincia":"Lleida","font":"ICGC Àrees de poblament v3r1 202602"},"geometry":{"type":"MultiPolygon","coordinates":[[[[0.943113,42.399161],[0.943244,42.399287],[0.94334,42.399289],[0.943501,42.399287],[0.943457,42.399248],[0.943496,42.399242],[0.943637,42.399254],[0.943778,42.399271],[0.943992,42.39932],[0.944164,42.399354],[0.944351,42.399357],[0.944511,42.399372],[0.94461,42.399381],[0.944624,42.399353],[0.944565,42.399285],[0.944365,42.399224],[0.944115,42.399179],[0.94396,42.399134],[0.943934,42.399121],[0.943925,42.399097],[0.943977,42.398986],[0.944037,42.398916],[0.944095,42.398809],[0.944167,42.398501],[0.944197,42.398361],[0.944116,42.398269],[0.944051,42.398208],[0.943956,42.398142],[0.943812,42.398047],[0.943636,42.39802],[0.943501,42.398001],[0.943366,42.39812],[0.94312,42.398175],[0.942793,42.398231],[0.942637,42.39829],[0.942536,42.398329],[0.942486,42.398383],[0.942438,42.39846],[0.942449,42.398518],[0.942538,42.398643],[0.942721,42.398651],[0.942722,42.39884],[0.942808,42.398844],[0.942806,42.399008],[0.942864,42.399016],[0.943024,42.399036],[0.943114,42.39904],[0.943195,42.399041],[0.943113,42.399161]]]]}},{"type":"Feature","id":"252271_252271 AP06 PJU 3","properties":{"area_id":"252271_252271 AP06 PJU 3","nom":"Aiguabella","codi_icgc":"252271 AP06 PJU 3","categoria":"Àrees de poblament","codi_municipi":"252271","municipi":"la Torre de Cabdella","codi_comarca":"25","comarca":"Pallars Jussà","provincia":"Lleida","font":"ICGC Àrees de poblament v3r1 202602"},"geometry":{"type":"MultiPolygon","coordinates":[[[[0.991598,42.442348],[0.991586,42.442391],[0.991582,42.442468],[0.99158,42.442518],[0.991594,42.44258],[0.991646,42.442762],[0.991681,42.442878],[0.991702,42.442917],[0.991753,42.442958],[0.991795,42.442985],[0.991903,42.443052],[0.991963,42.443086],[0.992057,42.443047],[0.99206,42.443158],[0.992075,42.443281],[0.992078,42.44331],[0.991926,42.443475],[0.992082,42.44353],[0.992227,42.44341],[0.992386,42.443261],[0.992601,42.443062],[0.992648,42.443023],[0.992785,42.442922],[0.992738,42.442863],[0.992737,42.44286],[0.992687,42.44281],[0.992657,42.442782],[0.992594,42.442747],[0.992535,42.442721],[0.992495,42.442714],[0.992444,42.442703],[0.992423,42.442694],[0.992395,42.442672],[0.99232,42.44262],[0.992268,42.442572],[0.992231,42.442541],[0.992178,42.442515],[0.992105,42.442491],[0.992062,42.442475],[0.992029,42.442412],[0.991986,42.442337],[0.991598,42.442348]]]]}},{"type":"Feature","id":"252271_252271 AP17 PJU 3","properties":{"area_id":"252271_252271 AP17 PJU 3","nom":"Antist","codi_icgc":"252271 AP17 PJU 3","categoria":"Àrees de poblament","codi_municipi":"252271","municipi":"la Torre de Cabdella","codi_comarca":"25","comarca":"Pallars Jussà","provincia":"Lleida","font":"ICGC Àrees de poblament v3r1 202602"},"geometry":{"type":"MultiPolygon","coordinates":[[[[0.947905,42.37119],[0.947854,42.371281],[0.947795,42.371403],[0.947779,42.371438],[0.947777,42.371478],[0.947823,42.371538],[0.947946,42.371659],[0.94806,42.371763],[0.948087,42.371772],[0.94813,42.371777],[0.948193,42.371773],[0.948253,42.371759],[0.948318,42.371725],[0.948414,42.371545],[0.948451,42.371496],[0.948499,42.371445],[0.948643,42.371307],[0.948695,42.371253],[0.948724,42.371212],[0.948743,42.371161],[0.94875,42.371142],[0.948762,42.371165],[0.94878,42.371169],[0.94878,42.371169],[0.948846,42.371157],[0.948917,42.371136],[0.948979,42.3711],[0.948977,42.370913],[0.94921,42.370664],[0.949199,42.370632],[0.949138,42.370584],[0.94906,42.370585],[0.949004,42.370587],[0.948916,42.370616],[0.948898,42.370625],[0.948847,42.370517],[0.948816,42.370495],[0.948754,42.370482],[0.948729,42.370464],[0.94867,42.370472],[0.948564,42.370485],[0.94845,42.370497],[0.948348,42.370517],[0.94829,42.370524],[0.948245,42.370527],[0.948155,42.370573],[0.948074,42.370631],[0.947993,42.370692],[0.947951,42.370751],[0.947915,42.370829],[0.9479,42.370943],[0.9479,42.371052],[0.94791,42.371182],[0.947905,42.37119]]]]}},{"type":"Feature","id":"252271_252271 AP08 PJU 3","properties":{"area_id":"252271_252271 AP08 PJU 3","nom":"Astell","codi_icgc":"252271 AP08 PJU 3","categoria":"Àrees de poblament","codi_municipi":"252271","municipi":"la Torre de Cabdella","codi_comarca":"25","comarca":"Pallars Jussà","provincia":"Lleida","font":"ICGC Àrees de poblament v3r1 202602"},"geometry":{"type":"MultiPolygon","coordinates":[[[[0.96348,42.403692],[0.963583,42.403759],[0.963656,42.40379],[0.963769,42.403768],[0.963898,42.403744],[0.964056,42.403725],[0.964146,42.403729],[0.96422,42.403735],[0.964282,42.403717],[0.96436,42.403693],[0.964442,42.403642],[0.964514,42.403588],[0.96457,42.403565],[0.964652,42.403559],[0.96471,42.403564],[0.964767,42.403583],[0.964871,42.403631],[0.96498,42.403687],[0.965008,42.403723],[0.965186,42.403741],[0.965298,42.403721],[0.965458,42.403667],[0.965576,42.403601],[0.965679,42.403546],[0.965836,42.403473],[0.965857,42.403413],[0.96586,42.403316],[0.965809,42.403258],[0.965756,42.403257],[0.965624,42.403023],[0.965617,42.402836],[0.965131,42.402757],[0.964803,42.403073],[0.96465,42.403027],[0.964534,42.403021],[0.964466,42.403034],[0.964452,42.403184],[0.964496,42.403317],[0.964499,42.403374],[0.964438,42.403463],[0.964297,42.403485],[0.963598,42.403501],[0.963519,42.403557],[0.963492,42.403639],[0.96348,42.403692]]]]}},{"type":"Feature","id":"252271_252271 AP16 PJU 3","properties":{"area_id":"252271_252271 AP16 PJU 3","nom":"Beranui","codi_icgc":"252271 AP16 PJU 3","categoria":"Àrees de poblament","codi_municipi":"252271","municipi":"la Torre de Cabdella","codi_comarca":"25","comarca":"Pallars Jussà","provincia":"Lleida","font":"ICGC Àrees de poblament v3r1 202602"},"geometry":{"type":"MultiPolygon","coordinates":[[[[0.966962,42.373908],[0.966965,42.373908],[0.966937,42.373921],[0.966884,42.373943],[0.966852,42.373979],[0.966815,42.374113],[0.966792,42.374262],[0.966808,42.374388],[0.966856,42.374514],[0.966945,42.374619],[0.967069,42.374676],[0.967242,42.374742],[0.967285,42.374747],[0.967543,42.374719],[0.96781,42.374663],[0.967883,42.374637],[0.967949,42.374581],[0.968072,42.374425],[0.968046,42.374364],[0.968043,42.374284],[0.96803,42.374224],[0.968003,42.374174],[0.967976,42.374147],[0.967972,42.374086],[0.967922,42.374053],[0.967859,42.374002],[0.967814,42.373978],[0.967743,42.373954],[0.96769,42.373947],[0.967612,42.373943],[0.967573,42.37394],[0.967567,42.373909],[0.96723,42.373903],[0.967237,42.373768],[0.966967,42.373761],[0.966962,42.373908]]]]}},{"type":"Feature","id":"252271_252271 AP03 PJU 3","properties":{"area_id":"252271_252271 AP03 PJU 3","nom":"Capdella","codi_icgc":"252271 AP03 PJU 3","categoria":"Àrees de poblament","codi_municipi":"252271","municipi":"la Torre de Cabdella","codi_comarca":"25","comarca":"Pallars Jussà","provincia":"Lleida","font":"ICGC Àrees de poblament v3r1 202602"},"geometry":{"type":"MultiPolygon","coordinates":[[[[0.990618,42.473624],[0.990603,42.473719],[0.990534,42.473733],[0.990565,42.473894],[0.990589,42.47402],[0.99068,42.47406],[0.990691,42.474105],[0.990705,42.474165],[0.990772,42.474219],[0.990903,42.474281],[0.99094,42.474249],[0.991189,42.47428],[0.991343,42.474397],[0.991431,42.474463],[0.991629,42.474602],[0.991765,42.474688],[0.991812,42.474722],[0.991884,42.474792],[0.991966,42.474841],[0.992071,42.474884],[0.992115,42.47492],[0.99221,42.47506],[0.992272,42.475123],[0.992266,42.475225],[0.992367,42.475299],[0.992446,42.475336],[0.992593,42.475372],[0.992695,42.475388],[0.992885,42.475405],[0.993003,42.475436],[0.993042,42.475425],[0.993088,42.475395],[0.993133,42.475372],[0.993188,42.475368],[0.993282,42.475355],[0.993396,42.475317],[0.993468,42.475292],[0.993507,42.475278],[0.993564,42.475286],[0.993629,42.475264],[0.993638,42.475104],[0.993335,42.475099],[0.993406,42.474914],[0.992677,42.474854],[0.992571,42.47473],[0.992615,42.474681],[0.992492,42.4746],[0.992585,42.474507],[0.992349,42.474338],[0.992189,42.474221],[0.99194,42.474143],[0.991945,42.474086],[0.991966,42.474043],[0.991996,42.474015],[0.992054,42.474002],[0.992112,42.474008],[0.992182,42.47403],[0.992274,42.474068],[0.992351,42.474083],[0.992451,42.47408],[0.992516,42.474043],[0.99242,42.473942],[0.992336,42.47385],[0.992263,42.473793],[0.992169,42.473727],[0.992135,42.473698],[0.992113,42.473657],[0.992108,42.473536],[0.992097,42.473376],[0.992073,42.473321],[0.992019,42.473275],[0.991845,42.473293],[0.991719,42.473315],[0.991571,42.473314],[0.991407,42.473409],[0.991332,42.473415],[0.991248,42.473444],[0.991124,42.473297],[0.990921,42.473393],[0.990801,42.473437],[0.990685,42.473525],[0.990695,42.473575],[0.990618,42.473624]]]]}},{"type":"Feature","id":"252271_252271 AP12 PJU 3","properties":{"area_id":"252271_252271 AP12 PJU 3","nom":"Castell-estaó","codi_icgc":"252271 AP12 PJU 3","categoria":"Àrees de poblament","codi_municipi":"252271","municipi":"la Torre de Cabdella","codi_comarca":"25","comarca":"Pallars Jussà","provincia":"Lleida","font":"ICGC Àrees de poblament v3r1 202602"},"geometry":{"type":"MultiPolygon","coordinates":[[[[0.953621,42.387503],[0.953625,42.387553],[0.953644,42.387582],[0.953718,42.387581],[0.953849,42.387583],[0.954033,42.387581],[0.954145,42.387581],[0.954197,42.38757],[0.954252,42.387545],[0.954286,42.387495],[0.954285,42.387419],[0.954285,42.387343],[0.954355,42.387346],[0.95441,42.38734],[0.954459,42.387329],[0.954495,42.387311],[0.954544,42.387264],[0.954607,42.38722],[0.954645,42.387235],[0.95474,42.387175],[0.954793,42.387137],[0.954816,42.387112],[0.95482,42.387083],[0.954792,42.387052],[0.95472,42.387019],[0.954663,42.386985],[0.954607,42.386932],[0.954665,42.386904],[0.954728,42.386872],[0.954771,42.386825],[0.954779,42.38678],[0.954712,42.38665],[0.954694,42.386624],[0.954607,42.386636],[0.954475,42.386641],[0.95421,42.386686],[0.954048,42.386712],[0.953965,42.386708],[0.953922,42.38675],[0.953882,42.386776],[0.9538,42.386843],[0.953714,42.386901],[0.953711,42.386901],[0.95369,42.387037],[0.953589,42.387104],[0.953593,42.387166],[0.953464,42.387185],[0.953575,42.387423],[0.953606,42.387464],[0.953621,42.387503]]]]}},{"type":"Feature","id":"252271_252271 AP20 PJU 3","properties":{"area_id":"252271_252271 AP20 PJU 3","nom":"Envall","codi_icgc":"252271 AP20 PJU 3","categoria":"Àrees de poblament","codi_municipi":"252271","municipi":"la Torre de Cabdella","codi_comarca":"25","comarca":"Pallars Jussà","provincia":"Lleida","font":"ICGC Àrees de poblament v3r1 202602"},"geometry":{"type":"MultiPolygon","coordinates":[[[[0.986056,42.350156],[0.985903,42.350144],[0.985797,42.350155],[0.985584,42.350235],[0.985541,42.350446],[0.985586,42.350468],[0.985805,42.350548],[0.985927,42.350577],[0.986017,42.350668],[0.986126,42.350722],[0.986261,42.350754],[0.986339,42.350794],[0.986436,42.350822],[0.986526,42.35083],[0.986639,42.350816],[0.986697,42.350789],[0.98665,42.350747],[0.986592,42.350693],[0.986567,42.350633],[0.986558,42.35057],[0.986579,42.350516],[0.986609,42.350483],[0.986552,42.350435],[0.986496,42.350383],[0.986417,42.350403],[0.986387,42.350355],[0.986414,42.350308],[0.986202,42.3503],[0.986177,42.350293],[0.986112,42.350274],[0.986055,42.350266],[0.986056,42.350156]]]]}},{"type":"Feature","id":"252271_252271 AP05 PJU 3","properties":{"area_id":"252271_252271 AP05 PJU 3","nom":"Espui","codi_icgc":"252271 AP05 PJU 3","categoria":"Àrees de poblament","codi_municipi":"252271","municipi":"la Torre de Cabdella","codi_comarca":"25","comarca":"Pallars Jussà","provincia":"Lleida","font":"ICGC Àrees de poblament v3r1 202602"},"geometry":{"type":"MultiPolygon","coordinates":[[[[0.98706,42.454604],[0.986859,42.454656],[0.986867,42.454709],[0.986794,42.454757],[0.986722,42.454818],[0.986727,42.454866],[0.986665,42.454886],[0.986683,42.45512],[0.986775,42.455155],[0.986816,42.455187],[0.986848,42.455204],[0.986875,42.455262],[0.98692,42.455267],[0.986945,42.455282],[0.986961,42.455294],[0.986969,42.455328],[0.987003,42.455393],[0.987143,42.455443],[0.987227,42.455404],[0.987267,42.455371],[0.98736,42.455368],[0.987348,42.455465],[0.987474,42.455541],[0.987622,42.455539],[0.987762,42.455501],[0.987878,42.45547],[0.988002,42.455441],[0.98805,42.45543],[0.98815,42.455325],[0.988244,42.455307],[0.988282,42.455435],[0.988336,42.45544],[0.988344,42.455488],[0.988381,42.455541],[0.988468,42.455542],[0.988623,42.45554],[0.988832,42.455532],[0.988974,42.455525],[0.989068,42.455496],[0.989199,42.455443],[0.98929,42.455395],[0.989358,42.455274],[0.989355,42.455188],[0.989348,42.454995],[0.989313,42.454883],[0.989261,42.454791],[0.98919,42.454697],[0.989132,42.454622],[0.989057,42.45453],[0.988995,42.454467],[0.988882,42.454372],[0.988815,42.454316],[0.98872,42.45425],[0.988634,42.454188],[0.988545,42.454138],[0.988481,42.454088],[0.988431,42.45404],[0.988424,42.454005],[0.988398,42.453972],[0.988355,42.453896],[0.988344,42.453883],[0.988348,42.45388],[0.988322,42.453791],[0.988293,42.45369],[0.988217,42.453637],[0.988146,42.453607],[0.988114,42.453603],[0.988065,42.453599],[0.988003,42.453605],[0.987959,42.453612],[0.987894,42.453629],[0.987821,42.453649],[0.987745,42.453672],[0.987684,42.453768],[0.987628,42.45386],[0.987595,42.45393],[0.987575,42.453996],[0.987576,42.454052],[0.987587,42.454132],[0.987627,42.454268],[0.987655,42.454365],[0.987642,42.454369],[0.987524,42.454391],[0.987432,42.454285],[0.987222,42.454369],[0.987324,42.45454],[0.987377,42.454654],[0.987392,42.454694],[0.987387,42.454729],[0.987352,42.454781],[0.987351,42.454847],[0.98732,42.454873],[0.98728,42.454922],[0.98726,42.454952],[0.987237,42.454905],[0.987231,42.454802],[0.987174,42.454747],[0.987108,42.454703],[0.98706,42.454604]]]]}},{"type":"Feature","id":"252271_252271 AP18 PJU 3","properties":{"area_id":"252271_252271 AP18 PJU 3","nom":"Estavill","codi_icgc":"252271 AP18 PJU 3","categoria":"Àrees de poblament","codi_municipi":"252271","municipi":"la Torre de Cabdella","codi_comarca":"25","comarca":"Pallars Jussà","provincia":"Lleida","font":"ICGC Àrees de poblament v3r1 202602"},"geometry":{"type":"MultiPolygon","coordinates":[[[[0.937544,42.358504],[0.937577,42.358655],[0.937695,42.358698],[0.937815,42.358755],[0.937987,42.358782],[0.938263,42.358801],[0.938379,42.358801],[0.938504,42.3588],[0.938753,42.358755],[0.939261,42.358631],[0.939327,42.358601],[0.939366,42.358563],[0.939377,42.358528],[0.939363,42.358463],[0.939351,42.358437],[0.93933,42.358405],[0.939226,42.358327],[0.939104,42.358242],[0.938888,42.358159],[0.93872,42.358104],[0.938506,42.358057],[0.938372,42.358033],[0.938225,42.358016],[0.938009,42.358022],[0.937887,42.358017],[0.93787,42.358048],[0.937942,42.358097],[0.93797,42.358124],[0.937932,42.358204],[0.937916,42.358318],[0.937742,42.358324],[0.937575,42.358321],[0.937533,42.358421],[0.937544,42.358504]]]]}},{"type":"Feature","id":"252271_252271 AP02 PJU 2","properties":{"area_id":"252271_252271 AP02 PJU 2","nom":"Gramenet","codi_icgc":"252271 AP02 PJU 2","categoria":"Àrees de poblament","codi_municipi":"252271","municipi":"la Torre de Cabdella","codi_comarca":"25","comarca":"Pallars Jussà","provincia":"Lleida","font":"ICGC Àrees de poblament v3r1 202602"},"geometry":{"type":"MultiPolygon","coordinates":[[[[0.987263,42.380887],[0.987099,42.380898],[0.986943,42.380952],[0.986728,42.381042],[0.986875,42.381312],[0.987067,42.381298],[0.98721,42.381329],[0.987295,42.38138],[0.987407,42.381522],[0.987687,42.381494],[0.987722,42.381368],[0.987586,42.381335],[0.98752,42.381298],[0.987454,42.381247],[0.987457,42.381162],[0.987537,42.38108],[0.987527,42.381062],[0.987463,42.380957],[0.987263,42.380887]]]]}},{"type":"Feature","id":"252271_252271 AP09 PJU 3","properties":{"area_id":"252271_252271 AP09 PJU 3","nom":"Molinos","codi_icgc":"252271 AP09 PJU 3","categoria":"Àrees de poblament","codi_municipi":"252271","municipi":"la Torre de Cabdella","codi_comarca":"25","comarca":"Pallars Jussà","provincia":"Lleida","font":"ICGC Àrees de poblament v3r1 202602"},"geometry":{"type":"MultiPolygon","coordinates":[[[[0.975687,42.406528],[0.975646,42.406438],[0.97563,42.406304],[0.975638,42.406197],[0.975655,42.406145],[0.975731,42.405979],[0.9758,42.405735],[0.975786,42.405551],[0.97568,42.405449],[0.975478,42.405441],[0.975379,42.40552],[0.975343,42.405641],[0.975311,42.405687],[0.975321,42.405736],[0.975317,42.405834],[0.975281,42.405967],[0.975223,42.406066],[0.97514,42.40614],[0.97501,42.4062],[0.974937,42.406213],[0.974804,42.406213],[0.974702,42.406171],[0.974509,42.406282],[0.974546,42.406316],[0.97459,42.406364],[0.97464,42.406413],[0.974709,42.406459],[0.97475,42.406477],[0.974843,42.406502],[0.97492,42.406496],[0.975104,42.40648],[0.975258,42.406469],[0.97531,42.406501],[0.975634,42.406691],[0.975911,42.406955],[0.976079,42.407211],[0.976083,42.407337],[0.976061,42.407548],[0.976043,42.407729],[0.976047,42.407836],[0.976085,42.407905],[0.976148,42.40796],[0.976224,42.407973],[0.976642,42.407975],[0.976719,42.40794],[0.976778,42.407864],[0.976837,42.407654],[0.976765,42.407518],[0.976648,42.407269],[0.976561,42.40711],[0.976476,42.406992],[0.97643,42.406941],[0.976283,42.406869],[0.976014,42.406746],[0.975785,42.406616],[0.975687,42.406528]]],[[[0.976549,42.408285],[0.976149,42.408209],[0.975996,42.408215],[0.976159,42.408415],[0.976356,42.408543],[0.976501,42.408644],[0.976664,42.408954],[0.976745,42.409307],[0.976823,42.409621],[0.976925,42.409831],[0.977082,42.4097],[0.97715,42.409603],[0.977227,42.409452],[0.977357,42.409267],[0.977434,42.409128],[0.977457,42.409033],[0.977454,42.40887],[0.97734,42.408686],[0.977184,42.408537],[0.977058,42.408437],[0.976788,42.408354],[0.976549,42.408285]]],[[[0.978406,42.410396],[0.978283,42.410099],[0.977919,42.410185],[0.978086,42.410742],[0.978166,42.410863],[0.978275,42.410972],[0.978398,42.41104],[0.978744,42.411257],[0.978941,42.411374],[0.979314,42.41116],[0.979177,42.410937],[0.979004,42.410666],[0.978805,42.410505],[0.978697,42.410473],[0.978497,42.410431],[0.978406,42.410396]]]]}},{"type":"Feature","id":"252271_252271 AP10 PJU 3","properties":{"area_id":"252271_252271 AP10 PJU 3","nom":"Mont-ros","codi_icgc":"252271 AP10 PJU 3","categoria":"Àrees de poblament","codi_municipi":"252271","municipi":"la Torre de Cabdella","codi_comarca":"25","comarca":"Pallars Jussà","provincia":"Lleida","font":"ICGC Àrees de poblament v3r1 202602"},"geometry":{"type":"MultiPolygon","coordinates":[[[[0.986273,42.402273],[0.986415,42.40221],[0.986549,42.402365],[0.986474,42.402495],[0.986518,42.402526],[0.986463,42.402623],[0.986692,42.402694],[0.986793,42.402579],[0.98696,42.402682],[0.987052,42.402719],[0.987185,42.402669],[0.987279,42.402635],[0.987366,42.402724],[0.987442,42.402714],[0.987589,42.402743],[0.987762,42.402767],[0.987999,42.402791],[0.988117,42.402829],[0.988256,42.402886],[0.988368,42.402914],[0.988557,42.402834],[0.98841,42.402576],[0.988231,42.402647],[0.988131,42.402459],[0.988297,42.402384],[0.988399,42.402314],[0.988289,42.402126],[0.988274,42.402101],[0.988345,42.402072],[0.988434,42.402022],[0.98851,42.401963],[0.988586,42.401896],[0.988645,42.401844],[0.988705,42.401779],[0.988779,42.401699],[0.988832,42.401635],[0.988876,42.401567],[0.988907,42.401496],[0.988902,42.401473],[0.988918,42.401449],[0.988857,42.401343],[0.988792,42.401284],[0.988546,42.401323],[0.988432,42.401378],[0.988382,42.401537],[0.988337,42.401632],[0.988265,42.401761],[0.988242,42.401804],[0.988193,42.401822],[0.988087,42.401825],[0.987942,42.401808],[0.987744,42.401776],[0.987498,42.401722],[0.98725,42.401651],[0.987161,42.401625],[0.987084,42.401617],[0.987029,42.401618],[0.986932,42.401624],[0.986865,42.401634],[0.986803,42.401659],[0.986692,42.401712],[0.986564,42.401786],[0.986433,42.401863],[0.986362,42.401905],[0.986302,42.401946],[0.986197,42.402011],[0.986121,42.402064],[0.986061,42.40212],[0.986015,42.402172],[0.985957,42.402254],[0.98594,42.402283],[0.986073,42.402352],[0.986213,42.402297],[0.986273,42.402273]]]]}},{"type":"Feature","id":"252271_252271 AP11 PJU 3","properties":{"area_id":"252271_252271 AP11 PJU 3","nom":"Obeix","codi_icgc":"252271 AP11 PJU 3","categoria":"Àrees de poblament","codi_municipi":"252271","municipi":"la Torre de Cabdella","codi_comarca":"25","comarca":"Pallars Jussà","provincia":"Lleida","font":"ICGC Àrees de poblament v3r1 202602"},"geometry":{"type":"MultiPolygon","coordinates":[[[[0.948277,42.394524],[0.948353,42.394591],[0.948439,42.394542],[0.948515,42.394492],[0.948614,42.394454],[0.948693,42.394425],[0.948773,42.394407],[0.948842,42.394403],[0.948904,42.394409],[0.94897,42.39443],[0.949031,42.394455],[0.949061,42.394496],[0.949127,42.394579],[0.94921,42.394651],[0.949293,42.394712],[0.949369,42.39474],[0.949453,42.394753],[0.949546,42.394756],[0.949719,42.394742],[0.949832,42.394721],[0.949981,42.394657],[0.950054,42.394619],[0.950081,42.394579],[0.950096,42.394518],[0.950095,42.394467],[0.950042,42.394373],[0.949997,42.394315],[0.949933,42.394302],[0.949883,42.394271],[0.949834,42.394211],[0.94987,42.39419],[0.949921,42.394142],[0.950027,42.394023],[0.950065,42.393973],[0.950113,42.393937],[0.950175,42.393906],[0.95023,42.393875],[0.950131,42.393772],[0.949991,42.39388],[0.949956,42.393854],[0.949905,42.393819],[0.949878,42.393794],[0.949855,42.393784],[0.949827,42.393785],[0.949798,42.393796],[0.949784,42.393827],[0.949763,42.393864],[0.949726,42.393887],[0.949674,42.393893],[0.949613,42.39389],[0.949489,42.39388],[0.949446,42.393878],[0.949353,42.393887],[0.94927,42.393909],[0.949233,42.393927],[0.949228,42.393928],[0.949228,42.393948],[0.949226,42.394001],[0.949127,42.394023],[0.949129,42.393979],[0.949003,42.393967],[0.948958,42.39402],[0.948971,42.394071],[0.948939,42.394107],[0.948884,42.394142],[0.948915,42.39416],[0.948929,42.394181],[0.948929,42.394198],[0.948702,42.394225],[0.948723,42.394364],[0.948626,42.394408],[0.948545,42.394445],[0.94848,42.394474],[0.948409,42.394452],[0.948277,42.394524]]]]}},{"type":"Feature","id":"252271_252271 AP14 PJU 3","properties":{"area_id":"252271_252271 AP14 PJU 3","nom":"Paüls de Flamisell","codi_icgc":"252271 AP14 PJU 3","categoria":"Àrees de poblament","codi_municipi":"252271","municipi":"la Torre de Cabdella","codi_comarca":"25","comarca":"Pallars Jussà","provincia":"Lleida","font":"ICGC Àrees de poblament v3r1 202602"},"geometry":{"type":"MultiPolygon","coordinates":[[[[0.981379,42.396531],[0.981296,42.396617],[0.981523,42.396665],[0.981648,42.396722],[0.981738,42.396795],[0.9818,42.396874],[0.981816,42.396933],[0.981712,42.397109],[0.981613,42.397256],[0.981741,42.397264],[0.982061,42.397134],[0.981981,42.397079],[0.982317,42.396955],[0.982341,42.396915],[0.982451,42.396903],[0.982745,42.396846],[0.983095,42.396771],[0.983126,42.396805],[0.983317,42.396751],[0.98335,42.396726],[0.983354,42.3967],[0.983368,42.396674],[0.983507,42.39664],[0.983493,42.396583],[0.983597,42.396549],[0.983649,42.396509],[0.98367,42.396462],[0.983639,42.396421],[0.983582,42.396394],[0.983468,42.396351],[0.983357,42.396314],[0.983232,42.396283],[0.983153,42.396267],[0.983099,42.396223],[0.983056,42.396161],[0.982992,42.396047],[0.982931,42.396042],[0.982821,42.396075],[0.982359,42.396036],[0.982114,42.39607],[0.982008,42.396083],[0.981928,42.396157],[0.98181,42.396239],[0.981658,42.396343],[0.981523,42.396451],[0.981467,42.396488],[0.981379,42.396531]]]]}},{"type":"Feature","id":"252271_252271 AP15 PJU 3","properties":{"area_id":"252271_252271 AP15 PJU 3","nom":"Pobellà","codi_icgc":"252271 AP15 PJU 3","categoria":"Àrees de poblament","codi_municipi":"252271","municipi":"la Torre de Cabdella","codi_comarca":"25","comarca":"Pallars Jussà","provincia":"Lleida","font":"ICGC Àrees de poblament v3r1 202602"},"geometry":{"type":"MultiPolygon","coordinates":[[[[0.988518,42.398697],[0.98864,42.39853],[0.988803,42.398589],[0.989359,42.398685],[0.989457,42.398505],[0.989467,42.398484],[0.989509,42.39837],[0.989508,42.398325],[0.989507,42.398286],[0.98953,42.398207],[0.989534,42.39815],[0.989572,42.398007],[0.989596,42.397905],[0.989628,42.397799],[0.989661,42.397731],[0.989734,42.397623],[0.989825,42.397499],[0.989866,42.397446],[0.989912,42.397373],[0.989967,42.39733],[0.990056,42.39736],[0.990254,42.397362],[0.990385,42.397208],[0.990213,42.397113],[0.990214,42.397081],[0.990184,42.39705],[0.990111,42.397018],[0.990055,42.397002],[0.990021,42.397001],[0.989994,42.396974],[0.989999,42.3969],[0.990063,42.396737],[0.990094,42.396661],[0.990112,42.396589],[0.990122,42.396507],[0.990164,42.39638],[0.990196,42.396291],[0.990258,42.396195],[0.990333,42.396094],[0.990376,42.396045],[0.990044,42.395862],[0.990083,42.395772],[0.989886,42.395714],[0.989679,42.396057],[0.989671,42.396057],[0.98967,42.396073],[0.989639,42.39656],[0.989507,42.396582],[0.989526,42.396642],[0.989535,42.396699],[0.989531,42.396796],[0.98953,42.396918],[0.989537,42.396958],[0.989584,42.396995],[0.989647,42.397027],[0.989767,42.397058],[0.98982,42.397074],[0.989859,42.397086],[0.989891,42.39713],[0.98987,42.397159],[0.989843,42.397196],[0.989788,42.397232],[0.989707,42.397247],[0.989481,42.39726],[0.989218,42.397271],[0.989079,42.397272],[0.989001,42.397284],[0.988888,42.397307],[0.988735,42.397343],[0.988595,42.397376],[0.98849,42.39742],[0.988412,42.397465],[0.988354,42.397513],[0.988292,42.397585],[0.98823,42.397671],[0.988216,42.39772],[0.988122,42.397776],[0.987855,42.398063],[0.987829,42.398131],[0.988277,42.398202],[0.988333,42.398346],[0.988429,42.398586],[0.988451,42.398678],[0.988518,42.398697]]]]}},{"type":"Feature","id":"252271_252271 AP04 PJU 3","properties":{"area_id":"252271_252271 AP04 PJU 3","nom":"la Central de Capdella","codi_icgc":"252271 AP04 PJU 3","categoria":"Àrees de poblament","codi_municipi":"252271","municipi":"la Torre de Cabdella","codi_comarca":"25","comarca":"Pallars Jussà","provincia":"Lleida","font":"ICGC Àrees de poblament v3r1 202602"},"geometry":{"type":"MultiPolygon","coordinates":[[[[0.992367,42.469953],[0.992264,42.469844],[0.992161,42.469753],[0.992105,42.469709],[0.991986,42.469635],[0.991945,42.469581],[0.991869,42.469526],[0.991799,42.469468],[0.991737,42.469438],[0.99167,42.469426],[0.991511,42.469416],[0.991332,42.469406],[0.991275,42.469376],[0.99103,42.469197],[0.990967,42.469069],[0.991109,42.469],[0.991006,42.468887],[0.990932,42.468775],[0.990856,42.468602],[0.990809,42.468419],[0.990817,42.468221],[0.991039,42.468228],[0.991422,42.468229],[0.991391,42.468452],[0.991667,42.468461],[0.991802,42.46843],[0.991864,42.468393],[0.991906,42.468333],[0.99197,42.468242],[0.991948,42.468231],[0.991985,42.468122],[0.991993,42.468081],[0.991983,42.467952],[0.991959,42.467785],[0.991939,42.467767],[0.99191,42.467753],[0.99187,42.46775],[0.991818,42.467758],[0.991757,42.467767],[0.991653,42.46779],[0.991598,42.467797],[0.991524,42.467793],[0.991343,42.467764],[0.991317,42.467759],[0.991235,42.46768],[0.991156,42.467597],[0.991427,42.467428],[0.991583,42.46735],[0.991703,42.467278],[0.991907,42.46711],[0.992026,42.467012],[0.992121,42.46687],[0.992196,42.466743],[0.992165,42.466719],[0.992156,42.46658],[0.992105,42.466379],[0.991973,42.466253],[0.991825,42.466177],[0.992007,42.466047],[0.992177,42.465857],[0.992179,42.465367],[0.991733,42.465364],[0.991572,42.465161],[0.991524,42.465116],[0.991418,42.465113],[0.991248,42.465109],[0.991022,42.465105],[0.990949,42.465123],[0.990914,42.465199],[0.990891,42.465298],[0.990894,42.465401],[0.990687,42.465522],[0.990625,42.465558],[0.990444,42.465612],[0.990308,42.465653],[0.990286,42.466052],[0.990286,42.466328],[0.990322,42.466578],[0.990373,42.466793],[0.990448,42.466998],[0.990545,42.467146],[0.990614,42.467248],[0.990649,42.46737],[0.990626,42.467551],[0.990522,42.467602],[0.99049,42.467731],[0.990454,42.468035],[0.990434,42.468172],[0.990333,42.468367],[0.990233,42.468516],[0.990222,42.468607],[0.990228,42.468752],[0.990266,42.468848],[0.99038,42.469155],[0.990426,42.469241],[0.990533,42.469277],[0.990575,42.469266],[0.990688,42.46934],[0.990776,42.469418],[0.990917,42.469577],[0.991005,42.469666],[0.991105,42.469746],[0.991278,42.469763],[0.991312,42.469739],[0.991453,42.469751],[0.991579,42.469774],[0.991615,42.469842],[0.991767,42.469837],[0.992076,42.469943],[0.992142,42.470116],[0.992165,42.470221],[0.992142,42.470349],[0.992165,42.470461],[0.992225,42.470512],[0.992348,42.47052],[0.992538,42.470544],[0.992767,42.470556],[0.992942,42.470557],[0.992941,42.470456],[0.99291,42.470369],[0.992845,42.470297],[0.992684,42.470176],[0.992504,42.470052],[0.992367,42.469953]]]]}},{"type":"Feature","id":"252271_252271 AP13 PJU 3","properties":{"area_id":"252271_252271 AP13 PJU 3","nom":"la Plana de Mont-ros","codi_icgc":"252271 AP13 PJU 3","categoria":"Àrees de poblament","codi_municipi":"252271","municipi":"la Torre de Cabdella","codi_comarca":"25","comarca":"Pallars Jussà","provincia":"Lleida","font":"ICGC Àrees de poblament v3r1 202602"},"geometry":{"type":"MultiPolygon","coordinates":[[[[0.964528,42.379377],[0.964617,42.379317],[0.964684,42.379223],[0.964609,42.379059],[0.964584,42.379037],[0.964495,42.379002],[0.964287,42.378984],[0.964265,42.378965],[0.964243,42.378936],[0.964229,42.378898],[0.96424,42.378855],[0.963976,42.378749],[0.963885,42.378883],[0.964085,42.378968],[0.964039,42.379008],[0.963969,42.379064],[0.963912,42.379148],[0.963884,42.379215],[0.963901,42.379286],[0.963938,42.379335],[0.963982,42.379366],[0.964045,42.379394],[0.964095,42.379454],[0.964181,42.379558],[0.964206,42.379606],[0.964227,42.379647],[0.964061,42.379706],[0.964147,42.379832],[0.964303,42.37977],[0.964342,42.379814],[0.964387,42.37991],[0.964425,42.380013],[0.964464,42.380119],[0.964474,42.38019],[0.964502,42.380334],[0.964525,42.380418],[0.964563,42.380516],[0.964597,42.380562],[0.964428,42.380616],[0.964427,42.380668],[0.964567,42.380811],[0.964736,42.380762],[0.964837,42.380807],[0.96497,42.380876],[0.965074,42.380937],[0.965152,42.380996],[0.965218,42.381061],[0.965248,42.381121],[0.965256,42.381176],[0.965241,42.381245],[0.965194,42.381297],[0.965086,42.38135],[0.964545,42.381581],[0.96434,42.381672],[0.964277,42.381721],[0.96424,42.381785],[0.964205,42.381872],[0.964099,42.381859],[0.964021,42.381981],[0.964006,42.382152],[0.963966,42.382385],[0.963271,42.382828],[0.963415,42.382938],[0.963395,42.382954],[0.963545,42.383081],[0.963649,42.383254],[0.963745,42.383356],[0.963772,42.38343],[0.963753,42.38352],[0.963652,42.383589],[0.963206,42.383738],[0.963327,42.383923],[0.963302,42.38395],[0.963302,42.384051],[0.963412,42.384327],[0.963724,42.384069],[0.963844,42.383924],[0.963954,42.38379],[0.963997,42.38367],[0.964004,42.383652],[0.964079,42.383534],[0.964091,42.383341],[0.964131,42.383018],[0.964139,42.382949],[0.964148,42.38288],[0.964121,42.382622],[0.964351,42.382669],[0.964775,42.382865],[0.965,42.382585],[0.96487,42.382533],[0.964907,42.382453],[0.964985,42.382337],[0.965085,42.382241],[0.965089,42.382113],[0.965291,42.382114],[0.9656,42.3821],[0.96621,42.382216],[0.966305,42.381863],[0.966224,42.381795],[0.966112,42.381688],[0.966043,42.381613],[0.965932,42.381477],[0.965833,42.381364],[0.965783,42.381327],[0.965723,42.381281],[0.965673,42.381246],[0.965603,42.381214],[0.965525,42.381158],[0.965474,42.381126],[0.965418,42.381082],[0.965383,42.381072],[0.965293,42.381061],[0.965244,42.380996],[0.965172,42.38094],[0.965106,42.380898],[0.965005,42.380837],[0.964907,42.380785],[0.964995,42.380429],[0.965011,42.380339],[0.964931,42.380328],[0.964985,42.380153],[0.964984,42.380114],[0.964651,42.38004],[0.96451,42.380044],[0.964481,42.379957],[0.964455,42.379885],[0.964406,42.379792],[0.964353,42.379704],[0.964295,42.37962],[0.964269,42.379557],[0.964274,42.379524],[0.964376,42.379487],[0.964458,42.379435],[0.964528,42.379377]]]]}},{"type":"Feature","id":"252271_252271 AP19 PJU 3","properties":{"area_id":"252271_252271 AP19 PJU 3","nom":"la Pobleta de Bellveí","codi_icgc":"252271 AP19 PJU 3","categoria":"Àrees de poblament","codi_municipi":"252271","municipi":"la Torre de Cabdella","codi_comarca":"25","comarca":"Pallars Jussà","provincia":"Lleida","font":"ICGC Àrees de poblament v3r1 202602"},"geometry":{"type":"MultiPolygon","coordinates":[[[[0.960823,42.346077],[0.961085,42.345588],[0.961121,42.345525],[0.961262,42.345488],[0.961518,42.345467],[0.96174,42.345457],[0.961938,42.345428],[0.962123,42.345371],[0.962234,42.345351],[0.962288,42.345331],[0.962511,42.345281],[0.962552,42.345214],[0.962566,42.345082],[0.962508,42.344931],[0.9624,42.344854],[0.962235,42.344747],[0.962178,42.344703],[0.962146,42.344671],[0.962132,42.344635],[0.962124,42.344588],[0.962106,42.344545],[0.962059,42.344519],[0.962143,42.344449],[0.961889,42.344269],[0.961663,42.344108],[0.961468,42.344008],[0.961311,42.343945],[0.961072,42.343908],[0.960768,42.343756],[0.960877,42.343533],[0.960946,42.343341],[0.960967,42.34327],[0.96068,42.343201],[0.960742,42.34307],[0.960785,42.342945],[0.960755,42.34283],[0.960649,42.342675],[0.960434,42.342489],[0.960368,42.342423],[0.960409,42.342352],[0.960402,42.342113],[0.960381,42.34173],[0.960298,42.341153],[0.960134,42.341165],[0.960066,42.341349],[0.960082,42.341603],[0.960029,42.341877],[0.959948,42.342023],[0.959878,42.342082],[0.959824,42.342281],[0.959636,42.34226],[0.959626,42.342571],[0.959959,42.342571],[0.959875,42.343168],[0.959977,42.343302],[0.959946,42.343502],[0.959924,42.343505],[0.959805,42.343457],[0.959696,42.343559],[0.959702,42.343659],[0.959619,42.343693],[0.959551,42.343706],[0.959503,42.343698],[0.959427,42.343665],[0.95929,42.343587],[0.95927,42.343601],[0.959024,42.343607],[0.958978,42.343696],[0.959229,42.343818],[0.959355,42.343795],[0.959442,42.343786],[0.959383,42.343835],[0.959339,42.343867],[0.958977,42.344028],[0.959071,42.344094],[0.959184,42.344189],[0.95926,42.344369],[0.959359,42.344425],[0.959652,42.344451],[0.959806,42.344472],[0.959835,42.344755],[0.959843,42.344944],[0.959988,42.345251],[0.960055,42.345245],[0.960153,42.345504],[0.960168,42.345633],[0.960289,42.345624],[0.960324,42.346039],[0.960327,42.346079],[0.960366,42.346672],[0.960437,42.3467],[0.960486,42.346701],[0.960598,42.346477],[0.960675,42.346342],[0.960823,42.346077]]]]}},{"type":"Feature","id":"252271_252271 AP01 PJU 3","properties":{"area_id":"252271_252271 AP01 PJU 3","nom":"la Torre de Capdella","codi_icgc":"252271 AP01 PJU 3","categoria":"Àrees de poblament","codi_municipi":"252271","municipi":"la Torre de Cabdella","codi_comarca":"25","comarca":"Pallars Jussà","provincia":"Lleida","font":"ICGC Àrees de poblament v3r1 202602"},"geometry":{"type":"MultiPolygon","coordinates":[[[[0.982491,42.419895],[0.982477,42.419748],[0.982403,42.419654],[0.982371,42.419585],[0.982331,42.419499],[0.982255,42.419447],[0.982222,42.419425],[0.982263,42.419355],[0.98228,42.41928],[0.982255,42.419162],[0.981938,42.418952],[0.981809,42.4189],[0.981594,42.41915],[0.981803,42.41925],[0.98196,42.419332],[0.982059,42.419398],[0.982124,42.419463],[0.982196,42.419636],[0.98228,42.419855],[0.982189,42.419864],[0.981687,42.419552],[0.981536,42.419742],[0.981731,42.419846],[0.98173,42.419889],[0.982131,42.420142],[0.982383,42.420111],[0.982569,42.420036],[0.982491,42.419895]]],[[[0.982974,42.422998],[0.982849,42.422779],[0.982829,42.422507],[0.982758,42.422424],[0.982716,42.422305],[0.982712,42.422306],[0.98271,42.422247],[0.982676,42.422113],[0.982672,42.422058],[0.982723,42.422003],[0.982755,42.421956],[0.982913,42.421685],[0.982938,42.421548],[0.982968,42.421426],[0.982886,42.421413],[0.982816,42.421433],[0.982668,42.421391],[0.982434,42.42131],[0.982351,42.421332],[0.982162,42.421279],[0.982075,42.421437],[0.982116,42.421507],[0.982069,42.421767],[0.98202,42.422003],[0.981985,42.422152],[0.981955,42.422188],[0.981919,42.422208],[0.981872,42.422219],[0.981833,42.422222],[0.981917,42.422412],[0.981956,42.422486],[0.981992,42.42254],[0.982165,42.422759],[0.98231,42.422736],[0.982351,42.42277],[0.982389,42.422894],[0.982518,42.422873],[0.98256,42.422976],[0.98267,42.422959],[0.982731,42.423058],[0.982974,42.422998]]]]}}]}