{"type":"FeatureCollection","name":"ICGC Àrees de poblament - Tornabous","features":[{"type":"Feature","id":"252252_252252 SI01 URG 2","properties":{"area_id":"252252_252252 SI01 URG 2","nom":"Agroservi-Rius SA","codi_icgc":"252252 SI01 URG 2","categoria":"Sector industrial","codi_municipi":"252252","municipi":"Tornabous","codi_comarca":"38","comarca":"Urgell","provincia":"Lleida","font":"ICGC Àrees de poblament v3r1 202602"},"geometry":{"type":"MultiPolygon","coordinates":[[[[1.071374,41.705606],[1.07061,41.705958],[1.071139,41.706428],[1.07172,41.705987],[1.071374,41.705606]]]]}},{"type":"Feature","id":"252252_252252 AP01 URG 3","properties":{"area_id":"252252_252252 AP01 URG 3","nom":"Tornabous","codi_icgc":"252252 AP01 URG 3","categoria":"Àrees de poblament","codi_municipi":"252252","municipi":"Tornabous","codi_comarca":"38","comarca":"Urgell","provincia":"Lleida","font":"ICGC Àrees de poblament v3r1 202602"},"geometry":{"type":"MultiPolygon","coordinates":[[[[1.052878,41.697801],[1.052811,41.697828],[1.052673,41.697885],[1.052573,41.697923],[1.052473,41.697962],[1.052454,41.697972],[1.052436,41.697983],[1.052425,41.697989],[1.052413,41.697997],[1.052404,41.698002],[1.052397,41.698005],[1.052385,41.698011],[1.052376,41.698015],[1.052358,41.698024],[1.052276,41.698056],[1.052189,41.698093],[1.051959,41.698199],[1.051728,41.698302],[1.05162,41.698347],[1.051512,41.698393],[1.051481,41.698407],[1.051293,41.698495],[1.051074,41.698597],[1.050825,41.698708],[1.050576,41.69882],[1.050518,41.698846],[1.050505,41.698852],[1.050451,41.698798],[1.050357,41.698712],[1.050195,41.698523],[1.050215,41.698504],[1.050236,41.698487],[1.050287,41.698455],[1.05037,41.698412],[1.050454,41.69837],[1.050673,41.698277],[1.050456,41.698033],[1.050173,41.697724],[1.04969,41.697961],[1.049593,41.698006],[1.049526,41.697957],[1.049465,41.697917],[1.049384,41.69787],[1.04935,41.69785],[1.049337,41.697843],[1.049285,41.697816],[1.049229,41.697788],[1.049151,41.697752],[1.049146,41.69775],[1.04887,41.697634],[1.048832,41.697619],[1.048779,41.697598],[1.048592,41.697523],[1.04821,41.697377],[1.048077,41.697325],[1.048063,41.69732],[1.04805,41.697315],[1.047829,41.69723],[1.047629,41.697153],[1.047538,41.697118],[1.047503,41.697104],[1.047489,41.697099],[1.047425,41.697076],[1.047298,41.69726],[1.047246,41.697331],[1.04722,41.697373],[1.047223,41.69738],[1.047233,41.697388],[1.047436,41.697461],[1.047609,41.697618],[1.047594,41.697627],[1.047589,41.69763],[1.047568,41.697642],[1.047593,41.697662],[1.047648,41.697704],[1.047893,41.697889],[1.048,41.697822],[1.048625,41.698299],[1.049052,41.698051],[1.049401,41.698347],[1.049761,41.698149],[1.04992,41.698306],[1.049555,41.698536],[1.049779,41.698809],[1.050157,41.698581],[1.050432,41.698893],[1.050421,41.698898],[1.050382,41.69892],[1.050308,41.698958],[1.050233,41.698996],[1.050214,41.699006],[1.050193,41.699016],[1.050181,41.699026],[1.050174,41.69904],[1.050172,41.699055],[1.050176,41.699068],[1.050181,41.699075],[1.050152,41.699087],[1.050157,41.699094],[1.049979,41.699174],[1.049936,41.699196],[1.049955,41.699217],[1.05005,41.699348],[1.050138,41.69947],[1.05013,41.699483],[1.050121,41.699492],[1.05009,41.699521],[1.050022,41.699569],[1.049881,41.69963],[1.049693,41.699712],[1.049745,41.699764],[1.049945,41.69995],[1.049876,41.699996],[1.050111,41.700192],[1.050227,41.700266],[1.04974,41.700593],[1.049783,41.70063],[1.050797,41.701363],[1.051576,41.701929],[1.051311,41.702013],[1.051222,41.702036],[1.050956,41.702118],[1.051002,41.702152],[1.051529,41.702542],[1.051688,41.702448],[1.051706,41.702398],[1.052153,41.702175],[1.052176,41.70221],[1.052163,41.702215],[1.052204,41.702245],[1.05255,41.702511],[1.052873,41.702311],[1.052905,41.702327],[1.053071,41.702384],[1.053117,41.702291],[1.053168,41.702298],[1.05324,41.702149],[1.053327,41.702167],[1.053448,41.702187],[1.053514,41.702222],[1.05354,41.702267],[1.053537,41.702343],[1.053501,41.70253],[1.053508,41.702545],[1.053512,41.702555],[1.053527,41.70257],[1.053546,41.70258],[1.053586,41.702595],[1.053625,41.702609],[1.053811,41.702619],[1.053828,41.702614],[1.053905,41.70261],[1.053981,41.702606],[1.054086,41.702605],[1.054193,41.702605],[1.054289,41.702597],[1.054384,41.702585],[1.054571,41.702555],[1.054783,41.702516],[1.054853,41.702499],[1.054944,41.702473],[1.054994,41.702454],[1.05504,41.702435],[1.055057,41.702428],[1.055103,41.702381],[1.054995,41.702295],[1.054992,41.70229],[1.054977,41.702263],[1.054969,41.702235],[1.054969,41.702206],[1.055499,41.701913],[1.055765,41.701779],[1.055797,41.70176],[1.05583,41.701737],[1.055863,41.701714],[1.055889,41.701694],[1.055912,41.701672],[1.055924,41.701656],[1.055952,41.701611],[1.05598,41.701567],[1.056055,41.701499],[1.056064,41.70148],[1.056067,41.701473],[1.05607,41.701466],[1.056095,41.701413],[1.056132,41.701317],[1.056151,41.701257],[1.056157,41.701255],[1.056177,41.701247],[1.056196,41.70124],[1.056233,41.701226],[1.056272,41.701211],[1.056296,41.701199],[1.056307,41.70119],[1.056315,41.70118],[1.056327,41.701158],[1.056333,41.701147],[1.05651,41.701073],[1.056421,41.700963],[1.056139,41.70073],[1.056109,41.700699],[1.056045,41.700612],[1.056019,41.700602],[1.056032,41.700568],[1.056045,41.700533],[1.056092,41.700507],[1.056311,41.700389],[1.05653,41.700271],[1.056756,41.700149],[1.056985,41.700031],[1.05714,41.699955],[1.057096,41.699883],[1.057029,41.699808],[1.056913,41.699643],[1.056874,41.699652],[1.056348,41.699925],[1.05618,41.699725],[1.05645,41.699585],[1.056741,41.699483],[1.056453,41.699056],[1.05642,41.699006],[1.05606,41.699164],[1.055752,41.699291],[1.055733,41.699299],[1.055748,41.69933],[1.055794,41.699418],[1.055536,41.699517],[1.055389,41.699578],[1.055336,41.699579],[1.05525,41.699474],[1.055167,41.699353],[1.055099,41.69929],[1.055071,41.699306],[1.054953,41.699326],[1.054495,41.69944],[1.054489,41.699438],[1.054485,41.699433],[1.054481,41.699426],[1.054472,41.699409],[1.054461,41.699384],[1.054305,41.699059],[1.054303,41.699054],[1.054302,41.69905],[1.054301,41.699046],[1.054302,41.699041],[1.054303,41.699035],[1.054304,41.699033],[1.054476,41.698953],[1.054574,41.698909],[1.054646,41.698872],[1.054677,41.698843],[1.054674,41.698815],[1.05463,41.69877],[1.054523,41.698658],[1.054463,41.698584],[1.054854,41.698401],[1.055103,41.698273],[1.055478,41.698097],[1.055706,41.697989],[1.05563,41.697861],[1.055597,41.697812],[1.055987,41.697636],[1.0556,41.697101],[1.05547,41.697153],[1.055245,41.697241],[1.055211,41.697252],[1.055189,41.697223],[1.055123,41.697154],[1.055,41.697005],[1.054785,41.69665],[1.054405,41.69612],[1.053694,41.696452],[1.053895,41.69673],[1.053987,41.696864],[1.053573,41.697029],[1.053625,41.697103],[1.053801,41.697327],[1.05383,41.69738],[1.05322,41.697651],[1.052878,41.697801]]]]}},{"type":"Feature","id":"252252_252252 AP02 URG 3","properties":{"area_id":"252252_252252 AP02 URG 3","nom":"el Tarròs","codi_icgc":"252252 AP02 URG 3","categoria":"Àrees de poblament","codi_municipi":"252252","municipi":"Tornabous","codi_comarca":"38","comarca":"Urgell","provincia":"Lleida","font":"ICGC Àrees de poblament v3r1 202602"},"geometry":{"type":"MultiPolygon","coordinates":[[[[1.032052,41.707616],[1.032079,41.707615],[1.032211,41.707535],[1.032406,41.707443],[1.032553,41.707377],[1.03263,41.707434],[1.032821,41.70764],[1.032853,41.707683],[1.033026,41.707857],[1.032873,41.707935],[1.032638,41.708033],[1.032571,41.708062],[1.032588,41.708083],[1.032628,41.708128],[1.032648,41.708156],[1.032665,41.708183],[1.03267,41.7082],[1.032674,41.708217],[1.032667,41.708246],[1.032776,41.708385],[1.032925,41.708573],[1.032919,41.708654],[1.032956,41.708698],[1.032967,41.708711],[1.033241,41.708899],[1.03327,41.708903],[1.033391,41.708922],[1.033542,41.708941],[1.033591,41.70893],[1.033636,41.708935],[1.033681,41.708939],[1.033889,41.708941],[1.034095,41.708951],[1.034213,41.708956],[1.034332,41.708961],[1.034428,41.708963],[1.034629,41.708984],[1.034847,41.709025],[1.034894,41.709042],[1.034951,41.70903],[1.034999,41.709024],[1.035017,41.708995],[1.034982,41.708945],[1.034941,41.708897],[1.034893,41.708854],[1.03484,41.708814],[1.034837,41.708812],[1.034829,41.708802],[1.034828,41.708791],[1.034835,41.708782],[1.03485,41.708779],[1.034879,41.708779],[1.034856,41.708748],[1.034875,41.708621],[1.034851,41.708548],[1.034641,41.708392],[1.034586,41.708385],[1.034516,41.708416],[1.034392,41.708483],[1.034358,41.708472],[1.034291,41.708385],[1.034121,41.708164],[1.034093,41.708101],[1.034684,41.707642],[1.034634,41.707622],[1.034647,41.707607],[1.034458,41.707539],[1.034443,41.707554],[1.034433,41.70755],[1.034383,41.70753],[1.034258,41.70748],[1.03413,41.707433],[1.03408,41.707415],[1.03403,41.707397],[1.034022,41.707394],[1.03402,41.707357],[1.034014,41.707291],[1.034006,41.707215],[1.033998,41.707138],[1.034033,41.707131],[1.034012,41.707023],[1.033962,41.706972],[1.03392,41.706979],[1.033747,41.706895],[1.033672,41.706897],[1.033652,41.706898],[1.033603,41.706919],[1.033619,41.706808],[1.033588,41.706693],[1.033578,41.70661],[1.033477,41.706335],[1.033123,41.706425],[1.032883,41.706505],[1.032897,41.70638],[1.032897,41.706372],[1.032897,41.706364],[1.032911,41.706226],[1.032923,41.706089],[1.032925,41.705992],[1.032921,41.705896],[1.033871,41.705556],[1.033831,41.705536],[1.033737,41.705486],[1.033643,41.705436],[1.033554,41.705386],[1.033468,41.705334],[1.033453,41.705325],[1.03344,41.705313],[1.033431,41.705299],[1.03343,41.705292],[1.033431,41.705285],[1.033466,41.705216],[1.033476,41.705195],[1.033521,41.705106],[1.033624,41.704926],[1.033659,41.704839],[1.033783,41.704607],[1.033803,41.704578],[1.033784,41.704564],[1.033764,41.704553],[1.033705,41.704519],[1.033646,41.704484],[1.033541,41.704418],[1.033434,41.704353],[1.033304,41.704284],[1.033175,41.704216],[1.033077,41.704163],[1.032977,41.704112],[1.032935,41.704095],[1.032913,41.704086],[1.03286,41.704084],[1.032848,41.704106],[1.032821,41.704153],[1.032795,41.704201],[1.03274,41.704304],[1.03269,41.704409],[1.032662,41.704484],[1.032642,41.70456],[1.032631,41.704613],[1.032622,41.70467],[1.032621,41.704721],[1.032638,41.704813],[1.032657,41.70486],[1.032694,41.704987],[1.032754,41.705172],[1.032766,41.705212],[1.032773,41.705233],[1.032793,41.705454],[1.032797,41.705508],[1.032802,41.705562],[1.032814,41.70564],[1.032831,41.705717],[1.032851,41.705807],[1.032863,41.70586],[1.032861,41.706062],[1.032859,41.706084],[1.032858,41.70609],[1.032853,41.706151],[1.032844,41.706241],[1.03284,41.706277],[1.032487,41.706298],[1.032483,41.706453],[1.032436,41.706524],[1.032389,41.706505],[1.032371,41.706519],[1.032388,41.706521],[1.032376,41.706656],[1.032369,41.706723],[1.032356,41.706758],[1.032386,41.706765],[1.032438,41.706775],[1.032489,41.706783],[1.032539,41.706791],[1.032453,41.706836],[1.032493,41.706879],[1.032125,41.707102],[1.032099,41.707116],[1.031936,41.707204],[1.031916,41.707217],[1.031908,41.707222],[1.031899,41.707227],[1.03189,41.707233],[1.031846,41.707258],[1.031493,41.707459],[1.031467,41.707471],[1.031398,41.7075],[1.031309,41.707538],[1.031148,41.707599],[1.031015,41.707632],[1.0311,41.707728],[1.031171,41.707807],[1.031243,41.707886],[1.031323,41.707974],[1.031648,41.707812],[1.031827,41.707721],[1.031895,41.707686],[1.032052,41.707616]]]]}},{"type":"Feature","id":"252252_252252 AP03 URG 3","properties":{"area_id":"252252_252252 AP03 URG 3","nom":"la Guàrdia","codi_icgc":"252252 AP03 URG 3","categoria":"Àrees de poblament","codi_municipi":"252252","municipi":"Tornabous","codi_comarca":"38","comarca":"Urgell","provincia":"Lleida","font":"ICGC Àrees de poblament v3r1 202602"},"geometry":{"type":"MultiPolygon","coordinates":[[[[1.055091,41.721483],[1.055091,41.721513],[1.055131,41.721524],[1.05539,41.721491],[1.055537,41.721533],[1.055534,41.721551],[1.05541,41.721662],[1.05547,41.721696],[1.055299,41.721871],[1.055311,41.721879],[1.055399,41.721935],[1.055545,41.722031],[1.055921,41.722272],[1.055964,41.7223],[1.056016,41.722305],[1.056107,41.722173],[1.056113,41.722162],[1.056121,41.722142],[1.056134,41.722107],[1.05614,41.722094],[1.056145,41.722083],[1.056163,41.722053],[1.056172,41.722039],[1.056181,41.722025],[1.056191,41.722013],[1.056196,41.722007],[1.056201,41.722002],[1.056206,41.721997],[1.056211,41.721993],[1.056223,41.721986],[1.05623,41.721983],[1.056238,41.72198],[1.056247,41.721977],[1.056256,41.721975],[1.056265,41.721973],[1.056274,41.721971],[1.056283,41.721969],[1.056292,41.721968],[1.0563,41.721967],[1.056307,41.721967],[1.056322,41.721968],[1.056338,41.721969],[1.056365,41.721972],[1.056394,41.721976],[1.056433,41.721983],[1.05647,41.72199],[1.056495,41.721995],[1.056509,41.721999],[1.056524,41.722004],[1.05654,41.722009],[1.056565,41.72202],[1.056656,41.722061],[1.056663,41.722064],[1.05678,41.722113],[1.056799,41.722121],[1.056833,41.722143],[1.056544,41.722353],[1.056656,41.722429],[1.056764,41.722543],[1.057047,41.722359],[1.057133,41.722438],[1.057213,41.722499],[1.057261,41.722555],[1.057256,41.722613],[1.05729,41.72269],[1.057306,41.722697],[1.057323,41.722704],[1.057349,41.722715],[1.057944,41.72301],[1.058295,41.722651],[1.058309,41.722652],[1.058321,41.722656],[1.058332,41.722662],[1.058345,41.722673],[1.05836,41.722691],[1.05838,41.722718],[1.058405,41.722757],[1.058458,41.722856],[1.058462,41.722872],[1.058463,41.722884],[1.058456,41.7229],[1.058387,41.722963],[1.058076,41.723247],[1.058176,41.723403],[1.058246,41.723346],[1.058534,41.723065],[1.058563,41.723073],[1.05858,41.723086],[1.058603,41.723127],[1.058665,41.723254],[1.058721,41.723381],[1.058731,41.723415],[1.058735,41.723449],[1.058734,41.72352],[1.058728,41.723562],[1.058714,41.723604],[1.058891,41.723594],[1.058903,41.723606],[1.058923,41.723618],[1.058971,41.723636],[1.059018,41.723653],[1.059051,41.723653],[1.059101,41.723651],[1.059175,41.723643],[1.05925,41.723634],[1.059338,41.723619],[1.059383,41.723611],[1.059423,41.723607],[1.059455,41.723593],[1.059471,41.723586],[1.059482,41.723578],[1.059491,41.723564],[1.059497,41.72354],[1.059559,41.723545],[1.059554,41.723513],[1.059546,41.723479],[1.059528,41.723428],[1.059501,41.723379],[1.059433,41.723278],[1.059364,41.723178],[1.059291,41.723077],[1.05922,41.722976],[1.059199,41.722941],[1.05917,41.722876],[1.059097,41.722674],[1.059072,41.722606],[1.059054,41.722572],[1.059028,41.722541],[1.059011,41.722515],[1.059002,41.722498],[1.059001,41.722477],[1.059106,41.722434],[1.059028,41.722326],[1.058948,41.722217],[1.058873,41.721971],[1.05882,41.721953],[1.058722,41.72188],[1.058625,41.721787],[1.058561,41.721713],[1.058393,41.721589],[1.058486,41.721413],[1.058509,41.721369],[1.058538,41.721313],[1.058547,41.7213],[1.058554,41.721292],[1.058564,41.721283],[1.05856,41.721255],[1.058484,41.721183],[1.058252,41.721139],[1.058036,41.721097],[1.057994,41.721085],[1.057958,41.721071],[1.057977,41.721023],[1.058068,41.720828],[1.057889,41.720749],[1.057881,41.720746],[1.057432,41.720582],[1.057355,41.72057],[1.057352,41.720622],[1.057351,41.720749],[1.057346,41.72081],[1.05734,41.720838],[1.05733,41.720867],[1.057314,41.720902],[1.057309,41.720905],[1.057304,41.720906],[1.057295,41.720908],[1.057289,41.720909],[1.057284,41.720909],[1.056798,41.72075],[1.056248,41.720571],[1.055778,41.720417],[1.055569,41.720345],[1.055555,41.720347],[1.055533,41.720349],[1.055504,41.72035],[1.055477,41.720349],[1.055392,41.720327],[1.055346,41.720317],[1.055299,41.720308],[1.055214,41.720301],[1.055191,41.720299],[1.055083,41.720295],[1.054964,41.720294],[1.054844,41.720294],[1.054771,41.720299],[1.054696,41.720312],[1.054681,41.720317],[1.054669,41.720322],[1.054663,41.720324],[1.054659,41.720327],[1.054635,41.720342],[1.054607,41.720368],[1.054583,41.720395],[1.054546,41.720451],[1.054499,41.720534],[1.054474,41.720574],[1.054458,41.720599],[1.054451,41.72061],[1.054443,41.720617],[1.054435,41.720623],[1.05442,41.72063],[1.0544,41.720635],[1.054387,41.720636],[1.05433,41.720612],[1.054096,41.720605],[1.054098,41.72056],[1.053955,41.720555],[1.053952,41.720609],[1.053816,41.72074],[1.053778,41.720779],[1.053731,41.72082],[1.053651,41.720907],[1.053624,41.720939],[1.053563,41.72099],[1.053456,41.721089],[1.053463,41.721092],[1.053708,41.721205],[1.053718,41.721209],[1.053811,41.721256],[1.053927,41.721181],[1.053991,41.721139],[1.054136,41.721043],[1.05428,41.720946],[1.054284,41.720944],[1.054333,41.720928],[1.054384,41.720917],[1.054438,41.720912],[1.054491,41.720912],[1.054522,41.720914],[1.054508,41.721045],[1.055092,41.721074],[1.055059,41.721327],[1.055091,41.721483]]]]}}]}