{"type":"FeatureCollection","name":"ICGC Àrees de poblament - Torà","features":[{"type":"Feature","id":"252234_252234 AP05 SOL 3","properties":{"area_id":"252234_252234 AP05 SOL 3","nom":"Cellers","codi_icgc":"252234 AP05 SOL 3","categoria":"Àrees de poblament","codi_municipi":"252234","municipi":"Torà","codi_comarca":"35","comarca":"Solsonès","provincia":"Lleida","font":"ICGC Àrees de poblament v3r1 202602"},"geometry":{"type":"MultiPolygon","coordinates":[[[[1.476618,41.81203],[1.47672,41.81183],[1.476873,41.811849],[1.47692,41.811733],[1.476928,41.811707],[1.476904,41.811683],[1.476882,41.811669],[1.476829,41.811655],[1.476776,41.811648],[1.476725,41.811648],[1.476676,41.811651],[1.476631,41.811656],[1.476645,41.811536],[1.476598,41.811534],[1.47634,41.811501],[1.476177,41.81147],[1.476087,41.811464],[1.475998,41.811458],[1.475884,41.811561],[1.475748,41.811504],[1.475708,41.811558],[1.475641,41.811727],[1.47577,41.811767],[1.475803,41.811896],[1.475872,41.811893],[1.475901,41.811892],[1.475902,41.811864],[1.475906,41.811838],[1.475916,41.811801],[1.47593,41.811764],[1.475938,41.811749],[1.476122,41.811742],[1.476202,41.81176],[1.47631,41.811787],[1.476242,41.812102],[1.476373,41.812143],[1.476405,41.812157],[1.476429,41.812168],[1.47646,41.812396],[1.476664,41.812375],[1.476762,41.812347],[1.47682,41.812213],[1.476795,41.812065],[1.476618,41.81203]]]]}},{"type":"Feature","id":"252234_252234 AP04 SOL 3","properties":{"area_id":"252234_252234 AP04 SOL 3","nom":"Claret","codi_icgc":"252234 AP04 SOL 3","categoria":"Àrees de poblament","codi_municipi":"252234","municipi":"Torà","codi_comarca":"35","comarca":"Solsonès","provincia":"Lleida","font":"ICGC Àrees de poblament v3r1 202602"},"geometry":{"type":"MultiPolygon","coordinates":[[[[1.464595,41.820153],[1.464493,41.820085],[1.464478,41.820091],[1.464382,41.820093],[1.464361,41.820092],[1.464283,41.82009],[1.464134,41.8201],[1.464091,41.82012],[1.464054,41.82016],[1.46405,41.82018],[1.464046,41.8202],[1.464029,41.820252],[1.464013,41.820303],[1.463991,41.820372],[1.463967,41.820441],[1.46395,41.820482],[1.463928,41.820521],[1.463896,41.820566],[1.463862,41.820611],[1.463838,41.820648],[1.463819,41.820688],[1.463814,41.820707],[1.463813,41.820734],[1.463815,41.820761],[1.463824,41.820801],[1.463833,41.820822],[1.463848,41.820841],[1.463891,41.820875],[1.463933,41.820906],[1.463959,41.820927],[1.463982,41.820948],[1.464004,41.820977],[1.464021,41.821007],[1.464028,41.821036],[1.464109,41.821055],[1.464183,41.821069],[1.464362,41.821104],[1.464401,41.821094],[1.464484,41.820846],[1.464519,41.820841],[1.464545,41.820838],[1.464544,41.820819],[1.464542,41.820783],[1.464546,41.820762],[1.464559,41.820729],[1.464564,41.820711],[1.464565,41.820693],[1.464561,41.820656],[1.46456,41.820602],[1.464667,41.820537],[1.464769,41.820475],[1.464765,41.820467],[1.464752,41.820439],[1.464863,41.820381],[1.46482,41.820359],[1.464778,41.820334],[1.464738,41.820308],[1.464701,41.820279],[1.46467,41.820248],[1.464641,41.820213],[1.464616,41.820177],[1.4646,41.820153],[1.464595,41.820153]]]]}},{"type":"Feature","id":"252234_252234 AP06 SOL 3","properties":{"area_id":"252234_252234 AP06 SOL 3","nom":"Fontanet","codi_icgc":"252234 AP06 SOL 3","categoria":"Àrees de poblament","codi_municipi":"252234","municipi":"Torà","codi_comarca":"35","comarca":"Solsonès","provincia":"Lleida","font":"ICGC Àrees de poblament v3r1 202602"},"geometry":{"type":"MultiPolygon","coordinates":[[[[1.422124,41.823256],[1.422225,41.82312],[1.422283,41.823131],[1.422337,41.823142],[1.422397,41.823144],[1.422443,41.823152],[1.422497,41.823163],[1.422539,41.823172],[1.422614,41.823179],[1.4227,41.823169],[1.422755,41.823157],[1.422814,41.82314],[1.422868,41.823121],[1.422902,41.823145],[1.422916,41.823153],[1.422942,41.823162],[1.422969,41.823167],[1.423011,41.823173],[1.423056,41.823175],[1.423125,41.823164],[1.423118,41.823155],[1.423117,41.823143],[1.423118,41.823131],[1.423124,41.823106],[1.423167,41.823084],[1.423212,41.823063],[1.42326,41.823038],[1.423306,41.823014],[1.423322,41.823011],[1.423328,41.823028],[1.423331,41.823048],[1.423328,41.823072],[1.423329,41.823087],[1.423339,41.823099],[1.423356,41.823109],[1.423427,41.823168],[1.423537,41.823196],[1.423715,41.823225],[1.423757,41.823224],[1.423835,41.823265],[1.423866,41.823302],[1.423925,41.823345],[1.423983,41.82337],[1.424065,41.823389],[1.424149,41.823389],[1.424304,41.823384],[1.424549,41.823378],[1.424595,41.823354],[1.424612,41.823314],[1.424613,41.823263],[1.424599,41.823212],[1.424554,41.823187],[1.424452,41.82319],[1.424382,41.823184],[1.424317,41.823187],[1.424228,41.823224],[1.424143,41.82325],[1.424059,41.823239],[1.423968,41.823227],[1.423952,41.823208],[1.424054,41.823163],[1.424074,41.823085],[1.424056,41.822919],[1.424023,41.822879],[1.423897,41.822897],[1.423774,41.822922],[1.423573,41.822935],[1.423436,41.822946],[1.423314,41.82292],[1.423285,41.822913],[1.42322,41.8229],[1.423153,41.822918],[1.423086,41.822938],[1.423038,41.822952],[1.422991,41.822967],[1.422959,41.822979],[1.422951,41.822984],[1.422939,41.822979],[1.422932,41.822976],[1.4229,41.822964],[1.422888,41.822957],[1.422878,41.82295],[1.42286,41.822931],[1.422829,41.822883],[1.422803,41.822851],[1.422752,41.822805],[1.422697,41.822762],[1.42266,41.822739],[1.42262,41.822721],[1.422576,41.822704],[1.422529,41.82269],[1.422486,41.822683],[1.422443,41.822681],[1.422414,41.822683],[1.422359,41.82269],[1.422306,41.822699],[1.422271,41.822701],[1.422197,41.822703],[1.422122,41.822705],[1.422097,41.822707],[1.422073,41.822708],[1.421923,41.822712],[1.421859,41.822713],[1.421732,41.822741],[1.421628,41.822768],[1.421581,41.822792],[1.421534,41.822863],[1.421509,41.822918],[1.4215,41.822973],[1.421506,41.823004],[1.421511,41.823032],[1.421525,41.823213],[1.421515,41.82337],[1.421473,41.82351],[1.421393,41.823645],[1.421306,41.823775],[1.42153,41.823821],[1.421791,41.823874],[1.421886,41.823893],[1.422155,41.823737],[1.422164,41.823594],[1.422131,41.82347],[1.422098,41.823378],[1.422107,41.823278],[1.422124,41.823256]]]]}},{"type":"Feature","id":"252234_252234 AP03 SOL 3","properties":{"area_id":"252234_252234 AP03 SOL 3","nom":"Llanera","codi_icgc":"252234 AP03 SOL 3","categoria":"Àrees de poblament","codi_municipi":"252234","municipi":"Torà","codi_comarca":"35","comarca":"Solsonès","provincia":"Lleida","font":"ICGC Àrees de poblament v3r1 202602"},"geometry":{"type":"MultiPolygon","coordinates":[[[[1.481857,41.868461],[1.482115,41.868265],[1.481823,41.868163],[1.481674,41.868042],[1.481621,41.867931],[1.481516,41.867644],[1.481502,41.86756],[1.481385,41.86749],[1.480928,41.867225],[1.480766,41.867354],[1.480464,41.867645],[1.481143,41.867946],[1.48139,41.868083],[1.481559,41.868189],[1.481676,41.868268],[1.481857,41.868461]]]]}},{"type":"Feature","id":"252234_252234 SI01 SOL 2","properties":{"area_id":"252234_252234 SI01 SOL 2","nom":"Polígon industrial L'Aguda","codi_icgc":"252234 SI01 SOL 2","categoria":"Sector industrial","codi_municipi":"252234","municipi":"Torà","codi_comarca":"35","comarca":"Solsonès","provincia":"Lleida","font":"ICGC Àrees de poblament v3r1 202602"},"geometry":{"type":"MultiPolygon","coordinates":[[[[1.399719,41.813149],[1.399104,41.81301],[1.398503,41.813193],[1.398189,41.813291],[1.397696,41.813456],[1.397663,41.813473],[1.397641,41.813493],[1.39762,41.813546],[1.397623,41.813599],[1.397633,41.813631],[1.397843,41.814083],[1.39795,41.814067],[1.398125,41.813986],[1.398364,41.813871],[1.398954,41.813594],[1.399274,41.813457],[1.399748,41.813199],[1.399719,41.813149]]],[[[1.402322,41.814383],[1.402231,41.814259],[1.402193,41.814223],[1.402047,41.814262],[1.401965,41.814284],[1.401917,41.814295],[1.401915,41.814296],[1.401897,41.814299],[1.401873,41.814303],[1.401869,41.814304],[1.40183,41.814307],[1.401781,41.814306],[1.401732,41.814299],[1.401686,41.814286],[1.401643,41.814268],[1.401604,41.814246],[1.401577,41.814228],[1.401135,41.813945],[1.401002,41.813987],[1.401002,41.814006],[1.401,41.814013],[1.400999,41.814016],[1.400996,41.814043],[1.400996,41.814068],[1.400996,41.814069],[1.400996,41.814074],[1.400997,41.814076],[1.401005,41.814095],[1.401018,41.814123],[1.401149,41.814266],[1.401244,41.814361],[1.401262,41.814382],[1.401274,41.814403],[1.401273,41.81442],[1.401273,41.814436],[1.400863,41.8145],[1.400963,41.81473],[1.40158,41.81457],[1.401719,41.814535],[1.402322,41.814383]]],[[[1.399536,41.813854],[1.399348,41.813664],[1.399317,41.813677],[1.398535,41.814044],[1.397952,41.814304],[1.397984,41.814368],[1.398009,41.814415],[1.398006,41.814417],[1.398012,41.814421],[1.398186,41.81475],[1.398317,41.814902],[1.398331,41.815014],[1.398361,41.81509],[1.398556,41.8152],[1.398706,41.815243],[1.399051,41.815595],[1.399727,41.815223],[1.39973,41.815221],[1.399673,41.815157],[1.399504,41.814976],[1.399318,41.814775],[1.399084,41.814527],[1.399243,41.814461],[1.399707,41.814278],[1.399716,41.814193],[1.399723,41.814123],[1.399536,41.813854]]]]}},{"type":"Feature","id":"252234_252234 AP02 SOL 3","properties":{"area_id":"252234_252234 AP02 SOL 3","nom":"Sant Serni","codi_icgc":"252234 AP02 SOL 3","categoria":"Àrees de poblament","codi_municipi":"252234","municipi":"Torà","codi_comarca":"35","comarca":"Solsonès","provincia":"Lleida","font":"ICGC Àrees de poblament v3r1 202602"},"geometry":{"type":"MultiPolygon","coordinates":[[[[1.464638,41.84435],[1.464654,41.844346],[1.465068,41.844345],[1.466086,41.844402],[1.466103,41.844269],[1.466193,41.844174],[1.466205,41.844132],[1.466663,41.844171],[1.466854,41.844179],[1.466875,41.844152],[1.466885,41.844139],[1.466979,41.84393],[1.466722,41.843863],[1.466571,41.843818],[1.466519,41.843811],[1.466554,41.843561],[1.466568,41.843488],[1.466542,41.843476],[1.466409,41.843464],[1.466337,41.843458],[1.466309,41.843454],[1.466288,41.843444],[1.466277,41.843434],[1.466278,41.84341],[1.466275,41.843379],[1.466263,41.843348],[1.46625,41.843329],[1.466228,41.843306],[1.466219,41.843298],[1.466226,41.843281],[1.466147,41.84328],[1.466068,41.843271],[1.465998,41.84326],[1.465928,41.843249],[1.465863,41.843241],[1.465796,41.843238],[1.465761,41.843242],[1.465726,41.843194],[1.465697,41.843167],[1.46581,41.843117],[1.465911,41.843101],[1.466016,41.842882],[1.465831,41.842839],[1.465761,41.842802],[1.465666,41.842754],[1.465538,41.842685],[1.465416,41.842621],[1.465292,41.842594],[1.465119,41.842597],[1.465079,41.842596],[1.465042,41.842597],[1.465044,41.842627],[1.465053,41.842658],[1.465089,41.842722],[1.465125,41.842784],[1.465162,41.842849],[1.465201,41.842914],[1.465234,41.842956],[1.465248,41.84297],[1.465227,41.843004],[1.46515,41.843126],[1.465136,41.843185],[1.465153,41.843219],[1.465187,41.843259],[1.465237,41.843313],[1.465279,41.843363],[1.465291,41.843393],[1.465266,41.843415],[1.465163,41.843478],[1.465081,41.843511],[1.464983,41.843526],[1.464878,41.843539],[1.464806,41.843543],[1.464756,41.843561],[1.464657,41.843566],[1.464568,41.843573],[1.464425,41.843611],[1.464334,41.843602],[1.464266,41.843579],[1.464171,41.843537],[1.464126,41.843515],[1.464045,41.843486],[1.463953,41.843478],[1.46388,41.843489],[1.463737,41.84354],[1.463656,41.843582],[1.463636,41.843675],[1.463617,41.843749],[1.463605,41.843802],[1.463602,41.843842],[1.463601,41.843862],[1.463657,41.843867],[1.463744,41.843875],[1.46383,41.843879],[1.463915,41.843881],[1.46398,41.843882],[1.464014,41.843881],[1.464047,41.843877],[1.464105,41.843866],[1.464127,41.843862],[1.464207,41.843847],[1.464337,41.843815],[1.464439,41.843807],[1.464591,41.843821],[1.464668,41.843834],[1.464752,41.844047],[1.464337,41.844133],[1.464296,41.844189],[1.464284,41.844422],[1.464236,41.844553],[1.464207,41.844698],[1.46418,41.844779],[1.46422,41.844839],[1.46436,41.84485],[1.464517,41.844807],[1.464725,41.844619],[1.464739,41.844576],[1.464638,41.84435]]]]}},{"type":"Feature","id":"252234_252234 AP01 SOL 3","properties":{"area_id":"252234_252234 AP01 SOL 3","nom":"Torà","codi_icgc":"252234 AP01 SOL 3","categoria":"Àrees de poblament","codi_municipi":"252234","municipi":"Torà","codi_comarca":"35","comarca":"Solsonès","provincia":"Lleida","font":"ICGC Àrees de poblament v3r1 202602"},"geometry":{"type":"MultiPolygon","coordinates":[[[[1.401122,41.808102],[1.401121,41.808264],[1.401124,41.808405],[1.401138,41.80864],[1.401125,41.808679],[1.401151,41.808873],[1.401148,41.808908],[1.40117,41.809325],[1.401177,41.809451],[1.401187,41.809562],[1.401315,41.809576],[1.401534,41.809634],[1.401783,41.809522],[1.401875,41.809494],[1.401849,41.809462],[1.401824,41.809429],[1.401814,41.809401],[1.401801,41.809374],[1.402235,41.809175],[1.402249,41.809159],[1.402035,41.809149],[1.402033,41.809133],[1.402213,41.809008],[1.402278,41.808953],[1.402431,41.808888],[1.402639,41.80873],[1.402529,41.808686],[1.402565,41.808683],[1.402602,41.808691],[1.402666,41.808715],[1.402766,41.808746],[1.402818,41.808759],[1.402871,41.808769],[1.403005,41.808789],[1.403137,41.80881],[1.403206,41.808821],[1.403268,41.80884],[1.403287,41.808858],[1.403276,41.808897],[1.403203,41.809149],[1.403152,41.809298],[1.403099,41.809439],[1.403012,41.809619],[1.402946,41.809729],[1.402828,41.809708],[1.402669,41.809677],[1.402517,41.809723],[1.402335,41.809808],[1.402223,41.809902],[1.402351,41.809991],[1.402187,41.810188],[1.401521,41.810579],[1.401452,41.810617],[1.401416,41.810625],[1.401376,41.810612],[1.401323,41.810601],[1.401246,41.810613],[1.401169,41.810639],[1.40109,41.810685],[1.400978,41.810779],[1.400928,41.810826],[1.400883,41.810851],[1.400533,41.810697],[1.400346,41.810931],[1.400562,41.811017],[1.400592,41.8111],[1.40061,41.811232],[1.400583,41.811324],[1.400549,41.811427],[1.40056,41.811544],[1.400558,41.811641],[1.400586,41.81174],[1.400637,41.811793],[1.400681,41.811858],[1.400721,41.811942],[1.400721,41.812014],[1.400609,41.812137],[1.400432,41.81206],[1.400398,41.812065],[1.400293,41.812081],[1.400245,41.812116],[1.40023,41.812127],[1.40012,41.812209],[1.400043,41.812282],[1.400033,41.812331],[1.400151,41.812357],[1.400286,41.812255],[1.400541,41.812365],[1.400317,41.812643],[1.400327,41.81265],[1.40045,41.812711],[1.40053,41.81274],[1.400537,41.812737],[1.400575,41.812748],[1.400643,41.812783],[1.400745,41.812833],[1.400902,41.812903],[1.40106,41.812972],[1.401153,41.813012],[1.401248,41.81305],[1.401296,41.813066],[1.40137,41.813086],[1.401446,41.813101],[1.401552,41.81312],[1.401658,41.813138],[1.401717,41.813148],[1.401742,41.813151],[1.401759,41.81317],[1.401767,41.813178],[1.401769,41.813189],[1.401768,41.813202],[1.401765,41.813233],[1.401763,41.813258],[1.401761,41.81329],[1.401749,41.813323],[1.401732,41.813353],[1.40171,41.813377],[1.401685,41.813399],[1.40165,41.813429],[1.401615,41.81346],[1.401594,41.81348],[1.401561,41.813484],[1.40133,41.813392],[1.40118,41.813325],[1.40117,41.81332],[1.401078,41.813279],[1.401055,41.813304],[1.401014,41.813272],[1.400831,41.813241],[1.400759,41.81328],[1.400667,41.813327],[1.40071,41.813379],[1.400806,41.813557],[1.400999,41.813817],[1.401132,41.813834],[1.401218,41.813914],[1.40133,41.814038],[1.401479,41.814143],[1.401752,41.813985],[1.401776,41.813934],[1.401697,41.813881],[1.401677,41.813865],[1.401554,41.813754],[1.401527,41.813724],[1.401503,41.813681],[1.401524,41.813647],[1.401563,41.813623],[1.401677,41.813631],[1.401792,41.813643],[1.401834,41.813508],[1.401653,41.813452],[1.401667,41.81344],[1.401702,41.81341],[1.401728,41.813387],[1.401752,41.813362],[1.401771,41.813328],[1.401782,41.813294],[1.401787,41.813279],[1.401806,41.813272],[1.401808,41.813266],[1.401817,41.813243],[1.401827,41.813216],[1.401839,41.813186],[1.401851,41.813174],[1.401858,41.813175],[1.401865,41.813176],[1.401874,41.813177],[1.401913,41.813179],[1.401977,41.813185],[1.402043,41.813191],[1.4021,41.813193],[1.402157,41.813187],[1.402222,41.813174],[1.402295,41.813165],[1.402295,41.813224],[1.40243,41.813226],[1.402599,41.813221],[1.402602,41.813155],[1.402631,41.813141],[1.402689,41.813212],[1.402805,41.81318],[1.40286,41.813147],[1.402932,41.813153],[1.403005,41.813151],[1.40307,41.813144],[1.403134,41.813137],[1.403196,41.813131],[1.403256,41.813128],[1.403287,41.813132],[1.403321,41.813138],[1.403359,41.813144],[1.403399,41.813146],[1.403453,41.813142],[1.403542,41.813128],[1.403675,41.813101],[1.40374,41.813089],[1.403805,41.813082],[1.403905,41.813079],[1.403957,41.813078],[1.404008,41.813074],[1.404139,41.813059],[1.404175,41.813056],[1.404152,41.813118],[1.404138,41.813169],[1.404129,41.81321],[1.404141,41.813256],[1.404169,41.813302],[1.404208,41.81334],[1.405163,41.81328],[1.40514,41.813039],[1.405304,41.813009],[1.405371,41.812972],[1.405362,41.812967],[1.405334,41.812945],[1.405258,41.81286],[1.40524,41.812844],[1.405123,41.812734],[1.405011,41.812648],[1.404853,41.812512],[1.40473,41.812418],[1.404687,41.812377],[1.404674,41.81234],[1.404662,41.812284],[1.404671,41.812233],[1.404708,41.812204],[1.404773,41.81217],[1.404866,41.812119],[1.404908,41.812097],[1.404955,41.812075],[1.405031,41.812042],[1.405125,41.81201],[1.405223,41.811986],[1.405478,41.811937],[1.405735,41.811893],[1.405958,41.811859],[1.405969,41.81186],[1.406067,41.811875],[1.406115,41.811869],[1.406164,41.81186],[1.406197,41.811851],[1.406226,41.811836],[1.406249,41.81182],[1.406268,41.811809],[1.406266,41.811855],[1.406365,41.81187],[1.406509,41.811886],[1.406745,41.81193],[1.407208,41.812075],[1.407398,41.81215],[1.407423,41.812122],[1.40747,41.812071],[1.407485,41.812049],[1.407521,41.811977],[1.407668,41.81186],[1.407737,41.811809],[1.408198,41.812106],[1.408218,41.812116],[1.408237,41.812126],[1.408251,41.812129],[1.408289,41.812166],[1.408351,41.812207],[1.408877,41.812547],[1.408999,41.812626],[1.409036,41.81265],[1.409447,41.812363],[1.408974,41.812053],[1.40928,41.81181],[1.40935,41.811761],[1.409427,41.811722],[1.409514,41.8117],[1.409677,41.811656],[1.409989,41.81145],[1.410282,41.811417],[1.410328,41.811407],[1.410379,41.811388],[1.41033,41.811309],[1.410315,41.811286],[1.410279,41.811232],[1.409941,41.811257],[1.409891,41.811221],[1.409797,41.810871],[1.409607,41.81016],[1.409959,41.810099],[1.410088,41.810525],[1.410191,41.810963],[1.410655,41.810886],[1.410529,41.810449],[1.410516,41.810404],[1.41046,41.810209],[1.410404,41.810014],[1.410384,41.80994],[1.410364,41.809866],[1.410299,41.809776],[1.410113,41.809764],[1.409926,41.809752],[1.409815,41.809742],[1.409706,41.809728],[1.409562,41.809705],[1.409419,41.809681],[1.409247,41.809652],[1.409076,41.80962],[1.408981,41.80958],[1.408942,41.809572],[1.408775,41.809532],[1.408558,41.809494],[1.408358,41.809471],[1.408133,41.809449],[1.407456,41.809384],[1.407419,41.80927],[1.407396,41.809242],[1.407326,41.808936],[1.406979,41.80889],[1.406661,41.808867],[1.40663,41.808798],[1.406761,41.808742],[1.406957,41.808657],[1.406926,41.808604],[1.40674,41.808367],[1.406673,41.808322],[1.407101,41.808101],[1.407246,41.808035],[1.407251,41.807998],[1.407102,41.8078],[1.407059,41.807753],[1.407024,41.80775],[1.406989,41.807747],[1.406967,41.807746],[1.406945,41.807749],[1.406906,41.80776],[1.406882,41.807771],[1.406813,41.807808],[1.406745,41.807845],[1.406651,41.807891],[1.406556,41.807937],[1.406439,41.807992],[1.406321,41.808045],[1.406207,41.808095],[1.40609,41.80814],[1.40604,41.808158],[1.406034,41.80816],[1.405958,41.80807],[1.405841,41.807922],[1.405722,41.807774],[1.40562,41.807655],[1.405538,41.807558],[1.405633,41.807511],[1.405771,41.807446],[1.405965,41.807361],[1.406162,41.807278],[1.40624,41.807232],[1.406324,41.807194],[1.406418,41.807155],[1.406516,41.807118],[1.406599,41.807089],[1.406551,41.80699],[1.406476,41.806926],[1.406424,41.806876],[1.406324,41.806749],[1.406172,41.806566],[1.406085,41.806467],[1.406049,41.806452],[1.406018,41.80645],[1.405902,41.806497],[1.405786,41.806345],[1.404722,41.806769],[1.404242,41.80614],[1.404171,41.806139],[1.404117,41.806139],[1.404095,41.80614],[1.404073,41.806205],[1.404034,41.806323],[1.403997,41.806441],[1.403943,41.806626],[1.40389,41.806811],[1.403828,41.80702],[1.403767,41.807229],[1.403728,41.807361],[1.40372,41.80739],[1.403711,41.80742],[1.403706,41.807435],[1.403698,41.807462],[1.403646,41.807641],[1.40364,41.807661],[1.40363,41.807698],[1.403355,41.807655],[1.403035,41.807601],[1.402908,41.807585],[1.40289,41.807607],[1.402826,41.807728],[1.40277,41.807886],[1.402749,41.807972],[1.402719,41.808094],[1.402637,41.808335],[1.402563,41.808557],[1.402536,41.808533],[1.402493,41.808501],[1.402423,41.808472],[1.402383,41.808417],[1.402357,41.808352],[1.402392,41.808273],[1.402462,41.808153],[1.40253,41.808031],[1.40258,41.807919],[1.40259,41.807848],[1.40257,41.807799],[1.402509,41.807729],[1.40236,41.807637],[1.402206,41.807536],[1.402141,41.807514],[1.402046,41.807512],[1.401988,41.807531],[1.401933,41.807565],[1.401708,41.807766],[1.401639,41.807797],[1.401523,41.807851],[1.401435,41.807899],[1.401382,41.807963],[1.401355,41.808048],[1.401318,41.80808],[1.401194,41.808052],[1.401122,41.808102]]]]}},{"type":"Feature","id":"252234_252234 AP08 SOL 3","properties":{"area_id":"252234_252234 AP08 SOL 3","nom":"Vallferosa","codi_icgc":"252234 AP08 SOL 3","categoria":"Àrees de poblament","codi_municipi":"252234","municipi":"Torà","codi_comarca":"35","comarca":"Solsonès","provincia":"Lleida","font":"ICGC Àrees de poblament v3r1 202602"},"geometry":{"type":"MultiPolygon","coordinates":[[[[1.433755,41.862592],[1.433756,41.862549],[1.433708,41.862534],[1.433635,41.862545],[1.433539,41.862558],[1.433443,41.862544],[1.433386,41.862536],[1.433316,41.862521],[1.433215,41.862486],[1.433127,41.862447],[1.433092,41.862435],[1.433034,41.862455],[1.433002,41.862488],[1.432965,41.86255],[1.432989,41.862626],[1.43306,41.86272],[1.433109,41.862773],[1.433145,41.862842],[1.433148,41.862864],[1.433142,41.862932],[1.43315,41.862963],[1.433181,41.86298],[1.43321,41.862997],[1.433229,41.863012],[1.433255,41.863037],[1.433284,41.863062],[1.433305,41.863047],[1.43342,41.862985],[1.433508,41.862903],[1.433606,41.862809],[1.433665,41.862717],[1.433737,41.862648],[1.433755,41.862592]]]]}},{"type":"Feature","id":"252234_252234 AP07 SOL 3","properties":{"area_id":"252234_252234 AP07 SOL 3","nom":"l'Aguda","codi_icgc":"252234 AP07 SOL 3","categoria":"Àrees de poblament","codi_municipi":"252234","municipi":"Torà","codi_comarca":"35","comarca":"Solsonès","provincia":"Lleida","font":"ICGC Àrees de poblament v3r1 202602"},"geometry":{"type":"MultiPolygon","coordinates":[[[[1.400199,41.81914],[1.400226,41.819222],[1.400295,41.81927],[1.400387,41.819286],[1.400509,41.819249],[1.400619,41.819184],[1.400766,41.819127],[1.400948,41.819122],[1.40097,41.81911],[1.401021,41.819083],[1.401101,41.819043],[1.401182,41.819003],[1.401225,41.818982],[1.401233,41.818951],[1.401232,41.818933],[1.40112,41.818483],[1.401145,41.818484],[1.401198,41.818489],[1.401323,41.818506],[1.401449,41.818522],[1.401462,41.818524],[1.401496,41.818508],[1.401567,41.818472],[1.401567,41.818379],[1.401522,41.818374],[1.401523,41.818352],[1.401514,41.81814],[1.401514,41.818121],[1.401512,41.818091],[1.401511,41.818069],[1.401483,41.818066],[1.401467,41.818065],[1.401437,41.818064],[1.401424,41.818063],[1.40139,41.818063],[1.401373,41.818063],[1.401322,41.818063],[1.401299,41.818063],[1.401219,41.818061],[1.40114,41.818058],[1.401088,41.818053],[1.401025,41.818044],[1.400961,41.818034],[1.400909,41.818026],[1.400875,41.818021],[1.400885,41.818019],[1.400913,41.818014],[1.400933,41.818005],[1.400929,41.817991],[1.400911,41.817977],[1.400888,41.817966],[1.400849,41.817957],[1.400811,41.817955],[1.400752,41.817956],[1.400693,41.817958],[1.400582,41.817964],[1.400471,41.817972],[1.400606,41.818309],[1.400566,41.818318],[1.400529,41.818335],[1.400507,41.818352],[1.400491,41.818382],[1.400483,41.818411],[1.400478,41.818467],[1.400475,41.818503],[1.400499,41.818512],[1.400513,41.818517],[1.400546,41.818529],[1.400622,41.818548],[1.400665,41.818603],[1.400692,41.818666],[1.400656,41.81872],[1.400588,41.818757],[1.400465,41.818808],[1.400394,41.818878],[1.400456,41.818964],[1.400432,41.818983],[1.400367,41.819037],[1.400265,41.819093],[1.400199,41.81914]]]]}}]}