{"type":"FeatureCollection","name":"ICGC Àrees de poblament - Torres de Segre","features":[{"type":"Feature","id":"252326_252326 AP07 SGR 2","properties":{"area_id":"252326_252326 AP07 SGR 2","nom":"Pescadors-esmais","codi_icgc":"252326 AP07 SGR 2","categoria":"Àrees de poblament","codi_municipi":"252326","municipi":"Torres de Segre","codi_comarca":"33","comarca":"Segrià","provincia":"Lleida","font":"ICGC Àrees de poblament v3r1 202602"},"geometry":{"type":"MultiPolygon","coordinates":[[[[0.522603,41.47978],[0.522579,41.479774],[0.522495,41.479816],[0.522293,41.479918],[0.522212,41.47996],[0.522093,41.480026],[0.521977,41.480096],[0.52193,41.480128],[0.521866,41.48018],[0.521805,41.480234],[0.521707,41.48033],[0.521615,41.48043],[0.521572,41.480484],[0.521513,41.480567],[0.521453,41.480648],[0.521391,41.480723],[0.521357,41.480757],[0.52132,41.48079],[0.52122,41.480867],[0.521116,41.480943],[0.520947,41.481062],[0.520879,41.481109],[0.520879,41.481109],[0.520776,41.48118],[0.520696,41.481234],[0.520614,41.481284],[0.520544,41.481319],[0.520471,41.481352],[0.52034,41.481409],[0.520254,41.481444],[0.520152,41.48148],[0.520151,41.481484],[0.520131,41.481547],[0.520064,41.481756],[0.520036,41.481893],[0.520033,41.481907],[0.520031,41.481914],[0.520106,41.481934],[0.520579,41.482111],[0.520606,41.482121],[0.520646,41.482058],[0.520717,41.481952],[0.52079,41.481846],[0.520875,41.481725],[0.520879,41.481719],[0.520962,41.481605],[0.52101,41.481549],[0.521063,41.481495],[0.521179,41.481392],[0.521337,41.481255],[0.521495,41.481118],[0.521621,41.481009],[0.521747,41.480899],[0.521931,41.480738],[0.522114,41.480576],[0.522266,41.480443],[0.522419,41.48031],[0.522446,41.480283],[0.52247,41.480255],[0.522511,41.480199],[0.522562,41.480152],[0.522609,41.480123],[0.522618,41.480113],[0.52263,41.480102],[0.522647,41.480081],[0.522689,41.480047],[0.522733,41.480015],[0.52275,41.480004],[0.522738,41.479986],[0.522624,41.479813],[0.522603,41.47978]]]]}},{"type":"Feature","id":"252326_252326 SI01 SGR 2","properties":{"area_id":"252326_252326 SI01 SGR 2","nom":"Polígon industrial del Pla del Panamà","codi_icgc":"252326 SI01 SGR 2","categoria":"Sector industrial","codi_municipi":"252326","municipi":"Torres de Segre","codi_comarca":"33","comarca":"Segrià","provincia":"Lleida","font":"ICGC Àrees de poblament v3r1 202602"},"geometry":{"type":"MultiPolygon","coordinates":[[[[0.507811,41.553318],[0.506979,41.553038],[0.506617,41.553579],[0.507469,41.553866],[0.507811,41.553318]]],[[[0.506112,41.559416],[0.506302,41.559275],[0.506479,41.559391],[0.506652,41.559419],[0.506955,41.559439],[0.506998,41.559384],[0.507049,41.559322],[0.507078,41.559293],[0.50711,41.559267],[0.507179,41.559217],[0.507221,41.559181],[0.507254,41.559145],[0.507273,41.559125],[0.506864,41.558856],[0.507233,41.558562],[0.507303,41.558498],[0.507324,41.558478],[0.507703,41.558697],[0.507762,41.558642],[0.507858,41.558561],[0.50796,41.558484],[0.507999,41.558457],[0.508039,41.558431],[0.5081,41.558394],[0.508164,41.55836],[0.508188,41.558352],[0.508216,41.55835],[0.508234,41.558352],[0.508254,41.558359],[0.508263,41.558366],[0.508307,41.558418],[0.508349,41.558472],[0.508442,41.558589],[0.508535,41.558707],[0.50859,41.558777],[0.50865,41.558844],[0.508697,41.558887],[0.508728,41.558912],[0.508736,41.558915],[0.508745,41.558917],[0.508763,41.558916],[0.508773,41.558915],[0.50878,41.558912],[0.508797,41.558892],[0.508813,41.558872],[0.509056,41.558991],[0.50897,41.559154],[0.508813,41.55947],[0.508835,41.559491],[0.50887,41.559522],[0.509009,41.559649],[0.509148,41.559776],[0.509221,41.559844],[0.509295,41.559911],[0.509332,41.559945],[0.509367,41.559979],[0.509435,41.560051],[0.509449,41.560066],[0.509493,41.560111],[0.50964,41.560021],[0.509891,41.560264],[0.510081,41.56044],[0.510265,41.560466],[0.510374,41.560437],[0.5104,41.56043],[0.510418,41.560447],[0.511279,41.561204],[0.511322,41.561242],[0.511441,41.561347],[0.511445,41.561345],[0.511661,41.561235],[0.511902,41.561133],[0.512108,41.561037],[0.512272,41.560965],[0.512419,41.5609],[0.512581,41.56083],[0.512673,41.56079],[0.512908,41.560712],[0.512911,41.560714],[0.513373,41.560552],[0.51355,41.560447],[0.513501,41.560412],[0.513421,41.560355],[0.512093,41.55941],[0.511262,41.558807],[0.511055,41.558668],[0.510859,41.558536],[0.510815,41.558511],[0.510793,41.558499],[0.510413,41.558286],[0.510203,41.558164],[0.509992,41.558049],[0.509724,41.557916],[0.50967,41.557887],[0.509596,41.557849],[0.509578,41.557839],[0.509202,41.557645],[0.509199,41.557644],[0.508545,41.557346],[0.508387,41.557278],[0.507905,41.55708],[0.507447,41.556858],[0.507248,41.55683],[0.506941,41.556658],[0.506821,41.556585],[0.50668,41.5565],[0.506656,41.556523],[0.506616,41.55653],[0.505963,41.557141],[0.505672,41.557408],[0.505641,41.557436],[0.50531,41.557739],[0.505271,41.557777],[0.505219,41.557832],[0.505117,41.557779],[0.504775,41.558136],[0.504652,41.558352],[0.504606,41.558433],[0.504438,41.55869],[0.504352,41.558814],[0.504331,41.558839],[0.50392,41.559342],[0.503595,41.55974],[0.503321,41.559956],[0.503266,41.559999],[0.503164,41.560042],[0.502792,41.560374],[0.502804,41.560406],[0.502767,41.560449],[0.5027,41.560518],[0.503029,41.560691],[0.503169,41.560765],[0.504148,41.561275],[0.504168,41.561256],[0.504534,41.560887],[0.504974,41.560445],[0.505058,41.560351],[0.50541,41.560009],[0.505661,41.559766],[0.505738,41.559695],[0.506042,41.559468],[0.506112,41.559416]]]]}},{"type":"Feature","id":"252326_252326 AP01 SGR 3","properties":{"area_id":"252326_252326 AP01 SGR 3","nom":"Torres de Segre","codi_icgc":"252326 AP01 SGR 3","categoria":"Àrees de poblament","codi_municipi":"252326","municipi":"Torres de Segre","codi_comarca":"33","comarca":"Segrià","provincia":"Lleida","font":"ICGC Àrees de poblament v3r1 202602"},"geometry":{"type":"MultiPolygon","coordinates":[[[[0.515761,41.536922],[0.516025,41.536733],[0.516132,41.536669],[0.516311,41.536565],[0.516436,41.536488],[0.516574,41.536389],[0.516583,41.536387],[0.516631,41.536359],[0.516696,41.536318],[0.51676,41.536275],[0.516937,41.536158],[0.516401,41.535688],[0.516661,41.535536],[0.516951,41.535326],[0.5175,41.535798],[0.517511,41.535791],[0.517682,41.535689],[0.517708,41.535691],[0.517735,41.535691],[0.517754,41.535691],[0.517772,41.535693],[0.517782,41.535698],[0.517846,41.53574],[0.517909,41.535783],[0.51809,41.535917],[0.51819,41.535992],[0.518207,41.536004],[0.518256,41.535983],[0.518269,41.535991],[0.518283,41.535996],[0.518294,41.535996],[0.518302,41.535995],[0.518316,41.535985],[0.518498,41.535867],[0.518534,41.535843],[0.518556,41.535826],[0.518562,41.535819],[0.518562,41.535812],[0.518556,41.535806],[0.518525,41.535782],[0.518494,41.535758],[0.518469,41.535739],[0.518444,41.53572],[0.518435,41.53571],[0.51843,41.535699],[0.518428,41.535688],[0.518434,41.535677],[0.518448,41.535667],[0.518462,41.535655],[0.518814,41.535468],[0.518922,41.535389],[0.518955,41.535365],[0.51928,41.535183],[0.51909,41.535006],[0.519021,41.534942],[0.518798,41.535051],[0.518414,41.534726],[0.518719,41.534711],[0.519246,41.534365],[0.519538,41.53461],[0.51984,41.534437],[0.519891,41.534365],[0.519746,41.534244],[0.519702,41.534202],[0.519633,41.534138],[0.519344,41.53387],[0.519294,41.533899],[0.519289,41.533895],[0.519206,41.53383],[0.518385,41.534339],[0.518034,41.53405],[0.51882,41.533472],[0.518756,41.533416],[0.518352,41.532984],[0.518592,41.532854],[0.518626,41.532838],[0.518323,41.532551],[0.518521,41.532418],[0.51878,41.532254],[0.518731,41.532207],[0.518895,41.532105],[0.519215,41.531909],[0.518626,41.53137],[0.5187,41.531322],[0.518821,41.531243],[0.519239,41.530965],[0.519283,41.530937],[0.519354,41.530896],[0.519415,41.530867],[0.519459,41.530853],[0.5195,41.530853],[0.519587,41.53091],[0.519688,41.530999],[0.519762,41.531058],[0.520164,41.530791],[0.520199,41.53077],[0.52043,41.53061],[0.520164,41.530409],[0.520063,41.530341],[0.519828,41.530496],[0.519668,41.530602],[0.519592,41.530653],[0.519571,41.530666],[0.519547,41.530674],[0.51952,41.530677],[0.519494,41.530674],[0.519486,41.530672],[0.519328,41.530529],[0.519356,41.530513],[0.519238,41.530351],[0.518996,41.530487],[0.518909,41.530544],[0.519065,41.530679],[0.519095,41.530709],[0.51924,41.530836],[0.519144,41.530898],[0.519073,41.530882],[0.519003,41.530867],[0.51894,41.53085],[0.518879,41.530827],[0.518852,41.530813],[0.518829,41.530796],[0.51879,41.530756],[0.518719,41.530669],[0.518695,41.530646],[0.518663,41.530623],[0.51863,41.530607],[0.518595,41.530597],[0.518567,41.530593],[0.518539,41.530595],[0.518522,41.5306],[0.5184,41.530671],[0.518284,41.530745],[0.51806,41.53089],[0.517837,41.531036],[0.517784,41.531069],[0.517714,41.531115],[0.517606,41.531189],[0.517498,41.531263],[0.517423,41.53131],[0.517369,41.531339],[0.517314,41.531366],[0.517156,41.531441],[0.517047,41.531499],[0.516804,41.531635],[0.517307,41.532119],[0.516806,41.532442],[0.516516,41.532657],[0.516157,41.532338],[0.516059,41.532235],[0.516203,41.532119],[0.51623,41.532033],[0.516173,41.531988],[0.516045,41.531888],[0.516013,41.531863],[0.515815,41.531708],[0.5158,41.531694],[0.515586,41.531839],[0.515271,41.531574],[0.516642,41.530692],[0.516678,41.530668],[0.516678,41.530668],[0.517166,41.530346],[0.517208,41.530316],[0.517312,41.530241],[0.516077,41.529085],[0.515454,41.529475],[0.515447,41.529468],[0.515269,41.529578],[0.514905,41.529343],[0.514355,41.529224],[0.513333,41.529828],[0.51392,41.530421],[0.51386,41.530461],[0.513595,41.53065],[0.513585,41.530657],[0.513575,41.530663],[0.5135,41.530711],[0.513479,41.530724],[0.513188,41.530907],[0.512895,41.531089],[0.512795,41.531145],[0.512691,41.531197],[0.512668,41.531211],[0.512656,41.531216],[0.512645,41.531215],[0.512619,41.531202],[0.512593,41.531188],[0.512357,41.530981],[0.511954,41.531227],[0.510919,41.53186],[0.510818,41.531921],[0.51081,41.531927],[0.510798,41.531934],[0.510659,41.532013],[0.510472,41.532119],[0.510037,41.532365],[0.509924,41.53243],[0.509784,41.532514],[0.509992,41.532704],[0.510073,41.53279],[0.510387,41.533037],[0.51024,41.533153],[0.510183,41.533128],[0.510138,41.533151],[0.50978,41.533389],[0.509386,41.5331],[0.509378,41.533094],[0.50929,41.533029],[0.509246,41.532997],[0.509216,41.533021],[0.509118,41.533096],[0.509033,41.533165],[0.508685,41.532943],[0.508615,41.532952],[0.50815,41.533358],[0.508611,41.53366],[0.508634,41.533673],[0.50861,41.533747],[0.508635,41.533763],[0.508629,41.533769],[0.50873,41.533832],[0.508753,41.533811],[0.509148,41.53405],[0.509189,41.534009],[0.509327,41.534084],[0.509773,41.534387],[0.509869,41.53444],[0.509937,41.53439],[0.510097,41.534291],[0.510127,41.534319],[0.510294,41.534209],[0.510387,41.534289],[0.510452,41.534268],[0.510485,41.534294],[0.51069,41.534465],[0.51097,41.5347],[0.511115,41.534732],[0.51115,41.534741],[0.511186,41.534755],[0.511217,41.534772],[0.511482,41.534993],[0.511823,41.535281],[0.512091,41.535493],[0.51241,41.535654],[0.512653,41.535783],[0.512737,41.535828],[0.512732,41.535864],[0.512875,41.53593],[0.512877,41.535927],[0.512885,41.535921],[0.512901,41.535911],[0.512914,41.535905],[0.512931,41.535899],[0.51295,41.535897],[0.512969,41.535898],[0.512986,41.535899],[0.512997,41.535902],[0.513012,41.535906],[0.513023,41.535911],[0.513096,41.535953],[0.513164,41.535997],[0.513294,41.536082],[0.51331,41.536093],[0.513456,41.53619],[0.513585,41.536277],[0.513626,41.536304],[0.51373,41.536234],[0.514138,41.535972],[0.514303,41.536157],[0.514436,41.536266],[0.514129,41.536483],[0.514025,41.536556],[0.514056,41.536575],[0.514174,41.536649],[0.51428,41.536716],[0.514292,41.536723],[0.514338,41.536751],[0.514412,41.53679],[0.514458,41.536812],[0.514489,41.536823],[0.51451,41.536826],[0.514536,41.536825],[0.514562,41.536822],[0.514589,41.536817],[0.514622,41.536809],[0.514658,41.536799],[0.514666,41.536838],[0.514759,41.536892],[0.514796,41.536925],[0.514981,41.537046],[0.515223,41.536895],[0.515288,41.536862],[0.515309,41.536889],[0.515376,41.536974],[0.515415,41.537022],[0.515454,41.53707],[0.515463,41.537078],[0.515474,41.537084],[0.515481,41.537085],[0.515487,41.537084],[0.515563,41.537037],[0.51564,41.53699],[0.515761,41.536922]]]]}},{"type":"Feature","id":"252326_252326 AP04 SGR 3","properties":{"area_id":"252326_252326 AP04 SGR 3","nom":"Utxesa","codi_icgc":"252326 AP04 SGR 3","categoria":"Àrees de poblament","codi_municipi":"252326","municipi":"Torres de Segre","codi_comarca":"33","comarca":"Segrià","provincia":"Lleida","font":"ICGC Àrees de poblament v3r1 202602"},"geometry":{"type":"MultiPolygon","coordinates":[[[[0.513119,41.487463],[0.513083,41.487544],[0.513041,41.487587],[0.512965,41.487636],[0.51282,41.48773],[0.512688,41.487811],[0.512578,41.487887],[0.512332,41.488013],[0.512053,41.488148],[0.511997,41.48817],[0.511921,41.48817],[0.511795,41.488144],[0.511689,41.488131],[0.51158,41.488126],[0.511489,41.488132],[0.511405,41.488138],[0.511146,41.488149],[0.511005,41.488165],[0.510976,41.488285],[0.510936,41.488402],[0.510891,41.48851],[0.510815,41.48863],[0.510706,41.488762],[0.510586,41.488933],[0.510369,41.489231],[0.510271,41.489381],[0.510288,41.48941],[0.510305,41.48943],[0.510327,41.489446],[0.510334,41.489449],[0.510478,41.489509],[0.510469,41.489522],[0.510455,41.489543],[0.51077,41.489692],[0.510844,41.489551],[0.510909,41.489475],[0.510914,41.489467],[0.511021,41.489275],[0.511186,41.489054],[0.511256,41.489032],[0.511313,41.488948],[0.511368,41.488932],[0.511337,41.488872],[0.511123,41.488802],[0.511079,41.488802],[0.511027,41.488702],[0.51109,41.488646],[0.511202,41.488536],[0.511306,41.488526],[0.51141,41.488515],[0.511439,41.488512],[0.511468,41.488505],[0.511479,41.4885],[0.511491,41.488489],[0.511496,41.488476],[0.511494,41.488455],[0.51149,41.488434],[0.51148,41.488382],[0.51147,41.48833],[0.511469,41.48832],[0.51147,41.488311],[0.511475,41.48829],[0.511481,41.488281],[0.51149,41.488275],[0.511498,41.488272],[0.511505,41.488269],[0.51146,41.488228],[0.51152,41.488207],[0.511623,41.48824],[0.511723,41.488228],[0.511822,41.488232],[0.511861,41.488245],[0.511896,41.488262],[0.511904,41.488267],[0.511968,41.488303],[0.512036,41.488384],[0.512731,41.488042],[0.512733,41.487959],[0.512709,41.487925],[0.512923,41.487778],[0.513108,41.487651],[0.513188,41.487596],[0.513242,41.487542],[0.513278,41.487493],[0.513305,41.487458],[0.513392,41.487382],[0.513605,41.4873],[0.513708,41.487313],[0.513756,41.487321],[0.513978,41.487371],[0.514044,41.487378],[0.514109,41.487385],[0.514138,41.487387],[0.51419,41.487406],[0.514248,41.487394],[0.514306,41.487382],[0.514363,41.487367],[0.514445,41.487337],[0.514526,41.487307],[0.514581,41.487286],[0.514609,41.487278],[0.514636,41.487274],[0.514716,41.48727],[0.514797,41.487266],[0.514905,41.487262],[0.515014,41.487257],[0.515076,41.487253],[0.515167,41.487241],[0.515258,41.487226],[0.515406,41.487198],[0.515553,41.487168],[0.515588,41.487159],[0.515621,41.487147],[0.515647,41.487134],[0.515672,41.487135],[0.515707,41.487137],[0.515742,41.487137],[0.515794,41.487134],[0.515846,41.487129],[0.515893,41.487122],[0.515939,41.487112],[0.515989,41.487095],[0.516025,41.487083],[0.516034,41.487085],[0.516064,41.487084],[0.5161,41.487076],[0.516135,41.487066],[0.516341,41.486994],[0.516548,41.486924],[0.516732,41.486865],[0.516917,41.486806],[0.517087,41.486754],[0.517259,41.486705],[0.517316,41.486693],[0.517375,41.486687],[0.517497,41.486683],[0.51759,41.486683],[0.517684,41.486684],[0.517748,41.48668],[0.517811,41.486668],[0.517873,41.486655],[0.517967,41.48663],[0.517957,41.486594],[0.51794,41.486492],[0.517937,41.486382],[0.517946,41.486287],[0.517959,41.486223],[0.517994,41.486009],[0.517907,41.48596],[0.517757,41.485901],[0.517607,41.485845],[0.517561,41.485817],[0.517544,41.485853],[0.517527,41.485889],[0.517495,41.485957],[0.517476,41.485988],[0.517452,41.486016],[0.517394,41.486067],[0.517333,41.486118],[0.517219,41.486213],[0.517104,41.486307],[0.517048,41.486352],[0.516992,41.486395],[0.516981,41.486401],[0.516971,41.486405],[0.516954,41.486407],[0.516938,41.486405],[0.516918,41.486397],[0.516914,41.486396],[0.516898,41.486387],[0.516878,41.486376],[0.516835,41.486355],[0.516795,41.48634],[0.516771,41.486335],[0.516745,41.486336],[0.516729,41.486341],[0.516712,41.486346],[0.516695,41.48635],[0.516649,41.486366],[0.516577,41.486392],[0.516492,41.486423],[0.516335,41.48648],[0.516224,41.486522],[0.516113,41.486563],[0.516079,41.486573],[0.516046,41.486578],[0.516036,41.486577],[0.516019,41.486573],[0.516014,41.48657],[0.516011,41.486566],[0.515996,41.486534],[0.51598,41.4865],[0.515951,41.486436],[0.515926,41.486381],[0.515788,41.486357],[0.51572,41.486352],[0.515638,41.486363],[0.515515,41.486396],[0.515456,41.48643],[0.515392,41.486465],[0.515243,41.486535],[0.515088,41.486614],[0.514942,41.486701],[0.514686,41.486796],[0.514453,41.48687],[0.514201,41.486937],[0.514077,41.486963],[0.513908,41.486997],[0.513696,41.487023],[0.513612,41.487042],[0.51354,41.487069],[0.513455,41.487108],[0.513332,41.487202],[0.513235,41.48728],[0.513161,41.487372],[0.513142,41.487417],[0.513119,41.487463]]]]}},{"type":"Feature","id":"252326_252326 AP05 SGR 2","properties":{"area_id":"252326_252326 AP05 SGR 2","nom":"el Forneret","codi_icgc":"252326 AP05 SGR 2","categoria":"Àrees de poblament","codi_municipi":"252326","municipi":"Torres de Segre","codi_comarca":"33","comarca":"Segrià","provincia":"Lleida","font":"ICGC Àrees de poblament v3r1 202602"},"geometry":{"type":"MultiPolygon","coordinates":[[[[0.529453,41.509026],[0.529312,41.508866],[0.529294,41.508848],[0.529413,41.508762],[0.529487,41.508642],[0.529557,41.508518],[0.52975,41.508416],[0.530124,41.508218],[0.530328,41.508111],[0.530409,41.508072],[0.530558,41.508276],[0.53081,41.508152],[0.530821,41.508158],[0.530837,41.508166],[0.530851,41.508172],[0.530877,41.508176],[0.530919,41.508176],[0.53094,41.508177],[0.530961,41.50818],[0.530999,41.508191],[0.531018,41.508198],[0.531034,41.508208],[0.531091,41.508253],[0.53111,41.508271],[0.531196,41.508237],[0.531188,41.508206],[0.531178,41.508152],[0.531176,41.508108],[0.531181,41.508055],[0.531189,41.507997],[0.531198,41.507976],[0.531213,41.507967],[0.531231,41.507966],[0.531387,41.507949],[0.531759,41.507562],[0.531576,41.507498],[0.531448,41.507429],[0.531349,41.507382],[0.531298,41.50736],[0.531244,41.507343],[0.531102,41.507313],[0.53096,41.507283],[0.530804,41.507246],[0.530657,41.507207],[0.530507,41.507178],[0.530296,41.507096],[0.53015,41.507037],[0.530051,41.507035],[0.529951,41.507126],[0.529796,41.507311],[0.529788,41.507358],[0.529777,41.507414],[0.529664,41.507432],[0.529471,41.507469],[0.529234,41.507553],[0.529229,41.507554],[0.52921,41.50756],[0.529129,41.507587],[0.528952,41.507644],[0.529337,41.508053],[0.529066,41.508159],[0.528931,41.508242],[0.528835,41.508343],[0.528755,41.508491],[0.528736,41.508527],[0.528612,41.508759],[0.527859,41.50866],[0.52778,41.508643],[0.527731,41.508667],[0.527703,41.508688],[0.527687,41.508709],[0.527663,41.508765],[0.527653,41.5088],[0.527645,41.508854],[0.527646,41.508882],[0.527653,41.508911],[0.527668,41.508941],[0.527696,41.508981],[0.527731,41.509017],[0.527804,41.509078],[0.52788,41.509135],[0.527968,41.509192],[0.528053,41.509249],[0.528075,41.509266],[0.528111,41.509245],[0.528488,41.508963],[0.5285,41.508956],[0.528518,41.508951],[0.528538,41.508951],[0.528556,41.508957],[0.528998,41.509345],[0.529394,41.509686],[0.529395,41.509689],[0.529606,41.509864],[0.529676,41.50985],[0.530076,41.509565],[0.529931,41.50944],[0.52961,41.509162],[0.529453,41.509026]]]]}},{"type":"Feature","id":"252326_252326 AP06 SGR 2","properties":{"area_id":"252326_252326 AP06 SGR 2","nom":"el Molí d'Utxesa","codi_icgc":"252326 AP06 SGR 2","categoria":"Àrees de poblament","codi_municipi":"252326","municipi":"Torres de Segre","codi_comarca":"33","comarca":"Segrià","provincia":"Lleida","font":"ICGC Àrees de poblament v3r1 202602"},"geometry":{"type":"MultiPolygon","coordinates":[[[[0.522017,41.489702],[0.522346,41.489545],[0.522414,41.489628],[0.522453,41.489516],[0.522472,41.489463],[0.522535,41.489228],[0.522528,41.489137],[0.522514,41.489047],[0.522696,41.489023],[0.522688,41.488793],[0.522736,41.48877],[0.522834,41.488726],[0.522933,41.488684],[0.523135,41.488602],[0.523338,41.488518],[0.523542,41.488435],[0.523742,41.488353],[0.523942,41.488272],[0.52403,41.488238],[0.524119,41.488204],[0.524131,41.488201],[0.524231,41.488171],[0.52433,41.488129],[0.524357,41.488108],[0.524392,41.488057],[0.524389,41.488035],[0.524381,41.487993],[0.524367,41.487951],[0.524342,41.487897],[0.524315,41.487843],[0.524294,41.487809],[0.524251,41.487743],[0.524208,41.487678],[0.524163,41.487597],[0.524118,41.487517],[0.524091,41.487468],[0.524065,41.487419],[0.524055,41.487387],[0.52405,41.487353],[0.524049,41.487284],[0.52405,41.487225],[0.524054,41.487167],[0.52406,41.487142],[0.524085,41.487132],[0.524123,41.487117],[0.524187,41.487093],[0.524252,41.487072],[0.524308,41.487059],[0.524366,41.487052],[0.524432,41.487052],[0.524498,41.487056],[0.524552,41.487062],[0.524607,41.487068],[0.52464,41.487071],[0.524674,41.487073],[0.524674,41.487086],[0.524793,41.487086],[0.524853,41.487087],[0.524883,41.487052],[0.52492,41.48702],[0.524962,41.486993],[0.525008,41.48697],[0.525035,41.486959],[0.525058,41.486952],[0.525077,41.486939],[0.525091,41.486923],[0.525097,41.486904],[0.525096,41.486885],[0.525089,41.486868],[0.525067,41.486842],[0.525039,41.48682],[0.525007,41.486801],[0.52497,41.486788],[0.52493,41.48678],[0.524876,41.486768],[0.524825,41.486751],[0.524673,41.486708],[0.524533,41.486682],[0.52456,41.486614],[0.52466,41.486499],[0.52467,41.486493],[0.524729,41.486461],[0.524873,41.48644],[0.524892,41.48633],[0.5249,41.486352],[0.524917,41.486375],[0.52494,41.486393],[0.524968,41.486408],[0.524999,41.486418],[0.525269,41.486456],[0.525232,41.48664],[0.525239,41.486644],[0.525322,41.486672],[0.525404,41.4867],[0.525449,41.486711],[0.525519,41.486722],[0.52559,41.486731],[0.525692,41.486742],[0.525793,41.486753],[0.525859,41.486765],[0.525958,41.48679],[0.526056,41.486813],[0.526089,41.486816],[0.526123,41.486814],[0.526148,41.486806],[0.526168,41.486793],[0.526206,41.486757],[0.526243,41.486722],[0.526247,41.48672],[0.526349,41.486662],[0.526302,41.486591],[0.526319,41.48659],[0.526373,41.486584],[0.526428,41.486582],[0.526483,41.486582],[0.526561,41.48659],[0.52664,41.486597],[0.526743,41.486609],[0.526843,41.486628],[0.526901,41.486641],[0.526959,41.486655],[0.527034,41.486674],[0.527095,41.486677],[0.5272,41.486667],[0.527236,41.486653],[0.527348,41.486612],[0.527463,41.486574],[0.527521,41.486556],[0.52758,41.486541],[0.527701,41.486512],[0.527781,41.486489],[0.527826,41.486471],[0.527866,41.486448],[0.527891,41.48643],[0.527921,41.4864],[0.527943,41.486368],[0.527953,41.486346],[0.527961,41.486315],[0.527959,41.486276],[0.527947,41.486237],[0.527934,41.486211],[0.527911,41.486177],[0.52788,41.486149],[0.527848,41.486126],[0.527822,41.486114],[0.527725,41.486119],[0.527713,41.486117],[0.527638,41.486111],[0.527523,41.486111],[0.527409,41.486118],[0.527308,41.48613],[0.527259,41.486138],[0.527209,41.48615],[0.52718,41.486162],[0.527148,41.486182],[0.52714,41.486187],[0.527119,41.486197],[0.527096,41.486205],[0.527033,41.486219],[0.526969,41.486234],[0.526818,41.486245],[0.526751,41.486241],[0.526719,41.486213],[0.526734,41.486067],[0.526735,41.486059],[0.526748,41.48606],[0.52675,41.486034],[0.526737,41.486033],[0.526738,41.486028],[0.526741,41.486004],[0.526563,41.486027],[0.526421,41.486045],[0.52639,41.486033],[0.526349,41.486039],[0.526108,41.48607],[0.526097,41.486039],[0.52609,41.486011],[0.526071,41.486016],[0.526047,41.486019],[0.525981,41.486026],[0.525891,41.486036],[0.52583,41.486038],[0.52577,41.486034],[0.525749,41.48603],[0.52573,41.486024],[0.525692,41.486005],[0.525671,41.485988],[0.525657,41.485969],[0.52565,41.485955],[0.525646,41.485926],[0.525651,41.485897],[0.525674,41.485847],[0.525704,41.485797],[0.525762,41.48572],[0.525826,41.485647],[0.525854,41.485621],[0.525886,41.4856],[0.525909,41.485591],[0.525957,41.485578],[0.525994,41.485568],[0.526005,41.485566],[0.526024,41.485557],[0.526042,41.48555],[0.526068,41.485542],[0.526108,41.485531],[0.526143,41.485523],[0.526158,41.48552],[0.526164,41.485519],[0.526189,41.485514],[0.526238,41.485504],[0.526244,41.485493],[0.526227,41.485487],[0.526149,41.485458],[0.526117,41.485433],[0.526084,41.485408],[0.526063,41.485387],[0.526038,41.485352],[0.526013,41.485316],[0.525977,41.485275],[0.525937,41.485235],[0.525923,41.485226],[0.525899,41.485216],[0.525873,41.485208],[0.525846,41.485198],[0.525832,41.485197],[0.52582,41.4852],[0.525807,41.485211],[0.525797,41.485223],[0.525761,41.48527],[0.525743,41.485293],[0.525722,41.485314],[0.525674,41.485357],[0.525626,41.4854],[0.525501,41.48547],[0.525376,41.485541],[0.525234,41.485625],[0.525091,41.485708],[0.525062,41.485723],[0.525031,41.485736],[0.524965,41.485758],[0.524922,41.485767],[0.524879,41.485771],[0.52485,41.485769],[0.524762,41.485758],[0.524674,41.485747],[0.524531,41.485729],[0.52439,41.485708],[0.524279,41.485687],[0.524168,41.485665],[0.524111,41.485655],[0.524079,41.48565],[0.524057,41.485646],[0.524039,41.485605],[0.524019,41.485529],[0.524012,41.485491],[0.524007,41.485452],[0.524007,41.485373],[0.524016,41.485212],[0.524019,41.485027],[0.524025,41.484843],[0.524033,41.484705],[0.524047,41.484568],[0.524071,41.484434],[0.524072,41.484429],[0.524095,41.484375],[0.524309,41.484386],[0.524389,41.484112],[0.524416,41.48412],[0.524465,41.484135],[0.524576,41.484163],[0.524592,41.484115],[0.524773,41.484033],[0.524855,41.483674],[0.524887,41.483564],[0.524746,41.483528],[0.524729,41.483492],[0.52481,41.483462],[0.524855,41.483442],[0.524899,41.48342],[0.524985,41.483379],[0.52509,41.48334],[0.525199,41.483308],[0.52528,41.483288],[0.525362,41.48327],[0.525416,41.483259],[0.52547,41.483253],[0.525504,41.483254],[0.525603,41.483264],[0.525703,41.483276],[0.525754,41.483282],[0.525807,41.483287],[0.525844,41.48329],[0.52587,41.48329],[0.525902,41.483287],[0.525924,41.483319],[0.526076,41.483414],[0.526036,41.483465],[0.526163,41.483513],[0.526252,41.483427],[0.526298,41.48338],[0.52622,41.48324],[0.526161,41.483133],[0.526167,41.483122],[0.526186,41.48308],[0.526199,41.483037],[0.526206,41.483026],[0.526223,41.483007],[0.526246,41.482992],[0.526273,41.482981],[0.526303,41.482976],[0.526352,41.482972],[0.526418,41.482967],[0.526423,41.483076],[0.526441,41.48324],[0.526444,41.483237],[0.526552,41.483219],[0.526682,41.483171],[0.52667,41.483111],[0.526653,41.482917],[0.526587,41.482933],[0.526628,41.482909],[0.526652,41.482894],[0.526667,41.482881],[0.526679,41.482868],[0.526702,41.482841],[0.526719,41.482824],[0.526738,41.482808],[0.526752,41.4828],[0.526815,41.482782],[0.52688,41.482766],[0.52697,41.482743],[0.527061,41.482724],[0.527098,41.482718],[0.527116,41.482715],[0.527114,41.482684],[0.527043,41.482509],[0.527033,41.482482],[0.527036,41.482482],[0.527032,41.482471],[0.527014,41.482475],[0.52695,41.482488],[0.526829,41.48251],[0.52683,41.482537],[0.526622,41.482563],[0.526619,41.482563],[0.526359,41.482586],[0.526355,41.482586],[0.526111,41.482607],[0.526036,41.482614],[0.525812,41.482633],[0.525823,41.482671],[0.525695,41.482694],[0.525623,41.482709],[0.525629,41.482758],[0.525492,41.482793],[0.525382,41.482818],[0.525339,41.482819],[0.525216,41.482822],[0.525143,41.482828],[0.525146,41.482858],[0.525147,41.482974],[0.525168,41.483276],[0.525069,41.483307],[0.52497,41.483343],[0.524934,41.483359],[0.524899,41.483377],[0.524831,41.483415],[0.524783,41.483436],[0.524738,41.483453],[0.524738,41.483264],[0.524736,41.482942],[0.524752,41.482769],[0.524697,41.482758],[0.524666,41.482751],[0.524543,41.482701],[0.524521,41.482691],[0.524411,41.482638],[0.524343,41.482638],[0.524344,41.482675],[0.52436,41.482794],[0.524377,41.482913],[0.52439,41.483039],[0.524398,41.483165],[0.524399,41.483252],[0.524394,41.483338],[0.524383,41.483413],[0.524365,41.483488],[0.524339,41.483572],[0.524306,41.483654],[0.524281,41.483704],[0.524237,41.483779],[0.524234,41.483786],[0.52421,41.483823],[0.52418,41.483857],[0.524143,41.483887],[0.524102,41.483914],[0.524056,41.483935],[0.524006,41.483952],[0.523957,41.483966],[0.523869,41.48399],[0.523845,41.483997],[0.523732,41.484028],[0.523683,41.484041],[0.523641,41.484051],[0.52359,41.484064],[0.523533,41.484083],[0.523524,41.484092],[0.523522,41.484094],[0.523519,41.484102],[0.523514,41.484113],[0.523512,41.484116],[0.523499,41.484185],[0.523492,41.484254],[0.523484,41.484408],[0.523475,41.484561],[0.523463,41.484725],[0.523448,41.48489],[0.52343,41.485046],[0.52342,41.485111],[0.523407,41.485202],[0.523393,41.485292],[0.523373,41.485381],[0.523353,41.485443],[0.523329,41.485504],[0.523277,41.485626],[0.523246,41.485709],[0.523222,41.485788],[0.5232,41.485868],[0.523199,41.485885],[0.523205,41.485902],[0.523214,41.485915],[0.523231,41.485927],[0.523263,41.48595],[0.523222,41.485942],[0.523209,41.48594],[0.523177,41.485933],[0.523172,41.485948],[0.523164,41.485976],[0.523134,41.486075],[0.523218,41.486102],[0.523327,41.486138],[0.523456,41.48618],[0.523703,41.486233],[0.523706,41.486234],[0.523919,41.486289],[0.52395,41.486308],[0.523975,41.486329],[0.523996,41.486356],[0.524009,41.486385],[0.524014,41.486414],[0.524012,41.486444],[0.52401,41.486455],[0.523989,41.486521],[0.523962,41.486585],[0.523927,41.486647],[0.52392,41.486659],[0.524162,41.48671],[0.524085,41.486926],[0.524018,41.487122],[0.524018,41.487125],[0.524016,41.487164],[0.524012,41.487224],[0.524011,41.487284],[0.524012,41.487355],[0.524017,41.487392],[0.524029,41.487435],[0.52384,41.487499],[0.523804,41.487511],[0.523767,41.487524],[0.523719,41.48754],[0.523531,41.487604],[0.523252,41.48771],[0.523252,41.487779],[0.52326,41.487826],[0.523336,41.487962],[0.523359,41.488005],[0.523631,41.488362],[0.52312,41.488578],[0.523097,41.488554],[0.523065,41.48852],[0.523016,41.488469],[0.522966,41.488417],[0.522929,41.488387],[0.522872,41.488346],[0.522813,41.488306],[0.522733,41.488252],[0.522654,41.488199],[0.522643,41.488188],[0.522636,41.488182],[0.522578,41.488204],[0.522442,41.488251],[0.522366,41.488278],[0.522293,41.48831],[0.522225,41.488347],[0.522195,41.488365],[0.522166,41.488396],[0.522144,41.488429],[0.522129,41.488465],[0.522123,41.488489],[0.522166,41.488543],[0.522184,41.488559],[0.521973,41.488672],[0.521782,41.488774],[0.522103,41.489078],[0.522105,41.48908],[0.522106,41.489084],[0.522104,41.489087],[0.522058,41.489143],[0.522017,41.489196],[0.521908,41.489308],[0.521804,41.489415],[0.521798,41.489421],[0.521791,41.489429],[0.521763,41.48946],[0.521727,41.489499],[0.521713,41.489514],[0.521797,41.489568],[0.522017,41.489702]]],[[[0.516249,41.491247],[0.516261,41.491229],[0.516259,41.491257],[0.516276,41.491278],[0.516391,41.491296],[0.516423,41.491287],[0.516429,41.491298],[0.516493,41.491289],[0.516599,41.491274],[0.516729,41.491229],[0.516953,41.491113],[0.517029,41.491127],[0.517051,41.491153],[0.517073,41.491155],[0.517114,41.491163],[0.517155,41.491174],[0.517237,41.491196],[0.517294,41.491207],[0.517314,41.491186],[0.517346,41.491153],[0.517753,41.490829],[0.517772,41.490847],[0.517841,41.490917],[0.517904,41.49099],[0.517911,41.490997],[0.517917,41.491005],[0.517924,41.491013],[0.517939,41.491029],[0.517943,41.491034],[0.51795,41.491041],[0.517966,41.491059],[0.51801,41.491115],[0.518046,41.49117],[0.518062,41.4912],[0.5182,41.491167],[0.518343,41.491111],[0.518485,41.491054],[0.518687,41.490971],[0.518889,41.490888],[0.519066,41.490818],[0.519243,41.490748],[0.519281,41.490732],[0.519319,41.490714],[0.519342,41.490699],[0.519383,41.490662],[0.51942,41.490625],[0.519497,41.49055],[0.519573,41.490475],[0.519631,41.490418],[0.51969,41.490364],[0.519757,41.490322],[0.519827,41.490281],[0.519986,41.490188],[0.520053,41.490149],[0.520146,41.490095],[0.520263,41.490029],[0.520381,41.489964],[0.520469,41.48992],[0.520492,41.48991],[0.520557,41.489854],[0.520673,41.48982],[0.520603,41.489695],[0.520552,41.489599],[0.520544,41.48958],[0.520504,41.489517],[0.520449,41.489422],[0.520262,41.489502],[0.520278,41.489524],[0.520125,41.489581],[0.519974,41.489686],[0.519997,41.489721],[0.519686,41.489838],[0.519684,41.48984],[0.519599,41.489891],[0.519518,41.489948],[0.519442,41.49001],[0.519372,41.490074],[0.519344,41.490103],[0.519306,41.490142],[0.519233,41.490206],[0.519159,41.490269],[0.519092,41.490327],[0.519073,41.490344],[0.518988,41.490419],[0.518936,41.490466],[0.518909,41.490489],[0.518878,41.490508],[0.518816,41.490539],[0.518812,41.490541],[0.518755,41.49057],[0.518608,41.490627],[0.518584,41.490639],[0.518552,41.490656],[0.518501,41.490682],[0.518479,41.490693],[0.518417,41.490725],[0.518327,41.490768],[0.518232,41.490806],[0.518196,41.490819],[0.51814,41.490833],[0.518112,41.490837],[0.518083,41.490838],[0.518013,41.490837],[0.517944,41.490837],[0.517869,41.49078],[0.517846,41.490763],[0.5178,41.490737],[0.517751,41.490716],[0.517698,41.4907],[0.517714,41.490677],[0.517802,41.490513],[0.517855,41.490425],[0.517521,41.490319],[0.517361,41.490271],[0.517277,41.490245],[0.51719,41.490205],[0.517129,41.490173],[0.517143,41.490165],[0.517057,41.490127],[0.516935,41.490179],[0.516913,41.490191],[0.516787,41.490256],[0.516765,41.490288],[0.51675,41.490321],[0.516747,41.490333],[0.516708,41.490322],[0.516591,41.490313],[0.516473,41.490303],[0.516298,41.490293],[0.516122,41.490292],[0.516104,41.490294],[0.516079,41.490301],[0.516068,41.490307],[0.51606,41.490315],[0.51603,41.490355],[0.515999,41.490395],[0.516035,41.490496],[0.515926,41.490574],[0.515722,41.490517],[0.515694,41.490529],[0.515592,41.490519],[0.515433,41.490597],[0.515426,41.4906],[0.515265,41.490527],[0.515202,41.490526],[0.51482,41.490665],[0.514815,41.490667],[0.514383,41.490845],[0.514246,41.490894],[0.514134,41.490945],[0.51413,41.490982],[0.514125,41.49104],[0.514031,41.491135],[0.514072,41.491189],[0.514134,41.49124],[0.514167,41.491282],[0.514234,41.491252],[0.514264,41.491278],[0.514526,41.491191],[0.514568,41.491114],[0.514579,41.49109],[0.514588,41.491067],[0.514605,41.491046],[0.514627,41.491029],[0.514636,41.491024],[0.514707,41.490996],[0.514701,41.490985],[0.514758,41.490966],[0.514815,41.490948],[0.514852,41.490937],[0.51489,41.490929],[0.514904,41.490927],[0.514918,41.490929],[0.514925,41.490932],[0.514948,41.490948],[0.514969,41.490965],[0.515002,41.491004],[0.515021,41.491032],[0.515073,41.491115],[0.515124,41.491198],[0.515162,41.491253],[0.515178,41.491272],[0.515198,41.49129],[0.515219,41.491303],[0.515243,41.491311],[0.515275,41.491318],[0.515308,41.491321],[0.515387,41.491322],[0.515464,41.491318],[0.515613,41.491305],[0.515762,41.491293],[0.515926,41.491283],[0.516089,41.491278],[0.516177,41.491279],[0.516206,41.491275],[0.516225,41.491267],[0.51623,41.491264],[0.516249,41.491247]]]]}},{"type":"Feature","id":"252326_252326 AP03 SGR 2","properties":{"area_id":"252326_252326 AP03 SGR 2","nom":"el Salouet","codi_icgc":"252326 AP03 SGR 2","categoria":"Àrees de poblament","codi_municipi":"252326","municipi":"Torres de Segre","codi_comarca":"33","comarca":"Segrià","provincia":"Lleida","font":"ICGC Àrees de poblament v3r1 202602"},"geometry":{"type":"MultiPolygon","coordinates":[[[[0.541047,41.501607],[0.541564,41.50153],[0.541836,41.501542],[0.541841,41.501414],[0.541846,41.501236],[0.541845,41.501198],[0.541806,41.501201],[0.541734,41.501204],[0.541699,41.501203],[0.541664,41.501196],[0.541642,41.501188],[0.541631,41.501179],[0.541624,41.501168],[0.541617,41.501143],[0.541605,41.501047],[0.541599,41.500951],[0.541598,41.500847],[0.541602,41.500743],[0.541606,41.500708],[0.541613,41.500673],[0.541634,41.500603],[0.541654,41.500558],[0.541695,41.500484],[0.541743,41.500413],[0.541758,41.500395],[0.541719,41.500375],[0.54138,41.500201],[0.541304,41.500238],[0.541159,41.500303],[0.541055,41.500366],[0.541026,41.500376],[0.540987,41.500391],[0.540968,41.500399],[0.540951,41.500408],[0.540945,41.500411],[0.540859,41.500431],[0.540851,41.500428],[0.540793,41.500434],[0.540734,41.500441],[0.540691,41.500444],[0.540647,41.500446],[0.540626,41.500446],[0.540604,41.500447],[0.540571,41.500432],[0.540518,41.500386],[0.540479,41.500347],[0.54046,41.500334],[0.540438,41.500323],[0.540429,41.50032],[0.540386,41.500319],[0.540368,41.500317],[0.540362,41.500314],[0.540359,41.500308],[0.540254,41.500336],[0.540256,41.500482],[0.540301,41.500673],[0.540331,41.500741],[0.540358,41.50074],[0.540842,41.500667],[0.540853,41.500704],[0.540864,41.500741],[0.54087,41.500775],[0.540871,41.500811],[0.540872,41.500883],[0.540886,41.501019],[0.540897,41.501155],[0.5409,41.501229],[0.540902,41.501303],[0.540905,41.501437],[0.540908,41.501571],[0.540912,41.501591],[0.54092,41.50161],[0.541047,41.501607]]]]}},{"type":"Feature","id":"252326_252326 AP02 SGR 2","properties":{"area_id":"252326_252326 AP02 SGR 2","nom":"les Casetes","codi_icgc":"252326 AP02 SGR 2","categoria":"Àrees de poblament","codi_municipi":"252326","municipi":"Torres de Segre","codi_comarca":"33","comarca":"Segrià","provincia":"Lleida","font":"ICGC Àrees de poblament v3r1 202602"},"geometry":{"type":"MultiPolygon","coordinates":[[[[0.522086,41.528981],[0.522188,41.528935],[0.522212,41.52897],[0.522408,41.529219],[0.52264,41.529097],[0.522712,41.52906],[0.52276,41.529067],[0.522803,41.529082],[0.522823,41.529103],[0.522941,41.529227],[0.5231,41.529147],[0.523112,41.529106],[0.522776,41.528711],[0.522764,41.528686],[0.522821,41.528657],[0.522803,41.528591],[0.52272,41.528543],[0.522638,41.528495],[0.522591,41.528471],[0.522545,41.528445],[0.522519,41.528426],[0.522479,41.528389],[0.522838,41.528234],[0.522624,41.528032],[0.522665,41.528013],[0.522707,41.527995],[0.522747,41.527977],[0.522645,41.527873],[0.522727,41.527828],[0.522658,41.527757],[0.522752,41.527706],[0.522743,41.527697],[0.522804,41.527663],[0.52278,41.527639],[0.522712,41.527676],[0.522673,41.527637],[0.522841,41.527545],[0.522553,41.527249],[0.522606,41.527221],[0.522671,41.52719],[0.522687,41.527182],[0.522693,41.527175],[0.522691,41.527169],[0.522684,41.52716],[0.52268,41.527153],[0.522678,41.52714],[0.522684,41.527124],[0.522699,41.527106],[0.522718,41.527085],[0.52273,41.527075],[0.522743,41.527063],[0.522761,41.52705],[0.522782,41.527037],[0.522815,41.527019],[0.522848,41.527002],[0.522921,41.526967],[0.523024,41.526918],[0.523145,41.526861],[0.523094,41.526812],[0.522739,41.526456],[0.522234,41.526713],[0.522309,41.526799],[0.522552,41.52708],[0.522516,41.527099],[0.522458,41.52713],[0.522402,41.527163],[0.522292,41.527232],[0.522216,41.527276],[0.522112,41.527138],[0.521945,41.526951],[0.521813,41.52703],[0.521843,41.527063],[0.521809,41.527081],[0.521791,41.527061],[0.521714,41.527099],[0.52157,41.527188],[0.521297,41.527357],[0.521323,41.527382],[0.521259,41.527419],[0.521187,41.527444],[0.521137,41.527472],[0.521114,41.52744],[0.521104,41.527422],[0.521087,41.527392],[0.52088,41.527433],[0.520866,41.527448],[0.52073,41.527573],[0.520596,41.527698],[0.520535,41.527755],[0.520475,41.527813],[0.520433,41.527853],[0.52039,41.527894],[0.520363,41.527915],[0.520347,41.527924],[0.520329,41.527928],[0.520309,41.527931],[0.520289,41.527935],[0.520031,41.527772],[0.519996,41.527803],[0.520074,41.527853],[0.519947,41.527966],[0.519763,41.527782],[0.519735,41.527744],[0.519698,41.527715],[0.519458,41.527864],[0.519504,41.527921],[0.519509,41.527925],[0.519534,41.527952],[0.519585,41.527993],[0.519641,41.528031],[0.519731,41.528091],[0.519802,41.528138],[0.519506,41.528351],[0.519648,41.528462],[0.519668,41.52848],[0.51969,41.528498],[0.519705,41.528509],[0.519707,41.528512],[0.519724,41.528525],[0.519763,41.528566],[0.519805,41.528613],[0.519819,41.528628],[0.519845,41.52866],[0.519869,41.528693],[0.519895,41.528731],[0.519918,41.528764],[0.519949,41.528808],[0.519965,41.528831],[0.520007,41.528891],[0.520029,41.528924],[0.520081,41.528997],[0.5201,41.529024],[0.520133,41.52907],[0.520358,41.529364],[0.520415,41.529442],[0.520493,41.529544],[0.520515,41.529582],[0.520519,41.529594],[0.520582,41.52973],[0.520621,41.529781],[0.520644,41.529813],[0.520659,41.529836],[0.520662,41.529841],[0.520667,41.529852],[0.520669,41.529859],[0.520683,41.529879],[0.520902,41.530008],[0.520919,41.530017],[0.52097,41.530054],[0.521018,41.530092],[0.52109,41.530151],[0.521162,41.530211],[0.521246,41.530279],[0.521313,41.530328],[0.521364,41.530362],[0.5214,41.530384],[0.521454,41.530423],[0.521509,41.530475],[0.521513,41.530479],[0.521575,41.530471],[0.521604,41.530464],[0.521668,41.530451],[0.521726,41.530436],[0.521809,41.530407],[0.521891,41.530377],[0.522017,41.530327],[0.522018,41.530287],[0.52203,41.530277],[0.522029,41.530273],[0.522016,41.530255],[0.522002,41.530238],[0.521994,41.53023],[0.521988,41.530222],[0.521929,41.530149],[0.521882,41.530089],[0.52187,41.530075],[0.521791,41.52998],[0.521711,41.529886],[0.521594,41.529759],[0.521478,41.529631],[0.521401,41.529537],[0.521326,41.529443],[0.521296,41.529408],[0.521265,41.529374],[0.521259,41.529369],[0.521252,41.529365],[0.521244,41.529363],[0.521252,41.529355],[0.521266,41.529346],[0.521285,41.529336],[0.521307,41.529325],[0.521323,41.529318],[0.521379,41.529297],[0.521555,41.529221],[0.521727,41.529143],[0.521906,41.529062],[0.522086,41.528981]]]]}}]}