{"type":"FeatureCollection","name":"ICGC Àrees de poblament - les Valls de Valira","features":[{"type":"Feature","id":"252398_252398 AP01 AUR 3","properties":{"area_id":"252398_252398 AP01 AUR 3","nom":"Anserall","codi_icgc":"252398 AP01 AUR 3","categoria":"Àrees de poblament","codi_municipi":"252398","municipi":"les Valls de Valira","codi_comarca":"04","comarca":"Alt Urgell","provincia":"Lleida","font":"ICGC Àrees de poblament v3r1 202602"},"geometry":{"type":"MultiPolygon","coordinates":[[[[1.457501,42.379322],[1.457434,42.379237],[1.457329,42.379114],[1.457289,42.37905],[1.457316,42.37904],[1.457233,42.378937],[1.45713,42.378806],[1.457043,42.378692],[1.45689,42.37853],[1.456699,42.37831],[1.456334,42.377891],[1.45654,42.377793],[1.456669,42.377904],[1.45687,42.377807],[1.456866,42.37774],[1.456747,42.37766],[1.456556,42.377531],[1.456472,42.377459],[1.456263,42.377576],[1.456283,42.377595],[1.456273,42.377626],[1.456365,42.377713],[1.456438,42.377788],[1.456294,42.377861],[1.456156,42.377746],[1.456083,42.377677],[1.455779,42.377492],[1.455657,42.377562],[1.455642,42.377571],[1.455793,42.377697],[1.455879,42.377738],[1.455819,42.377801],[1.455917,42.377889],[1.455842,42.377939],[1.455851,42.37796],[1.456098,42.37812],[1.45624,42.378075],[1.4563,42.378142],[1.456359,42.378195],[1.456479,42.378316],[1.456649,42.378491],[1.456388,42.378615],[1.456474,42.378783],[1.45635,42.378834],[1.456258,42.378685],[1.455723,42.378978],[1.455795,42.379082],[1.455828,42.379164],[1.455505,42.379289],[1.455575,42.379414],[1.45596,42.379267],[1.456044,42.379259],[1.456081,42.379335],[1.456236,42.37929],[1.45641,42.379526],[1.456729,42.379363],[1.456793,42.379343],[1.456995,42.379267],[1.457152,42.379431],[1.457008,42.379524],[1.457261,42.379704],[1.457406,42.379825],[1.457476,42.37984],[1.457495,42.379841],[1.457686,42.379704],[1.457579,42.379613],[1.45765,42.379518],[1.457583,42.379446],[1.457501,42.379322]]],[[[1.458528,42.380699],[1.458472,42.380567],[1.458352,42.380594],[1.458249,42.380626],[1.458261,42.380674],[1.458258,42.380797],[1.458252,42.380893],[1.458243,42.380926],[1.458233,42.380953],[1.458234,42.380991],[1.45829,42.381074],[1.458349,42.381169],[1.458393,42.381191],[1.458439,42.381187],[1.458552,42.38115],[1.458557,42.381146],[1.458543,42.38111],[1.458561,42.38104],[1.458544,42.381026],[1.458511,42.380998],[1.458504,42.380971],[1.458508,42.380919],[1.458558,42.38091],[1.458557,42.380867],[1.458528,42.380699]]]]}},{"type":"Feature","id":"252398_252398 AP09 AUR 3","properties":{"area_id":"252398_252398 AP09 AUR 3","nom":"Arcavell","codi_icgc":"252398 AP09 AUR 3","categoria":"Àrees de poblament","codi_municipi":"252398","municipi":"les Valls de Valira","codi_comarca":"04","comarca":"Alt Urgell","provincia":"Lleida","font":"ICGC Àrees de poblament v3r1 202602"},"geometry":{"type":"MultiPolygon","coordinates":[[[[1.482322,42.431102],[1.482335,42.431088],[1.48237,42.431049],[1.482397,42.431022],[1.482516,42.431036],[1.482667,42.431095],[1.482745,42.43102],[1.482728,42.431011],[1.482664,42.430972],[1.482678,42.430953],[1.482699,42.43093],[1.482779,42.430926],[1.48282,42.430964],[1.483011,42.431038],[1.483059,42.43099],[1.483151,42.430997],[1.48318,42.430974],[1.48326,42.430978],[1.483325,42.430979],[1.483394,42.430969],[1.483514,42.43094],[1.483542,42.430958],[1.483626,42.430922],[1.483636,42.430921],[1.483672,42.430894],[1.4837,42.430882],[1.48375,42.430859],[1.483782,42.430852],[1.48381,42.430846],[1.483813,42.430708],[1.483791,42.430704],[1.483742,42.430695],[1.483714,42.430674],[1.483711,42.430644],[1.483684,42.430593],[1.483677,42.43056],[1.483666,42.430504],[1.483671,42.430436],[1.483673,42.430412],[1.483664,42.430417],[1.483655,42.430419],[1.483639,42.430421],[1.483622,42.43042],[1.483599,42.430418],[1.483579,42.430412],[1.483548,42.430398],[1.483517,42.430383],[1.483469,42.430358],[1.483422,42.430334],[1.483412,42.430327],[1.483406,42.43032],[1.483402,42.43031],[1.483399,42.430299],[1.483389,42.430248],[1.483378,42.430195],[1.483369,42.43017],[1.483359,42.430157],[1.483345,42.430147],[1.483297,42.430122],[1.483271,42.430106],[1.483258,42.430097],[1.483254,42.430093],[1.483317,42.430097],[1.483298,42.430041],[1.483288,42.430031],[1.483269,42.429963],[1.483254,42.429909],[1.483114,42.429862],[1.483098,42.429865],[1.483087,42.429866],[1.483067,42.429856],[1.482979,42.42983],[1.482971,42.429827],[1.482964,42.429805],[1.482962,42.429799],[1.482957,42.429782],[1.482954,42.42977],[1.482944,42.429741],[1.482958,42.429696],[1.482999,42.429664],[1.483034,42.429649],[1.483015,42.429625],[1.48303,42.429613],[1.482925,42.42953],[1.482912,42.42954],[1.482815,42.42947],[1.482707,42.429382],[1.482617,42.429346],[1.482585,42.429339],[1.482519,42.429366],[1.482471,42.429387],[1.48248,42.429313],[1.48249,42.429239],[1.482497,42.429197],[1.482506,42.429156],[1.48251,42.429125],[1.482513,42.429094],[1.482512,42.429074],[1.482509,42.429053],[1.482503,42.429042],[1.482501,42.429037],[1.482488,42.429023],[1.482484,42.429021],[1.482471,42.429011],[1.482463,42.429007],[1.482453,42.429001],[1.482443,42.428995],[1.48239,42.428979],[1.482381,42.428979],[1.482373,42.428979],[1.482355,42.428979],[1.482337,42.428981],[1.48231,42.428988],[1.482285,42.428999],[1.482247,42.429017],[1.48221,42.429035],[1.482207,42.429036],[1.482185,42.429037],[1.482105,42.429021],[1.48201,42.428987],[1.481964,42.428879],[1.481942,42.428783],[1.48187,42.428767],[1.481849,42.428818],[1.481823,42.428913],[1.481825,42.428987],[1.481851,42.42905],[1.481902,42.42911],[1.481922,42.42914],[1.481941,42.429173],[1.481943,42.429204],[1.481944,42.429226],[1.481944,42.429229],[1.481937,42.429265],[1.481922,42.429307],[1.481904,42.429329],[1.481888,42.429348],[1.481827,42.429398],[1.481804,42.429362],[1.481637,42.429423],[1.481731,42.429603],[1.481765,42.429625],[1.481773,42.42963],[1.481808,42.429651],[1.481941,42.429513],[1.482089,42.429381],[1.482157,42.429367],[1.482229,42.429398],[1.482281,42.429428],[1.482283,42.429445],[1.482294,42.429485],[1.482287,42.429521],[1.482283,42.429544],[1.482272,42.429602],[1.48227,42.42961],[1.482214,42.42962],[1.482195,42.429624],[1.4822,42.429726],[1.482211,42.429724],[1.48227,42.429714],[1.482289,42.429736],[1.482345,42.429804],[1.482406,42.429857],[1.482297,42.429917],[1.482462,42.43013],[1.482473,42.430141],[1.482561,42.430117],[1.48264,42.430198],[1.482687,42.430256],[1.482717,42.430333],[1.482648,42.430335],[1.48265,42.430357],[1.482634,42.430359],[1.482658,42.430458],[1.482609,42.430481],[1.482496,42.430488],[1.482428,42.430502],[1.482391,42.430535],[1.482252,42.430601],[1.482231,42.430598],[1.482211,42.430594],[1.482191,42.430631],[1.482183,42.430649],[1.482179,42.430666],[1.482179,42.430682],[1.482179,42.430697],[1.482151,42.430706],[1.482086,42.430683],[1.482059,42.430674],[1.481986,42.430656],[1.48199,42.430646],[1.481999,42.430629],[1.48197,42.430624],[1.481929,42.430657],[1.481905,42.430668],[1.481884,42.430689],[1.481876,42.430718],[1.481846,42.430763],[1.481818,42.43078],[1.481837,42.430804],[1.481844,42.430852],[1.481791,42.430884],[1.481719,42.430871],[1.481686,42.430927],[1.481531,42.430906],[1.481493,42.430901],[1.481485,42.430934],[1.481474,42.430958],[1.48146,42.430982],[1.481449,42.431004],[1.481439,42.431026],[1.481423,42.431067],[1.481407,42.431107],[1.481389,42.43114],[1.481368,42.431172],[1.481347,42.431199],[1.481322,42.431223],[1.481302,42.431237],[1.48128,42.431247],[1.481244,42.431258],[1.481208,42.431268],[1.4812,42.431253],[1.481206,42.43125],[1.481194,42.43124],[1.481139,42.431248],[1.481106,42.431292],[1.481158,42.431424],[1.481182,42.431466],[1.481587,42.431346],[1.481749,42.4313],[1.481837,42.431299],[1.481958,42.431297],[1.482121,42.431225],[1.482271,42.431158],[1.482588,42.431175],[1.482864,42.431229],[1.482971,42.431257],[1.483095,42.431255],[1.483149,42.431245],[1.483198,42.431233],[1.483185,42.431263],[1.483455,42.43143],[1.483547,42.431348],[1.483561,42.431336],[1.483549,42.431326],[1.483522,42.431305],[1.483493,42.431286],[1.483447,42.431261],[1.483399,42.431239],[1.483365,42.431224],[1.483331,42.43121],[1.483304,42.4312],[1.483274,42.431193],[1.483245,42.431191],[1.483218,42.431192],[1.483188,42.431193],[1.483157,42.431195],[1.48313,42.431203],[1.483106,42.431211],[1.483076,42.431217],[1.483045,42.43122],[1.483015,42.431222],[1.482985,42.431221],[1.482922,42.431212],[1.482858,42.431201],[1.482742,42.431174],[1.482625,42.431149],[1.482576,42.43114],[1.4825,42.431131],[1.482424,42.431125],[1.482366,42.431123],[1.482323,42.431121],[1.482322,42.431102]]]]}},{"type":"Feature","id":"252398_252398 AP15 AUR 3","properties":{"area_id":"252398_252398 AP15 AUR 3","nom":"Arduix","codi_icgc":"252398 AP15 AUR 3","categoria":"Àrees de poblament","codi_municipi":"252398","municipi":"les Valls de Valira","codi_comarca":"04","comarca":"Alt Urgell","provincia":"Lleida","font":"ICGC Àrees de poblament v3r1 202602"},"geometry":{"type":"MultiPolygon","coordinates":[[[[1.441255,42.445143],[1.441336,42.445154],[1.441348,42.445173],[1.441391,42.44524],[1.441461,42.445277],[1.441554,42.445323],[1.441671,42.445373],[1.441774,42.445397],[1.441792,42.445378],[1.441783,42.445346],[1.441684,42.445254],[1.441627,42.445208],[1.441534,42.445141],[1.441501,42.445123],[1.441439,42.445089],[1.441423,42.445081],[1.441437,42.445007],[1.441448,42.444952],[1.441456,42.444886],[1.441605,42.444885],[1.441604,42.444816],[1.441603,42.444742],[1.441588,42.444709],[1.44144,42.444687],[1.441269,42.444668],[1.441188,42.44467],[1.441135,42.44469],[1.441106,42.444684],[1.441056,42.444675],[1.440973,42.444662],[1.440966,42.444661],[1.440949,42.444658],[1.440906,42.444651],[1.440885,42.444676],[1.440806,42.444659],[1.440795,42.444701],[1.440764,42.444815],[1.440769,42.444816],[1.440733,42.444872],[1.440805,42.444895],[1.440731,42.445022],[1.440847,42.445057],[1.441146,42.445039],[1.441144,42.445055],[1.441133,42.445139],[1.441252,42.44516],[1.441255,42.445143]]]]}},{"type":"Feature","id":"252398_252398 AP19 AUR 3","properties":{"area_id":"252398_252398 AP19 AUR 3","nom":"Argolell","codi_icgc":"252398 AP19 AUR 3","categoria":"Àrees de poblament","codi_municipi":"252398","municipi":"les Valls de Valira","codi_comarca":"04","comarca":"Alt Urgell","provincia":"Lleida","font":"ICGC Àrees de poblament v3r1 202602"},"geometry":{"type":"MultiPolygon","coordinates":[[[[1.447203,42.435413],[1.447107,42.435401],[1.447084,42.435365],[1.447162,42.435316],[1.447145,42.435215],[1.447196,42.435181],[1.447192,42.435179],[1.447163,42.435165],[1.447132,42.435151],[1.447121,42.435145],[1.446984,42.43508],[1.446935,42.435087],[1.446779,42.435107],[1.4466,42.43537],[1.44681,42.435453],[1.446766,42.435613],[1.446761,42.43562],[1.446759,42.435623],[1.446911,42.435705],[1.446882,42.43573],[1.44672,42.435824],[1.446602,42.435898],[1.446476,42.435935],[1.446475,42.435971],[1.446486,42.435971],[1.446494,42.43608],[1.446498,42.436079],[1.446491,42.436178],[1.446483,42.436278],[1.446579,42.436257],[1.446741,42.43622],[1.446884,42.436153],[1.446919,42.436118],[1.447018,42.436165],[1.447196,42.436131],[1.447232,42.436144],[1.447502,42.435948],[1.44784,42.435852],[1.447849,42.43585],[1.447841,42.435868],[1.447831,42.435888],[1.447973,42.435927],[1.448053,42.435931],[1.448092,42.435953],[1.448182,42.435944],[1.448262,42.435919],[1.448302,42.435907],[1.448313,42.435909],[1.448372,42.435897],[1.448384,42.435882],[1.448424,42.435871],[1.448447,42.435863],[1.448469,42.435854],[1.448486,42.435834],[1.44851,42.435835],[1.448518,42.435825],[1.44848,42.435726],[1.448424,42.435734],[1.448337,42.435682],[1.448275,42.435717],[1.448196,42.435674],[1.448209,42.435654],[1.448122,42.435589],[1.447991,42.435658],[1.447929,42.435688],[1.447828,42.4357],[1.447696,42.435657],[1.447627,42.435647],[1.447324,42.435389],[1.447236,42.435456],[1.44721,42.435415],[1.447203,42.435413]]]]}},{"type":"Feature","id":"252398_252398 AP13 AUR 3","properties":{"area_id":"252398_252398 AP13 AUR 3","nom":"Ars","codi_icgc":"252398 AP13 AUR 3","categoria":"Àrees de poblament","codi_municipi":"252398","municipi":"les Valls de Valira","codi_comarca":"04","comarca":"Alt Urgell","provincia":"Lleida","font":"ICGC Àrees de poblament v3r1 202602"},"geometry":{"type":"MultiPolygon","coordinates":[[[[1.393943,42.443835],[1.394004,42.44388],[1.394015,42.443888],[1.394028,42.443894],[1.39415,42.443942],[1.394241,42.443976],[1.394275,42.443991],[1.394401,42.444044],[1.394442,42.444061],[1.394538,42.444135],[1.394536,42.444216],[1.394503,42.444272],[1.394449,42.44431],[1.394415,42.444322],[1.394393,42.44433],[1.394304,42.444376],[1.394299,42.444379],[1.39429,42.444397],[1.39429,42.444418],[1.394288,42.444486],[1.394152,42.444474],[1.394147,42.444487],[1.394145,42.44449],[1.394121,42.444528],[1.394102,42.44461],[1.394101,42.444613],[1.394065,42.444751],[1.394064,42.444755],[1.394035,42.444813],[1.394032,42.444826],[1.394026,42.444854],[1.394021,42.444878],[1.394023,42.444927],[1.394017,42.444944],[1.393928,42.444988],[1.393924,42.444991],[1.393921,42.444986],[1.39392,42.445047],[1.393916,42.445047],[1.393874,42.445051],[1.393519,42.445069],[1.393479,42.445082],[1.393456,42.445044],[1.393426,42.445027],[1.393372,42.444996],[1.393343,42.444983],[1.393285,42.444957],[1.393251,42.444944],[1.393238,42.44494],[1.393213,42.444933],[1.393015,42.444889],[1.39295,42.444874],[1.392896,42.444857],[1.392847,42.444833],[1.392839,42.444828],[1.392824,42.444819],[1.392766,42.444787],[1.392774,42.44478],[1.392764,42.444774],[1.392718,42.444747],[1.392583,42.444694],[1.39254,42.44479],[1.392533,42.444789],[1.39252,42.444787],[1.392516,42.444786],[1.392509,42.444784],[1.392482,42.444779],[1.392475,42.444777],[1.392443,42.444748],[1.392374,42.444703],[1.39222,42.4446],[1.392158,42.444576],[1.392172,42.444552],[1.392131,42.444522],[1.392063,42.444479],[1.39205,42.444473],[1.392045,42.44447],[1.392007,42.444437],[1.391881,42.444364],[1.391759,42.44453],[1.391702,42.444608],[1.391686,42.444631],[1.391678,42.444641],[1.392558,42.444855],[1.392696,42.444889],[1.393,42.444963],[1.393012,42.444965],[1.393059,42.444977],[1.393074,42.444982],[1.393079,42.444998],[1.393089,42.445008],[1.393105,42.445026],[1.39312,42.445046],[1.393134,42.44507],[1.393157,42.445105],[1.393174,42.445206],[1.393193,42.445308],[1.393153,42.445326],[1.393095,42.44535],[1.393088,42.445352],[1.393149,42.445439],[1.393201,42.445423],[1.39335,42.445362],[1.393424,42.445337],[1.393524,42.445302],[1.393532,42.445302],[1.393576,42.445298],[1.393703,42.445306],[1.393708,42.445306],[1.393805,42.445281],[1.393812,42.445266],[1.393821,42.445244],[1.393826,42.445231],[1.393836,42.44522],[1.393849,42.445213],[1.393866,42.445201],[1.393877,42.445211],[1.393879,42.445209],[1.393907,42.445234],[1.393909,42.445236],[1.393956,42.445273],[1.393962,42.445274],[1.393997,42.445259],[1.394005,42.445256],[1.394052,42.445239],[1.39417,42.44522],[1.394176,42.44522],[1.394177,42.445226],[1.394182,42.445288],[1.394199,42.445287],[1.394306,42.445279],[1.394319,42.445278],[1.394339,42.445278],[1.394461,42.445281],[1.394642,42.445199],[1.394717,42.445154],[1.394712,42.445055],[1.394796,42.445048],[1.394873,42.445049],[1.394874,42.445057],[1.394887,42.44512],[1.394989,42.445136],[1.395007,42.445133],[1.395019,42.445131],[1.395029,42.445132],[1.395038,42.445066],[1.395039,42.445055],[1.395052,42.444958],[1.395069,42.44484],[1.395063,42.444796],[1.395063,42.444792],[1.39506,42.44477],[1.395059,42.444762],[1.395044,42.444652],[1.395041,42.44463],[1.39504,42.444622],[1.39509,42.444449],[1.395081,42.444424],[1.395048,42.444336],[1.39501,42.444267],[1.395002,42.444252],[1.39497,42.444216],[1.394975,42.444201],[1.394992,42.444148],[1.395025,42.444136],[1.395073,42.444143],[1.395173,42.444045],[1.395202,42.444028],[1.395214,42.444018],[1.395229,42.444007],[1.395246,42.443996],[1.395257,42.443989],[1.395303,42.443953],[1.395323,42.443969],[1.395435,42.444063],[1.39554,42.443965],[1.39545,42.443849],[1.395432,42.443826],[1.395411,42.443799],[1.395198,42.443802],[1.39517,42.443805],[1.39517,42.443817],[1.395151,42.443915],[1.395101,42.443968],[1.395095,42.443973],[1.395069,42.443991],[1.394959,42.44396],[1.39495,42.443958],[1.39492,42.443998],[1.394856,42.443991],[1.394843,42.444024],[1.394802,42.444026],[1.394678,42.444024],[1.394565,42.444017],[1.394477,42.44401],[1.394207,42.443896],[1.394143,42.443853],[1.39414,42.443831],[1.394123,42.44383],[1.394123,42.443822],[1.394123,42.443796],[1.394083,42.443779],[1.394024,42.443746],[1.393997,42.443732],[1.394062,42.443648],[1.394052,42.443645],[1.394008,42.443628],[1.393941,42.443602],[1.393861,42.443566],[1.393829,42.443602],[1.393777,42.443644],[1.393774,42.443646],[1.393702,42.443693],[1.39369,42.443705],[1.393761,42.443731],[1.393943,42.443835]]]]}},{"type":"Feature","id":"252398_252398 AP14 AUR 3","properties":{"area_id":"252398_252398 AP14 AUR 3","nom":"Asnurri","codi_icgc":"252398 AP14 AUR 3","categoria":"Àrees de poblament","codi_municipi":"252398","municipi":"les Valls de Valira","codi_comarca":"04","comarca":"Alt Urgell","provincia":"Lleida","font":"ICGC Àrees de poblament v3r1 202602"},"geometry":{"type":"MultiPolygon","coordinates":[[[[1.421982,42.444787],[1.421973,42.444873],[1.421889,42.444897],[1.421815,42.444919],[1.421834,42.444964],[1.421852,42.444962],[1.421873,42.44496],[1.421897,42.445069],[1.421856,42.445075],[1.42182,42.44508],[1.421694,42.445101],[1.421608,42.445115],[1.42163,42.445162],[1.421688,42.445291],[1.421721,42.445364],[1.42169,42.445369],[1.421683,42.44537],[1.421667,42.445372],[1.421662,42.445374],[1.421651,42.445378],[1.421644,42.445385],[1.421639,42.445389],[1.421634,42.445393],[1.421632,42.445399],[1.421566,42.445413],[1.421586,42.4455],[1.421585,42.445533],[1.421605,42.445542],[1.421683,42.445519],[1.421721,42.445552],[1.421744,42.445536],[1.421764,42.445552],[1.421778,42.445563],[1.421833,42.445631],[1.42173,42.445643],[1.42168,42.445654],[1.42165,42.445665],[1.421642,42.445667],[1.42154,42.445692],[1.421549,42.445713],[1.4215,42.445738],[1.421521,42.44576],[1.421563,42.445752],[1.421632,42.445828],[1.421644,42.445825],[1.421647,42.445829],[1.421682,42.445859],[1.42169,42.445856],[1.421726,42.445844],[1.421732,42.445842],[1.421767,42.445829],[1.421773,42.445827],[1.421806,42.445816],[1.421809,42.445815],[1.421814,42.445814],[1.421848,42.445804],[1.421857,42.445802],[1.421874,42.445798],[1.421939,42.445781],[1.421991,42.445774],[1.422042,42.445773],[1.42208,42.445777],[1.422121,42.445784],[1.422208,42.445803],[1.422298,42.445821],[1.422325,42.445825],[1.422359,42.44583],[1.422518,42.445818],[1.42256,42.445803],[1.422569,42.4458],[1.422573,42.445799],[1.422553,42.445724],[1.42257,42.445703],[1.422613,42.445662],[1.422633,42.445659],[1.422629,42.445594],[1.422622,42.445561],[1.422616,42.445512],[1.422607,42.445481],[1.422597,42.445405],[1.422593,42.445361],[1.422592,42.445355],[1.422679,42.445329],[1.422912,42.445312],[1.422895,42.44518],[1.422904,42.445089],[1.422909,42.445063],[1.422915,42.445036],[1.422828,42.44504],[1.422755,42.445042],[1.422755,42.44497],[1.422771,42.444968],[1.422755,42.444872],[1.422714,42.444876],[1.42266,42.444881],[1.422622,42.444873],[1.422599,42.444869],[1.422579,42.444869],[1.422576,42.444854],[1.422568,42.444815],[1.422555,42.444763],[1.422528,42.444763],[1.422526,42.444751],[1.422501,42.444752],[1.422499,42.444718],[1.422409,42.444687],[1.422322,42.4447],[1.422209,42.444716],[1.421994,42.444751],[1.421982,42.444787]]]]}},{"type":"Feature","id":"252398_252398 AP16 AUR 3","properties":{"area_id":"252398_252398 AP16 AUR 3","nom":"Baixos de Calbinyà","codi_icgc":"252398 AP16 AUR 3","categoria":"Àrees de poblament","codi_municipi":"252398","municipi":"les Valls de Valira","codi_comarca":"04","comarca":"Alt Urgell","provincia":"Lleida","font":"ICGC Àrees de poblament v3r1 202602"},"geometry":{"type":"MultiPolygon","coordinates":[[[[1.47019,42.36355],[1.470312,42.363395],[1.470315,42.363391],[1.47031,42.363364],[1.470395,42.363284],[1.470438,42.363241],[1.470403,42.363218],[1.470417,42.362884],[1.470424,42.362705],[1.470426,42.362634],[1.470406,42.36263],[1.47034,42.362616],[1.470141,42.362595],[1.470127,42.362576],[1.470117,42.362566],[1.470104,42.362558],[1.47007,42.362547],[1.470076,42.362411],[1.469914,42.362402],[1.469894,42.362524],[1.469882,42.362523],[1.469768,42.362515],[1.469666,42.362504],[1.469565,42.362487],[1.469524,42.362478],[1.469464,42.36246],[1.469406,42.362438],[1.469375,42.362423],[1.469333,42.362398],[1.469296,42.362368],[1.469279,42.362348],[1.469299,42.362266],[1.46932,42.36222],[1.469304,42.36222],[1.469319,42.362185],[1.469363,42.362083],[1.469318,42.362071],[1.469168,42.362014],[1.468977,42.361981],[1.468933,42.361862],[1.468925,42.361807],[1.468799,42.361805],[1.468742,42.361816],[1.468707,42.361823],[1.468703,42.361824],[1.468687,42.361828],[1.468566,42.361879],[1.468517,42.361868],[1.468509,42.361865],[1.468276,42.362063],[1.468258,42.36211],[1.468196,42.362135],[1.468186,42.362142],[1.468125,42.362179],[1.468095,42.362197],[1.468062,42.362214],[1.468036,42.362232],[1.467973,42.362311],[1.46797,42.362322],[1.46797,42.362339],[1.467968,42.362355],[1.467965,42.362381],[1.467961,42.362397],[1.467952,42.362419],[1.467888,42.362498],[1.468028,42.362535],[1.468072,42.36254],[1.468008,42.362575],[1.467642,42.362884],[1.467579,42.362942],[1.467516,42.363],[1.467545,42.363022],[1.467637,42.363093],[1.467814,42.363007],[1.467895,42.363086],[1.467899,42.363084],[1.467942,42.363062],[1.468071,42.363],[1.468084,42.362994],[1.468055,42.362944],[1.46816,42.36286],[1.46824,42.362829],[1.468244,42.362827],[1.468374,42.362778],[1.468441,42.362743],[1.468632,42.362678],[1.468696,42.362677],[1.468742,42.362695],[1.468795,42.362732],[1.468832,42.362765],[1.468791,42.36283],[1.468848,42.362862],[1.468896,42.362801],[1.468915,42.362781],[1.468961,42.362757],[1.468999,42.362768],[1.469012,42.362791],[1.469026,42.362831],[1.469054,42.362834],[1.469121,42.36284],[1.469426,42.362871],[1.469641,42.362939],[1.469748,42.362951],[1.469814,42.362892],[1.469851,42.362916],[1.469849,42.362963],[1.469841,42.363233],[1.469855,42.363233],[1.469959,42.363402],[1.470064,42.363485],[1.470093,42.363484],[1.470144,42.36348],[1.47019,42.36355]]]]}},{"type":"Feature","id":"252398_252398 AP28 AUR 2","properties":{"area_id":"252398_252398 AP28 AUR 2","nom":"Barri de Sant Antoni","codi_icgc":"252398 AP28 AUR 2","categoria":"Àrees de poblament","codi_municipi":"252398","municipi":"les Valls de Valira","codi_comarca":"04","comarca":"Alt Urgell","provincia":"Lleida","font":"ICGC Àrees de poblament v3r1 202602"},"geometry":{"type":"MultiPolygon","coordinates":[[[[1.475294,42.361963],[1.475296,42.361954],[1.475296,42.361947],[1.4753,42.361922],[1.47531,42.361843],[1.475292,42.361759],[1.475139,42.361562],[1.475035,42.361428],[1.47498,42.361331],[1.474911,42.361367],[1.474966,42.361471],[1.474725,42.361466],[1.474568,42.361547],[1.474557,42.36171],[1.474496,42.361796],[1.474487,42.361901],[1.474887,42.361907],[1.474852,42.362163],[1.474895,42.362196],[1.474902,42.362212],[1.474891,42.362244],[1.474873,42.3623],[1.474881,42.362352],[1.474904,42.362504],[1.474908,42.362521],[1.475008,42.362689],[1.475055,42.362741],[1.475135,42.362745],[1.47518,42.362721],[1.475224,42.362567],[1.475253,42.362389],[1.475293,42.362199],[1.47533,42.362158],[1.475387,42.362152],[1.475447,42.362156],[1.475518,42.362199],[1.475618,42.362242],[1.475648,42.362314],[1.475671,42.362344],[1.475776,42.362345],[1.475836,42.362337],[1.475946,42.362282],[1.475963,42.36224],[1.476068,42.362206],[1.476149,42.362174],[1.476206,42.362157],[1.476259,42.362131],[1.476308,42.362087],[1.476332,42.36207],[1.476353,42.362047],[1.476366,42.36202],[1.476374,42.362],[1.476369,42.36197],[1.476323,42.361948],[1.476315,42.361945],[1.476184,42.361946],[1.47613,42.361961],[1.476017,42.361989],[1.475883,42.362041],[1.475743,42.362036],[1.475676,42.361996],[1.475607,42.362004],[1.475575,42.362002],[1.475455,42.361999],[1.475399,42.361992],[1.47529,42.361988],[1.475294,42.361963]]]]}},{"type":"Feature","id":"252398_252398 AP11 AUR 3","properties":{"area_id":"252398_252398 AP11 AUR 3","nom":"Barri de Sant Pere","codi_icgc":"252398 AP11 AUR 3","categoria":"Àrees de poblament","codi_municipi":"252398","municipi":"les Valls de Valira","codi_comarca":"04","comarca":"Alt Urgell","provincia":"Lleida","font":"ICGC Àrees de poblament v3r1 202602"},"geometry":{"type":"MultiPolygon","coordinates":[[[[1.482661,42.362138],[1.48271,42.362106],[1.482748,42.36207],[1.482793,42.362039],[1.482829,42.361976],[1.482888,42.361901],[1.482898,42.361892],[1.482944,42.36187],[1.483025,42.361832],[1.483097,42.36182],[1.483114,42.361805],[1.48316,42.361805],[1.483209,42.361789],[1.483287,42.36176],[1.483461,42.361737],[1.483454,42.361673],[1.483453,42.361663],[1.483451,42.361663],[1.483406,42.361524],[1.483029,42.361583],[1.482985,42.36159],[1.482823,42.361615],[1.482686,42.36165],[1.48267,42.361694],[1.482662,42.361737],[1.482658,42.361753],[1.482656,42.361761],[1.482645,42.361797],[1.482609,42.361852],[1.482577,42.361894],[1.48255,42.361903],[1.482433,42.36186],[1.482355,42.361852],[1.482051,42.361863],[1.482059,42.361984],[1.481929,42.361987],[1.481929,42.36201],[1.4819,42.362012],[1.481902,42.362031],[1.48197,42.362077],[1.481973,42.362079],[1.481991,42.362136],[1.482175,42.362117],[1.482198,42.362125],[1.48226,42.362165],[1.482356,42.362187],[1.482457,42.362199],[1.482534,42.36219],[1.482661,42.362138]]]]}},{"type":"Feature","id":"252398_252398 AP10 AUR 3","properties":{"area_id":"252398_252398 AP10 AUR 3","nom":"Bescaran","codi_icgc":"252398 AP10 AUR 3","categoria":"Àrees de poblament","codi_municipi":"252398","municipi":"les Valls de Valira","codi_comarca":"04","comarca":"Alt Urgell","provincia":"Lleida","font":"ICGC Àrees de poblament v3r1 202602"},"geometry":{"type":"MultiPolygon","coordinates":[[[[1.543946,42.403393],[1.543883,42.403421],[1.543929,42.403495],[1.543968,42.40356],[1.544488,42.403373],[1.544628,42.403327],[1.544691,42.403307],[1.54471,42.403311],[1.544828,42.403339],[1.544832,42.403326],[1.544842,42.403278],[1.54486,42.403209],[1.544857,42.403204],[1.544896,42.40321],[1.544932,42.403214],[1.544964,42.403218],[1.544996,42.403217],[1.545003,42.403215],[1.545008,42.40321],[1.545014,42.403198],[1.545016,42.403182],[1.545008,42.403167],[1.544975,42.403137],[1.544939,42.403112],[1.544911,42.403097],[1.544871,42.403079],[1.544828,42.403064],[1.544769,42.403049],[1.54471,42.403034],[1.544673,42.403022],[1.544634,42.403008],[1.544595,42.402993],[1.544589,42.402995],[1.54459,42.402977],[1.544594,42.402918],[1.544605,42.402885],[1.544615,42.402845],[1.544622,42.402805],[1.544627,42.402774],[1.544631,42.402743],[1.544638,42.402713],[1.544649,42.402684],[1.544666,42.40265],[1.544684,42.402617],[1.544701,42.402585],[1.544716,42.402551],[1.544732,42.402503],[1.544745,42.402455],[1.544765,42.402406],[1.544787,42.402285],[1.5448,42.402208],[1.54481,42.402204],[1.544814,42.40219],[1.544823,42.402164],[1.544838,42.402103],[1.544844,42.402084],[1.544873,42.402014],[1.544884,42.401991],[1.544899,42.401969],[1.544966,42.401951],[1.545122,42.401992],[1.545318,42.402003],[1.545322,42.401955],[1.545323,42.401935],[1.545331,42.401829],[1.545286,42.401773],[1.545274,42.401757],[1.545214,42.401843],[1.54515,42.401839],[1.545094,42.40182],[1.545079,42.401764],[1.545068,42.401736],[1.545056,42.401707],[1.545042,42.401669],[1.54504,42.401671],[1.544989,42.401625],[1.544943,42.40158],[1.544893,42.401534],[1.544867,42.401514],[1.544824,42.401489],[1.544779,42.401466],[1.544703,42.401431],[1.544628,42.401397],[1.544587,42.401375],[1.54457,42.401364],[1.544555,42.401351],[1.544498,42.401299],[1.544466,42.401259],[1.544443,42.401236],[1.544413,42.401204],[1.544399,42.401183],[1.54439,42.401162],[1.544388,42.401147],[1.544393,42.40112],[1.544405,42.401098],[1.544421,42.401077],[1.544395,42.401061],[1.54437,42.401047],[1.544264,42.401097],[1.54423,42.401112],[1.54418,42.401137],[1.544169,42.401142],[1.544114,42.401158],[1.544059,42.401172],[1.544045,42.401175],[1.544023,42.401158],[1.544016,42.401154],[1.544001,42.401137],[1.543948,42.401147],[1.543885,42.401159],[1.543838,42.401169],[1.543799,42.401177],[1.543779,42.401156],[1.5438,42.401133],[1.543812,42.401107],[1.543813,42.401097],[1.543814,42.40108],[1.543807,42.401053],[1.543791,42.401027],[1.543766,42.400998],[1.543739,42.400972],[1.543713,42.400949],[1.543688,42.400925],[1.543645,42.400886],[1.543553,42.400806],[1.543497,42.400762],[1.543427,42.400707],[1.543365,42.400702],[1.543344,42.400721],[1.543332,42.400731],[1.543265,42.400799],[1.543319,42.400824],[1.543294,42.400898],[1.543295,42.400909],[1.543298,42.400914],[1.543302,42.400924],[1.543307,42.400946],[1.54331,42.400972],[1.543308,42.400999],[1.543343,42.401018],[1.543431,42.401068],[1.543518,42.400997],[1.543636,42.400922],[1.543766,42.401056],[1.543774,42.401077],[1.543775,42.401099],[1.543769,42.401122],[1.543755,42.401142],[1.543736,42.401159],[1.543691,42.401197],[1.543647,42.401236],[1.543586,42.401291],[1.543526,42.401346],[1.543456,42.401397],[1.543387,42.401448],[1.54335,42.401472],[1.543339,42.401479],[1.5433,42.4015],[1.543258,42.401519],[1.54317,42.401547],[1.54315,42.401554],[1.543117,42.401565],[1.543051,42.401585],[1.542957,42.401635],[1.542906,42.401629],[1.542868,42.401624],[1.542797,42.401609],[1.542758,42.401733],[1.54276,42.401763],[1.54276,42.401769],[1.542757,42.401804],[1.542793,42.401867],[1.542861,42.401872],[1.542894,42.401873],[1.542893,42.401925],[1.542905,42.401979],[1.542928,42.402074],[1.542959,42.402077],[1.543003,42.40208],[1.543019,42.402085],[1.543079,42.402101],[1.543089,42.40217],[1.543098,42.402253],[1.543098,42.402282],[1.543094,42.402304],[1.543082,42.402357],[1.543054,42.40243],[1.543012,42.4025],[1.542961,42.402573],[1.54291,42.402644],[1.54289,42.402672],[1.542869,42.4027],[1.542787,42.402811],[1.542745,42.402886],[1.542737,42.402905],[1.542732,42.402918],[1.543002,42.403001],[1.542989,42.403022],[1.542916,42.403142],[1.542821,42.403304],[1.542801,42.403336],[1.542806,42.403426],[1.543039,42.403431],[1.543034,42.403466],[1.54303,42.403493],[1.543066,42.403544],[1.543068,42.403544],[1.543092,42.403595],[1.543294,42.40352],[1.543335,42.403488],[1.543331,42.403448],[1.543332,42.403447],[1.543321,42.403428],[1.54333,42.403354],[1.543377,42.403262],[1.543439,42.4033],[1.543494,42.403294],[1.54354,42.403253],[1.543634,42.403236],[1.543667,42.403212],[1.543691,42.403218],[1.54369,42.403205],[1.543765,42.403148],[1.543793,42.403166],[1.543812,42.403202],[1.543868,42.403218],[1.543883,42.403248],[1.543902,42.403272],[1.54391,42.403273],[1.543949,42.403373],[1.543946,42.403393]],[[1.544585,42.403045],[1.544587,42.403022],[1.544594,42.403045],[1.544585,42.403045]]]]}},{"type":"Feature","id":"252398_252398 AP23 AUR 2","properties":{"area_id":"252398_252398 AP23 AUR 2","nom":"Bordes d'Asnurri","codi_icgc":"252398 AP23 AUR 2","categoria":"Àrees de poblament","codi_municipi":"252398","municipi":"les Valls de Valira","codi_comarca":"04","comarca":"Alt Urgell","provincia":"Lleida","font":"ICGC Àrees de poblament v3r1 202602"},"geometry":{"type":"MultiPolygon","coordinates":[[[[1.380701,42.469776],[1.380646,42.470018],[1.380695,42.470198],[1.381299,42.470149],[1.38162,42.469896],[1.381462,42.469822],[1.381207,42.469976],[1.381066,42.470035],[1.380878,42.470029],[1.380839,42.470014],[1.380884,42.4698],[1.380701,42.469776]]]]}},{"type":"Feature","id":"252398_252398 AP21 AUR 2","properties":{"area_id":"252398_252398 AP21 AUR 2","nom":"Bordes d'Escàs","codi_icgc":"252398 AP21 AUR 2","categoria":"Àrees de poblament","codi_municipi":"252398","municipi":"les Valls de Valira","codi_comarca":"04","comarca":"Alt Urgell","provincia":"Lleida","font":"ICGC Àrees de poblament v3r1 202602"},"geometry":{"type":"MultiPolygon","coordinates":[[[[1.501559,42.425903],[1.501406,42.425936],[1.501474,42.426098],[1.501232,42.42616],[1.501229,42.426161],[1.501211,42.426165],[1.500981,42.426217],[1.501057,42.42639],[1.501202,42.426358],[1.50122,42.426354],[1.501284,42.42634],[1.501332,42.426335],[1.501391,42.426367],[1.501459,42.426384],[1.501524,42.426508],[1.501541,42.426523],[1.501577,42.426545],[1.501617,42.426564],[1.501661,42.426577],[1.501707,42.426585],[1.501755,42.426587],[1.501803,42.426583],[1.501849,42.426574],[1.501978,42.426539],[1.502004,42.426462],[1.502116,42.426319],[1.502137,42.426291],[1.502422,42.426152],[1.502506,42.426119],[1.502535,42.42611],[1.502645,42.426068],[1.502699,42.426048],[1.502754,42.426031],[1.502848,42.42601],[1.502943,42.42599],[1.503005,42.425977],[1.502989,42.425957],[1.502916,42.425936],[1.502835,42.425913],[1.502771,42.425899],[1.502706,42.425888],[1.50265,42.425879],[1.502593,42.425874],[1.502565,42.425873],[1.502171,42.426023],[1.501868,42.426125],[1.501761,42.42615],[1.501716,42.426131],[1.501644,42.426082],[1.501559,42.425903]]]]}},{"type":"Feature","id":"252398_252398 AP27 AUR 2","properties":{"area_id":"252398_252398 AP27 AUR 2","nom":"Bordes de  Conflent","codi_icgc":"252398 AP27 AUR 2","categoria":"Àrees de poblament","codi_municipi":"252398","municipi":"les Valls de Valira","codi_comarca":"04","comarca":"Alt Urgell","provincia":"Lleida","font":"ICGC Àrees de poblament v3r1 202602"},"geometry":{"type":"MultiPolygon","coordinates":[[[[1.374392,42.498421],[1.374315,42.498272],[1.374157,42.498296],[1.373953,42.498341],[1.373816,42.49836],[1.373812,42.498342],[1.373804,42.498323],[1.37379,42.498304],[1.373753,42.498279],[1.373723,42.498265],[1.373676,42.49825],[1.373627,42.498241],[1.373572,42.498235],[1.373492,42.498231],[1.373453,42.498228],[1.373415,42.498223],[1.373306,42.498201],[1.373143,42.498165],[1.372981,42.498127],[1.37287,42.498099],[1.372763,42.498325],[1.373628,42.498516],[1.373716,42.49856],[1.373739,42.498572],[1.373771,42.498589],[1.373821,42.498611],[1.374015,42.498564],[1.374323,42.498454],[1.374392,42.498421]]],[[[1.37267,42.498988],[1.372286,42.498943],[1.372265,42.498955],[1.372235,42.49898],[1.372189,42.499032],[1.372143,42.499083],[1.372095,42.499137],[1.372047,42.49919],[1.372023,42.499214],[1.371994,42.499236],[1.371932,42.49928],[1.371921,42.499289],[1.371929,42.49936],[1.371937,42.499377],[1.371949,42.499391],[1.371975,42.49941],[1.372023,42.499433],[1.372071,42.499455],[1.372144,42.499486],[1.372257,42.499527],[1.372315,42.499545],[1.372372,42.499555],[1.372431,42.499566],[1.372513,42.499564],[1.372636,42.499551],[1.372647,42.499339],[1.372656,42.499178],[1.372679,42.499146],[1.372733,42.499107],[1.372762,42.499066],[1.372776,42.499018],[1.372777,42.499001],[1.37267,42.498988]]]]}},{"type":"Feature","id":"252398_252398 AP06 AUR 2","properties":{"area_id":"252398_252398 AP06 AUR 2","nom":"Bordes de Civís","codi_icgc":"252398 AP06 AUR 2","categoria":"Àrees de poblament","codi_municipi":"252398","municipi":"les Valls de Valira","codi_comarca":"04","comarca":"Alt Urgell","provincia":"Lleida","font":"ICGC Àrees de poblament v3r1 202602"},"geometry":{"type":"MultiPolygon","coordinates":[[[[1.373066,42.479574],[1.373314,42.479706],[1.373551,42.479495],[1.373574,42.479367],[1.373266,42.479319],[1.373066,42.479574]]]]}},{"type":"Feature","id":"252398_252398 AP24 AUR 2","properties":{"area_id":"252398_252398 AP24 AUR 2","nom":"Bordes de Cortvassill","codi_icgc":"252398 AP24 AUR 2","categoria":"Àrees de poblament","codi_municipi":"252398","municipi":"les Valls de Valira","codi_comarca":"04","comarca":"Alt Urgell","provincia":"Lleida","font":"ICGC Àrees de poblament v3r1 202602"},"geometry":{"type":"MultiPolygon","coordinates":[[[[1.376494,42.473754],[1.376498,42.473897],[1.376537,42.473966],[1.376929,42.473894],[1.377258,42.473759],[1.377428,42.473589],[1.377285,42.473512],[1.377187,42.473412],[1.37721,42.473297],[1.377487,42.473169],[1.377584,42.473138],[1.377619,42.473198],[1.377804,42.47318],[1.377827,42.472927],[1.37765,42.472927],[1.377421,42.473088],[1.377157,42.473162],[1.376947,42.472876],[1.376767,42.472992],[1.37669,42.473197],[1.376583,42.473291],[1.376608,42.473407],[1.376611,42.473574],[1.376494,42.473754]]]]}},{"type":"Feature","id":"252398_252398 AP26 AUR 2","properties":{"area_id":"252398_252398 AP26 AUR 2","nom":"Bordes de Jussà","codi_icgc":"252398 AP26 AUR 2","categoria":"Àrees de poblament","codi_municipi":"252398","municipi":"les Valls de Valira","codi_comarca":"04","comarca":"Alt Urgell","provincia":"Lleida","font":"ICGC Àrees de poblament v3r1 202602"},"geometry":{"type":"MultiPolygon","coordinates":[[[[1.368236,42.480354],[1.368315,42.480143],[1.368322,42.480123],[1.368317,42.480114],[1.368212,42.480078],[1.368139,42.480053],[1.368076,42.479764],[1.367909,42.479747],[1.367899,42.479851],[1.367759,42.479847],[1.367624,42.479889],[1.367705,42.480013],[1.367686,42.480021],[1.367631,42.480051],[1.367573,42.480078],[1.36755,42.480085],[1.367513,42.48009],[1.36752,42.480116],[1.367581,42.480319],[1.367588,42.480329],[1.36775,42.480308],[1.36792,42.480263],[1.368105,42.480253],[1.368103,42.480331],[1.368236,42.480354]]]]}},{"type":"Feature","id":"252398_252398 AP25 AUR 2","properties":{"area_id":"252398_252398 AP25 AUR 2","nom":"Bordes de Mitjà","codi_icgc":"252398 AP25 AUR 2","categoria":"Àrees de poblament","codi_municipi":"252398","municipi":"les Valls de Valira","codi_comarca":"04","comarca":"Alt Urgell","provincia":"Lleida","font":"ICGC Àrees de poblament v3r1 202602"},"geometry":{"type":"MultiPolygon","coordinates":[[[[1.372484,42.480016],[1.372442,42.480158],[1.372576,42.480222],[1.372449,42.480373],[1.372646,42.480466],[1.372832,42.480268],[1.372853,42.480202],[1.372867,42.48014],[1.372881,42.480112],[1.372895,42.480083],[1.372895,42.48005],[1.372484,42.480016]]]]}},{"type":"Feature","id":"252398_252398 AP22 AUR 2","properties":{"area_id":"252398_252398 AP22 AUR 2","nom":"Bordes del Ras de Conques","codi_icgc":"252398 AP22 AUR 2","categoria":"Àrees de poblament","codi_municipi":"252398","municipi":"les Valls de Valira","codi_comarca":"04","comarca":"Alt Urgell","provincia":"Lleida","font":"ICGC Àrees de poblament v3r1 202602"},"geometry":{"type":"MultiPolygon","coordinates":[[[[1.371926,42.441639],[1.371812,42.441728],[1.371747,42.441781],[1.371682,42.441835],[1.371638,42.441868],[1.371576,42.441907],[1.371533,42.441936],[1.371461,42.441999],[1.371388,42.442062],[1.371342,42.44211],[1.371298,42.442157],[1.371263,42.442184],[1.371223,42.44221],[1.371184,42.442231],[1.371142,42.442248],[1.371092,42.442262],[1.37104,42.442268],[1.370973,42.442271],[1.370904,42.442273],[1.370856,42.442277],[1.370807,42.442282],[1.370779,42.442289],[1.370766,42.442296],[1.370776,42.442447],[1.371323,42.442404],[1.371384,42.442405],[1.371481,42.442385],[1.371555,42.442376],[1.371606,42.442414],[1.371689,42.442385],[1.371663,42.442294],[1.371665,42.442235],[1.371695,42.44219],[1.371662,42.442113],[1.37173,42.442064],[1.371871,42.441932],[1.371966,42.441828],[1.37201,42.441781],[1.372164,42.44163],[1.372039,42.441554],[1.371926,42.441639]]]]}},{"type":"Feature","id":"252398_252398 AP12 AUR 3","properties":{"area_id":"252398_252398 AP12 AUR 3","nom":"Calbinyà","codi_icgc":"252398 AP12 AUR 3","categoria":"Àrees de poblament","codi_municipi":"252398","municipi":"les Valls de Valira","codi_comarca":"04","comarca":"Alt Urgell","provincia":"Lleida","font":"ICGC Àrees de poblament v3r1 202602"},"geometry":{"type":"MultiPolygon","coordinates":[[[[1.46847,42.377978],[1.468388,42.377938],[1.468172,42.377965],[1.468047,42.377963],[1.467958,42.37797],[1.467912,42.377973],[1.467833,42.377962],[1.467763,42.377871],[1.467782,42.37777],[1.46781,42.377665],[1.46767,42.377682],[1.467371,42.377748],[1.467222,42.377765],[1.467216,42.377678],[1.467157,42.377669],[1.466772,42.377808],[1.46666,42.377844],[1.466656,42.377846],[1.466519,42.377917],[1.466494,42.377959],[1.466475,42.378069],[1.466595,42.378116],[1.466659,42.378142],[1.466939,42.378224],[1.466964,42.378256],[1.466961,42.378331],[1.466996,42.378418],[1.467012,42.378592],[1.467126,42.378572],[1.467158,42.378528],[1.467182,42.378496],[1.467187,42.378501],[1.467209,42.378475],[1.467287,42.378571],[1.467352,42.378684],[1.467364,42.378707],[1.467366,42.378707],[1.467385,42.378737],[1.467424,42.378795],[1.467457,42.378832],[1.467495,42.378865],[1.467501,42.378862],[1.467503,42.37886],[1.467505,42.378856],[1.467512,42.378818],[1.467515,42.378777],[1.467515,42.37871],[1.467515,42.378692],[1.46752,42.378555],[1.467544,42.378505],[1.467578,42.378511],[1.467644,42.378553],[1.467645,42.378559],[1.467735,42.378554],[1.467857,42.378572],[1.467892,42.378548],[1.467995,42.378544],[1.468022,42.37861],[1.468022,42.378599],[1.468066,42.378681],[1.468145,42.378834],[1.46821,42.378836],[1.468207,42.378873],[1.4683,42.378861],[1.468377,42.37877],[1.46839,42.378755],[1.468415,42.378721],[1.468442,42.378686],[1.468468,42.378652],[1.468532,42.378552],[1.468533,42.378542],[1.46853,42.378505],[1.46853,42.378497],[1.46853,42.378468],[1.468655,42.378356],[1.468731,42.37841],[1.468822,42.378332],[1.468695,42.378244],[1.468702,42.378239],[1.468712,42.378234],[1.468758,42.378209],[1.468912,42.378129],[1.468984,42.378092],[1.469053,42.378058],[1.46907,42.378058],[1.469091,42.378061],[1.469128,42.378067],[1.469172,42.378073],[1.469214,42.378068],[1.469244,42.378059],[1.469294,42.378038],[1.469325,42.37803],[1.46934,42.378019],[1.469406,42.377973],[1.469544,42.377926],[1.469522,42.377893],[1.469492,42.377848],[1.469124,42.377958],[1.469094,42.377887],[1.469014,42.377907],[1.468997,42.377916],[1.468957,42.377937],[1.468907,42.377949],[1.468882,42.377909],[1.468768,42.377945],[1.468659,42.377977],[1.46855,42.378026],[1.46855,42.378026],[1.468498,42.378023],[1.46847,42.377978]]]]}},{"type":"Feature","id":"252398_252398 AP08 AUR 3","properties":{"area_id":"252398_252398 AP08 AUR 3","nom":"Civís","codi_icgc":"252398 AP08 AUR 3","categoria":"Àrees de poblament","codi_municipi":"252398","municipi":"les Valls de Valira","codi_comarca":"04","comarca":"Alt Urgell","provincia":"Lleida","font":"ICGC Àrees de poblament v3r1 202602"},"geometry":{"type":"MultiPolygon","coordinates":[[[[1.422568,42.466023],[1.422555,42.465997],[1.42261,42.46598],[1.422672,42.465959],[1.42268,42.465978],[1.422732,42.465965],[1.422783,42.465952],[1.422796,42.465949],[1.422782,42.465954],[1.422807,42.465989],[1.422817,42.465985],[1.422819,42.46599],[1.422808,42.465993],[1.422841,42.466028],[1.422864,42.466021],[1.422901,42.46601],[1.422904,42.466007],[1.422965,42.465986],[1.42301,42.465975],[1.423021,42.465974],[1.423152,42.465935],[1.423146,42.465917],[1.423142,42.465907],[1.423125,42.465862],[1.423073,42.46577],[1.423077,42.465743],[1.42308,42.465727],[1.423081,42.465715],[1.423081,42.465711],[1.42308,42.465697],[1.42308,42.465683],[1.423081,42.465666],[1.423082,42.465663],[1.423083,42.465659],[1.423085,42.465648],[1.423091,42.465632],[1.423096,42.465616],[1.423106,42.465589],[1.423108,42.465584],[1.423115,42.465563],[1.423121,42.465547],[1.423123,42.46554],[1.423126,42.46553],[1.423131,42.46552],[1.42314,42.465503],[1.423148,42.465487],[1.423153,42.465478],[1.423223,42.465387],[1.42324,42.465371],[1.423265,42.465348],[1.423291,42.465325],[1.4233,42.465316],[1.423407,42.465239],[1.423416,42.465219],[1.423439,42.465227],[1.423451,42.465208],[1.423565,42.465256],[1.423572,42.465251],[1.423577,42.465246],[1.423594,42.465234],[1.423604,42.465226],[1.423609,42.465221],[1.423619,42.465227],[1.423627,42.46523],[1.423635,42.465231],[1.423642,42.465228],[1.423647,42.465225],[1.423651,42.465219],[1.423669,42.465211],[1.423586,42.465141],[1.423669,42.464933],[1.42369,42.464852],[1.423717,42.464795],[1.42372,42.46479],[1.423757,42.464799],[1.423961,42.46488],[1.424026,42.464911],[1.424146,42.464727],[1.424159,42.464712],[1.424173,42.4647],[1.424198,42.464682],[1.4242,42.464679],[1.424202,42.464672],[1.424202,42.46467],[1.42425,42.464671],[1.42426,42.46467],[1.424325,42.464658],[1.424392,42.464607],[1.424391,42.464605],[1.424386,42.464593],[1.42442,42.46458],[1.424466,42.464562],[1.424459,42.464546],[1.424429,42.4645],[1.424425,42.464494],[1.424414,42.464476],[1.424278,42.464519],[1.424216,42.464523],[1.424162,42.464508],[1.424057,42.464464],[1.423964,42.464433],[1.423868,42.46444],[1.423765,42.464424],[1.423681,42.464308],[1.423659,42.46428],[1.423654,42.464243],[1.423638,42.464193],[1.423638,42.464167],[1.423638,42.464138],[1.423635,42.464123],[1.423618,42.464116],[1.423614,42.464115],[1.423602,42.464116],[1.423542,42.464121],[1.423524,42.464123],[1.423453,42.464135],[1.423448,42.464151],[1.423441,42.464164],[1.423394,42.464205],[1.423269,42.464166],[1.423237,42.464161],[1.423232,42.464161],[1.423216,42.464163],[1.423211,42.464156],[1.423178,42.464108],[1.423087,42.464114],[1.42309,42.464141],[1.423092,42.464162],[1.423095,42.464188],[1.423024,42.464197],[1.42295,42.464191],[1.422835,42.464175],[1.422735,42.464162],[1.42252,42.464141],[1.4225,42.46419],[1.422459,42.46429],[1.422458,42.464295],[1.422457,42.464319],[1.422449,42.464421],[1.422398,42.464429],[1.422355,42.464433],[1.422312,42.46445],[1.42229,42.464458],[1.422293,42.4645],[1.422303,42.4646],[1.422396,42.464652],[1.422436,42.464684],[1.422438,42.464689],[1.422443,42.464699],[1.422451,42.464709],[1.422469,42.464719],[1.422488,42.464729],[1.422517,42.464746],[1.422547,42.464764],[1.422556,42.464769],[1.422565,42.464774],[1.422571,42.464781],[1.422576,42.464788],[1.422578,42.464794],[1.42258,42.4648],[1.422578,42.46481],[1.422569,42.46483],[1.422561,42.464845],[1.422556,42.464848],[1.422402,42.464947],[1.422291,42.464876],[1.422163,42.464957],[1.42216,42.464958],[1.42215,42.46494],[1.422102,42.464879],[1.422094,42.464869],[1.422054,42.464872],[1.422013,42.464868],[1.421989,42.464878],[1.421946,42.464881],[1.421903,42.464944],[1.421882,42.46497],[1.421876,42.464983],[1.421841,42.465033],[1.421818,42.465052],[1.421729,42.465086],[1.421714,42.465067],[1.421745,42.464966],[1.421616,42.46491],[1.421571,42.464918],[1.421526,42.46492],[1.421449,42.464895],[1.421339,42.464843],[1.421276,42.464797],[1.421322,42.464757],[1.421327,42.46476],[1.421355,42.464736],[1.421332,42.464718],[1.421328,42.464715],[1.421309,42.464696],[1.421235,42.464618],[1.421191,42.46458],[1.421135,42.464534],[1.420964,42.464635],[1.421035,42.464716],[1.421015,42.464724],[1.420965,42.46473],[1.42088,42.464753],[1.420857,42.464768],[1.420854,42.464779],[1.420851,42.46479],[1.420847,42.464799],[1.420841,42.464804],[1.420832,42.46481],[1.420823,42.464815],[1.420815,42.464819],[1.420807,42.464826],[1.42082,42.464878],[1.420802,42.464946],[1.420771,42.464961],[1.420838,42.465041],[1.421098,42.465176],[1.421393,42.465213],[1.421622,42.465278],[1.4216,42.465308],[1.421494,42.465264],[1.421434,42.465339],[1.42145,42.465447],[1.421449,42.465504],[1.421548,42.465541],[1.421665,42.465589],[1.421743,42.465617],[1.42174,42.46562],[1.421727,42.465637],[1.421718,42.465646],[1.421706,42.465653],[1.4217,42.46566],[1.421635,42.465694],[1.421557,42.465716],[1.421434,42.465747],[1.42131,42.465778],[1.421285,42.465787],[1.421299,42.46582],[1.421315,42.46582],[1.421345,42.465896],[1.42136,42.465895],[1.421486,42.465887],[1.421534,42.465884],[1.421677,42.465851],[1.421684,42.465847],[1.42166,42.465745],[1.421667,42.465738],[1.42179,42.465655],[1.421815,42.465629],[1.421824,42.465617],[1.421857,42.46558],[1.421896,42.465551],[1.422048,42.465663],[1.422126,42.465636],[1.422252,42.465709],[1.422369,42.465809],[1.422505,42.465724],[1.422521,42.465743],[1.422532,42.465757],[1.422736,42.465661],[1.422804,42.465642],[1.422841,42.465621],[1.422873,42.465596],[1.42289,42.465572],[1.422891,42.465567],[1.422898,42.46555],[1.422916,42.465491],[1.422939,42.465463],[1.42296,42.465436],[1.422967,42.465431],[1.42301,42.465401],[1.423077,42.465354],[1.423188,42.465286],[1.423201,42.465271],[1.423221,42.465246],[1.42326,42.465274],[1.423288,42.465293],[1.423269,42.465312],[1.423244,42.465335],[1.423219,42.465358],[1.423191,42.465384],[1.42318,42.465395],[1.423142,42.465444],[1.423088,42.465557],[1.423068,42.465599],[1.423073,42.4656],[1.423069,42.46561],[1.423061,42.465633],[1.423053,42.465655],[1.423051,42.465658],[1.42304,42.465676],[1.423034,42.465684],[1.423021,42.465702],[1.423002,42.465727],[1.422982,42.465747],[1.422977,42.465752],[1.422972,42.465756],[1.422916,42.465772],[1.422879,42.465782],[1.422841,42.465789],[1.422798,42.465796],[1.422721,42.465809],[1.422656,42.465825],[1.422596,42.46585],[1.422503,42.465897],[1.422466,42.465915],[1.422457,42.46592],[1.422402,42.465945],[1.422371,42.465962],[1.422343,42.465982],[1.422366,42.466004],[1.42239,42.466025],[1.422394,42.466029],[1.42243,42.46601],[1.422439,42.466005],[1.422446,42.466017],[1.422466,42.466047],[1.422477,42.466063],[1.42248,42.466067],[1.422499,42.466057],[1.422565,42.46604],[1.422559,42.466028],[1.422568,42.466023]]]]}},{"type":"Feature","id":"252398_252398 AP04 AUR 2","properties":{"area_id":"252398_252398 AP04 AUR 2","nom":"Estelareny","codi_icgc":"252398 AP04 AUR 2","categoria":"Àrees de poblament","codi_municipi":"252398","municipi":"les Valls de Valira","codi_comarca":"04","comarca":"Alt Urgell","provincia":"Lleida","font":"ICGC Àrees de poblament v3r1 202602"},"geometry":{"type":"MultiPolygon","coordinates":[[[[1.455864,42.402289],[1.456465,42.402856],[1.456693,42.40274],[1.456746,42.402562],[1.456637,42.402418],[1.456463,42.402415],[1.456315,42.402435],[1.456247,42.402431],[1.45619,42.402271],[1.45615,42.402169],[1.456123,42.402121],[1.456093,42.402077],[1.456068,42.402048],[1.456001,42.402002],[1.455919,42.40195],[1.455856,42.401902],[1.455812,42.401863],[1.455766,42.401784],[1.455711,42.40167],[1.455638,42.401605],[1.455559,42.401575],[1.455462,42.401579],[1.455313,42.401641],[1.455377,42.401761],[1.455391,42.401838],[1.455353,42.401952],[1.455294,42.40202],[1.455254,42.402074],[1.455251,42.402174],[1.45531,42.402256],[1.455418,42.402343],[1.455514,42.402361],[1.455717,42.402331],[1.455864,42.402289]]]]}},{"type":"Feature","id":"252398_252398 AP02 AUR 2","properties":{"area_id":"252398_252398 AP02 AUR 2","nom":"Farrera dels Llops","codi_icgc":"252398 AP02 AUR 2","categoria":"Àrees de poblament","codi_municipi":"252398","municipi":"les Valls de Valira","codi_comarca":"04","comarca":"Alt Urgell","provincia":"Lleida","font":"ICGC Àrees de poblament v3r1 202602"},"geometry":{"type":"MultiPolygon","coordinates":[[[[1.449779,42.41928],[1.449554,42.419332],[1.449533,42.419566],[1.449452,42.419605],[1.449464,42.419641],[1.449455,42.419713],[1.449535,42.419729],[1.449557,42.419733],[1.449759,42.419763],[1.449936,42.419753],[1.450016,42.419706],[1.450074,42.419636],[1.450071,42.419517],[1.450081,42.419427],[1.449779,42.41928]]]]}},{"type":"Feature","id":"252398_252398 AP03 AUR 2","properties":{"area_id":"252398_252398 AP03 AUR 2","nom":"Llirt","codi_icgc":"252398 AP03 AUR 2","categoria":"Àrees de poblament","codi_municipi":"252398","municipi":"les Valls de Valira","codi_comarca":"04","comarca":"Alt Urgell","provincia":"Lleida","font":"ICGC Àrees de poblament v3r1 202602"},"geometry":{"type":"MultiPolygon","coordinates":[[[[1.497069,42.378364],[1.496577,42.378491],[1.496468,42.378785],[1.496787,42.378856],[1.497044,42.37886],[1.497226,42.378805],[1.497395,42.378712],[1.497398,42.378578],[1.497223,42.378395],[1.497069,42.378364]]]]}},{"type":"Feature","id":"252398_252398 AP05 AUR 2","properties":{"area_id":"252398_252398 AP05 AUR 2","nom":"Ministrells","codi_icgc":"252398 AP05 AUR 2","categoria":"Àrees de poblament","codi_municipi":"252398","municipi":"les Valls de Valira","codi_comarca":"04","comarca":"Alt Urgell","provincia":"Lleida","font":"ICGC Àrees de poblament v3r1 202602"},"geometry":{"type":"MultiPolygon","coordinates":[[[[1.409109,42.450851],[1.409138,42.450848],[1.409158,42.450819],[1.409207,42.450813],[1.409279,42.45081],[1.409391,42.450772],[1.409466,42.450721],[1.409548,42.450689],[1.409593,42.450621],[1.409634,42.450497],[1.409664,42.450462],[1.409786,42.450374],[1.409778,42.450345],[1.409776,42.450343],[1.409777,42.450338],[1.409786,42.450315],[1.409784,42.450314],[1.409766,42.450301],[1.409745,42.450283],[1.409724,42.450264],[1.409697,42.450245],[1.409666,42.450229],[1.409637,42.45022],[1.409608,42.450215],[1.409576,42.450212],[1.409543,42.450213],[1.409514,42.450217],[1.409486,42.450222],[1.409453,42.450229],[1.40942,42.450237],[1.409373,42.450251],[1.409328,42.450269],[1.40929,42.450289],[1.409257,42.450313],[1.409228,42.450338],[1.409202,42.450366],[1.409189,42.450384],[1.409179,42.450403],[1.409177,42.450417],[1.409175,42.450461],[1.409174,42.450505],[1.409172,42.450529],[1.409171,42.450553],[1.409166,42.450554],[1.409146,42.450557],[1.409124,42.450558],[1.409077,42.450559],[1.409038,42.450562],[1.409,42.450566],[1.408976,42.450569],[1.408951,42.450574],[1.408948,42.450575],[1.408931,42.450582],[1.408927,42.450586],[1.40891,42.450599],[1.408892,42.450615],[1.40889,42.450617],[1.408896,42.450651],[1.408918,42.450785],[1.409108,42.45085],[1.409109,42.450851]]]]}},{"type":"Feature","id":"252398_252398 AP20 AUR 2","properties":{"area_id":"252398_252398 AP20 AUR 2","nom":"Morters","codi_icgc":"252398 AP20 AUR 2","categoria":"Àrees de poblament","codi_municipi":"252398","municipi":"les Valls de Valira","codi_comarca":"04","comarca":"Alt Urgell","provincia":"Lleida","font":"ICGC Àrees de poblament v3r1 202602"},"geometry":{"type":"MultiPolygon","coordinates":[[[[1.454169,42.391688],[1.454508,42.39179],[1.45456,42.391926],[1.454644,42.391946],[1.454686,42.391914],[1.454606,42.391718],[1.45463,42.391725],[1.45466,42.39173],[1.454689,42.391726],[1.454713,42.39171],[1.454729,42.391689],[1.454725,42.391668],[1.4547,42.391642],[1.454675,42.391622],[1.454664,42.391611],[1.454641,42.391577],[1.454621,42.391541],[1.454617,42.391524],[1.454618,42.391507],[1.454621,42.3915],[1.454625,42.391496],[1.454631,42.391493],[1.454633,42.391492],[1.454662,42.391493],[1.454694,42.391498],[1.454715,42.391504],[1.454746,42.391515],[1.454773,42.391529],[1.454794,42.391544],[1.454822,42.391562],[1.454853,42.391571],[1.454889,42.39157],[1.454897,42.391567],[1.454916,42.391559],[1.45494,42.391532],[1.454946,42.391513],[1.454948,42.391504],[1.454945,42.391486],[1.454932,42.391443],[1.454918,42.391403],[1.45491,42.391377],[1.454898,42.391316],[1.454895,42.391307],[1.454497,42.391186],[1.454169,42.391688]]]]}},{"type":"Feature","id":"252398_252398 AP07 AUR 3","properties":{"area_id":"252398_252398 AP07 AUR 3","nom":"Os de Civís","codi_icgc":"252398 AP07 AUR 3","categoria":"Àrees de poblament","codi_municipi":"252398","municipi":"les Valls de Valira","codi_comarca":"04","comarca":"Alt Urgell","provincia":"Lleida","font":"ICGC Àrees de poblament v3r1 202602"},"geometry":{"type":"MultiPolygon","coordinates":[[[[1.43987,42.511684],[1.43993,42.511599],[1.440295,42.511686],[1.440337,42.511686],[1.440395,42.51159],[1.440319,42.511574],[1.440236,42.511557],[1.440118,42.511532],[1.440086,42.511533],[1.439798,42.51149],[1.439728,42.511428],[1.439704,42.511364],[1.439705,42.511328],[1.43975,42.511261],[1.439876,42.511184],[1.439897,42.51117],[1.440035,42.511112],[1.440051,42.511112],[1.440077,42.511086],[1.440045,42.511058],[1.440003,42.510986],[1.440004,42.510974],[1.440004,42.510946],[1.440005,42.510921],[1.439989,42.510785],[1.440076,42.510769],[1.44007,42.51074],[1.440063,42.510702],[1.440059,42.510683],[1.440222,42.510531],[1.440414,42.510569],[1.440439,42.51053],[1.440357,42.510389],[1.440326,42.510335],[1.440323,42.51033],[1.440274,42.510246],[1.440254,42.510205],[1.440243,42.510185],[1.440238,42.510174],[1.440146,42.510104],[1.440101,42.510078],[1.440004,42.510021],[1.439946,42.509988],[1.439939,42.509982],[1.439929,42.509975],[1.439925,42.509976],[1.439935,42.509983],[1.439839,42.510026],[1.439685,42.510098],[1.439528,42.510172],[1.439457,42.510206],[1.439464,42.510171],[1.439458,42.510174],[1.439372,42.510066],[1.439343,42.510078],[1.43933,42.510084],[1.439322,42.510088],[1.439311,42.510097],[1.439186,42.510161],[1.439125,42.510194],[1.438811,42.51037],[1.438787,42.510386],[1.438747,42.510428],[1.438714,42.510473],[1.438698,42.510502],[1.438696,42.510504],[1.438692,42.510517],[1.438675,42.510571],[1.438519,42.51096],[1.438494,42.511005],[1.438488,42.511022],[1.438469,42.511057],[1.438292,42.511351],[1.438317,42.51139],[1.438431,42.51144],[1.438511,42.511326],[1.438573,42.511366],[1.438571,42.511474],[1.438662,42.511503],[1.438862,42.511603],[1.438916,42.511568],[1.439058,42.511677],[1.439159,42.5117],[1.439231,42.51174],[1.439323,42.511723],[1.439415,42.511721],[1.439459,42.511672],[1.439621,42.511767],[1.439727,42.511797],[1.439775,42.511787],[1.439803,42.511785],[1.43987,42.511684]]]]}},{"type":"Feature","id":"252398_252398 AP17 AUR 3","properties":{"area_id":"252398_252398 AP17 AUR 3","nom":"Sant Joan Fumat","codi_icgc":"252398 AP17 AUR 3","categoria":"Àrees de poblament","codi_municipi":"252398","municipi":"les Valls de Valira","codi_comarca":"04","comarca":"Alt Urgell","provincia":"Lleida","font":"ICGC Àrees de poblament v3r1 202602"},"geometry":{"type":"MultiPolygon","coordinates":[[[[1.423066,42.430212],[1.423032,42.430189],[1.423029,42.430187],[1.422844,42.430084],[1.422841,42.430083],[1.422835,42.430081],[1.422818,42.430075],[1.422803,42.430066],[1.422785,42.430057],[1.422782,42.430055],[1.422775,42.430052],[1.422763,42.430045],[1.422744,42.430038],[1.422692,42.430025],[1.42264,42.430012],[1.422601,42.430003],[1.422564,42.429992],[1.42255,42.429985],[1.422543,42.429977],[1.422535,42.429967],[1.422526,42.429959],[1.422516,42.429953],[1.422492,42.429947],[1.422469,42.429948],[1.422434,42.429954],[1.422418,42.429959],[1.422415,42.429961],[1.422343,42.429952],[1.422333,42.429941],[1.422306,42.429913],[1.422289,42.429922],[1.422199,42.429976],[1.422116,42.43003],[1.422032,42.430084],[1.422009,42.430093],[1.421985,42.4301],[1.421934,42.430108],[1.4219,42.430109],[1.421867,42.430103],[1.421843,42.430091],[1.421825,42.430075],[1.421817,42.430063],[1.421797,42.430022],[1.421776,42.429981],[1.421754,42.429939],[1.421731,42.429897],[1.421712,42.42987],[1.421668,42.429823],[1.421623,42.429778],[1.421547,42.429702],[1.421471,42.429626],[1.421467,42.429619],[1.421423,42.429632],[1.421392,42.429642],[1.42139,42.429643],[1.421382,42.429635],[1.421358,42.429646],[1.42134,42.429654],[1.421311,42.429667],[1.421201,42.429718],[1.42121,42.429731],[1.421137,42.42975],[1.421105,42.429753],[1.420994,42.429635],[1.420952,42.429602],[1.420845,42.429658],[1.42086,42.429676],[1.420897,42.429716],[1.420886,42.429748],[1.420785,42.429793],[1.420635,42.429879],[1.420577,42.430004],[1.420578,42.430023],[1.420563,42.430022],[1.420553,42.430024],[1.420546,42.430027],[1.420536,42.43004],[1.420533,42.430043],[1.420529,42.430061],[1.42053,42.430068],[1.420533,42.430111],[1.420544,42.430162],[1.420565,42.430215],[1.420592,42.430267],[1.42061,42.43029],[1.420645,42.430322],[1.420662,42.430339],[1.420676,42.430357],[1.420684,42.430371],[1.420689,42.430393],[1.420688,42.430416],[1.420684,42.43043],[1.42068,42.430437],[1.420673,42.430441],[1.420628,42.430463],[1.420609,42.430472],[1.420497,42.430468],[1.42049,42.430575],[1.420626,42.43058],[1.420623,42.430618],[1.420696,42.430621],[1.42071,42.430621],[1.420724,42.430622],[1.420726,42.430612],[1.420732,42.430608],[1.420735,42.430519],[1.420659,42.430514],[1.420661,42.430479],[1.420683,42.430469],[1.420707,42.430457],[1.420718,42.430436],[1.420717,42.430434],[1.420721,42.430418],[1.420722,42.430392],[1.420716,42.430364],[1.420706,42.430346],[1.420689,42.430325],[1.420671,42.430307],[1.420637,42.430276],[1.420622,42.430256],[1.420625,42.430254],[1.420593,42.430199],[1.420575,42.43015],[1.420563,42.430067],[1.420561,42.430047],[1.420569,42.430047],[1.420575,42.430048],[1.420591,42.430048],[1.420693,42.430075],[1.420693,42.430075],[1.42078,42.430084],[1.420871,42.430081],[1.420891,42.430077],[1.420901,42.430079],[1.420911,42.430082],[1.420918,42.430085],[1.420955,42.430109],[1.421109,42.430188],[1.421464,42.430373],[1.421532,42.430303],[1.421542,42.430314],[1.421546,42.430318],[1.421613,42.430239],[1.421656,42.430187],[1.421688,42.430173],[1.421722,42.430163],[1.421757,42.430158],[1.421793,42.430159],[1.421798,42.43016],[1.421856,42.430164],[1.421872,42.430165],[1.422009,42.430161],[1.422069,42.430147],[1.422138,42.430153],[1.422184,42.430172],[1.422227,42.430186],[1.422248,42.430193],[1.422314,42.43023],[1.422372,42.4302],[1.422611,42.430274],[1.422801,42.43033],[1.422835,42.430352],[1.422842,42.430365],[1.422812,42.430376],[1.422804,42.430384],[1.422748,42.430458],[1.422694,42.43053],[1.422646,42.430601],[1.422623,42.430634],[1.422598,42.430664],[1.422532,42.430722],[1.422463,42.430781],[1.422385,42.430847],[1.422307,42.430914],[1.422245,42.430976],[1.422186,42.431037],[1.422112,42.43111],[1.422037,42.431185],[1.422012,42.431215],[1.421982,42.431261],[1.421976,42.431274],[1.42202,42.431285],[1.422068,42.431298],[1.422089,42.431306],[1.422182,42.431295],[1.422274,42.431228],[1.422381,42.431203],[1.422449,42.431168],[1.422577,42.431058],[1.422549,42.431029],[1.422831,42.430813],[1.422891,42.430745],[1.422946,42.43071],[1.422969,42.43068],[1.422997,42.430604],[1.422989,42.430558],[1.42303,42.430456],[1.422951,42.430436],[1.422934,42.430405],[1.422924,42.430358],[1.422932,42.430329],[1.422932,42.430329],[1.422979,42.430296],[1.422993,42.430284],[1.423066,42.430212]]]]}},{"type":"Feature","id":"252398_252398 AP18 AUR 3","properties":{"area_id":"252398_252398 AP18 AUR 3","nom":"la Farga de Moles","codi_icgc":"252398 AP18 AUR 3","categoria":"Àrees de poblament","codi_municipi":"252398","municipi":"les Valls de Valira","codi_comarca":"04","comarca":"Alt Urgell","provincia":"Lleida","font":"ICGC Àrees de poblament v3r1 202602"},"geometry":{"type":"MultiPolygon","coordinates":[[[[1.467506,42.431747],[1.467488,42.431706],[1.467482,42.431706],[1.467469,42.431706],[1.467459,42.431704],[1.467455,42.431699],[1.467453,42.431694],[1.467442,42.431644],[1.467432,42.431587],[1.467491,42.431582],[1.467498,42.431572],[1.467514,42.431549],[1.467489,42.431392],[1.467498,42.431343],[1.46752,42.431339],[1.467578,42.431329],[1.467604,42.431326],[1.467696,42.431317],[1.467756,42.431308],[1.467769,42.431303],[1.46778,42.431295],[1.467785,42.431288],[1.467787,42.431281],[1.467789,42.431264],[1.467787,42.431248],[1.467736,42.431012],[1.467683,42.430776],[1.467662,42.430661],[1.467627,42.430563],[1.467595,42.430562],[1.467324,42.430592],[1.467301,42.430595],[1.467243,42.430606],[1.467231,42.43061],[1.46718,42.430608],[1.467186,42.430504],[1.467171,42.430456],[1.467117,42.430376],[1.467097,42.430383],[1.467099,42.430316],[1.467142,42.430298],[1.467155,42.430336],[1.467188,42.43033],[1.467173,42.430283],[1.467234,42.430261],[1.467019,42.430164],[1.466871,42.430028],[1.466848,42.430036],[1.466851,42.430057],[1.466854,42.430087],[1.466856,42.430107],[1.466858,42.4302],[1.466854,42.430291],[1.466847,42.430384],[1.466833,42.430479],[1.466823,42.430524],[1.466805,42.430602],[1.466775,42.430724],[1.466751,42.430805],[1.466731,42.430876],[1.466708,42.430955],[1.466695,42.430999],[1.466687,42.431031],[1.466677,42.4311],[1.466675,42.43117],[1.466614,42.431359],[1.466572,42.431608],[1.466539,42.431796],[1.466566,42.431887],[1.466666,42.432],[1.466831,42.432157],[1.466941,42.432259],[1.467061,42.432351],[1.467175,42.432433],[1.467283,42.432504],[1.467457,42.432597],[1.46781,42.432761],[1.468052,42.432872],[1.468317,42.432968],[1.468604,42.433043],[1.468809,42.433108],[1.469167,42.43292],[1.469044,42.432811],[1.468843,42.432615],[1.468647,42.432465],[1.468501,42.432335],[1.468321,42.43223],[1.467879,42.43198],[1.467661,42.431855],[1.467538,42.431805],[1.467521,42.431779],[1.467506,42.431747]]]]}}]}