{"type":"FeatureCollection","name":"ICGC Àrees de poblament - Vilagrassa","features":[{"type":"Feature","id":"252445_252445 SI02 URG 2","properties":{"area_id":"252445_252445 SI02 URG 2","nom":"Centre de Selecció de Llavors (Aceites Borges Pont SA)","codi_icgc":"252445 SI02 URG 2","categoria":"Sector industrial","codi_municipi":"252445","municipi":"Vilagrassa","codi_comarca":"38","comarca":"Urgell","provincia":"Lleida","font":"ICGC Àrees de poblament v3r1 202602"},"geometry":{"type":"MultiPolygon","coordinates":[[[[1.091183,41.646721],[1.091172,41.646704],[1.09074,41.646845],[1.090708,41.646855],[1.090652,41.646871],[1.090556,41.646896],[1.090463,41.646925],[1.090386,41.646949],[1.090298,41.646969],[1.090252,41.646985],[1.090141,41.647031],[1.090114,41.647042],[1.090108,41.647045],[1.08987,41.647141],[1.089704,41.647223],[1.089594,41.647495],[1.091239,41.647632],[1.091384,41.647354],[1.091308,41.647031],[1.091208,41.646757],[1.091183,41.646721],[1.091183,41.646721]]]]}},{"type":"Feature","id":"252445_252445 SI01 URG 2","properties":{"area_id":"252445_252445 SI01 URG 2","nom":"Lo Pla","codi_icgc":"252445 SI01 URG 2","categoria":"Sector industrial","codi_municipi":"252445","municipi":"Vilagrassa","codi_comarca":"38","comarca":"Urgell","provincia":"Lleida","font":"ICGC Àrees de poblament v3r1 202602"},"geometry":{"type":"MultiPolygon","coordinates":[[[[1.090389,41.651973],[1.09159,41.652693],[1.091664,41.652663],[1.092748,41.652116],[1.093134,41.651947],[1.093156,41.651847],[1.09298,41.651687],[1.092301,41.651758],[1.091399,41.65185],[1.090532,41.651955],[1.090389,41.651973]]]]}},{"type":"Feature","id":"252445_252445 AP01 URG 3","properties":{"area_id":"252445_252445 AP01 URG 3","nom":"Vilagrassa","codi_icgc":"252445 AP01 URG 3","categoria":"Àrees de poblament","codi_municipi":"252445","municipi":"Vilagrassa","codi_comarca":"38","comarca":"Urgell","provincia":"Lleida","font":"ICGC Àrees de poblament v3r1 202602"},"geometry":{"type":"MultiPolygon","coordinates":[[[[1.108031,41.647106],[1.108055,41.647127],[1.108049,41.647171],[1.108073,41.647286],[1.106685,41.647301],[1.106722,41.647267],[1.106779,41.647217],[1.106841,41.647187],[1.106965,41.64713],[1.107079,41.64705],[1.107145,41.646973],[1.107223,41.646906],[1.107171,41.646878],[1.106749,41.646536],[1.106615,41.646432],[1.106385,41.6466],[1.106353,41.646623],[1.106324,41.646645],[1.106291,41.646668],[1.106463,41.646788],[1.106556,41.646866],[1.106548,41.646901],[1.106509,41.646927],[1.106429,41.646942],[1.106341,41.646929],[1.106227,41.646899],[1.106173,41.646902],[1.10613,41.646936],[1.106082,41.646984],[1.106036,41.647031],[1.106001,41.647033],[1.105976,41.647021],[1.105961,41.647001],[1.105921,41.646939],[1.105887,41.64691],[1.105843,41.646892],[1.105792,41.646915],[1.105737,41.646952],[1.105842,41.647035],[1.105919,41.647108],[1.105975,41.647176],[1.106027,41.647217],[1.106045,41.64727],[1.106091,41.647313],[1.106016,41.647313],[1.105508,41.647318],[1.105332,41.647321],[1.105199,41.647325],[1.104715,41.64733],[1.104698,41.647328],[1.104679,41.647324],[1.10466,41.647311],[1.104645,41.647295],[1.104505,41.647146],[1.104485,41.647124],[1.104377,41.64701],[1.104233,41.646873],[1.103956,41.646609],[1.103447,41.646136],[1.103427,41.646116],[1.103407,41.646097],[1.103205,41.6459],[1.103105,41.64588],[1.102904,41.64588],[1.102462,41.645915],[1.10243,41.64593],[1.102368,41.64596],[1.102349,41.646012],[1.10234,41.646036],[1.10233,41.646063],[1.102311,41.646067],[1.102294,41.64607],[1.102579,41.646303],[1.102635,41.646342],[1.102691,41.646445],[1.102298,41.646573],[1.102364,41.646689],[1.102494,41.646897],[1.102582,41.647088],[1.10264,41.647087],[1.102642,41.647166],[1.102646,41.647306],[1.104156,41.647298],[1.104376,41.647455],[1.104518,41.647834],[1.104233,41.647891],[1.103982,41.647941],[1.103109,41.648082],[1.103032,41.64764],[1.102986,41.647665],[1.10294,41.64769],[1.102909,41.647709],[1.10288,41.64773],[1.102826,41.647775],[1.102783,41.647813],[1.102745,41.647854],[1.102706,41.647912],[1.102672,41.647972],[1.102579,41.648154],[1.102494,41.64834],[1.102468,41.648406],[1.102451,41.648473],[1.102449,41.648486],[1.10245,41.648499],[1.102275,41.64883],[1.1022,41.649021],[1.101984,41.649567],[1.101941,41.649672],[1.101866,41.649891],[1.101799,41.65006],[1.101686,41.650344],[1.101626,41.650495],[1.101566,41.650647],[1.10154,41.650705],[1.101531,41.650735],[1.10153,41.650764],[1.101547,41.650783],[1.101562,41.650789],[1.101586,41.650793],[1.10174,41.650823],[1.101793,41.650792],[1.101913,41.650724],[1.102153,41.650594],[1.102187,41.650579],[1.102219,41.65057],[1.102258,41.650569],[1.102281,41.650574],[1.102312,41.650583],[1.102334,41.650599],[1.102493,41.650735],[1.102615,41.650838],[1.102769,41.650968],[1.102793,41.650988],[1.102923,41.651098],[1.102944,41.651115],[1.102967,41.651134],[1.102979,41.651143],[1.102994,41.651154],[1.103005,41.651158],[1.103022,41.651159],[1.103035,41.651156],[1.103223,41.651051],[1.103373,41.650967],[1.103577,41.650853],[1.103782,41.650738],[1.103858,41.650693],[1.103895,41.650672],[1.103934,41.650649],[1.103973,41.650629],[1.104188,41.650515],[1.104233,41.650491],[1.104443,41.650381],[1.104476,41.650363],[1.10451,41.650346],[1.10467,41.650259],[1.104748,41.650216],[1.104828,41.650175],[1.104935,41.650126],[1.105031,41.650084],[1.105063,41.650072],[1.105092,41.650065],[1.105128,41.650059],[1.105164,41.650056],[1.105193,41.650057],[1.105213,41.650059],[1.105277,41.650072],[1.105326,41.650086],[1.1054,41.650112],[1.105423,41.650123],[1.105453,41.650143],[1.105478,41.650164],[1.105492,41.650181],[1.105545,41.650272],[1.105611,41.65039],[1.105664,41.650497],[1.105693,41.650567],[1.105702,41.650588],[1.10571,41.65061],[1.105712,41.650614],[1.105789,41.650788],[1.105839,41.650896],[1.105898,41.651034],[1.105993,41.651243],[1.106047,41.651231],[1.106114,41.651216],[1.106149,41.65121],[1.106306,41.651167],[1.106428,41.651145],[1.106438,41.651132],[1.106465,41.651113],[1.106473,41.651106],[1.106478,41.651098],[1.10648,41.651087],[1.106477,41.651079],[1.106452,41.651021],[1.106396,41.650902],[1.10635,41.650794],[1.106349,41.650786],[1.106324,41.650723],[1.10631,41.650697],[1.106179,41.650351],[1.106676,41.650207],[1.106972,41.650762],[1.10771,41.650544],[1.107593,41.650216],[1.107478,41.649927],[1.107405,41.649747],[1.107383,41.649689],[1.107376,41.649628],[1.107381,41.649603],[1.1074,41.649572],[1.107448,41.649551],[1.107481,41.649536],[1.107566,41.649493],[1.107778,41.649408],[1.107969,41.649286],[1.108152,41.649433],[1.108316,41.64935],[1.108132,41.649184],[1.108202,41.649142],[1.108315,41.649073],[1.108403,41.64902],[1.108492,41.648968],[1.108567,41.648915],[1.109059,41.648648],[1.109407,41.648451],[1.109618,41.648326],[1.109711,41.648251],[1.10972,41.648245],[1.109736,41.648228],[1.109759,41.648206],[1.10979,41.648165],[1.109795,41.648154],[1.109806,41.648135],[1.109818,41.648094],[1.10982,41.64807],[1.109818,41.647991],[1.109813,41.647914],[1.109787,41.647607],[1.109784,41.647565],[1.10978,41.64745],[1.109791,41.647393],[1.10985,41.647226],[1.109835,41.647123],[1.109797,41.646817],[1.109759,41.646729],[1.109708,41.646756],[1.109667,41.646779],[1.109645,41.646798],[1.10964,41.646802],[1.109633,41.646806],[1.109581,41.646835],[1.109532,41.646859],[1.109317,41.646973],[1.109068,41.647106],[1.10898,41.647156],[1.108926,41.647191],[1.108896,41.647208],[1.108862,41.647228],[1.108843,41.647242],[1.108628,41.646891],[1.108031,41.647106]]]]}}]}