{"type":"FeatureCollection","name":"ICGC Àrees de poblament - Castell de Mur","features":[{"type":"Feature","id":"259046_259046 AP08 PJU 3","properties":{"area_id":"259046_259046 AP08 PJU 3","nom":"Cellers","codi_icgc":"259046 AP08 PJU 3","categoria":"Àrees de poblament","codi_municipi":"259046","municipi":"Castell de Mur","codi_comarca":"25","comarca":"Pallars Jussà","provincia":"Lleida","font":"ICGC Àrees de poblament v3r1 202602"},"geometry":{"type":"MultiPolygon","coordinates":[[[[0.879972,42.068431],[0.879973,42.068459],[0.879795,42.068542],[0.879782,42.068627],[0.879792,42.06873],[0.879717,42.068755],[0.879666,42.068849],[0.880023,42.068977],[0.880112,42.068914],[0.880158,42.068953],[0.88033,42.068899],[0.880303,42.068844],[0.880292,42.068794],[0.880261,42.068748],[0.880227,42.068707],[0.8802,42.068654],[0.880382,42.068576],[0.88023,42.068342],[0.88036,42.068285],[0.880531,42.068219],[0.880597,42.068268],[0.880739,42.068223],[0.881084,42.068153],[0.881187,42.068117],[0.88144,42.06811],[0.881591,42.068079],[0.881794,42.068045],[0.881805,42.06809],[0.881848,42.068151],[0.881855,42.068154],[0.881867,42.068149],[0.882098,42.068127],[0.882078,42.06805],[0.882076,42.067924],[0.882097,42.067772],[0.882125,42.067615],[0.882123,42.067572],[0.882093,42.067512],[0.882043,42.067466],[0.881983,42.067369],[0.881971,42.067343],[0.881945,42.067266],[0.881928,42.067187],[0.881895,42.067027],[0.881867,42.066893],[0.881864,42.066812],[0.88172,42.066832],[0.881512,42.066989],[0.881584,42.067136],[0.881461,42.067183],[0.881448,42.067288],[0.881357,42.067336],[0.881347,42.067355],[0.88137,42.067417],[0.881228,42.067467],[0.881104,42.067546],[0.880919,42.067607],[0.880794,42.067628],[0.880719,42.067665],[0.88054,42.067779],[0.88057,42.06782],[0.880575,42.067877],[0.880493,42.067926],[0.880497,42.067988],[0.880285,42.068129],[0.879994,42.068329],[0.88004,42.068379],[0.879991,42.068412],[0.879974,42.068431],[0.879972,42.068431]]]]}},{"type":"Feature","id":"259046_259046 AP06 PJU 3","properties":{"area_id":"259046_259046 AP06 PJU 3","nom":"Collmorter","codi_icgc":"259046 AP06 PJU 3","categoria":"Àrees de poblament","codi_municipi":"259046","municipi":"Castell de Mur","codi_comarca":"25","comarca":"Pallars Jussà","provincia":"Lleida","font":"ICGC Àrees de poblament v3r1 202602"},"geometry":{"type":"MultiPolygon","coordinates":[[[[0.863899,42.103651],[0.863631,42.103536],[0.863521,42.103462],[0.863394,42.103436],[0.8632,42.103409],[0.863104,42.103398],[0.863052,42.103423],[0.863017,42.103454],[0.862989,42.103467],[0.862931,42.103427],[0.862917,42.103395],[0.862907,42.103347],[0.862915,42.103328],[0.862973,42.103279],[0.863033,42.103246],[0.863164,42.103244],[0.863314,42.103244],[0.863452,42.103232],[0.863564,42.103223],[0.863618,42.103217],[0.863564,42.103112],[0.863511,42.103023],[0.863452,42.102958],[0.863415,42.102904],[0.863383,42.102827],[0.863355,42.10276],[0.863241,42.102573],[0.863131,42.102486],[0.863047,42.102419],[0.862957,42.102381],[0.862895,42.102372],[0.862848,42.102376],[0.862785,42.102395],[0.862686,42.102444],[0.862606,42.102504],[0.862598,42.102553],[0.862622,42.102622],[0.862687,42.102756],[0.862738,42.102854],[0.862826,42.102906],[0.862861,42.10293],[0.862891,42.102962],[0.862922,42.103013],[0.862916,42.103114],[0.862903,42.103233],[0.862875,42.103327],[0.862877,42.103368],[0.862892,42.103423],[0.862954,42.103484],[0.863072,42.103555],[0.863146,42.103603],[0.863254,42.103696],[0.863367,42.103777],[0.863483,42.103831],[0.863522,42.10382],[0.863659,42.103844],[0.863716,42.103859],[0.864039,42.103972],[0.86414,42.103998],[0.864279,42.104041],[0.864426,42.104079],[0.864468,42.104086],[0.864512,42.104021],[0.864529,42.103967],[0.864518,42.103914],[0.864395,42.103854],[0.864223,42.103768],[0.864089,42.103698],[0.864018,42.103753],[0.863899,42.103651]]]]}},{"type":"Feature","id":"259046_259046 AP01 PJU 3","properties":{"area_id":"259046_259046 AP01 PJU 3","nom":"Guàrdia de Noguera","codi_icgc":"259046 AP01 PJU 3","categoria":"Àrees de poblament","codi_municipi":"259046","municipi":"Castell de Mur","codi_comarca":"25","comarca":"Pallars Jussà","provincia":"Lleida","font":"ICGC Àrees de poblament v3r1 202602"},"geometry":{"type":"MultiPolygon","coordinates":[[[[0.875424,42.090712],[0.875453,42.090869],[0.875549,42.091011],[0.875582,42.091022],[0.875674,42.090995],[0.876011,42.090812],[0.876117,42.090799],[0.876199,42.090801],[0.876264,42.090856],[0.876262,42.090917],[0.876193,42.090972],[0.876104,42.091039],[0.876018,42.091166],[0.875927,42.091315],[0.875896,42.091409],[0.875946,42.091462],[0.875973,42.091476],[0.875954,42.091658],[0.876069,42.091674],[0.876037,42.091756],[0.876105,42.091893],[0.876143,42.092051],[0.876256,42.092253],[0.876323,42.092262],[0.876494,42.092458],[0.876482,42.092683],[0.87663,42.092693],[0.876656,42.092786],[0.876596,42.092838],[0.87656,42.092909],[0.876586,42.092996],[0.876705,42.093026],[0.876801,42.093175],[0.876912,42.093288],[0.877108,42.093327],[0.877323,42.093342],[0.877486,42.093345],[0.877651,42.093294],[0.877836,42.093222],[0.877888,42.093109],[0.877963,42.093025],[0.878195,42.092814],[0.878281,42.092705],[0.878293,42.092711],[0.878449,42.092547],[0.878572,42.092412],[0.878593,42.092355],[0.878651,42.092251],[0.878757,42.092223],[0.878718,42.092094],[0.878853,42.091957],[0.878695,42.091845],[0.878415,42.091649],[0.878331,42.091583],[0.878099,42.091687],[0.878019,42.091635],[0.877826,42.091522],[0.877703,42.091446],[0.877593,42.091364],[0.87752,42.091261],[0.877452,42.091155],[0.877444,42.091088],[0.877447,42.091001],[0.877422,42.090897],[0.877395,42.090716],[0.877237,42.090452],[0.877153,42.09036],[0.877061,42.090292],[0.877003,42.09027],[0.876946,42.090276],[0.876909,42.090299],[0.87687,42.090344],[0.876846,42.090358],[0.876827,42.090384],[0.876792,42.09029],[0.876748,42.090168],[0.876681,42.090149],[0.876679,42.090147],[0.876662,42.090107],[0.876597,42.090041],[0.876529,42.08998],[0.876394,42.089909],[0.876259,42.089818],[0.87612,42.089689],[0.875934,42.089504],[0.875807,42.089385],[0.875747,42.089341],[0.875688,42.089312],[0.875643,42.089306],[0.875594,42.089327],[0.875571,42.089364],[0.875569,42.089421],[0.875586,42.089484],[0.875604,42.089515],[0.875615,42.089572],[0.875612,42.089653],[0.875596,42.089751],[0.875568,42.089834],[0.87556,42.089884],[0.875528,42.089981],[0.875503,42.090045],[0.87549,42.090161],[0.87548,42.090268],[0.87547,42.090351],[0.875463,42.09048],[0.875444,42.090575],[0.875436,42.090632],[0.875451,42.090656],[0.875478,42.090688],[0.875424,42.090712]]]]}},{"type":"Feature","id":"259046_259046 AP03 PJU 3","properties":{"area_id":"259046_259046 AP03 PJU 3","nom":"Puigmaçana","codi_icgc":"259046 AP03 PJU 3","categoria":"Àrees de poblament","codi_municipi":"259046","municipi":"Castell de Mur","codi_comarca":"25","comarca":"Pallars Jussà","provincia":"Lleida","font":"ICGC Àrees de poblament v3r1 202602"},"geometry":{"type":"MultiPolygon","coordinates":[[[[0.870683,42.141581],[0.870543,42.141626],[0.87045,42.141578],[0.870309,42.141637],[0.870377,42.141743],[0.870398,42.141821],[0.870383,42.141878],[0.870252,42.14196],[0.870167,42.14199],[0.870074,42.142015],[0.870186,42.142164],[0.870389,42.142122],[0.870951,42.141807],[0.87095,42.141791],[0.870934,42.141717],[0.870902,42.141669],[0.870892,42.141658],[0.870937,42.141547],[0.870859,42.141428],[0.870735,42.141473],[0.870744,42.141576],[0.870686,42.141581],[0.870683,42.141581]]]]}},{"type":"Feature","id":"259046_259046 AP07 PJU 3","properties":{"area_id":"259046_259046 AP07 PJU 3","nom":"Santa Llúcia de Mur","codi_icgc":"259046 AP07 PJU 3","categoria":"Àrees de poblament","codi_municipi":"259046","municipi":"Castell de Mur","codi_comarca":"25","comarca":"Pallars Jussà","provincia":"Lleida","font":"ICGC Àrees de poblament v3r1 202602"},"geometry":{"type":"MultiPolygon","coordinates":[[[[0.859553,42.095202],[0.859698,42.095269],[0.859778,42.095244],[0.859901,42.095211],[0.859953,42.095081],[0.859805,42.09503],[0.859759,42.09506],[0.859758,42.095061],[0.859689,42.09504],[0.859594,42.095014],[0.859527,42.095004],[0.859461,42.094976],[0.859418,42.094921],[0.859414,42.094868],[0.859454,42.094821],[0.859564,42.094766],[0.859633,42.094715],[0.859631,42.094586],[0.859614,42.094522],[0.859558,42.09448],[0.859488,42.094464],[0.859453,42.094457],[0.85937,42.094441],[0.859313,42.094418],[0.859273,42.094375],[0.85925,42.094298],[0.859237,42.094114],[0.859195,42.09404],[0.859138,42.094017],[0.859058,42.094011],[0.858833,42.094059],[0.858715,42.094152],[0.858539,42.094339],[0.858437,42.094419],[0.85833,42.094462],[0.85824,42.094474],[0.858102,42.094477],[0.85794,42.094452],[0.8578,42.094433],[0.857723,42.094443],[0.857628,42.094506],[0.85761,42.094565],[0.857618,42.094615],[0.857658,42.094657],[0.857965,42.09475],[0.858146,42.09478],[0.858235,42.09481],[0.858307,42.09485],[0.858371,42.094858],[0.85842,42.094833],[0.858512,42.094761],[0.858571,42.094719],[0.858651,42.094601],[0.858705,42.094528],[0.858761,42.094498],[0.858899,42.094472],[0.858963,42.094481],[0.859096,42.094509],[0.859168,42.094563],[0.859184,42.09464],[0.859173,42.094682],[0.85913,42.094739],[0.859077,42.09479],[0.859039,42.094878],[0.859059,42.094954],[0.859117,42.09502],[0.85919,42.095043],[0.859298,42.095057],[0.85934,42.095057],[0.859476,42.0951],[0.859492,42.09511],[0.859488,42.095129],[0.859484,42.095143],[0.859509,42.09517],[0.859553,42.095202]]]]}},{"type":"Feature","id":"259046_259046 AP04 PJU 3","properties":{"area_id":"259046_259046 AP04 PJU 3","nom":"Vilamolat de Mur","codi_icgc":"259046 AP04 PJU 3","categoria":"Àrees de poblament","codi_municipi":"259046","municipi":"Castell de Mur","codi_comarca":"25","comarca":"Pallars Jussà","provincia":"Lleida","font":"ICGC Àrees de poblament v3r1 202602"},"geometry":{"type":"MultiPolygon","coordinates":[[[[0.839439,42.123149],[0.839523,42.123315],[0.839596,42.123362],[0.839702,42.123409],[0.839808,42.123456],[0.839874,42.123464],[0.839988,42.12343],[0.84008,42.123354],[0.840109,42.123251],[0.840121,42.123053],[0.840116,42.123013],[0.840114,42.122903],[0.840105,42.122827],[0.840071,42.122694],[0.840037,42.122577],[0.840011,42.122538],[0.839977,42.122514],[0.839892,42.122481],[0.839787,42.122465],[0.839656,42.122481],[0.839493,42.122527],[0.839378,42.122582],[0.8393,42.122615],[0.839352,42.122661],[0.839409,42.12273],[0.83943,42.122797],[0.839403,42.122872],[0.839382,42.122925],[0.839384,42.123009],[0.839414,42.123091],[0.839439,42.123149]]]]}},{"type":"Feature","id":"259046_259046 AP05 PJU 3","properties":{"area_id":"259046_259046 AP05 PJU 3","nom":"el Meüll","codi_icgc":"259046 AP05 PJU 3","categoria":"Àrees de poblament","codi_municipi":"259046","municipi":"Castell de Mur","codi_comarca":"25","comarca":"Pallars Jussà","provincia":"Lleida","font":"ICGC Àrees de poblament v3r1 202602"},"geometry":{"type":"MultiPolygon","coordinates":[[[[0.812239,42.118977],[0.812202,42.119092],[0.81221,42.119143],[0.812313,42.119182],[0.812551,42.119255],[0.812626,42.119271],[0.812769,42.119071],[0.812805,42.119069],[0.812939,42.118955],[0.81302,42.118944],[0.813043,42.118918],[0.813097,42.118917],[0.813128,42.118872],[0.813205,42.118776],[0.813267,42.118625],[0.813177,42.118544],[0.813135,42.118474],[0.813138,42.118389],[0.813144,42.118317],[0.813091,42.118273],[0.812843,42.118295],[0.812789,42.118303],[0.812735,42.118364],[0.812663,42.118415],[0.812578,42.118468],[0.812496,42.118526],[0.812465,42.118595],[0.81237,42.118674],[0.81226,42.118782],[0.812344,42.118859],[0.812298,42.118899],[0.812258,42.118946],[0.812239,42.118977]]]]}},{"type":"Feature","id":"259046_259046 AP02 PJU 3","properties":{"area_id":"259046_259046 AP02 PJU 3","nom":"les Cases de l'Estació","codi_icgc":"259046 AP02 PJU 3","categoria":"Àrees de poblament","codi_municipi":"259046","municipi":"Castell de Mur","codi_comarca":"25","comarca":"Pallars Jussà","provincia":"Lleida","font":"ICGC Àrees de poblament v3r1 202602"},"geometry":{"type":"MultiPolygon","coordinates":[[[[0.881998,42.058837],[0.882317,42.058935],[0.882484,42.058653],[0.882627,42.058369],[0.882784,42.058081],[0.882832,42.057992],[0.882841,42.057994],[0.882878,42.057931],[0.882863,42.057919],[0.882924,42.05782],[0.882639,42.057736],[0.882496,42.057998],[0.882434,42.058015],[0.882301,42.058275],[0.882145,42.058553],[0.881998,42.058837]]]]}},{"type":"Feature","id":"259046_259046 AP09 PJU 2","properties":{"area_id":"259046_259046 AP09 PJU 2","nom":"les Espluges","codi_icgc":"259046 AP09 PJU 2","categoria":"Àrees de poblament","codi_municipi":"259046","municipi":"Castell de Mur","codi_comarca":"25","comarca":"Pallars Jussà","provincia":"Lleida","font":"ICGC Àrees de poblament v3r1 202602"},"geometry":{"type":"MultiPolygon","coordinates":[[[[0.856876,42.083455],[0.856995,42.083653],[0.857388,42.083507],[0.857291,42.083318],[0.856876,42.083455]]]]}}]}