{"type":"FeatureCollection","name":"ICGC Àrees de poblament - Torrefeta i Florejacs","features":[{"type":"Feature","id":"259078_259078 AP09 SGA 3","properties":{"area_id":"259078_259078 AP09 SGA 3","nom":"Bellveí","codi_icgc":"259078 AP09 SGA 3","categoria":"Àrees de poblament","codi_municipi":"259078","municipi":"Torrefeta i Florejacs","codi_comarca":"32","comarca":"Segarra","provincia":"Lleida","font":"ICGC Àrees de poblament v3r1 202602"},"geometry":{"type":"MultiPolygon","coordinates":[[[[1.290653,41.755458],[1.290735,41.755524],[1.290759,41.755511],[1.290874,41.755607],[1.290956,41.755685],[1.291001,41.755736],[1.291023,41.755768],[1.291031,41.75579],[1.291084,41.75585],[1.291109,41.755873],[1.291129,41.755887],[1.291146,41.755894],[1.291325,41.755652],[1.291473,41.755704],[1.291427,41.756004],[1.29146,41.756015],[1.291549,41.756038],[1.291649,41.756037],[1.29176,41.756019],[1.291877,41.756006],[1.292041,41.755985],[1.292132,41.755933],[1.292187,41.755895],[1.292187,41.75582],[1.29224,41.75582],[1.292595,41.755797],[1.292623,41.75575],[1.292724,41.755728],[1.29281,41.75568],[1.292886,41.755612],[1.292938,41.755523],[1.292949,41.75544],[1.292948,41.75543],[1.292577,41.755402],[1.292595,41.755312],[1.292605,41.755203],[1.292789,41.755202],[1.292762,41.755175],[1.292735,41.755121],[1.292719,41.755101],[1.292688,41.755059],[1.292654,41.755001],[1.292612,41.754961],[1.292576,41.754862],[1.292575,41.754801],[1.292586,41.754742],[1.292609,41.754668],[1.29263,41.754619],[1.2926,41.754603],[1.292524,41.754583],[1.292322,41.754546],[1.292259,41.754528],[1.292211,41.754504],[1.292186,41.754446],[1.292221,41.754388],[1.29219,41.754381],[1.291871,41.754402],[1.291841,41.754368],[1.291829,41.754342],[1.29182,41.75432],[1.291811,41.754299],[1.291786,41.754235],[1.29177,41.754192],[1.291705,41.75415],[1.291695,41.754151],[1.291689,41.754152],[1.291672,41.754154],[1.291655,41.754156],[1.291531,41.754178],[1.291407,41.7542],[1.291354,41.754208],[1.291299,41.754218],[1.291247,41.754232],[1.291197,41.754247],[1.29115,41.754256],[1.291101,41.754266],[1.291062,41.754275],[1.291023,41.754286],[1.291006,41.754292],[1.291195,41.754457],[1.291031,41.754479],[1.290986,41.754501],[1.29095,41.754541],[1.290943,41.754563],[1.290943,41.754571],[1.290945,41.754583],[1.29097,41.754597],[1.291,41.754616],[1.29103,41.754634],[1.291055,41.754651],[1.291067,41.754679],[1.29098,41.754667],[1.29088,41.754662],[1.290786,41.754682],[1.290734,41.754679],[1.290727,41.754744],[1.290721,41.754773],[1.29059,41.754769],[1.290587,41.754845],[1.290581,41.754901],[1.290582,41.754942],[1.29059,41.754941],[1.290625,41.75494],[1.290678,41.754942],[1.290731,41.754948],[1.290796,41.754956],[1.290861,41.754964],[1.290872,41.754967],[1.290883,41.75497],[1.2909,41.754977],[1.290922,41.754994],[1.29094,41.755014],[1.290964,41.755039],[1.290985,41.755065],[1.291,41.755085],[1.291011,41.755106],[1.291017,41.755128],[1.291032,41.755145],[1.290782,41.755194],[1.290774,41.755194],[1.290815,41.7553],[1.29085,41.755359],[1.290823,41.755374],[1.290838,41.75541],[1.290786,41.755431],[1.290653,41.755458]]]]}},{"type":"Feature","id":"259078_259078 AP12 SGA 3","properties":{"area_id":"259078_259078 AP12 SGA 3","nom":"Castellmeià","codi_icgc":"259078 AP12 SGA 3","categoria":"Àrees de poblament","codi_municipi":"259078","municipi":"Torrefeta i Florejacs","codi_comarca":"32","comarca":"Segarra","provincia":"Lleida","font":"ICGC Àrees de poblament v3r1 202602"},"geometry":{"type":"MultiPolygon","coordinates":[[[[1.302161,41.735191],[1.302283,41.735164],[1.302353,41.735168],[1.302455,41.735163],[1.302523,41.735164],[1.302572,41.735153],[1.302611,41.735117],[1.302635,41.735059],[1.302602,41.73498],[1.302575,41.73494],[1.302558,41.73489],[1.302546,41.734872],[1.302518,41.734854],[1.302427,41.73484],[1.302344,41.73482],[1.30225,41.734796],[1.302154,41.734794],[1.301914,41.734827],[1.301815,41.734831],[1.301785,41.734774],[1.301657,41.734821],[1.301588,41.734857],[1.301381,41.734947],[1.301264,41.735001],[1.301218,41.735022],[1.301211,41.735044],[1.301208,41.735076],[1.301212,41.735093],[1.301219,41.735111],[1.301241,41.735135],[1.301262,41.735151],[1.301296,41.73517],[1.301336,41.735183],[1.301375,41.735187],[1.301434,41.735187],[1.301492,41.735181],[1.301521,41.735174],[1.301524,41.735427],[1.301561,41.735458],[1.301701,41.735441],[1.301817,41.73542],[1.301897,41.735376],[1.301913,41.735319],[1.30194,41.735291],[1.301983,41.735276],[1.302032,41.735273],[1.302056,41.735236],[1.302068,41.735215],[1.302161,41.735191]]]]}},{"type":"Feature","id":"259078_259078 AP06 SGA 3","properties":{"area_id":"259078_259078 AP06 SGA 3","nom":"Florejacs","codi_icgc":"259078 AP06 SGA 3","categoria":"Àrees de poblament","codi_municipi":"259078","municipi":"Torrefeta i Florejacs","codi_comarca":"32","comarca":"Segarra","provincia":"Lleida","font":"ICGC Àrees de poblament v3r1 202602"},"geometry":{"type":"MultiPolygon","coordinates":[[[[1.214585,41.800963],[1.214635,41.800973],[1.214674,41.80097],[1.214719,41.800987],[1.214756,41.800995],[1.214804,41.800995],[1.214854,41.80099],[1.214889,41.800981],[1.214909,41.800968],[1.214936,41.800972],[1.214996,41.800985],[1.215027,41.800991],[1.215081,41.800997],[1.215156,41.801023],[1.215204,41.801045],[1.215269,41.801091],[1.21538,41.80119],[1.215523,41.801278],[1.215575,41.801291],[1.21566,41.801295],[1.215687,41.801296],[1.215782,41.801294],[1.21586,41.801294],[1.215978,41.801295],[1.215977,41.801325],[1.216091,41.801327],[1.216092,41.801311],[1.216482,41.801319],[1.216483,41.801285],[1.216567,41.801287],[1.216568,41.801252],[1.216811,41.801257],[1.21688,41.801263],[1.217015,41.801237],[1.217172,41.801227],[1.217164,41.801044],[1.217173,41.801044],[1.217258,41.801053],[1.21738,41.801074],[1.217503,41.801102],[1.217526,41.801111],[1.217533,41.801109],[1.217646,41.801082],[1.217727,41.800804],[1.217441,41.800741],[1.217367,41.800936],[1.217138,41.800925],[1.217013,41.800929],[1.216916,41.800935],[1.216819,41.800933],[1.216769,41.800966],[1.216634,41.800964],[1.216388,41.800961],[1.216142,41.800957],[1.215862,41.800952],[1.215582,41.800947],[1.215481,41.800946],[1.215468,41.800926],[1.215454,41.800916],[1.215427,41.800902],[1.215413,41.800894],[1.215349,41.800847],[1.215285,41.800797],[1.215221,41.800746],[1.215156,41.800694],[1.2151,41.80065],[1.215044,41.800606],[1.215055,41.8006],[1.215088,41.800576],[1.215029,41.800534],[1.214902,41.800442],[1.214729,41.800493],[1.214693,41.800472],[1.214642,41.800423],[1.214596,41.800448],[1.214568,41.800423],[1.214554,41.800404],[1.214479,41.800344],[1.214435,41.800308],[1.214439,41.800306],[1.214337,41.800211],[1.214252,41.800264],[1.214196,41.800304],[1.21419,41.800296],[1.214166,41.800272],[1.21415,41.800249],[1.214145,41.800237],[1.214132,41.800229],[1.214071,41.800189],[1.214028,41.800161],[1.214,41.800148],[1.213969,41.80014],[1.213903,41.80013],[1.213839,41.800121],[1.213762,41.800106],[1.213687,41.800087],[1.213597,41.800057],[1.213506,41.800027],[1.213442,41.80001],[1.213375,41.799997],[1.213336,41.799996],[1.213298,41.800001],[1.213257,41.800015],[1.21322,41.800033],[1.213199,41.800049],[1.213152,41.800097],[1.213108,41.800146],[1.213053,41.80021],[1.213044,41.800216],[1.213035,41.800221],[1.213029,41.800223],[1.212986,41.800237],[1.212894,41.800237],[1.212849,41.800304],[1.212753,41.800336],[1.212715,41.800329],[1.212552,41.800352],[1.21255,41.800378],[1.212511,41.800467],[1.212525,41.800489],[1.212599,41.800725],[1.21289,41.800678],[1.212899,41.800696],[1.212928,41.800738],[1.212961,41.800778],[1.212978,41.800796],[1.213048,41.800847],[1.213121,41.800896],[1.213124,41.800897],[1.213199,41.800925],[1.213132,41.801055],[1.213163,41.801067],[1.213196,41.801077],[1.213235,41.801087],[1.213273,41.801096],[1.213338,41.80111],[1.213402,41.801125],[1.213441,41.801134],[1.213461,41.801136],[1.21348,41.801136],[1.21349,41.801134],[1.213501,41.801125],[1.213512,41.801116],[1.213525,41.801102],[1.213539,41.801089],[1.213549,41.801082],[1.213555,41.801078],[1.213573,41.80107],[1.213619,41.801057],[1.213665,41.801045],[1.213688,41.80104],[1.21371,41.801032],[1.213725,41.801023],[1.21374,41.801013],[1.21382,41.800998],[1.21391,41.800981],[1.213979,41.800967],[1.214049,41.800957],[1.214132,41.800954],[1.214215,41.800953],[1.214307,41.800949],[1.214399,41.800946],[1.214446,41.800947],[1.214515,41.800953],[1.214585,41.800963]]]]}},{"type":"Feature","id":"259078_259078 AP08 SGA 3","properties":{"area_id":"259078_259078 AP08 SGA 3","nom":"Gra","codi_icgc":"259078 AP08 SGA 3","categoria":"Àrees de poblament","codi_municipi":"259078","municipi":"Torrefeta i Florejacs","codi_comarca":"32","comarca":"Segarra","provincia":"Lleida","font":"ICGC Àrees de poblament v3r1 202602"},"geometry":{"type":"MultiPolygon","coordinates":[[[[1.248802,41.766254],[1.248802,41.766267],[1.248796,41.766283],[1.248791,41.766299],[1.248779,41.766333],[1.248767,41.766365],[1.248751,41.766396],[1.248742,41.766407],[1.248733,41.766418],[1.248721,41.766426],[1.248706,41.766433],[1.248692,41.766442],[1.248667,41.766453],[1.248679,41.766463],[1.248711,41.766559],[1.248714,41.766566],[1.24876,41.766708],[1.248762,41.76672],[1.248764,41.766733],[1.248762,41.766749],[1.248756,41.766766],[1.248751,41.766784],[1.248746,41.766802],[1.248747,41.76681],[1.248753,41.766819],[1.248763,41.766826],[1.248773,41.766827],[1.248782,41.766828],[1.248803,41.766828],[1.248889,41.766845],[1.248904,41.76685],[1.248976,41.766875],[1.249014,41.766887],[1.249053,41.766896],[1.24911,41.766903],[1.249194,41.76691],[1.249278,41.766914],[1.249373,41.766918],[1.249468,41.766917],[1.249532,41.76691],[1.249593,41.766897],[1.24963,41.766888],[1.249666,41.766874],[1.249702,41.766952],[1.249763,41.766935],[1.249889,41.766898],[1.249921,41.766881],[1.250017,41.766782],[1.250038,41.766789],[1.250056,41.766774],[1.250103,41.766753],[1.250146,41.76681],[1.250241,41.76678],[1.250389,41.766734],[1.250545,41.766705],[1.250692,41.76668],[1.250813,41.766663],[1.250963,41.766604],[1.250979,41.766561],[1.250963,41.766531],[1.250964,41.766453],[1.250965,41.76642],[1.250986,41.766415],[1.251005,41.766406],[1.251012,41.766402],[1.251073,41.766372],[1.251098,41.766362],[1.251098,41.766289],[1.250925,41.766284],[1.250927,41.766264],[1.250783,41.766254],[1.250747,41.766253],[1.250748,41.76621],[1.250621,41.766209],[1.25052,41.7662],[1.250495,41.76613],[1.250423,41.766116],[1.250349,41.766103],[1.250349,41.766071],[1.250095,41.766074],[1.250063,41.766075],[1.250069,41.766081],[1.25011,41.766128],[1.250106,41.766143],[1.250104,41.766152],[1.25001,41.766247],[1.249734,41.766144],[1.249582,41.766108],[1.24952,41.766105],[1.249415,41.766076],[1.249377,41.766076],[1.249366,41.766178],[1.249346,41.766175],[1.249318,41.766161],[1.249298,41.766147],[1.24928,41.766132],[1.249272,41.766121],[1.249258,41.766093],[1.249252,41.766082],[1.249245,41.766073],[1.249233,41.766057],[1.249224,41.766049],[1.249207,41.766032],[1.249196,41.766026],[1.249188,41.76602],[1.249183,41.766019],[1.249169,41.766014],[1.249141,41.766],[1.249123,41.765987],[1.24909,41.76598],[1.24904,41.76597],[1.249003,41.765967],[1.248997,41.765969],[1.248972,41.765975],[1.248926,41.765981],[1.2489,41.765989],[1.248619,41.765943],[1.248609,41.765954],[1.248581,41.766063],[1.248557,41.766163],[1.248674,41.766184],[1.248727,41.766198],[1.248759,41.766214],[1.248785,41.766238],[1.248802,41.766254]]]]}},{"type":"Feature","id":"259078_259078 AP04 SGA 3","properties":{"area_id":"259078_259078 AP04 SGA 3","nom":"Granollers","codi_icgc":"259078 AP04 SGA 3","categoria":"Àrees de poblament","codi_municipi":"259078","municipi":"Torrefeta i Florejacs","codi_comarca":"32","comarca":"Segarra","provincia":"Lleida","font":"ICGC Àrees de poblament v3r1 202602"},"geometry":{"type":"MultiPolygon","coordinates":[[[[1.256182,41.834245],[1.256286,41.834258],[1.256322,41.834241],[1.256348,41.834221],[1.256371,41.834197],[1.256393,41.834176],[1.256503,41.834168],[1.256497,41.834128],[1.256607,41.834118],[1.256599,41.834045],[1.256603,41.833949],[1.256491,41.833955],[1.256483,41.833935],[1.256475,41.833915],[1.256461,41.833887],[1.256447,41.833859],[1.25644,41.833837],[1.256433,41.833814],[1.256514,41.833779],[1.256618,41.833735],[1.256569,41.833705],[1.256401,41.833595],[1.256351,41.833573],[1.25615,41.833555],[1.256176,41.833633],[1.256138,41.833613],[1.256102,41.833592],[1.256059,41.833561],[1.255999,41.833512],[1.255939,41.833461],[1.255891,41.83342],[1.255851,41.833384],[1.255798,41.833358],[1.255792,41.833367],[1.255783,41.833374],[1.255768,41.833384],[1.255745,41.8334],[1.255708,41.833426],[1.25566,41.833455],[1.25562,41.83348],[1.255582,41.833508],[1.255514,41.833569],[1.255494,41.833594],[1.255479,41.83362],[1.255461,41.833674],[1.255455,41.833715],[1.255458,41.833757],[1.255466,41.833785],[1.255486,41.833822],[1.255513,41.833855],[1.255535,41.833876],[1.255586,41.833914],[1.25564,41.833946],[1.255679,41.833965],[1.255735,41.833989],[1.255746,41.83405],[1.255801,41.83411],[1.255904,41.83414],[1.255995,41.834176],[1.256048,41.834218],[1.256182,41.834245]]]]}},{"type":"Feature","id":"259078_259078 AP05 SGA 3","properties":{"area_id":"259078_259078 AP05 SGA 3","nom":"Palou","codi_icgc":"259078 AP05 SGA 3","categoria":"Àrees de poblament","codi_municipi":"259078","municipi":"Torrefeta i Florejacs","codi_comarca":"32","comarca":"Segarra","provincia":"Lleida","font":"ICGC Àrees de poblament v3r1 202602"},"geometry":{"type":"MultiPolygon","coordinates":[[[[1.251321,41.81757],[1.251293,41.81757],[1.251262,41.817571],[1.251121,41.817572],[1.251103,41.817573],[1.251039,41.817578],[1.250983,41.817572],[1.250987,41.817554],[1.250989,41.817542],[1.250997,41.817528],[1.250936,41.8175],[1.250937,41.817473],[1.250896,41.817472],[1.250893,41.817422],[1.250838,41.817424],[1.250836,41.817402],[1.250807,41.817403],[1.250756,41.817404],[1.250753,41.817348],[1.250725,41.817349],[1.250702,41.817349],[1.250684,41.81735],[1.250688,41.817446],[1.250637,41.817448],[1.250638,41.817473],[1.250554,41.817475],[1.250558,41.817557],[1.250517,41.817562],[1.250472,41.817558],[1.25042,41.817551],[1.250377,41.817547],[1.250342,41.817545],[1.250315,41.817543],[1.250263,41.817544],[1.250237,41.817547],[1.250211,41.817553],[1.250165,41.81757],[1.250124,41.81759],[1.250084,41.817608],[1.250045,41.817621],[1.250006,41.81763],[1.249979,41.817632],[1.249908,41.817632],[1.249836,41.817631],[1.249792,41.817633],[1.249748,41.817637],[1.249716,41.817645],[1.249687,41.817659],[1.24967,41.817672],[1.249657,41.817691],[1.249648,41.817712],[1.249636,41.817732],[1.249622,41.817743],[1.249602,41.817753],[1.249497,41.817638],[1.249451,41.817614],[1.249355,41.817647],[1.249308,41.817679],[1.249361,41.817749],[1.249377,41.81777],[1.249446,41.817862],[1.249499,41.817925],[1.249557,41.817987],[1.249596,41.818022],[1.249619,41.818038],[1.249745,41.817986],[1.249826,41.817952],[1.249838,41.817964],[1.249901,41.818023],[1.249968,41.818081],[1.25,41.818107],[1.250032,41.818132],[1.250054,41.818151],[1.250067,41.818161],[1.250084,41.818169],[1.250157,41.818184],[1.250227,41.818198],[1.250286,41.818211],[1.250347,41.818222],[1.250448,41.818235],[1.250498,41.818239],[1.250633,41.818267],[1.25059,41.818358],[1.250578,41.818381],[1.250602,41.818387],[1.25064,41.818397],[1.250722,41.818418],[1.250806,41.818438],[1.250849,41.818443],[1.250891,41.818445],[1.251192,41.818442],[1.251252,41.818432],[1.251267,41.81843],[1.25132,41.818413],[1.251342,41.818401],[1.251362,41.818388],[1.251393,41.818359],[1.251408,41.818335],[1.251423,41.818295],[1.251432,41.818255],[1.251439,41.818191],[1.251448,41.818128],[1.251457,41.8181],[1.251471,41.818074],[1.251485,41.818058],[1.25151,41.818039],[1.25154,41.818021],[1.251559,41.818006],[1.251587,41.817975],[1.251596,41.817961],[1.251609,41.817942],[1.251623,41.81791],[1.251631,41.817878],[1.251642,41.817846],[1.25165,41.81782],[1.25166,41.817806],[1.251681,41.817799],[1.251708,41.817801],[1.251735,41.817806],[1.251779,41.817816],[1.251827,41.817823],[1.251861,41.817822],[1.251905,41.817815],[1.251948,41.817809],[1.252063,41.817794],[1.252179,41.817779],[1.252255,41.817769],[1.25233,41.817761],[1.252445,41.817751],[1.252564,41.817747],[1.252566,41.817929],[1.252561,41.818045],[1.252778,41.818044],[1.252967,41.818031],[1.252957,41.817985],[1.252915,41.817706],[1.252906,41.817672],[1.25282,41.817684],[1.252734,41.817695],[1.252645,41.817706],[1.252556,41.817715],[1.252441,41.817725],[1.252326,41.817736],[1.252253,41.817735],[1.252202,41.817543],[1.251762,41.817562],[1.251674,41.817629],[1.251668,41.817597],[1.251573,41.817606],[1.251577,41.817629],[1.251544,41.817633],[1.251526,41.817627],[1.251513,41.817511],[1.251479,41.817502],[1.251427,41.817501],[1.251426,41.817564],[1.251321,41.81757]]]]}},{"type":"Feature","id":"259078_259078 SI01 SGA 2","properties":{"area_id":"259078_259078 SI01 SGA 2","nom":"Polígon industrial La Morana","codi_icgc":"259078 SI01 SGA 2","categoria":"Sector industrial","codi_municipi":"259078","municipi":"Torrefeta i Florejacs","codi_comarca":"32","comarca":"Segarra","provincia":"Lleida","font":"ICGC Àrees de poblament v3r1 202602"},"geometry":{"type":"MultiPolygon","coordinates":[[[[1.268715,41.778966],[1.268889,41.779029],[1.268944,41.779027],[1.269145,41.779086],[1.269201,41.779043],[1.269374,41.778673],[1.269421,41.778573],[1.269291,41.778524],[1.269331,41.778462],[1.269167,41.778403],[1.268743,41.77825],[1.268601,41.778203],[1.268505,41.778171],[1.26833,41.778216],[1.268266,41.778269],[1.268255,41.778278],[1.268125,41.778458],[1.2681,41.778492],[1.268022,41.778599],[1.268269,41.778732],[1.268367,41.778785],[1.268534,41.778882],[1.268715,41.778966]]]]}},{"type":"Feature","id":"259078_259078 AP17 SGA 2","properties":{"area_id":"259078_259078 AP17 SGA 2","nom":"Raval de Sedó","codi_icgc":"259078 AP17 SGA 2","categoria":"Àrees de poblament","codi_municipi":"259078","municipi":"Torrefeta i Florejacs","codi_comarca":"32","comarca":"Segarra","provincia":"Lleida","font":"ICGC Àrees de poblament v3r1 202602"},"geometry":{"type":"MultiPolygon","coordinates":[[[[1.258381,41.734652],[1.258534,41.734466],[1.258568,41.734376],[1.258573,41.734365],[1.258848,41.734431],[1.258908,41.734502],[1.258974,41.734559],[1.259098,41.734677],[1.259161,41.734759],[1.259449,41.73491],[1.259632,41.735037],[1.259656,41.735053],[1.259776,41.734942],[1.259797,41.734922],[1.259816,41.734905],[1.259784,41.734886],[1.259733,41.734849],[1.259685,41.734809],[1.259643,41.734771],[1.259602,41.734733],[1.259566,41.734693],[1.259529,41.734653],[1.259486,41.734611],[1.259438,41.734571],[1.259378,41.734528],[1.259319,41.734486],[1.259277,41.73445],[1.259239,41.734411],[1.259184,41.734352],[1.259131,41.734291],[1.259089,41.734237],[1.259056,41.734195],[1.259018,41.734136],[1.259268,41.73426],[1.259314,41.734244],[1.259373,41.734205],[1.259392,41.734184],[1.25926,41.734118],[1.259242,41.734089],[1.2591,41.734063],[1.259022,41.734049],[1.259007,41.734052],[1.258981,41.734056],[1.258938,41.734058],[1.258894,41.734056],[1.258867,41.734056],[1.258841,41.734055],[1.25881,41.734051],[1.258778,41.734046],[1.258735,41.734038],[1.258692,41.73403],[1.258634,41.73402],[1.258575,41.734011],[1.258533,41.734004],[1.258492,41.733997],[1.258454,41.733993],[1.258415,41.733992],[1.258386,41.733994],[1.258356,41.733996],[1.258327,41.733999],[1.258299,41.734004],[1.258268,41.734011],[1.258239,41.734023],[1.258202,41.734042],[1.258167,41.734063],[1.258117,41.734097],[1.258068,41.73413],[1.257983,41.734186],[1.257899,41.734243],[1.257841,41.734254],[1.257795,41.734193],[1.257715,41.734089],[1.257703,41.734077],[1.257658,41.734039],[1.25762,41.734012],[1.257577,41.733988],[1.257526,41.733968],[1.257394,41.733937],[1.257394,41.733937],[1.257393,41.733937],[1.25727,41.733913],[1.257245,41.733934],[1.257176,41.73399],[1.257166,41.733998],[1.257612,41.734218],[1.257669,41.734221],[1.257707,41.734228],[1.257739,41.734243],[1.257752,41.734255],[1.257761,41.734273],[1.257764,41.734318],[1.257738,41.734361],[1.257692,41.734399],[1.257678,41.73441],[1.257618,41.734457],[1.257579,41.734493],[1.257547,41.734535],[1.257544,41.734543],[1.257579,41.734571],[1.257591,41.734581],[1.257745,41.734741],[1.258325,41.734991],[1.258397,41.73498],[1.258451,41.734974],[1.258518,41.734972],[1.258572,41.734988],[1.258636,41.735014],[1.258742,41.734876],[1.258767,41.734845],[1.258689,41.73481],[1.258663,41.734797],[1.25858,41.734756],[1.258381,41.734652]]]]}},{"type":"Feature","id":"259078_259078 AP14 SGA 3","properties":{"area_id":"259078_259078 AP14 SGA 3","nom":"Riber","codi_icgc":"259078 AP14 SGA 3","categoria":"Àrees de poblament","codi_municipi":"259078","municipi":"Torrefeta i Florejacs","codi_comarca":"32","comarca":"Segarra","provincia":"Lleida","font":"ICGC Àrees de poblament v3r1 202602"},"geometry":{"type":"MultiPolygon","coordinates":[[[[1.250418,41.731531],[1.250243,41.731491],[1.250134,41.731423],[1.250015,41.731348],[1.250016,41.731335],[1.249963,41.731314],[1.249914,41.731312],[1.249864,41.73131],[1.249762,41.731307],[1.24966,41.731304],[1.249563,41.731303],[1.249467,41.731302],[1.24944,41.731301],[1.249414,41.731299],[1.249391,41.731293],[1.249361,41.731305],[1.249327,41.73133],[1.249292,41.731378],[1.249282,41.731397],[1.24927,41.731414],[1.249255,41.731429],[1.249221,41.731458],[1.249187,41.731486],[1.249154,41.731515],[1.249164,41.731569],[1.249203,41.731684],[1.249254,41.731735],[1.249255,41.73179],[1.24926,41.731828],[1.24927,41.731868],[1.249275,41.731888],[1.249275,41.731909],[1.249274,41.731917],[1.249284,41.732029],[1.249287,41.732054],[1.249288,41.73208],[1.249289,41.732115],[1.24929,41.73215],[1.249286,41.732201],[1.24928,41.732252],[1.249276,41.732269],[1.249423,41.732299],[1.249476,41.732253],[1.249523,41.732214],[1.249566,41.732174],[1.24958,41.73216],[1.249593,41.732146],[1.249607,41.732128],[1.249621,41.732109],[1.249635,41.732083],[1.249647,41.732057],[1.24966,41.732031],[1.249673,41.732005],[1.249683,41.731994],[1.249707,41.731983],[1.249735,41.731976],[1.249786,41.731964],[1.249836,41.731952],[1.249882,41.731938],[1.249928,41.731923],[1.249996,41.731899],[1.250066,41.731875],[1.250136,41.732024],[1.250015,41.732037],[1.250002,41.732078],[1.250008,41.732077],[1.249998,41.73212],[1.249996,41.732136],[1.249991,41.732171],[1.250097,41.732179],[1.250293,41.732198],[1.250465,41.732202],[1.250483,41.732215],[1.25049,41.732217],[1.250538,41.732231],[1.250588,41.73224],[1.250639,41.732243],[1.25069,41.73224],[1.250794,41.732204],[1.250805,41.7322],[1.250986,41.732137],[1.251148,41.732077],[1.251195,41.732059],[1.251187,41.731947],[1.251177,41.731869],[1.251172,41.731787],[1.251167,41.731774],[1.25116,41.731752],[1.251159,41.731729],[1.250987,41.731743],[1.250828,41.731744],[1.250671,41.731732],[1.250588,41.731729],[1.250566,41.731686],[1.250443,41.731668],[1.250515,41.73157],[1.250418,41.731531]]]]}},{"type":"Feature","id":"259078_259078 AP07 SGA 3","properties":{"area_id":"259078_259078 AP07 SGA 3","nom":"Sant Martí de la Morana","codi_icgc":"259078 AP07 SGA 3","categoria":"Àrees de poblament","codi_municipi":"259078","municipi":"Torrefeta i Florejacs","codi_comarca":"32","comarca":"Segarra","provincia":"Lleida","font":"ICGC Àrees de poblament v3r1 202602"},"geometry":{"type":"MultiPolygon","coordinates":[[[[1.255877,41.77493],[1.256075,41.774909],[1.256124,41.77507],[1.256239,41.7751],[1.256264,41.775098],[1.256264,41.7751],[1.256306,41.775137],[1.256368,41.775187],[1.25656,41.775265],[1.256612,41.775275],[1.256742,41.775301],[1.256786,41.775277],[1.256851,41.775236],[1.256896,41.77528],[1.256996,41.775207],[1.257031,41.775295],[1.257051,41.775343],[1.257234,41.77527],[1.257282,41.77527],[1.257262,41.775237],[1.257246,41.775208],[1.257232,41.775179],[1.257221,41.775155],[1.25721,41.775131],[1.257209,41.775106],[1.257207,41.775082],[1.25721,41.775073],[1.257216,41.775064],[1.257237,41.775043],[1.257256,41.775025],[1.257276,41.77501],[1.257289,41.775002],[1.257298,41.775001],[1.257307,41.775],[1.257333,41.775005],[1.25735,41.77501],[1.257372,41.775021],[1.257408,41.77504],[1.257444,41.77506],[1.257488,41.775039],[1.257546,41.775006],[1.257281,41.77475],[1.257105,41.774605],[1.257115,41.774557],[1.257133,41.774518],[1.257148,41.774482],[1.257162,41.774447],[1.257179,41.774414],[1.257198,41.77438],[1.25721,41.77436],[1.257217,41.774337],[1.257215,41.774313],[1.25721,41.774293],[1.2572,41.774261],[1.257189,41.77423],[1.257175,41.774195],[1.257162,41.77416],[1.257139,41.774127],[1.257125,41.774098],[1.257097,41.774096],[1.257044,41.774096],[1.256817,41.774348],[1.256682,41.774371],[1.256428,41.774302],[1.256382,41.774295],[1.25625,41.774413],[1.256198,41.774437],[1.255965,41.774408],[1.255947,41.774474],[1.255922,41.774508],[1.255841,41.774701],[1.255834,41.774702],[1.255877,41.77493]]]]}},{"type":"Feature","id":"259078_259078 AP13 SGA 3","properties":{"area_id":"259078_259078 AP13 SGA 3","nom":"Sedó","codi_icgc":"259078 AP13 SGA 3","categoria":"Àrees de poblament","codi_municipi":"259078","municipi":"Torrefeta i Florejacs","codi_comarca":"32","comarca":"Segarra","provincia":"Lleida","font":"ICGC Àrees de poblament v3r1 202602"},"geometry":{"type":"MultiPolygon","coordinates":[[[[1.260981,41.731611],[1.260983,41.731595],[1.260948,41.731593],[1.260791,41.731588],[1.260599,41.73158],[1.260607,41.73155],[1.260395,41.731529],[1.260103,41.731524],[1.259877,41.731528],[1.259767,41.731533],[1.259532,41.73157],[1.259419,41.731571],[1.259302,41.731579],[1.259248,41.731549],[1.259217,41.731779],[1.259168,41.73218],[1.25873,41.732188],[1.258672,41.732189],[1.25862,41.732191],[1.258492,41.732203],[1.258393,41.732182],[1.258256,41.732159],[1.258242,41.732201],[1.258249,41.732415],[1.258214,41.73249],[1.258537,41.732527],[1.258521,41.732619],[1.258654,41.732678],[1.258741,41.732705],[1.258799,41.732677],[1.258871,41.732727],[1.259016,41.732796],[1.259144,41.732822],[1.259162,41.732822],[1.259326,41.732819],[1.259544,41.732792],[1.259742,41.732813],[1.259893,41.732879],[1.25997,41.732905],[1.260049,41.732926],[1.26013,41.732942],[1.260213,41.732952],[1.260296,41.732956],[1.26038,41.732954],[1.260424,41.73295],[1.260468,41.733017],[1.260685,41.733118],[1.260866,41.733023],[1.260955,41.732926],[1.260968,41.732916],[1.260983,41.732907],[1.26099,41.732899],[1.261003,41.732869],[1.261019,41.732834],[1.261074,41.732679],[1.261222,41.732701],[1.261402,41.732714],[1.261486,41.73273],[1.261793,41.732798],[1.26185,41.732809],[1.261882,41.732686],[1.261912,41.732692],[1.261922,41.732666],[1.261925,41.732658],[1.261945,41.732661],[1.261994,41.732672],[1.262094,41.732692],[1.262196,41.732707],[1.262321,41.732723],[1.262443,41.73274],[1.26248,41.732748],[1.262518,41.732758],[1.262596,41.732779],[1.262666,41.732792],[1.262736,41.732799],[1.262851,41.732804],[1.262965,41.732807],[1.263041,41.732808],[1.263118,41.732806],[1.263174,41.732803],[1.263239,41.732803],[1.263502,41.732817],[1.263753,41.732828],[1.263851,41.732833],[1.264006,41.732843],[1.264014,41.732799],[1.264055,41.732744],[1.264173,41.732633],[1.264128,41.732606],[1.264019,41.732585],[1.263992,41.732546],[1.263925,41.732539],[1.263869,41.732528],[1.26381,41.732517],[1.263702,41.732507],[1.263595,41.732499],[1.263457,41.732491],[1.26337,41.732482],[1.263324,41.732469],[1.26269,41.732457],[1.262264,41.732449],[1.26217,41.732428],[1.261821,41.732365],[1.261932,41.732091],[1.261832,41.732073],[1.261877,41.731925],[1.261526,41.731889],[1.261492,41.731985],[1.261433,41.732129],[1.261377,41.732295],[1.261293,41.732291],[1.261219,41.73228],[1.261144,41.732241],[1.261085,41.732204],[1.26105,41.732158],[1.261014,41.73208],[1.260995,41.731976],[1.260962,41.731874],[1.260931,41.731802],[1.261114,41.731816],[1.261133,41.731634],[1.260981,41.731611]]]]}},{"type":"Feature","id":"259078_259078 AP15 SGA 3","properties":{"area_id":"259078_259078 AP15 SGA 3","nom":"Selvanera","codi_icgc":"259078 AP15 SGA 3","categoria":"Àrees de poblament","codi_municipi":"259078","municipi":"Torrefeta i Florejacs","codi_comarca":"32","comarca":"Segarra","provincia":"Lleida","font":"ICGC Àrees de poblament v3r1 202602"},"geometry":{"type":"MultiPolygon","coordinates":[[[[1.274066,41.831961],[1.27416,41.831961],[1.274246,41.831959],[1.274364,41.83193],[1.274485,41.831898],[1.274595,41.831882],[1.274659,41.831887],[1.27473,41.831905],[1.274718,41.831939],[1.274699,41.831991],[1.274688,41.832023],[1.274644,41.832163],[1.274623,41.832202],[1.274599,41.832302],[1.274573,41.832411],[1.274618,41.832414],[1.274594,41.832492],[1.274683,41.832565],[1.274842,41.83265],[1.27489,41.832674],[1.27526,41.832856],[1.275292,41.83282],[1.275311,41.832829],[1.275283,41.832861],[1.275344,41.832884],[1.275415,41.832794],[1.275487,41.832853],[1.275557,41.832884],[1.27562,41.832908],[1.275667,41.832926],[1.275692,41.832902],[1.275704,41.832863],[1.275719,41.832841],[1.275735,41.832816],[1.275762,41.832775],[1.27579,41.832733],[1.275813,41.832688],[1.275824,41.832665],[1.275836,41.832645],[1.275883,41.832598],[1.275936,41.832555],[1.276012,41.832501],[1.276088,41.832445],[1.276167,41.832382],[1.276245,41.832319],[1.276328,41.832254],[1.276412,41.832188],[1.27645,41.83215],[1.276483,41.832108],[1.27649,41.832092],[1.276495,41.832068],[1.276493,41.832044],[1.276481,41.832017],[1.276453,41.831973],[1.276518,41.831994],[1.276676,41.831859],[1.276744,41.831802],[1.276764,41.831785],[1.276572,41.83168],[1.276533,41.831658],[1.276465,41.831724],[1.276357,41.831827],[1.276302,41.831883],[1.276247,41.831939],[1.276228,41.831956],[1.27621,41.831974],[1.276125,41.832045],[1.276039,41.832116],[1.276023,41.832129],[1.275999,41.832144],[1.275993,41.83204],[1.275979,41.831848],[1.275976,41.831737],[1.275795,41.831701],[1.275776,41.831758],[1.275809,41.831763],[1.275795,41.831806],[1.275682,41.831779],[1.275698,41.83175],[1.275582,41.831686],[1.27566,41.831603],[1.275513,41.831523],[1.275401,41.831507],[1.275189,41.831493],[1.275048,41.831485],[1.275031,41.83147],[1.274997,41.831491],[1.275023,41.831515],[1.274893,41.831649],[1.274794,41.831761],[1.274663,41.831758],[1.27457,41.831753],[1.274569,41.831769],[1.274488,41.831784],[1.274489,41.831762],[1.274292,41.831795],[1.274222,41.831639],[1.273975,41.8317],[1.273723,41.831765],[1.273723,41.831897],[1.273768,41.831948],[1.274066,41.831961]]]]}},{"type":"Feature","id":"259078_259078 AP01 SGA 3","properties":{"area_id":"259078_259078 AP01 SGA 3","nom":"Torrefeta","codi_icgc":"259078 AP01 SGA 3","categoria":"Àrees de poblament","codi_municipi":"259078","municipi":"Torrefeta i Florejacs","codi_comarca":"32","comarca":"Segarra","provincia":"Lleida","font":"ICGC Àrees de poblament v3r1 202602"},"geometry":{"type":"MultiPolygon","coordinates":[[[[1.274199,41.754439],[1.274248,41.754406],[1.274255,41.754402],[1.274298,41.754374],[1.274342,41.754345],[1.274395,41.754326],[1.274409,41.754347],[1.274419,41.754379],[1.274447,41.754423],[1.274742,41.754387],[1.274777,41.754381],[1.274771,41.754632],[1.275092,41.754625],[1.275099,41.754564],[1.275148,41.754546],[1.275169,41.754527],[1.275183,41.754505],[1.275193,41.754438],[1.275307,41.754432],[1.275304,41.754346],[1.275311,41.754343],[1.275329,41.754343],[1.275444,41.754344],[1.275658,41.754345],[1.275871,41.754346],[1.275898,41.754346],[1.275934,41.754347],[1.275964,41.754347],[1.275981,41.754348],[1.275999,41.754292],[1.276062,41.754092],[1.276069,41.754039],[1.276004,41.754032],[1.275672,41.754023],[1.275652,41.754289],[1.275229,41.754295],[1.275229,41.754241],[1.275134,41.754242],[1.275126,41.754293],[1.275086,41.754291],[1.275022,41.754287],[1.274977,41.754281],[1.274933,41.75427],[1.274913,41.754264],[1.274893,41.754256],[1.27488,41.754247],[1.27487,41.754237],[1.274863,41.754226],[1.274861,41.754215],[1.274861,41.754194],[1.274856,41.754169],[1.274873,41.754118],[1.274899,41.753982],[1.274884,41.753946],[1.27482,41.753945],[1.274543,41.753941],[1.274519,41.753809],[1.27451,41.753751],[1.274498,41.753748],[1.274482,41.753738],[1.274465,41.753727],[1.274454,41.753714],[1.274447,41.753707],[1.274442,41.753702],[1.274294,41.753661],[1.274312,41.753623],[1.274112,41.753568],[1.274039,41.753555],[1.273968,41.753542],[1.2739,41.753528],[1.27381,41.753514],[1.273721,41.753499],[1.273672,41.753489],[1.273624,41.753477],[1.273573,41.75346],[1.273523,41.753443],[1.27336,41.753518],[1.273289,41.753574],[1.273168,41.753669],[1.273064,41.753666],[1.272927,41.753669],[1.273022,41.75351],[1.27249,41.753433],[1.272445,41.753677],[1.272424,41.753748],[1.272396,41.7538],[1.272375,41.753859],[1.272368,41.753917],[1.272352,41.754043],[1.271857,41.753992],[1.271739,41.753984],[1.271715,41.75408],[1.271695,41.754255],[1.271847,41.754264],[1.27185,41.754238],[1.271904,41.754243],[1.272255,41.754287],[1.272414,41.754306],[1.272604,41.754328],[1.272534,41.754492],[1.272652,41.754522],[1.272708,41.754409],[1.272749,41.75442],[1.272805,41.754432],[1.272865,41.754451],[1.272909,41.754464],[1.272872,41.754537],[1.272928,41.75456],[1.272904,41.7546],[1.27299,41.754636],[1.273091,41.754666],[1.273151,41.754555],[1.273326,41.754548],[1.274082,41.754482],[1.274144,41.75448],[1.27417,41.754459],[1.274199,41.754439]]]]}},{"type":"Feature","id":"259078_259078 AP11 SGA 3","properties":{"area_id":"259078_259078 AP11 SGA 3","nom":"el Far","codi_icgc":"259078 AP11 SGA 3","categoria":"Àrees de poblament","codi_municipi":"259078","municipi":"Torrefeta i Florejacs","codi_comarca":"32","comarca":"Segarra","provincia":"Lleida","font":"ICGC Àrees de poblament v3r1 202602"},"geometry":{"type":"MultiPolygon","coordinates":[[[[1.326664,41.751897],[1.326524,41.751972],[1.326317,41.75206],[1.326344,41.752087],[1.326493,41.752231],[1.326571,41.752239],[1.326638,41.752278],[1.326731,41.752325],[1.326832,41.75237],[1.32686,41.752352],[1.32692,41.752312],[1.327015,41.75225],[1.327049,41.752278],[1.327081,41.752314],[1.327107,41.752337],[1.327134,41.752354],[1.327164,41.752367],[1.327187,41.752372],[1.327208,41.752376],[1.32722,41.752377],[1.327251,41.752365],[1.327239,41.752289],[1.327244,41.75225],[1.327255,41.752194],[1.327273,41.752139],[1.327289,41.752103],[1.327301,41.752085],[1.327316,41.752069],[1.327355,41.752041],[1.32741,41.752011],[1.327468,41.751986],[1.327508,41.751972],[1.327534,41.751964],[1.327561,41.751958],[1.327664,41.752174],[1.327706,41.752215],[1.328086,41.752198],[1.328311,41.752075],[1.328328,41.752078],[1.328356,41.752075],[1.328382,41.752069],[1.328452,41.75205],[1.328521,41.75203],[1.328586,41.75201],[1.32865,41.751986],[1.328685,41.751971],[1.328721,41.75193],[1.328694,41.751888],[1.328611,41.751757],[1.32853,41.751627],[1.328516,41.751609],[1.328454,41.751632],[1.32838,41.751652],[1.328305,41.751672],[1.328212,41.751701],[1.328165,41.751716],[1.328083,41.751591],[1.328056,41.751553],[1.327869,41.751604],[1.327648,41.751664],[1.32754,41.751694],[1.32743,41.751724],[1.327363,41.751745],[1.327266,41.751782],[1.327174,41.751824],[1.327141,41.751841],[1.327112,41.751855],[1.327102,41.751861],[1.327064,41.75183],[1.327301,41.751661],[1.327175,41.751558],[1.326938,41.751722],[1.326862,41.751762],[1.326821,41.751798],[1.326664,41.751897]]]]}},{"type":"Feature","id":"259078_259078 AP10 SGA 3","properties":{"area_id":"259078_259078 AP10 SGA 3","nom":"el Llor","codi_icgc":"259078 AP10 SGA 3","categoria":"Àrees de poblament","codi_municipi":"259078","municipi":"Torrefeta i Florejacs","codi_comarca":"32","comarca":"Segarra","provincia":"Lleida","font":"ICGC Àrees de poblament v3r1 202602"},"geometry":{"type":"MultiPolygon","coordinates":[[[[1.308248,41.74574],[1.308366,41.745811],[1.308391,41.745796],[1.308506,41.745914],[1.308457,41.745921],[1.308421,41.745926],[1.308369,41.745931],[1.308316,41.74593],[1.308266,41.745926],[1.308216,41.745921],[1.308153,41.745916],[1.308091,41.74591],[1.308017,41.745898],[1.307942,41.745886],[1.30788,41.745879],[1.307818,41.745872],[1.307792,41.745868],[1.307775,41.745865],[1.307769,41.745854],[1.307764,41.745847],[1.307755,41.745841],[1.307751,41.745828],[1.307747,41.745814],[1.307742,41.745804],[1.307734,41.745796],[1.307721,41.745777],[1.307713,41.745756],[1.307705,41.745733],[1.307749,41.745715],[1.307699,41.74566],[1.30768,41.745641],[1.30764,41.745638],[1.307616,41.74563],[1.307606,41.745619],[1.307639,41.745589],[1.307601,41.74553],[1.307532,41.745438],[1.307495,41.745387],[1.307444,41.745356],[1.307405,41.745337],[1.307377,41.745333],[1.307355,41.745333],[1.307247,41.745392],[1.307336,41.745487],[1.307366,41.745517],[1.307419,41.745545],[1.307376,41.745565],[1.307531,41.745794],[1.307493,41.745814],[1.307487,41.745815],[1.307452,41.74582],[1.307417,41.745825],[1.307359,41.745825],[1.307337,41.745825],[1.307297,41.745861],[1.307282,41.745891],[1.307239,41.745996],[1.307265,41.746004],[1.307519,41.74608],[1.30759,41.745946],[1.307628,41.745873],[1.30771,41.745911],[1.307792,41.745948],[1.307834,41.745968],[1.307877,41.745987],[1.307921,41.746003],[1.307969,41.746014],[1.308034,41.746026],[1.308099,41.746038],[1.308122,41.746044],[1.308155,41.746057],[1.308186,41.746072],[1.30822,41.746092],[1.308233,41.746104],[1.308243,41.746118],[1.308249,41.746136],[1.308253,41.746151],[1.30826,41.746185],[1.308264,41.746224],[1.308269,41.746262],[1.308277,41.746305],[1.308289,41.746348],[1.308303,41.746381],[1.30832,41.746413],[1.308347,41.746455],[1.30838,41.746494],[1.30843,41.746537],[1.308486,41.746575],[1.308545,41.74661],[1.308607,41.746642],[1.308655,41.746661],[1.30868,41.746669],[1.308706,41.746673],[1.308766,41.746677],[1.308795,41.746679],[1.308824,41.74668],[1.308835,41.746689],[1.309042,41.746709],[1.309106,41.746736],[1.309125,41.746743],[1.309145,41.746752],[1.309164,41.746759],[1.309184,41.746764],[1.309223,41.746762],[1.309261,41.746759],[1.309336,41.746753],[1.309361,41.746752],[1.309373,41.746804],[1.309434,41.747013],[1.309481,41.747122],[1.309504,41.747111],[1.309773,41.746973],[1.309936,41.746894],[1.310021,41.74683],[1.310103,41.746744],[1.310111,41.746713],[1.310076,41.746647],[1.309986,41.746626],[1.310019,41.746581],[1.310008,41.746567],[1.309847,41.746488],[1.309744,41.746455],[1.309757,41.746322],[1.309855,41.74624],[1.309864,41.746238],[1.309877,41.746231],[1.309906,41.746199],[1.309926,41.746176],[1.30994,41.746152],[1.309953,41.746118],[1.309966,41.746084],[1.309982,41.746052],[1.309979,41.746006],[1.309965,41.745967],[1.309944,41.745929],[1.309915,41.745892],[1.309881,41.745858],[1.30983,41.745815],[1.309774,41.745775],[1.309682,41.745719],[1.309588,41.745663],[1.309511,41.745619],[1.30944,41.745579],[1.309435,41.745576],[1.309432,41.745575],[1.309426,41.74557],[1.309411,41.745561],[1.309386,41.745546],[1.309342,41.745518],[1.309252,41.745461],[1.309038,41.745673],[1.308903,41.745608],[1.308776,41.745738],[1.308798,41.74575],[1.308767,41.745751],[1.308739,41.745752],[1.308713,41.745749],[1.308688,41.745739],[1.308637,41.745711],[1.308564,41.745667],[1.308494,41.745621],[1.308454,41.745595],[1.308248,41.74574]]]]}},{"type":"Feature","id":"259078_259078 AP16 SGA 3","properties":{"area_id":"259078_259078 AP16 SGA 3","nom":"la Morana","codi_icgc":"259078 AP16 SGA 3","categoria":"Àrees de poblament","codi_municipi":"259078","municipi":"Torrefeta i Florejacs","codi_comarca":"32","comarca":"Segarra","provincia":"Lleida","font":"ICGC Àrees de poblament v3r1 202602"},"geometry":{"type":"MultiPolygon","coordinates":[[[[1.26411,41.782711],[1.26408,41.78253],[1.26417,41.782474],[1.264221,41.782438],[1.264258,41.782406],[1.264291,41.782371],[1.264324,41.782327],[1.264352,41.782283],[1.264369,41.782262],[1.264385,41.782241],[1.264389,41.782238],[1.264395,41.782237],[1.264408,41.782239],[1.264426,41.78224],[1.264435,41.782239],[1.264602,41.782263],[1.264638,41.78212],[1.264652,41.782095],[1.264658,41.782058],[1.264673,41.782027],[1.264685,41.781978],[1.264718,41.781982],[1.264799,41.781993],[1.264775,41.781874],[1.264697,41.781883],[1.264687,41.781831],[1.264702,41.7818],[1.264886,41.781829],[1.26495,41.781841],[1.265045,41.78188],[1.265128,41.78178],[1.265013,41.781699],[1.264836,41.781629],[1.264842,41.78162],[1.264841,41.781612],[1.264834,41.781607],[1.264813,41.78158],[1.264795,41.781557],[1.264816,41.781526],[1.264825,41.78151],[1.264841,41.781487],[1.264823,41.781483],[1.26474,41.781467],[1.264658,41.78145],[1.264544,41.781432],[1.264488,41.781422],[1.264433,41.781411],[1.264323,41.781383],[1.264295,41.781376],[1.264254,41.781605],[1.26425,41.781626],[1.264242,41.78167],[1.264226,41.781671],[1.264162,41.781668],[1.264127,41.781662],[1.264122,41.78166],[1.264076,41.78165],[1.263979,41.781626],[1.263932,41.781612],[1.263887,41.781597],[1.2638,41.781561],[1.263712,41.781525],[1.263594,41.781478],[1.263494,41.781441],[1.263474,41.781434],[1.263407,41.781411],[1.26334,41.781389],[1.263322,41.781383],[1.263304,41.781377],[1.263252,41.78136],[1.263164,41.781331],[1.263123,41.781316],[1.263066,41.781288],[1.263013,41.781254],[1.262936,41.781199],[1.262874,41.781154],[1.262838,41.781169],[1.262789,41.78119],[1.262674,41.781233],[1.262644,41.781255],[1.262513,41.781357],[1.262483,41.78138],[1.262454,41.781405],[1.262427,41.781428],[1.262467,41.781476],[1.262526,41.781549],[1.262583,41.781623],[1.262625,41.781673],[1.262666,41.781722],[1.262689,41.781754],[1.262712,41.781787],[1.262747,41.781836],[1.262783,41.781885],[1.262827,41.781941],[1.262875,41.781994],[1.262892,41.782012],[1.262908,41.782029],[1.262965,41.782086],[1.262986,41.782113],[1.263007,41.78214],[1.263012,41.78215],[1.263021,41.782186],[1.263025,41.782204],[1.262948,41.78224],[1.262876,41.782262],[1.262787,41.782287],[1.262716,41.782302],[1.262694,41.782306],[1.262645,41.782315],[1.262614,41.78232],[1.262565,41.782328],[1.262534,41.782332],[1.262533,41.782358],[1.262535,41.782377],[1.262515,41.782418],[1.262491,41.782497],[1.262488,41.782674],[1.2627,41.782666],[1.262763,41.782702],[1.262752,41.782721],[1.262616,41.782997],[1.262691,41.783013],[1.263126,41.783091],[1.26323,41.783062],[1.263326,41.783035],[1.26362,41.782951],[1.263667,41.782939],[1.263723,41.78291],[1.263852,41.78285],[1.263883,41.782836],[1.263925,41.782817],[1.264002,41.782787],[1.264056,41.782765],[1.264111,41.782745],[1.26411,41.782711]]]]}},{"type":"Feature","id":"259078_259078 AP03 SGA 3","properties":{"area_id":"259078_259078 AP03 SGA 3","nom":"les Cases de la Serra","codi_icgc":"259078 AP03 SGA 3","categoria":"Àrees de poblament","codi_municipi":"259078","municipi":"Torrefeta i Florejacs","codi_comarca":"32","comarca":"Segarra","provincia":"Lleida","font":"ICGC Àrees de poblament v3r1 202602"},"geometry":{"type":"MultiPolygon","coordinates":[[[[1.304405,41.900962],[1.304731,41.900956],[1.304762,41.900853],[1.304807,41.90079],[1.305188,41.900684],[1.305289,41.900647],[1.305377,41.90058],[1.305431,41.900509],[1.305526,41.900371],[1.305548,41.900264],[1.305587,41.900072],[1.305667,41.899755],[1.305733,41.899602],[1.305773,41.899535],[1.305827,41.899464],[1.305844,41.899358],[1.305943,41.899244],[1.305974,41.899163],[1.305924,41.899072],[1.305916,41.899015],[1.306,41.898891],[1.306073,41.89885],[1.30617,41.898797],[1.305977,41.898509],[1.305867,41.898514],[1.305738,41.898512],[1.305585,41.898499],[1.305466,41.898494],[1.305354,41.898539],[1.305328,41.898631],[1.305332,41.898674],[1.305249,41.89873],[1.305036,41.898802],[1.304839,41.898853],[1.304747,41.89888],[1.304604,41.898881],[1.304415,41.898954],[1.304255,41.899026],[1.304134,41.89911],[1.304006,41.899219],[1.303913,41.899329],[1.303834,41.899388],[1.303803,41.899439],[1.303894,41.899471],[1.30393,41.899586],[1.303943,41.89964],[1.303945,41.89974],[1.303925,41.899848],[1.303926,41.899897],[1.303819,41.899974],[1.303797,41.900063],[1.303828,41.900175],[1.303783,41.900235],[1.303814,41.900321],[1.303897,41.90044],[1.303967,41.900538],[1.304023,41.900574],[1.304118,41.900586],[1.304253,41.900563],[1.304379,41.900519],[1.304479,41.900538],[1.304535,41.900571],[1.304515,41.900617],[1.304431,41.900713],[1.304384,41.900844],[1.304405,41.900962]]]]}},{"type":"Feature","id":"259078_259078 AP02 SGA 2","properties":{"area_id":"259078_259078 AP02 SGA 2","nom":"les Sitges","codi_icgc":"259078 AP02 SGA 2","categoria":"Àrees de poblament","codi_municipi":"259078","municipi":"Torrefeta i Florejacs","codi_comarca":"32","comarca":"Segarra","provincia":"Lleida","font":"ICGC Àrees de poblament v3r1 202602"},"geometry":{"type":"MultiPolygon","coordinates":[[[[1.228224,41.816305],[1.22828,41.816284],[1.228288,41.816226],[1.228289,41.816202],[1.228285,41.816165],[1.228272,41.81613],[1.228263,41.816105],[1.228254,41.816081],[1.228255,41.816072],[1.22826,41.816065],[1.228269,41.816057],[1.228278,41.816049],[1.228289,41.816037],[1.228295,41.81602],[1.228298,41.815969],[1.2283,41.815919],[1.228301,41.815881],[1.228302,41.815843],[1.228304,41.815837],[1.228308,41.815832],[1.228325,41.815821],[1.228337,41.815816],[1.22839,41.815816],[1.228421,41.815819],[1.228417,41.815913],[1.228566,41.815932],[1.228695,41.815984],[1.228828,41.815819],[1.228793,41.815777],[1.228736,41.815782],[1.22868,41.815787],[1.22862,41.81579],[1.228529,41.815789],[1.228437,41.815787],[1.228383,41.815788],[1.228328,41.815795],[1.228308,41.815803],[1.228275,41.815646],[1.227924,41.815667],[1.227922,41.81571],[1.227677,41.815704],[1.227616,41.815715],[1.22751,41.815751],[1.227461,41.815805],[1.2274,41.81584],[1.227271,41.815897],[1.227202,41.815951],[1.227459,41.816189],[1.227482,41.816211],[1.22754,41.816186],[1.2276,41.816164],[1.227617,41.816158],[1.227622,41.816161],[1.22766,41.816188],[1.227697,41.816214],[1.22771,41.816225],[1.227725,41.816245],[1.227742,41.816264],[1.22776,41.816279],[1.22777,41.816284],[1.227782,41.816288],[1.227815,41.816292],[1.227819,41.816308],[1.22789,41.816299],[1.227903,41.816363],[1.228018,41.81635],[1.228115,41.816328],[1.228224,41.816305]]]]}}]}