{"type":"FeatureCollection","name":"ICGC Àrees de poblament - Josa i Tuixén","features":[{"type":"Feature","id":"259101_259101 AP02 AUR 3","properties":{"area_id":"259101_259101 AP02 AUR 3","nom":"Josa de Cadí","codi_icgc":"259101 AP02 AUR 3","categoria":"Àrees de poblament","codi_municipi":"259101","municipi":"Josa i Tuixén","codi_comarca":"04","comarca":"Alt Urgell","provincia":"Lleida","font":"ICGC Àrees de poblament v3r1 202602"},"geometry":{"type":"MultiPolygon","coordinates":[[[[1.618036,42.257182],[1.618045,42.257199],[1.618103,42.257299],[1.618152,42.25738],[1.61822,42.257355],[1.618312,42.257423],[1.618403,42.257488],[1.618495,42.257551],[1.618575,42.257578],[1.618602,42.257557],[1.618688,42.257503],[1.619071,42.257261],[1.618974,42.257157],[1.619014,42.257111],[1.619092,42.257061],[1.619305,42.25701],[1.619407,42.257134],[1.619475,42.257143],[1.619519,42.257135],[1.619608,42.257094],[1.619673,42.257056],[1.619701,42.257045],[1.619741,42.257075],[1.61979,42.257043],[1.619877,42.257089],[1.619942,42.257063],[1.620067,42.257019],[1.620125,42.257075],[1.620334,42.256985],[1.620388,42.256947],[1.620406,42.256915],[1.620414,42.256887],[1.620414,42.256855],[1.62046,42.256848],[1.620475,42.256845],[1.62051,42.256839],[1.620504,42.256808],[1.620492,42.256754],[1.620485,42.256724],[1.62052,42.256669],[1.620559,42.256613],[1.620537,42.256608],[1.620541,42.256603],[1.620318,42.256555],[1.620332,42.25653],[1.620347,42.256502],[1.620271,42.256486],[1.620135,42.256469],[1.619844,42.256415],[1.619647,42.256401],[1.619659,42.256358],[1.619646,42.256363],[1.619651,42.256353],[1.619655,42.256344],[1.619568,42.256337],[1.619566,42.256385],[1.619558,42.256384],[1.619555,42.2564],[1.619536,42.25641],[1.619475,42.256577],[1.619387,42.256562],[1.619375,42.256576],[1.619362,42.2566],[1.619198,42.25661],[1.619114,42.256606],[1.619038,42.256596],[1.618954,42.256577],[1.61883,42.256558],[1.618746,42.256536],[1.618663,42.256499],[1.618608,42.256451],[1.618539,42.256434],[1.618481,42.256438],[1.61838,42.256439],[1.618383,42.256373],[1.618338,42.256373],[1.618261,42.256371],[1.61825,42.256371],[1.618198,42.256371],[1.618146,42.256378],[1.618097,42.25639],[1.61805,42.256407],[1.618006,42.256437],[1.617939,42.256492],[1.617893,42.256537],[1.617836,42.256598],[1.617765,42.256649],[1.617737,42.256906],[1.617753,42.256922],[1.617794,42.256926],[1.617881,42.256939],[1.617878,42.256979],[1.617879,42.256991],[1.617881,42.257005],[1.61789,42.257025],[1.617903,42.257043],[1.617916,42.25706],[1.61793,42.257078],[1.617954,42.2571],[1.617979,42.25712],[1.617999,42.257135],[1.618016,42.25715],[1.618036,42.257182]]]]}},{"type":"Feature","id":"259101_259101 AP01 AUR 3","properties":{"area_id":"259101_259101 AP01 AUR 3","nom":"Tuixent","codi_icgc":"259101 AP01 AUR 3","categoria":"Àrees de poblament","codi_municipi":"259101","municipi":"Josa i Tuixén","codi_comarca":"04","comarca":"Alt Urgell","provincia":"Lleida","font":"ICGC Àrees de poblament v3r1 202602"},"geometry":{"type":"MultiPolygon","coordinates":[[[[1.567362,42.229134],[1.567374,42.229122],[1.567401,42.229078],[1.567375,42.229071],[1.567407,42.22905],[1.567442,42.229027],[1.567479,42.229004],[1.567484,42.228999],[1.567624,42.228858],[1.567656,42.228828],[1.567426,42.228761],[1.56734,42.228759],[1.567262,42.228809],[1.567182,42.228929],[1.567159,42.228944],[1.56701,42.229035],[1.566956,42.229069],[1.5669,42.229103],[1.566846,42.229136],[1.566756,42.229204],[1.566746,42.229211],[1.566655,42.22928],[1.5665,42.229493],[1.566495,42.229499],[1.56643,42.229581],[1.566369,42.229705],[1.566202,42.230002],[1.566046,42.230237],[1.566033,42.230272],[1.565944,42.230493],[1.565854,42.230678],[1.56558,42.230875],[1.565308,42.230964],[1.565125,42.23087],[1.565037,42.230825],[1.565023,42.230836],[1.564937,42.230901],[1.564831,42.230943],[1.564775,42.230965],[1.564684,42.231001],[1.564654,42.231043],[1.564575,42.23107],[1.564435,42.23112],[1.564342,42.231152],[1.564306,42.231161],[1.564284,42.231166],[1.564272,42.23136],[1.56427,42.23138],[1.564289,42.231382],[1.564376,42.231391],[1.564512,42.231405],[1.564519,42.231406],[1.564586,42.231521],[1.564605,42.231541],[1.564606,42.231543],[1.564692,42.231628],[1.564728,42.231617],[1.564751,42.231611],[1.564881,42.231573],[1.564941,42.231684],[1.565013,42.23171],[1.565101,42.231703],[1.565162,42.231677],[1.565172,42.231673],[1.565131,42.231635],[1.565227,42.231609],[1.565255,42.231645],[1.565264,42.23167],[1.565321,42.231678],[1.565374,42.231683],[1.565417,42.231687],[1.565475,42.231698],[1.565509,42.231715],[1.565515,42.231714],[1.565548,42.231737],[1.565573,42.231742],[1.565582,42.231744],[1.565588,42.23175],[1.565606,42.23177],[1.565625,42.231789],[1.565662,42.231825],[1.5657,42.231861],[1.565727,42.231883],[1.565776,42.23191],[1.565828,42.231933],[1.565885,42.231952],[1.565972,42.231975],[1.566059,42.231999],[1.566068,42.232005],[1.566074,42.232009],[1.566112,42.232011],[1.566203,42.23206],[1.566279,42.232059],[1.566352,42.232065],[1.56639,42.232066],[1.566421,42.232066],[1.566471,42.232067],[1.566534,42.232075],[1.566635,42.2321],[1.566614,42.232142],[1.566765,42.232181],[1.566789,42.232135],[1.566826,42.232146],[1.56685,42.232095],[1.566864,42.232104],[1.566887,42.232118],[1.56692,42.232136],[1.566955,42.232152],[1.566989,42.232162],[1.567023,42.232168],[1.567086,42.232176],[1.567147,42.232184],[1.567213,42.232195],[1.567278,42.232208],[1.567322,42.23222],[1.567345,42.23223],[1.567362,42.232236],[1.567462,42.232277],[1.567503,42.232307],[1.567666,42.232387],[1.567824,42.232491],[1.567862,42.232511],[1.567866,42.232522],[1.567877,42.232541],[1.567909,42.232587],[1.56796,42.232666],[1.56801,42.232745],[1.568043,42.232803],[1.568073,42.232862],[1.568102,42.232922],[1.56813,42.232966],[1.568148,42.233022],[1.568178,42.233085],[1.568207,42.233148],[1.568234,42.233223],[1.568237,42.233235],[1.568703,42.233182],[1.568732,42.233123],[1.568734,42.233037],[1.568765,42.232952],[1.568833,42.232896],[1.568848,42.232894],[1.568889,42.23287],[1.568922,42.232835],[1.569019,42.232878],[1.569032,42.232883],[1.569099,42.232913],[1.569102,42.23291],[1.569242,42.232751],[1.56906,42.232662],[1.569092,42.232634],[1.569152,42.232585],[1.569211,42.232541],[1.569274,42.2325],[1.569307,42.23248],[1.56934,42.232462],[1.569374,42.232463],[1.569402,42.232474],[1.569462,42.232505],[1.569509,42.232454],[1.569529,42.232464],[1.569547,42.232445],[1.569568,42.232424],[1.569586,42.232408],[1.5696,42.232392],[1.569608,42.232374],[1.569613,42.232352],[1.569619,42.232321],[1.569627,42.232274],[1.569613,42.232266],[1.569628,42.232268],[1.569639,42.232255],[1.569653,42.232244],[1.56966,42.232236],[1.569663,42.232227],[1.569663,42.232207],[1.569655,42.232191],[1.569639,42.232176],[1.569624,42.232172],[1.569609,42.232175],[1.569594,42.232184],[1.569579,42.232195],[1.569567,42.2322],[1.569552,42.232204],[1.569537,42.232208],[1.569518,42.232211],[1.569507,42.232213],[1.5695,42.232215],[1.569491,42.232221],[1.569477,42.23224],[1.569467,42.232261],[1.569451,42.232302],[1.569438,42.232331],[1.569424,42.232359],[1.569413,42.232376],[1.569401,42.232394],[1.569389,42.232412],[1.569357,42.232429],[1.569324,42.232446],[1.56929,42.232464],[1.569256,42.232484],[1.569133,42.23254],[1.569149,42.232506],[1.569194,42.232464],[1.569201,42.232445],[1.569179,42.232454],[1.569177,42.232434],[1.569174,42.232412],[1.569132,42.232404],[1.569022,42.232382],[1.568609,42.2323],[1.568571,42.232254],[1.56842,42.232179],[1.568261,42.232089],[1.568236,42.232053],[1.568219,42.232003],[1.568255,42.231869],[1.568262,42.231821],[1.568224,42.231799],[1.568173,42.231764],[1.568049,42.231723],[1.567972,42.231695],[1.567932,42.231654],[1.567923,42.231614],[1.567963,42.231552],[1.568323,42.23117],[1.568381,42.231104],[1.568449,42.231127],[1.568457,42.23113],[1.568498,42.231146],[1.568559,42.231073],[1.568585,42.231039],[1.568621,42.230994],[1.568642,42.230951],[1.568673,42.23089],[1.568689,42.230884],[1.568725,42.230869],[1.568761,42.230858],[1.568771,42.230857],[1.568768,42.230867],[1.568923,42.2309],[1.568942,42.230914],[1.568967,42.230925],[1.568994,42.230934],[1.569002,42.230935],[1.569016,42.230925],[1.569028,42.230914],[1.56904,42.230888],[1.569092,42.23091],[1.569124,42.230872],[1.569163,42.230861],[1.569211,42.230855],[1.569231,42.230705],[1.569114,42.230696],[1.56913,42.230621],[1.569141,42.230579],[1.569324,42.230409],[1.56925,42.230363],[1.569146,42.230324],[1.569094,42.230304],[1.569022,42.230311],[1.568595,42.23077],[1.56825,42.231186],[1.568109,42.231333],[1.56801,42.231434],[1.568,42.231433],[1.567961,42.231426],[1.567704,42.231382],[1.567694,42.23138],[1.567679,42.231362],[1.567637,42.231358],[1.56761,42.231325],[1.567598,42.231243],[1.567585,42.23116],[1.567568,42.231048],[1.567551,42.230935],[1.567545,42.230906],[1.567529,42.230865],[1.56751,42.230824],[1.567487,42.230786],[1.567447,42.230736],[1.567411,42.230684],[1.567393,42.23065],[1.567377,42.230598],[1.567369,42.230546],[1.567371,42.230511],[1.567383,42.230459],[1.567405,42.230407],[1.56742,42.230385],[1.567452,42.230351],[1.56747,42.230332],[1.567479,42.230319],[1.567485,42.230311],[1.567489,42.230302],[1.567504,42.23027],[1.567513,42.23023],[1.567512,42.230198],[1.567506,42.230153],[1.567491,42.230107],[1.567465,42.230055],[1.567455,42.230034],[1.567417,42.229964],[1.567376,42.229892],[1.567334,42.229821],[1.567299,42.229752],[1.56727,42.229665],[1.567271,42.22964],[1.567278,42.229615],[1.567289,42.229596],[1.567301,42.229576],[1.567315,42.229559],[1.567321,42.229541],[1.567315,42.229522],[1.567315,42.229516],[1.567316,42.229512],[1.567345,42.22946],[1.567391,42.229381],[1.567437,42.229302],[1.567462,42.229222],[1.56745,42.229155],[1.567362,42.229134]]]]}}]}