{"type":"FeatureCollection","name":"ICGC Àrees de poblament - Alcover","features":[{"type":"Feature","id":"430056_430056 AP01 ACA 3","properties":{"area_id":"430056_430056 AP01 ACA 3","nom":"Alcover","codi_icgc":"430056 AP01 ACA 3","categoria":"Àrees de poblament","codi_municipi":"430056","municipi":"Alcover","codi_comarca":"01","comarca":"Alt Camp","provincia":"Tarragona","font":"ICGC Àrees de poblament v3r1 202602"},"geometry":{"type":"MultiPolygon","coordinates":[[[[1.164475,41.266138],[1.164593,41.266007],[1.164679,41.26605],[1.16471,41.266062],[1.164743,41.266069],[1.164758,41.266071],[1.164773,41.266072],[1.164785,41.266072],[1.164796,41.266072],[1.164819,41.266067],[1.164841,41.26606],[1.164905,41.266038],[1.164937,41.266025],[1.164967,41.266013],[1.165079,41.265964],[1.165192,41.265916],[1.165424,41.265822],[1.165657,41.265729],[1.165736,41.265698],[1.165814,41.265667],[1.16584,41.265657],[1.165866,41.265646],[1.165886,41.265636],[1.165904,41.265623],[1.165936,41.265593],[1.165965,41.26556],[1.165985,41.265537],[1.166002,41.265513],[1.166011,41.265498],[1.166018,41.265482],[1.166027,41.265464],[1.166036,41.265444],[1.166066,41.26543],[1.166211,41.265375],[1.166367,41.265315],[1.16618,41.265002],[1.1665,41.26487],[1.166615,41.265213],[1.166629,41.265207],[1.166824,41.265127],[1.166859,41.265113],[1.166951,41.265079],[1.16696,41.265053],[1.166964,41.265014],[1.166966,41.264973],[1.166945,41.264904],[1.166933,41.264858],[1.166927,41.264837],[1.167167,41.264797],[1.167187,41.264713],[1.167223,41.26454],[1.167508,41.2646],[1.167544,41.264496],[1.167711,41.264532],[1.16771,41.264522],[1.167681,41.264309],[1.167661,41.264284],[1.167537,41.26425],[1.167644,41.264163],[1.167449,41.264064],[1.167824,41.263779],[1.168001,41.263893],[1.16821,41.263711],[1.168447,41.263881],[1.168519,41.263829],[1.16867,41.263718],[1.168749,41.263664],[1.168898,41.263556],[1.168919,41.263555],[1.168963,41.263588],[1.168999,41.263597],[1.169224,41.263621],[1.169338,41.263737],[1.169449,41.263888],[1.169608,41.263763],[1.169678,41.263826],[1.169838,41.263884],[1.170086,41.263966],[1.170326,41.26405],[1.170469,41.264082],[1.17052,41.264084],[1.170637,41.264168],[1.17035,41.264272],[1.170218,41.264333],[1.170194,41.264371],[1.170152,41.264428],[1.169802,41.264276],[1.169425,41.264626],[1.169466,41.264651],[1.169622,41.264736],[1.169702,41.26477],[1.169735,41.264783],[1.169758,41.264762],[1.169919,41.26462],[1.169925,41.264623],[1.169943,41.264634],[1.169955,41.26464],[1.170001,41.264662],[1.170016,41.264721],[1.17001,41.264776],[1.170071,41.264771],[1.170121,41.264775],[1.170334,41.264784],[1.170463,41.26479],[1.170845,41.264808],[1.170975,41.264749],[1.170897,41.264694],[1.170911,41.264657],[1.171085,41.264651],[1.171227,41.264659],[1.171357,41.264674],[1.171361,41.264622],[1.171322,41.264498],[1.171322,41.264462],[1.171379,41.264457],[1.171435,41.264452],[1.17147,41.264445],[1.171503,41.264434],[1.171571,41.264408],[1.171705,41.264373],[1.171839,41.26434],[1.171852,41.264336],[1.171866,41.264336],[1.172007,41.2647],[1.171953,41.264711],[1.172023,41.26494],[1.172084,41.264928],[1.17209,41.265028],[1.172067,41.265123],[1.172021,41.265253],[1.171994,41.26532],[1.171917,41.265358],[1.17183,41.265395],[1.172033,41.265629],[1.172186,41.265574],[1.172263,41.265537],[1.17234,41.265487],[1.172377,41.265446],[1.172412,41.265374],[1.172325,41.265212],[1.172313,41.26518],[1.172303,41.265148],[1.172388,41.265133],[1.172511,41.265097],[1.172598,41.26507],[1.172773,41.265017],[1.172698,41.264863],[1.173024,41.264762],[1.173018,41.264752],[1.17297,41.264664],[1.172698,41.264322],[1.172476,41.264404],[1.172307,41.264107],[1.172545,41.263934],[1.172606,41.263894],[1.172716,41.263842],[1.172886,41.263765],[1.17309,41.263678],[1.173172,41.263649],[1.173331,41.263596],[1.173548,41.263538],[1.173449,41.263354],[1.173332,41.263163],[1.173511,41.263101],[1.173372,41.262905],[1.174094,41.262666],[1.174105,41.262754],[1.174231,41.262744],[1.174428,41.262722],[1.174468,41.262719],[1.174647,41.262702],[1.174671,41.262843],[1.174683,41.262899],[1.174733,41.26306],[1.174856,41.263019],[1.174986,41.262975],[1.175139,41.262921],[1.175191,41.262906],[1.175259,41.262887],[1.17534,41.262852],[1.175492,41.2628],[1.175523,41.262788],[1.175539,41.26278],[1.175664,41.262728],[1.175737,41.262693],[1.175797,41.26266],[1.175853,41.262632],[1.175956,41.262583],[1.175974,41.262572],[1.17607,41.26253],[1.176218,41.262461],[1.176247,41.262448],[1.176276,41.262436],[1.17631,41.262421],[1.176105,41.26214],[1.176195,41.2621],[1.175911,41.261747],[1.175622,41.261512],[1.175559,41.261462],[1.175446,41.261374],[1.175779,41.261251],[1.175803,41.261229],[1.175418,41.261031],[1.17534,41.261049],[1.175201,41.261077],[1.175013,41.26111],[1.174974,41.261117],[1.174897,41.261131],[1.174819,41.261142],[1.174739,41.261147],[1.174658,41.261148],[1.17464,41.261148],[1.17452,41.261128],[1.174399,41.261113],[1.174369,41.26111],[1.174341,41.261106],[1.174225,41.261081],[1.174124,41.260665],[1.1741,41.260572],[1.174084,41.260575],[1.173992,41.260587],[1.173969,41.26059],[1.173659,41.259321],[1.173655,41.259274],[1.173537,41.258775],[1.173529,41.258746],[1.173454,41.258454],[1.173443,41.258406],[1.17341,41.258266],[1.173315,41.258265],[1.173391,41.258177],[1.173153,41.257148],[1.17306,41.257236],[1.172979,41.257306],[1.172831,41.257413],[1.172715,41.257487],[1.172245,41.257885],[1.172217,41.257924],[1.172074,41.258065],[1.172054,41.258098],[1.172029,41.258148],[1.172078,41.25817],[1.17207,41.258177],[1.172007,41.258184],[1.171984,41.258192],[1.17198,41.258196],[1.171969,41.258207],[1.17195,41.258233],[1.171859,41.258322],[1.171767,41.258412],[1.171702,41.258472],[1.171635,41.258533],[1.171628,41.258545],[1.171626,41.258559],[1.171631,41.258579],[1.171648,41.258622],[1.171665,41.258663],[1.171673,41.258691],[1.171679,41.258716],[1.171681,41.258738],[1.171682,41.258744],[1.171683,41.258751],[1.171686,41.258758],[1.171687,41.258762],[1.171691,41.258767],[1.171695,41.25877],[1.171702,41.258773],[1.171734,41.258777],[1.171805,41.258949],[1.17185,41.259059],[1.171897,41.259163],[1.171888,41.259258],[1.172071,41.259596],[1.171826,41.259709],[1.171748,41.259752],[1.171738,41.259757],[1.171494,41.259883],[1.17151,41.259919],[1.171231,41.259951],[1.17116,41.259951],[1.170608,41.259772],[1.170507,41.259739],[1.170421,41.259856],[1.170416,41.259872],[1.170411,41.259886],[1.170346,41.259997],[1.170018,41.260667],[1.169997,41.260711],[1.169984,41.260688],[1.169816,41.260631],[1.169642,41.260577],[1.169494,41.260754],[1.169439,41.260681],[1.169259,41.26076],[1.169095,41.260558],[1.168937,41.260353],[1.16885,41.260389],[1.168812,41.260404],[1.168586,41.260037],[1.168557,41.259813],[1.168652,41.259738],[1.168875,41.259756],[1.169105,41.259743],[1.169326,41.259702],[1.169328,41.259678],[1.169382,41.259371],[1.169279,41.259371],[1.169237,41.259371],[1.169031,41.259366],[1.169029,41.259392],[1.16881,41.259367],[1.168812,41.259359],[1.168738,41.259358],[1.168565,41.259356],[1.16855,41.25937],[1.168479,41.25935],[1.168413,41.259033],[1.168517,41.259031],[1.168597,41.259041],[1.168659,41.259049],[1.168793,41.259066],[1.168941,41.259091],[1.169082,41.259063],[1.169259,41.259015],[1.169461,41.258948],[1.169674,41.258875],[1.169719,41.258856],[1.169514,41.258504],[1.169085,41.258252],[1.16904,41.258226],[1.168994,41.2582],[1.168939,41.258172],[1.168882,41.258145],[1.168734,41.258063],[1.168859,41.25795],[1.168878,41.257838],[1.16897,41.257863],[1.168996,41.257811],[1.168937,41.257794],[1.168987,41.257694],[1.169039,41.257459],[1.169091,41.257315],[1.169096,41.257301],[1.169272,41.257355],[1.169455,41.257122],[1.169496,41.257077],[1.169239,41.256947],[1.169254,41.256922],[1.169267,41.256921],[1.169282,41.256915],[1.169291,41.256905],[1.169294,41.256892],[1.169289,41.25688],[1.169284,41.256875],[1.169371,41.25674],[1.16929,41.256708],[1.169308,41.256683],[1.169145,41.25662],[1.16899,41.256586],[1.168922,41.256583],[1.168835,41.256731],[1.168709,41.256944],[1.168604,41.257116],[1.1685,41.257288],[1.168401,41.257452],[1.168304,41.257617],[1.168269,41.257679],[1.168238,41.257743],[1.168183,41.257872],[1.168164,41.257932],[1.168151,41.257993],[1.168132,41.258046],[1.168116,41.258086],[1.168081,41.25815],[1.168073,41.258162],[1.168063,41.258173],[1.168035,41.258196],[1.167996,41.258222],[1.167955,41.258244],[1.167908,41.258261],[1.167859,41.258272],[1.167827,41.258276],[1.167773,41.258277],[1.167719,41.25827],[1.167686,41.258261],[1.16757,41.258216],[1.167458,41.258165],[1.167297,41.258083],[1.167218,41.258043],[1.167178,41.258075],[1.167049,41.258351],[1.167198,41.258496],[1.167471,41.258757],[1.167512,41.258795],[1.167468,41.258825],[1.167338,41.258797],[1.167184,41.258767],[1.167026,41.258822],[1.166701,41.258985],[1.16657,41.259071],[1.166418,41.259121],[1.166268,41.259201],[1.166241,41.25923],[1.166215,41.259255],[1.166178,41.259294],[1.166139,41.259331],[1.166094,41.259368],[1.166047,41.259405],[1.165992,41.259441],[1.165937,41.259478],[1.165927,41.259486],[1.16592,41.259496],[1.166071,41.259545],[1.166173,41.25957],[1.166371,41.259617],[1.166444,41.259632],[1.16651,41.259631],[1.166581,41.259628],[1.166739,41.259587],[1.16704,41.25948],[1.167237,41.259393],[1.167486,41.259284],[1.16762,41.259241],[1.167754,41.259327],[1.167857,41.25939],[1.167937,41.259452],[1.168002,41.259502],[1.168063,41.259555],[1.168087,41.259577],[1.168096,41.25959],[1.168102,41.259603],[1.168105,41.259616],[1.168106,41.259631],[1.168089,41.259646],[1.167631,41.259892],[1.167319,41.260041],[1.167093,41.259984],[1.166903,41.260098],[1.166742,41.260173],[1.166054,41.260396],[1.165528,41.260584],[1.165272,41.260734],[1.165106,41.260871],[1.165085,41.260854],[1.165058,41.260841],[1.164771,41.260695],[1.164613,41.260668],[1.164443,41.260675],[1.163984,41.260694],[1.163983,41.260861],[1.164542,41.260851],[1.164608,41.260876],[1.164609,41.260945],[1.164622,41.261055],[1.164689,41.261475],[1.164706,41.261562],[1.164721,41.261651],[1.164727,41.26169],[1.164731,41.261727],[1.164758,41.261734],[1.164798,41.261745],[1.164855,41.261765],[1.164882,41.261779],[1.164906,41.261796],[1.164919,41.26181],[1.164928,41.261826],[1.164938,41.261845],[1.164947,41.261865],[1.164933,41.261878],[1.164961,41.262116],[1.164973,41.262245],[1.164973,41.262251],[1.165083,41.262586],[1.165185,41.262849],[1.165284,41.263031],[1.165673,41.262905],[1.165702,41.262956],[1.165743,41.263018],[1.165524,41.263254],[1.165708,41.263448],[1.165656,41.263467],[1.165569,41.263505],[1.165485,41.263547],[1.165405,41.263594],[1.165387,41.263612],[1.165373,41.26362],[1.165364,41.263624],[1.165355,41.263629],[1.165251,41.263685],[1.165151,41.263732],[1.165048,41.263774],[1.164977,41.263796],[1.164931,41.263805],[1.164935,41.263859],[1.164976,41.263924],[1.165024,41.264001],[1.165036,41.264042],[1.165019,41.264075],[1.164952,41.264109],[1.164897,41.264151],[1.164821,41.264377],[1.164656,41.264857],[1.164633,41.264869],[1.164482,41.264953],[1.164349,41.265017],[1.164202,41.265081],[1.164082,41.265131],[1.164072,41.265135],[1.16379,41.264992],[1.163489,41.264806],[1.16349,41.26477],[1.16351,41.264723],[1.163755,41.264441],[1.164049,41.264041],[1.16402,41.263981],[1.16402,41.263958],[1.164012,41.263936],[1.163997,41.263917],[1.163994,41.263915],[1.163935,41.263866],[1.163871,41.263821],[1.163803,41.26378],[1.16373,41.263743],[1.163688,41.263725],[1.163542,41.263694],[1.163435,41.263684],[1.163344,41.263687],[1.16329,41.263692],[1.163215,41.263903],[1.163087,41.264083],[1.16305,41.264144],[1.162978,41.264251],[1.162881,41.26433],[1.162595,41.264474],[1.162314,41.264543],[1.162274,41.264566],[1.162289,41.264667],[1.16221,41.264738],[1.162189,41.264768],[1.16213,41.264825],[1.162033,41.264928],[1.161919,41.265012],[1.161843,41.265068],[1.161709,41.265131],[1.161744,41.265374],[1.1618,41.265541],[1.161934,41.2656],[1.161983,41.265665],[1.162293,41.265793],[1.162321,41.265765],[1.162463,41.265828],[1.162486,41.265844],[1.162417,41.265954],[1.162602,41.266027],[1.162798,41.266086],[1.162848,41.266079],[1.162954,41.266014],[1.163155,41.265866],[1.163188,41.265857],[1.163241,41.265851],[1.163298,41.265825],[1.163401,41.26577],[1.163443,41.26575],[1.163471,41.26574],[1.163499,41.26573],[1.16351,41.265721],[1.163556,41.265738],[1.163733,41.26581],[1.163782,41.265836],[1.163816,41.265879],[1.163872,41.265954],[1.164001,41.265767],[1.164249,41.265857],[1.164269,41.265888],[1.164169,41.266009],[1.16425,41.266044],[1.164475,41.266138]]],[[[1.174728,41.268418],[1.174726,41.268075],[1.174713,41.267825],[1.174808,41.267274],[1.174921,41.266898],[1.175034,41.266676],[1.175075,41.266605],[1.175069,41.266406],[1.175008,41.266318],[1.174952,41.266338],[1.174858,41.266161],[1.174125,41.266415],[1.173914,41.266489],[1.173932,41.266522],[1.173955,41.26657],[1.173553,41.266692],[1.173593,41.266785],[1.17345,41.266845],[1.173726,41.267314],[1.174059,41.267829],[1.174119,41.267949],[1.174184,41.268049],[1.174363,41.268135],[1.17443,41.268118],[1.174464,41.268172],[1.174533,41.268277],[1.174673,41.268473],[1.174687,41.268491],[1.174719,41.268486],[1.174739,41.268468],[1.174728,41.268418]]]]}},{"type":"Feature","id":"430056_430056 AP05 ACA 3","properties":{"area_id":"430056_430056 AP05 ACA 3","nom":"Camí dels Muntanyans","codi_icgc":"430056 AP05 ACA 3","categoria":"Àrees de poblament","codi_municipi":"430056","municipi":"Alcover","codi_comarca":"01","comarca":"Alt Camp","provincia":"Tarragona","font":"ICGC Àrees de poblament v3r1 202602"},"geometry":{"type":"MultiPolygon","coordinates":[[[[1.189574,41.279071],[1.189403,41.27905],[1.189316,41.279067],[1.188616,41.2792],[1.188393,41.279242],[1.188354,41.279249],[1.188265,41.279269],[1.188229,41.279276],[1.188174,41.279285],[1.187945,41.279295],[1.187617,41.279323],[1.187572,41.279328],[1.187589,41.279396],[1.187607,41.279394],[1.187734,41.279732],[1.187846,41.279717],[1.187826,41.279733],[1.187805,41.27975],[1.187795,41.279763],[1.187788,41.279777],[1.187784,41.279793],[1.187787,41.279808],[1.1878,41.279843],[1.187814,41.279876],[1.187557,41.279892],[1.187445,41.279899],[1.18745,41.280375],[1.187451,41.280527],[1.187452,41.28067],[1.187454,41.280846],[1.187454,41.280859],[1.187454,41.280908],[1.18745,41.281014],[1.187445,41.28119],[1.18744,41.281358],[1.18744,41.281376],[1.187439,41.281591],[1.187443,41.281613],[1.187442,41.281694],[1.187441,41.281823],[1.187431,41.281856],[1.187539,41.281918],[1.187557,41.281928],[1.1877,41.282008],[1.18786,41.282098],[1.187927,41.282131],[1.187997,41.282161],[1.188013,41.282131],[1.188023,41.281748],[1.188085,41.28175],[1.188088,41.281654],[1.188029,41.281653],[1.188035,41.281584],[1.188676,41.281618],[1.188699,41.281306],[1.188045,41.28129],[1.188051,41.281043],[1.188042,41.281037],[1.188039,41.280998],[1.188041,41.280972],[1.188051,41.280805],[1.188052,41.280788],[1.188412,41.280803],[1.188434,41.280607],[1.188059,41.280586],[1.188061,41.280562],[1.18806,41.280523],[1.188054,41.280491],[1.188053,41.280484],[1.188033,41.280415],[1.188013,41.280347],[1.187986,41.280238],[1.187973,41.280186],[1.187971,41.280174],[1.18797,41.280167],[1.187971,41.280157],[1.187977,41.28014],[1.187902,41.279908],[1.187909,41.279854],[1.187921,41.279825],[1.187972,41.279775],[1.188018,41.27974],[1.188108,41.279724],[1.18862,41.279643],[1.188757,41.28],[1.189315,41.279895],[1.189498,41.27986],[1.189499,41.279863],[1.189687,41.279821],[1.18985,41.279792],[1.189899,41.279785],[1.189932,41.279781],[1.189949,41.279831],[1.18998,41.279868],[1.19002,41.279883],[1.190042,41.279889],[1.190064,41.27989],[1.190126,41.279883],[1.190188,41.279874],[1.190373,41.279843],[1.190648,41.279792],[1.190923,41.279742],[1.191002,41.279736],[1.191039,41.279731],[1.191056,41.279732],[1.191094,41.279665],[1.190641,41.279228],[1.19043,41.279261],[1.190127,41.279316],[1.189962,41.27898],[1.189574,41.279071]]]]}},{"type":"Feature","id":"430056_430056 SI03 ACA 2","properties":{"area_id":"430056_430056 SI03 ACA 2","nom":"Cator, SA","codi_icgc":"430056 SI03 ACA 2","categoria":"Sector industrial","codi_municipi":"430056","municipi":"Alcover","codi_comarca":"01","comarca":"Alt Camp","provincia":"Tarragona","font":"ICGC Àrees de poblament v3r1 202602"},"geometry":{"type":"MultiPolygon","coordinates":[[[[1.169572,41.246339],[1.169985,41.247189],[1.170069,41.247554],[1.170146,41.248438],[1.170207,41.248984],[1.170186,41.250092],[1.170153,41.250149],[1.170108,41.250175],[1.170054,41.250205],[1.169915,41.250245],[1.169544,41.250541],[1.169563,41.25069],[1.169498,41.250821],[1.169534,41.251154],[1.169618,41.251166],[1.169638,41.251253],[1.169772,41.251604],[1.169819,41.25169],[1.170134,41.251667],[1.170344,41.251503],[1.170393,41.251402],[1.17045,41.251033],[1.170473,41.250861],[1.170517,41.250819],[1.170594,41.250792],[1.170845,41.250792],[1.171341,41.25083],[1.171413,41.250748],[1.171911,41.250848],[1.172345,41.250528],[1.172327,41.250373],[1.1722,41.249747],[1.172097,41.249378],[1.171793,41.248577],[1.171448,41.247878],[1.170897,41.246936],[1.170296,41.24617],[1.170152,41.246011],[1.169572,41.246339]]]]}},{"type":"Feature","id":"430056_430056 AP13 ACA 2","properties":{"area_id":"430056_430056 AP13 ACA 2","nom":"Gràcia","codi_icgc":"430056 AP13 ACA 2","categoria":"Àrees de poblament","codi_municipi":"430056","municipi":"Alcover","codi_comarca":"01","comarca":"Alt Camp","provincia":"Tarragona","font":"ICGC Àrees de poblament v3r1 202602"},"geometry":{"type":"MultiPolygon","coordinates":[[[[1.141569,41.297876],[1.141657,41.297959],[1.141659,41.297959],[1.141747,41.297917],[1.141813,41.297913],[1.141899,41.297977],[1.141976,41.298025],[1.142058,41.297986],[1.142074,41.297979],[1.142083,41.297974],[1.142087,41.29797],[1.142213,41.297822],[1.142178,41.297807],[1.14213,41.297786],[1.142191,41.297732],[1.142215,41.297711],[1.14219,41.297701],[1.142189,41.297693],[1.141955,41.297594],[1.141959,41.297566],[1.141934,41.297555],[1.141928,41.297542],[1.141917,41.297522],[1.14187,41.297468],[1.141858,41.297424],[1.141872,41.297401],[1.141856,41.297349],[1.141856,41.297341],[1.141707,41.29727],[1.141623,41.297376],[1.141649,41.297391],[1.141725,41.297436],[1.141801,41.297482],[1.141842,41.297583],[1.141751,41.297677],[1.141746,41.297679],[1.141723,41.297689],[1.14172,41.2977],[1.141692,41.297734],[1.141629,41.297764],[1.141571,41.297786],[1.141561,41.297796],[1.141558,41.297839],[1.141569,41.297876]]]]}},{"type":"Feature","id":"430056_430056 AP09 ACA 1","properties":{"area_id":"430056_430056 AP09 ACA 1","nom":"Mas Llorenç","codi_icgc":"430056 AP09 ACA 1","categoria":"Àrees de poblament","codi_municipi":"430056","municipi":"Alcover","codi_comarca":"01","comarca":"Alt Camp","provincia":"Tarragona","font":"ICGC Àrees de poblament v3r1 202602"},"geometry":{"type":"MultiPolygon","coordinates":[[[[1.157446,41.253094],[1.157521,41.253026],[1.157592,41.252953],[1.157695,41.252871],[1.157894,41.252748],[1.158081,41.25261],[1.158233,41.252501],[1.158314,41.252431],[1.158372,41.252385],[1.15841,41.252362],[1.158601,41.252256],[1.158792,41.252152],[1.158983,41.25205],[1.159173,41.25195],[1.159262,41.251906],[1.159399,41.251843],[1.159536,41.251779],[1.15958,41.251755],[1.159623,41.251729],[1.159664,41.251698],[1.159682,41.251681],[1.159697,41.251661],[1.159709,41.251634],[1.159718,41.251618],[1.159732,41.251619],[1.159801,41.251667],[1.159959,41.251498],[1.159973,41.251437],[1.159907,41.251192],[1.159904,41.251177],[1.159883,41.251067],[1.159839,41.250893],[1.159766,41.250789],[1.159715,41.250698],[1.159433,41.2503],[1.159323,41.25011],[1.159302,41.250061],[1.15929,41.250036],[1.159246,41.249942],[1.159242,41.249943],[1.159218,41.249944],[1.159183,41.249945],[1.159148,41.249944],[1.159062,41.249937],[1.158976,41.249929],[1.158955,41.249928],[1.158803,41.249913],[1.158555,41.249884],[1.15855,41.249883],[1.158296,41.249852],[1.158193,41.249843],[1.158089,41.249842],[1.15802,41.249846],[1.157991,41.249851],[1.157964,41.249861],[1.157948,41.24987],[1.157931,41.249885],[1.157897,41.249928],[1.157862,41.249971],[1.157846,41.249981],[1.157832,41.24999],[1.157772,41.250036],[1.157701,41.250089],[1.157667,41.25012],[1.157591,41.250187],[1.157528,41.250227],[1.157498,41.250244],[1.15742,41.250289],[1.157315,41.250321],[1.157103,41.250352],[1.157022,41.250354],[1.156959,41.250355],[1.156854,41.250365],[1.1568,41.250384],[1.156795,41.250421],[1.156788,41.250455],[1.156818,41.25048],[1.156893,41.250558],[1.156964,41.250639],[1.156979,41.250659],[1.156984,41.250668],[1.156977,41.250689],[1.15697,41.250711],[1.156958,41.250736],[1.156945,41.250761],[1.15693,41.250777],[1.156894,41.250817],[1.156862,41.250857],[1.156831,41.250896],[1.15677,41.250975],[1.156709,41.251055],[1.156679,41.251097],[1.15665,41.251141],[1.156642,41.251157],[1.156639,41.251174],[1.156642,41.251207],[1.156656,41.251262],[1.156669,41.251316],[1.156698,41.251425],[1.156726,41.251533],[1.156736,41.251593],[1.15674,41.251652],[1.15674,41.251669],[1.156741,41.251773],[1.156742,41.251872],[1.15674,41.251972],[1.156739,41.252002],[1.156737,41.252029],[1.156735,41.252063],[1.156734,41.252088],[1.156738,41.252139],[1.156749,41.252189],[1.156758,41.252221],[1.15677,41.252253],[1.156786,41.252283],[1.156807,41.252312],[1.156824,41.25233],[1.156866,41.252367],[1.156907,41.252403],[1.156929,41.252429],[1.156947,41.252456],[1.156954,41.252477],[1.156953,41.252498],[1.156948,41.252511],[1.156927,41.252542],[1.156901,41.252572],[1.156881,41.25259],[1.156798,41.252657],[1.156713,41.252721],[1.156659,41.252767],[1.156606,41.252818],[1.156548,41.252889],[1.156542,41.252898],[1.156525,41.252943],[1.156522,41.252963],[1.156528,41.252983],[1.156533,41.252997],[1.156543,41.253022],[1.156552,41.253064],[1.156575,41.253164],[1.156596,41.253263],[1.156603,41.253306],[1.156607,41.253372],[1.156614,41.253439],[1.156619,41.253463],[1.156634,41.253498],[1.15666,41.253532],[1.156702,41.253562],[1.156726,41.253575],[1.156752,41.253585],[1.156865,41.253622],[1.15698,41.253657],[1.157049,41.253676],[1.157154,41.253703],[1.15721,41.253719],[1.157257,41.253732],[1.157296,41.253747],[1.15734,41.253742],[1.157378,41.253731],[1.157426,41.253692],[1.157443,41.25366],[1.157462,41.253614],[1.157482,41.253568],[1.157487,41.253552],[1.157489,41.253535],[1.157486,41.2535],[1.15748,41.253472],[1.157468,41.253444],[1.157455,41.253427],[1.157418,41.253392],[1.15738,41.253359],[1.157354,41.253337],[1.157328,41.253315],[1.157317,41.253298],[1.157311,41.253279],[1.157309,41.253265],[1.157312,41.253252],[1.15733,41.253214],[1.157358,41.25318],[1.157446,41.253094]]]]}},{"type":"Feature","id":"430056_430056 AP08 ACA 3","properties":{"area_id":"430056_430056 AP08 ACA 3","nom":"Mas de Gassol","codi_icgc":"430056 AP08 ACA 3","categoria":"Àrees de poblament","codi_municipi":"430056","municipi":"Alcover","codi_comarca":"01","comarca":"Alt Camp","provincia":"Tarragona","font":"ICGC Àrees de poblament v3r1 202602"},"geometry":{"type":"MultiPolygon","coordinates":[[[[1.172577,41.276163],[1.172582,41.27617],[1.172024,41.276379],[1.172084,41.276475],[1.172241,41.276745],[1.171916,41.276859],[1.172115,41.277186],[1.172479,41.277058],[1.172775,41.277545],[1.172945,41.277795],[1.172999,41.277882],[1.173219,41.277942],[1.173332,41.277939],[1.173434,41.277912],[1.173683,41.277821],[1.174098,41.277661],[1.174062,41.277589],[1.173663,41.276963],[1.173974,41.276834],[1.174395,41.276673],[1.174296,41.276507],[1.174943,41.276263],[1.175374,41.276109],[1.175582,41.276422],[1.175703,41.27663],[1.175776,41.276706],[1.176626,41.276385],[1.176714,41.276336],[1.176787,41.276266],[1.176817,41.276186],[1.176811,41.276108],[1.17677,41.276018],[1.176695,41.275904],[1.176634,41.275806],[1.176638,41.275805],[1.17714,41.275616],[1.177037,41.275468],[1.17701,41.27543],[1.17648,41.275636],[1.176358,41.27545],[1.176271,41.275316],[1.176504,41.275212],[1.176858,41.275085],[1.176652,41.274767],[1.176858,41.274689],[1.177024,41.274627],[1.176936,41.274482],[1.17603,41.273091],[1.175763,41.272685],[1.175543,41.272655],[1.175361,41.272802],[1.17523,41.272905],[1.175266,41.272978],[1.175942,41.274017],[1.175971,41.27406],[1.176379,41.274683],[1.17606,41.274801],[1.176045,41.274807],[1.175965,41.274839],[1.175533,41.27417],[1.175118,41.274326],[1.175571,41.274988],[1.175302,41.275087],[1.175287,41.275091],[1.175266,41.275092],[1.175245,41.275087],[1.175228,41.275077],[1.175217,41.275064],[1.174836,41.27449],[1.174812,41.274442],[1.174503,41.273984],[1.174807,41.273869],[1.174793,41.273812],[1.175084,41.273689],[1.174879,41.273353],[1.174778,41.273249],[1.174526,41.27343],[1.174246,41.273667],[1.174217,41.273685],[1.174207,41.27369],[1.174198,41.273694],[1.174189,41.273699],[1.174162,41.273712],[1.174102,41.273737],[1.17391,41.273818],[1.173897,41.273824],[1.173883,41.273829],[1.173666,41.27392],[1.173597,41.273948],[1.173554,41.273963],[1.173346,41.273691],[1.173051,41.273639],[1.17285,41.273659],[1.172688,41.273693],[1.172582,41.273789],[1.172591,41.273911],[1.172638,41.27404],[1.172774,41.274129],[1.173109,41.274095],[1.173154,41.274197],[1.173235,41.274285],[1.173547,41.274166],[1.173931,41.274757],[1.173965,41.274774],[1.17397,41.274812],[1.174169,41.275113],[1.173808,41.275247],[1.173704,41.275102],[1.173442,41.275205],[1.173344,41.275052],[1.173305,41.275008],[1.1732,41.274846],[1.173187,41.274825],[1.173072,41.274867],[1.172002,41.275252],[1.172252,41.275655],[1.172577,41.276163]]]]}},{"type":"Feature","id":"430056_430056 AP11 ACA 1","properties":{"area_id":"430056_430056 AP11 ACA 1","nom":"Mas del Cano","codi_icgc":"430056 AP11 ACA 1","categoria":"Àrees de poblament","codi_municipi":"430056","municipi":"Alcover","codi_comarca":"01","comarca":"Alt Camp","provincia":"Tarragona","font":"ICGC Àrees de poblament v3r1 202602"},"geometry":{"type":"MultiPolygon","coordinates":[[[[1.163464,41.23572],[1.162777,41.235432],[1.162696,41.23545],[1.162686,41.235479],[1.162664,41.235574],[1.162642,41.235669],[1.162616,41.235777],[1.162588,41.235884],[1.162569,41.235935],[1.162541,41.235984],[1.162473,41.23608],[1.162453,41.236108],[1.162428,41.236132],[1.162407,41.236144],[1.162307,41.236177],[1.162207,41.236209],[1.162122,41.236235],[1.162065,41.236253],[1.162009,41.23627],[1.161971,41.236282],[1.161864,41.236316],[1.161811,41.236332],[1.161721,41.23636],[1.161631,41.236391],[1.161602,41.236407],[1.161579,41.236428],[1.161543,41.236476],[1.161522,41.236505],[1.161501,41.236534],[1.161327,41.236803],[1.160918,41.237534],[1.160895,41.237562],[1.160958,41.237585],[1.161375,41.237727],[1.161676,41.237428],[1.161791,41.237314],[1.162006,41.237117],[1.162241,41.236902],[1.162378,41.236769],[1.162612,41.236542],[1.162871,41.236299],[1.162877,41.236293],[1.163158,41.23603],[1.163464,41.23572]]]]}},{"type":"Feature","id":"430056_430056 SI01 ACA 2","properties":{"area_id":"430056_430056 SI01 ACA 2","nom":"Papelera Catalana, SA","codi_icgc":"430056 SI01 ACA 2","categoria":"Sector industrial","codi_municipi":"430056","municipi":"Alcover","codi_comarca":"01","comarca":"Alt Camp","provincia":"Tarragona","font":"ICGC Àrees de poblament v3r1 202602"},"geometry":{"type":"MultiPolygon","coordinates":[[[[1.199695,41.300737],[1.199729,41.30067],[1.199753,41.300542],[1.199759,41.300511],[1.199764,41.300407],[1.199733,41.300292],[1.199677,41.30022],[1.19953,41.300084],[1.199397,41.299991],[1.199352,41.299974],[1.199232,41.29993],[1.199157,41.299902],[1.198936,41.299852],[1.198804,41.299826],[1.198724,41.299783],[1.19866,41.299743],[1.198597,41.299712],[1.198477,41.299637],[1.198411,41.299596],[1.198328,41.299516],[1.198274,41.299437],[1.198148,41.299121],[1.198082,41.29899],[1.198019,41.298853],[1.198031,41.298799],[1.197936,41.298715],[1.197909,41.298692],[1.197853,41.298717],[1.197759,41.298761],[1.197753,41.298763],[1.197391,41.298999],[1.19685,41.299329],[1.196598,41.299485],[1.196451,41.299572],[1.196452,41.299582],[1.196455,41.299599],[1.196464,41.299669],[1.196559,41.299764],[1.19668,41.299891],[1.19681,41.300033],[1.19687,41.300086],[1.196931,41.30014],[1.196951,41.300169],[1.197,41.300238],[1.197074,41.300372],[1.197086,41.300391],[1.197109,41.30044],[1.197129,41.300509],[1.197136,41.300532],[1.197144,41.300555],[1.197144,41.300569],[1.19714,41.300597],[1.197131,41.300614],[1.197117,41.300625],[1.197104,41.300632],[1.197084,41.300636],[1.197068,41.300635],[1.196996,41.300647],[1.197017,41.300696],[1.197102,41.301056],[1.19712,41.30158],[1.197085,41.301799],[1.196915,41.302295],[1.196893,41.302341],[1.196841,41.302431],[1.196786,41.302518],[1.196732,41.3026],[1.196678,41.302681],[1.196613,41.302766],[1.196553,41.302845],[1.196456,41.302964],[1.196359,41.303065],[1.196073,41.30334],[1.196075,41.303341],[1.1962,41.303437],[1.196302,41.303477],[1.196386,41.303443],[1.196875,41.303085],[1.197623,41.30254],[1.198012,41.302282],[1.198203,41.302115],[1.198309,41.302022],[1.198763,41.301624],[1.198778,41.30162],[1.198848,41.301598],[1.19897,41.30159],[1.199032,41.301531],[1.199059,41.301505],[1.199282,41.301289],[1.199306,41.301262],[1.199326,41.301244],[1.19937,41.30119],[1.19962,41.300883],[1.199695,41.300737]]]]}},{"type":"Feature","id":"430056_430056 SI02 ACA 2","properties":{"area_id":"430056_430056 SI02 ACA 2","nom":"Polígon industrial Roques Roges","codi_icgc":"430056 SI02 ACA 2","categoria":"Sector industrial","codi_municipi":"430056","municipi":"Alcover","codi_comarca":"01","comarca":"Alt Camp","provincia":"Tarragona","font":"ICGC Àrees de poblament v3r1 202602"},"geometry":{"type":"MultiPolygon","coordinates":[[[[1.183619,41.276516],[1.18354,41.276186],[1.182314,41.276434],[1.181835,41.275683],[1.182564,41.275375],[1.18279,41.275216],[1.183586,41.274822],[1.183009,41.273909],[1.182669,41.273646],[1.18235,41.273741],[1.182374,41.273799],[1.18241,41.273885],[1.18221,41.27423],[1.18243,41.27451],[1.180998,41.275041],[1.180979,41.275055],[1.180807,41.275161],[1.180479,41.275374],[1.180119,41.275597],[1.179947,41.275695],[1.179901,41.275645],[1.179821,41.275682],[1.179841,41.275737],[1.179651,41.27584],[1.17932,41.27605],[1.178781,41.276192],[1.178195,41.276396],[1.177577,41.276746],[1.177014,41.277107],[1.176732,41.277322],[1.176328,41.277446],[1.175952,41.27758],[1.176771,41.278685],[1.178909,41.277933],[1.179832,41.27973],[1.18023,41.280432],[1.180758,41.280274],[1.181132,41.280844],[1.181137,41.280851],[1.181115,41.280858],[1.181082,41.280864],[1.181047,41.280865],[1.181011,41.280865],[1.180975,41.280866],[1.180928,41.280868],[1.180882,41.280871],[1.180679,41.280888],[1.180476,41.280904],[1.180283,41.280919],[1.18009,41.280934],[1.180033,41.28094],[1.179976,41.28095],[1.179865,41.280972],[1.179791,41.280981],[1.179665,41.280991],[1.179539,41.281001],[1.179479,41.281008],[1.179419,41.281017],[1.179383,41.281027],[1.17935,41.281043],[1.179337,41.281052],[1.179329,41.281063],[1.179326,41.281072],[1.179324,41.28108],[1.179331,41.281115],[1.179332,41.281121],[1.179342,41.281152],[1.179358,41.281198],[1.17936,41.281203],[1.179342,41.281252],[1.179422,41.281383],[1.179782,41.281958],[1.180141,41.28249],[1.180409,41.282879],[1.180668,41.283251],[1.180728,41.283314],[1.18083,41.283366],[1.180918,41.283371],[1.180929,41.283369],[1.180939,41.283366],[1.180958,41.28336],[1.180964,41.283358],[1.181035,41.283337],[1.181426,41.283191],[1.182241,41.282887],[1.182282,41.282888],[1.182552,41.282806],[1.182445,41.282557],[1.182968,41.282405],[1.181765,41.28021],[1.18317,41.279651],[1.18327,41.279696],[1.183325,41.279787],[1.183319,41.279987],[1.183353,41.280345],[1.183527,41.280701],[1.183028,41.280917],[1.183264,41.281283],[1.183757,41.281066],[1.183928,41.281274],[1.183983,41.281327],[1.18398,41.281447],[1.183978,41.281527],[1.184,41.281633],[1.18364,41.281632],[1.183641,41.281827],[1.183977,41.282115],[1.184012,41.282105],[1.184166,41.282112],[1.184195,41.28166],[1.184094,41.281644],[1.184035,41.281509],[1.18405,41.281409],[1.184059,41.281343],[1.184154,41.281325],[1.184212,41.281293],[1.184251,41.281241],[1.184258,41.281208],[1.184259,41.28117],[1.18426,41.281132],[1.18423,41.281098],[1.184199,41.281069],[1.184143,41.281034],[1.184152,41.280934],[1.184228,41.280936],[1.184376,41.27942],[1.184405,41.279373],[1.184425,41.278478],[1.184428,41.277997],[1.184365,41.277999],[1.184347,41.277272],[1.184435,41.277266],[1.184455,41.276524],[1.183619,41.276516]]]]}},{"type":"Feature","id":"430056_430056 AP03 ACA 3","properties":{"area_id":"430056_430056 AP03 ACA 3","nom":"Residencial Remei","codi_icgc":"430056 AP03 ACA 3","categoria":"Àrees de poblament","codi_municipi":"430056","municipi":"Alcover","codi_comarca":"01","comarca":"Alt Camp","provincia":"Tarragona","font":"ICGC Àrees de poblament v3r1 202602"},"geometry":{"type":"MultiPolygon","coordinates":[[[[1.157771,41.265298],[1.157772,41.2653],[1.157776,41.265312],[1.157731,41.265542],[1.157657,41.26571],[1.157541,41.265968],[1.157451,41.266246],[1.157433,41.266311],[1.15738,41.266515],[1.157375,41.266527],[1.157329,41.266645],[1.15731,41.266729],[1.157254,41.266773],[1.157177,41.266875],[1.157092,41.266958],[1.157066,41.266984],[1.156964,41.267086],[1.156961,41.267143],[1.156952,41.26715],[1.156945,41.267158],[1.156936,41.267178],[1.156926,41.267211],[1.156911,41.267245],[1.156903,41.267259],[1.156871,41.267323],[1.156852,41.267369],[1.156745,41.267699],[1.156613,41.267775],[1.156543,41.267921],[1.156524,41.26796],[1.156631,41.267996],[1.156738,41.268032],[1.156861,41.268078],[1.156981,41.26813],[1.157024,41.268151],[1.157063,41.268177],[1.157106,41.268218],[1.157142,41.268264],[1.1572,41.26835],[1.157256,41.268437],[1.157301,41.268509],[1.157347,41.268583],[1.157372,41.268614],[1.1574,41.268642],[1.157458,41.268696],[1.157519,41.26875],[1.15754,41.268768],[1.157381,41.268918],[1.157201,41.269087],[1.157492,41.269321],[1.157557,41.269381],[1.157605,41.26942],[1.157637,41.269402],[1.15803,41.269063],[1.158069,41.269084],[1.158108,41.269113],[1.158177,41.269179],[1.158009,41.269309],[1.157729,41.269525],[1.157775,41.269565],[1.157915,41.26968],[1.157991,41.269603],[1.158092,41.269499],[1.158178,41.269422],[1.158234,41.269373],[1.158255,41.269339],[1.158256,41.269306],[1.158316,41.269269],[1.158276,41.2692],[1.158254,41.269161],[1.158371,41.269078],[1.158508,41.268971],[1.158513,41.268967],[1.15861,41.268846],[1.158671,41.268738],[1.158906,41.268854],[1.158935,41.268828],[1.158997,41.26877],[1.158901,41.268672],[1.158881,41.268659],[1.158777,41.268479],[1.158885,41.268314],[1.159004,41.268356],[1.159166,41.268409],[1.15941,41.268204],[1.159452,41.268226],[1.159509,41.268257],[1.159567,41.268287],[1.159626,41.268317],[1.159667,41.268334],[1.159711,41.268347],[1.159741,41.268353],[1.159796,41.26836],[1.15985,41.268365],[1.159901,41.268369],[1.159953,41.268373],[1.159968,41.268374],[1.159983,41.268377],[1.160086,41.268381],[1.160165,41.268381],[1.160261,41.268373],[1.160315,41.268359],[1.160376,41.268336],[1.160415,41.268295],[1.160434,41.268255],[1.160443,41.268205],[1.160429,41.268145],[1.160405,41.268104],[1.160366,41.268063],[1.160328,41.268047],[1.160309,41.268039],[1.160219,41.267999],[1.160158,41.267968],[1.160099,41.267933],[1.159988,41.267857],[1.159886,41.26778],[1.15983,41.267731],[1.159868,41.267526],[1.159913,41.267378],[1.160056,41.267024],[1.159988,41.266985],[1.160002,41.266971],[1.160132,41.266694],[1.160189,41.266459],[1.16019,41.266455],[1.160257,41.266166],[1.160342,41.265958],[1.160219,41.265931],[1.160316,41.265686],[1.160318,41.265681],[1.160327,41.265667],[1.160258,41.265644],[1.16028,41.2656],[1.160315,41.26553],[1.160307,41.265526],[1.160275,41.265514],[1.160241,41.265508],[1.160207,41.265507],[1.160172,41.265512],[1.160148,41.265521],[1.160076,41.265562],[1.160007,41.265603],[1.159856,41.265694],[1.159705,41.265787],[1.159657,41.265823],[1.159614,41.265862],[1.159583,41.265895],[1.159543,41.265946],[1.1595,41.265994],[1.159486,41.266006],[1.159462,41.266022],[1.159435,41.266032],[1.15942,41.266033],[1.159392,41.266031],[1.159364,41.266026],[1.159308,41.266009],[1.159253,41.26599],[1.159212,41.265971],[1.159194,41.26596],[1.159179,41.265949],[1.159156,41.265917],[1.159137,41.26588],[1.159119,41.265842],[1.159113,41.265824],[1.159112,41.265807],[1.159128,41.265736],[1.15915,41.265664],[1.159221,41.265462],[1.159286,41.265278],[1.159238,41.265261],[1.158765,41.265106],[1.158813,41.265043],[1.15889,41.264944],[1.158931,41.264892],[1.158824,41.264854],[1.158806,41.264797],[1.158738,41.264568],[1.158476,41.264598],[1.158354,41.264613],[1.158277,41.264624],[1.157911,41.264675],[1.158025,41.26503],[1.158048,41.265095],[1.15818,41.265059],[1.158246,41.265244],[1.158169,41.265247],[1.158048,41.265252],[1.157942,41.265267],[1.157836,41.265283],[1.157771,41.265298]]]]}},{"type":"Feature","id":"430056_430056 AP06 ACA 3","properties":{"area_id":"430056_430056 AP06 ACA 3","nom":"Serradalt","codi_icgc":"430056 AP06 ACA 3","categoria":"Àrees de poblament","codi_municipi":"430056","municipi":"Alcover","codi_comarca":"01","comarca":"Alt Camp","provincia":"Tarragona","font":"ICGC Àrees de poblament v3r1 202602"},"geometry":{"type":"MultiPolygon","coordinates":[[[[1.195808,41.280901],[1.19574,41.280984],[1.195664,41.281064],[1.195642,41.281085],[1.195619,41.281108],[1.195615,41.281123],[1.195608,41.281141],[1.195672,41.281174],[1.195811,41.281159],[1.195979,41.281141],[1.196065,41.281135],[1.196108,41.281136],[1.196151,41.281141],[1.196249,41.281163],[1.19632,41.281184],[1.196423,41.28122],[1.196524,41.281261],[1.196822,41.281388],[1.197119,41.281515],[1.197227,41.281561],[1.197317,41.2816],[1.197343,41.281614],[1.197357,41.281625],[1.197363,41.281636],[1.197278,41.281862],[1.197194,41.282071],[1.197068,41.282382],[1.197029,41.282467],[1.197021,41.282487],[1.196971,41.282575],[1.196924,41.282676],[1.196825,41.282884],[1.196726,41.283092],[1.196723,41.283102],[1.196648,41.283319],[1.196647,41.283346],[1.19682,41.283385],[1.196968,41.28342],[1.197115,41.283457],[1.197199,41.283482],[1.197283,41.283507],[1.197301,41.28351],[1.197327,41.283513],[1.197346,41.283518],[1.197354,41.283521],[1.197364,41.283527],[1.197375,41.283534],[1.197391,41.283545],[1.197422,41.283587],[1.197541,41.283613],[1.19755,41.283618],[1.197548,41.283624],[1.197569,41.283627],[1.197714,41.283701],[1.197862,41.283786],[1.197994,41.283819],[1.198004,41.283821],[1.198149,41.283909],[1.19828,41.283977],[1.198301,41.283987],[1.19838,41.284028],[1.198379,41.284031],[1.198476,41.284065],[1.198478,41.284061],[1.198537,41.284074],[1.198693,41.284106],[1.198775,41.284159],[1.198816,41.284165],[1.198904,41.284177],[1.198954,41.284189],[1.199113,41.284199],[1.199178,41.284212],[1.19947,41.284253],[1.199516,41.284264],[1.199547,41.28427],[1.199662,41.284285],[1.199816,41.284309],[1.199863,41.284329],[1.199961,41.284372],[1.200114,41.284403],[1.200258,41.284418],[1.200419,41.28444],[1.200444,41.284443],[1.200557,41.284462],[1.200611,41.284426],[1.200668,41.284399],[1.200725,41.284415],[1.200896,41.284491],[1.201119,41.284548],[1.201169,41.284551],[1.201257,41.284528],[1.201325,41.284509],[1.201719,41.284578],[1.201765,41.284134],[1.20175,41.284132],[1.201765,41.284013],[1.201774,41.283955],[1.201801,41.283788],[1.201827,41.283622],[1.20184,41.283497],[1.201846,41.283372],[1.201849,41.283278],[1.20185,41.283183],[1.201843,41.283137],[1.201841,41.283116],[1.201844,41.283102],[1.201868,41.283105],[1.201895,41.283111],[1.201984,41.283138],[1.202075,41.283165],[1.202134,41.283182],[1.202224,41.283201],[1.202315,41.283216],[1.202461,41.283235],[1.202605,41.283253],[1.202765,41.283274],[1.202798,41.283278],[1.202918,41.283299],[1.202957,41.283309],[1.202981,41.283319],[1.203012,41.283335],[1.203038,41.283357],[1.203054,41.283374],[1.20309,41.283437],[1.203107,41.283493],[1.203123,41.283571],[1.20313,41.283607],[1.203118,41.28369],[1.203108,41.283844],[1.203091,41.283941],[1.203218,41.283952],[1.203268,41.283905],[1.203325,41.283847],[1.203379,41.283811],[1.203478,41.283762],[1.203529,41.283742],[1.203569,41.283687],[1.203618,41.283624],[1.203575,41.283586],[1.203653,41.283508],[1.203581,41.283459],[1.2035,41.283397],[1.203633,41.283274],[1.203771,41.283122],[1.203782,41.283037],[1.203698,41.283019],[1.203742,41.282647],[1.203743,41.282578],[1.203822,41.282385],[1.204007,41.282435],[1.204198,41.282484],[1.204359,41.282521],[1.20436,41.282519],[1.204391,41.282484],[1.204523,41.282319],[1.204653,41.282101],[1.204873,41.282179],[1.204905,41.28219],[1.205115,41.28193],[1.2052,41.281693],[1.205246,41.281495],[1.205449,41.281531],[1.2054,41.281255],[1.205321,41.280942],[1.205233,41.280927],[1.204833,41.280898],[1.204734,41.28088],[1.204174,41.280739],[1.204002,41.280696],[1.203943,41.280679],[1.203941,41.280682],[1.203823,41.280654],[1.203649,41.280618],[1.203543,41.280596],[1.20345,41.280567],[1.203386,41.280553],[1.203078,41.280478],[1.203027,41.280469],[1.20284,41.280434],[1.202514,41.280375],[1.20245,41.280365],[1.202442,41.280337],[1.202437,41.28032],[1.202434,41.280309],[1.202431,41.2803],[1.20243,41.28029],[1.202431,41.280281],[1.202432,41.280271],[1.202454,41.280161],[1.202469,41.280089],[1.202498,41.279956],[1.202532,41.279804],[1.202588,41.279576],[1.202647,41.279349],[1.202675,41.279241],[1.202705,41.279135],[1.202706,41.279133],[1.202714,41.27911],[1.202641,41.279065],[1.202608,41.279065],[1.202575,41.279058],[1.202452,41.279041],[1.20233,41.279024],[1.202217,41.279007],[1.202105,41.278988],[1.201881,41.27895],[1.201676,41.278919],[1.201472,41.278888],[1.20139,41.278872],[1.201361,41.278872],[1.201344,41.278875],[1.201328,41.278877],[1.201299,41.278878],[1.201223,41.278868],[1.201084,41.278914],[1.201038,41.278915],[1.200988,41.279076],[1.200952,41.279087],[1.200896,41.279315],[1.200503,41.279257],[1.200539,41.279056],[1.199854,41.278969],[1.199902,41.278702],[1.199896,41.278701],[1.199466,41.278647],[1.199349,41.279026],[1.198919,41.278969],[1.198784,41.279348],[1.198672,41.279331],[1.198089,41.279241],[1.197934,41.279704],[1.197924,41.279776],[1.197857,41.280106],[1.197849,41.280143],[1.197824,41.28026],[1.19728,41.280149],[1.196741,41.280038],[1.196254,41.279938],[1.196245,41.279961],[1.196206,41.280063],[1.196088,41.280307],[1.196029,41.280431],[1.196015,41.280515],[1.196014,41.280563],[1.196018,41.280584],[1.196017,41.280589],[1.196439,41.280681],[1.196372,41.280963],[1.195849,41.28084],[1.195808,41.280901]]]]}},{"type":"Feature","id":"430056_430056 AP02 ACA 2","properties":{"area_id":"430056_430056 AP02 ACA 2","nom":"el Burguet","codi_icgc":"430056 AP02 ACA 2","categoria":"Àrees de poblament","codi_municipi":"430056","municipi":"Alcover","codi_comarca":"01","comarca":"Alt Camp","provincia":"Tarragona","font":"ICGC Àrees de poblament v3r1 202602"},"geometry":{"type":"MultiPolygon","coordinates":[[[[1.170018,41.23333],[1.17009,41.233214],[1.17028,41.233098],[1.17032,41.233048],[1.170304,41.233013],[1.170105,41.232658],[1.169652,41.232833],[1.169625,41.232844],[1.169632,41.232864],[1.169636,41.232877],[1.169627,41.23288],[1.169607,41.232889],[1.169571,41.232911],[1.1695,41.232961],[1.169434,41.23301],[1.169388,41.233041],[1.169326,41.233074],[1.16926,41.2331],[1.169268,41.233115],[1.16929,41.23317],[1.169368,41.233265],[1.169406,41.233242],[1.169563,41.233508],[1.169425,41.233564],[1.169284,41.23362],[1.169233,41.233642],[1.169212,41.233654],[1.169231,41.233677],[1.169381,41.233864],[1.169405,41.233893],[1.169257,41.233944],[1.169309,41.234018],[1.16937,41.234008],[1.169476,41.233975],[1.169773,41.233854],[1.16966,41.233647],[1.169764,41.233602],[1.169717,41.233468],[1.169981,41.233361],[1.170018,41.23333]]]]}},{"type":"Feature","id":"430056_430056 AP14 ACA 2","properties":{"area_id":"430056_430056 AP14 ACA 2","nom":"el Mas de Llaneta","codi_icgc":"430056 AP14 ACA 2","categoria":"Àrees de poblament","codi_municipi":"430056","municipi":"Alcover","codi_comarca":"01","comarca":"Alt Camp","provincia":"Tarragona","font":"ICGC Àrees de poblament v3r1 202602"},"geometry":{"type":"MultiPolygon","coordinates":[[[[1.136055,41.27905],[1.136292,41.279159],[1.136456,41.279162],[1.13666,41.279098],[1.136709,41.279038],[1.136756,41.278981],[1.136761,41.278969],[1.136772,41.278916],[1.136778,41.278862],[1.136778,41.278827],[1.136771,41.278792],[1.136762,41.278768],[1.136743,41.278737],[1.136723,41.278708],[1.136714,41.278696],[1.1367,41.278675],[1.136695,41.278668],[1.136668,41.278629],[1.136662,41.278615],[1.136659,41.2786],[1.136656,41.278567],[1.136654,41.278501],[1.136656,41.278435],[1.136662,41.278394],[1.136672,41.278352],[1.136683,41.278326],[1.136705,41.278286],[1.136726,41.278246],[1.136736,41.278222],[1.136742,41.278196],[1.136741,41.278169],[1.136709,41.278138],[1.136679,41.278112],[1.136622,41.278061],[1.1366,41.278036],[1.136583,41.278008],[1.136563,41.277969],[1.136558,41.277961],[1.13653,41.277948],[1.1365,41.277934],[1.136469,41.277925],[1.136428,41.277921],[1.136387,41.27792],[1.136357,41.277926],[1.136343,41.277939],[1.136327,41.277994],[1.136316,41.278046],[1.136327,41.278103],[1.136353,41.278178],[1.136372,41.278327],[1.136345,41.27844],[1.136295,41.278531],[1.136213,41.278634],[1.136116,41.278716],[1.136066,41.278802],[1.136047,41.278906],[1.136055,41.27905]]]]}},{"type":"Feature","id":"430056_430056 AP10 ACA 3","properties":{"area_id":"430056_430056 AP10 ACA 3","nom":"la Burquera","codi_icgc":"430056 AP10 ACA 3","categoria":"Àrees de poblament","codi_municipi":"430056","municipi":"Alcover","codi_comarca":"01","comarca":"Alt Camp","provincia":"Tarragona","font":"ICGC Àrees de poblament v3r1 202602"},"geometry":{"type":"MultiPolygon","coordinates":[[[[1.157269,41.248991],[1.157234,41.248986],[1.157057,41.249267],[1.15702,41.249309],[1.156966,41.249383],[1.156912,41.24946],[1.156845,41.249559],[1.157114,41.249993],[1.15717,41.249969],[1.157202,41.249955],[1.157508,41.249824],[1.157543,41.24979],[1.157554,41.249758],[1.157559,41.249653],[1.157573,41.249326],[1.157629,41.249039],[1.157379,41.249005],[1.157327,41.248998],[1.157284,41.248993],[1.157269,41.248991]]]]}},{"type":"Feature","id":"430056_430056 AP07 ACA 3","properties":{"area_id":"430056_430056 AP07 ACA 3","nom":"la Cabana","codi_icgc":"430056 AP07 ACA 3","categoria":"Àrees de poblament","codi_municipi":"430056","municipi":"Alcover","codi_comarca":"01","comarca":"Alt Camp","provincia":"Tarragona","font":"ICGC Àrees de poblament v3r1 202602"},"geometry":{"type":"MultiPolygon","coordinates":[[[[1.197815,41.275346],[1.197713,41.275361],[1.197695,41.275367],[1.197681,41.275361],[1.19767,41.275353],[1.197657,41.27534],[1.197648,41.275328],[1.197612,41.275235],[1.197535,41.27503],[1.197456,41.274826],[1.197448,41.274809],[1.197438,41.274771],[1.197401,41.274666],[1.196691,41.274755],[1.196709,41.274846],[1.196727,41.274909],[1.196713,41.274911],[1.196864,41.275428],[1.196875,41.275466],[1.196883,41.275494],[1.196927,41.27566],[1.196945,41.275717],[1.19696,41.27576],[1.196978,41.275823],[1.19716,41.276375],[1.196797,41.27645],[1.196519,41.276507],[1.196128,41.276588],[1.195835,41.276648],[1.195374,41.276744],[1.195306,41.276759],[1.195259,41.276771],[1.194818,41.276878],[1.194731,41.276898],[1.194745,41.276934],[1.19475,41.276951],[1.194771,41.277026],[1.194786,41.277072],[1.19487,41.277353],[1.194889,41.277389],[1.194893,41.277399],[1.194902,41.277431],[1.194953,41.277571],[1.195072,41.277897],[1.195144,41.278092],[1.195183,41.278212],[1.195242,41.278383],[1.195287,41.278498],[1.195316,41.278496],[1.195396,41.278489],[1.195488,41.278482],[1.195588,41.278473],[1.195956,41.278438],[1.196324,41.278405],[1.196592,41.278382],[1.196861,41.278359],[1.197069,41.278341],[1.197277,41.278324],[1.197339,41.278314],[1.197402,41.278297],[1.197423,41.278284],[1.197436,41.278267],[1.197469,41.278149],[1.197498,41.278034],[1.197539,41.277864],[1.197578,41.277694],[1.197594,41.277607],[1.197599,41.277548],[1.197626,41.277548],[1.197717,41.277178],[1.197735,41.277115],[1.197781,41.277095],[1.197923,41.277035],[1.197929,41.277032],[1.198226,41.276927],[1.19839,41.276869],[1.198634,41.276783],[1.198653,41.276779],[1.198798,41.276749],[1.19888,41.276775],[1.199061,41.276833],[1.19912,41.276851],[1.199113,41.276882],[1.199422,41.276981],[1.199595,41.277057],[1.19964,41.277057],[1.199643,41.277033],[1.199662,41.276906],[1.199689,41.276767],[1.199738,41.276557],[1.19976,41.276452],[1.199773,41.276361],[1.199775,41.27635],[1.200238,41.276198],[1.20023,41.275854],[1.200256,41.275841],[1.200223,41.275443],[1.200228,41.275414],[1.200237,41.275376],[1.200238,41.275343],[1.200231,41.275311],[1.200209,41.275247],[1.200174,41.275128],[1.200157,41.27507],[1.200084,41.275065],[1.200016,41.275075],[1.200015,41.275071],[1.199828,41.275095],[1.199829,41.275099],[1.199422,41.27515],[1.199418,41.27515],[1.199464,41.275436],[1.199169,41.275469],[1.199116,41.275177],[1.199114,41.275178],[1.198543,41.275252],[1.198479,41.275262],[1.19847,41.275263],[1.198584,41.275578],[1.198539,41.275589],[1.198543,41.275632],[1.198315,41.275667],[1.198282,41.275556],[1.198141,41.275571],[1.198063,41.275314],[1.197815,41.275346]]]]}},{"type":"Feature","id":"430056_430056 AP04 ACA 3","properties":{"area_id":"430056_430056 AP04 ACA 3","nom":"la Plana","codi_icgc":"430056 AP04 ACA 3","categoria":"Àrees de poblament","codi_municipi":"430056","municipi":"Alcover","codi_comarca":"01","comarca":"Alt Camp","provincia":"Tarragona","font":"ICGC Àrees de poblament v3r1 202602"},"geometry":{"type":"MultiPolygon","coordinates":[[[[1.194807,41.294828],[1.194831,41.294858],[1.194849,41.29489],[1.19485,41.294893],[1.194878,41.294973],[1.194907,41.295054],[1.19494,41.295133],[1.194973,41.295212],[1.194977,41.295226],[1.194931,41.29525],[1.194875,41.29528],[1.194698,41.295371],[1.194605,41.295419],[1.194619,41.295453],[1.194679,41.295546],[1.194706,41.295588],[1.194734,41.295607],[1.194774,41.295607],[1.19486,41.295583],[1.195234,41.295442],[1.195263,41.295468],[1.195291,41.295455],[1.195594,41.29538],[1.195648,41.295355],[1.195655,41.295346],[1.195707,41.295275],[1.195837,41.295188],[1.195836,41.295176],[1.19607,41.294988],[1.195784,41.294772],[1.195727,41.294722],[1.19572,41.294717],[1.195777,41.294672],[1.195476,41.294499],[1.195387,41.294416],[1.195317,41.294379],[1.195138,41.29428],[1.195066,41.294245],[1.195033,41.294233],[1.195005,41.294238],[1.194828,41.294342],[1.194768,41.294402],[1.19451,41.294616],[1.194614,41.294686],[1.19474,41.294779],[1.194807,41.294828]]]]}},{"type":"Feature","id":"430056_430056 AP12 ACA 3","properties":{"area_id":"430056_430056 AP12 ACA 3","nom":"les Masies Catalanes","codi_icgc":"430056 AP12 ACA 3","categoria":"Àrees de poblament","codi_municipi":"430056","municipi":"Alcover","codi_comarca":"01","comarca":"Alt Camp","provincia":"Tarragona","font":"ICGC Àrees de poblament v3r1 202602"},"geometry":{"type":"MultiPolygon","coordinates":[[[[1.16129,41.23662],[1.16134,41.236506],[1.161365,41.236463],[1.161389,41.236433],[1.161433,41.236391],[1.161486,41.236353],[1.161548,41.236321],[1.161596,41.236302],[1.161745,41.236254],[1.161781,41.236248],[1.1618,41.236245],[1.161817,41.236239],[1.16182,41.236235],[1.16182,41.236227],[1.161816,41.23622],[1.1618,41.236203],[1.162057,41.236127],[1.162074,41.236154],[1.162384,41.236037],[1.16245,41.23597],[1.162488,41.23585],[1.162503,41.23571],[1.162508,41.235661],[1.162534,41.235482],[1.16249,41.235465],[1.162285,41.235167],[1.162219,41.235192],[1.162112,41.235034],[1.162014,41.234878],[1.161904,41.23471],[1.1619,41.234705],[1.161754,41.234755],[1.161477,41.234366],[1.161209,41.23447],[1.161208,41.234468],[1.16095,41.234037],[1.160953,41.234028],[1.161373,41.233955],[1.161487,41.233935],[1.161467,41.233862],[1.161414,41.233634],[1.160855,41.233732],[1.160782,41.233658],[1.160779,41.233651],[1.160776,41.233644],[1.160794,41.23364],[1.16078,41.233609],[1.160753,41.233616],[1.16074,41.233595],[1.160712,41.233606],[1.160573,41.233348],[1.160562,41.233323],[1.160463,41.233347],[1.16034,41.233391],[1.160342,41.233396],[1.1603,41.233398],[1.160288,41.233399],[1.160275,41.233402],[1.15895,41.233749],[1.157368,41.234152],[1.15729,41.234186],[1.157217,41.234224],[1.157156,41.234262],[1.157147,41.234267],[1.157112,41.234293],[1.157051,41.234342],[1.157024,41.234365],[1.156969,41.234374],[1.156932,41.234387],[1.156892,41.234412],[1.156843,41.234427],[1.156835,41.234434],[1.156821,41.234444],[1.156812,41.234449],[1.156778,41.234468],[1.156736,41.234485],[1.156026,41.234845],[1.155852,41.234937],[1.155768,41.234876],[1.155559,41.234739],[1.155398,41.234857],[1.15546,41.234915],[1.155601,41.235042],[1.155713,41.235125],[1.155853,41.235232],[1.15597,41.235322],[1.156118,41.235436],[1.156231,41.235526],[1.156345,41.235587],[1.156427,41.235639],[1.15649,41.235699],[1.156545,41.235765],[1.156565,41.235795],[1.15661,41.235865],[1.156649,41.235937],[1.15668,41.236011],[1.156705,41.236087],[1.15673,41.236233],[1.156761,41.236378],[1.156764,41.23639],[1.15677,41.2364],[1.156794,41.23643],[1.156825,41.236457],[1.156861,41.236479],[1.156877,41.236486],[1.156901,41.236497],[1.156944,41.236509],[1.15699,41.236516],[1.157036,41.236518],[1.157083,41.236513],[1.157127,41.236503],[1.157194,41.236484],[1.157249,41.236472],[1.15727,41.236467],[1.157348,41.236457],[1.157427,41.236452],[1.157506,41.236453],[1.157585,41.236459],[1.157661,41.236471],[1.157664,41.236472],[1.157702,41.236486],[1.157723,41.236488],[1.157891,41.236554],[1.158432,41.236779],[1.15864,41.23687],[1.158738,41.236912],[1.158816,41.236965],[1.158936,41.237061],[1.159155,41.237235],[1.159188,41.237261],[1.159367,41.237353],[1.159464,41.237402],[1.159576,41.237462],[1.159796,41.237579],[1.159936,41.237653],[1.159951,41.237657],[1.160004,41.237687],[1.160009,41.237717],[1.160015,41.237737],[1.160007,41.237749],[1.160007,41.237762],[1.160014,41.237775],[1.160017,41.237778],[1.160134,41.23785],[1.160474,41.237995],[1.160497,41.238004],[1.160512,41.23798],[1.160536,41.237943],[1.160576,41.237882],[1.160615,41.237825],[1.16068,41.237742],[1.160741,41.237657],[1.160816,41.237532],[1.160841,41.23749],[1.160934,41.237321],[1.161088,41.237027],[1.161202,41.236805],[1.161239,41.236732],[1.16129,41.23662]]]]}}]}