{"type":"FeatureCollection","name":"ICGC Àrees de poblament - Alfara de Carles","features":[{"type":"Feature","id":"430081_430081 AP01 BEB 3","properties":{"area_id":"430081_430081 AP01 BEB 3","nom":"Alfara de Carles","codi_icgc":"430081 AP01 BEB 3","categoria":"Àrees de poblament","codi_municipi":"430081","municipi":"Alfara de Carles","codi_comarca":"09","comarca":"Baix Ebre","provincia":"Tarragona","font":"ICGC Àrees de poblament v3r1 202602"},"geometry":{"type":"MultiPolygon","coordinates":[[[[0.399857,40.87546],[0.399914,40.875437],[0.399916,40.875436],[0.39995,40.875419],[0.400034,40.875417],[0.400124,40.875451],[0.400211,40.875483],[0.400266,40.875504],[0.400332,40.875529],[0.400393,40.875548],[0.400426,40.875553],[0.400466,40.875557],[0.400492,40.87556],[0.400523,40.875563],[0.400574,40.875562],[0.400593,40.875556],[0.400661,40.875506],[0.400677,40.875488],[0.400683,40.875474],[0.400683,40.87542],[0.400643,40.875286],[0.400586,40.875229],[0.400557,40.875045],[0.400516,40.874695],[0.400518,40.874611],[0.400369,40.874612],[0.400369,40.874599],[0.40026,40.874597],[0.400246,40.874508],[0.400245,40.874415],[0.400267,40.874415],[0.40027,40.874399],[0.400317,40.874404],[0.400402,40.874419],[0.400417,40.874381],[0.400545,40.874415],[0.400572,40.874352],[0.400562,40.874306],[0.400585,40.87431],[0.400606,40.87425],[0.40065,40.874115],[0.400669,40.874051],[0.400673,40.873971],[0.400653,40.873955],[0.400668,40.873942],[0.400686,40.873914],[0.400708,40.873868],[0.400719,40.873845],[0.400737,40.873806],[0.400748,40.873786],[0.400764,40.873756],[0.400788,40.873716],[0.400809,40.873682],[0.400854,40.873606],[0.400866,40.873582],[0.400876,40.873557],[0.400888,40.873507],[0.40087,40.873448],[0.400875,40.873381],[0.400904,40.873342],[0.400921,40.873319],[0.400932,40.873282],[0.400906,40.87319],[0.400961,40.873182],[0.400957,40.873108],[0.400923,40.873111],[0.40092,40.873033],[0.400903,40.872914],[0.401001,40.872918],[0.400996,40.872954],[0.401296,40.872997],[0.401331,40.873002],[0.401369,40.872807],[0.401304,40.872803],[0.401267,40.872802],[0.401202,40.872797],[0.401141,40.872794],[0.401095,40.872782],[0.401087,40.872685],[0.401203,40.872586],[0.400583,40.872188],[0.400446,40.872322],[0.400332,40.872278],[0.400224,40.872225],[0.400177,40.872201],[0.400264,40.872],[0.400107,40.871951],[0.40003,40.872071],[0.400023,40.872111],[0.400003,40.872185],[0.399933,40.872202],[0.399828,40.872234],[0.399683,40.872284],[0.399602,40.872319],[0.399526,40.872355],[0.399439,40.872379],[0.399407,40.872404],[0.399377,40.87243],[0.399352,40.87246],[0.399336,40.872486],[0.399283,40.872574],[0.399203,40.872657],[0.39918,40.872686],[0.399163,40.872759],[0.399167,40.872838],[0.399171,40.8729],[0.399176,40.872969],[0.399193,40.873044],[0.399224,40.873161],[0.399283,40.87326],[0.399318,40.87335],[0.399383,40.873406],[0.399489,40.873518],[0.399594,40.873619],[0.399693,40.873713],[0.399753,40.873768],[0.399813,40.873841],[0.399768,40.873887],[0.399762,40.873888],[0.399764,40.873885],[0.399679,40.873837],[0.399616,40.873811],[0.399519,40.873901],[0.39947,40.873876],[0.399385,40.873966],[0.399431,40.873993],[0.399368,40.87406],[0.399275,40.87415],[0.399224,40.8742],[0.399176,40.874172],[0.399118,40.874231],[0.399094,40.87426],[0.399085,40.874277],[0.399045,40.874275],[0.399027,40.874317],[0.399013,40.874334],[0.398991,40.874352],[0.398954,40.874378],[0.398902,40.874414],[0.398854,40.874437],[0.398813,40.874461],[0.398769,40.874486],[0.398745,40.874504],[0.398692,40.874542],[0.398614,40.874565],[0.398606,40.874567],[0.398571,40.874576],[0.398566,40.874577],[0.398518,40.874587],[0.398486,40.87459],[0.398418,40.874593],[0.398348,40.874595],[0.398305,40.874597],[0.398264,40.8746],[0.398237,40.874598],[0.398191,40.87459],[0.398082,40.874597],[0.398067,40.874638],[0.39805,40.874653],[0.398003,40.874669],[0.397922,40.874656],[0.397848,40.874639],[0.397736,40.874615],[0.397633,40.874595],[0.397543,40.874637],[0.397516,40.874656],[0.397519,40.874661],[0.397523,40.874678],[0.3975,40.874728],[0.397471,40.874808],[0.397443,40.874794],[0.397216,40.875006],[0.397189,40.875044],[0.397091,40.875166],[0.397435,40.875305],[0.397491,40.875294],[0.397512,40.875276],[0.397536,40.875254],[0.397564,40.875223],[0.397593,40.875195],[0.397607,40.875187],[0.397634,40.875178],[0.397662,40.875167],[0.397714,40.875138],[0.397766,40.875112],[0.397803,40.87509],[0.397839,40.875069],[0.397863,40.875054],[0.397876,40.875049],[0.397889,40.875045],[0.397899,40.875041],[0.397899,40.875044],[0.3979,40.87505],[0.397903,40.875065],[0.397908,40.87508],[0.397923,40.875112],[0.397942,40.875134],[0.397969,40.875153],[0.398006,40.875171],[0.398039,40.875184],[0.398145,40.875222],[0.398251,40.875257],[0.398343,40.875287],[0.398366,40.875296],[0.398378,40.875301],[0.398391,40.875307],[0.398418,40.875321],[0.398434,40.875332],[0.398612,40.875371],[0.398653,40.875359],[0.398664,40.875356],[0.398676,40.875354],[0.39869,40.875353],[0.398741,40.875363],[0.398865,40.87539],[0.398973,40.875415],[0.399082,40.875437],[0.399156,40.875446],[0.3992,40.875447],[0.39923,40.875443],[0.399258,40.875438],[0.399282,40.875433],[0.399301,40.875429],[0.399349,40.875419],[0.399419,40.875399],[0.399479,40.875377],[0.399546,40.875358],[0.399541,40.875375],[0.399544,40.875393],[0.399554,40.875409],[0.39957,40.875422],[0.399591,40.87543],[0.399597,40.875431],[0.399792,40.875476],[0.399824,40.875468],[0.399857,40.87546]]]]}},{"type":"Feature","id":"430081_430081 AP04 BEB 2","properties":{"area_id":"430081_430081 AP04 BEB 2","nom":"el Mascar","codi_icgc":"430081 AP04 BEB 2","categoria":"Àrees de poblament","codi_municipi":"430081","municipi":"Alfara de Carles","codi_comarca":"09","comarca":"Baix Ebre","provincia":"Tarragona","font":"ICGC Àrees de poblament v3r1 202602"},"geometry":{"type":"MultiPolygon","coordinates":[[[[0.332828,40.806201],[0.332958,40.806102],[0.332959,40.806102],[0.33296,40.806098],[0.33278,40.806055],[0.332762,40.806048],[0.332727,40.806034],[0.332693,40.806017],[0.332671,40.806006],[0.33265,40.805993],[0.332618,40.805968],[0.332586,40.805944],[0.332573,40.805937],[0.332563,40.805931],[0.332553,40.805928],[0.332542,40.805926],[0.332525,40.805926],[0.332505,40.805925],[0.332463,40.805924],[0.332421,40.805923],[0.332362,40.80592],[0.332348,40.805918],[0.332334,40.805916],[0.332299,40.805912],[0.332236,40.8059],[0.332174,40.805886],[0.332119,40.805871],[0.332065,40.805853],[0.332022,40.805835],[0.331984,40.805812],[0.331951,40.805788],[0.331923,40.805762],[0.331893,40.805731],[0.331866,40.8057],[0.331846,40.805673],[0.331831,40.80565],[0.331827,40.805643],[0.331814,40.805617],[0.331809,40.805607],[0.331798,40.805581],[0.331793,40.805588],[0.331789,40.805594],[0.331783,40.8056],[0.331777,40.805603],[0.331771,40.805605],[0.331756,40.805607],[0.331741,40.80561],[0.331731,40.80561],[0.331721,40.805609],[0.331676,40.80561],[0.331631,40.805611],[0.331547,40.805606],[0.331501,40.805564],[0.331402,40.805569],[0.33133,40.805607],[0.331271,40.805677],[0.331277,40.805727],[0.331284,40.805775],[0.331491,40.805892],[0.331613,40.80589],[0.331765,40.805931],[0.331867,40.805979],[0.331947,40.806017],[0.332042,40.806015],[0.332122,40.805994],[0.332235,40.806034],[0.332353,40.806044],[0.332355,40.806052],[0.332364,40.806081],[0.332373,40.80611],[0.332381,40.806151],[0.332389,40.806192],[0.332397,40.806224],[0.332399,40.806234],[0.33243,40.806239],[0.332402,40.806243],[0.332402,40.806246],[0.332398,40.806248],[0.332392,40.806251],[0.332387,40.806254],[0.332378,40.806263],[0.332372,40.806274],[0.33237,40.806286],[0.332371,40.806297],[0.332375,40.806315],[0.332379,40.806323],[0.332385,40.80633],[0.332397,40.806337],[0.332409,40.806343],[0.332421,40.80635],[0.332438,40.80636],[0.332408,40.80639],[0.332448,40.806413],[0.332441,40.806421],[0.332472,40.806439],[0.332541,40.80637],[0.332533,40.806366],[0.332552,40.806356],[0.332565,40.806348],[0.332577,40.80634],[0.33259,40.806332],[0.332598,40.806327],[0.332606,40.806321],[0.332612,40.806316],[0.332618,40.806311],[0.332623,40.806306],[0.332627,40.806301],[0.332632,40.806296],[0.332637,40.806289],[0.332828,40.806201]]],[[[0.329559,40.807973],[0.32961,40.807862],[0.32946,40.807782],[0.329391,40.807931],[0.329318,40.80791],[0.329253,40.807891],[0.329237,40.807884],[0.329224,40.807874],[0.329199,40.807848],[0.329163,40.807803],[0.329129,40.807756],[0.329102,40.807725],[0.32907,40.807696],[0.329033,40.807671],[0.329004,40.807655],[0.328961,40.807642],[0.328917,40.807635],[0.328898,40.807635],[0.32889,40.807628],[0.328885,40.807616],[0.328888,40.807604],[0.32889,40.8076],[0.328894,40.807598],[0.328943,40.807568],[0.329016,40.807523],[0.32907,40.807498],[0.329161,40.80747],[0.329188,40.807461],[0.329203,40.807456],[0.329294,40.807433],[0.329299,40.807421],[0.32931,40.807415],[0.329321,40.807411],[0.329389,40.80738],[0.329433,40.80736],[0.329466,40.807346],[0.32949,40.807338],[0.329527,40.80733],[0.329545,40.807328],[0.329563,40.807329],[0.329647,40.807345],[0.329733,40.807363],[0.32979,40.807374],[0.329847,40.807383],[0.329866,40.807384],[0.329893,40.807378],[0.329907,40.807372],[0.329921,40.807362],[0.329931,40.807346],[0.329936,40.807323],[0.329933,40.8073],[0.329918,40.807241],[0.329901,40.807182],[0.329892,40.807151],[0.329884,40.807126],[0.329874,40.807102],[0.32986,40.80707],[0.329871,40.807016],[0.32978,40.806889],[0.329708,40.806904],[0.329406,40.806983],[0.329137,40.80702],[0.328842,40.807204],[0.328813,40.80719],[0.328772,40.807174],[0.328729,40.80716],[0.328688,40.80715],[0.328646,40.807141],[0.328623,40.807137],[0.328598,40.807137],[0.328599,40.807051],[0.328562,40.806914],[0.328516,40.806777],[0.328449,40.806693],[0.328347,40.806644],[0.32824,40.80662],[0.328082,40.806627],[0.328158,40.806558],[0.328207,40.806509],[0.328237,40.80647],[0.328263,40.806403],[0.328281,40.80631],[0.328304,40.806255],[0.328258,40.806201],[0.328235,40.806138],[0.328217,40.806088],[0.328169,40.806028],[0.328108,40.80597],[0.32807,40.805911],[0.328011,40.805793],[0.327959,40.805774],[0.32787,40.805747],[0.327758,40.805737],[0.327673,40.805756],[0.327577,40.805783],[0.327492,40.805821],[0.327462,40.805834],[0.327479,40.806033],[0.327498,40.806232],[0.327511,40.806338],[0.327526,40.806444],[0.327543,40.806551],[0.327565,40.806658],[0.327589,40.80674],[0.327617,40.806822],[0.327633,40.806876],[0.327644,40.806943],[0.327646,40.807011],[0.327639,40.807126],[0.327633,40.807243],[0.327634,40.80735],[0.327641,40.807457],[0.327647,40.807487],[0.327645,40.80749],[0.327637,40.807494],[0.327628,40.807492],[0.327619,40.807488],[0.327561,40.807461],[0.327465,40.807419],[0.327368,40.807379],[0.327321,40.807363],[0.32725,40.807343],[0.327215,40.807333],[0.327182,40.80732],[0.327144,40.807298],[0.327118,40.80728],[0.327084,40.807249],[0.327053,40.807216],[0.32699,40.807136],[0.326928,40.807055],[0.326875,40.806988],[0.326846,40.806954],[0.326813,40.806921],[0.326798,40.806912],[0.326775,40.806904],[0.32675,40.806898],[0.326716,40.806897],[0.326684,40.806896],[0.326664,40.806892],[0.326635,40.80688],[0.32661,40.806862],[0.326563,40.806816],[0.326519,40.806767],[0.326465,40.806709],[0.326443,40.806679],[0.326428,40.806647],[0.326399,40.806548],[0.326371,40.806449],[0.326359,40.806407],[0.326355,40.806394],[0.326355,40.806389],[0.32636,40.806379],[0.326366,40.806368],[0.326368,40.806358],[0.326368,40.806348],[0.326368,40.806337],[0.326367,40.806327],[0.326365,40.806319],[0.326358,40.806312],[0.326349,40.806308],[0.32634,40.806304],[0.326328,40.806298],[0.326315,40.806293],[0.326307,40.806288],[0.326263,40.806289],[0.326233,40.80629],[0.326197,40.806291],[0.326132,40.806306],[0.326109,40.806329],[0.326102,40.806336],[0.326043,40.806384],[0.325978,40.806427],[0.325864,40.806538],[0.325794,40.806622],[0.325743,40.806716],[0.325734,40.806829],[0.325839,40.806868],[0.326027,40.806964],[0.326196,40.807064],[0.326407,40.807253],[0.326599,40.807374],[0.326701,40.807469],[0.326756,40.807654],[0.326825,40.807785],[0.326839,40.80782],[0.326882,40.807932],[0.327035,40.807912],[0.327136,40.807944],[0.32723,40.807995],[0.327299,40.808052],[0.32733,40.808082],[0.327361,40.808166],[0.327378,40.808238],[0.32745,40.808235],[0.327688,40.808226],[0.32769,40.808243],[0.327725,40.808244],[0.327723,40.808183],[0.327722,40.808113],[0.327723,40.808045],[0.327729,40.808026],[0.327749,40.807996],[0.327759,40.807979],[0.327766,40.807961],[0.32777,40.807933],[0.327772,40.807906],[0.327776,40.807828],[0.327776,40.807789],[0.327775,40.807782],[0.327773,40.807763],[0.327785,40.807751],[0.327801,40.807744],[0.32782,40.807742],[0.327836,40.807745],[0.327866,40.807761],[0.3279,40.807779],[0.327977,40.807818],[0.328023,40.807847],[0.328047,40.807865],[0.328071,40.807886],[0.328119,40.80793],[0.328157,40.807955],[0.328208,40.807977],[0.328258,40.807996],[0.328357,40.808036],[0.328414,40.808062],[0.32847,40.80809],[0.328504,40.808111],[0.328523,40.808127],[0.328538,40.808147],[0.328567,40.808189],[0.328591,40.808217],[0.328647,40.808269],[0.328708,40.808318],[0.328752,40.808349],[0.328848,40.808401],[0.328948,40.808445],[0.329018,40.808471],[0.329065,40.808486],[0.329113,40.808497],[0.329207,40.808518],[0.329267,40.808536],[0.329298,40.808549],[0.329432,40.80862],[0.329446,40.808628],[0.329413,40.808695],[0.329533,40.808769],[0.329587,40.808713],[0.329786,40.808453],[0.329781,40.808439],[0.329715,40.808242],[0.329667,40.808115],[0.329615,40.808035],[0.329559,40.807973]]],[[[0.33563,40.808831],[0.335691,40.808711],[0.335658,40.808529],[0.335218,40.808314],[0.335041,40.808153],[0.335911,40.808394],[0.33652,40.808102],[0.336704,40.808053],[0.336834,40.808053],[0.336872,40.80806],[0.33695,40.808106],[0.337012,40.808129],[0.337104,40.808132],[0.337162,40.80812],[0.337212,40.808097],[0.337244,40.808069],[0.337264,40.808051],[0.337286,40.808025],[0.337299,40.808],[0.337323,40.807982],[0.337326,40.807893],[0.337353,40.807801],[0.337355,40.807765],[0.337359,40.807667],[0.337324,40.807614],[0.337292,40.80757],[0.337158,40.807493],[0.337046,40.807449],[0.336989,40.80743],[0.336944,40.807415],[0.336941,40.807413],[0.336894,40.807363],[0.336811,40.807297],[0.336802,40.807289],[0.336792,40.807282],[0.336769,40.807271],[0.3367,40.807241],[0.336659,40.80723],[0.33662,40.807219],[0.336511,40.807215],[0.336431,40.807233],[0.336375,40.807152],[0.336373,40.806958],[0.33618,40.80677],[0.335803,40.806801],[0.335802,40.806787],[0.335796,40.806756],[0.335785,40.806726],[0.335767,40.806696],[0.335743,40.806668],[0.335708,40.806635],[0.335671,40.806604],[0.335635,40.806577],[0.335596,40.806552],[0.335559,40.806533],[0.335521,40.806514],[0.335473,40.806482],[0.335433,40.806454],[0.33538,40.80645],[0.335338,40.806448],[0.335131,40.80645],[0.335032,40.806467],[0.334882,40.806495],[0.334589,40.806573],[0.334349,40.806649],[0.334313,40.80672],[0.334317,40.806796],[0.334321,40.806885],[0.334371,40.806969],[0.334414,40.807041],[0.33447,40.807097],[0.334613,40.807104],[0.334792,40.807098],[0.334862,40.807163],[0.334946,40.807212],[0.335013,40.807303],[0.335056,40.807431],[0.334962,40.807723],[0.334935,40.807708],[0.334915,40.807699],[0.334894,40.807691],[0.334869,40.807684],[0.334843,40.807679],[0.334817,40.807675],[0.33479,40.807672],[0.334761,40.807672],[0.334732,40.807673],[0.334708,40.807676],[0.334685,40.807679],[0.334648,40.807684],[0.33461,40.807689],[0.334566,40.807694],[0.334523,40.807699],[0.334496,40.807703],[0.33447,40.807707],[0.334434,40.807712],[0.334398,40.807716],[0.334362,40.807719],[0.334326,40.807722],[0.334287,40.807726],[0.334248,40.80773],[0.334199,40.807736],[0.33415,40.807743],[0.3341,40.807754],[0.334052,40.807767],[0.334021,40.807778],[0.33399,40.807789],[0.333965,40.807798],[0.333941,40.807808],[0.333926,40.807816],[0.333912,40.807824],[0.333902,40.807822],[0.333893,40.807819],[0.33388,40.807817],[0.333866,40.807819],[0.333852,40.807821],[0.333838,40.807823],[0.33383,40.807824],[0.333822,40.807825],[0.333811,40.807826],[0.3338,40.807828],[0.333787,40.807833],[0.333779,40.807842],[0.333777,40.807847],[0.333776,40.807852],[0.333773,40.807864],[0.33377,40.807875],[0.33374,40.807946],[0.333769,40.808029],[0.333837,40.808091],[0.333883,40.808117],[0.333958,40.808141],[0.334065,40.808154],[0.334215,40.808168],[0.334355,40.808203],[0.334471,40.808242],[0.334567,40.808305],[0.334597,40.808377],[0.334608,40.808474],[0.334581,40.808555],[0.334478,40.808646],[0.334368,40.808711],[0.334262,40.808755],[0.334083,40.808776],[0.333961,40.808773],[0.333886,40.80875],[0.333773,40.808647],[0.333658,40.808566],[0.333464,40.808517],[0.333208,40.808529],[0.33309,40.808551],[0.333041,40.808596],[0.33302,40.808653],[0.333044,40.80875],[0.333142,40.808902],[0.333082,40.809299],[0.334203,40.809637],[0.334912,40.809905],[0.335649,40.809221],[0.335684,40.809023],[0.335345,40.808864],[0.33563,40.808831]]],[[[0.338351,40.809515],[0.33873,40.809222],[0.338663,40.809111],[0.338634,40.809062],[0.338629,40.809061],[0.338606,40.809059],[0.338579,40.80906],[0.338554,40.809063],[0.338526,40.809067],[0.338497,40.809072],[0.338473,40.809079],[0.338451,40.809087],[0.338428,40.809096],[0.338406,40.809106],[0.33839,40.809113],[0.338374,40.809124],[0.338364,40.809133],[0.338357,40.809134],[0.33835,40.809135],[0.338323,40.809135],[0.338296,40.809133],[0.338261,40.809131],[0.338243,40.80913],[0.338238,40.809114],[0.338227,40.809129],[0.338074,40.80912],[0.338047,40.809116],[0.33802,40.809114],[0.338,40.809115],[0.337787,40.809091],[0.337743,40.809086],[0.337612,40.809059],[0.33746,40.809014],[0.337432,40.809044],[0.337399,40.80908],[0.337334,40.809151],[0.337247,40.80911],[0.337158,40.809067],[0.337059,40.809043],[0.337021,40.80912],[0.336963,40.809234],[0.336855,40.809429],[0.336656,40.809362],[0.336613,40.809413],[0.33648,40.809568],[0.336377,40.80969],[0.336268,40.809817],[0.336505,40.809844],[0.336652,40.809868],[0.336851,40.809906],[0.337207,40.809975],[0.337333,40.809952],[0.337431,40.809881],[0.337507,40.809844],[0.337634,40.809811],[0.337756,40.809793],[0.337988,40.809772],[0.338118,40.809751],[0.338227,40.809694],[0.338308,40.809618],[0.338351,40.809515]]],[[[0.327045,40.811395],[0.327083,40.811358],[0.327339,40.811377],[0.327522,40.811428],[0.327608,40.811496],[0.327842,40.811344],[0.327878,40.811321],[0.327888,40.811236],[0.327826,40.811172],[0.327781,40.811109],[0.327772,40.811005],[0.327802,40.810884],[0.328169,40.810689],[0.328092,40.810642],[0.328068,40.810514],[0.3279,40.8104],[0.327722,40.81028],[0.327652,40.810287],[0.327485,40.810278],[0.327393,40.810273],[0.327214,40.810242],[0.327192,40.810208],[0.327176,40.81017],[0.327161,40.81013],[0.327133,40.81005],[0.327114,40.809996],[0.327075,40.809885],[0.327038,40.809774],[0.327031,40.809744],[0.327027,40.809713],[0.327027,40.80965],[0.327031,40.809618],[0.327041,40.809587],[0.327051,40.809565],[0.327061,40.809544],[0.3271,40.809477],[0.327139,40.809409],[0.327181,40.809345],[0.327227,40.809274],[0.327236,40.809263],[0.327208,40.809251],[0.3272,40.809263],[0.327199,40.809266],[0.327116,40.809237],[0.327034,40.809209],[0.326991,40.809196],[0.326953,40.809188],[0.326883,40.80918],[0.326669,40.809173],[0.326597,40.809175],[0.326526,40.809184],[0.326504,40.809191],[0.326489,40.809201],[0.326466,40.809223],[0.326434,40.809259],[0.326417,40.809273],[0.326395,40.809283],[0.326375,40.809287],[0.326337,40.809284],[0.326278,40.809274],[0.326249,40.809272],[0.326222,40.809277],[0.326179,40.809295],[0.326159,40.809307],[0.326141,40.809322],[0.326125,40.809336],[0.32612,40.809343],[0.326111,40.809361],[0.326129,40.809398],[0.326187,40.809435],[0.326268,40.809481],[0.326295,40.809492],[0.326341,40.809504],[0.326363,40.809511],[0.326383,40.809522],[0.326411,40.809547],[0.326447,40.809589],[0.326478,40.809633],[0.326502,40.809667],[0.326521,40.809702],[0.326532,40.809731],[0.326543,40.809774],[0.326547,40.809818],[0.326546,40.80986],[0.326545,40.809902],[0.326543,40.809913],[0.326542,40.809915],[0.326543,40.809918],[0.326551,40.80996],[0.326592,40.81],[0.326702,40.810066],[0.32677,40.810136],[0.326815,40.810184],[0.326851,40.810224],[0.326866,40.810306],[0.326859,40.810443],[0.326896,40.810494],[0.326946,40.810562],[0.32698,40.810623],[0.327016,40.810688],[0.327055,40.810757],[0.327059,40.810832],[0.327104,40.810883],[0.327163,40.81095],[0.32679,40.811169],[0.326741,40.811211],[0.326666,40.811346],[0.326719,40.81138],[0.326803,40.811449],[0.326844,40.811471],[0.326843,40.811492],[0.326847,40.811505],[0.326858,40.811517],[0.326877,40.811527],[0.326897,40.811531],[0.326914,40.81153],[0.326932,40.811526],[0.32695,40.811515],[0.326963,40.811502],[0.326988,40.811467],[0.327012,40.811434],[0.327045,40.811395]]],[[[0.331492,40.812208],[0.331706,40.812203],[0.33177,40.812238],[0.33181,40.812273],[0.33181,40.81228],[0.331814,40.812284],[0.331818,40.812289],[0.331838,40.812306],[0.331856,40.812324],[0.331865,40.812331],[0.33187,40.812334],[0.331875,40.812337],[0.331887,40.812341],[0.331894,40.812341],[0.331902,40.81234],[0.33191,40.81234],[0.331924,40.812336],[0.33193,40.812334],[0.331936,40.812331],[0.331943,40.812327],[0.331974,40.812307],[0.332025,40.812276],[0.332037,40.81227],[0.332051,40.812262],[0.332063,40.812257],[0.33207,40.812255],[0.332088,40.812253],[0.332102,40.81225],[0.332107,40.812247],[0.332113,40.812243],[0.332118,40.812238],[0.332123,40.812233],[0.33213,40.812224],[0.332131,40.81222],[0.332132,40.812214],[0.332132,40.812208],[0.332132,40.812202],[0.33213,40.812191],[0.332128,40.812186],[0.332125,40.81218],[0.332118,40.81217],[0.332111,40.812161],[0.332091,40.812136],[0.332058,40.8121],[0.33201,40.812039],[0.331871,40.811833],[0.331805,40.811743],[0.331759,40.811641],[0.331755,40.811601],[0.331708,40.811577],[0.331632,40.811542],[0.331566,40.81151],[0.331498,40.811478],[0.331446,40.811457],[0.331391,40.81144],[0.331357,40.811431],[0.331322,40.811426],[0.331274,40.811422],[0.331228,40.811418],[0.331181,40.811415],[0.331136,40.811412],[0.331087,40.811406],[0.331038,40.811396],[0.330969,40.811382],[0.330903,40.811364],[0.330875,40.811354],[0.330849,40.811341],[0.33081,40.811325],[0.330763,40.811283],[0.330734,40.811255],[0.33108,40.810851],[0.331001,40.810845],[0.33094,40.810827],[0.33087,40.810779],[0.330795,40.810728],[0.330711,40.810675],[0.330586,40.810586],[0.330553,40.810529],[0.330605,40.810518],[0.330658,40.810505],[0.330699,40.81049],[0.330735,40.81047],[0.330761,40.810453],[0.330785,40.810436],[0.330809,40.81042],[0.330831,40.810403],[0.330857,40.810389],[0.330884,40.810379],[0.330903,40.810375],[0.330926,40.810374],[0.330951,40.810375],[0.331005,40.810376],[0.331054,40.810373],[0.331102,40.810368],[0.331124,40.810365],[0.331147,40.810358],[0.331163,40.81035],[0.331173,40.810341],[0.331179,40.810331],[0.331185,40.810315],[0.331194,40.810289],[0.331199,40.810263],[0.3312,40.810249],[0.33121,40.810216],[0.33122,40.810192],[0.331223,40.810177],[0.331225,40.810162],[0.331229,40.810145],[0.331233,40.810128],[0.331243,40.810115],[0.331248,40.810106],[0.331252,40.810096],[0.331256,40.810086],[0.33126,40.810072],[0.33126,40.810067],[0.331366,40.809966],[0.331374,40.809898],[0.331353,40.809836],[0.331323,40.809775],[0.331183,40.809787],[0.331124,40.809792],[0.331124,40.809812],[0.331125,40.809857],[0.331093,40.809906],[0.331068,40.809925],[0.331026,40.809944],[0.330989,40.809954],[0.330969,40.80995],[0.330948,40.809939],[0.330931,40.809933],[0.330913,40.80993],[0.330897,40.809928],[0.330881,40.809928],[0.330866,40.809928],[0.33085,40.809929],[0.330804,40.809931],[0.330757,40.809933],[0.33067,40.80994],[0.330584,40.80995],[0.330487,40.809961],[0.330475,40.80995],[0.330464,40.809939],[0.330462,40.809931],[0.330469,40.809923],[0.330487,40.809916],[0.330505,40.809912],[0.330527,40.809907],[0.33055,40.809903],[0.330677,40.809815],[0.330588,40.809741],[0.330576,40.80973],[0.330566,40.809719],[0.330559,40.809715],[0.33055,40.809713],[0.33053,40.809714],[0.330512,40.809716],[0.330495,40.809723],[0.330474,40.809741],[0.330459,40.80976],[0.330445,40.809777],[0.330428,40.809797],[0.330413,40.809814],[0.330397,40.809829],[0.330382,40.809836],[0.330338,40.809843],[0.330294,40.809847],[0.330278,40.809848],[0.330262,40.80985],[0.33025,40.809854],[0.330242,40.809861],[0.330243,40.80987],[0.33025,40.809879],[0.330265,40.809889],[0.330279,40.8099],[0.330289,40.809912],[0.330297,40.809924],[0.330302,40.809937],[0.330302,40.809949],[0.330293,40.80997],[0.330285,40.809992],[0.330276,40.809995],[0.33025,40.810004],[0.330226,40.810017],[0.330195,40.810039],[0.33017,40.810065],[0.330124,40.810132],[0.33008,40.810199],[0.330036,40.810264],[0.330007,40.810294],[0.32999,40.810308],[0.32997,40.810321],[0.329956,40.810328],[0.329933,40.810334],[0.329912,40.810335],[0.329887,40.810337],[0.329878,40.81033],[0.329774,40.810321],[0.329787,40.810373],[0.329805,40.810441],[0.329823,40.81051],[0.329835,40.810533],[0.329854,40.810554],[0.329898,40.81059],[0.329923,40.810614],[0.329933,40.810628],[0.329947,40.810658],[0.329953,40.810688],[0.32995,40.810712],[0.329948,40.810722],[0.329945,40.810733],[0.329944,40.810736],[0.329935,40.810769],[0.329924,40.810789],[0.329907,40.8108],[0.329886,40.810806],[0.329864,40.810806],[0.329855,40.810804],[0.329825,40.810789],[0.329791,40.810773],[0.329764,40.810762],[0.329722,40.81075],[0.329678,40.810743],[0.329606,40.810739],[0.329535,40.810742],[0.329412,40.810756],[0.32929,40.810772],[0.329182,40.81079],[0.329074,40.810807],[0.329028,40.810813],[0.328959,40.810814],[0.32884,40.810761],[0.328772,40.81074],[0.32871,40.810754],[0.328654,40.810817],[0.328588,40.810889],[0.328765,40.811027],[0.328884,40.811003],[0.328972,40.810986],[0.329098,40.810945],[0.32918,40.810936],[0.329264,40.810968],[0.329296,40.811015],[0.329252,40.811072],[0.3292,40.811122],[0.329108,40.811197],[0.329025,40.811285],[0.328995,40.811334],[0.329079,40.811451],[0.329149,40.811537],[0.329258,40.811576],[0.329343,40.811607],[0.329415,40.811645],[0.329449,40.811672],[0.329488,40.811704],[0.329519,40.811728],[0.329579,40.811921],[0.329642,40.812126],[0.329673,40.812228],[0.329859,40.812361],[0.329997,40.81246],[0.330115,40.812556],[0.330178,40.812615],[0.330252,40.812641],[0.330364,40.81268],[0.330443,40.812699],[0.330516,40.812718],[0.330629,40.812704],[0.33069,40.812697],[0.330798,40.812636],[0.330868,40.812597],[0.330947,40.812504],[0.330975,40.812407],[0.331092,40.812301],[0.331231,40.812263],[0.331492,40.812208]]],[[[0.346988,40.816426],[0.34705,40.81635],[0.347145,40.816305],[0.347199,40.816294],[0.347266,40.816281],[0.347318,40.816271],[0.347391,40.816252],[0.347426,40.816218],[0.347429,40.816185],[0.347423,40.816157],[0.347419,40.816137],[0.34742,40.816129],[0.34741,40.816094],[0.347404,40.816073],[0.347392,40.816028],[0.347388,40.816012],[0.34738,40.815983],[0.347375,40.815967],[0.347348,40.815869],[0.347309,40.81579],[0.347251,40.81572],[0.347153,40.815664],[0.347132,40.815651],[0.347108,40.815639],[0.347078,40.815624],[0.347053,40.815611],[0.346956,40.815569],[0.347026,40.815464],[0.347038,40.815399],[0.346853,40.815356],[0.346808,40.81534],[0.346738,40.815338],[0.346657,40.815313],[0.346575,40.815271],[0.346589,40.815249],[0.346554,40.815232],[0.346492,40.815151],[0.346449,40.815057],[0.346434,40.814964],[0.346438,40.81486],[0.346483,40.814786],[0.346518,40.814739],[0.346613,40.814714],[0.346809,40.814683],[0.347019,40.814651],[0.347266,40.814612],[0.347364,40.814597],[0.347446,40.814575],[0.347549,40.81455],[0.347828,40.814535],[0.347963,40.814481],[0.348056,40.814445],[0.348137,40.81443],[0.348183,40.814422],[0.348259,40.814436],[0.348241,40.814658],[0.348221,40.81466],[0.348165,40.814667],[0.348117,40.814675],[0.348068,40.814685],[0.348012,40.8147],[0.347958,40.814717],[0.347914,40.814733],[0.347874,40.814752],[0.347833,40.814777],[0.347792,40.814802],[0.347743,40.814833],[0.347692,40.814862],[0.347616,40.814897],[0.347539,40.814933],[0.34756,40.81495],[0.347579,40.814965],[0.347834,40.815206],[0.348114,40.815231],[0.348229,40.815241],[0.348274,40.815279],[0.348349,40.81521],[0.348511,40.815164],[0.348655,40.815024],[0.348669,40.814687],[0.3487,40.814688],[0.348755,40.81469],[0.348811,40.814691],[0.348873,40.814694],[0.348936,40.814696],[0.348956,40.814696],[0.349021,40.814699],[0.349073,40.814703],[0.349127,40.814709],[0.349179,40.814713],[0.349232,40.814717],[0.349265,40.814717],[0.349297,40.814715],[0.34931,40.814714],[0.349322,40.814713],[0.349332,40.814713],[0.349342,40.814711],[0.34935,40.814709],[0.349358,40.814707],[0.349367,40.814704],[0.349376,40.814701],[0.349384,40.8147],[0.349392,40.814703],[0.3494,40.814707],[0.349408,40.814713],[0.349452,40.814743],[0.349493,40.814774],[0.349567,40.814837],[0.349641,40.814901],[0.349728,40.814974],[0.349814,40.815048],[0.349883,40.815109],[0.349951,40.81517],[0.349976,40.815191],[0.35,40.815213],[0.350012,40.815225],[0.350022,40.815238],[0.350062,40.815251],[0.350127,40.815276],[0.350192,40.815488],[0.350222,40.815582],[0.350655,40.815562],[0.350737,40.815517],[0.350756,40.815505],[0.350813,40.81547],[0.350855,40.815452],[0.350963,40.815347],[0.35103,40.815293],[0.351026,40.815262],[0.351033,40.815178],[0.350914,40.815173],[0.35075,40.815081],[0.350753,40.815051],[0.350729,40.815039],[0.350724,40.815011],[0.350587,40.814944],[0.350538,40.814993],[0.350328,40.814867],[0.350159,40.814771],[0.350069,40.814722],[0.350115,40.814693],[0.35013,40.814684],[0.350139,40.814671],[0.350144,40.814652],[0.350144,40.814635],[0.350143,40.814623],[0.35014,40.814611],[0.350136,40.814594],[0.350127,40.814577],[0.350111,40.814554],[0.350096,40.814534],[0.350081,40.814512],[0.350066,40.814489],[0.350053,40.814471],[0.350042,40.814453],[0.350032,40.814429],[0.350022,40.814404],[0.35001,40.81437],[0.349995,40.814334],[0.349978,40.814315],[0.349961,40.8143],[0.34995,40.814289],[0.349934,40.814275],[0.349915,40.814265],[0.349824,40.814269],[0.349782,40.814261],[0.349737,40.814259],[0.349672,40.814254],[0.349641,40.814253],[0.349611,40.814252],[0.349595,40.814252],[0.34958,40.814253],[0.349484,40.814229],[0.34945,40.814209],[0.349395,40.81419],[0.349383,40.814186],[0.349372,40.814183],[0.349315,40.814163],[0.34924,40.814135],[0.34916,40.814222],[0.349101,40.814271],[0.349057,40.814287],[0.348956,40.814287],[0.348857,40.814275],[0.348764,40.814246],[0.348599,40.814197],[0.348523,40.814175],[0.348471,40.814162],[0.348457,40.814163],[0.34844,40.814164],[0.348422,40.814164],[0.348391,40.814164],[0.348359,40.814163],[0.348303,40.814161],[0.348246,40.814159],[0.34818,40.814159],[0.348113,40.814163],[0.348063,40.814169],[0.348013,40.814177],[0.347977,40.814185],[0.347942,40.814196],[0.347914,40.814205],[0.347887,40.814216],[0.347859,40.81423],[0.347831,40.814243],[0.347788,40.814266],[0.347744,40.814288],[0.347679,40.814317],[0.347611,40.814344],[0.347522,40.814376],[0.347433,40.814408],[0.347379,40.814427],[0.347324,40.814445],[0.347284,40.814456],[0.347243,40.814463],[0.347182,40.814472],[0.347122,40.81448],[0.347057,40.814488],[0.346992,40.814496],[0.346948,40.814503],[0.346903,40.814511],[0.346849,40.814522],[0.346795,40.814533],[0.34676,40.81454],[0.346725,40.814544],[0.346701,40.814545],[0.346682,40.814545],[0.346663,40.814544],[0.34663,40.81454],[0.346598,40.814535],[0.346564,40.814529],[0.346531,40.814521],[0.346494,40.814511],[0.346458,40.8145],[0.346419,40.814486],[0.346377,40.814472],[0.346346,40.814466],[0.346335,40.814465],[0.346324,40.814461],[0.346312,40.814456],[0.346302,40.814452],[0.346292,40.814449],[0.346284,40.814444],[0.346277,40.814439],[0.346267,40.81443],[0.34626,40.814421],[0.346255,40.814409],[0.34625,40.814397],[0.346249,40.814392],[0.346245,40.814352],[0.346243,40.814296],[0.346241,40.814239],[0.346241,40.814181],[0.346241,40.814151],[0.346242,40.814115],[0.346269,40.814079],[0.346296,40.814033],[0.346323,40.814],[0.346394,40.813981],[0.346449,40.813982],[0.346423,40.814012],[0.346491,40.814046],[0.346526,40.814004],[0.346475,40.813979],[0.346471,40.813969],[0.346522,40.813897],[0.346501,40.813889],[0.346497,40.813853],[0.346493,40.813843],[0.346488,40.813834],[0.346477,40.813818],[0.346464,40.813802],[0.346454,40.81379],[0.346443,40.813779],[0.346432,40.813773],[0.34642,40.81377],[0.346411,40.813768],[0.346402,40.813768],[0.346393,40.813769],[0.346389,40.813738],[0.346365,40.81364],[0.346324,40.813524],[0.346262,40.813444],[0.346165,40.813356],[0.346123,40.813356],[0.346081,40.813354],[0.346054,40.813351],[0.346028,40.813347],[0.345996,40.81334],[0.345963,40.813332],[0.345932,40.813323],[0.3459,40.813315],[0.345864,40.813307],[0.345827,40.813299],[0.345784,40.813292],[0.345783,40.813236],[0.34579,40.813226],[0.345792,40.813216],[0.345789,40.813206],[0.345782,40.813196],[0.345767,40.813179],[0.345752,40.813161],[0.345727,40.813133],[0.345702,40.813104],[0.345694,40.813092],[0.345687,40.813088],[0.34568,40.813084],[0.345669,40.813082],[0.345657,40.813082],[0.345639,40.813058],[0.345643,40.813057],[0.345648,40.813056],[0.345652,40.813053],[0.345654,40.813049],[0.345657,40.813042],[0.34566,40.813034],[0.345658,40.813029],[0.345649,40.813004],[0.345642,40.812976],[0.345637,40.812949],[0.345634,40.8129],[0.345632,40.812851],[0.34504,40.812968],[0.345029,40.812934],[0.345021,40.812908],[0.345013,40.812882],[0.345005,40.81286],[0.344973,40.812745],[0.34491,40.812697],[0.344796,40.81263],[0.344556,40.812528],[0.344309,40.812454],[0.344126,40.812443],[0.343974,40.812458],[0.34395,40.812457],[0.343893,40.812465],[0.343861,40.812575],[0.343758,40.812639],[0.343639,40.812627],[0.343412,40.81265],[0.343304,40.812695],[0.343195,40.812588],[0.343063,40.812437],[0.342984,40.812321],[0.342974,40.812307],[0.342978,40.812295],[0.342981,40.812282],[0.342983,40.812263],[0.342986,40.812244],[0.342991,40.812214],[0.342998,40.812184],[0.343012,40.81214],[0.343026,40.812095],[0.343043,40.812039],[0.34306,40.811982],[0.343078,40.811919],[0.343096,40.811856],[0.34311,40.811804],[0.343124,40.811753],[0.343141,40.811696],[0.343158,40.81164],[0.343175,40.811589],[0.343193,40.811539],[0.343202,40.811517],[0.343213,40.811496],[0.34322,40.811486],[0.34323,40.811478],[0.343241,40.811472],[0.343253,40.811467],[0.343238,40.811463],[0.343212,40.811456],[0.343178,40.811447],[0.343135,40.811435],[0.343097,40.811423],[0.343018,40.811401],[0.342945,40.811382],[0.342872,40.811365],[0.342859,40.811362],[0.342825,40.811356],[0.342807,40.811352],[0.342789,40.811348],[0.342777,40.811346],[0.342722,40.811332],[0.342713,40.811329],[0.342667,40.811314],[0.34263,40.8113],[0.342606,40.81129],[0.342593,40.811285],[0.342552,40.811266],[0.342513,40.811245],[0.342464,40.811214],[0.342416,40.811183],[0.342362,40.811145],[0.342308,40.811106],[0.342269,40.811079],[0.34223,40.811052],[0.342199,40.811036],[0.342167,40.811023],[0.342131,40.811009],[0.342094,40.810996],[0.342055,40.810985],[0.342016,40.810975],[0.341982,40.810969],[0.341949,40.810965],[0.341912,40.810963],[0.341875,40.810962],[0.341832,40.810964],[0.341788,40.810967],[0.34172,40.810972],[0.341652,40.81098],[0.341594,40.810991],[0.341537,40.811003],[0.341485,40.811013],[0.341432,40.811021],[0.341397,40.811024],[0.341377,40.811024],[0.341362,40.811024],[0.341332,40.811023],[0.341321,40.811023],[0.341298,40.811021],[0.34128,40.81102],[0.341242,40.811015],[0.341206,40.811006],[0.341167,40.810991],[0.341131,40.810974],[0.341092,40.810955],[0.341054,40.810935],[0.340961,40.810882],[0.340868,40.810831],[0.340786,40.810787],[0.340704,40.810744],[0.340612,40.810695],[0.340594,40.810685],[0.340557,40.810665],[0.340525,40.810649],[0.34052,40.810646],[0.340455,40.810613],[0.340387,40.810584],[0.340312,40.810556],[0.340238,40.810527],[0.340135,40.810488],[0.340113,40.81048],[0.340058,40.810458],[0.340032,40.810448],[0.339987,40.81043],[0.339988,40.810442],[0.33999,40.810454],[0.339989,40.810464],[0.339984,40.810472],[0.33998,40.810476],[0.339977,40.81048],[0.339955,40.810487],[0.339934,40.810494],[0.33991,40.8105],[0.339886,40.810502],[0.339862,40.810501],[0.339838,40.810498],[0.339823,40.810496],[0.339809,40.810494],[0.339794,40.810493],[0.339779,40.810493],[0.339752,40.810496],[0.339725,40.810503],[0.339701,40.810512],[0.339678,40.810523],[0.339653,40.81054],[0.339632,40.810559],[0.339624,40.810572],[0.339617,40.810586],[0.339609,40.810609],[0.339602,40.810632],[0.339596,40.810654],[0.33959,40.810677],[0.339584,40.810698],[0.339579,40.810719],[0.339575,40.810745],[0.339572,40.810771],[0.33957,40.810788],[0.339568,40.810805],[0.339566,40.810819],[0.339567,40.810833],[0.339569,40.810845],[0.339574,40.810858],[0.339582,40.810876],[0.339593,40.810894],[0.339607,40.810909],[0.339621,40.810923],[0.339634,40.810937],[0.339648,40.810951],[0.339668,40.810965],[0.339691,40.810975],[0.339711,40.810982],[0.339731,40.810987],[0.339763,40.810996],[0.339795,40.811004],[0.339832,40.81101],[0.33987,40.811014],[0.339913,40.811018],[0.339957,40.811022],[0.339982,40.811023],[0.340008,40.811024],[0.34004,40.811023],[0.340071,40.811019],[0.340104,40.811015],[0.340137,40.811009],[0.340156,40.811005],[0.340174,40.811],[0.340185,40.810993],[0.340194,40.810985],[0.340453,40.81113],[0.340505,40.811238],[0.340547,40.811368],[0.34055,40.811532],[0.340542,40.811714],[0.340525,40.811737],[0.340511,40.811765],[0.340501,40.811771],[0.340492,40.811777],[0.340485,40.811782],[0.340479,40.811789],[0.340473,40.8118],[0.34047,40.811811],[0.340471,40.811818],[0.340475,40.811825],[0.340481,40.811831],[0.340488,40.811834],[0.340495,40.811836],[0.340502,40.811839],[0.340434,40.811939],[0.340533,40.811979],[0.340594,40.812012],[0.340646,40.812041],[0.340655,40.812053],[0.340664,40.812064],[0.340674,40.812076],[0.340684,40.812088],[0.340691,40.812098],[0.3407,40.812107],[0.34071,40.812115],[0.34072,40.812123],[0.34073,40.812128],[0.34074,40.812132],[0.340755,40.812136],[0.340772,40.812136],[0.340785,40.812136],[0.340798,40.812135],[0.340811,40.812134],[0.340822,40.812131],[0.340832,40.812127],[0.340841,40.812123],[0.34085,40.812121],[0.340859,40.812119],[0.340866,40.812119],[0.340872,40.81212],[0.340884,40.812121],[0.340895,40.812123],[0.340907,40.812126],[0.340916,40.812132],[0.340942,40.812153],[0.340967,40.812174],[0.341009,40.812207],[0.341052,40.812241],[0.341095,40.812277],[0.340872,40.81238],[0.340863,40.812384],[0.340736,40.812451],[0.34067,40.812486],[0.340665,40.812514],[0.340733,40.812548],[0.340734,40.812551],[0.340741,40.81256],[0.340749,40.812569],[0.340763,40.81258],[0.340775,40.812591],[0.340786,40.812608],[0.340796,40.812625],[0.340817,40.81267],[0.340837,40.812718],[0.340864,40.812747],[0.34088,40.812756],[0.340913,40.812761],[0.340947,40.812762],[0.340989,40.812754],[0.341031,40.812748],[0.341046,40.81275],[0.34106,40.812753],[0.341085,40.812766],[0.341103,40.812779],[0.3411,40.812801],[0.341096,40.81283],[0.341095,40.812843],[0.341192,40.812863],[0.341254,40.812889],[0.341355,40.81296],[0.341362,40.812986],[0.341374,40.813003],[0.341391,40.813009],[0.341411,40.81301],[0.341461,40.812997],[0.341504,40.812981],[0.341542,40.812972],[0.341561,40.812972],[0.341578,40.812972],[0.341617,40.81298],[0.341683,40.813001],[0.341729,40.812945],[0.341768,40.812877],[0.341884,40.812783],[0.34198,40.812731],[0.342099,40.81271],[0.342208,40.812713],[0.342383,40.812848],[0.342563,40.812898],[0.342919,40.813042],[0.343229,40.813408],[0.343248,40.813432],[0.343289,40.813448],[0.343343,40.81347],[0.343401,40.813494],[0.343491,40.813501],[0.343591,40.81348],[0.343649,40.813513],[0.343717,40.813553],[0.343805,40.813604],[0.34384,40.813611],[0.343871,40.813618],[0.343938,40.813633],[0.34402,40.81363],[0.344067,40.813637],[0.344145,40.81366],[0.34419,40.813667],[0.344254,40.813673],[0.344328,40.813671],[0.344421,40.813671],[0.344421,40.813706],[0.344417,40.81371],[0.34441,40.813718],[0.344403,40.813727],[0.344398,40.813731],[0.344394,40.813734],[0.344386,40.813739],[0.344378,40.813739],[0.34437,40.813739],[0.34436,40.81374],[0.344354,40.813741],[0.344347,40.813743],[0.344338,40.813748],[0.34433,40.813754],[0.344325,40.813758],[0.344321,40.813763],[0.344315,40.813773],[0.344312,40.813783],[0.344311,40.813789],[0.344312,40.813794],[0.344314,40.813805],[0.344317,40.813815],[0.344319,40.813823],[0.344324,40.813833],[0.344329,40.813842],[0.34433,40.813847],[0.344333,40.813852],[0.344336,40.813856],[0.34434,40.813861],[0.344346,40.813865],[0.344352,40.81387],[0.344358,40.813877],[0.344364,40.813883],[0.344368,40.813887],[0.344372,40.813891],[0.344378,40.813896],[0.344383,40.813901],[0.344443,40.813969],[0.344515,40.814001],[0.344605,40.814042],[0.344683,40.814077],[0.344618,40.814149],[0.344648,40.81429],[0.344541,40.814421],[0.344944,40.814746],[0.345013,40.814803],[0.345129,40.815007],[0.34513,40.815016],[0.345133,40.815023],[0.345137,40.81503],[0.345139,40.815035],[0.34514,40.815039],[0.345143,40.815047],[0.345146,40.815055],[0.345149,40.81506],[0.345154,40.815064],[0.345159,40.815068],[0.345164,40.815072],[0.345169,40.815075],[0.345175,40.815078],[0.345184,40.815083],[0.345193,40.815087],[0.345201,40.81509],[0.345209,40.815094],[0.345217,40.815098],[0.345226,40.815101],[0.34524,40.815105],[0.345255,40.815107],[0.345267,40.815109],[0.345278,40.815111],[0.345288,40.815112],[0.345294,40.815112],[0.345301,40.815112],[0.345313,40.815111],[0.345325,40.815109],[0.345333,40.815106],[0.34534,40.815102],[0.345347,40.815098],[0.345355,40.815093],[0.345363,40.815088],[0.345367,40.815084],[0.345371,40.815081],[0.345378,40.815073],[0.345382,40.815068],[0.345387,40.815063],[0.345397,40.815054],[0.345407,40.815045],[0.345421,40.815037],[0.345436,40.815028],[0.345453,40.815017],[0.345466,40.815003],[0.345474,40.81499],[0.345482,40.814976],[0.345492,40.814954],[0.345503,40.814932],[0.345516,40.814896],[0.345528,40.814861],[0.34554,40.814834],[0.345555,40.814808],[0.345567,40.814793],[0.345584,40.814779],[0.3456,40.814768],[0.345619,40.81476],[0.345644,40.814752],[0.34567,40.814748],[0.345708,40.814746],[0.345745,40.814746],[0.345787,40.814747],[0.345828,40.814749],[0.34585,40.81475],[0.345871,40.814751],[0.345878,40.814752],[0.345885,40.814753],[0.345894,40.814756],[0.3459,40.81476],[0.345903,40.814765],[0.345905,40.814771],[0.345905,40.814786],[0.345905,40.814798],[0.345906,40.814811],[0.34591,40.814824],[0.345914,40.814836],[0.345937,40.814894],[0.345958,40.81495],[0.345974,40.815001],[0.345989,40.815053],[0.345998,40.815085],[0.346005,40.815116],[0.346013,40.815151],[0.346019,40.815186],[0.346021,40.815203],[0.346024,40.815221],[0.34603,40.815248],[0.346036,40.815274],[0.346047,40.815324],[0.346057,40.815373],[0.346059,40.815392],[0.346058,40.81541],[0.346056,40.815421],[0.346052,40.815432],[0.346048,40.815439],[0.346042,40.815447],[0.346029,40.815461],[0.346016,40.815474],[0.346008,40.815481],[0.345999,40.815486],[0.345985,40.815491],[0.345971,40.815494],[0.345948,40.815496],[0.345922,40.815498],[0.345883,40.8155],[0.345844,40.815502],[0.345746,40.815507],[0.345649,40.815511],[0.345525,40.815517],[0.3454,40.815524],[0.345333,40.815526],[0.345265,40.815526],[0.345237,40.815525],[0.345208,40.815522],[0.345185,40.815517],[0.345162,40.815511],[0.345142,40.815506],[0.345122,40.815498],[0.345113,40.815493],[0.345101,40.815487],[0.345081,40.815475],[0.345053,40.815458],[0.345026,40.815441],[0.345003,40.815423],[0.344983,40.815403],[0.344961,40.815374],[0.34494,40.815345],[0.344913,40.815305],[0.344886,40.815265],[0.344867,40.815237],[0.344847,40.815209],[0.344819,40.815172],[0.344789,40.815135],[0.34476,40.815102],[0.344727,40.81507],[0.344697,40.815046],[0.344666,40.815022],[0.344641,40.815006],[0.344616,40.81499],[0.34459,40.814975],[0.344562,40.814961],[0.344534,40.81495],[0.344505,40.814941],[0.344486,40.814935],[0.344467,40.814931],[0.344451,40.814929],[0.344435,40.814928],[0.344416,40.814927],[0.344396,40.814927],[0.344375,40.81493],[0.344354,40.814933],[0.344331,40.814937],[0.344308,40.814942],[0.344283,40.81495],[0.344259,40.814958],[0.344227,40.814971],[0.344196,40.814984],[0.344162,40.814998],[0.344136,40.815008],[0.344137,40.815032],[0.344165,40.815379],[0.344219,40.815848],[0.344581,40.81586],[0.344591,40.815863],[0.344609,40.815865],[0.344649,40.81587],[0.344662,40.815873],[0.344675,40.815876],[0.344688,40.815879],[0.344701,40.815882],[0.344706,40.815883],[0.344744,40.815894],[0.344773,40.815902],[0.344803,40.81591],[0.34483,40.815917],[0.344857,40.815924],[0.344874,40.815932],[0.344891,40.815939],[0.34491,40.815947],[0.344929,40.815955],[0.344955,40.815963],[0.344982,40.815966],[0.345005,40.815967],[0.345027,40.815968],[0.345043,40.815969],[0.345059,40.815971],[0.345075,40.815976],[0.345111,40.815986],[0.345229,40.815986],[0.345209,40.816354],[0.345373,40.816355],[0.346295,40.816358],[0.346372,40.816447],[0.346454,40.816541],[0.346554,40.816657],[0.346619,40.816713],[0.346704,40.816786],[0.346754,40.816829],[0.346799,40.816867],[0.346857,40.81689],[0.346953,40.816929],[0.34705,40.81697],[0.347133,40.817005],[0.347231,40.816955],[0.347231,40.816909],[0.347193,40.816823],[0.347155,40.816756],[0.347111,40.81672],[0.347061,40.816679],[0.347058,40.816676],[0.347043,40.816629],[0.347029,40.816559],[0.347023,40.816526],[0.346988,40.816426]]]]}},{"type":"Feature","id":"430081_430081 AP03 BEB 2","properties":{"area_id":"430081_430081 AP03 BEB 2","nom":"el Toscar","codi_icgc":"430081 AP03 BEB 2","categoria":"Àrees de poblament","codi_municipi":"430081","municipi":"Alfara de Carles","codi_comarca":"09","comarca":"Baix Ebre","provincia":"Tarragona","font":"ICGC Àrees de poblament v3r1 202602"},"geometry":{"type":"MultiPolygon","coordinates":[[[[0.355985,40.846692],[0.355946,40.846679],[0.355888,40.846664],[0.355829,40.846654],[0.355778,40.846648],[0.355726,40.846644],[0.355689,40.846646],[0.355652,40.84665],[0.355603,40.846658],[0.355555,40.846667],[0.355505,40.846673],[0.355456,40.846673],[0.355397,40.84667],[0.355339,40.846664],[0.355278,40.84666],[0.35525,40.846656],[0.355223,40.846648],[0.355193,40.846636],[0.355163,40.846624],[0.355146,40.846615],[0.355094,40.846537],[0.355035,40.84645],[0.355027,40.84635],[0.35504,40.846183],[0.355066,40.846001],[0.355074,40.845791],[0.355048,40.845657],[0.35495,40.845436],[0.35488,40.845296],[0.354792,40.845137],[0.354715,40.845042],[0.354603,40.844863],[0.354627,40.84473],[0.354713,40.844617],[0.354804,40.844543],[0.355002,40.844438],[0.355231,40.844362],[0.35541,40.844295],[0.35557,40.844203],[0.35563,40.844164],[0.35564,40.844114],[0.355621,40.844029],[0.355605,40.844015],[0.355555,40.843981],[0.3555,40.843976],[0.35537,40.843988],[0.355275,40.84401],[0.355152,40.844055],[0.355071,40.844099],[0.355041,40.844116],[0.355023,40.844141],[0.355002,40.844166],[0.354964,40.84421],[0.354923,40.844253],[0.35489,40.844279],[0.354851,40.844302],[0.354822,40.844313],[0.354823,40.844311],[0.354835,40.844298],[0.354848,40.844284],[0.354861,40.844269],[0.354878,40.844241],[0.354883,40.844212],[0.35488,40.844161],[0.354877,40.844111],[0.354874,40.844064],[0.354871,40.844017],[0.354871,40.843978],[0.354874,40.843939],[0.35488,40.843896],[0.354886,40.843853],[0.354886,40.843823],[0.354877,40.843756],[0.354867,40.84369],[0.35486,40.84364],[0.354853,40.843589],[0.35485,40.843556],[0.354778,40.843501],[0.354705,40.843461],[0.354585,40.843413],[0.354446,40.843353],[0.35431,40.843318],[0.354134,40.843302],[0.354021,40.843323],[0.353998,40.843326],[0.353975,40.843333],[0.353946,40.843341],[0.353917,40.843348],[0.353898,40.843352],[0.353879,40.843356],[0.353853,40.843363],[0.353827,40.843371],[0.353783,40.843374],[0.353737,40.843378],[0.353698,40.843386],[0.353661,40.843401],[0.353638,40.843415],[0.353622,40.84343],[0.35361,40.843445],[0.353586,40.843472],[0.35357,40.843484],[0.353552,40.843494],[0.35354,40.843497],[0.353507,40.843498],[0.353473,40.843496],[0.353436,40.843492],[0.353399,40.843489],[0.353312,40.843491],[0.353227,40.843499],[0.353151,40.84351],[0.353076,40.843527],[0.353051,40.843536],[0.353029,40.843547],[0.352988,40.843574],[0.352977,40.843585],[0.352965,40.843596],[0.352951,40.843621],[0.352949,40.843639],[0.352959,40.843673],[0.352971,40.843705],[0.352985,40.843738],[0.353003,40.84377],[0.353028,40.8438],[0.353052,40.843829],[0.353063,40.843846],[0.353067,40.843862],[0.353063,40.843877],[0.353055,40.843894],[0.353034,40.843929],[0.353014,40.843961],[0.352994,40.843993],[0.35298,40.844019],[0.352967,40.844043],[0.352955,40.844056],[0.35294,40.844067],[0.352901,40.844085],[0.35284,40.844108],[0.352779,40.844132],[0.352711,40.844166],[0.352645,40.844202],[0.352515,40.844216],[0.352395,40.844202],[0.352377,40.844202],[0.352365,40.844201],[0.352354,40.844204],[0.352345,40.844212],[0.352339,40.844221],[0.352333,40.844229],[0.352324,40.844236],[0.352312,40.84424],[0.352299,40.844242],[0.352287,40.844244],[0.352274,40.844246],[0.352268,40.844248],[0.352265,40.844252],[0.352265,40.844254],[0.352266,40.844262],[0.352265,40.844267],[0.352254,40.844272],[0.352243,40.844278],[0.352163,40.844244],[0.352083,40.844211],[0.352007,40.844183],[0.351929,40.844158],[0.351884,40.844147],[0.351838,40.844138],[0.351746,40.844125],[0.351706,40.844122],[0.351666,40.844122],[0.351639,40.844125],[0.351553,40.844142],[0.351469,40.844161],[0.351399,40.844177],[0.351338,40.844192],[0.351334,40.844194],[0.351304,40.844192],[0.351271,40.844189],[0.351235,40.84419],[0.351202,40.844199],[0.351155,40.844218],[0.351109,40.844238],[0.351066,40.844255],[0.351022,40.844276],[0.350794,40.844285],[0.350814,40.844432],[0.351349,40.844392],[0.351393,40.844411],[0.351418,40.844426],[0.351446,40.84445],[0.351473,40.844475],[0.351517,40.844521],[0.351563,40.844567],[0.351609,40.844603],[0.351659,40.844633],[0.351757,40.844685],[0.351855,40.844734],[0.351924,40.844767],[0.351997,40.844797],[0.352026,40.844803],[0.352055,40.844805],[0.35211,40.844809],[0.352151,40.844816],[0.352191,40.844826],[0.352285,40.844857],[0.352379,40.844891],[0.352472,40.844926],[0.352566,40.844961],[0.352661,40.844993],[0.35276,40.845019],[0.352863,40.845038],[0.352967,40.845052],[0.353047,40.84506],[0.353128,40.845066],[0.353166,40.845209],[0.352891,40.845326],[0.353065,40.84554],[0.353357,40.845384],[0.353407,40.84544],[0.353471,40.845508],[0.353535,40.845577],[0.353548,40.845599],[0.353558,40.845623],[0.353573,40.845676],[0.353586,40.84571],[0.353615,40.845763],[0.353647,40.845815],[0.353675,40.845847],[0.353695,40.845863],[0.353722,40.845882],[0.353748,40.8459],[0.353787,40.84593],[0.353866,40.846002],[0.353906,40.846043],[0.353933,40.846078],[0.353919,40.846093],[0.35387,40.846149],[0.353719,40.846191],[0.353672,40.84621],[0.353631,40.84622],[0.353658,40.846281],[0.353695,40.846289],[0.353729,40.846298],[0.353762,40.846304],[0.353952,40.846473],[0.354074,40.846394],[0.35412,40.846404],[0.354167,40.846414],[0.354171,40.846415],[0.354193,40.846417],[0.35422,40.846415],[0.354229,40.846417],[0.354238,40.846418],[0.35426,40.846422],[0.354282,40.846427],[0.354284,40.846429],[0.35431,40.846459],[0.354339,40.84649],[0.354373,40.846516],[0.354412,40.846537],[0.35446,40.846558],[0.354506,40.846578],[0.354578,40.846606],[0.354678,40.846644],[0.354724,40.846661],[0.35478,40.846681],[0.354866,40.846712],[0.354952,40.846743],[0.354996,40.846763],[0.355034,40.846787],[0.355058,40.846806],[0.355099,40.846848],[0.355136,40.846893],[0.355155,40.846917],[0.35517,40.846942],[0.355197,40.847014],[0.355204,40.847039],[0.355233,40.84704],[0.355673,40.847055],[0.355695,40.847059],[0.35597,40.847082],[0.356225,40.847088],[0.356511,40.847109],[0.356565,40.846946],[0.356155,40.846921],[0.356152,40.84689],[0.356143,40.846863],[0.356125,40.846823],[0.3561,40.846785],[0.356077,40.846758],[0.356037,40.846721],[0.356013,40.846705],[0.355985,40.846692]]]]}},{"type":"Feature","id":"430081_430081 AP02 BEB 2","properties":{"area_id":"430081_430081 AP02 BEB 2","nom":"la Vall Cervera","codi_icgc":"430081 AP02 BEB 2","categoria":"Àrees de poblament","codi_municipi":"430081","municipi":"Alfara de Carles","codi_comarca":"09","comarca":"Baix Ebre","provincia":"Tarragona","font":"ICGC Àrees de poblament v3r1 202602"},"geometry":{"type":"MultiPolygon","coordinates":[[[[0.406162,40.852008],[0.40603,40.852029],[0.405872,40.852054],[0.405715,40.85206],[0.405459,40.852012],[0.405298,40.85196],[0.405269,40.851951],[0.405257,40.852036],[0.405058,40.851998],[0.404952,40.851972],[0.404828,40.851935],[0.404729,40.851895],[0.404631,40.851845],[0.404494,40.851804],[0.404327,40.851753],[0.404133,40.851724],[0.403948,40.851723],[0.403717,40.851739],[0.403528,40.851756],[0.403346,40.851788],[0.403156,40.851848],[0.40298,40.851925],[0.40301,40.852002],[0.403018,40.852022],[0.403054,40.852024],[0.403139,40.852032],[0.403232,40.852042],[0.403325,40.852051],[0.403363,40.852053],[0.403401,40.852052],[0.403475,40.852051],[0.403506,40.85206],[0.403538,40.852068],[0.40363,40.852087],[0.403693,40.852096],[0.403718,40.852096],[0.403744,40.852097],[0.403794,40.852105],[0.403874,40.852118],[0.403952,40.852134],[0.404,40.852151],[0.404024,40.852163],[0.404069,40.852193],[0.404114,40.852223],[0.40415,40.852248],[0.40419,40.85227],[0.404243,40.852291],[0.404295,40.85231],[0.404363,40.852336],[0.404433,40.85236],[0.404468,40.852365],[0.404501,40.852367],[0.404568,40.85237],[0.404657,40.852378],[0.404745,40.852385],[0.404772,40.85239],[0.404797,40.852398],[0.404846,40.85242],[0.404877,40.852438],[0.404911,40.852459],[0.404946,40.852482],[0.404974,40.852494],[0.40508,40.852514],[0.405186,40.85253],[0.405234,40.852536],[0.405279,40.852545],[0.405292,40.85255],[0.405302,40.852556],[0.405319,40.852567],[0.405336,40.852577],[0.405361,40.85259],[0.405389,40.852598],[0.405445,40.852611],[0.405483,40.85262],[0.405524,40.852627],[0.405552,40.852623],[0.405646,40.852595],[0.405737,40.852566],[0.405826,40.852541],[0.405916,40.852517],[0.405951,40.85251],[0.405986,40.852506],[0.40601,40.852508],[0.406036,40.852513],[0.406091,40.852527],[0.40613,40.852532],[0.406184,40.852532],[0.40624,40.852528],[0.406276,40.852522],[0.40632,40.852512],[0.406361,40.852501],[0.406388,40.852496],[0.406428,40.852495],[0.406481,40.852611],[0.406552,40.852731],[0.406688,40.852734],[0.406835,40.852723],[0.406982,40.852694],[0.407143,40.852638],[0.407306,40.852556],[0.407431,40.852487],[0.407491,40.85241],[0.407529,40.852283],[0.407492,40.852124],[0.407542,40.852106],[0.407587,40.852092],[0.407622,40.85208],[0.40767,40.852069],[0.407752,40.852049],[0.407829,40.852025],[0.407901,40.851993],[0.407946,40.851968],[0.408016,40.851922],[0.408086,40.851877],[0.408201,40.851809],[0.408316,40.851739],[0.408371,40.851698],[0.408423,40.851656],[0.408523,40.85157],[0.40863,40.851476],[0.408733,40.851381],[0.408836,40.851281],[0.408939,40.851182],[0.408998,40.851126],[0.409057,40.85107],[0.409117,40.851021],[0.409179,40.850973],[0.409217,40.850937],[0.409263,40.850888],[0.409307,40.850838],[0.409366,40.850772],[0.409426,40.850705],[0.409475,40.850645],[0.409482,40.850638],[0.4095,40.850612],[0.409531,40.850567],[0.40956,40.850516],[0.409586,40.850465],[0.409606,40.850432],[0.409689,40.850324],[0.409778,40.850218],[0.409753,40.850205],[0.409309,40.849969],[0.409107,40.85016],[0.408947,40.85008],[0.40886,40.850059],[0.408765,40.850085],[0.408678,40.850207],[0.408414,40.850596],[0.40829,40.850668],[0.408135,40.850724],[0.407953,40.85075],[0.407678,40.850761],[0.407514,40.850746],[0.407361,40.850742],[0.407278,40.85077],[0.407003,40.850826],[0.406851,40.850865],[0.406703,40.850908],[0.406641,40.850942],[0.406507,40.8511],[0.406488,40.851071],[0.406449,40.851018],[0.406417,40.850975],[0.40638,40.850932],[0.406359,40.850918],[0.406335,40.850908],[0.4063,40.850896],[0.406265,40.850884],[0.406256,40.85088],[0.406244,40.850867],[0.406228,40.850841],[0.406217,40.850828],[0.406201,40.850816],[0.406173,40.850802],[0.406133,40.850787],[0.406111,40.850783],[0.406088,40.850781],[0.406037,40.85079],[0.40602,40.850795],[0.405989,40.850805],[0.405949,40.850824],[0.405909,40.850843],[0.405881,40.850854],[0.405851,40.850865],[0.405817,40.850875],[0.405786,40.850879],[0.405759,40.850874],[0.405731,40.850862],[0.405669,40.850832],[0.405608,40.850799],[0.405577,40.850779],[0.405548,40.850757],[0.40552,40.850757],[0.405485,40.850761],[0.405433,40.850767],[0.405396,40.850774],[0.405344,40.85079],[0.405294,40.850807],[0.405236,40.850831],[0.405208,40.850843],[0.405178,40.850853],[0.405147,40.850859],[0.4051,40.850861],[0.405052,40.850862],[0.404925,40.850857],[0.404797,40.850851],[0.404775,40.850854],[0.404745,40.850864],[0.404718,40.85087],[0.404708,40.85087],[0.404689,40.850865],[0.404667,40.850862],[0.404646,40.850865],[0.404618,40.850874],[0.40459,40.850885],[0.404579,40.850894],[0.404571,40.8509],[0.404561,40.850904],[0.404552,40.850904],[0.40453,40.850896],[0.40449,40.850878],[0.404468,40.850872],[0.404446,40.850872],[0.404419,40.850879],[0.404394,40.850889],[0.404371,40.850903],[0.40436,40.850909],[0.40435,40.850912],[0.404303,40.85092],[0.404293,40.850922],[0.404293,40.850906],[0.404235,40.850905],[0.404234,40.850916],[0.404202,40.850918],[0.40417,40.850921],[0.404109,40.850928],[0.404048,40.850939],[0.404007,40.850949],[0.40397,40.850964],[0.403947,40.850977],[0.40392,40.851],[0.40391,40.851011],[0.403903,40.851023],[0.403897,40.851048],[0.403897,40.851066],[0.403898,40.851082],[0.4039,40.851098],[0.403903,40.851112],[0.40398,40.851159],[0.404135,40.85121],[0.40444,40.851279],[0.404501,40.851296],[0.404802,40.85132],[0.40494,40.851323],[0.405034,40.85133],[0.405083,40.851355],[0.405113,40.851394],[0.405135,40.851464],[0.405186,40.851457],[0.4053,40.851422],[0.405446,40.851397],[0.405581,40.851633],[0.405724,40.851665],[0.405936,40.851689],[0.406099,40.851697],[0.406312,40.851712],[0.406301,40.851821],[0.406287,40.851883],[0.406186,40.85188],[0.406184,40.851942],[0.406184,40.85201],[0.406162,40.852008]]]]}}]}