{"type":"FeatureCollection","name":"ICGC Àrees de poblament - Albinyana","features":[{"type":"Feature","id":"430022_430022 AP01 BPE 3","properties":{"area_id":"430022_430022 AP01 BPE 3","nom":"Albinyana","codi_icgc":"430022 AP01 BPE 3","categoria":"Àrees de poblament","codi_municipi":"430022","municipi":"Albinyana","codi_comarca":"12","comarca":"Baix Penedès","provincia":"Tarragona","font":"ICGC Àrees de poblament v3r1 202602"},"geometry":{"type":"MultiPolygon","coordinates":[[[[1.490738,41.246692],[1.490669,41.246418],[1.490645,41.246343],[1.490567,41.246352],[1.489957,41.246384],[1.489919,41.246389],[1.489911,41.246262],[1.489956,41.246263],[1.490001,41.246263],[1.490002,41.246251],[1.490008,41.246193],[1.48995,41.246189],[1.489953,41.246174],[1.489964,41.246107],[1.489964,41.24609],[1.489843,41.246083],[1.489697,41.24607],[1.489757,41.245921],[1.489764,41.245889],[1.489971,41.245857],[1.49013,41.245819],[1.490101,41.245688],[1.490944,41.245493],[1.490958,41.24549],[1.491061,41.245732],[1.491438,41.245622],[1.49166,41.24605],[1.491702,41.246023],[1.491757,41.245985],[1.491802,41.245943],[1.49187,41.245996],[1.491879,41.246002],[1.491884,41.245998],[1.492436,41.246391],[1.492893,41.24605],[1.492894,41.24605],[1.492926,41.246087],[1.492983,41.246154],[1.493358,41.246604],[1.493551,41.246622],[1.493679,41.246629],[1.493812,41.246678],[1.494131,41.246771],[1.494312,41.246731],[1.494303,41.24668],[1.494195,41.246565],[1.494185,41.246555],[1.494133,41.246502],[1.494097,41.246465],[1.49401,41.246375],[1.493917,41.246279],[1.493888,41.246249],[1.493824,41.246182],[1.493781,41.24614],[1.49371,41.246079],[1.493636,41.246019],[1.493566,41.245965],[1.493483,41.245913],[1.49337,41.245866],[1.493267,41.245838],[1.493187,41.24582],[1.493129,41.245807],[1.492541,41.245648],[1.492725,41.245432],[1.492907,41.24523],[1.493497,41.244999],[1.493688,41.244948],[1.493966,41.244839],[1.49403,41.244792],[1.494188,41.244625],[1.494312,41.24455],[1.49434,41.244533],[1.494501,41.244437],[1.494626,41.244342],[1.494872,41.244255],[1.495094,41.244192],[1.495111,41.244163],[1.494728,41.243621],[1.494857,41.24354],[1.49459,41.243137],[1.494301,41.243293],[1.494207,41.243339],[1.493535,41.243665],[1.493347,41.24354],[1.493338,41.243546],[1.493217,41.243625],[1.493166,41.243646],[1.493013,41.243709],[1.492957,41.243748],[1.492534,41.243977],[1.492325,41.243763],[1.492314,41.243768],[1.492834,41.24349],[1.4926,41.243213],[1.491703,41.243704],[1.491964,41.243956],[1.492134,41.24387],[1.492326,41.244084],[1.491521,41.244512],[1.491033,41.24391],[1.490737,41.24347],[1.490712,41.243478],[1.490479,41.243623],[1.490314,41.243685],[1.490049,41.243532],[1.48982,41.243641],[1.489985,41.244162],[1.489974,41.244354],[1.490015,41.244691],[1.489825,41.244717],[1.489522,41.244778],[1.489356,41.244811],[1.489297,41.24457],[1.489256,41.2444],[1.488965,41.24444],[1.488972,41.244585],[1.488998,41.245083],[1.488798,41.244993],[1.488258,41.244731],[1.488,41.244605],[1.487852,41.244565],[1.487752,41.24455],[1.487668,41.244547],[1.487459,41.244545],[1.487326,41.244544],[1.487193,41.244556],[1.487128,41.244231],[1.486937,41.244223],[1.486925,41.244137],[1.486855,41.244121],[1.486657,41.244107],[1.48641,41.244099],[1.486271,41.24399],[1.486267,41.243694],[1.486493,41.243553],[1.486436,41.243312],[1.486374,41.243079],[1.486024,41.243145],[1.486059,41.243336],[1.486101,41.243642],[1.486064,41.243649],[1.485835,41.243665],[1.485615,41.243698],[1.485541,41.243738],[1.485518,41.243716],[1.485479,41.243659],[1.485431,41.243557],[1.485429,41.243524],[1.485427,41.243484],[1.485412,41.2433],[1.485421,41.243186],[1.48552,41.24313],[1.48551,41.243024],[1.485442,41.243032],[1.48544,41.242914],[1.485431,41.242833],[1.485405,41.242745],[1.485375,41.242713],[1.485249,41.242577],[1.484914,41.242447],[1.484581,41.242371],[1.4845,41.242535],[1.48457,41.242563],[1.48442,41.24262],[1.48445,41.242839],[1.484454,41.242877],[1.484738,41.242913],[1.48488,41.24293],[1.484968,41.242932],[1.485166,41.242936],[1.485162,41.242972],[1.485158,41.243106],[1.484626,41.243189],[1.484719,41.243478],[1.485307,41.243349],[1.485307,41.243354],[1.485318,41.243467],[1.485323,41.243531],[1.485323,41.243574],[1.485424,41.243724],[1.485427,41.243731],[1.485426,41.243786],[1.485421,41.243799],[1.485364,41.243824],[1.485297,41.243843],[1.485237,41.243848],[1.485181,41.243837],[1.485121,41.243814],[1.485031,41.243801],[1.48496,41.243813],[1.484883,41.243837],[1.484842,41.243858],[1.48488,41.243894],[1.48496,41.243986],[1.485054,41.244092],[1.485169,41.24408],[1.485248,41.244077],[1.485341,41.244078],[1.485402,41.244062],[1.485475,41.244223],[1.48555,41.244269],[1.485611,41.244304],[1.485625,41.244301],[1.485728,41.244506],[1.485769,41.244588],[1.48583,41.244756],[1.485732,41.244785],[1.48575,41.244826],[1.485842,41.245027],[1.485885,41.245119],[1.485845,41.24513],[1.48584,41.245125],[1.485784,41.245147],[1.485832,41.245209],[1.485814,41.245328],[1.485815,41.245359],[1.485828,41.245403],[1.48587,41.245573],[1.485771,41.245563],[1.485728,41.245562],[1.485673,41.245566],[1.485611,41.245581],[1.485482,41.245619],[1.485349,41.245659],[1.48529,41.245677],[1.485207,41.24551],[1.485176,41.245477],[1.485163,41.245458],[1.485142,41.245428],[1.485056,41.245459],[1.484988,41.245484],[1.484816,41.245433],[1.484687,41.245394],[1.484714,41.245294],[1.484715,41.245235],[1.484561,41.245198],[1.484533,41.245198],[1.484374,41.245172],[1.484028,41.245114],[1.483817,41.244631],[1.4837,41.244623],[1.483216,41.24466],[1.482975,41.24469],[1.482655,41.244731],[1.482604,41.2448],[1.482637,41.24502],[1.482569,41.245016],[1.482597,41.245172],[1.482609,41.245247],[1.482507,41.24527],[1.482269,41.245311],[1.482154,41.245346],[1.482172,41.245424],[1.48227,41.245417],[1.48259,41.245399],[1.482658,41.245383],[1.483231,41.245294],[1.483374,41.245296],[1.483511,41.245362],[1.483546,41.245378],[1.483897,41.245453],[1.484199,41.245517],[1.484309,41.24554],[1.484519,41.245597],[1.484688,41.245664],[1.484854,41.245726],[1.48495,41.245803],[1.485051,41.245872],[1.485231,41.245911],[1.485452,41.245927],[1.485612,41.245955],[1.485727,41.246002],[1.48591,41.246135],[1.48592,41.246163],[1.485935,41.246217],[1.48596,41.246257],[1.485965,41.246326],[1.486026,41.246328],[1.486068,41.246329],[1.48609,41.246347],[1.486091,41.246357],[1.486268,41.246346],[1.48627,41.246393],[1.486435,41.24639],[1.486586,41.246367],[1.486591,41.246361],[1.486663,41.246349],[1.486678,41.246387],[1.486691,41.246416],[1.486717,41.246449],[1.486736,41.246463],[1.486892,41.246434],[1.486956,41.246327],[1.487188,41.24633],[1.487206,41.24632],[1.487276,41.246286],[1.487291,41.24628],[1.487333,41.246264],[1.487343,41.246284],[1.487394,41.246282],[1.487463,41.246388],[1.487471,41.246386],[1.487506,41.246438],[1.487525,41.246465],[1.487548,41.246461],[1.487626,41.246487],[1.487731,41.246523],[1.488035,41.246654],[1.488165,41.246709],[1.488144,41.246757],[1.488362,41.246735],[1.488495,41.246702],[1.488519,41.246696],[1.488538,41.246695],[1.48855,41.246717],[1.488669,41.246703],[1.48866,41.24657],[1.488736,41.246559],[1.488869,41.246541],[1.489069,41.246508],[1.489325,41.246471],[1.48948,41.246445],[1.489585,41.246436],[1.489831,41.24643],[1.490046,41.246433],[1.490073,41.246436],[1.490262,41.246514],[1.490331,41.24671],[1.490356,41.246749],[1.490436,41.246768],[1.490761,41.246804],[1.490771,41.246791],[1.490738,41.246692]]]]}},{"type":"Feature","id":"430022_430022 AP05 BPE 1","properties":{"area_id":"430022_430022 AP05 BPE 1","nom":"Bonaterra I","codi_icgc":"430022 AP05 BPE 1","categoria":"Àrees de poblament","codi_municipi":"430022","municipi":"Albinyana","codi_comarca":"12","comarca":"Baix Penedès","provincia":"Tarragona","font":"ICGC Àrees de poblament v3r1 202602"},"geometry":{"type":"MultiPolygon","coordinates":[[[[1.525771,41.241562],[1.525786,41.241536],[1.525799,41.241543],[1.525832,41.241455],[1.525895,41.241351],[1.525913,41.241318],[1.52597,41.24121],[1.526025,41.241108],[1.525971,41.241079],[1.525809,41.240994],[1.525774,41.240975],[1.525726,41.24095],[1.525417,41.240786],[1.525222,41.240683],[1.525158,41.240687],[1.525087,41.240641],[1.52507,41.240598],[1.524867,41.240494],[1.52452,41.240318],[1.524372,41.240243],[1.524364,41.240239],[1.524326,41.240227],[1.524286,41.24022],[1.524244,41.24022],[1.524203,41.240224],[1.524164,41.240234],[1.524128,41.24025],[1.524096,41.24027],[1.524062,41.240314],[1.524009,41.240384],[1.523921,41.240498],[1.523886,41.240546],[1.523879,41.240556],[1.523878,41.240556],[1.523833,41.240617],[1.523648,41.240861],[1.523646,41.240864],[1.523465,41.241103],[1.523386,41.241207],[1.523126,41.24155],[1.523087,41.241602],[1.522968,41.241759],[1.522996,41.241763],[1.52298,41.241785],[1.523053,41.241793],[1.523243,41.241814],[1.523375,41.241825],[1.523404,41.241828],[1.523983,41.241877],[1.523976,41.242242],[1.524258,41.242198],[1.524345,41.242182],[1.524614,41.242122],[1.524731,41.242093],[1.524988,41.242023],[1.525028,41.242016],[1.525517,41.241922],[1.52562,41.241899],[1.525601,41.241842],[1.525619,41.241828],[1.525643,41.241794],[1.525662,41.241762],[1.525716,41.241662],[1.525771,41.241562]]]]}},{"type":"Feature","id":"430022_430022 AP04 BPE 3","properties":{"area_id":"430022_430022 AP04 BPE 3","nom":"Bonaterra II","codi_icgc":"430022 AP04 BPE 3","categoria":"Àrees de poblament","codi_municipi":"430022","municipi":"Albinyana","codi_comarca":"12","comarca":"Baix Penedès","provincia":"Tarragona","font":"ICGC Àrees de poblament v3r1 202602"},"geometry":{"type":"MultiPolygon","coordinates":[[[[1.526507,41.250353],[1.526552,41.250328],[1.5267,41.2502],[1.526749,41.250158],[1.526964,41.249966],[1.527001,41.249934],[1.52702,41.249904],[1.527236,41.249663],[1.527246,41.249653],[1.527395,41.249499],[1.527575,41.249315],[1.527651,41.249235],[1.527657,41.249228],[1.527722,41.249181],[1.527768,41.24915],[1.527811,41.249114],[1.528006,41.248887],[1.528091,41.248787],[1.52823,41.248583],[1.528255,41.248546],[1.528295,41.248471],[1.528375,41.248319],[1.528394,41.248284],[1.528397,41.248278],[1.528445,41.248188],[1.528541,41.248026],[1.528556,41.248001],[1.528546,41.247997],[1.528613,41.247877],[1.528691,41.247737],[1.528711,41.247681],[1.528779,41.247491],[1.528822,41.247367],[1.528825,41.247323],[1.528836,41.247142],[1.528834,41.247136],[1.528815,41.247083],[1.528753,41.247007],[1.52861,41.246929],[1.528605,41.246927],[1.528581,41.246918],[1.52857,41.246914],[1.528578,41.246908],[1.528535,41.246899],[1.528531,41.246908],[1.528307,41.24687],[1.528217,41.246861],[1.528187,41.246858],[1.527949,41.246831],[1.527702,41.246823],[1.527616,41.246821],[1.527452,41.246816],[1.527271,41.246839],[1.527036,41.246855],[1.526957,41.246858],[1.526433,41.246861],[1.526433,41.246861],[1.526433,41.246861],[1.526433,41.246861],[1.526185,41.246861],[1.526118,41.246862],[1.525787,41.246848],[1.525781,41.246847],[1.525785,41.246915],[1.525681,41.246876],[1.525575,41.246868],[1.525383,41.246711],[1.525352,41.246479],[1.525351,41.246478],[1.525236,41.24634],[1.525176,41.246268],[1.525019,41.246026],[1.525161,41.245858],[1.524837,41.245694],[1.524839,41.245687],[1.52485,41.245673],[1.524868,41.245644],[1.524895,41.245595],[1.524918,41.245546],[1.524942,41.245491],[1.524963,41.245439],[1.524978,41.245382],[1.524986,41.245325],[1.524988,41.245261],[1.524989,41.245242],[1.524992,41.245198],[1.524998,41.245125],[1.525008,41.245052],[1.525019,41.245005],[1.525077,41.244799],[1.525096,41.244733],[1.525252,41.244235],[1.525277,41.244156],[1.525296,41.244159],[1.52557,41.244211],[1.525574,41.244213],[1.525657,41.244228],[1.525871,41.243857],[1.526032,41.243504],[1.526091,41.243519],[1.526193,41.243546],[1.526252,41.243421],[1.526317,41.243286],[1.526265,41.243183],[1.52626,41.243173],[1.526277,41.243133],[1.526294,41.243093],[1.526318,41.243034],[1.52635,41.242943],[1.52638,41.242852],[1.526412,41.24274],[1.526438,41.242627],[1.526447,41.242564],[1.526455,41.242471],[1.526465,41.242377],[1.526489,41.242278],[1.526501,41.242228],[1.526508,41.242179],[1.526509,41.242168],[1.526327,41.242127],[1.52598,41.242183],[1.525844,41.242186],[1.525776,41.242186],[1.52567,41.242202],[1.525633,41.242208],[1.525561,41.24221],[1.525561,41.242198],[1.525421,41.242199],[1.525363,41.242205],[1.525314,41.242205],[1.525189,41.242211],[1.525177,41.242212],[1.525116,41.242221],[1.525118,41.242234],[1.525072,41.242248],[1.524996,41.24227],[1.524965,41.24228],[1.524761,41.24234],[1.524623,41.242374],[1.524595,41.242378],[1.523961,41.242462],[1.523945,41.242465],[1.523874,41.242475],[1.523769,41.24249],[1.523699,41.242518],[1.523642,41.242551],[1.52363,41.242562],[1.523566,41.242616],[1.523529,41.242639],[1.523414,41.242718],[1.523397,41.242729],[1.523308,41.242807],[1.523278,41.242837],[1.523146,41.242971],[1.523146,41.242971],[1.523016,41.243108],[1.522995,41.243131],[1.522916,41.24322],[1.52287,41.243272],[1.522894,41.243283],[1.523076,41.243366],[1.523062,41.243382],[1.523048,41.243399],[1.523048,41.243399],[1.52299,41.243466],[1.522905,41.24355],[1.52285,41.243603],[1.522841,41.243611],[1.52284,41.243612],[1.522831,41.243621],[1.522755,41.243693],[1.522611,41.243845],[1.522583,41.243888],[1.522544,41.243952],[1.522501,41.244035],[1.522456,41.244123],[1.522398,41.24422],[1.522341,41.244318],[1.522332,41.244338],[1.522324,41.244368],[1.52232,41.244399],[1.522316,41.244438],[1.522291,41.244639],[1.522208,41.245089],[1.522195,41.245131],[1.522171,41.245202],[1.522146,41.245273],[1.522131,41.245322],[1.522115,41.24537],[1.522071,41.245425],[1.521945,41.245584],[1.521881,41.245692],[1.52175,41.245797],[1.521686,41.24585],[1.521412,41.246071],[1.521295,41.246144],[1.521286,41.246176],[1.521289,41.246179],[1.521421,41.246305],[1.521579,41.246489],[1.521501,41.246547],[1.5212,41.246641],[1.521028,41.246695],[1.521035,41.246699],[1.521226,41.246811],[1.521249,41.246823],[1.521357,41.246879],[1.521486,41.246946],[1.521563,41.246987],[1.521588,41.246999],[1.521881,41.246983],[1.521938,41.24698],[1.522286,41.246925],[1.522354,41.246912],[1.522687,41.246836],[1.522777,41.246816],[1.522831,41.246803],[1.523111,41.24674],[1.523128,41.246751],[1.523193,41.246794],[1.523207,41.246803],[1.523309,41.246899],[1.523644,41.2472],[1.52371,41.247272],[1.523722,41.247283],[1.524225,41.247752],[1.524284,41.247804],[1.524411,41.24773],[1.524378,41.247702],[1.5248,41.247435],[1.524835,41.247406],[1.524841,41.247409],[1.52502,41.247509],[1.525181,41.247603],[1.525244,41.247641],[1.52543,41.247754],[1.525676,41.247906],[1.525859,41.248017],[1.52596,41.248078],[1.525972,41.248086],[1.525986,41.248096],[1.525996,41.248112],[1.525998,41.24813],[1.525994,41.248142],[1.525993,41.248147],[1.525988,41.248154],[1.52594,41.248224],[1.525871,41.248317],[1.5258,41.248408],[1.525681,41.248569],[1.525562,41.248729],[1.525527,41.248775],[1.525168,41.249227],[1.525087,41.249316],[1.52507,41.249336],[1.524981,41.249426],[1.524922,41.249453],[1.52486,41.249466],[1.524794,41.249466],[1.524705,41.249447],[1.524596,41.249445],[1.524585,41.249448],[1.524496,41.249549],[1.524411,41.249636],[1.52451,41.249687],[1.524608,41.249738],[1.524648,41.24973],[1.524679,41.249703],[1.524686,41.249696],[1.524721,41.249663],[1.524815,41.24958],[1.524864,41.249605],[1.524884,41.249615],[1.524951,41.24965],[1.524961,41.249655],[1.525024,41.249686],[1.525052,41.2497],[1.525181,41.249763],[1.525217,41.249784],[1.525269,41.24981],[1.525367,41.249859],[1.525384,41.249868],[1.525671,41.250014],[1.52569,41.250023],[1.525776,41.250068],[1.52594,41.250152],[1.525943,41.250154],[1.525956,41.25016],[1.526138,41.250251],[1.526133,41.250256],[1.526177,41.250279],[1.526205,41.250297],[1.526244,41.250319],[1.526302,41.250355],[1.526307,41.25035],[1.526426,41.250425],[1.52645,41.2504],[1.526451,41.250398],[1.526507,41.250353]]]]}},{"type":"Feature","id":"430022_430022 AP08 BPE 2","properties":{"area_id":"430022_430022 AP08 BPE 2","nom":"Can Gordei","codi_icgc":"430022 AP08 BPE 2","categoria":"Àrees de poblament","codi_municipi":"430022","municipi":"Albinyana","codi_comarca":"12","comarca":"Baix Penedès","provincia":"Tarragona","font":"ICGC Àrees de poblament v3r1 202602"},"geometry":{"type":"MultiPolygon","coordinates":[[[[1.4689,41.251571],[1.46879,41.251356],[1.468669,41.251387],[1.468491,41.251227],[1.468235,41.250626],[1.468117,41.250273],[1.467871,41.24999],[1.46767,41.249802],[1.467256,41.249588],[1.466773,41.249332],[1.466454,41.249125],[1.466222,41.248931],[1.466,41.24929],[1.468806,41.2516],[1.4689,41.251571]]]]}},{"type":"Feature","id":"430022_430022 SI01 BPE 2","properties":{"area_id":"430022_430022 SI01 BPE 2","nom":"Institut d'Investigació Aplicada de l'Automòbil","codi_icgc":"430022 SI01 BPE 2","categoria":"Sector industrial","codi_municipi":"430022","municipi":"Albinyana","codi_comarca":"12","comarca":"Baix Penedès","provincia":"Tarragona","font":"ICGC Àrees de poblament v3r1 202602"},"geometry":{"type":"MultiPolygon","coordinates":[[[[1.525567,41.260433],[1.527744,41.260098],[1.528101,41.260132],[1.528127,41.260124],[1.530845,41.25933],[1.530792,41.259334],[1.530103,41.259362],[1.530046,41.259365],[1.529013,41.259396],[1.528679,41.259401],[1.527635,41.259417],[1.525308,41.25947],[1.524327,41.259491],[1.524192,41.259494],[1.524042,41.259496],[1.523528,41.259506],[1.52547,41.260123],[1.525567,41.260433]]],[[[1.511808,41.259957],[1.511827,41.259758],[1.511766,41.25976],[1.511418,41.259772],[1.511324,41.259775],[1.5102,41.259792],[1.509024,41.259822],[1.50844,41.259814],[1.507595,41.259822],[1.506419,41.259852],[1.505335,41.259901],[1.504589,41.260007],[1.503858,41.260169],[1.503364,41.260329],[1.502578,41.260676],[1.501881,41.261105],[1.501666,41.261272],[1.501044,41.261881],[1.500607,41.262539],[1.500541,41.262688],[1.500438,41.26292],[1.5004,41.263005],[1.503846,41.265048],[1.50448,41.265515],[1.504531,41.265552],[1.504594,41.265598],[1.504864,41.266],[1.504959,41.265986],[1.505109,41.265973],[1.505123,41.265971],[1.505172,41.265962],[1.505232,41.26595],[1.505355,41.265911],[1.505476,41.265863],[1.505553,41.265823],[1.505613,41.265777],[1.505762,41.265657],[1.50587,41.265558],[1.505948,41.265497],[1.506039,41.265447],[1.506163,41.265408],[1.506298,41.265376],[1.506376,41.265361],[1.506489,41.265353],[1.506625,41.265345],[1.506854,41.265321],[1.507037,41.265296],[1.50718,41.265265],[1.507315,41.26522],[1.507546,41.265123],[1.507689,41.265047],[1.507786,41.264973],[1.507836,41.264927],[1.507909,41.264827],[1.507982,41.264732],[1.508071,41.264635],[1.508155,41.264546],[1.50824,41.264476],[1.508356,41.264394],[1.5087,41.264187],[1.509187,41.263907],[1.509517,41.263725],[1.509913,41.263531],[1.510305,41.263355],[1.510386,41.263313],[1.51048,41.263251],[1.51075,41.263039],[1.510959,41.26288],[1.511074,41.262784],[1.511253,41.2626],[1.511401,41.262439],[1.51156,41.262258],[1.511688,41.262119],[1.511747,41.262038],[1.51186,41.261878],[1.511971,41.261718],[1.512054,41.261582],[1.512089,41.261496],[1.512106,41.261428],[1.512111,41.26137],[1.512105,41.261315],[1.512084,41.261248],[1.512043,41.26114],[1.512022,41.261065],[1.511972,41.260937],[1.511954,41.260891],[1.511888,41.260699],[1.511834,41.260431],[1.511808,41.259957]]]]}},{"type":"Feature","id":"430022_430022 SI02 BPE 2","properties":{"area_id":"430022_430022 SI02 BPE 2","nom":"Les Peces","codi_icgc":"430022 SI02 BPE 2","categoria":"Sector industrial","codi_municipi":"430022","municipi":"Albinyana","codi_comarca":"12","comarca":"Baix Penedès","provincia":"Tarragona","font":"ICGC Àrees de poblament v3r1 202602"},"geometry":{"type":"MultiPolygon","coordinates":[[[[1.509227,41.256056],[1.509586,41.255979],[1.509755,41.256009],[1.50986,41.256007],[1.510094,41.255981],[1.510174,41.25597],[1.510164,41.255958],[1.509818,41.255527],[1.509465,41.255099],[1.509342,41.254949],[1.509335,41.254941],[1.509335,41.254941],[1.509301,41.254967],[1.508949,41.255145],[1.508918,41.255161],[1.508764,41.254978],[1.50872,41.254924],[1.508555,41.254727],[1.508288,41.254453],[1.508273,41.254438],[1.508182,41.254342],[1.50822,41.254317],[1.508585,41.25425],[1.50872,41.254226],[1.508738,41.254223],[1.508743,41.254221],[1.508763,41.254218],[1.508803,41.254244],[1.508803,41.254244],[1.508803,41.254244],[1.508968,41.254142],[1.508995,41.254124],[1.509014,41.254114],[1.509037,41.254108],[1.509061,41.254109],[1.509084,41.254115],[1.509103,41.254126],[1.509117,41.254136],[1.509203,41.254199],[1.509214,41.254208],[1.50946,41.254425],[1.509473,41.254436],[1.509503,41.254463],[1.509689,41.254626],[1.510787,41.25385],[1.510623,41.253704],[1.5106,41.253684],[1.510599,41.253682],[1.510581,41.253666],[1.51046,41.25356],[1.510093,41.253244],[1.509918,41.253361],[1.50988,41.25339],[1.509161,41.253869],[1.508933,41.25403],[1.508897,41.254056],[1.50881,41.254117],[1.508747,41.254156],[1.508713,41.254179],[1.50871,41.254179],[1.508375,41.254247],[1.508161,41.25429],[1.508141,41.254299],[1.508066,41.254333],[1.508057,41.254331],[1.508041,41.254329],[1.508011,41.25433],[1.508005,41.254329],[1.508001,41.254327],[1.507944,41.254358],[1.507945,41.25436],[1.507949,41.254371],[1.507953,41.254385],[1.507955,41.254398],[1.507956,41.25441],[1.507955,41.254417],[1.507901,41.254669],[1.507895,41.254743],[1.507895,41.254744],[1.508031,41.254908],[1.507293,41.255266],[1.507419,41.255411],[1.507864,41.255907],[1.507883,41.255902],[1.507907,41.255895],[1.508134,41.255836],[1.508436,41.255762],[1.508725,41.256146],[1.509185,41.256065],[1.509227,41.256056]]],[[[1.504639,41.25685],[1.505358,41.256398],[1.50536,41.256382],[1.505273,41.256292],[1.504975,41.255997],[1.505023,41.255971],[1.505105,41.255915],[1.504672,41.255505],[1.504586,41.255559],[1.504268,41.255763],[1.50391,41.255996],[1.503671,41.256088],[1.503626,41.256109],[1.503257,41.256338],[1.50328,41.256364],[1.503344,41.256436],[1.503419,41.256512],[1.503572,41.256666],[1.503613,41.256706],[1.503644,41.256737],[1.50384,41.256659],[1.504033,41.256562],[1.504052,41.256581],[1.504148,41.256676],[1.504303,41.256829],[1.504327,41.256855],[1.504353,41.256881],[1.504373,41.256896],[1.504404,41.256915],[1.504404,41.256915],[1.504502,41.256898],[1.504639,41.25685]]]]}},{"type":"Feature","id":"430022_430022 AP06 BPE 3","properties":{"area_id":"430022_430022 AP06 BPE 3","nom":"el Molí del Blanquillo","codi_icgc":"430022 AP06 BPE 3","categoria":"Àrees de poblament","codi_municipi":"430022","municipi":"Albinyana","codi_comarca":"12","comarca":"Baix Penedès","provincia":"Tarragona","font":"ICGC Àrees de poblament v3r1 202602"},"geometry":{"type":"MultiPolygon","coordinates":[[[[1.529294,41.243785],[1.529366,41.243376],[1.529111,41.242916],[1.529325,41.24288],[1.529309,41.242805],[1.52928,41.242746],[1.529131,41.242602],[1.529019,41.242533],[1.528731,41.242253],[1.528309,41.241754],[1.5283,41.241739],[1.528009,41.241929],[1.528017,41.242139],[1.527894,41.242557],[1.527643,41.243059],[1.527261,41.242615],[1.526801,41.242722],[1.526737,41.242904],[1.526731,41.243182],[1.526768,41.243309],[1.526853,41.243344],[1.527143,41.243396],[1.527192,41.243444],[1.527098,41.243691],[1.526826,41.243978],[1.526892,41.244109],[1.527033,41.2442],[1.527263,41.244198],[1.527364,41.244209],[1.527515,41.244258],[1.527762,41.244197],[1.527814,41.244138],[1.527919,41.244273],[1.528085,41.24418],[1.527933,41.244004],[1.528203,41.2437],[1.52832,41.243851],[1.528518,41.244124],[1.528513,41.244252],[1.528634,41.244473],[1.528831,41.244512],[1.528942,41.24464],[1.529096,41.244802],[1.529042,41.244869],[1.529152,41.245032],[1.529297,41.245045],[1.529528,41.245281],[1.529553,41.245307],[1.529555,41.24531],[1.530106,41.245324],[1.530092,41.244775],[1.530088,41.244437],[1.530039,41.244264],[1.53004,41.243963],[1.529294,41.243785]]],[[[1.529296,41.246782],[1.528998,41.246279],[1.52898,41.246249],[1.528968,41.246228],[1.528739,41.245841],[1.528577,41.245542],[1.528208,41.244917],[1.528122,41.245017],[1.528057,41.245022],[1.527773,41.24542],[1.527652,41.24559],[1.527427,41.245478],[1.527427,41.245463],[1.527441,41.245437],[1.527354,41.245405],[1.527333,41.245433],[1.527091,41.245323],[1.527067,41.245312],[1.526795,41.245851],[1.52669,41.246042],[1.526514,41.246417],[1.526466,41.246561],[1.526505,41.246572],[1.526543,41.246583],[1.527208,41.246521],[1.527414,41.246522],[1.527463,41.246501],[1.527556,41.246494],[1.527571,41.246497],[1.527805,41.246574],[1.527902,41.246573],[1.528028,41.246572],[1.528327,41.246615],[1.528345,41.246617],[1.528548,41.24666],[1.528716,41.246732],[1.528725,41.246737],[1.528848,41.246814],[1.528944,41.246887],[1.529014,41.246963],[1.529162,41.247166],[1.529168,41.247174],[1.529447,41.247037],[1.529296,41.246782]]]]}},{"type":"Feature","id":"430022_430022 AP03 BPE 3","properties":{"area_id":"430022_430022 AP03 BPE 3","nom":"la Papiola","codi_icgc":"430022 AP03 BPE 3","categoria":"Àrees de poblament","codi_municipi":"430022","municipi":"Albinyana","codi_comarca":"12","comarca":"Baix Penedès","provincia":"Tarragona","font":"ICGC Àrees de poblament v3r1 202602"},"geometry":{"type":"MultiPolygon","coordinates":[[[[1.517924,41.246659],[1.517927,41.246661],[1.518188,41.246496],[1.518779,41.246124],[1.518898,41.246049],[1.520042,41.246925],[1.520044,41.246933],[1.520046,41.246932],[1.520109,41.246889],[1.520255,41.246761],[1.520435,41.246605],[1.520505,41.246544],[1.52099,41.246059],[1.521195,41.245904],[1.521417,41.245709],[1.521547,41.245563],[1.521589,41.245524],[1.521667,41.24545],[1.521671,41.245446],[1.521725,41.245378],[1.521765,41.245329],[1.521837,41.245239],[1.521847,41.245202],[1.521857,41.245185],[1.521887,41.245101],[1.521916,41.245017],[1.521929,41.244975],[1.521945,41.244899],[1.52196,41.244785],[1.521976,41.244671],[1.522,41.244564],[1.522011,41.24451],[1.522017,41.244456],[1.522018,41.244435],[1.522019,41.244413],[1.52202,41.24439],[1.522036,41.244337],[1.52207,41.244221],[1.522118,41.243997],[1.522128,41.243921],[1.522184,41.243872],[1.522502,41.243312],[1.522496,41.24327],[1.522572,41.243231],[1.52264,41.243143],[1.52287,41.242875],[1.522941,41.242776],[1.52301,41.242707],[1.523025,41.242698],[1.52303,41.242692],[1.522649,41.242469],[1.522531,41.242392],[1.5221,41.242959],[1.522024,41.24306],[1.521996,41.243045],[1.521921,41.242993],[1.521867,41.242956],[1.522086,41.242558],[1.521836,41.242439],[1.521838,41.242436],[1.521859,41.242394],[1.521925,41.242277],[1.522004,41.242098],[1.521997,41.242088],[1.521986,41.242077],[1.521966,41.242065],[1.521965,41.242064],[1.521963,41.242047],[1.521928,41.242057],[1.520844,41.242372],[1.520699,41.242424],[1.520646,41.242544],[1.520208,41.242556],[1.520328,41.243078],[1.520324,41.243079],[1.520327,41.243092],[1.519983,41.243154],[1.519843,41.243183],[1.519707,41.243211],[1.519658,41.243228],[1.519607,41.243246],[1.519585,41.243235],[1.519533,41.243208],[1.519164,41.24336],[1.519162,41.243361],[1.519157,41.24344],[1.519115,41.243462],[1.519011,41.243518],[1.518941,41.243556],[1.518835,41.243629],[1.518832,41.243633],[1.518765,41.243699],[1.518751,41.24371],[1.518672,41.24377],[1.518622,41.243786],[1.518592,41.243795],[1.518512,41.2438],[1.518451,41.243798],[1.518443,41.243797],[1.518355,41.243786],[1.518268,41.243771],[1.518199,41.243759],[1.518083,41.243741],[1.518067,41.243738],[1.517886,41.24371],[1.517884,41.24371],[1.5177,41.243684],[1.517538,41.243662],[1.517515,41.243657],[1.517423,41.243641],[1.517344,41.243623],[1.517299,41.243624],[1.517277,41.243665],[1.51726,41.243676],[1.51713,41.24375],[1.517089,41.243785],[1.516975,41.24384],[1.516942,41.243859],[1.516903,41.243878],[1.516822,41.243917],[1.516728,41.243931],[1.516646,41.24393],[1.516559,41.243911],[1.516478,41.243878],[1.516454,41.243862],[1.516361,41.2438],[1.516334,41.243787],[1.516329,41.243785],[1.516255,41.24375],[1.51612,41.243716],[1.515952,41.243699],[1.515944,41.243698],[1.515738,41.243672],[1.515666,41.243945],[1.515637,41.243983],[1.515599,41.244018],[1.515561,41.244044],[1.515521,41.244067],[1.515406,41.244134],[1.515275,41.244218],[1.515099,41.244334],[1.515002,41.244397],[1.514922,41.244449],[1.514725,41.244571],[1.514527,41.244693],[1.514379,41.244788],[1.51429,41.244849],[1.514278,41.244857],[1.514265,41.244865],[1.514233,41.244887],[1.514208,41.244907],[1.514186,41.244931],[1.514173,41.24495],[1.514164,41.244973],[1.514167,41.244998],[1.514182,41.245021],[1.514198,41.245037],[1.514252,41.245064],[1.514302,41.245087],[1.514396,41.245132],[1.51449,41.245177],[1.514651,41.245259],[1.51483,41.245347],[1.514933,41.245399],[1.515025,41.245446],[1.515125,41.245499],[1.515129,41.245501],[1.514957,41.245676],[1.51492,41.24572],[1.514802,41.24586],[1.514779,41.245887],[1.514849,41.245927],[1.514873,41.24594],[1.514942,41.24606],[1.515025,41.246207],[1.51506,41.246248],[1.515126,41.24635],[1.515432,41.246498],[1.51574,41.246148],[1.515744,41.246139],[1.515768,41.246115],[1.515785,41.246098],[1.515882,41.246],[1.516037,41.245925],[1.516098,41.245893],[1.516162,41.245865],[1.516199,41.24585],[1.516295,41.24581],[1.516414,41.245763],[1.516533,41.245716],[1.516655,41.245664],[1.516776,41.245612],[1.516873,41.24557],[1.516968,41.245525],[1.517047,41.245483],[1.517126,41.245442],[1.517201,41.245414],[1.517236,41.245412],[1.51726,41.245411],[1.517268,41.245411],[1.517293,41.245442],[1.517463,41.245658],[1.517467,41.245663],[1.517529,41.245738],[1.517551,41.245777],[1.517629,41.245862],[1.517901,41.246184],[1.517931,41.246219],[1.517941,41.246231],[1.517937,41.246235],[1.517904,41.246261],[1.51788,41.246281],[1.517733,41.246373],[1.517631,41.246436],[1.517682,41.246474],[1.517828,41.246585],[1.517924,41.246659]]]]}},{"type":"Feature","id":"430022_430022 AP07 BPE 3","properties":{"area_id":"430022_430022 AP07 BPE 3","nom":"les Masies del Torrent","codi_icgc":"430022 AP07 BPE 3","categoria":"Àrees de poblament","codi_municipi":"430022","municipi":"Albinyana","codi_comarca":"12","comarca":"Baix Penedès","provincia":"Tarragona","font":"ICGC Àrees de poblament v3r1 202602"},"geometry":{"type":"MultiPolygon","coordinates":[[[[1.502878,41.257839],[1.503138,41.258213],[1.502769,41.25839],[1.50292,41.258693],[1.503241,41.259002],[1.503411,41.258952],[1.503548,41.258854],[1.503725,41.258728],[1.503726,41.258614],[1.504244,41.25832],[1.505156,41.258128],[1.505475,41.258026],[1.505501,41.257954],[1.505936,41.257721],[1.506156,41.258039],[1.506299,41.258264],[1.506712,41.25813],[1.506428,41.257756],[1.507216,41.257538],[1.508181,41.257293],[1.508445,41.257363],[1.508853,41.257206],[1.508645,41.256918],[1.508348,41.256637],[1.507612,41.25678],[1.506901,41.256933],[1.505957,41.257094],[1.502888,41.257801],[1.502878,41.257839]]]]}},{"type":"Feature","id":"430022_430022 AP02 BPE 3","properties":{"area_id":"430022_430022 AP02 BPE 3","nom":"les Peces","codi_icgc":"430022 AP02 BPE 3","categoria":"Àrees de poblament","codi_municipi":"430022","municipi":"Albinyana","codi_comarca":"12","comarca":"Baix Penedès","provincia":"Tarragona","font":"ICGC Àrees de poblament v3r1 202602"},"geometry":{"type":"MultiPolygon","coordinates":[[[[1.505107,41.251982],[1.504297,41.252411],[1.50424,41.252419],[1.503408,41.252505],[1.503392,41.252504],[1.503027,41.252481],[1.503007,41.252484],[1.502995,41.252485],[1.50282,41.252523],[1.502714,41.252547],[1.502712,41.25254],[1.50269,41.252478],[1.502447,41.252532],[1.502271,41.25257],[1.502258,41.252551],[1.502249,41.252554],[1.502214,41.252497],[1.502175,41.252511],[1.502166,41.252496],[1.502054,41.252574],[1.501939,41.252492],[1.501779,41.25261],[1.501794,41.252624],[1.501733,41.252669],[1.501747,41.252685],[1.501611,41.252731],[1.501433,41.252804],[1.501361,41.252826],[1.501298,41.252851],[1.501289,41.252843],[1.50118,41.252881],[1.50118,41.252888],[1.501063,41.25293],[1.500953,41.25297],[1.501069,41.253057],[1.500485,41.253545],[1.500243,41.253784],[1.499558,41.253134],[1.499098,41.253298],[1.498682,41.253278],[1.498709,41.253357],[1.498725,41.253486],[1.498484,41.253551],[1.498413,41.253592],[1.498398,41.2536],[1.498156,41.253643],[1.498115,41.253702],[1.498114,41.253974],[1.49805,41.253985],[1.498005,41.254549],[1.497533,41.254685],[1.497504,41.254693],[1.497899,41.255414],[1.49803,41.255362],[1.498524,41.255206],[1.498514,41.255117],[1.498509,41.25507],[1.498346,41.25482],[1.498284,41.254726],[1.498188,41.25458],[1.498176,41.254272],[1.498424,41.254289],[1.498514,41.254295],[1.498654,41.254327],[1.498683,41.254334],[1.499066,41.254484],[1.498987,41.254613],[1.498784,41.254941],[1.49874,41.255021],[1.498638,41.255208],[1.499041,41.255413],[1.499196,41.255121],[1.499448,41.25471],[1.49946,41.25469],[1.499548,41.254554],[1.499588,41.254553],[1.499705,41.254547],[1.49982,41.254637],[1.499912,41.254688],[1.499949,41.25466],[1.500047,41.254713],[1.500034,41.254725],[1.500162,41.254757],[1.500102,41.254862],[1.500304,41.254927],[1.500322,41.254932],[1.500411,41.25473],[1.500521,41.25473],[1.500583,41.254877],[1.500647,41.255032],[1.500672,41.255039],[1.500689,41.255071],[1.500727,41.25515],[1.500744,41.255186],[1.500837,41.25541],[1.500922,41.255611],[1.500992,41.255836],[1.501063,41.256135],[1.501089,41.256249],[1.501101,41.256249],[1.501129,41.256335],[1.501172,41.25644],[1.501207,41.256471],[1.501305,41.256546],[1.501517,41.256642],[1.501636,41.256693],[1.501799,41.256618],[1.502548,41.25627],[1.503054,41.256051],[1.503204,41.255986],[1.50336,41.255918],[1.503395,41.255957],[1.503423,41.255988],[1.503444,41.255974],[1.503522,41.255925],[1.503602,41.255874],[1.503643,41.255849],[1.503729,41.255795],[1.504146,41.255523],[1.504505,41.255289],[1.505052,41.254928],[1.505209,41.254824],[1.505441,41.254672],[1.505696,41.254504],[1.505757,41.254464],[1.505973,41.254323],[1.50599,41.254311],[1.5059,41.254165],[1.506399,41.253864],[1.506344,41.253807],[1.506833,41.253556],[1.506685,41.253389],[1.506939,41.253266],[1.506265,41.252224],[1.505735,41.252312],[1.505691,41.252183],[1.505107,41.251982]]]]}}]}