{"type":"FeatureCollection","name":"ICGC Àrees de poblament - Arbolí","features":[{"type":"Feature","id":"430154_430154 AP01 BCA 3","properties":{"area_id":"430154_430154 AP01 BCA 3","nom":"Arbolí","codi_icgc":"430154 AP01 BCA 3","categoria":"Àrees de poblament","codi_municipi":"430154","municipi":"Arbolí","codi_comarca":"08","comarca":"Baix Camp","provincia":"Tarragona","font":"ICGC Àrees de poblament v3r1 202602"},"geometry":{"type":"MultiPolygon","coordinates":[[[[0.947118,41.242332],[0.947321,41.242331],[0.94734,41.242359],[0.947484,41.242351],[0.947577,41.242349],[0.947619,41.242405],[0.947786,41.242435],[0.947889,41.242501],[0.94798,41.242505],[0.94814,41.242622],[0.948235,41.242736],[0.948384,41.242846],[0.948347,41.242908],[0.948327,41.242941],[0.948449,41.242973],[0.948511,41.243003],[0.948493,41.243024],[0.948573,41.243063],[0.948554,41.243086],[0.948654,41.243135],[0.94868,41.243104],[0.948811,41.243079],[0.948998,41.243087],[0.949126,41.2431],[0.949284,41.243137],[0.949297,41.243112],[0.949309,41.243091],[0.949318,41.243074],[0.949325,41.24306],[0.949206,41.242999],[0.949186,41.242975],[0.949147,41.24295],[0.949026,41.242939],[0.949027,41.2429],[0.94892,41.242876],[0.948884,41.242832],[0.948856,41.242809],[0.948814,41.242822],[0.948768,41.242819],[0.948761,41.242801],[0.948712,41.242796],[0.948637,41.242783],[0.948616,41.242726],[0.948671,41.242728],[0.948735,41.242724],[0.948793,41.24271],[0.948829,41.242685],[0.948899,41.242635],[0.948948,41.24259],[0.949022,41.2427],[0.949164,41.242781],[0.949238,41.24272],[0.949267,41.242752],[0.949305,41.242791],[0.949329,41.24284],[0.94934,41.242887],[0.949364,41.242911],[0.949403,41.242934],[0.949488,41.24296],[0.949618,41.243008],[0.949629,41.243003],[0.949708,41.242972],[0.949703,41.242949],[0.949726,41.24271],[0.9497,41.242672],[0.949644,41.242628],[0.949627,41.242607],[0.949598,41.242588],[0.949513,41.242515],[0.949392,41.242411],[0.949362,41.242339],[0.949345,41.242331],[0.949274,41.242236],[0.94922,41.242204],[0.94916,41.242181],[0.949169,41.24216],[0.949065,41.242019],[0.949034,41.241977],[0.949015,41.241918],[0.948984,41.241895],[0.948849,41.241777],[0.948746,41.241683],[0.948675,41.241658],[0.948577,41.241641],[0.948343,41.241687],[0.948199,41.241732],[0.948101,41.241734],[0.947868,41.241827],[0.947873,41.241841],[0.947875,41.241847],[0.947877,41.241855],[0.94791,41.24198],[0.947877,41.241992],[0.947878,41.242041],[0.947867,41.242067],[0.947835,41.242073],[0.947737,41.242075],[0.94757,41.242078],[0.947579,41.24222],[0.947434,41.24224],[0.947391,41.242216],[0.947213,41.242233],[0.947063,41.242225],[0.946899,41.242183],[0.946801,41.242142],[0.946732,41.242129],[0.946601,41.242098],[0.946463,41.24207],[0.946467,41.242061],[0.946492,41.242066],[0.946514,41.24202],[0.946604,41.241889],[0.946293,41.241865],[0.946234,41.242015],[0.94623,41.242024],[0.946212,41.242059],[0.946309,41.242078],[0.946424,41.242103],[0.946491,41.242119],[0.946411,41.242239],[0.94653,41.242287],[0.946941,41.242385],[0.947001,41.242331],[0.947118,41.242332]]]]}},{"type":"Feature","id":"430154_430154 AP03 BCA 2","properties":{"area_id":"430154_430154 AP03 BCA 2","nom":"Gallicant","codi_icgc":"430154 AP03 BCA 2","categoria":"Àrees de poblament","codi_municipi":"430154","municipi":"Arbolí","codi_comarca":"08","comarca":"Baix Camp","provincia":"Tarragona","font":"ICGC Àrees de poblament v3r1 202602"},"geometry":{"type":"MultiPolygon","coordinates":[[[[0.9588,41.254437],[0.958858,41.254382],[0.958895,41.254351],[0.958933,41.25432],[0.958917,41.254313],[0.958799,41.254261],[0.958575,41.254176],[0.95843,41.254142],[0.958162,41.25413],[0.957765,41.254121],[0.95747,41.254149],[0.957243,41.254245],[0.957181,41.254311],[0.95717,41.254352],[0.9572,41.254398],[0.957279,41.254416],[0.957407,41.254408],[0.957649,41.254398],[0.957799,41.254425],[0.957975,41.254471],[0.958055,41.254494],[0.958307,41.254622],[0.958538,41.254736],[0.958553,41.254743],[0.958592,41.254685],[0.958631,41.254629],[0.958657,41.254594],[0.9587,41.254544],[0.958745,41.254494],[0.9588,41.254437]]]]}},{"type":"Feature","id":"430154_430154 AP02 BCA 2","properties":{"area_id":"430154_430154 AP02 BCA 2","nom":"los Castillejos","codi_icgc":"430154 AP02 BCA 2","categoria":"Àrees de poblament","codi_municipi":"430154","municipi":"Arbolí","codi_comarca":"08","comarca":"Baix Camp","provincia":"Tarragona","font":"ICGC Àrees de poblament v3r1 202602"},"geometry":{"type":"MultiPolygon","coordinates":[[[[0.985647,41.251746],[0.985676,41.251736],[0.985715,41.251719],[0.985752,41.251698],[0.985804,41.251666],[0.985828,41.251649],[0.98585,41.251629],[0.985907,41.251566],[0.98596,41.251502],[0.986024,41.251422],[0.986088,41.251343],[0.986104,41.251324],[0.986159,41.251261],[0.986234,41.251182],[0.986297,41.251118],[0.98636,41.251055],[0.986398,41.251016],[0.986436,41.250978],[0.986476,41.250938],[0.986498,41.25092],[0.986523,41.250905],[0.986582,41.250876],[0.986642,41.250848],[0.986714,41.250815],[0.986786,41.250781],[0.986858,41.250742],[0.986925,41.250699],[0.986981,41.250658],[0.987031,41.250613],[0.98707,41.250567],[0.987099,41.250517],[0.987127,41.250456],[0.987155,41.250394],[0.987224,41.25025],[0.987294,41.250106],[0.987321,41.25004],[0.987336,41.250005],[0.987378,41.249905],[0.987397,41.249867],[0.987433,41.24981],[0.987466,41.249752],[0.987504,41.249659],[0.98754,41.249567],[0.987572,41.249496],[0.987606,41.249426],[0.987636,41.249374],[0.987668,41.249322],[0.98768,41.249294],[0.987688,41.249251],[0.987693,41.249231],[0.987703,41.249213],[0.987749,41.249155],[0.9878,41.2491],[0.987864,41.24904],[0.987928,41.248979],[0.987994,41.248908],[0.988056,41.248833],[0.988094,41.248781],[0.988126,41.248726],[0.988136,41.248702],[0.988146,41.248667],[0.988156,41.248632],[0.988167,41.248605],[0.988188,41.248566],[0.988217,41.248531],[0.988279,41.248484],[0.988342,41.248438],[0.98839,41.248399],[0.988433,41.248357],[0.988453,41.248332],[0.988477,41.248293],[0.988485,41.248272],[0.98849,41.248251],[0.988493,41.248203],[0.988497,41.248156],[0.9885,41.248126],[0.988504,41.248096],[0.988497,41.24807],[0.988484,41.248052],[0.988478,41.248049],[0.98848,41.248044],[0.988486,41.248031],[0.988516,41.248012],[0.988549,41.247994],[0.988571,41.247981],[0.988585,41.247972],[0.988605,41.247961],[0.988593,41.24793],[0.988613,41.247731],[0.988574,41.247721],[0.988523,41.247704],[0.988499,41.247692],[0.988478,41.247676],[0.988456,41.247646],[0.988436,41.247617],[0.988417,41.247592],[0.988197,41.247796],[0.988136,41.247751],[0.988089,41.247724],[0.988048,41.247709],[0.988007,41.247696],[0.987925,41.247678],[0.987868,41.247669],[0.987785,41.24766],[0.987702,41.247651],[0.987649,41.247644],[0.987586,41.24763],[0.987526,41.247611],[0.987488,41.247596],[0.987448,41.247572],[0.987413,41.247545],[0.987394,41.247526],[0.987372,41.247497],[0.987347,41.247451],[0.987329,41.247405],[0.98732,41.247375],[0.987314,41.247333],[0.987308,41.247255],[0.987304,41.247176],[0.987298,41.247123],[0.987287,41.247065],[0.987268,41.247006],[0.987252,41.246978],[0.987232,41.246952],[0.987185,41.246907],[0.987108,41.246846],[0.987027,41.24679],[0.986895,41.246708],[0.986764,41.246625],[0.986674,41.246568],[0.986585,41.246511],[0.986546,41.246482],[0.986509,41.246451],[0.986442,41.246383],[0.986379,41.246312],[0.986322,41.246238],[0.986278,41.246175],[0.986234,41.246112],[0.986202,41.24607],[0.986169,41.246029],[0.986143,41.246003],[0.986115,41.24598],[0.986054,41.245939],[0.985922,41.245853],[0.985788,41.245769],[0.985678,41.2457],[0.985568,41.245632],[0.985505,41.245594],[0.985438,41.245558],[0.985392,41.245537],[0.985355,41.245519],[0.985278,41.245487],[0.985207,41.245466],[0.985137,41.245444],[0.985037,41.245413],[0.985029,41.245409],[0.984977,41.24538],[0.984938,41.245356],[0.984898,41.245331],[0.984863,41.24531],[0.984827,41.245288],[0.984796,41.245272],[0.984761,41.245258],[0.984735,41.245252],[0.984691,41.245245],[0.984648,41.245239],[0.984606,41.245232],[0.984565,41.245224],[0.984534,41.245215],[0.984504,41.245202],[0.984449,41.24517],[0.984392,41.245134],[0.984336,41.245098],[0.984295,41.245071],[0.984256,41.245042],[0.984234,41.245021],[0.984182,41.244957],[0.984131,41.244892],[0.984081,41.244826],[0.984031,41.24476],[0.983998,41.244716],[0.983957,41.244656],[0.983916,41.244595],[0.983887,41.244561],[0.983852,41.244531],[0.983809,41.244499],[0.983766,41.244467],[0.983723,41.244434],[0.98368,41.244402],[0.983658,41.244382],[0.983641,41.244359],[0.98363,41.244338],[0.983616,41.244315],[0.983604,41.244309],[0.983591,41.244306],[0.983569,41.24431],[0.983548,41.244321],[0.983529,41.244333],[0.983507,41.24435],[0.983486,41.244367],[0.983452,41.244398],[0.983417,41.244428],[0.983377,41.244462],[0.983336,41.244495],[0.983288,41.24454],[0.983074,41.244471],[0.983047,41.244485],[0.983034,41.244526],[0.983012,41.244585],[0.982994,41.244629],[0.982974,41.244672],[0.982956,41.244704],[0.982936,41.244736],[0.982907,41.244775],[0.982875,41.244812],[0.982832,41.244844],[0.982788,41.244876],[0.982734,41.244926],[0.982682,41.244976],[0.982629,41.245018],[0.982574,41.245061],[0.982533,41.245101],[0.982503,41.245134],[0.982461,41.245156],[0.98242,41.245178],[0.982407,41.245189],[0.982396,41.245209],[0.982388,41.245231],[0.982377,41.245261],[0.982365,41.245291],[0.982348,41.245328],[0.982337,41.245345],[0.982321,41.24536],[0.982298,41.245376],[0.982274,41.245391],[0.982226,41.245437],[0.982282,41.245437],[0.982355,41.245436],[0.982429,41.245431],[0.982503,41.24542],[0.982593,41.245399],[0.982683,41.245379],[0.982715,41.245373],[0.982763,41.24537],[0.982812,41.245369],[0.982884,41.245372],[0.982955,41.245381],[0.982987,41.245386],[0.983034,41.245399],[0.983078,41.245418],[0.983092,41.245427],[0.98311,41.245444],[0.983124,41.245464],[0.983146,41.245508],[0.983153,41.245531],[0.983156,41.245553],[0.983157,41.245627],[0.983152,41.2457],[0.983138,41.245809],[0.983124,41.245919],[0.98311,41.246022],[0.983096,41.246124],[0.983078,41.246201],[0.983058,41.24628],[0.983042,41.246368],[0.98303,41.246457],[0.98302,41.246554],[0.983011,41.246651],[0.983005,41.246699],[0.982995,41.246746],[0.982977,41.246772],[0.982953,41.246796],[0.982927,41.246814],[0.982901,41.24682],[0.982865,41.246837],[0.982847,41.246852],[0.982398,41.24697],[0.982342,41.246939],[0.9823,41.246922],[0.982218,41.246896],[0.982135,41.246876],[0.982035,41.24686],[0.982,41.246858],[0.981954,41.246861],[0.981911,41.24687],[0.98187,41.246881],[0.981833,41.246892],[0.981796,41.246904],[0.981738,41.246931],[0.981684,41.246962],[0.981626,41.246998],[0.981571,41.247038],[0.981509,41.247089],[0.981448,41.24714],[0.981402,41.247169],[0.981335,41.247201],[0.981267,41.247234],[0.981252,41.247242],[0.981191,41.247272],[0.981183,41.247276],[0.981099,41.247319],[0.981058,41.247342],[0.98102,41.247368],[0.980971,41.247401],[0.980923,41.247434],[0.980851,41.247479],[0.980778,41.247524],[0.980742,41.247572],[0.980994,41.247717],[0.981039,41.247899],[0.981119,41.248161],[0.981187,41.248428],[0.981317,41.248831],[0.981503,41.24925],[0.981739,41.249569],[0.982063,41.249839],[0.98232,41.250087],[0.982523,41.250276],[0.982675,41.250348],[0.982874,41.250373],[0.983044,41.250383],[0.983338,41.250381],[0.983611,41.250407],[0.983743,41.250459],[0.983947,41.250599],[0.984168,41.250803],[0.984344,41.2509],[0.984322,41.250921],[0.984295,41.250959],[0.984267,41.250955],[0.98424,41.250951],[0.984231,41.250951],[0.984218,41.250956],[0.984207,41.250963],[0.984174,41.250998],[0.984143,41.251033],[0.984095,41.251081],[0.984045,41.251128],[0.98399,41.251177],[0.983934,41.251226],[0.983907,41.251251],[0.983881,41.251277],[0.983867,41.251298],[0.98386,41.251321],[0.983858,41.251344],[0.983867,41.251367],[0.983883,41.251382],[0.983914,41.2514],[0.983929,41.251409],[0.98394,41.251421],[0.983962,41.251453],[0.983979,41.251488],[0.983991,41.251532],[0.984145,41.251647],[0.984178,41.251673],[0.984211,41.251699],[0.984232,41.251711],[0.984243,41.251715],[0.984255,41.251717],[0.984281,41.251716],[0.984308,41.251716],[0.984349,41.25174],[0.984379,41.251754],[0.984412,41.251765],[0.984465,41.251777],[0.984546,41.25179],[0.984627,41.251796],[0.984743,41.251799],[0.984858,41.251801],[0.984966,41.251805],[0.985073,41.25181],[0.985182,41.251815],[0.985292,41.251819],[0.985344,41.251817],[0.985418,41.251803],[0.985491,41.251785],[0.985569,41.251766],[0.985647,41.251746]]]]}}]}