{"type":"FeatureCollection","name":"ICGC Àrees de poblament - la Bisbal del Penedès","features":[{"type":"Feature","id":"430287_430287 AP10 BPE 3","properties":{"area_id":"430287_430287 AP10 BPE 3","nom":"Can Gordei","codi_icgc":"430287 AP10 BPE 3","categoria":"Àrees de poblament","codi_municipi":"430287","municipi":"la Bisbal del Penedès","codi_comarca":"12","comarca":"Baix Penedès","provincia":"Tarragona","font":"ICGC Àrees de poblament v3r1 202602"},"geometry":{"type":"MultiPolygon","coordinates":[[[[1.469983,41.25544],[1.469941,41.255388],[1.469924,41.255366],[1.469897,41.255333],[1.469905,41.255208],[1.469874,41.255122],[1.469869,41.255109],[1.469864,41.254937],[1.469858,41.254755],[1.469857,41.254724],[1.469856,41.254682],[1.469857,41.254563],[1.469857,41.254489],[1.469762,41.25385],[1.469678,41.253624],[1.469633,41.253551],[1.469588,41.253478],[1.469568,41.253452],[1.469544,41.253429],[1.469491,41.253385],[1.469459,41.253354],[1.469377,41.253263],[1.469296,41.253172],[1.469242,41.253113],[1.469155,41.253019],[1.469076,41.252933],[1.469291,41.252842],[1.469196,41.252716],[1.46904,41.252482],[1.469167,41.252331],[1.469148,41.252156],[1.469148,41.252154],[1.469122,41.251969],[1.469117,41.251933],[1.469064,41.251818],[1.465453,41.24884],[1.465392,41.248803],[1.465225,41.248941],[1.464769,41.248879],[1.464149,41.248793],[1.463893,41.248785],[1.463859,41.248784],[1.463604,41.248781],[1.463594,41.248781],[1.463403,41.248781],[1.462936,41.248997],[1.462935,41.248999],[1.462857,41.24911],[1.462836,41.249238],[1.462899,41.249418],[1.462901,41.249421],[1.462991,41.249586],[1.462991,41.249587],[1.463085,41.24975],[1.463092,41.249759],[1.463222,41.24992],[1.463404,41.249876],[1.463447,41.249972],[1.463474,41.250026],[1.463484,41.250046],[1.463583,41.250026],[1.463726,41.249997],[1.463864,41.249961],[1.46389,41.249972],[1.463921,41.249994],[1.463945,41.250021],[1.463948,41.250026],[1.464021,41.250119],[1.464054,41.250164],[1.464095,41.250227],[1.464132,41.250293],[1.464146,41.250332],[1.464152,41.250372],[1.46415,41.250397],[1.464145,41.250421],[1.464122,41.250498],[1.464099,41.250574],[1.464083,41.25064],[1.464072,41.250706],[1.46407,41.25075],[1.464072,41.250794],[1.464081,41.250832],[1.4641,41.250869],[1.464117,41.25089],[1.464139,41.250909],[1.464187,41.250938],[1.464238,41.250965],[1.464312,41.251002],[1.46439,41.251035],[1.464452,41.251051],[1.46446,41.251052],[1.464481,41.251004],[1.464544,41.250865],[1.464608,41.250759],[1.46471,41.250581],[1.464978,41.25056],[1.464804,41.250148],[1.46488,41.250026],[1.464899,41.249994],[1.46498,41.249863],[1.465094,41.249847],[1.465512,41.250025],[1.465575,41.249867],[1.465695,41.249913],[1.465769,41.249931],[1.465796,41.249867],[1.46588,41.249652],[1.465908,41.249658],[1.465943,41.249669],[1.466014,41.249694],[1.466124,41.249732],[1.466223,41.249764],[1.466323,41.249794],[1.466433,41.24982],[1.466487,41.249832],[1.466539,41.249847],[1.466573,41.24986],[1.46662,41.249884],[1.466663,41.249914],[1.466742,41.249976],[1.466804,41.250026],[1.46682,41.250039],[1.466915,41.250115],[1.467006,41.250194],[1.467036,41.250227],[1.467078,41.25028],[1.467119,41.250333],[1.467142,41.250379],[1.467127,41.250384],[1.466759,41.250486],[1.466725,41.250505],[1.466757,41.250538],[1.466874,41.250649],[1.46731,41.25055],[1.467325,41.250545],[1.467347,41.250558],[1.467428,41.250604],[1.467501,41.250652],[1.467591,41.250709],[1.46768,41.250766],[1.4677,41.250782],[1.467724,41.25081],[1.467739,41.250843],[1.467757,41.250915],[1.467773,41.250989],[1.467788,41.25108],[1.467802,41.251173],[1.467811,41.251214],[1.467832,41.251275],[1.467862,41.251335],[1.467881,41.251364],[1.467915,41.251403],[1.467955,41.251438],[1.468064,41.251516],[1.468173,41.251593],[1.468254,41.25165],[1.468291,41.25168],[1.468325,41.251712],[1.468345,41.251744],[1.468355,41.251769],[1.468364,41.251809],[1.468368,41.251849],[1.468369,41.251881],[1.468367,41.251913],[1.468361,41.251967],[1.468346,41.252019],[1.46832,41.252082],[1.468293,41.252145],[1.468244,41.25225],[1.468225,41.25227],[1.467799,41.252203],[1.467731,41.252191],[1.467667,41.25218],[1.467652,41.252216],[1.46762,41.2523],[1.467592,41.25238],[1.467564,41.25246],[1.467474,41.252447],[1.467103,41.252467],[1.467093,41.252411],[1.466945,41.252486],[1.466694,41.252593],[1.466689,41.25257],[1.466677,41.252559],[1.466772,41.252491],[1.466913,41.252394],[1.467026,41.252312],[1.466937,41.252246],[1.466874,41.252213],[1.466807,41.252174],[1.466787,41.252162],[1.466558,41.252024],[1.466436,41.25195],[1.466301,41.251868],[1.466253,41.251829],[1.466204,41.251789],[1.466178,41.251767],[1.466154,41.251743],[1.466141,41.251726],[1.46612,41.251692],[1.466099,41.251657],[1.465632,41.251638],[1.465593,41.251837],[1.465317,41.25183],[1.465306,41.252074],[1.465306,41.252091],[1.465259,41.252092],[1.465198,41.252086],[1.465158,41.252082],[1.46502,41.252051],[1.464994,41.252045],[1.464882,41.252019],[1.46474,41.251987],[1.46465,41.251966],[1.464597,41.251954],[1.464532,41.251944],[1.464465,41.25194],[1.464419,41.251943],[1.464419,41.251943],[1.464374,41.251952],[1.464343,41.251963],[1.464319,41.251979],[1.464303,41.251999],[1.4643,41.252016],[1.464312,41.252056],[1.464313,41.252058],[1.46433,41.252096],[1.464376,41.252189],[1.464422,41.252282],[1.464459,41.252355],[1.464492,41.252432],[1.464493,41.252443],[1.464493,41.252458],[1.464023,41.2525],[1.464028,41.252716],[1.464027,41.252725],[1.463991,41.252936],[1.46399,41.25294],[1.463935,41.253154],[1.463922,41.253203],[1.463871,41.25338],[1.463867,41.253394],[1.463824,41.253563],[1.463813,41.253601],[1.463802,41.253631],[1.463719,41.253876],[1.464225,41.253791],[1.464203,41.253809],[1.46417,41.253823],[1.464137,41.253839],[1.464105,41.253858],[1.464069,41.253889],[1.464039,41.253921],[1.463993,41.253989],[1.463956,41.254053],[1.463931,41.254103],[1.463916,41.254137],[1.463905,41.254162],[1.465212,41.254717],[1.465221,41.254677],[1.465225,41.254678],[1.465318,41.254413],[1.465438,41.254065],[1.465572,41.253681],[1.465357,41.253518],[1.465366,41.253499],[1.465423,41.253444],[1.465481,41.253389],[1.465532,41.253331],[1.465567,41.253286],[1.465599,41.253241],[1.465621,41.253214],[1.465634,41.253205],[1.465648,41.253199],[1.465685,41.25319],[1.465705,41.253189],[1.465727,41.253193],[1.46574,41.253197],[1.465764,41.253212],[1.465782,41.253228],[1.465789,41.253241],[1.465829,41.253325],[1.465869,41.25341],[1.465893,41.253455],[1.465922,41.253499],[1.465946,41.253521],[1.465972,41.253539],[1.466019,41.253572],[1.466066,41.253616],[1.466108,41.253663],[1.466164,41.25374],[1.466217,41.253819],[1.466257,41.253871],[1.466337,41.253963],[1.466425,41.254053],[1.466466,41.254088],[1.466513,41.254119],[1.466562,41.254146],[1.466609,41.25417],[1.466636,41.254188],[1.466696,41.254234],[1.46671,41.254262],[1.466696,41.254314],[1.466689,41.254345],[1.466559,41.254638],[1.466702,41.254765],[1.466868,41.254907],[1.467024,41.255019],[1.467162,41.255122],[1.46704,41.255274],[1.467236,41.255385],[1.467317,41.255431],[1.46752,41.255392],[1.467533,41.255495],[1.467537,41.255525],[1.467576,41.255625],[1.467615,41.255726],[1.467621,41.255741],[1.467838,41.255859],[1.467877,41.255883],[1.468013,41.255968],[1.468092,41.256053],[1.468248,41.256221],[1.46838,41.256343],[1.468474,41.256396],[1.468933,41.256412],[1.468851,41.256589],[1.469402,41.256783],[1.469557,41.256593],[1.469596,41.256437],[1.46963,41.256285],[1.469659,41.25611],[1.469671,41.256095],[1.469693,41.256066],[1.469713,41.256039],[1.469737,41.255999],[1.469755,41.255957],[1.469781,41.25589],[1.469806,41.255824],[1.469824,41.255779],[1.46984,41.255734],[1.469851,41.255701],[1.469862,41.255668],[1.469884,41.255619],[1.46991,41.25556],[1.46994,41.255502],[1.469978,41.255447],[1.469983,41.25544]]],[[[1.476081,41.267209],[1.476161,41.267124],[1.476276,41.267002],[1.476276,41.267001],[1.476357,41.26686],[1.476361,41.266851],[1.476456,41.266643],[1.476477,41.266589],[1.476554,41.26639],[1.47664,41.266308],[1.476702,41.266251],[1.476813,41.266247],[1.476816,41.266238],[1.476825,41.266216],[1.476838,41.266209],[1.4769,41.26617],[1.476957,41.266129],[1.477042,41.266077],[1.477125,41.266025],[1.477141,41.266014],[1.477154,41.266006],[1.477156,41.266006],[1.477171,41.265961],[1.477177,41.265945],[1.477162,41.265832],[1.477149,41.265734],[1.477096,41.265508],[1.477094,41.265417],[1.47717,41.265328],[1.477179,41.265328],[1.477203,41.265286],[1.477197,41.265286],[1.477248,41.265181],[1.477252,41.265175],[1.477269,41.265058],[1.477241,41.264892],[1.47724,41.264885],[1.477219,41.264751],[1.477215,41.264743],[1.47715,41.264591],[1.477041,41.264482],[1.477017,41.264457],[1.476785,41.264261],[1.476708,41.26418],[1.476703,41.264175],[1.476621,41.26399],[1.4766,41.263997],[1.476596,41.263988],[1.476492,41.263775],[1.47649,41.263772],[1.476342,41.263354],[1.476431,41.263329],[1.476402,41.263103],[1.476401,41.263092],[1.476389,41.263044],[1.476339,41.262805],[1.476335,41.262769],[1.476318,41.26268],[1.476295,41.262561],[1.47627,41.262417],[1.476257,41.262352],[1.476245,41.262293],[1.476201,41.262046],[1.476189,41.261877],[1.476171,41.261774],[1.476164,41.261732],[1.476163,41.261727],[1.476144,41.261585],[1.476,41.261588],[1.475973,41.261589],[1.475828,41.261601],[1.475192,41.261355],[1.474184,41.260807],[1.474281,41.260575],[1.474602,41.259805],[1.474699,41.259198],[1.474694,41.259143],[1.474681,41.258996],[1.474673,41.258899],[1.474778,41.258614],[1.474728,41.25793],[1.474715,41.257856],[1.474672,41.257612],[1.474665,41.25757],[1.474525,41.256776],[1.474609,41.256678],[1.474634,41.256666],[1.47466,41.256654],[1.474658,41.256638],[1.474653,41.256637],[1.474616,41.256634],[1.47458,41.256628],[1.474558,41.256622],[1.474533,41.256611],[1.474508,41.256597],[1.474487,41.256588],[1.47445,41.25658],[1.474412,41.256577],[1.474386,41.25658],[1.47434,41.256594],[1.474298,41.256613],[1.474272,41.256628],[1.474219,41.256663],[1.474167,41.256696],[1.474131,41.256717],[1.474099,41.256732],[1.474045,41.256757],[1.473869,41.256579],[1.473839,41.25652],[1.473821,41.256485],[1.473768,41.256484],[1.473713,41.256483],[1.47368,41.256485],[1.473646,41.256493],[1.473623,41.256502],[1.473598,41.25652],[1.47358,41.256539],[1.473553,41.256577],[1.473514,41.256638],[1.473476,41.2567],[1.473454,41.256742],[1.473439,41.256768],[1.47342,41.256793],[1.472538,41.256649],[1.472579,41.256481],[1.472071,41.256389],[1.471944,41.256364],[1.471863,41.25636],[1.471764,41.256365],[1.471767,41.256381],[1.471771,41.256433],[1.47177,41.256512],[1.471763,41.25659],[1.471743,41.256722],[1.471714,41.256853],[1.471694,41.256916],[1.471657,41.25701],[1.471624,41.257106],[1.471609,41.25717],[1.471598,41.257234],[1.471593,41.257276],[1.471588,41.257324],[1.471584,41.257343],[1.471583,41.257366],[1.471151,41.25763],[1.471489,41.257708],[1.471439,41.257757],[1.471596,41.257818],[1.471669,41.258019],[1.471584,41.258057],[1.471599,41.25834],[1.471661,41.258308],[1.471668,41.258471],[1.471961,41.258589],[1.47218,41.258442],[1.472303,41.258356],[1.472445,41.258395],[1.472586,41.258434],[1.472722,41.258471],[1.472858,41.258507],[1.472874,41.258512],[1.473033,41.258564],[1.473159,41.258605],[1.473219,41.25863],[1.473248,41.258645],[1.473275,41.258661],[1.473295,41.258681],[1.473306,41.258697],[1.473318,41.258725],[1.473325,41.258752],[1.473327,41.258769],[1.473322,41.258794],[1.473316,41.258805],[1.473306,41.258817],[1.473291,41.258828],[1.473264,41.258841],[1.473251,41.258845],[1.473236,41.258847],[1.473162,41.25885],[1.473086,41.258851],[1.472972,41.258847],[1.472914,41.258845],[1.472855,41.258846],[1.472781,41.258855],[1.472674,41.258873],[1.472568,41.258889],[1.472487,41.258897],[1.472406,41.258905],[1.472339,41.258911],[1.472011,41.25897],[1.471948,41.258989],[1.471937,41.258992],[1.471425,41.259143],[1.471406,41.259148],[1.471401,41.25915],[1.471312,41.259176],[1.471185,41.259206],[1.471137,41.259214],[1.471088,41.259216],[1.470826,41.259071],[1.470701,41.259122],[1.470632,41.259153],[1.470486,41.259219],[1.470447,41.259258],[1.470407,41.259298],[1.470371,41.25942],[1.470369,41.259511],[1.470427,41.259628],[1.470437,41.259641],[1.470467,41.259682],[1.470529,41.259728],[1.470729,41.259829],[1.470888,41.259935],[1.471041,41.260046],[1.471105,41.260071],[1.471169,41.260097],[1.471189,41.260106],[1.471223,41.260125],[1.471267,41.260159],[1.471308,41.260199],[1.471328,41.260221],[1.471352,41.260255],[1.471358,41.260272],[1.471359,41.26029],[1.471352,41.260353],[1.471345,41.260417],[1.471279,41.260535],[1.471252,41.260571],[1.471241,41.260578],[1.471127,41.260648],[1.470847,41.260781],[1.470615,41.260871],[1.470439,41.260891],[1.470074,41.260865],[1.469764,41.26088],[1.469757,41.260881],[1.469592,41.261146],[1.469586,41.261156],[1.469511,41.261357],[1.469513,41.261373],[1.469517,41.26141],[1.469612,41.261548],[1.469915,41.261437],[1.470009,41.261501],[1.470183,41.261592],[1.47027,41.2616],[1.470472,41.261861],[1.470375,41.261932],[1.470423,41.262035],[1.470456,41.262094],[1.470488,41.262152],[1.470502,41.26218],[1.470517,41.262233],[1.470527,41.262315],[1.470533,41.262396],[1.470544,41.26255],[1.470549,41.262628],[1.470557,41.262704],[1.470565,41.262751],[1.47058,41.262821],[1.470588,41.262856],[1.470594,41.262891],[1.4706,41.262955],[1.470604,41.263019],[1.470607,41.263053],[1.470606,41.26307],[1.470601,41.263085],[1.470583,41.263115],[1.470566,41.263145],[1.470554,41.263208],[1.47057,41.263346],[1.470579,41.263421],[1.470634,41.263631],[1.470643,41.263667],[1.470689,41.263762],[1.470753,41.263892],[1.470822,41.264006],[1.470892,41.264119],[1.470972,41.264249],[1.471028,41.264346],[1.471035,41.264363],[1.471042,41.264381],[1.471113,41.264498],[1.471187,41.264621],[1.471314,41.26483],[1.471313,41.264916],[1.471195,41.265021],[1.470828,41.265178],[1.470455,41.26535],[1.470385,41.265383],[1.470381,41.265385],[1.470338,41.265415],[1.470177,41.265528],[1.469948,41.265688],[1.46995,41.26569],[1.470117,41.265861],[1.470168,41.265914],[1.47019,41.265908],[1.470378,41.266131],[1.470381,41.266136],[1.47045,41.26618],[1.470602,41.266181],[1.470959,41.266229],[1.470959,41.266229],[1.471077,41.266244],[1.471079,41.266244],[1.471283,41.266269],[1.471499,41.266294],[1.471678,41.266315],[1.471884,41.26634],[1.471925,41.266344],[1.472119,41.266373],[1.472278,41.266385],[1.472491,41.266432],[1.472492,41.266432],[1.472766,41.266512],[1.473156,41.266317],[1.473208,41.266283],[1.473136,41.266242],[1.473099,41.26622],[1.473092,41.266214],[1.473089,41.266208],[1.473087,41.2662],[1.473088,41.266191],[1.47309,41.266186],[1.473095,41.26618],[1.473102,41.266173],[1.473129,41.26614],[1.473165,41.266084],[1.473193,41.266048],[1.473317,41.266081],[1.473616,41.266123],[1.473623,41.266364],[1.473623,41.266365],[1.473621,41.266517],[1.473661,41.266539],[1.473853,41.26647],[1.473974,41.266574],[1.473981,41.266577],[1.474028,41.266622],[1.474096,41.266689],[1.474355,41.266867],[1.474365,41.266872],[1.474659,41.267024],[1.474667,41.267026],[1.474858,41.26709],[1.475076,41.267123],[1.47508,41.267124],[1.475232,41.267134],[1.475227,41.267169],[1.475302,41.267175],[1.475304,41.267156],[1.475378,41.267155],[1.475437,41.267294],[1.475492,41.267449],[1.475649,41.267513],[1.475771,41.267456],[1.475904,41.267366],[1.475931,41.267343],[1.476081,41.267209]]]]}},{"type":"Feature","id":"430287_430287 SI01 BPE 2","properties":{"area_id":"430287_430287 SI01 BPE 2","nom":"Institut d'Investigació Aplicada de l'Automòbil","codi_icgc":"430287 SI01 BPE 2","categoria":"Sector industrial","codi_municipi":"430287","municipi":"la Bisbal del Penedès","codi_comarca":"12","comarca":"Baix Penedès","provincia":"Tarragona","font":"ICGC Àrees de poblament v3r1 202602"},"geometry":{"type":"MultiPolygon","coordinates":[[[[1.503846,41.265048],[1.5004,41.263005],[1.500384,41.26304],[1.500222,41.26351],[1.500142,41.264013],[1.500143,41.264339],[1.500239,41.264971],[1.500301,41.265221],[1.50038,41.265452],[1.500484,41.265715],[1.500761,41.266178],[1.501106,41.266635],[1.50137,41.266919],[1.501652,41.267153],[1.502018,41.267413],[1.502285,41.267589],[1.502627,41.267791],[1.503162,41.26804],[1.503691,41.268213],[1.503986,41.268281],[1.504439,41.268401],[1.504768,41.26845],[1.505493,41.268536],[1.505806,41.268547],[1.507673,41.268538],[1.507341,41.268497],[1.507088,41.268462],[1.506612,41.268359],[1.506384,41.268273],[1.506279,41.268226],[1.506163,41.26818],[1.506025,41.268133],[1.505661,41.268047],[1.505276,41.267958],[1.504999,41.267928],[1.504917,41.267922],[1.504872,41.266292],[1.504869,41.266176],[1.504864,41.266],[1.504594,41.265598],[1.504531,41.265552],[1.50448,41.265515],[1.503846,41.265048]]]]}},{"type":"Feature","id":"430287_430287 SI03 BPE 2","properties":{"area_id":"430287_430287 SI03 BPE 2","nom":"Polígon industrial Les Planes","codi_icgc":"430287 SI03 BPE 2","categoria":"Sector industrial","codi_municipi":"430287","municipi":"la Bisbal del Penedès","codi_comarca":"12","comarca":"Baix Penedès","provincia":"Tarragona","font":"ICGC Àrees de poblament v3r1 202602"},"geometry":{"type":"MultiPolygon","coordinates":[[[[1.511974,41.271416],[1.511645,41.271138],[1.511286,41.27091],[1.510969,41.270687],[1.510964,41.270684],[1.510912,41.270688],[1.510641,41.270695],[1.510512,41.270797],[1.509791,41.270811],[1.509836,41.272287],[1.509068,41.272303],[1.509016,41.272278],[1.508975,41.271386],[1.508104,41.271384],[1.507293,41.271396],[1.507256,41.2708],[1.508081,41.270771],[1.50803,41.269353],[1.505354,41.269445],[1.505386,41.270453],[1.503576,41.270494],[1.503516,41.270574],[1.503459,41.270655],[1.503405,41.27074],[1.503355,41.270819],[1.503334,41.270853],[1.503331,41.270858],[1.503296,41.270913],[1.503244,41.271004],[1.503198,41.271087],[1.503157,41.27117],[1.503156,41.271171],[1.503084,41.271321],[1.50302,41.271471],[1.502977,41.271574],[1.502942,41.271673],[1.502904,41.271781],[1.502871,41.271888],[1.50284,41.271994],[1.502807,41.272138],[1.502793,41.272197],[1.502785,41.272248],[1.502778,41.272285],[1.502849,41.272295],[1.502977,41.272312],[1.502982,41.272313],[1.50326,41.272351],[1.50331,41.272358],[1.5034,41.272367],[1.503625,41.272416],[1.503651,41.272756],[1.503371,41.274587],[1.503352,41.274706],[1.503185,41.274698],[1.503167,41.274701],[1.503147,41.27471],[1.503131,41.27473],[1.503117,41.274758],[1.503111,41.274787],[1.503112,41.274816],[1.503141,41.27488],[1.503221,41.27497],[1.5033,41.275061],[1.503355,41.275131],[1.503382,41.275165],[1.503414,41.275197],[1.50346,41.275236],[1.503516,41.275281],[1.503532,41.275291],[1.50358,41.275313],[1.503628,41.275336],[1.503698,41.275366],[1.503735,41.275378],[1.503773,41.275387],[1.503889,41.275401],[1.504005,41.275412],[1.50447,41.275451],[1.504935,41.27549],[1.505115,41.275507],[1.505296,41.275524],[1.505424,41.275534],[1.505247,41.276839],[1.50347,41.277073],[1.503435,41.279018],[1.504949,41.279137],[1.506578,41.278351],[1.506666,41.277801],[1.507669,41.277893],[1.510032,41.276908],[1.510202,41.276154],[1.510949,41.276222],[1.511237,41.276249],[1.511395,41.276252],[1.511509,41.276238],[1.511978,41.276116],[1.512782,41.275899],[1.513656,41.275683],[1.514036,41.275578],[1.51516,41.275283],[1.516506,41.274946],[1.516824,41.274848],[1.516928,41.274793],[1.516979,41.274657],[1.516954,41.274362],[1.516937,41.274055],[1.5169,41.273974],[1.516825,41.273899],[1.516768,41.273859],[1.516706,41.273814],[1.516498,41.273766],[1.514308,41.273151],[1.513211,41.272387],[1.513155,41.272344],[1.512025,41.272353],[1.511974,41.271416]]]]}},{"type":"Feature","id":"430287_430287 SI02 BPE 2","properties":{"area_id":"430287_430287 SI02 BPE 2","nom":"Polígon industrial l'Albonar","codi_icgc":"430287 SI02 BPE 2","categoria":"Sector industrial","codi_municipi":"430287","municipi":"la Bisbal del Penedès","codi_comarca":"12","comarca":"Baix Penedès","provincia":"Tarragona","font":"ICGC Àrees de poblament v3r1 202602"},"geometry":{"type":"MultiPolygon","coordinates":[[[[1.522234,41.272433],[1.516876,41.272306],[1.511988,41.270647],[1.511982,41.270645],[1.511991,41.271423],[1.512038,41.272344],[1.513071,41.272324],[1.513174,41.272325],[1.513823,41.272792],[1.514325,41.273128],[1.51652,41.273745],[1.516807,41.273758],[1.51696,41.273752],[1.517152,41.273872],[1.518871,41.273837],[1.520433,41.273805],[1.521046,41.273784],[1.521571,41.273757],[1.52178,41.273731],[1.521932,41.27369],[1.522048,41.27362],[1.522106,41.273564],[1.522228,41.273403],[1.522256,41.273207],[1.522234,41.272433]]]]}},{"type":"Feature","id":"430287_430287 SI04 BPE 2","properties":{"area_id":"430287_430287 SI04 BPE 2","nom":"Tèxtil Codina","codi_icgc":"430287 SI04 BPE 2","categoria":"Sector industrial","codi_municipi":"430287","municipi":"la Bisbal del Penedès","codi_comarca":"12","comarca":"Baix Penedès","provincia":"Tarragona","font":"ICGC Àrees de poblament v3r1 202602"},"geometry":{"type":"MultiPolygon","coordinates":[[[[1.491629,41.283352],[1.490954,41.283019],[1.490926,41.283118],[1.490906,41.283257],[1.490895,41.283476],[1.490887,41.283744],[1.490881,41.283803],[1.490939,41.283931],[1.491006,41.283997],[1.491673,41.283375],[1.491629,41.283352]]]]}},{"type":"Feature","id":"430287_430287 AP04 BPE 3","properties":{"area_id":"430287_430287 AP04 BPE 3","nom":"el Papagai","codi_icgc":"430287 AP04 BPE 3","categoria":"Àrees de poblament","codi_municipi":"430287","municipi":"la Bisbal del Penedès","codi_comarca":"12","comarca":"Baix Penedès","provincia":"Tarragona","font":"ICGC Àrees de poblament v3r1 202602"},"geometry":{"type":"MultiPolygon","coordinates":[[[[1.516277,41.297786],[1.516277,41.297809],[1.516507,41.297892],[1.516601,41.297771],[1.516699,41.297648],[1.516861,41.297455],[1.517007,41.297299],[1.517124,41.297165],[1.517175,41.297081],[1.517215,41.297001],[1.517259,41.296877],[1.5173,41.296728],[1.517332,41.296561],[1.517345,41.296424],[1.517498,41.295795],[1.517526,41.295678],[1.517695,41.295037],[1.517723,41.294923],[1.517795,41.294535],[1.517861,41.29417],[1.51791,41.293949],[1.517944,41.293916],[1.517955,41.293866],[1.517951,41.293835],[1.517867,41.29375],[1.517781,41.293655],[1.517718,41.293513],[1.517698,41.293309],[1.517706,41.293041],[1.517729,41.292817],[1.517754,41.292735],[1.5178,41.292581],[1.517927,41.292329],[1.518028,41.292203],[1.518228,41.291922],[1.518365,41.291771],[1.518505,41.291623],[1.51857,41.291538],[1.518624,41.291477],[1.518686,41.291418],[1.518782,41.291356],[1.518846,41.291301],[1.518939,41.291013],[1.51902,41.290767],[1.519151,41.290379],[1.519246,41.290073],[1.519299,41.289931],[1.519395,41.289889],[1.519432,41.289783],[1.519463,41.289673],[1.519484,41.289616],[1.519462,41.289599],[1.519311,41.289578],[1.519188,41.289564],[1.519185,41.289563],[1.519094,41.289519],[1.519094,41.289494],[1.519094,41.289496],[1.51906,41.289491],[1.518974,41.289482],[1.518888,41.289478],[1.518715,41.289473],[1.518529,41.289467],[1.518343,41.289462],[1.518027,41.289454],[1.517712,41.289445],[1.51749,41.289434],[1.517268,41.289423],[1.517135,41.289417],[1.517003,41.289411],[1.516968,41.289412],[1.516933,41.289417],[1.516923,41.289419],[1.516937,41.289443],[1.516935,41.289459],[1.516944,41.289463],[1.516956,41.289473],[1.516958,41.289477],[1.516932,41.289592],[1.516906,41.289707],[1.516866,41.289875],[1.516842,41.289967],[1.516823,41.290043],[1.516808,41.290089],[1.516777,41.290155],[1.516765,41.290175],[1.51674,41.290219],[1.516646,41.290363],[1.516549,41.290506],[1.516428,41.290673],[1.516316,41.290825],[1.516316,41.290826],[1.516316,41.290826],[1.516316,41.290826],[1.516315,41.290827],[1.516315,41.290827],[1.516278,41.290878],[1.516137,41.291065],[1.515996,41.291253],[1.51592,41.291356],[1.515847,41.29146],[1.515811,41.291525],[1.515778,41.29159],[1.515737,41.291657],[1.515714,41.29169],[1.515669,41.291756],[1.515637,41.291806],[1.51561,41.291857],[1.515563,41.291966],[1.515518,41.292075],[1.515476,41.292187],[1.515432,41.292297],[1.515401,41.292353],[1.515345,41.292433],[1.51529,41.292513],[1.515233,41.292594],[1.515208,41.292636],[1.515189,41.29268],[1.515182,41.292738],[1.51518,41.292824],[1.515182,41.292911],[1.51519,41.293032],[1.515196,41.293153],[1.515197,41.293195],[1.515191,41.29327],[1.515177,41.293381],[1.515171,41.293437],[1.51517,41.293493],[1.515175,41.293611],[1.515184,41.293839],[1.515096,41.293888],[1.515097,41.293905],[1.515082,41.294031],[1.515001,41.294192],[1.514909,41.294325],[1.514896,41.294388],[1.51493,41.294451],[1.514921,41.294569],[1.514948,41.294691],[1.515086,41.294931],[1.51537,41.295262],[1.515509,41.295426],[1.515571,41.295557],[1.515593,41.295669],[1.515645,41.295742],[1.515691,41.295806],[1.515695,41.295828],[1.515754,41.295873],[1.515767,41.29598],[1.515745,41.296179],[1.51578,41.296316],[1.515836,41.296464],[1.515911,41.296579],[1.515932,41.296612],[1.515966,41.296621],[1.515984,41.296627],[1.516004,41.296633],[1.516026,41.29664],[1.516051,41.296645],[1.516073,41.296647],[1.516091,41.296649],[1.516086,41.296669],[1.51609,41.296699],[1.516188,41.296854],[1.516253,41.297046],[1.516247,41.297129],[1.516228,41.297411],[1.516228,41.297412],[1.516236,41.297478],[1.516269,41.297755],[1.51627,41.297767],[1.516277,41.297786]]]]}},{"type":"Feature","id":"430287_430287 AP07 BPE 2","properties":{"area_id":"430287_430287 AP07 BPE 2","nom":"el Papiolet","codi_icgc":"430287 AP07 BPE 2","categoria":"Àrees de poblament","codi_municipi":"430287","municipi":"la Bisbal del Penedès","codi_comarca":"12","comarca":"Baix Penedès","provincia":"Tarragona","font":"ICGC Àrees de poblament v3r1 202602"},"geometry":{"type":"MultiPolygon","coordinates":[[[[1.526364,41.280798],[1.526487,41.280838],[1.526493,41.280835],[1.526619,41.280879],[1.526706,41.280807],[1.526819,41.280694],[1.52691,41.280602],[1.526997,41.28052],[1.527026,41.280491],[1.527048,41.28048],[1.527069,41.280467],[1.527074,41.280461],[1.527074,41.280455],[1.527066,41.280449],[1.527008,41.280424],[1.526948,41.280401],[1.526919,41.280391],[1.52689,41.280385],[1.52688,41.280385],[1.526862,41.280391],[1.526848,41.2804],[1.526837,41.280408],[1.526823,41.280415],[1.526809,41.280419],[1.526785,41.280421],[1.526762,41.280419],[1.526701,41.280405],[1.526612,41.28038],[1.526566,41.280368],[1.52652,41.280359],[1.526426,41.280346],[1.526331,41.280334],[1.526298,41.280331],[1.526265,41.280333],[1.52625,41.280338],[1.526231,41.280352],[1.52622,41.280369],[1.526198,41.280433],[1.526176,41.280497],[1.526154,41.280554],[1.526131,41.280611],[1.526118,41.280631],[1.526091,41.28066],[1.526083,41.280674],[1.526082,41.280687],[1.526089,41.280695],[1.526102,41.2807],[1.526143,41.280715],[1.526166,41.280725],[1.526364,41.280798]]]]}},{"type":"Feature","id":"430287_430287 AP09 BPE 3","properties":{"area_id":"430287_430287 AP09 BPE 3","nom":"el Priorat de la Bisbal","codi_icgc":"430287 AP09 BPE 3","categoria":"Àrees de poblament","codi_municipi":"430287","municipi":"la Bisbal del Penedès","codi_comarca":"12","comarca":"Baix Penedès","provincia":"Tarragona","font":"ICGC Àrees de poblament v3r1 202602"},"geometry":{"type":"MultiPolygon","coordinates":[[[[1.473214,41.28329],[1.473284,41.283262],[1.473354,41.283233],[1.473444,41.283195],[1.473535,41.283157],[1.473633,41.283115],[1.47373,41.283071],[1.473809,41.283034],[1.473867,41.283006],[1.473868,41.283007],[1.473874,41.283021],[1.473896,41.283008],[1.473892,41.283001],[1.47389,41.282994],[1.4739,41.282984],[1.473908,41.282973],[1.473912,41.282959],[1.473913,41.282949],[1.47391,41.28293],[1.473903,41.282893],[1.473898,41.282799],[1.473895,41.282705],[1.473898,41.282674],[1.473904,41.282643],[1.473919,41.28258],[1.473921,41.282536],[1.473914,41.282481],[1.473907,41.282427],[1.473909,41.282385],[1.473918,41.282344],[1.473931,41.282324],[1.473951,41.282307],[1.473967,41.282298],[1.47397,41.282297],[1.473967,41.282285],[1.473983,41.282192],[1.47397,41.282161],[1.473953,41.282111],[1.473942,41.282073],[1.473935,41.282038],[1.473878,41.282017],[1.473883,41.281994],[1.473888,41.281972],[1.473895,41.28193],[1.473896,41.281888],[1.473893,41.281851],[1.473884,41.281814],[1.473873,41.281777],[1.473859,41.28173],[1.473828,41.281646],[1.473802,41.281587],[1.473779,41.281534],[1.473731,41.281422],[1.47371,41.281367],[1.473704,41.28135],[1.473692,41.281309],[1.473691,41.281307],[1.473673,41.281252],[1.47366,41.281201],[1.473657,41.281187],[1.473645,41.281122],[1.473643,41.281088],[1.473645,41.281053],[1.473657,41.280984],[1.473671,41.280939],[1.473694,41.280895],[1.473713,41.280867],[1.473728,41.280848],[1.47373,41.280846],[1.473752,41.280828],[1.473763,41.280823],[1.473769,41.28082],[1.473845,41.280796],[1.47392,41.280772],[1.473885,41.28062],[1.47396,41.280601],[1.474027,41.280585],[1.474055,41.280578],[1.473969,41.280206],[1.473806,41.280237],[1.473781,41.280155],[1.473776,41.280139],[1.473565,41.280222],[1.473362,41.280248],[1.473361,41.280274],[1.473344,41.280275],[1.473249,41.280266],[1.472725,41.280278],[1.472621,41.280289],[1.472605,41.280291],[1.472578,41.280299],[1.472563,41.280309],[1.472553,41.280323],[1.472544,41.280366],[1.47254,41.280406],[1.472531,41.280524],[1.472522,41.280642],[1.472513,41.28077],[1.472504,41.280898],[1.472492,41.280961],[1.472465,41.281056],[1.472436,41.281151],[1.472416,41.281219],[1.472396,41.281287],[1.472389,41.281314],[1.472387,41.281358],[1.472389,41.281368],[1.472477,41.281507],[1.472516,41.281561],[1.472649,41.281751],[1.47278,41.281942],[1.472807,41.281983],[1.472831,41.282022],[1.472831,41.282024],[1.472827,41.282031],[1.472817,41.28204],[1.472784,41.282051],[1.472746,41.282058],[1.472592,41.282078],[1.472455,41.282095],[1.472437,41.282097],[1.472436,41.282098],[1.472321,41.282113],[1.472262,41.282123],[1.472253,41.282124],[1.472204,41.282133],[1.472193,41.282135],[1.47218,41.282135],[1.472172,41.282133],[1.472167,41.28213],[1.472163,41.282125],[1.472154,41.282096],[1.472144,41.282063],[1.47212,41.281957],[1.472096,41.281851],[1.472077,41.281756],[1.472058,41.281659],[1.472042,41.281619],[1.472019,41.281581],[1.471967,41.28151],[1.471938,41.281462],[1.471924,41.281433],[1.471914,41.281403],[1.471911,41.281385],[1.471913,41.281357],[1.471919,41.281328],[1.471936,41.281269],[1.471966,41.281178],[1.472002,41.281089],[1.472033,41.281032],[1.472073,41.280976],[1.472119,41.28092],[1.472147,41.280881],[1.472169,41.280842],[1.472187,41.280801],[1.472189,41.280768],[1.472179,41.280735],[1.472168,41.280714],[1.472104,41.280628],[1.472075,41.280596],[1.472034,41.280548],[1.471982,41.280493],[1.471926,41.280439],[1.471894,41.280416],[1.471858,41.280397],[1.471846,41.280393],[1.471717,41.280404],[1.471666,41.280426],[1.471619,41.280452],[1.471593,41.280475],[1.471503,41.280579],[1.471415,41.280682],[1.471296,41.280824],[1.471177,41.280966],[1.47112,41.281032],[1.471062,41.281097],[1.471005,41.28115],[1.470943,41.2812],[1.470811,41.281296],[1.470712,41.281367],[1.470612,41.281439],[1.470548,41.281489],[1.470486,41.281541],[1.470425,41.281592],[1.470389,41.281613],[1.470348,41.28163],[1.470319,41.281638],[1.470257,41.28165],[1.470195,41.281656],[1.469976,41.281666],[1.469756,41.281675],[1.46966,41.281678],[1.469565,41.28168],[1.469501,41.281674],[1.469436,41.281663],[1.469233,41.281632],[1.46903,41.281602],[1.468978,41.281598],[1.468926,41.281598],[1.468868,41.281604],[1.468746,41.281626],[1.468717,41.281635],[1.468684,41.281651],[1.468586,41.281711],[1.468529,41.281748],[1.468492,41.281773],[1.468456,41.281797],[1.468419,41.281821],[1.468452,41.281898],[1.468579,41.282027],[1.468614,41.282069],[1.468646,41.282107],[1.468754,41.282128],[1.468754,41.282162],[1.468764,41.282164],[1.468773,41.282172],[1.468778,41.282187],[1.468782,41.282206],[1.468789,41.282245],[1.46879,41.282267],[1.468788,41.282293],[1.468785,41.282321],[1.468784,41.282425],[1.468782,41.28253],[1.468784,41.282584],[1.468794,41.282666],[1.468808,41.282748],[1.46882,41.282809],[1.468846,41.2829],[1.468875,41.282991],[1.468889,41.283034],[1.468902,41.283067],[1.468906,41.283073],[1.468915,41.28309],[1.468927,41.283105],[1.46895,41.283125],[1.468965,41.283132],[1.468981,41.283138],[1.469079,41.283149],[1.469178,41.283154],[1.46941,41.283164],[1.469643,41.283175],[1.469838,41.283185],[1.470034,41.283195],[1.470062,41.283195],[1.470076,41.283196],[1.470087,41.283199],[1.470087,41.283199],[1.470087,41.283207],[1.470302,41.283227],[1.470309,41.283216],[1.470403,41.283152],[1.470819,41.282829],[1.47091,41.282765],[1.47091,41.282765],[1.471031,41.282684],[1.47113,41.282745],[1.47124,41.28289],[1.471267,41.28293],[1.471302,41.282964],[1.471333,41.28303],[1.471364,41.283095],[1.471399,41.283167],[1.471437,41.283238],[1.47145,41.283254],[1.471469,41.283268],[1.471484,41.283275],[1.471505,41.283278],[1.471585,41.283278],[1.471665,41.283276],[1.471716,41.283275],[1.471773,41.283271],[1.471793,41.283273],[1.471803,41.283273],[1.471942,41.28327],[1.472086,41.283271],[1.47223,41.283278],[1.472325,41.283286],[1.472447,41.283299],[1.472569,41.283315],[1.47265,41.283322],[1.47278,41.283329],[1.47291,41.28333],[1.472997,41.283328],[1.47306,41.283324],[1.473122,41.283315],[1.473162,41.283307],[1.473214,41.28329]]],[[[1.468649,41.293557],[1.468844,41.293504],[1.469024,41.293432],[1.46919,41.293364],[1.469429,41.293308],[1.469684,41.293223],[1.469741,41.293196],[1.469861,41.293067],[1.470008,41.292864],[1.470219,41.292845],[1.470223,41.292844],[1.470416,41.292824],[1.470491,41.292818],[1.470843,41.292735],[1.470926,41.292715],[1.470961,41.292604],[1.470978,41.292497],[1.470969,41.292497],[1.470859,41.292487],[1.470822,41.292481],[1.470822,41.292476],[1.470837,41.292269],[1.470827,41.292266],[1.470825,41.292266],[1.470466,41.292176],[1.470376,41.292154],[1.470359,41.292127],[1.470247,41.291951],[1.470245,41.291949],[1.470138,41.291834],[1.470094,41.291773],[1.469811,41.291386],[1.469653,41.291201],[1.46957,41.291125],[1.469482,41.291052],[1.469266,41.290874],[1.469037,41.290656],[1.468765,41.290596],[1.468762,41.290596],[1.468433,41.290645],[1.468489,41.290832],[1.468516,41.290964],[1.46848,41.290959],[1.468444,41.290953],[1.468386,41.29094],[1.468358,41.290934],[1.468329,41.290929],[1.468273,41.290925],[1.468217,41.290921],[1.468183,41.290918],[1.468149,41.290915],[1.468077,41.29081],[1.468089,41.290598],[1.467893,41.29056],[1.467895,41.290542],[1.467744,41.290533],[1.467711,41.290536],[1.467668,41.290847],[1.467662,41.290847],[1.467635,41.29085],[1.467608,41.290858],[1.467564,41.290877],[1.467538,41.290895],[1.467516,41.290913],[1.467484,41.290948],[1.467435,41.291014],[1.467411,41.291044],[1.467416,41.291144],[1.467491,41.291353],[1.467539,41.291468],[1.467595,41.291601],[1.467599,41.291611],[1.467622,41.291692],[1.467631,41.291716],[1.467676,41.291851],[1.467677,41.291855],[1.467723,41.291978],[1.467879,41.292574],[1.467777,41.292598],[1.467694,41.292599],[1.467613,41.2926],[1.467419,41.29259],[1.467225,41.292573],[1.467192,41.292567],[1.467168,41.292559],[1.467001,41.292386],[1.466908,41.292251],[1.466864,41.292182],[1.466823,41.292113],[1.466763,41.291997],[1.466706,41.291882],[1.466658,41.291786],[1.466636,41.291738],[1.466618,41.291692],[1.466616,41.291689],[1.466592,41.291622],[1.466582,41.291583],[1.466562,41.291492],[1.467039,41.291452],[1.466987,41.291311],[1.466985,41.291306],[1.46699,41.291275],[1.46702,41.291213],[1.467032,41.291162],[1.467053,41.291072],[1.467076,41.29069],[1.467072,41.290673],[1.467016,41.290446],[1.467055,41.290273],[1.46711,41.290105],[1.467112,41.290098],[1.467142,41.289959],[1.467141,41.289899],[1.467181,41.28983],[1.467189,41.289818],[1.467324,41.289619],[1.467349,41.289589],[1.46735,41.289587],[1.467452,41.289404],[1.467453,41.2894],[1.467502,41.289211],[1.467501,41.289197],[1.467501,41.289195],[1.467472,41.28904],[1.467435,41.288847],[1.467435,41.288845],[1.467434,41.288842],[1.467362,41.288841],[1.467297,41.288398],[1.467263,41.288103],[1.467277,41.288054],[1.467336,41.287845],[1.467339,41.287772],[1.467007,41.287693],[1.466929,41.28769],[1.466882,41.287688],[1.46686,41.287744],[1.46684,41.287807],[1.466822,41.28787],[1.466822,41.287901],[1.466831,41.287931],[1.466841,41.287952],[1.466859,41.287978],[1.466875,41.287993],[1.466894,41.288003],[1.466934,41.288022],[1.466956,41.288038],[1.46699,41.288079],[1.467019,41.288122],[1.467033,41.288152],[1.467052,41.288206],[1.467068,41.28826],[1.467075,41.288297],[1.467088,41.288372],[1.467099,41.288448],[1.467108,41.288512],[1.467116,41.288576],[1.467117,41.288619],[1.467114,41.288699],[1.467111,41.288779],[1.467113,41.288852],[1.467114,41.288925],[1.467113,41.288938],[1.46711,41.28897],[1.467097,41.289014],[1.467083,41.289042],[1.46706,41.289074],[1.467034,41.289103],[1.46697,41.289135],[1.466504,41.289005],[1.466291,41.289255],[1.466105,41.289572],[1.466092,41.289597],[1.466031,41.289717],[1.466004,41.289717],[1.465988,41.289847],[1.465982,41.289889],[1.465978,41.289976],[1.465976,41.29002],[1.465969,41.290119],[1.465965,41.290185],[1.46597,41.290269],[1.46597,41.290274],[1.466017,41.290384],[1.466023,41.2904],[1.46607,41.290529],[1.466119,41.290599],[1.46614,41.290675],[1.46614,41.290752],[1.466084,41.290736],[1.466062,41.290903],[1.465901,41.291046],[1.465794,41.29117],[1.465728,41.291302],[1.465638,41.291546],[1.465589,41.291672],[1.465582,41.291692],[1.465582,41.291692],[1.465441,41.292059],[1.465382,41.292171],[1.465379,41.292177],[1.465357,41.29222],[1.465317,41.292297],[1.465748,41.292431],[1.465652,41.29259],[1.465555,41.292749],[1.46551,41.29283],[1.465471,41.292913],[1.465465,41.292931],[1.465462,41.29295],[1.465464,41.292988],[1.465472,41.293013],[1.465487,41.293042],[1.465507,41.29307],[1.465524,41.293086],[1.465551,41.293102],[1.465598,41.293124],[1.465645,41.293145],[1.465589,41.293468],[1.46577,41.29349],[1.465891,41.293506],[1.465949,41.293511],[1.466154,41.293523],[1.466492,41.293521],[1.466496,41.293521],[1.466665,41.293532],[1.466669,41.293533],[1.466848,41.293545],[1.467019,41.293556],[1.467022,41.293556],[1.467437,41.293593],[1.467738,41.293614],[1.467781,41.293618],[1.467905,41.293629],[1.468086,41.293646],[1.468093,41.293646],[1.468275,41.293658],[1.468639,41.29356],[1.468649,41.293557]]],[[[1.473547,41.292166],[1.473468,41.292032],[1.473405,41.291925],[1.473386,41.291894],[1.473427,41.291879],[1.473488,41.291856],[1.47342,41.291708],[1.473412,41.291691],[1.473343,41.291589],[1.473274,41.291487],[1.47325,41.291444],[1.473225,41.291377],[1.473201,41.291309],[1.473177,41.291244],[1.473148,41.291159],[1.473144,41.291145],[1.473123,41.291097],[1.473096,41.291051],[1.473082,41.291029],[1.473052,41.290983],[1.473007,41.290915],[1.472972,41.290868],[1.472788,41.290653],[1.472689,41.290557],[1.47259,41.290462],[1.472548,41.290419],[1.472541,41.290411],[1.472539,41.290411],[1.47245,41.290321],[1.472329,41.290112],[1.472292,41.289906],[1.472286,41.289609],[1.472196,41.289628],[1.471974,41.289673],[1.472021,41.289638],[1.472092,41.289587],[1.472163,41.289534],[1.472295,41.289429],[1.472425,41.289323],[1.472528,41.289244],[1.472631,41.289164],[1.472714,41.289098],[1.472797,41.289032],[1.472905,41.28895],[1.473015,41.288868],[1.4731,41.288801],[1.473175,41.288742],[1.473203,41.288773],[1.473224,41.288758],[1.473374,41.28887],[1.473578,41.288769],[1.473658,41.288672],[1.473842,41.288451],[1.474023,41.288224],[1.474035,41.288209],[1.474114,41.28824],[1.47416,41.2882],[1.474292,41.288085],[1.474455,41.288155],[1.474485,41.288168],[1.474597,41.288068],[1.474695,41.28796],[1.474701,41.287954],[1.474713,41.287851],[1.474718,41.28781],[1.474754,41.287597],[1.475086,41.287787],[1.475374,41.28794],[1.475456,41.28797],[1.475531,41.287997],[1.475538,41.287989],[1.475555,41.287966],[1.475603,41.287903],[1.475651,41.28784],[1.475666,41.287815],[1.47568,41.28778],[1.475693,41.287786],[1.475771,41.287824],[1.476209,41.287471],[1.476349,41.287358],[1.476511,41.287228],[1.47656,41.287189],[1.476562,41.287187],[1.476945,41.28688],[1.477646,41.286318],[1.477629,41.286311],[1.477325,41.286106],[1.477261,41.286075],[1.477183,41.286035],[1.477152,41.286068],[1.477053,41.286165],[1.476954,41.286262],[1.476852,41.286364],[1.476751,41.286466],[1.476681,41.286534],[1.476605,41.2866],[1.476543,41.286646],[1.476476,41.286689],[1.476399,41.286734],[1.476323,41.286779],[1.476202,41.286838],[1.47647,41.286597],[1.476355,41.286527],[1.476292,41.286488],[1.476251,41.286461],[1.476224,41.286444],[1.476048,41.28633],[1.475848,41.286209],[1.47583,41.286198],[1.475484,41.285989],[1.47535,41.285908],[1.475219,41.285829],[1.475198,41.285815],[1.475097,41.285746],[1.475071,41.285768],[1.475022,41.285805],[1.474989,41.285832],[1.474962,41.285851],[1.474633,41.285666],[1.474565,41.285641],[1.474408,41.285563],[1.474351,41.285512],[1.47411,41.285395],[1.474093,41.285376],[1.474034,41.28531],[1.473961,41.285191],[1.473924,41.285144],[1.473854,41.285011],[1.473809,41.284969],[1.473719,41.284875],[1.473708,41.284862],[1.473669,41.284818],[1.473583,41.284894],[1.473558,41.284879],[1.473537,41.284866],[1.47343,41.284804],[1.473265,41.284805],[1.472928,41.284745],[1.472769,41.284716],[1.472495,41.284674],[1.472448,41.284778],[1.472331,41.284933],[1.472036,41.285302],[1.472139,41.285359],[1.472002,41.285529],[1.471995,41.285526],[1.471987,41.285522],[1.471825,41.285434],[1.471656,41.285342],[1.471359,41.28518],[1.471352,41.285175],[1.47106,41.284984],[1.471143,41.284585],[1.471154,41.284518],[1.471171,41.284423],[1.470934,41.284374],[1.470857,41.284338],[1.470831,41.284325],[1.470813,41.284309],[1.470611,41.284122],[1.470412,41.284065],[1.470179,41.284141],[1.469989,41.284157],[1.469851,41.284169],[1.469811,41.284172],[1.469708,41.284182],[1.469597,41.284246],[1.469672,41.284349],[1.469668,41.284349],[1.469609,41.284461],[1.469475,41.284592],[1.469368,41.284674],[1.469256,41.284807],[1.469199,41.284914],[1.469198,41.284917],[1.469196,41.284955],[1.469199,41.284989],[1.469207,41.285023],[1.46922,41.285063],[1.469238,41.285104],[1.46927,41.285175],[1.469276,41.285189],[1.469315,41.285274],[1.469361,41.285371],[1.469374,41.285394],[1.46941,41.285459],[1.469396,41.285446],[1.469453,41.285526],[1.469424,41.28566],[1.469439,41.285676],[1.469412,41.285718],[1.469291,41.285906],[1.469246,41.285885],[1.468965,41.28583],[1.468642,41.286008],[1.468611,41.286025],[1.46851,41.286381],[1.468504,41.286403],[1.468561,41.286583],[1.468608,41.286707],[1.468764,41.286859],[1.469029,41.286741],[1.469137,41.286693],[1.469176,41.286734],[1.469289,41.286856],[1.469344,41.286919],[1.469383,41.286967],[1.469436,41.287041],[1.46948,41.287118],[1.469543,41.28725],[1.469604,41.287383],[1.469661,41.287513],[1.469719,41.287643],[1.469772,41.287749],[1.469773,41.28775],[1.469544,41.287812],[1.46952,41.287972],[1.469565,41.288076],[1.469647,41.288268],[1.469656,41.288289],[1.469765,41.288519],[1.469813,41.288622],[1.469816,41.288703],[1.470209,41.288897],[1.470219,41.288904],[1.470221,41.288903],[1.470297,41.288837],[1.470526,41.288748],[1.470552,41.288783],[1.470564,41.288799],[1.470574,41.288797],[1.470628,41.288852],[1.47073,41.288956],[1.470746,41.288978],[1.470753,41.289004],[1.470753,41.289022],[1.470745,41.289044],[1.470723,41.289073],[1.470693,41.289098],[1.470669,41.289113],[1.470632,41.289127],[1.470581,41.289141],[1.470529,41.289152],[1.470513,41.289154],[1.470367,41.289176],[1.470364,41.289177],[1.470279,41.289289],[1.470325,41.289317],[1.470357,41.289336],[1.470389,41.289355],[1.470392,41.289512],[1.470401,41.289682],[1.470404,41.289735],[1.470417,41.289843],[1.470438,41.290017],[1.470406,41.290018],[1.470373,41.290019],[1.470338,41.290022],[1.470303,41.290031],[1.470273,41.290043],[1.470246,41.290057],[1.470197,41.290092],[1.470158,41.290127],[1.470125,41.290166],[1.470118,41.290179],[1.470115,41.290194],[1.470116,41.290221],[1.470127,41.290249],[1.470141,41.290267],[1.470158,41.290284],[1.470194,41.290313],[1.470321,41.290397],[1.470447,41.290482],[1.470544,41.290549],[1.47064,41.290618],[1.470684,41.290656],[1.470721,41.290698],[1.47078,41.290778],[1.470838,41.290858],[1.470925,41.290975],[1.471011,41.291093],[1.471043,41.291132],[1.471077,41.291171],[1.471111,41.2912],[1.47115,41.291225],[1.471201,41.291249],[1.471254,41.291268],[1.47129,41.291278],[1.471398,41.291301],[1.471506,41.291321],[1.471589,41.291333],[1.471672,41.291341],[1.471766,41.291344],[1.47186,41.291348],[1.472054,41.291364],[1.472248,41.291381],[1.472388,41.291393],[1.472527,41.291406],[1.472569,41.291412],[1.472609,41.291423],[1.472625,41.291431],[1.472638,41.291441],[1.472659,41.291464],[1.472687,41.291509],[1.472713,41.291554],[1.472738,41.2916],[1.472789,41.291691],[1.472813,41.291737],[1.472843,41.291798],[1.472848,41.291814],[1.472851,41.291828],[1.47285,41.291863],[1.472845,41.291882],[1.472837,41.291896],[1.472825,41.29191],[1.472818,41.291915],[1.472805,41.291923],[1.472771,41.291933],[1.472734,41.291942],[1.472653,41.291958],[1.472549,41.291976],[1.472477,41.291989],[1.47251,41.292037],[1.472517,41.292036],[1.472531,41.292068],[1.472594,41.29221],[1.472599,41.292221],[1.472661,41.292338],[1.472732,41.292469],[1.472791,41.292581],[1.473072,41.292688],[1.473145,41.292715],[1.473103,41.292738],[1.473089,41.292747],[1.473068,41.292765],[1.473041,41.292796],[1.473027,41.292818],[1.473012,41.292849],[1.472982,41.29293],[1.472951,41.29301],[1.472914,41.293098],[1.47288,41.293186],[1.472839,41.293305],[1.4728,41.293424],[1.472768,41.293513],[1.472736,41.293602],[1.472728,41.293644],[1.47273,41.293686],[1.472737,41.293715],[1.472754,41.293751],[1.472776,41.293781],[1.4728,41.293808],[1.472852,41.293859],[1.472933,41.293936],[1.473014,41.294012],[1.473086,41.294079],[1.473157,41.294147],[1.473199,41.294194],[1.473257,41.294275],[1.473312,41.294357],[1.473363,41.294431],[1.473407,41.294514],[1.473432,41.294551],[1.473455,41.294569],[1.473484,41.294585],[1.473512,41.294601],[1.473526,41.29464],[1.473561,41.294755],[1.473653,41.29491],[1.474027,41.294818],[1.474221,41.294771],[1.474207,41.294747],[1.474187,41.294711],[1.474356,41.294641],[1.474176,41.294384],[1.474183,41.294371],[1.474194,41.294359],[1.474203,41.294352],[1.474214,41.294345],[1.474281,41.294318],[1.474346,41.294292],[1.474363,41.294272],[1.474367,41.294259],[1.474365,41.294245],[1.47436,41.294227],[1.474349,41.294204],[1.47433,41.29417],[1.474315,41.294142],[1.474301,41.294114],[1.474557,41.294026],[1.474604,41.29401],[1.474449,41.293723],[1.474322,41.293506],[1.474287,41.293412],[1.474265,41.293373],[1.474237,41.293282],[1.47396,41.292864],[1.473879,41.292727],[1.473825,41.292635],[1.473804,41.292601],[1.473715,41.29245],[1.473637,41.292317],[1.473561,41.292189],[1.473547,41.292166]]]]}},{"type":"Feature","id":"430287_430287 AP05 BPE 3","properties":{"area_id":"430287_430287 AP05 BPE 3","nom":"l'Esplai del Penedès","codi_icgc":"430287 AP05 BPE 3","categoria":"Àrees de poblament","codi_municipi":"430287","municipi":"la Bisbal del Penedès","codi_comarca":"12","comarca":"Baix Penedès","provincia":"Tarragona","font":"ICGC Àrees de poblament v3r1 202602"},"geometry":{"type":"MultiPolygon","coordinates":[[[[1.460229,41.260105],[1.460311,41.260089],[1.460397,41.260167],[1.460754,41.260173],[1.460971,41.260181],[1.460987,41.260151],[1.46093,41.260095],[1.46075,41.259981],[1.460854,41.259936],[1.460697,41.259808],[1.46058,41.259704],[1.46045,41.259559],[1.460421,41.259564],[1.460227,41.2596],[1.460173,41.25948],[1.46007,41.259497],[1.460049,41.259433],[1.460021,41.259349],[1.459655,41.259414],[1.459672,41.259509],[1.459688,41.259599],[1.4597,41.259648],[1.459741,41.25978],[1.459765,41.259859],[1.459782,41.259908],[1.459831,41.260177],[1.460195,41.260112],[1.460229,41.260105]]],[[[1.46078,41.260944],[1.460818,41.260922],[1.46083,41.260927],[1.461236,41.260677],[1.461297,41.260571],[1.461293,41.260462],[1.461185,41.260443],[1.461134,41.260434],[1.46107,41.26044],[1.460997,41.260458],[1.460931,41.260479],[1.460871,41.260499],[1.460756,41.260571],[1.460694,41.260605],[1.460433,41.260744],[1.460393,41.260768],[1.460388,41.260781],[1.460382,41.260799],[1.460384,41.260825],[1.460387,41.260832],[1.460392,41.260842],[1.460402,41.26086],[1.460567,41.260956],[1.460668,41.261015],[1.46069,41.261001],[1.46078,41.260944]]],[[[1.464424,41.259778],[1.464467,41.25963],[1.464635,41.259602],[1.464886,41.259558],[1.464846,41.259458],[1.464824,41.259416],[1.464823,41.259414],[1.464798,41.259366],[1.464734,41.259237],[1.464706,41.25915],[1.464814,41.258984],[1.464697,41.258921],[1.464675,41.258901],[1.464615,41.258848],[1.4646,41.258671],[1.464601,41.258624],[1.464551,41.258624],[1.4643,41.258656],[1.4642,41.258661],[1.464161,41.258578],[1.464146,41.258537],[1.464074,41.258549],[1.464025,41.258558],[1.463823,41.258587],[1.463651,41.258609],[1.46341,41.25864],[1.46339,41.258612],[1.463379,41.258592],[1.463374,41.258568],[1.463375,41.258544],[1.463374,41.258509],[1.463374,41.258475],[1.463378,41.258377],[1.463383,41.258277],[1.463384,41.258256],[1.463384,41.25825],[1.463307,41.258228],[1.462635,41.25803],[1.462317,41.25789],[1.462318,41.257833],[1.462272,41.257775],[1.462214,41.257803],[1.46209,41.257436],[1.462181,41.25723],[1.462153,41.257105],[1.462273,41.257031],[1.462282,41.25702],[1.462286,41.257002],[1.462282,41.256985],[1.462261,41.256954],[1.462232,41.256929],[1.462174,41.256896],[1.462113,41.25687],[1.462066,41.256856],[1.461996,41.256838],[1.461929,41.256819],[1.461887,41.256805],[1.461827,41.256778],[1.46177,41.256746],[1.461743,41.256727],[1.461706,41.256696],[1.461672,41.256661],[1.461658,41.256643],[1.461648,41.256624],[1.461646,41.256615],[1.461648,41.256605],[1.461653,41.256593],[1.461662,41.256584],[1.461686,41.256571],[1.461696,41.256568],[1.461708,41.256567],[1.461735,41.256569],[1.461782,41.256577],[1.461845,41.256584],[1.462027,41.256617],[1.462165,41.256641],[1.462304,41.256663],[1.462424,41.256678],[1.462544,41.256687],[1.462597,41.256686],[1.462674,41.256681],[1.46275,41.256671],[1.462899,41.256644],[1.463047,41.256617],[1.463143,41.256599],[1.463237,41.256581],[1.463258,41.256578],[1.46329,41.25658],[1.463322,41.256588],[1.463343,41.256598],[1.463372,41.256617],[1.463383,41.256628],[1.463391,41.25664],[1.463416,41.256696],[1.463424,41.256724],[1.463428,41.256752],[1.463435,41.256853],[1.463441,41.256955],[1.463447,41.25702],[1.463453,41.257086],[1.463459,41.257125],[1.463471,41.257165],[1.463471,41.257165],[1.463484,41.257187],[1.463511,41.257213],[1.463548,41.257234],[1.463638,41.257252],[1.46366,41.257252],[1.463701,41.257244],[1.463758,41.257227],[1.463811,41.257203],[1.463912,41.257141],[1.464007,41.257075],[1.464099,41.257006],[1.464232,41.256899],[1.464367,41.256793],[1.464397,41.256772],[1.464446,41.256743],[1.464451,41.25674],[1.464484,41.256729],[1.46452,41.256724],[1.464556,41.256724],[1.464592,41.25673],[1.464625,41.256741],[1.464655,41.256757],[1.464802,41.256876],[1.464432,41.257108],[1.464573,41.257201],[1.464611,41.257227],[1.464748,41.257328],[1.464879,41.25742],[1.464915,41.257444],[1.464915,41.257445],[1.464995,41.25749],[1.465081,41.257537],[1.465335,41.257568],[1.465337,41.257569],[1.465517,41.257614],[1.4656,41.257628],[1.465602,41.257629],[1.465805,41.257672],[1.465967,41.257711],[1.465981,41.257732],[1.466087,41.257895],[1.466092,41.257918],[1.466155,41.258255],[1.466155,41.258255],[1.466162,41.258294],[1.466158,41.258508],[1.466005,41.259127],[1.465997,41.259317],[1.465987,41.25956],[1.46618,41.259524],[1.466259,41.259838],[1.466319,41.260041],[1.466406,41.260371],[1.466476,41.260643],[1.466575,41.260852],[1.466657,41.260988],[1.466675,41.261018],[1.466731,41.261087],[1.466892,41.261287],[1.466914,41.261315],[1.466924,41.261308],[1.46705,41.26122],[1.46713,41.261161],[1.467204,41.261097],[1.467234,41.261064],[1.467259,41.261029],[1.467297,41.260956],[1.467306,41.26093],[1.467308,41.260917],[1.467311,41.260903],[1.467309,41.260883],[1.4673,41.26086],[1.467272,41.260817],[1.467243,41.260775],[1.467224,41.260747],[1.467214,41.260732],[1.467204,41.260717],[1.467172,41.260671],[1.467141,41.260624],[1.467058,41.260491],[1.466981,41.260356],[1.466946,41.260285],[1.46692,41.260213],[1.466911,41.260154],[1.466911,41.260093],[1.466916,41.260006],[1.466919,41.259917],[1.466918,41.259869],[1.466915,41.25982],[1.466902,41.259771],[1.466881,41.259723],[1.466832,41.259643],[1.466782,41.259565],[1.46675,41.259513],[1.466725,41.259467],[1.466705,41.259421],[1.466695,41.259379],[1.466688,41.259336],[1.466682,41.259249],[1.466679,41.259183],[1.466679,41.259152],[1.4667,41.258978],[1.466719,41.258882],[1.466746,41.25875],[1.466772,41.258617],[1.466783,41.258556],[1.466792,41.258494],[1.466792,41.258464],[1.466787,41.258435],[1.466771,41.258378],[1.466698,41.258155],[1.466627,41.257932],[1.466591,41.257815],[1.466583,41.257764],[1.466583,41.25774],[1.466587,41.257715],[1.466601,41.257669],[1.466612,41.257643],[1.46663,41.257617],[1.466662,41.257574],[1.466694,41.25753],[1.466719,41.257484],[1.466738,41.257436],[1.466745,41.257403],[1.466748,41.257364],[1.466748,41.257326],[1.466738,41.25725],[1.466713,41.257151],[1.466701,41.257118],[1.466677,41.257077],[1.466601,41.256968],[1.466525,41.256861],[1.466461,41.256771],[1.466399,41.25668],[1.46632,41.256563],[1.466242,41.256444],[1.466178,41.256346],[1.466113,41.256247],[1.466048,41.256151],[1.465979,41.256057],[1.465902,41.255962],[1.465817,41.255872],[1.465756,41.255814],[1.465588,41.255664],[1.46542,41.255514],[1.465341,41.255442],[1.464848,41.255062],[1.464629,41.254907],[1.46455,41.254854],[1.464079,41.254542],[1.464015,41.254576],[1.463996,41.254593],[1.463987,41.254588],[1.46399,41.254625],[1.463994,41.254662],[1.464005,41.254717],[1.464008,41.254745],[1.46401,41.254761],[1.464012,41.254858],[1.464009,41.254942],[1.464053,41.254973],[1.464077,41.25499],[1.464266,41.255123],[1.464526,41.255306],[1.464428,41.255452],[1.464408,41.255484],[1.464409,41.255503],[1.464376,41.255569],[1.464268,41.255651],[1.464266,41.255651],[1.464126,41.255694],[1.464044,41.25571],[1.464056,41.255779],[1.463951,41.255831],[1.46372,41.255852],[1.463722,41.255863],[1.463795,41.256117],[1.463792,41.256188],[1.463636,41.256359],[1.463607,41.256391],[1.463511,41.256351],[1.463163,41.256319],[1.462721,41.256311],[1.462402,41.256287],[1.462237,41.256273],[1.46195,41.256177],[1.461693,41.256143],[1.461596,41.256512],[1.461013,41.256466],[1.460891,41.256458],[1.46082,41.256459],[1.46075,41.256464],[1.460613,41.256482],[1.460396,41.256514],[1.46018,41.256546],[1.460178,41.256546],[1.460036,41.256565],[1.459884,41.256582],[1.459731,41.256599],[1.459692,41.256608],[1.459656,41.256625],[1.459627,41.256639],[1.459601,41.256659],[1.459574,41.256677],[1.459567,41.256639],[1.459303,41.256679],[1.459362,41.25695],[1.459363,41.256961],[1.459395,41.257258],[1.459394,41.257262],[1.459387,41.257326],[1.459373,41.257405],[1.4594,41.257623],[1.459438,41.257683],[1.459412,41.257791],[1.459411,41.257813],[1.459414,41.257931],[1.459417,41.257941],[1.459452,41.258082],[1.459477,41.258183],[1.459492,41.258214],[1.459492,41.258215],[1.45955,41.258332],[1.459616,41.258362],[1.459623,41.258375],[1.459671,41.258466],[1.459698,41.258513],[1.45978,41.258657],[1.460062,41.258605],[1.460095,41.258627],[1.460098,41.258629],[1.460107,41.258635],[1.460135,41.258655],[1.460196,41.258697],[1.460461,41.258823],[1.46127,41.259158],[1.461331,41.259194],[1.461078,41.259388],[1.461132,41.259516],[1.461246,41.259615],[1.461269,41.259631],[1.461479,41.259807],[1.461756,41.259681],[1.461862,41.259836],[1.461919,41.259924],[1.461946,41.259958],[1.461978,41.25999],[1.462016,41.260022],[1.462058,41.26005],[1.46214,41.260099],[1.462162,41.260112],[1.462221,41.260148],[1.462279,41.260184],[1.462337,41.26022],[1.462376,41.260244],[1.462451,41.260292],[1.462524,41.260342],[1.462679,41.260458],[1.462833,41.260576],[1.462958,41.260665],[1.463082,41.260755],[1.463187,41.260833],[1.46329,41.260913],[1.463361,41.260973],[1.463427,41.261035],[1.463473,41.261083],[1.463518,41.261131],[1.46355,41.261163],[1.463591,41.2612],[1.463635,41.261236],[1.463683,41.261269],[1.463734,41.2613],[1.46377,41.261318],[1.463808,41.261335],[1.463905,41.261311],[1.463992,41.261289],[1.464024,41.261254],[1.464182,41.261077],[1.463956,41.260945],[1.463794,41.26082],[1.463791,41.260724],[1.46377,41.260654],[1.463763,41.260607],[1.463764,41.260567],[1.463771,41.2605],[1.463788,41.260417],[1.463805,41.260368],[1.463859,41.260291],[1.463829,41.260267],[1.463928,41.260156],[1.464019,41.260056],[1.464165,41.25993],[1.464171,41.259924],[1.464424,41.259778]]],[[[1.464709,41.262814],[1.464788,41.262773],[1.464828,41.262813],[1.464858,41.262825],[1.465116,41.262652],[1.465252,41.262563],[1.465392,41.262472],[1.465336,41.262425],[1.465122,41.262221],[1.465033,41.262283],[1.464988,41.262311],[1.464875,41.262388],[1.46485,41.262406],[1.464682,41.262523],[1.464517,41.26266],[1.464373,41.262814],[1.464235,41.262961],[1.464239,41.263254],[1.464264,41.263444],[1.464521,41.263231],[1.464496,41.263213],[1.464472,41.263195],[1.464394,41.263137],[1.464443,41.263096],[1.464517,41.263084],[1.46473,41.262895],[1.464737,41.262842],[1.464709,41.262814]]],[[[1.463893,41.263512],[1.463759,41.263401],[1.463423,41.263592],[1.463276,41.263676],[1.463266,41.263682],[1.462991,41.263839],[1.462919,41.26388],[1.462841,41.263908],[1.462883,41.263951],[1.462979,41.26405],[1.463029,41.2641],[1.463037,41.264108],[1.463246,41.264095],[1.46335,41.264078],[1.46346,41.26401],[1.463543,41.263964],[1.463549,41.26396],[1.463589,41.263911],[1.463642,41.263834],[1.463616,41.2638],[1.463716,41.263746],[1.463767,41.263719],[1.463805,41.263693],[1.463763,41.263658],[1.463893,41.263512]]]]}},{"type":"Feature","id":"430287_430287 AP02 BPE 3","properties":{"area_id":"430287_430287 AP02 BPE 3","nom":"l'Ortigós","codi_icgc":"430287 AP02 BPE 3","categoria":"Àrees de poblament","codi_municipi":"430287","municipi":"la Bisbal del Penedès","codi_comarca":"12","comarca":"Baix Penedès","provincia":"Tarragona","font":"ICGC Àrees de poblament v3r1 202602"},"geometry":{"type":"MultiPolygon","coordinates":[[[[1.519027,41.283987],[1.51885,41.283694],[1.518795,41.283596],[1.51871,41.283458],[1.518643,41.283348],[1.518608,41.283291],[1.517923,41.283088],[1.51786,41.283229],[1.517809,41.283342],[1.517917,41.283378],[1.517722,41.283611],[1.51772,41.283662],[1.517631,41.283804],[1.51777,41.283862],[1.517784,41.283875],[1.517892,41.283783],[1.518269,41.283901],[1.51851,41.284071],[1.518451,41.284243],[1.518352,41.284421],[1.518155,41.284654],[1.5184,41.284784],[1.51865,41.284588],[1.518829,41.284357],[1.518951,41.284082],[1.519027,41.283987]]]]}},{"type":"Feature","id":"430287_430287 AP01 BPE 3","properties":{"area_id":"430287_430287 AP01 BPE 3","nom":"la Bisbal del Penedès","codi_icgc":"430287 AP01 BPE 3","categoria":"Àrees de poblament","codi_municipi":"430287","municipi":"la Bisbal del Penedès","codi_comarca":"12","comarca":"Baix Penedès","provincia":"Tarragona","font":"ICGC Àrees de poblament v3r1 202602"},"geometry":{"type":"MultiPolygon","coordinates":[[[[1.488976,41.276026],[1.489131,41.276045],[1.489128,41.276088],[1.489165,41.276153],[1.489198,41.276165],[1.489243,41.276189],[1.489259,41.276197],[1.489323,41.276236],[1.489375,41.27625],[1.489427,41.276275],[1.489427,41.276275],[1.489431,41.276287],[1.489435,41.276312],[1.489438,41.27633],[1.489439,41.276349],[1.489445,41.276454],[1.489452,41.276577],[1.48946,41.276698],[1.48951,41.277092],[1.489499,41.277163],[1.489454,41.277224],[1.489369,41.277298],[1.489079,41.277689],[1.489049,41.277746],[1.488787,41.278159],[1.488763,41.278195],[1.488732,41.27824],[1.488583,41.278459],[1.488562,41.27849],[1.488294,41.278844],[1.488229,41.278901],[1.488193,41.278925],[1.488067,41.278989],[1.487354,41.279323],[1.487336,41.279332],[1.487321,41.279318],[1.48729,41.279288],[1.487185,41.279196],[1.487147,41.27923],[1.487106,41.279255],[1.487059,41.279308],[1.487004,41.279275],[1.48679,41.279504],[1.486808,41.279517],[1.486815,41.279522],[1.486768,41.279578],[1.486828,41.279612],[1.486738,41.279747],[1.486627,41.27987],[1.486591,41.279913],[1.486583,41.279923],[1.486572,41.279941],[1.486525,41.280021],[1.48649,41.280078],[1.486443,41.280155],[1.486376,41.280329],[1.486348,41.280374],[1.486331,41.280399],[1.48631,41.28042],[1.486275,41.280437],[1.486236,41.280452],[1.486222,41.280454],[1.486192,41.280451],[1.485958,41.280434],[1.485872,41.280421],[1.485863,41.280474],[1.485741,41.280603],[1.485527,41.280624],[1.485449,41.280611],[1.485144,41.280488],[1.484309,41.280012],[1.484496,41.279786],[1.484342,41.279713],[1.484342,41.279713],[1.484409,41.279645],[1.484409,41.279645],[1.484494,41.279561],[1.484654,41.279401],[1.485186,41.279696],[1.485415,41.2795],[1.485275,41.279425],[1.485337,41.279363],[1.48526,41.279318],[1.485033,41.279186],[1.484982,41.279158],[1.484926,41.279127],[1.484925,41.279128],[1.484904,41.279148],[1.48485,41.27919],[1.484765,41.279253],[1.484722,41.279285],[1.484681,41.279319],[1.484616,41.279378],[1.484554,41.279438],[1.484483,41.279511],[1.484412,41.279583],[1.484325,41.279668],[1.484282,41.279711],[1.484241,41.279756],[1.484214,41.279786],[1.484037,41.279989],[1.483883,41.279914],[1.483893,41.279838],[1.483877,41.279831],[1.483756,41.279782],[1.483631,41.279732],[1.483538,41.279691],[1.483498,41.279688],[1.48343,41.279685],[1.483332,41.279695],[1.483322,41.279696],[1.483251,41.2797],[1.483226,41.279701],[1.482983,41.279553],[1.482915,41.279509],[1.482859,41.279474],[1.482812,41.279444],[1.482761,41.279412],[1.482643,41.279322],[1.482628,41.279311],[1.482621,41.279307],[1.48261,41.279303],[1.482601,41.279303],[1.482592,41.279305],[1.482568,41.279312],[1.482514,41.279265],[1.482328,41.279031],[1.482328,41.279031],[1.482328,41.279031],[1.482315,41.279016],[1.482112,41.279021],[1.482078,41.279024],[1.481835,41.279042],[1.481806,41.279032],[1.481334,41.279044],[1.48109,41.279045],[1.48089,41.279001],[1.480888,41.279002],[1.480764,41.279067],[1.48048,41.279332],[1.480425,41.279383],[1.480429,41.279389],[1.480452,41.27942],[1.480463,41.279437],[1.480483,41.279482],[1.480505,41.279514],[1.480554,41.279561],[1.480601,41.279599],[1.480606,41.279603],[1.480696,41.279671],[1.480785,41.279739],[1.480833,41.279776],[1.480855,41.279793],[1.481006,41.279893],[1.481118,41.279966],[1.481186,41.280002],[1.481206,41.280013],[1.481277,41.280051],[1.481434,41.28014],[1.481603,41.280231],[1.481772,41.280321],[1.481942,41.280414],[1.482113,41.280506],[1.482291,41.280593],[1.48247,41.280679],[1.482656,41.280771],[1.482845,41.280864],[1.482947,41.280905],[1.483038,41.280945],[1.483047,41.280956],[1.483048,41.280971],[1.48304,41.280994],[1.483028,41.281015],[1.483061,41.281097],[1.482821,41.281322],[1.48282,41.281323],[1.482508,41.281733],[1.482568,41.281737],[1.482589,41.281752],[1.482604,41.281763],[1.482694,41.281829],[1.482745,41.28185],[1.482881,41.28187],[1.483142,41.281832],[1.483142,41.281831],[1.483543,41.281761],[1.483567,41.28177],[1.483574,41.281769],[1.483587,41.281775],[1.483651,41.281758],[1.483858,41.281722],[1.484028,41.281736],[1.48403,41.281722],[1.484089,41.281727],[1.484125,41.28173],[1.484129,41.281714],[1.48415,41.281632],[1.484183,41.281576],[1.484194,41.281557],[1.484449,41.281358],[1.484801,41.281133],[1.484854,41.281102],[1.484914,41.281072],[1.485017,41.281047],[1.485111,41.2811],[1.48516,41.281126],[1.485242,41.281299],[1.485319,41.28133],[1.485281,41.281422],[1.485278,41.281429],[1.485275,41.281437],[1.485255,41.281485],[1.485246,41.281507],[1.485122,41.281692],[1.485107,41.281715],[1.485106,41.281717],[1.485125,41.28173],[1.485362,41.281897],[1.485441,41.281953],[1.485482,41.281982],[1.485617,41.282077],[1.485612,41.282106],[1.485607,41.282132],[1.4856,41.282169],[1.485654,41.282223],[1.485748,41.282318],[1.485646,41.282426],[1.485903,41.282595],[1.48595,41.282557],[1.485971,41.282572],[1.485995,41.282553],[1.486044,41.282584],[1.486072,41.282602],[1.486093,41.282614],[1.48614,41.28264],[1.486218,41.282673],[1.486299,41.282703],[1.486303,41.282704],[1.486332,41.282713],[1.486385,41.282725],[1.486435,41.282741],[1.486461,41.282754],[1.486497,41.282777],[1.486533,41.282799],[1.486586,41.282822],[1.486613,41.282832],[1.486639,41.282845],[1.486662,41.282862],[1.486692,41.282891],[1.486725,41.282918],[1.486783,41.282956],[1.486832,41.282984],[1.486928,41.283023],[1.486927,41.283162],[1.487041,41.283152],[1.487079,41.283149],[1.487102,41.283147],[1.487136,41.282941],[1.48714,41.282919],[1.48715,41.282921],[1.48715,41.28292],[1.48717,41.282903],[1.487188,41.282889],[1.487209,41.282879],[1.487284,41.282898],[1.487589,41.282967],[1.487721,41.283001],[1.487712,41.283129],[1.487863,41.283133],[1.487904,41.283137],[1.487911,41.283138],[1.488017,41.28315],[1.488028,41.283084],[1.488041,41.283007],[1.488046,41.282994],[1.488057,41.282983],[1.488074,41.282976],[1.488092,41.282975],[1.488107,41.282979],[1.488121,41.282987],[1.488175,41.283019],[1.488309,41.28311],[1.488445,41.2832],[1.488515,41.283247],[1.488578,41.283286],[1.488631,41.283219],[1.488653,41.283191],[1.488754,41.283022],[1.488794,41.282951],[1.488814,41.282916],[1.489023,41.282588],[1.489065,41.28252],[1.489295,41.282169],[1.489551,41.281756],[1.48957,41.28173],[1.489573,41.281725],[1.48897,41.281448],[1.489058,41.281348],[1.489143,41.281251],[1.489369,41.280938],[1.489244,41.280878],[1.488822,41.280662],[1.488955,41.28046],[1.488903,41.28042],[1.489214,41.28012],[1.489368,41.280186],[1.489568,41.279971],[1.48947,41.279895],[1.489596,41.279775],[1.490046,41.280031],[1.490055,41.280022],[1.490068,41.279994],[1.490081,41.279966],[1.490155,41.279996],[1.490218,41.280023],[1.490234,41.280001],[1.490909,41.280292],[1.490923,41.280298],[1.490992,41.280328],[1.49109,41.28037],[1.491263,41.280443],[1.491328,41.280344],[1.491337,41.28033],[1.491529,41.280062],[1.491451,41.280008],[1.491471,41.279995],[1.491514,41.279967],[1.491528,41.279958],[1.491869,41.27974],[1.491627,41.279507],[1.491509,41.279394],[1.491154,41.27906],[1.491206,41.279036],[1.491117,41.278926],[1.491065,41.27895],[1.491,41.278878],[1.490951,41.278825],[1.490945,41.278818],[1.49093,41.278802],[1.491089,41.27858],[1.491268,41.278721],[1.491637,41.278408],[1.491651,41.278394],[1.491882,41.278547],[1.492084,41.27868],[1.49211,41.278695],[1.492448,41.278547],[1.492545,41.278505],[1.493017,41.278346],[1.4935,41.278178],[1.492897,41.278016],[1.492236,41.277839],[1.492297,41.277795],[1.492387,41.27773],[1.492665,41.27753],[1.492701,41.277489],[1.492752,41.277431],[1.492428,41.277347],[1.492314,41.277259],[1.492177,41.277236],[1.492123,41.27728],[1.492105,41.277294],[1.492008,41.277379],[1.490979,41.277089],[1.490841,41.27702],[1.490831,41.276939],[1.490993,41.276751],[1.491128,41.276633],[1.491128,41.276538],[1.491107,41.276521],[1.49074,41.276485],[1.491187,41.276],[1.491196,41.27597],[1.491201,41.275956],[1.491202,41.275952],[1.491206,41.275926],[1.491216,41.275853],[1.491141,41.275799],[1.491115,41.275789],[1.490954,41.275866],[1.490887,41.275836],[1.49085,41.27582],[1.490851,41.275818],[1.491161,41.275521],[1.491058,41.275464],[1.491033,41.275458],[1.490987,41.275441],[1.490945,41.275418],[1.490908,41.275392],[1.490882,41.275367],[1.490873,41.275362],[1.490868,41.27535],[1.490851,41.275327],[1.49083,41.275299],[1.490816,41.275268],[1.490799,41.2752],[1.490798,41.275198],[1.490798,41.275198],[1.491391,41.275097],[1.491365,41.274974],[1.491587,41.27494],[1.491663,41.274923],[1.491817,41.274731],[1.49185,41.274526],[1.491651,41.274517],[1.491609,41.274515],[1.491281,41.274504],[1.491005,41.274547],[1.490865,41.274592],[1.490655,41.274694],[1.49055,41.274828],[1.490522,41.274822],[1.490493,41.274821],[1.490465,41.274826],[1.490231,41.274876],[1.489841,41.274977],[1.489892,41.275127],[1.489316,41.275239],[1.489381,41.275391],[1.489243,41.2754],[1.488662,41.274911],[1.488634,41.274911],[1.488572,41.275325],[1.48857,41.275407],[1.488698,41.275802],[1.488786,41.275903],[1.488976,41.276026]]]]}},{"type":"Feature","id":"430287_430287 AP08 BPE 3","properties":{"area_id":"430287_430287 AP08 BPE 3","nom":"la Masieta","codi_icgc":"430287 AP08 BPE 3","categoria":"Àrees de poblament","codi_municipi":"430287","municipi":"la Bisbal del Penedès","codi_comarca":"12","comarca":"Baix Penedès","provincia":"Tarragona","font":"ICGC Àrees de poblament v3r1 202602"},"geometry":{"type":"MultiPolygon","coordinates":[[[[1.456439,41.266248],[1.456687,41.266178],[1.456714,41.266171],[1.456722,41.266167],[1.456724,41.266166],[1.456934,41.266072],[1.457062,41.266038],[1.457195,41.266003],[1.457196,41.266003],[1.457419,41.266029],[1.457426,41.26603],[1.457443,41.266033],[1.457536,41.266072],[1.457645,41.266122],[1.457687,41.265913],[1.45743,41.265808],[1.45743,41.265808],[1.457434,41.26577],[1.457442,41.265638],[1.457428,41.265636],[1.457372,41.265635],[1.457317,41.265637],[1.457208,41.265645],[1.457127,41.265652],[1.457045,41.265662],[1.456991,41.265673],[1.45695,41.265685],[1.456912,41.2657],[1.45684,41.265734],[1.456792,41.265759],[1.456755,41.265778],[1.456672,41.265821],[1.456613,41.265846],[1.456518,41.265882],[1.456387,41.26593],[1.456161,41.266013],[1.455975,41.266082],[1.455995,41.266117],[1.456061,41.266236],[1.45609,41.26623],[1.456157,41.266206],[1.456197,41.266191],[1.456268,41.266291],[1.456439,41.266248]]],[[[1.453211,41.266153],[1.453213,41.26615],[1.453241,41.266152],[1.453327,41.266158],[1.453766,41.266238],[1.453904,41.266119],[1.453967,41.265906],[1.453976,41.265876],[1.453981,41.265858],[1.454039,41.265762],[1.454076,41.2657],[1.454079,41.265694],[1.454236,41.26538],[1.454241,41.26537],[1.454266,41.265321],[1.454095,41.265368],[1.454032,41.265178],[1.453913,41.265203],[1.453873,41.265079],[1.454023,41.265039],[1.454415,41.264918],[1.454629,41.265129],[1.454658,41.265158],[1.454871,41.265368],[1.454955,41.265452],[1.455048,41.265417],[1.45515,41.265383],[1.455244,41.265508],[1.455829,41.265282],[1.455907,41.265254],[1.455957,41.265237],[1.456137,41.265552],[1.456143,41.265564],[1.456397,41.265465],[1.456536,41.265398],[1.456737,41.265353],[1.456528,41.264975],[1.456768,41.264883],[1.457029,41.264804],[1.457169,41.264757],[1.457246,41.264846],[1.457288,41.264891],[1.457333,41.264935],[1.457372,41.264968],[1.457417,41.264997],[1.457451,41.265015],[1.457502,41.265032],[1.457556,41.265042],[1.457644,41.26505],[1.457732,41.265054],[1.457818,41.265055],[1.457904,41.265051],[1.457937,41.265046],[1.457969,41.265038],[1.458028,41.265016],[1.458066,41.264998],[1.458127,41.264962],[1.458179,41.264923],[1.458208,41.264892],[1.4583,41.264789],[1.458415,41.264807],[1.458684,41.264878],[1.458721,41.264888],[1.459218,41.265021],[1.459145,41.265104],[1.459046,41.265215],[1.458998,41.265268],[1.458949,41.265322],[1.458946,41.265325],[1.458966,41.265338],[1.458971,41.265334],[1.459056,41.265396],[1.459169,41.265471],[1.459692,41.265242],[1.459673,41.265222],[1.459978,41.26507],[1.460002,41.265058],[1.460531,41.264568],[1.459996,41.264317],[1.460006,41.263866],[1.460007,41.263865],[1.460034,41.263772],[1.46005,41.263702],[1.460064,41.263632],[1.460076,41.263585],[1.460103,41.263507],[1.460129,41.263428],[1.460139,41.263403],[1.460155,41.263381],[1.460178,41.263361],[1.460206,41.263346],[1.460237,41.263336],[1.460263,41.263331],[1.460336,41.263336],[1.460501,41.263344],[1.46053,41.263352],[1.460557,41.263364],[1.460579,41.263381],[1.46059,41.263393],[1.460636,41.26349],[1.460685,41.263598],[1.460767,41.263777],[1.460848,41.263955],[1.460931,41.264142],[1.461005,41.264312],[1.461054,41.264303],[1.461493,41.264223],[1.461568,41.26437],[1.461952,41.264108],[1.46197,41.264096],[1.462074,41.264053],[1.462627,41.263739],[1.463134,41.263451],[1.463197,41.263405],[1.463203,41.263425],[1.463402,41.263321],[1.463442,41.263297],[1.463485,41.26327],[1.463527,41.263244],[1.463539,41.263234],[1.463552,41.263215],[1.463562,41.263195],[1.463571,41.263164],[1.463573,41.263149],[1.463571,41.263134],[1.463561,41.263097],[1.463548,41.263061],[1.46349,41.262929],[1.463433,41.262796],[1.46343,41.26279],[1.463379,41.262661],[1.463352,41.262593],[1.46333,41.262539],[1.463325,41.262526],[1.463283,41.262417],[1.463241,41.262308],[1.46321,41.262242],[1.463187,41.262195],[1.463177,41.262176],[1.463139,41.262082],[1.463102,41.261987],[1.463091,41.261966],[1.463075,41.261936],[1.463039,41.261888],[1.463024,41.261873],[1.462999,41.261856],[1.462968,41.261841],[1.462932,41.261831],[1.462896,41.261826],[1.462832,41.261826],[1.462769,41.261833],[1.462666,41.261855],[1.462616,41.261868],[1.462576,41.261882],[1.462568,41.261885],[1.462468,41.261926],[1.462373,41.261971],[1.462257,41.261944],[1.462065,41.261861],[1.462015,41.261839],[1.461736,41.26169],[1.461175,41.261416],[1.461013,41.261336],[1.460589,41.261129],[1.460519,41.261128],[1.460403,41.261029],[1.460078,41.26082],[1.459999,41.260769],[1.45993,41.260719],[1.459919,41.26071],[1.459903,41.260697],[1.459788,41.260619],[1.459775,41.260591],[1.459793,41.260538],[1.459655,41.260284],[1.459591,41.260165],[1.459527,41.260066],[1.459356,41.259777],[1.459154,41.259437],[1.459048,41.259252],[1.459,41.259189],[1.458905,41.259073],[1.458793,41.258991],[1.458721,41.259029],[1.458719,41.25903],[1.458567,41.259088],[1.458313,41.259181],[1.458312,41.259181],[1.458183,41.259227],[1.45817,41.259225],[1.458071,41.25919],[1.457957,41.259157],[1.457859,41.25914],[1.457794,41.25914],[1.457727,41.259151],[1.457678,41.259156],[1.457581,41.259166],[1.457385,41.259056],[1.456942,41.259336],[1.456563,41.259352],[1.456354,41.259498],[1.456686,41.259692],[1.457218,41.259735],[1.457287,41.259732],[1.457391,41.259726],[1.457467,41.259679],[1.457543,41.259684],[1.457851,41.259786],[1.457995,41.259833],[1.458244,41.259913],[1.458426,41.259977],[1.458456,41.259993],[1.458481,41.260014],[1.458499,41.260038],[1.458511,41.260064],[1.458515,41.260091],[1.458511,41.260119],[1.4585,41.260145],[1.458482,41.26017],[1.458458,41.260191],[1.458447,41.260198],[1.458089,41.260432],[1.457705,41.260158],[1.457292,41.260515],[1.457119,41.260661],[1.457109,41.26067],[1.456936,41.260829],[1.457131,41.260979],[1.457212,41.260988],[1.457211,41.261006],[1.457194,41.261023],[1.457179,41.26104],[1.457162,41.261067],[1.457149,41.261096],[1.457146,41.261118],[1.45715,41.261136],[1.457161,41.26116],[1.45718,41.261184],[1.457214,41.261209],[1.457235,41.261218],[1.457258,41.261226],[1.457309,41.261235],[1.45736,41.261239],[1.457458,41.261239],[1.457556,41.261235],[1.457686,41.261224],[1.457751,41.261216],[1.457815,41.261206],[1.457959,41.261179],[1.458102,41.261151],[1.458211,41.261129],[1.458288,41.26112],[1.458422,41.261126],[1.458523,41.261131],[1.458545,41.261191],[1.458593,41.261325],[1.458598,41.261402],[1.458598,41.261538],[1.458594,41.261674],[1.458585,41.2618],[1.458578,41.261863],[1.458567,41.261925],[1.458551,41.261978],[1.45852,41.262058],[1.45849,41.26214],[1.458467,41.262216],[1.458434,41.262304],[1.458193,41.262389],[1.457772,41.262523],[1.45776,41.2625],[1.457744,41.262451],[1.457738,41.262418],[1.457736,41.262373],[1.457742,41.262305],[1.457752,41.262236],[1.457754,41.262189],[1.457756,41.26215],[1.457752,41.262121],[1.457744,41.262083],[1.457712,41.262045],[1.457689,41.262032],[1.457681,41.26203],[1.45764,41.262017],[1.457621,41.262017],[1.457602,41.262019],[1.457567,41.262029],[1.457546,41.262038],[1.457409,41.262109],[1.457273,41.262178],[1.457147,41.262238],[1.45702,41.262297],[1.456933,41.262333],[1.456844,41.262368],[1.456756,41.262403],[1.456717,41.262421],[1.456695,41.262436],[1.456685,41.262445],[1.456677,41.262456],[1.456667,41.262481],[1.45665,41.262523],[1.456632,41.262565],[1.4566,41.262637],[1.456564,41.262708],[1.456516,41.262789],[1.456466,41.26287],[1.456401,41.262974],[1.456333,41.263077],[1.456302,41.263112],[1.456267,41.263144],[1.456233,41.263171],[1.456195,41.263194],[1.456166,41.263207],[1.456137,41.263217],[1.456075,41.263231],[1.456032,41.263238],[1.455989,41.263239],[1.455951,41.263235],[1.455913,41.263232],[1.455818,41.263208],[1.455637,41.263163],[1.455589,41.263151],[1.455582,41.263163],[1.455569,41.263188],[1.455536,41.263291],[1.455491,41.263461],[1.455215,41.263442],[1.454799,41.263429],[1.454692,41.263465],[1.454527,41.263549],[1.454273,41.263624],[1.454243,41.263638],[1.453978,41.263764],[1.453977,41.263765],[1.45379,41.263837],[1.453431,41.263943],[1.453184,41.263919],[1.452802,41.263854],[1.452807,41.263702],[1.452814,41.263441],[1.452545,41.263425],[1.452521,41.263989],[1.452512,41.264151],[1.452511,41.264177],[1.452521,41.264177],[1.452613,41.264183],[1.452704,41.264195],[1.452886,41.264229],[1.453067,41.264268],[1.453143,41.264287],[1.45322,41.264306],[1.453274,41.264317],[1.453295,41.264322],[1.453282,41.264337],[1.453251,41.264383],[1.45322,41.264429],[1.453144,41.264534],[1.453066,41.264639],[1.453026,41.264686],[1.45298,41.264729],[1.452969,41.264736],[1.452958,41.264741],[1.452931,41.264747],[1.452909,41.264745],[1.452886,41.264737],[1.452872,41.26473],[1.452864,41.264722],[1.452859,41.264713],[1.45285,41.264688],[1.452838,41.26467],[1.45281,41.264645],[1.452779,41.264623],[1.452753,41.264609],[1.452745,41.264607],[1.452704,41.264597],[1.452656,41.264592],[1.452624,41.264593],[1.452548,41.264602],[1.452471,41.264615],[1.452421,41.264628],[1.452314,41.264665],[1.452209,41.264704],[1.452144,41.264731],[1.452079,41.26476],[1.452038,41.264783],[1.451986,41.26482],[1.451938,41.264858],[1.45185,41.264938],[1.451771,41.265011],[1.451692,41.265084],[1.451618,41.265145],[1.451538,41.265202],[1.451459,41.265248],[1.451375,41.26529],[1.451327,41.265313],[1.451277,41.265332],[1.451244,41.265343],[1.451221,41.265346],[1.451197,41.265348],[1.45117,41.265348],[1.451143,41.265348],[1.451105,41.265351],[1.451031,41.265365],[1.45096,41.265383],[1.450857,41.265418],[1.450757,41.265456],[1.450676,41.265491],[1.450598,41.265529],[1.450546,41.265557],[1.450467,41.265609],[1.450395,41.265665],[1.450351,41.265705],[1.450329,41.265724],[1.450286,41.265748],[1.450264,41.265731],[1.450243,41.265713],[1.450217,41.265692],[1.450071,41.26557],[1.449974,41.265602],[1.449928,41.265621],[1.449857,41.265648],[1.449625,41.265735],[1.449619,41.265737],[1.449402,41.265819],[1.449393,41.265822],[1.449389,41.265824],[1.449249,41.265931],[1.449144,41.266019],[1.449307,41.266155],[1.449398,41.266227],[1.449392,41.266234],[1.449417,41.266253],[1.449471,41.266294],[1.449511,41.266319],[1.449529,41.266329],[1.44954,41.266337],[1.449585,41.266354],[1.44966,41.266278],[1.449749,41.266193],[1.449811,41.266141],[1.449862,41.266104],[1.449873,41.266098],[1.449884,41.266096],[1.449893,41.266096],[1.449904,41.266098],[1.44998,41.266161],[1.450102,41.26628],[1.450245,41.26642],[1.450559,41.266372],[1.450402,41.266177],[1.450695,41.266095],[1.451206,41.265955],[1.45151,41.266102],[1.451559,41.266129],[1.451621,41.266169],[1.451668,41.26624],[1.451743,41.266353],[1.451803,41.26644],[1.452145,41.266354],[1.452402,41.266148],[1.452463,41.265981],[1.452644,41.265928],[1.452696,41.265983],[1.4527,41.266098],[1.452715,41.266231],[1.452699,41.266369],[1.452468,41.266534],[1.452503,41.266593],[1.452574,41.266674],[1.45263,41.266645],[1.452713,41.266601],[1.452786,41.26656],[1.452858,41.266518],[1.452903,41.266488],[1.452924,41.266467],[1.452943,41.266444],[1.452984,41.266397],[1.45306,41.266325],[1.453134,41.266254],[1.453176,41.266205],[1.453211,41.266153]]]]}},{"type":"Feature","id":"430287_430287 AP03 BPE 3","properties":{"area_id":"430287_430287 AP03 BPE 3","nom":"la Miralba","codi_icgc":"430287 AP03 BPE 3","categoria":"Àrees de poblament","codi_municipi":"430287","municipi":"la Bisbal del Penedès","codi_comarca":"12","comarca":"Baix Penedès","provincia":"Tarragona","font":"ICGC Àrees de poblament v3r1 202602"},"geometry":{"type":"MultiPolygon","coordinates":[[[[1.491293,41.263314],[1.491343,41.263282],[1.491479,41.263304],[1.491964,41.263207],[1.492195,41.263108],[1.49258,41.262943],[1.492753,41.262855],[1.49281,41.262815],[1.492957,41.262711],[1.492969,41.262702],[1.493429,41.262377],[1.493526,41.262311],[1.49355,41.262295],[1.494164,41.261892],[1.494181,41.261903],[1.494392,41.261724],[1.494451,41.261658],[1.494742,41.261466],[1.494795,41.261431],[1.495082,41.26123],[1.495266,41.261101],[1.495315,41.261052],[1.49535,41.261016],[1.494408,41.260727],[1.494255,41.260853],[1.49399,41.261122],[1.493899,41.261091],[1.4935,41.260956],[1.493749,41.260525],[1.492312,41.260083],[1.491627,41.260037],[1.491622,41.260047],[1.491591,41.260086],[1.491538,41.26015],[1.491518,41.260172],[1.49148,41.2602],[1.491374,41.260182],[1.491197,41.260147],[1.491057,41.260117],[1.491005,41.260157],[1.490621,41.260134],[1.490534,41.260172],[1.490493,41.26019],[1.490461,41.260076],[1.490467,41.26005],[1.489989,41.260168],[1.489847,41.260222],[1.489779,41.260247],[1.489335,41.260303],[1.488345,41.259635],[1.487939,41.259382],[1.487923,41.259399],[1.487858,41.259446],[1.487823,41.259475],[1.487657,41.259628],[1.487534,41.259639],[1.487456,41.259646],[1.486823,41.259705],[1.486776,41.259715],[1.486712,41.25973],[1.486714,41.259748],[1.486718,41.259785],[1.486724,41.25983],[1.486736,41.259874],[1.486761,41.259939],[1.486786,41.260003],[1.486802,41.260044],[1.486818,41.260085],[1.486821,41.260096],[1.486818,41.260114],[1.486811,41.260131],[1.486771,41.260205],[1.486732,41.260279],[1.486709,41.260331],[1.48669,41.260385],[1.486669,41.260445],[1.486661,41.260476],[1.486655,41.260507],[1.486648,41.260587],[1.486641,41.260668],[1.48663,41.260792],[1.48662,41.260915],[1.486617,41.260973],[1.486616,41.261031],[1.48662,41.261059],[1.486626,41.261072],[1.486634,41.261085],[1.486662,41.261114],[1.486691,41.261142],[1.486725,41.261176],[1.486762,41.261211],[1.486822,41.261189],[1.487739,41.260861],[1.487807,41.261176],[1.487884,41.261377],[1.487964,41.26156],[1.487999,41.261609],[1.48804,41.261655],[1.488088,41.261697],[1.488141,41.261736],[1.4882,41.261771],[1.488262,41.261801],[1.488328,41.261826],[1.488334,41.261827],[1.488405,41.261848],[1.488474,41.261873],[1.488538,41.261903],[1.488599,41.261939],[1.488654,41.261978],[1.488679,41.261999],[1.488729,41.262057],[1.488784,41.262112],[1.488518,41.262492],[1.488487,41.262536],[1.488572,41.262581],[1.488679,41.262639],[1.488786,41.262698],[1.488856,41.262737],[1.488927,41.262776],[1.489002,41.262813],[1.489081,41.262845],[1.48916,41.262872],[1.489243,41.262894],[1.489306,41.262905],[1.489369,41.26291],[1.489495,41.262912],[1.489621,41.26291],[1.489826,41.262904],[1.49003,41.262895],[1.490106,41.262892],[1.490152,41.262897],[1.490188,41.262912],[1.490211,41.263145],[1.490136,41.263147],[1.490137,41.263175],[1.490155,41.26337],[1.490172,41.263372],[1.490415,41.263398],[1.491043,41.263367],[1.491273,41.263327],[1.491293,41.263314]]],[[[1.492537,41.266533],[1.492789,41.266527],[1.492875,41.266532],[1.492919,41.266548],[1.493417,41.266583],[1.493434,41.266579],[1.493543,41.266555],[1.493601,41.266566],[1.493682,41.266429],[1.493691,41.266434],[1.493875,41.266538],[1.494078,41.266586],[1.494131,41.266592],[1.494197,41.266594],[1.494305,41.266574],[1.494327,41.266569],[1.494391,41.266554],[1.494578,41.266399],[1.494589,41.26639],[1.494553,41.266363],[1.494592,41.266345],[1.494677,41.266294],[1.494553,41.266207],[1.494909,41.26594],[1.494992,41.26587],[1.495153,41.265735],[1.495192,41.265665],[1.495064,41.265564],[1.495043,41.265578],[1.494891,41.265475],[1.494763,41.265389],[1.494593,41.26526],[1.494213,41.265014],[1.494161,41.264996],[1.49396,41.264885],[1.4939,41.264851],[1.493887,41.264844],[1.493552,41.264661],[1.49348,41.264622],[1.493497,41.264548],[1.493547,41.264342],[1.493532,41.264332],[1.493536,41.264311],[1.493402,41.264201],[1.493462,41.264145],[1.493728,41.263897],[1.493787,41.263841],[1.493875,41.26373],[1.493887,41.263715],[1.494025,41.263538],[1.494089,41.263457],[1.494094,41.26345],[1.493948,41.263375],[1.49381,41.263328],[1.493798,41.263324],[1.493706,41.263292],[1.493619,41.263263],[1.493605,41.263252],[1.493035,41.263615],[1.492993,41.263643],[1.492752,41.263515],[1.492583,41.263264],[1.492578,41.263253],[1.492498,41.263303],[1.492203,41.263448],[1.491949,41.263492],[1.491686,41.263596],[1.491471,41.263701],[1.49142,41.26378],[1.491434,41.263886],[1.491449,41.264005],[1.491453,41.264057],[1.491451,41.264109],[1.491443,41.264161],[1.491435,41.264214],[1.491437,41.264253],[1.491445,41.264291],[1.491472,41.264388],[1.491498,41.264485],[1.491534,41.264622],[1.49157,41.264759],[1.491594,41.264849],[1.491619,41.264938],[1.49162,41.264954],[1.491617,41.264969],[1.491589,41.26504],[1.491562,41.265111],[1.491519,41.26522],[1.491475,41.265329],[1.491455,41.265368],[1.49143,41.265406],[1.491393,41.265456],[1.491406,41.265534],[1.491409,41.265551],[1.491432,41.26569],[1.491434,41.265723],[1.491449,41.265963],[1.491454,41.265981],[1.491512,41.266183],[1.491565,41.266176],[1.491594,41.266251],[1.491644,41.266365],[1.491741,41.266485],[1.49203,41.26658],[1.492077,41.266585],[1.492291,41.266577],[1.492535,41.266562],[1.492537,41.266533]]]]}},{"type":"Feature","id":"430287_430287 AP06 BPE 3","properties":{"area_id":"430287_430287 AP06 BPE 3","nom":"la Pineda de Santa Cristina","codi_icgc":"430287 AP06 BPE 3","categoria":"Àrees de poblament","codi_municipi":"430287","municipi":"la Bisbal del Penedès","codi_comarca":"12","comarca":"Baix Penedès","provincia":"Tarragona","font":"ICGC Àrees de poblament v3r1 202602"},"geometry":{"type":"MultiPolygon","coordinates":[[[[1.438965,41.273438],[1.43919,41.273574],[1.43933,41.273353],[1.439797,41.273259],[1.440001,41.273288],[1.440187,41.27335],[1.440359,41.273445],[1.440452,41.273559],[1.440494,41.273673],[1.440557,41.273882],[1.44078,41.273891],[1.440968,41.273847],[1.440975,41.273845],[1.441156,41.273784],[1.441334,41.273679],[1.441454,41.273589],[1.44151,41.273546],[1.441598,41.27346],[1.441639,41.273428],[1.44129,41.273102],[1.441151,41.273088],[1.441076,41.273172],[1.440998,41.273279],[1.440927,41.273354],[1.440866,41.273391],[1.440723,41.273287],[1.440574,41.273185],[1.440427,41.273116],[1.440345,41.273085],[1.44029,41.273098],[1.44022,41.273109],[1.440148,41.273106],[1.439966,41.273097],[1.439843,41.273088],[1.439628,41.273065],[1.439473,41.273051],[1.439376,41.273061],[1.439317,41.273081],[1.439238,41.273117],[1.439123,41.2732],[1.439098,41.273223],[1.439079,41.273241],[1.439075,41.273244],[1.439059,41.273279],[1.439047,41.273305],[1.439045,41.273309],[1.439028,41.273338],[1.438965,41.273438]]],[[[1.436621,41.285807],[1.436963,41.285765],[1.437039,41.285865],[1.437382,41.285654],[1.437442,41.285618],[1.437557,41.28555],[1.437748,41.285393],[1.437696,41.285319],[1.437645,41.285244],[1.437629,41.285226],[1.437595,41.285199],[1.437557,41.285179],[1.437468,41.285132],[1.437373,41.285086],[1.437324,41.285063],[1.437276,41.285038],[1.437247,41.28502],[1.437243,41.285017],[1.437219,41.284999],[1.437203,41.284985],[1.437186,41.284962],[1.437178,41.284938],[1.437179,41.284913],[1.43719,41.284875],[1.437207,41.284838],[1.437227,41.284794],[1.437269,41.284706],[1.437329,41.284574],[1.437347,41.284531],[1.437366,41.284488],[1.437325,41.284492],[1.437089,41.284517],[1.436889,41.284525],[1.43691,41.284374],[1.43686,41.28427],[1.436839,41.284252],[1.436821,41.284233],[1.436784,41.284195],[1.436755,41.284174],[1.436681,41.284139],[1.436606,41.284104],[1.436602,41.284101],[1.436542,41.284084],[1.436481,41.284071],[1.436357,41.284047],[1.436276,41.284029],[1.436162,41.284],[1.436049,41.28397],[1.435975,41.283945],[1.435885,41.283911],[1.435797,41.283874],[1.435622,41.283798],[1.435498,41.283743],[1.435374,41.283686],[1.435363,41.283681],[1.435352,41.283674],[1.435276,41.283624],[1.435206,41.283569],[1.435164,41.283529],[1.435115,41.283472],[1.435082,41.283423],[1.435052,41.283373],[1.435038,41.283345],[1.434812,41.283021],[1.434793,41.282994],[1.435432,41.283066],[1.435512,41.283075],[1.435595,41.283028],[1.435869,41.282953],[1.435954,41.28293],[1.435902,41.282783],[1.436188,41.282703],[1.436234,41.282428],[1.436288,41.282238],[1.436325,41.282253],[1.436359,41.282262],[1.436425,41.282276],[1.436471,41.282282],[1.436519,41.282283],[1.436567,41.282277],[1.4366,41.282268],[1.436645,41.282249],[1.436687,41.28223],[1.436767,41.282194],[1.436856,41.282161],[1.436947,41.282132],[1.437011,41.282115],[1.437077,41.282099],[1.437122,41.282087],[1.437171,41.282073],[1.437226,41.282074],[1.437305,41.282252],[1.437329,41.282307],[1.437404,41.28248],[1.437503,41.282551],[1.437557,41.282548],[1.437757,41.282535],[1.437912,41.282526],[1.43804,41.282494],[1.438162,41.282418],[1.438172,41.282412],[1.438283,41.282344],[1.438431,41.282254],[1.438588,41.282158],[1.43886,41.281942],[1.439159,41.281736],[1.439168,41.281729],[1.439458,41.281534],[1.43946,41.281536],[1.439492,41.281518],[1.439503,41.281516],[1.439506,41.281515],[1.439511,41.281514],[1.439515,41.281514],[1.439619,41.281495],[1.43963,41.281487],[1.439779,41.281375],[1.439563,41.281128],[1.439465,41.28103],[1.439435,41.280999],[1.439408,41.280976],[1.439361,41.280934],[1.439321,41.280955],[1.439279,41.280978],[1.439156,41.28105],[1.439034,41.281124],[1.438898,41.281205],[1.438759,41.281283],[1.438737,41.281294],[1.438699,41.281305],[1.438682,41.281308],[1.43867,41.281309],[1.438662,41.281307],[1.438654,41.2813],[1.438646,41.281285],[1.438645,41.28128],[1.438646,41.281275],[1.438667,41.281225],[1.438689,41.281174],[1.43872,41.2811],[1.438751,41.281025],[1.438791,41.280931],[1.438831,41.280838],[1.438888,41.280716],[1.43895,41.280597],[1.438997,41.280518],[1.43905,41.280442],[1.439116,41.280362],[1.43919,41.280287],[1.43927,41.280215],[1.439355,41.280147],[1.439426,41.280096],[1.439545,41.28001],[1.439866,41.279779],[1.439965,41.279708],[1.440043,41.279654],[1.440122,41.2796],[1.440151,41.279574],[1.440174,41.279543],[1.440184,41.279521],[1.440185,41.279506],[1.440226,41.279489],[1.440253,41.279477],[1.440273,41.279469],[1.440318,41.279449],[1.441019,41.279009],[1.440885,41.278941],[1.440838,41.278992],[1.440622,41.278895],[1.440477,41.278807],[1.440379,41.278731],[1.440308,41.278678],[1.440258,41.27864],[1.439668,41.278774],[1.439642,41.278763],[1.439621,41.278747],[1.439604,41.278723],[1.439593,41.278678],[1.439579,41.278648],[1.439556,41.278622],[1.439535,41.278607],[1.439483,41.278581],[1.43943,41.278557],[1.439326,41.27851],[1.439278,41.278485],[1.439232,41.278458],[1.439207,41.278437],[1.439181,41.278405],[1.439158,41.278372],[1.439114,41.278303],[1.439094,41.278271],[1.439077,41.27824],[1.439082,41.278235],[1.439101,41.278229],[1.439116,41.278228],[1.439132,41.278229],[1.439166,41.278239],[1.439185,41.278249],[1.439226,41.278277],[1.439265,41.278306],[1.439295,41.278323],[1.439328,41.278336],[1.439363,41.278345],[1.439387,41.278349],[1.439442,41.278348],[1.439498,41.278341],[1.439533,41.278332],[1.439631,41.278299],[1.439725,41.278265],[1.439787,41.278239],[1.43999,41.278152],[1.44019,41.278062],[1.440252,41.278031],[1.440313,41.278],[1.440336,41.277985],[1.440355,41.277968],[1.440363,41.277954],[1.440389,41.277896],[1.440413,41.277839],[1.440472,41.277733],[1.44053,41.277627],[1.440571,41.277547],[1.440603,41.277487],[1.440603,41.27741],[1.440402,41.277269],[1.440315,41.277209],[1.440076,41.277041],[1.440072,41.27702],[1.44008,41.277002],[1.440141,41.276964],[1.440268,41.276891],[1.440368,41.27683],[1.440472,41.276774],[1.440509,41.276761],[1.440547,41.276752],[1.440629,41.276737],[1.440682,41.276724],[1.44078,41.276694],[1.440879,41.276664],[1.440953,41.276644],[1.440931,41.276623],[1.440924,41.276619],[1.440856,41.276462],[1.440811,41.276353],[1.440806,41.276342],[1.440801,41.27633],[1.440795,41.276315],[1.440712,41.276341],[1.440587,41.276197],[1.440557,41.276164],[1.440521,41.276126],[1.440397,41.276192],[1.440285,41.276256],[1.440174,41.27632],[1.440099,41.27636],[1.43998,41.276414],[1.439858,41.276465],[1.439699,41.276527],[1.439619,41.276556],[1.439536,41.276583],[1.439453,41.276607],[1.439324,41.276638],[1.439194,41.276664],[1.439016,41.276698],[1.438836,41.276728],[1.438608,41.276763],[1.438379,41.276796],[1.43825,41.276816],[1.438186,41.276827],[1.437994,41.27686],[1.437902,41.276878],[1.437769,41.276913],[1.437637,41.276955],[1.437577,41.276978],[1.437556,41.276987],[1.437533,41.276998],[1.43747,41.277031],[1.437413,41.27707],[1.437362,41.277114],[1.43729,41.277182],[1.437252,41.277215],[1.436957,41.277597],[1.436429,41.278284],[1.435868,41.279013],[1.435936,41.279129],[1.435739,41.27917],[1.435901,41.27958],[1.43571,41.279644],[1.435543,41.27983],[1.435593,41.279835],[1.435675,41.279854],[1.435745,41.279874],[1.435817,41.2799],[1.435874,41.279931],[1.43592,41.279972],[1.435943,41.280009],[1.435954,41.280061],[1.435955,41.280114],[1.43593,41.280243],[1.435899,41.280383],[1.435418,41.280346],[1.435112,41.280741],[1.434967,41.280719],[1.43488,41.280715],[1.434805,41.280722],[1.434623,41.280732],[1.43457,41.280781],[1.434539,41.280837],[1.43439,41.280927],[1.434107,41.281069],[1.434007,41.281124],[1.433941,41.281207],[1.433887,41.281352],[1.433832,41.281502],[1.433714,41.281868],[1.433706,41.281878],[1.433653,41.28203],[1.433557,41.282243],[1.433526,41.282386],[1.433547,41.282496],[1.433594,41.282669],[1.433646,41.282843],[1.433697,41.282977],[1.433745,41.283073],[1.433834,41.283191],[1.433994,41.283363],[1.434104,41.283481],[1.434253,41.28362],[1.434414,41.283737],[1.434636,41.283881],[1.434703,41.283936],[1.434856,41.284006],[1.435101,41.284109],[1.435256,41.284172],[1.435383,41.284259],[1.435516,41.284406],[1.435606,41.28465],[1.435623,41.284697],[1.435796,41.285058],[1.435868,41.285251],[1.436013,41.285636],[1.436094,41.285879],[1.436275,41.285861],[1.436621,41.285807]]]]}},{"type":"Feature","id":"430287_430287 AP11 BPE 2","properties":{"area_id":"430287_430287 AP11 BPE 2","nom":"les Cases Noves de l'Ortigós","codi_icgc":"430287 AP11 BPE 2","categoria":"Àrees de poblament","codi_municipi":"430287","municipi":"la Bisbal del Penedès","codi_comarca":"12","comarca":"Baix Penedès","provincia":"Tarragona","font":"ICGC Àrees de poblament v3r1 202602"},"geometry":{"type":"MultiPolygon","coordinates":[[[[1.516689,41.282724],[1.516513,41.282615],[1.51662,41.282489],[1.516456,41.28238],[1.516237,41.282235],[1.516066,41.282121],[1.516048,41.282194],[1.516054,41.282312],[1.516076,41.282401],[1.516129,41.282497],[1.516032,41.282592],[1.516256,41.282716],[1.516306,41.282702],[1.516439,41.282752],[1.516499,41.282789],[1.516576,41.282797],[1.516628,41.28279],[1.516689,41.282724]]]]}}]}