{"type":"FeatureCollection","name":"ICGC Àrees de poblament - les Borges del Camp","features":[{"type":"Feature","id":"430311_430311 AP02 BCA 2","properties":{"area_id":"430311_430311 AP02 BCA 2","nom":"Aires del Camp","codi_icgc":"430311 AP02 BCA 2","categoria":"Àrees de poblament","codi_municipi":"430311","municipi":"les Borges del Camp","codi_comarca":"08","comarca":"Baix Camp","provincia":"Tarragona","font":"ICGC Àrees de poblament v3r1 202602"},"geometry":{"type":"MultiPolygon","coordinates":[[[[1.016265,41.180645],[1.016251,41.180615],[1.016234,41.180587],[1.016187,41.180516],[1.016139,41.180446],[1.016107,41.180402],[1.016074,41.180358],[1.016069,41.180347],[1.016069,41.180335],[1.016076,41.18031],[1.016086,41.180295],[1.016106,41.180274],[1.016134,41.180258],[1.016155,41.180252],[1.016178,41.180251],[1.016191,41.180254],[1.016245,41.180276],[1.016296,41.180306],[1.01636,41.180349],[1.01642,41.180393],[1.016503,41.18047],[1.016526,41.180473],[1.016516,41.180476],[1.01655,41.180492],[1.016591,41.180527],[1.016623,41.180563],[1.016655,41.1806],[1.01667,41.180622],[1.016677,41.180643],[1.016683,41.180687],[1.016689,41.18073],[1.016696,41.180748],[1.016705,41.180761],[1.016725,41.180778],[1.016749,41.180791],[1.016794,41.180804],[1.016839,41.180815],[1.016876,41.18083],[1.016914,41.180843],[1.016944,41.180849],[1.01699,41.180851],[1.017037,41.180847],[1.017096,41.180837],[1.017155,41.180827],[1.017189,41.180823],[1.017223,41.180819],[1.017253,41.180817],[1.017363,41.180811],[1.017373,41.180771],[1.0174,41.180692],[1.017431,41.180613],[1.017454,41.180559],[1.017478,41.180504],[1.017489,41.180475],[1.017493,41.180445],[1.017491,41.180426],[1.017487,41.180415],[1.017957,41.180353],[1.017961,41.180375],[1.017972,41.180416],[1.0182,41.180562],[1.018506,41.18009],[1.018626,41.180137],[1.018826,41.180214],[1.018739,41.180344],[1.0187,41.180332],[1.018689,41.180353],[1.018728,41.180364],[1.018973,41.180478],[1.019206,41.180667],[1.019304,41.180784],[1.01937,41.180895],[1.019375,41.180903],[1.01938,41.180938],[1.01939,41.18098],[1.01937,41.18105],[1.019367,41.181077],[1.019339,41.181247],[1.019423,41.181251],[1.019485,41.18124],[1.019492,41.181229],[1.019518,41.181198],[1.019546,41.181167],[1.019641,41.181066],[1.019736,41.180964],[1.019861,41.180831],[1.019985,41.180699],[1.020058,41.18063],[1.0201,41.180588],[1.020058,41.180575],[1.019817,41.180485],[1.020027,41.180143],[1.01955,41.17996],[1.018855,41.179692],[1.018764,41.179657],[1.018788,41.179617],[1.018798,41.17959],[1.018808,41.17955],[1.018816,41.17951],[1.018824,41.179463],[1.018827,41.179416],[1.018825,41.179403],[1.018817,41.179385],[1.018801,41.179369],[1.018775,41.179354],[1.018746,41.179345],[1.018617,41.179314],[1.018488,41.179283],[1.018525,41.178949],[1.018236,41.178983],[1.017844,41.179041],[1.017672,41.179066],[1.017305,41.179133],[1.017183,41.179025],[1.017083,41.178877],[1.016732,41.179061],[1.016792,41.178729],[1.01684,41.178535],[1.016846,41.178512],[1.016893,41.178329],[1.016899,41.178313],[1.017141,41.178298],[1.017391,41.178306],[1.01753,41.178318],[1.01767,41.178083],[1.017607,41.178062],[1.017121,41.177916],[1.017318,41.177688],[1.01732,41.177685],[1.017371,41.177614],[1.017463,41.177503],[1.017484,41.177481],[1.017546,41.17739],[1.017582,41.177363],[1.017662,41.177246],[1.017692,41.177205],[1.017839,41.177192],[1.018027,41.177202],[1.018272,41.177208],[1.01841,41.176451],[1.01851,41.176363],[1.018762,41.176188],[1.018784,41.176173],[1.018815,41.176145],[1.018779,41.176102],[1.018629,41.175927],[1.018615,41.175892],[1.0186,41.175858],[1.018487,41.175862],[1.017736,41.176466],[1.017551,41.176609],[1.017365,41.176751],[1.01732,41.176781],[1.017181,41.17689],[1.017173,41.176896],[1.016642,41.177316],[1.016515,41.177269],[1.016473,41.177255],[1.016344,41.177153],[1.01635,41.177148],[1.016276,41.177095],[1.016266,41.177102],[1.016168,41.177028],[1.016027,41.176934],[1.01605,41.176922],[1.016069,41.176912],[1.016093,41.1769],[1.016118,41.176927],[1.016203,41.176881],[1.016177,41.176854],[1.016206,41.176832],[1.015995,41.176684],[1.015817,41.176558],[1.015497,41.176365],[1.015487,41.176605],[1.015637,41.176691],[1.015793,41.176781],[1.015734,41.176822],[1.015704,41.176798],[1.015655,41.176831],[1.015701,41.176869],[1.015579,41.176963],[1.015924,41.177173],[1.015918,41.177176],[1.015683,41.177334],[1.015675,41.177326],[1.015487,41.177444],[1.015493,41.177448],[1.015386,41.177511],[1.015288,41.177573],[1.015252,41.177532],[1.01525,41.177533],[1.015233,41.177541],[1.0152,41.177557],[1.015284,41.177655],[1.015242,41.177675],[1.015271,41.177709],[1.015232,41.177729],[1.015302,41.177801],[1.015426,41.177734],[1.015424,41.177732],[1.015511,41.177681],[1.01558,41.177722],[1.015649,41.177763],[1.015703,41.177793],[1.015732,41.177802],[1.015757,41.177803],[1.015782,41.177803],[1.01583,41.177803],[1.0159,41.177844],[1.015924,41.177887],[1.015745,41.178111],[1.015623,41.178288],[1.015546,41.178401],[1.01554,41.178409],[1.015334,41.178671],[1.015272,41.178757],[1.015605,41.179016],[1.015758,41.179126],[1.016048,41.178817],[1.016286,41.178835],[1.016382,41.178842],[1.016438,41.178856],[1.016588,41.179097],[1.016702,41.17924],[1.016821,41.179396],[1.016878,41.179488],[1.016203,41.179788],[1.016083,41.179837],[1.015895,41.180055],[1.015741,41.180003],[1.015591,41.18],[1.015452,41.180022],[1.015308,41.180067],[1.015165,41.180116],[1.01525,41.180275],[1.015288,41.180425],[1.015323,41.180611],[1.015353,41.180649],[1.015419,41.180643],[1.015484,41.180633],[1.015539,41.180622],[1.015594,41.18061],[1.015576,41.180677],[1.01555,41.180798],[1.01549,41.180907],[1.015487,41.181],[1.01548,41.181125],[1.015483,41.18124],[1.015491,41.181311],[1.01559,41.181344],[1.015681,41.181367],[1.015762,41.181418],[1.015795,41.181471],[1.015811,41.181544],[1.015866,41.181559],[1.016021,41.181506],[1.016095,41.181467],[1.016153,41.181306],[1.016214,41.181078],[1.01628,41.18096],[1.016265,41.180679],[1.016269,41.180662],[1.016265,41.180645]]]]}},{"type":"Feature","id":"430311_430311 AP04 BCA 2","properties":{"area_id":"430311_430311 AP04 BCA 2","nom":"Club les Valls","codi_icgc":"430311 AP04 BCA 2","categoria":"Àrees de poblament","codi_municipi":"430311","municipi":"les Borges del Camp","codi_comarca":"08","comarca":"Baix Camp","provincia":"Tarragona","font":"ICGC Àrees de poblament v3r1 202602"},"geometry":{"type":"MultiPolygon","coordinates":[[[[1.023293,41.183325],[1.023294,41.183357],[1.023359,41.183385],[1.023462,41.1834],[1.023639,41.183409],[1.023811,41.183395],[1.023906,41.183357],[1.023958,41.183153],[1.023827,41.182979],[1.023724,41.182849],[1.023657,41.182771],[1.023624,41.182731],[1.023592,41.182686],[1.023563,41.182641],[1.023558,41.182615],[1.023574,41.182598],[1.023609,41.182593],[1.023738,41.182621],[1.023922,41.18265],[1.024205,41.182523],[1.024497,41.182388],[1.024419,41.182249],[1.024526,41.182215],[1.024466,41.182101],[1.024336,41.182108],[1.024087,41.181603],[1.023967,41.181573],[1.023361,41.181259],[1.02352,41.180946],[1.023155,41.180778],[1.0231,41.180762],[1.022936,41.18097],[1.022837,41.181132],[1.022658,41.181451],[1.0226,41.181412],[1.022518,41.181369],[1.022278,41.181487],[1.022046,41.181611],[1.022018,41.181628],[1.021988,41.181684],[1.021976,41.181723],[1.022013,41.181917],[1.02205,41.182117],[1.022002,41.182158],[1.022023,41.182289],[1.02191,41.182345],[1.021881,41.182336],[1.021844,41.182326],[1.021769,41.18231],[1.021615,41.182279],[1.021461,41.182247],[1.021374,41.182229],[1.021288,41.182211],[1.021255,41.182206],[1.021205,41.182204],[1.021155,41.182206],[1.021134,41.182209],[1.021116,41.182223],[1.021084,41.182249],[1.0208,41.18221],[1.020537,41.18231],[1.020489,41.182379],[1.020496,41.182385],[1.02057,41.182452],[1.020628,41.182512],[1.02068,41.182574],[1.020711,41.182617],[1.020761,41.182696],[1.020812,41.182775],[1.020845,41.182831],[1.020856,41.18285],[1.020846,41.182855],[1.020836,41.182859],[1.020824,41.182863],[1.020798,41.182866],[1.020743,41.182868],[1.020688,41.182868],[1.020655,41.182867],[1.020548,41.182865],[1.020408,41.182863],[1.02035,41.182867],[1.020292,41.182878],[1.020266,41.182889],[1.020246,41.182904],[1.020235,41.182917],[1.020228,41.18293],[1.020228,41.18293],[1.020222,41.182944],[1.020217,41.182971],[1.020216,41.18299],[1.020216,41.183052],[1.020221,41.183114],[1.020231,41.183176],[1.020246,41.183237],[1.020261,41.183278],[1.020289,41.183338],[1.020316,41.183399],[1.020357,41.18349],[1.020397,41.183581],[1.020413,41.183631],[1.020419,41.183682],[1.020419,41.183716],[1.020416,41.183774],[1.020414,41.183822],[1.020407,41.183955],[1.020407,41.184003],[1.020379,41.184004],[1.020385,41.184526],[1.020467,41.184542],[1.020713,41.184402],[1.020984,41.184224],[1.021039,41.18419],[1.021396,41.184015],[1.021481,41.183966],[1.021477,41.183946],[1.021485,41.183919],[1.022018,41.183574],[1.022203,41.183451],[1.022227,41.183411],[1.02232,41.183362],[1.022359,41.183301],[1.022371,41.183244],[1.022341,41.183151],[1.022265,41.182999],[1.022228,41.18289],[1.022237,41.182844],[1.022255,41.182818],[1.022447,41.182763],[1.022691,41.182677],[1.022934,41.182596],[1.023145,41.182532],[1.023302,41.182484],[1.023348,41.182468],[1.023367,41.182469],[1.023389,41.182486],[1.023394,41.18251],[1.023393,41.182548],[1.023319,41.182694],[1.023252,41.182829],[1.023223,41.182952],[1.023217,41.183031],[1.023235,41.18315],[1.023258,41.183236],[1.023282,41.183287],[1.023293,41.183325]]]]}},{"type":"Feature","id":"430311_430311 SI01 BCA 2","properties":{"area_id":"430311_430311 SI01 BCA 2","nom":"Polígon industrial Borges","codi_icgc":"430311 SI01 BCA 2","categoria":"Sector industrial","codi_municipi":"430311","municipi":"les Borges del Camp","codi_comarca":"08","comarca":"Baix Camp","provincia":"Tarragona","font":"ICGC Àrees de poblament v3r1 202602"},"geometry":{"type":"MultiPolygon","coordinates":[[[[1.025244,41.166808],[1.025262,41.166773],[1.025275,41.166741],[1.025273,41.166703],[1.025257,41.166682],[1.025389,41.166608],[1.025426,41.166584],[1.02541,41.166571],[1.026397,41.165962],[1.026423,41.165947],[1.026443,41.165927],[1.026457,41.165905],[1.026463,41.165881],[1.026463,41.165856],[1.026454,41.165832],[1.026438,41.16581],[1.026417,41.165792],[1.026387,41.165773],[1.02632,41.165737],[1.026187,41.165672],[1.025804,41.165514],[1.025356,41.16533],[1.025631,41.16515],[1.025421,41.165063],[1.024868,41.164838],[1.024612,41.164733],[1.024452,41.164672],[1.024252,41.164597],[1.023618,41.164355],[1.023512,41.164341],[1.023455,41.164379],[1.023439,41.164397],[1.023389,41.164372],[1.023324,41.164358],[1.022767,41.164217],[1.022762,41.164216],[1.022265,41.164108],[1.022281,41.164091],[1.022263,41.164087],[1.0218,41.163984],[1.021601,41.164295],[1.021252,41.164169],[1.021108,41.164409],[1.021639,41.164605],[1.021709,41.16463],[1.021595,41.16483],[1.021698,41.165088],[1.021838,41.165388],[1.021856,41.165351],[1.021896,41.165343],[1.022119,41.165444],[1.022442,41.16559],[1.022249,41.16583],[1.022185,41.1659],[1.022156,41.16595],[1.02215,41.166011],[1.02218,41.166065],[1.022268,41.166116],[1.022459,41.166187],[1.022592,41.166237],[1.02262,41.166256],[1.022703,41.16631],[1.022695,41.166332],[1.022707,41.166337],[1.022838,41.166397],[1.02309,41.16651],[1.023114,41.166524],[1.02317,41.166557],[1.023558,41.166781],[1.023571,41.166775],[1.02372,41.166703],[1.02389,41.166622],[1.023904,41.166635],[1.023971,41.166703],[1.024121,41.166855],[1.024124,41.166854],[1.024276,41.166774],[1.024519,41.166986],[1.024719,41.16717],[1.024726,41.167166],[1.024888,41.167058],[1.024904,41.167047],[1.025035,41.166963],[1.025119,41.166908],[1.025175,41.166872],[1.025217,41.166838],[1.025244,41.166808]]]]}},{"type":"Feature","id":"430311_430311 AP01 BCA 3","properties":{"area_id":"430311_430311 AP01 BCA 3","nom":"les Borges del Camp","codi_icgc":"430311 AP01 BCA 3","categoria":"Àrees de poblament","codi_municipi":"430311","municipi":"les Borges del Camp","codi_comarca":"08","comarca":"Baix Camp","provincia":"Tarragona","font":"ICGC Àrees de poblament v3r1 202602"},"geometry":{"type":"MultiPolygon","coordinates":[[[[1.021805,41.166703],[1.021776,41.166889],[1.021768,41.166949],[1.022143,41.167161],[1.022343,41.167309],[1.022069,41.167609],[1.021914,41.167535],[1.021865,41.167487],[1.021847,41.167443],[1.021837,41.167362],[1.021768,41.167309],[1.020945,41.16708],[1.020942,41.166703],[1.020865,41.166703],[1.020457,41.166703],[1.020411,41.166785],[1.020337,41.166902],[1.020299,41.166959],[1.020366,41.166984],[1.020353,41.167012],[1.02023,41.167231],[1.020768,41.16734],[1.020866,41.16736],[1.021225,41.167434],[1.021777,41.167585],[1.021802,41.167593],[1.021818,41.167962],[1.021143,41.167799],[1.021009,41.167915],[1.020685,41.167834],[1.02054,41.168047],[1.020273,41.168446],[1.020185,41.168429],[1.020159,41.168515],[1.02004,41.168746],[1.020023,41.168766],[1.020019,41.168771],[1.020186,41.168834],[1.01958,41.169427],[1.019295,41.169339],[1.019226,41.169317],[1.019181,41.169398],[1.019134,41.169479],[1.019096,41.169543],[1.019057,41.169608],[1.018968,41.169759],[1.018879,41.169911],[1.018816,41.170013],[1.018749,41.170114],[1.018682,41.170228],[1.018674,41.170229],[1.018666,41.170232],[1.018663,41.170238],[1.018669,41.170251],[1.018675,41.170265],[1.018681,41.17038],[1.018688,41.170496],[1.0187,41.170664],[1.019017,41.17068],[1.019039,41.170587],[1.019069,41.170538],[1.019317,41.170624],[1.01961,41.170769],[1.019592,41.170818],[1.019487,41.170897],[1.019311,41.171001],[1.019232,41.171073],[1.019125,41.171486],[1.019053,41.171677],[1.019,41.171668],[1.018949,41.171823],[1.018862,41.171814],[1.018853,41.171855],[1.018849,41.171871],[1.018829,41.171942],[1.018788,41.172085],[1.018752,41.172253],[1.018775,41.172326],[1.018809,41.172429],[1.018854,41.172517],[1.018889,41.172584],[1.018694,41.172643],[1.018667,41.172948],[1.018511,41.172983],[1.018592,41.173187],[1.018609,41.173241],[1.018701,41.17322],[1.018817,41.173195],[1.018933,41.173171],[1.018986,41.173158],[1.019037,41.17314],[1.01908,41.173125],[1.01912,41.173107],[1.019159,41.17309],[1.019174,41.173089],[1.01912,41.173233],[1.01934,41.1733],[1.019325,41.173331],[1.019225,41.173568],[1.019186,41.173644],[1.019153,41.173723],[1.019115,41.173811],[1.019016,41.174025],[1.019001,41.174055],[1.018932,41.174217],[1.018944,41.174221],[1.018894,41.174354],[1.018864,41.174345],[1.018835,41.174414],[1.018856,41.174421],[1.018817,41.174512],[1.018795,41.174507],[1.018724,41.174672],[1.018674,41.174746],[1.018535,41.175028],[1.018453,41.175199],[1.018422,41.175193],[1.018353,41.175172],[1.018313,41.175155],[1.018217,41.175339],[1.018218,41.175384],[1.018265,41.175396],[1.018304,41.175408],[1.018317,41.175412],[1.018344,41.175419],[1.018413,41.175437],[1.018482,41.175455],[1.018527,41.175468],[1.018547,41.175474],[1.018572,41.175481],[1.018628,41.175494],[1.018652,41.1755],[1.018656,41.175492],[1.018657,41.17549],[1.018662,41.175479],[1.018745,41.175292],[1.018864,41.175027],[1.018963,41.174808],[1.018962,41.174792],[1.018952,41.174781],[1.018944,41.174771],[1.018931,41.174764],[1.019066,41.17481],[1.019069,41.174821],[1.019075,41.17483],[1.019101,41.174857],[1.019126,41.174884],[1.019197,41.17496],[1.019269,41.175035],[1.01932,41.175088],[1.01937,41.175142],[1.019374,41.175138],[1.019649,41.174852],[1.019854,41.175043],[1.020042,41.174933],[1.019748,41.174622],[1.019619,41.174491],[1.019503,41.174375],[1.019323,41.174169],[1.019227,41.174081],[1.01945,41.173564],[1.019602,41.173562],[1.020125,41.173618],[1.020435,41.173786],[1.020678,41.173991],[1.021199,41.173899],[1.021552,41.174221],[1.021184,41.174453],[1.021197,41.174466],[1.021307,41.174578],[1.021707,41.17503],[1.021596,41.175103],[1.021485,41.175177],[1.021394,41.175237],[1.021469,41.175297],[1.021452,41.175304],[1.021426,41.175319],[1.021311,41.175397],[1.021263,41.175434],[1.021242,41.17545],[1.021462,41.175597],[1.02172,41.175577],[1.021755,41.175584],[1.02179,41.175624],[1.021851,41.175688],[1.021895,41.175723],[1.021929,41.175738],[1.02197,41.175743],[1.022002,41.175745],[1.022034,41.175736],[1.022083,41.17577],[1.022354,41.176005],[1.022478,41.176113],[1.022477,41.176128],[1.022471,41.176142],[1.02241,41.176223],[1.022271,41.176377],[1.022122,41.17653],[1.021973,41.176683],[1.021944,41.176713],[1.022003,41.176738],[1.022168,41.176831],[1.022511,41.176982],[1.02281,41.177085],[1.023067,41.176693],[1.023175,41.176738],[1.023283,41.176783],[1.02336,41.176813],[1.023395,41.176764],[1.023907,41.176066],[1.023926,41.176038],[1.02403,41.175891],[1.024138,41.175746],[1.024248,41.175604],[1.024363,41.175464],[1.024388,41.175437],[1.024394,41.175431],[1.024415,41.175412],[1.024431,41.1754],[1.024456,41.175383],[1.024469,41.175375],[1.024482,41.175367],[1.024507,41.175355],[1.024547,41.175339],[1.024565,41.175329],[1.02458,41.175316],[1.024629,41.175259],[1.024678,41.175201],[1.024709,41.175173],[1.024767,41.175126],[1.024783,41.175113],[1.024799,41.175097],[1.024813,41.175071],[1.024819,41.175053],[1.024829,41.175007],[1.024832,41.174991],[1.024839,41.174939],[1.024851,41.174903],[1.02486,41.174884],[1.024867,41.17487],[1.02487,41.174863],[1.024896,41.174809],[1.024905,41.174785],[1.024914,41.174748],[1.024915,41.17471],[1.02491,41.174664],[1.024905,41.174617],[1.024897,41.174528],[1.024818,41.17445],[1.02459,41.174323],[1.024325,41.174185],[1.024193,41.174102],[1.024069,41.17398],[1.024156,41.173872],[1.02419,41.173819],[1.024226,41.173766],[1.02427,41.173715],[1.024318,41.173664],[1.024965,41.174004],[1.02519,41.173701],[1.025056,41.173635],[1.025094,41.173581],[1.025126,41.173522],[1.025346,41.17312],[1.025423,41.17298],[1.026052,41.173219],[1.026135,41.173251],[1.02634,41.172907],[1.026388,41.172754],[1.026389,41.172586],[1.026304,41.172569],[1.02618,41.172521],[1.025719,41.172326],[1.025513,41.172255],[1.025483,41.172255],[1.025421,41.172251],[1.025302,41.172241],[1.025262,41.172237],[1.02507,41.172232],[1.024918,41.172229],[1.024909,41.172228],[1.024901,41.172228],[1.024878,41.172228],[1.024715,41.172225],[1.024551,41.172223],[1.024553,41.172206],[1.024566,41.172088],[1.024207,41.172068],[1.024166,41.172229],[1.024164,41.172321],[1.024261,41.172323],[1.024381,41.172323],[1.024532,41.17232],[1.024652,41.17232],[1.024734,41.172319],[1.024788,41.172327],[1.024816,41.172336],[1.024836,41.172355],[1.024844,41.172379],[1.024821,41.172449],[1.024747,41.172631],[1.024723,41.172686],[1.024708,41.172713],[1.024615,41.172896],[1.024585,41.172978],[1.024513,41.173138],[1.02449,41.173179],[1.024463,41.173228],[1.024445,41.173258],[1.024428,41.17327],[1.024412,41.173283],[1.024171,41.173406],[1.024161,41.173415],[1.024096,41.173446],[1.024044,41.173471],[1.023723,41.173605],[1.023499,41.173695],[1.023294,41.173777],[1.023192,41.173808],[1.023116,41.173824],[1.023053,41.173833],[1.023018,41.17383],[1.022991,41.173817],[1.022981,41.173799],[1.022814,41.173719],[1.022768,41.173727],[1.022505,41.173743],[1.022477,41.173742],[1.022444,41.173732],[1.022393,41.173701],[1.02222,41.173535],[1.022099,41.173418],[1.021986,41.173331],[1.021882,41.173251],[1.021875,41.173244],[1.021864,41.173226],[1.02186,41.173207],[1.021862,41.173188],[1.021872,41.17317],[1.021904,41.173152],[1.021933,41.173134],[1.021947,41.173127],[1.022138,41.173009],[1.022165,41.172977],[1.022221,41.172935],[1.022312,41.172864],[1.022368,41.172821],[1.022426,41.172774],[1.022434,41.172766],[1.022452,41.172748],[1.022476,41.172735],[1.022504,41.172726],[1.022533,41.172724],[1.022563,41.172727],[1.022572,41.172729],[1.022756,41.172747],[1.022955,41.17277],[1.023201,41.172789],[1.023353,41.172804],[1.023377,41.172807],[1.023596,41.172835],[1.023644,41.172689],[1.023642,41.172668],[1.023661,41.172591],[1.023721,41.172382],[1.023741,41.172332],[1.023753,41.172315],[1.023745,41.17219],[1.023676,41.172171],[1.023544,41.172128],[1.023456,41.172094],[1.023368,41.172061],[1.023355,41.172056],[1.023327,41.172047],[1.023263,41.17203],[1.023196,41.172018],[1.023039,41.171997],[1.023032,41.171996],[1.023026,41.171995],[1.023013,41.171994],[1.022867,41.17198],[1.022715,41.171965],[1.022671,41.17196],[1.022563,41.17195],[1.022413,41.171932],[1.022263,41.171914],[1.02211,41.171895],[1.021958,41.171876],[1.021887,41.171696],[1.021808,41.17156],[1.021819,41.171523],[1.022063,41.171432],[1.022121,41.17141],[1.022221,41.171373],[1.02233,41.171272],[1.022382,41.171224],[1.022373,41.171213],[1.022352,41.171191],[1.022302,41.171148],[1.022252,41.171104],[1.022188,41.17105],[1.022124,41.170997],[1.022064,41.170948],[1.022006,41.170901],[1.022003,41.170899],[1.021981,41.170881],[1.02196,41.170864],[1.021951,41.170859],[1.021921,41.170828],[1.021977,41.170795],[1.022168,41.170664],[1.022672,41.170399],[1.02271,41.170437],[1.022782,41.170478],[1.023255,41.170232],[1.023438,41.170311],[1.023731,41.170448],[1.02376,41.170414],[1.023718,41.170394],[1.023752,41.170376],[1.023767,41.170369],[1.023856,41.170322],[1.023839,41.17031],[1.02385,41.170301],[1.023863,41.170291],[1.023879,41.170273],[1.023888,41.170251],[1.023889,41.170234],[1.023883,41.170214],[1.023865,41.170191],[1.023846,41.170172],[1.023821,41.170148],[1.023799,41.170126],[1.023792,41.170113],[1.023792,41.170102],[1.0238,41.170091],[1.023813,41.17008],[1.023882,41.170039],[1.023951,41.169996],[1.02403,41.169941],[1.024109,41.169886],[1.024147,41.169863],[1.024186,41.169844],[1.024196,41.169843],[1.024207,41.169844],[1.024213,41.169847],[1.024233,41.169859],[1.024255,41.169872],[1.0243,41.169897],[1.024344,41.169922],[1.024415,41.169961],[1.024505,41.169962],[1.024875,41.169697],[1.024882,41.169691],[1.02515,41.169465],[1.025181,41.169479],[1.025275,41.169411],[1.025328,41.169446],[1.025491,41.169316],[1.025062,41.168999],[1.024772,41.169208],[1.024271,41.168876],[1.024043,41.168742],[1.024243,41.168564],[1.023806,41.168314],[1.023909,41.16823],[1.023594,41.168035],[1.023297,41.168211],[1.023141,41.168134],[1.022708,41.167928],[1.022962,41.167662],[1.022727,41.167518],[1.022762,41.167485],[1.022649,41.167415],[1.022666,41.167399],[1.022722,41.167371],[1.022779,41.167343],[1.022817,41.167323],[1.022852,41.1673],[1.022866,41.167289],[1.022881,41.167278],[1.022912,41.167259],[1.022945,41.16724],[1.02297,41.167222],[1.022992,41.167201],[1.022999,41.167188],[1.023002,41.167175],[1.022997,41.167149],[1.022988,41.167134],[1.022953,41.167097],[1.022914,41.167064],[1.022883,41.167046],[1.022817,41.167016],[1.022749,41.166991],[1.022701,41.166979],[1.022662,41.166972],[1.022623,41.166968],[1.022548,41.166959],[1.022501,41.166948],[1.022389,41.166909],[1.022276,41.16687],[1.022274,41.166869],[1.022374,41.166815],[1.022435,41.166771],[1.022504,41.166683],[1.022487,41.166596],[1.022419,41.166524],[1.022072,41.166387],[1.021881,41.166321],[1.021832,41.16635],[1.021415,41.166203],[1.021253,41.166468],[1.021627,41.166611],[1.021809,41.166676],[1.021805,41.166703]]]]}},{"type":"Feature","id":"430311_430311 AP05 BCA 2","properties":{"area_id":"430311_430311 AP05 BCA 2","nom":"les Fontanilles","codi_icgc":"430311 AP05 BCA 2","categoria":"Àrees de poblament","codi_municipi":"430311","municipi":"les Borges del Camp","codi_comarca":"08","comarca":"Baix Camp","provincia":"Tarragona","font":"ICGC Àrees de poblament v3r1 202602"},"geometry":{"type":"MultiPolygon","coordinates":[[[[1.032358,41.168336],[1.032323,41.16835],[1.031878,41.168484],[1.031438,41.168608],[1.03089,41.168787],[1.030141,41.169024],[1.030858,41.169518],[1.031431,41.169238],[1.031527,41.169392],[1.031639,41.169642],[1.031656,41.169699],[1.030991,41.169849],[1.030686,41.169918],[1.030599,41.169981],[1.03057,41.170024],[1.030164,41.170191],[1.030394,41.170445],[1.031238,41.170153],[1.031548,41.170055],[1.031805,41.169991],[1.031876,41.169996],[1.031909,41.17004],[1.032891,41.169741],[1.03292,41.169779],[1.032975,41.169857],[1.033023,41.169943],[1.033076,41.169996],[1.033516,41.169809],[1.033556,41.169788],[1.033517,41.169693],[1.033494,41.169649],[1.033452,41.169592],[1.033401,41.169526],[1.033267,41.169347],[1.03302,41.169028],[1.032827,41.168778],[1.032662,41.168583],[1.032475,41.168347],[1.032496,41.16832],[1.03247,41.168278],[1.032293,41.168036],[1.032134,41.167818],[1.032037,41.167687],[1.031921,41.167679],[1.031817,41.167667],[1.03243,41.168295],[1.03241,41.168316],[1.032358,41.168336]]]]}},{"type":"Feature","id":"430311_430311 AP03 BCA 2","properties":{"area_id":"430311_430311 AP03 BCA 2","nom":"les Torres","codi_icgc":"430311 AP03 BCA 2","categoria":"Àrees de poblament","codi_municipi":"430311","municipi":"les Borges del Camp","codi_comarca":"08","comarca":"Baix Camp","provincia":"Tarragona","font":"ICGC Àrees de poblament v3r1 202602"},"geometry":{"type":"MultiPolygon","coordinates":[[[[1.014003,41.182331],[1.014142,41.182184],[1.014363,41.181934],[1.014602,41.181676],[1.014754,41.181509],[1.014947,41.181628],[1.015018,41.181539],[1.015036,41.181517],[1.015046,41.181505],[1.015054,41.181495],[1.015061,41.181483],[1.015066,41.18147],[1.015069,41.181446],[1.015067,41.181422],[1.015059,41.181393],[1.015047,41.181366],[1.015012,41.181308],[1.014978,41.18125],[1.014929,41.181164],[1.014882,41.181078],[1.014867,41.181045],[1.014854,41.18101],[1.014831,41.180941],[1.014813,41.180896],[1.0148,41.180874],[1.014784,41.180854],[1.014751,41.180813],[1.014733,41.180785],[1.014723,41.180761],[1.014716,41.180737],[1.014706,41.180687],[1.014695,41.180654],[1.014686,41.180637],[1.014674,41.180623],[1.0146,41.180529],[1.014583,41.180484],[1.014573,41.180462],[1.014561,41.18044],[1.014538,41.180397],[1.014515,41.180354],[1.014504,41.180258],[1.014505,41.180232],[1.013805,41.180063],[1.013653,41.180026],[1.013366,41.180054],[1.013308,41.180053],[1.013236,41.180057],[1.013192,41.180058],[1.013148,41.180058],[1.013122,41.180058],[1.013096,41.180058],[1.013079,41.180057],[1.013061,41.18006],[1.012988,41.180068],[1.012888,41.180147],[1.012864,41.180165],[1.012862,41.180168],[1.012834,41.180254],[1.012829,41.18027],[1.012826,41.180281],[1.012822,41.180292],[1.012816,41.180304],[1.0128,41.18032],[1.012784,41.180336],[1.012724,41.180411],[1.012664,41.180486],[1.012599,41.180569],[1.012535,41.180653],[1.012483,41.180726],[1.012436,41.180801],[1.012414,41.180837],[1.012393,41.180873],[1.012436,41.180888],[1.012405,41.180941],[1.012358,41.181022],[1.012604,41.181072],[1.012542,41.181175],[1.012574,41.181208],[1.012606,41.181242],[1.012623,41.181258],[1.012639,41.181275],[1.012651,41.181287],[1.012679,41.181321],[1.012707,41.181354],[1.012776,41.18144],[1.012823,41.181552],[1.012834,41.181633],[1.012828,41.181666],[1.012813,41.181693],[1.012781,41.181727],[1.012641,41.181873],[1.012601,41.181913],[1.012621,41.181973],[1.012647,41.182033],[1.012659,41.182055],[1.012671,41.182076],[1.012682,41.18209],[1.012703,41.182109],[1.012726,41.182127],[1.012763,41.182152],[1.012803,41.182174],[1.012852,41.18219],[1.012902,41.182201],[1.012937,41.182205],[1.012971,41.18221],[1.013001,41.182218],[1.01303,41.182227],[1.013054,41.182237],[1.013076,41.182249],[1.013096,41.182264],[1.013113,41.182281],[1.013126,41.182297],[1.013139,41.182314],[1.013158,41.182341],[1.013211,41.182329],[1.013218,41.182316],[1.013235,41.182294],[1.013256,41.182273],[1.013295,41.182233],[1.013335,41.182193],[1.013345,41.182199],[1.013871,41.182455],[1.014003,41.182331]]]]}},{"type":"Feature","id":"430311_430311 AP06 BCA 4","properties":{"area_id":"430311_430311 AP06 BCA 4","nom":"les Valls","codi_icgc":"430311 AP06 BCA 4","categoria":"Àrees de poblament","codi_municipi":"430311","municipi":"les Borges del Camp","codi_comarca":"08","comarca":"Baix Camp","provincia":"Tarragona","font":"ICGC Àrees de poblament v3r1 202602"},"geometry":{"type":"MultiPolygon","coordinates":[[[[1.019354,41.187734],[1.01965,41.187642],[1.019813,41.18758],[1.019834,41.187528],[1.01981,41.187461],[1.019767,41.187416],[1.019556,41.187266],[1.019384,41.187159],[1.019345,41.186771],[1.019583,41.186746],[1.019624,41.186741],[1.019666,41.186737],[1.019913,41.186887],[1.019945,41.186906],[1.020008,41.186945],[1.020049,41.186972],[1.020057,41.187041],[1.020153,41.187035],[1.020147,41.186985],[1.020181,41.186983],[1.020202,41.186983],[1.020219,41.186983],[1.020255,41.186984],[1.020278,41.186984],[1.020599,41.186985],[1.020675,41.186986],[1.02073,41.186986],[1.020748,41.187221],[1.021043,41.187301],[1.021285,41.18723],[1.021352,41.18721],[1.021241,41.187015],[1.021341,41.186987],[1.021389,41.186964],[1.021419,41.186919],[1.021459,41.186824],[1.021449,41.18673],[1.021471,41.1867],[1.021477,41.186692],[1.021457,41.186618],[1.021391,41.186629],[1.021373,41.186632],[1.02105,41.186669],[1.021049,41.186669],[1.021044,41.186591],[1.020599,41.186571],[1.020478,41.186629],[1.020378,41.18668],[1.020304,41.186808],[1.020264,41.186815],[1.020237,41.186819],[1.020233,41.186753],[1.020228,41.186678],[1.02023,41.186641],[1.020224,41.186599],[1.020218,41.186558],[1.020216,41.186521],[1.020214,41.186484],[1.020203,41.186465],[1.020186,41.186447],[1.020167,41.186432],[1.020148,41.186418],[1.020121,41.1864],[1.020093,41.186383],[1.020073,41.186373],[1.020045,41.18636],[1.020014,41.18635],[1.019913,41.186358],[1.019777,41.186373],[1.019773,41.186253],[1.019756,41.186254],[1.019719,41.186258],[1.01951,41.186354],[1.019477,41.186357],[1.019299,41.186517],[1.019112,41.186521],[1.019014,41.186522],[1.01891,41.18652],[1.018847,41.186733],[1.018762,41.186875],[1.018646,41.186955],[1.01826,41.187048],[1.018192,41.187101],[1.018185,41.187207],[1.01825,41.187587],[1.018407,41.187894],[1.018426,41.188078],[1.018436,41.188204],[1.018614,41.188232],[1.018727,41.188495],[1.018728,41.188515],[1.018729,41.188547],[1.018731,41.18858],[1.018733,41.188599],[1.018734,41.188608],[1.01874,41.188636],[1.018757,41.188691],[1.018764,41.188711],[1.018783,41.188713],[1.019197,41.188742],[1.01923,41.188745],[1.019239,41.188608],[1.019118,41.188499],[1.019003,41.188396],[1.018919,41.188265],[1.019074,41.188218],[1.019294,41.188158],[1.019408,41.188145],[1.019354,41.187734]]]]}}]}