{"type":"FeatureCollection","name":"ICGC Àrees de poblament - Bràfim","features":[{"type":"Feature","id":"430347_430347 AP01 ACA 3","properties":{"area_id":"430347_430347 AP01 ACA 3","nom":"Bràfim","codi_icgc":"430347 AP01 ACA 3","categoria":"Àrees de poblament","codi_municipi":"430347","municipi":"Bràfim","codi_comarca":"01","comarca":"Alt Camp","provincia":"Tarragona","font":"ICGC Àrees de poblament v3r1 202602"},"geometry":{"type":"MultiPolygon","coordinates":[[[[1.336532,41.265116],[1.33636,41.265025],[1.336133,41.26496],[1.33604,41.265182],[1.336039,41.265204],[1.335987,41.265305],[1.335961,41.265355],[1.33601,41.26537],[1.336239,41.26543],[1.336554,41.265512],[1.336844,41.265615],[1.336427,41.265776],[1.336664,41.266134],[1.336684,41.266165],[1.33669,41.266161],[1.33672,41.266148],[1.336751,41.266137],[1.336832,41.266111],[1.336884,41.266094],[1.336913,41.266084],[1.336956,41.266066],[1.337016,41.266034],[1.337077,41.266004],[1.337089,41.265998],[1.337098,41.266011],[1.337112,41.266033],[1.337163,41.26611],[1.337231,41.266215],[1.337283,41.266298],[1.337293,41.266317],[1.337296,41.266338],[1.337303,41.266378],[1.33711,41.266445],[1.337177,41.266556],[1.33739,41.26652],[1.337413,41.266512],[1.337433,41.266503],[1.337435,41.266499],[1.337482,41.266479],[1.337528,41.266543],[1.338151,41.267066],[1.338311,41.267157],[1.338639,41.267414],[1.338675,41.267449],[1.338685,41.267485],[1.338894,41.267669],[1.338961,41.267713],[1.339026,41.267771],[1.339122,41.267858],[1.339623,41.268304],[1.339636,41.268328],[1.33915,41.268627],[1.338702,41.26823],[1.338487,41.268358],[1.338919,41.268743],[1.338618,41.268867],[1.338536,41.268918],[1.33839,41.269019],[1.338395,41.269086],[1.338228,41.269197],[1.338114,41.269271],[1.337987,41.269373],[1.337931,41.269414],[1.337719,41.269582],[1.337714,41.269586],[1.337696,41.269601],[1.337567,41.269689],[1.337482,41.269943],[1.3375,41.27004],[1.33751,41.270078],[1.337524,41.270115],[1.337547,41.270155],[1.337587,41.270214],[1.337629,41.270273],[1.337658,41.270312],[1.337703,41.270383],[1.337747,41.270454],[1.337773,41.270491],[1.33782,41.270542],[1.337871,41.27059],[1.337904,41.270621],[1.338426,41.270387],[1.338506,41.270346],[1.338603,41.270379],[1.338714,41.270373],[1.338728,41.270361],[1.338802,41.270314],[1.338882,41.270271],[1.338969,41.270225],[1.339012,41.270206],[1.339145,41.270162],[1.33921,41.270142],[1.339282,41.270121],[1.339365,41.270096],[1.339398,41.270086],[1.33942,41.270079],[1.339437,41.270279],[1.340245,41.270241],[1.340289,41.270233],[1.340716,41.270149],[1.340774,41.270438],[1.341471,41.27027],[1.341359,41.269697],[1.341664,41.269602],[1.341761,41.269608],[1.341861,41.269728],[1.341913,41.269793],[1.341963,41.269767],[1.342234,41.269625],[1.342545,41.269878],[1.34261,41.269895],[1.342881,41.270132],[1.343048,41.270289],[1.343073,41.270311],[1.343517,41.270702],[1.343546,41.27073],[1.343565,41.270713],[1.343573,41.270661],[1.343593,41.270537],[1.343594,41.270439],[1.343577,41.27036],[1.343542,41.270293],[1.343448,41.270197],[1.343545,41.270145],[1.34393,41.269798],[1.343628,41.269598],[1.343455,41.2695],[1.343103,41.269792],[1.342635,41.26943],[1.342631,41.269381],[1.342813,41.269288],[1.342945,41.269209],[1.342964,41.269186],[1.342993,41.269162],[1.343028,41.269124],[1.343067,41.269084],[1.343136,41.269001],[1.3432,41.268917],[1.343245,41.268863],[1.343318,41.268785],[1.343286,41.268757],[1.342733,41.268577],[1.342664,41.268558],[1.342532,41.268505],[1.342478,41.268484],[1.342466,41.268501],[1.342392,41.268472],[1.342141,41.26839],[1.34216,41.268334],[1.342249,41.268176],[1.342409,41.267937],[1.342501,41.267915],[1.342577,41.267804],[1.342616,41.267754],[1.342752,41.267544],[1.342585,41.267474],[1.342411,41.267396],[1.342443,41.267353],[1.342432,41.267347],[1.342407,41.267335],[1.342376,41.267322],[1.342054,41.267148],[1.341983,41.267115],[1.34188,41.267067],[1.341755,41.267242],[1.341697,41.267316],[1.341668,41.267355],[1.341452,41.267279],[1.341074,41.26712],[1.340706,41.266967],[1.340338,41.266815],[1.339969,41.266663],[1.3396,41.266512],[1.339334,41.266403],[1.339309,41.266393],[1.339285,41.26638],[1.339271,41.266368],[1.339259,41.266354],[1.339455,41.266116],[1.338411,41.265668],[1.338418,41.265619],[1.338389,41.265598],[1.338358,41.265575],[1.338296,41.265531],[1.338235,41.265485],[1.338049,41.265341],[1.337864,41.265196],[1.337624,41.265008],[1.337385,41.26482],[1.3373,41.264754],[1.337234,41.264701],[1.337104,41.264621],[1.336989,41.264562],[1.3368,41.264407],[1.336617,41.264261],[1.336345,41.264526],[1.336406,41.26463],[1.336494,41.26475],[1.336601,41.264885],[1.336682,41.264973],[1.336532,41.265116]]]]}},{"type":"Feature","id":"430347_430347 SI02 ACA 2","properties":{"area_id":"430347_430347 SI02 ACA 2","nom":"PP 5 Bràfim","codi_icgc":"430347 SI02 ACA 2","categoria":"Sector industrial","codi_municipi":"430347","municipi":"Bràfim","codi_comarca":"01","comarca":"Alt Camp","provincia":"Tarragona","font":"ICGC Àrees de poblament v3r1 202602"},"geometry":{"type":"MultiPolygon","coordinates":[[[[1.340722,41.287848],[1.340865,41.2885],[1.340893,41.288624],[1.340935,41.288811],[1.342385,41.288613],[1.343246,41.288507],[1.343234,41.288431],[1.343244,41.288429],[1.343091,41.287614],[1.343035,41.287385],[1.342978,41.287153],[1.342659,41.286005],[1.340375,41.286316],[1.340449,41.286662],[1.340722,41.287848]]]]}},{"type":"Feature","id":"430347_430347 SI01 ACA 2","properties":{"area_id":"430347_430347 SI01 ACA 2","nom":"Polígon industrial Bràfim-Alió","codi_icgc":"430347 SI01 ACA 2","categoria":"Sector industrial","codi_municipi":"430347","municipi":"Bràfim","codi_comarca":"01","comarca":"Alt Camp","provincia":"Tarragona","font":"ICGC Àrees de poblament v3r1 202602"},"geometry":{"type":"MultiPolygon","coordinates":[[[[1.346288,41.288348],[1.34621,41.288273],[1.346155,41.288222],[1.346097,41.288238],[1.346017,41.28826],[1.345957,41.288268],[1.345898,41.288276],[1.345871,41.288262],[1.344159,41.28849],[1.344126,41.288515],[1.343993,41.288533],[1.343851,41.288553],[1.343484,41.288603],[1.343573,41.289092],[1.343573,41.289197],[1.343578,41.289222],[1.34359,41.289262],[1.343611,41.289301],[1.343638,41.289337],[1.343671,41.28937],[1.343711,41.289399],[1.343755,41.289424],[1.343803,41.289443],[1.343842,41.289454],[1.343855,41.289458],[1.343936,41.289478],[1.344562,41.289571],[1.344997,41.289635],[1.347034,41.28995],[1.34704,41.289951],[1.347077,41.289957],[1.34704,41.289068],[1.346288,41.288348]]]]}},{"type":"Feature","id":"430347_430347 AP02 ACA 2","properties":{"area_id":"430347_430347 AP02 ACA 2","nom":"la Ciutat Jardí","codi_icgc":"430347 AP02 ACA 2","categoria":"Àrees de poblament","codi_municipi":"430347","municipi":"Bràfim","codi_comarca":"01","comarca":"Alt Camp","provincia":"Tarragona","font":"ICGC Àrees de poblament v3r1 202602"},"geometry":{"type":"MultiPolygon","coordinates":[[[[1.344085,41.273445],[1.344078,41.273443],[1.344139,41.273044],[1.344163,41.27287],[1.344253,41.272231],[1.34425,41.272228],[1.344074,41.27201],[1.344065,41.272009],[1.344026,41.272006],[1.344024,41.272002],[1.343868,41.271986],[1.343526,41.271951],[1.343566,41.271642],[1.343856,41.271668],[1.343888,41.271426],[1.343921,41.271176],[1.343963,41.270863],[1.343984,41.270695],[1.34398,41.270695],[1.343941,41.270691],[1.343655,41.270865],[1.343551,41.270928],[1.343536,41.271035],[1.343527,41.271096],[1.343505,41.271248],[1.343482,41.271406],[1.343477,41.271437],[1.343449,41.271626],[1.343409,41.271889],[1.343386,41.271926],[1.343371,41.272074],[1.34337,41.272077],[1.343371,41.272081],[1.342885,41.272181],[1.342878,41.272179],[1.342452,41.272109],[1.342432,41.272107],[1.342426,41.272167],[1.342422,41.272189],[1.342427,41.272241],[1.342431,41.272275],[1.342433,41.272291],[1.342443,41.272356],[1.342463,41.272437],[1.342513,41.27265],[1.342514,41.272655],[1.342544,41.272792],[1.342551,41.272825],[1.342565,41.272887],[1.342589,41.272981],[1.342601,41.273029],[1.342738,41.273383],[1.342746,41.273407],[1.34281,41.273613],[1.342823,41.273697],[1.342824,41.27371],[1.342824,41.273739],[1.342862,41.273744],[1.342874,41.273745],[1.343141,41.273779],[1.343102,41.274051],[1.343069,41.274277],[1.343138,41.274306],[1.34317,41.274319],[1.343727,41.274405],[1.343768,41.274261],[1.343774,41.274233],[1.343807,41.2741],[1.34404,41.274128],[1.344136,41.273931],[1.344164,41.273875],[1.3443,41.273905],[1.344343,41.27377],[1.344233,41.273757],[1.344254,41.273657],[1.344091,41.273627],[1.344085,41.273445]]]]}}]}