{"type":"FeatureCollection","name":"ICGC Àrees de poblament - Bot","features":[{"type":"Feature","id":"430326_430326 AP01 TAL 3","properties":{"area_id":"430326_430326 AP01 TAL 3","nom":"Bot","codi_icgc":"430326 AP01 TAL 3","categoria":"Àrees de poblament","codi_municipi":"430326","municipi":"Bot","codi_comarca":"37","comarca":"Terra Alta","provincia":"Tarragona","font":"ICGC Àrees de poblament v3r1 202602"},"geometry":{"type":"MultiPolygon","coordinates":[[[[0.384042,41.011146],[0.384072,41.011108],[0.384101,41.011071],[0.384131,41.011041],[0.384161,41.011011],[0.38419,41.010979],[0.384219,41.010947],[0.384296,41.010873],[0.384374,41.010799],[0.384423,41.010752],[0.384471,41.010705],[0.38454,41.01064],[0.384611,41.010577],[0.38466,41.010532],[0.384712,41.010488],[0.384768,41.010448],[0.384826,41.010408],[0.384868,41.010381],[0.384909,41.010354],[0.384921,41.010353],[0.384935,41.010355],[0.384939,41.010359],[0.384942,41.010367],[0.384946,41.010375],[0.384938,41.010403],[0.384929,41.010432],[0.384919,41.010466],[0.384908,41.010501],[0.384972,41.010513],[0.385053,41.010517],[0.38506,41.010442],[0.385138,41.010446],[0.385134,41.01049],[0.38536,41.010502],[0.385357,41.010517],[0.385342,41.010592],[0.385519,41.010612],[0.38553,41.010617],[0.385541,41.010623],[0.385552,41.010632],[0.385556,41.010644],[0.385557,41.010685],[0.385558,41.010727],[0.385547,41.010804],[0.385535,41.010882],[0.38568,41.010901],[0.385956,41.010942],[0.385993,41.010798],[0.386051,41.010797],[0.38618,41.010795],[0.386269,41.010462],[0.386607,41.010515],[0.386676,41.010548],[0.3869,41.01045],[0.387037,41.01039],[0.387232,41.010466],[0.387415,41.010488],[0.387506,41.010502],[0.387543,41.010507],[0.387589,41.010513],[0.387635,41.01052],[0.387682,41.010527],[0.387723,41.010534],[0.387812,41.010548],[0.387861,41.010554],[0.387935,41.010561],[0.388009,41.010565],[0.388055,41.010564],[0.388123,41.010561],[0.38819,41.01056],[0.388277,41.010565],[0.388364,41.010569],[0.388441,41.010552],[0.388457,41.010478],[0.388474,41.010405],[0.388494,41.010325],[0.388514,41.010244],[0.388529,41.010183],[0.388541,41.010122],[0.388547,41.010078],[0.388549,41.010065],[0.388569,41.010003],[0.388539,41.009919],[0.388421,41.009925],[0.388292,41.009927],[0.388002,41.009922],[0.387985,41.009922],[0.387901,41.009918],[0.387869,41.009917],[0.387816,41.009915],[0.387727,41.009915],[0.38764,41.009916],[0.387604,41.009916],[0.387568,41.009915],[0.387525,41.009913],[0.387482,41.00991],[0.387409,41.009904],[0.38735,41.009899],[0.387213,41.009891],[0.387184,41.009883],[0.38715,41.009874],[0.387124,41.00987],[0.38709,41.009869],[0.387079,41.009868],[0.387069,41.009866],[0.386991,41.009838],[0.386911,41.009809],[0.386803,41.009772],[0.386695,41.009734],[0.386634,41.009715],[0.386571,41.009698],[0.386566,41.009697],[0.386599,41.009626],[0.386614,41.009578],[0.386655,41.009456],[0.386677,41.009406],[0.386655,41.0094],[0.386662,41.009383],[0.386536,41.009352],[0.386577,41.009256],[0.38653,41.009245],[0.386445,41.009219],[0.386399,41.009215],[0.386419,41.009097],[0.386472,41.008945],[0.386549,41.008961],[0.386572,41.008892],[0.386592,41.008896],[0.386601,41.008842],[0.386601,41.008764],[0.38656,41.008758],[0.386574,41.008705],[0.386636,41.008715],[0.386686,41.008715],[0.386686,41.008695],[0.386756,41.008695],[0.386756,41.008671],[0.386758,41.008588],[0.386757,41.008468],[0.386828,41.008467],[0.386828,41.008447],[0.386804,41.008447],[0.386803,41.00842],[0.386899,41.008418],[0.386895,41.008333],[0.386851,41.008334],[0.386841,41.008303],[0.386811,41.008264],[0.386754,41.008196],[0.38668,41.008151],[0.3866,41.008114],[0.386519,41.008095],[0.386406,41.008071],[0.386241,41.008032],[0.386091,41.008],[0.385683,41.0079],[0.385583,41.007879],[0.385496,41.007851],[0.385404,41.007813],[0.385291,41.007786],[0.385213,41.00777],[0.385103,41.007765],[0.385008,41.00778],[0.384951,41.007791],[0.384848,41.007812],[0.384756,41.007819],[0.384674,41.007822],[0.384558,41.00782],[0.384096,41.007809],[0.383668,41.0078],[0.383411,41.007789],[0.383219,41.007794],[0.383114,41.007808],[0.383029,41.007833],[0.382812,41.007909],[0.382784,41.007919],[0.382782,41.007815],[0.382705,41.007813],[0.382443,41.007813],[0.382407,41.007816],[0.382407,41.007878],[0.3824,41.007901],[0.382256,41.007901],[0.382205,41.007903],[0.382154,41.007897],[0.3821,41.007894],[0.381994,41.007897],[0.38194,41.007894],[0.381873,41.007902],[0.381795,41.007917],[0.381736,41.00793],[0.381631,41.007953],[0.381568,41.007969],[0.3815,41.007989],[0.381433,41.00801],[0.381391,41.008024],[0.381339,41.008047],[0.381231,41.008069],[0.380934,41.008143],[0.380992,41.008271],[0.381044,41.008267],[0.381061,41.008268],[0.381084,41.008272],[0.381106,41.008276],[0.38116,41.008416],[0.381209,41.008969],[0.381211,41.009035],[0.381335,41.009095],[0.381344,41.009096],[0.381352,41.009098],[0.381356,41.009101],[0.38136,41.009107],[0.381361,41.009115],[0.381363,41.009124],[0.381364,41.009133],[0.381364,41.00914],[0.381365,41.009151],[0.381322,41.009154],[0.381277,41.009168],[0.381189,41.009203],[0.381106,41.009245],[0.381057,41.009272],[0.381035,41.009286],[0.38102,41.009297],[0.381094,41.009393],[0.38113,41.009465],[0.381144,41.009508],[0.381148,41.009544],[0.381149,41.009572],[0.381151,41.009608],[0.381152,41.009615],[0.381163,41.009724],[0.381162,41.00975],[0.381161,41.009774],[0.381161,41.009794],[0.381186,41.009796],[0.381286,41.009801],[0.381298,41.009933],[0.381432,41.009926],[0.381506,41.00989],[0.381662,41.009813],[0.381791,41.009816],[0.381902,41.009813],[0.381924,41.009811],[0.381912,41.009833],[0.381865,41.009879],[0.381788,41.009932],[0.381761,41.009948],[0.381794,41.009957],[0.381858,41.009974],[0.382235,41.010023],[0.382243,41.010084],[0.382231,41.010139],[0.382226,41.010177],[0.382221,41.010214],[0.382209,41.01027],[0.382195,41.010327],[0.382184,41.01037],[0.38218,41.010414],[0.382181,41.010432],[0.382181,41.010441],[0.382232,41.010447],[0.382452,41.01047],[0.382497,41.010225],[0.382551,41.010217],[0.382725,41.010225],[0.382733,41.010236],[0.382727,41.010256],[0.38272,41.010278],[0.382718,41.010293],[0.382705,41.010336],[0.382689,41.010408],[0.382674,41.010487],[0.382653,41.010573],[0.382635,41.01065],[0.382615,41.010733],[0.382605,41.01079],[0.382596,41.010839],[0.382594,41.010862],[0.382593,41.010872],[0.382591,41.010895],[0.382601,41.01091],[0.382603,41.010914],[0.382617,41.010933],[0.382687,41.010945],[0.38341,41.01109],[0.383471,41.011104],[0.383519,41.011114],[0.383644,41.011138],[0.383653,41.011112],[0.383729,41.01113],[0.383934,41.01118],[0.383975,41.01119],[0.383993,41.011194],[0.384012,41.011176],[0.384042,41.011146]]]]}}]}