{"type":"FeatureCollection","name":"ICGC Àrees de poblament - Cornudella de Montsant","features":[{"type":"Feature","id":"430496_430496 AP03 PRI 3","properties":{"area_id":"430496_430496 AP03 PRI 3","nom":"Albarca","codi_icgc":"430496 AP03 PRI 3","categoria":"Àrees de poblament","codi_municipi":"430496","municipi":"Cornudella de Montsant","codi_comarca":"29","comarca":"Priorat","provincia":"Tarragona","font":"ICGC Àrees de poblament v3r1 202602"},"geometry":{"type":"MultiPolygon","coordinates":[[[[0.912594,41.301165],[0.912627,41.30119],[0.912667,41.301134],[0.912744,41.301151],[0.912791,41.301089],[0.912928,41.301151],[0.912873,41.301216],[0.912882,41.301226],[0.912919,41.30124],[0.912966,41.301254],[0.913023,41.301265],[0.913062,41.301382],[0.913142,41.301437],[0.913149,41.301445],[0.913184,41.30148],[0.913289,41.301539],[0.913319,41.301561],[0.913347,41.301583],[0.913363,41.30159],[0.91339,41.301595],[0.913403,41.301598],[0.913415,41.301604],[0.91345,41.301633],[0.913481,41.301664],[0.9135,41.301689],[0.913522,41.301728],[0.913537,41.301747],[0.913559,41.301764],[0.913566,41.301766],[0.913573,41.301766],[0.913581,41.301765],[0.913588,41.301763],[0.913636,41.301745],[0.913681,41.301722],[0.913692,41.301716],[0.913697,41.301709],[0.913691,41.301694],[0.91368,41.301678],[0.91365,41.301638],[0.913621,41.301598],[0.913607,41.301571],[0.913591,41.301529],[0.913573,41.301488],[0.913547,41.301449],[0.913515,41.301413],[0.913501,41.301401],[0.913479,41.301387],[0.913467,41.301381],[0.913455,41.301375],[0.913437,41.301371],[0.913406,41.301371],[0.913391,41.301369],[0.913377,41.301364],[0.913361,41.301349],[0.913354,41.301333],[0.913357,41.301304],[0.913367,41.301277],[0.913377,41.301263],[0.913397,41.301243],[0.913404,41.301233],[0.913407,41.301222],[0.913402,41.301207],[0.913391,41.301193],[0.913355,41.30116],[0.913328,41.301135],[0.91327,41.301076],[0.913209,41.30105],[0.913221,41.301033],[0.913195,41.301012],[0.913215,41.30098],[0.91309,41.300906],[0.913051,41.300883],[0.912967,41.300833],[0.912888,41.300769],[0.912892,41.300754],[0.912897,41.300739],[0.912871,41.300722],[0.912826,41.300695],[0.912739,41.300652],[0.912652,41.300609],[0.912578,41.300573],[0.912553,41.300562],[0.912575,41.300559],[0.912651,41.300484],[0.912589,41.300445],[0.912574,41.300421],[0.912555,41.300401],[0.912536,41.300382],[0.912515,41.300345],[0.912494,41.300309],[0.91244,41.300236],[0.912385,41.300162],[0.912333,41.300094],[0.912281,41.300026],[0.912256,41.299997],[0.912214,41.299956],[0.912168,41.299917],[0.912152,41.299907],[0.912117,41.299893],[0.912062,41.299877],[0.912038,41.299867],[0.912019,41.299851],[0.911983,41.299805],[0.91195,41.299758],[0.911934,41.299733],[0.911917,41.299708],[0.911883,41.299671],[0.911847,41.299634],[0.911835,41.299621],[0.911821,41.29961],[0.911815,41.299609],[0.911806,41.299613],[0.911796,41.299618],[0.911786,41.299621],[0.911777,41.299626],[0.91175,41.299647],[0.911703,41.299678],[0.911616,41.299718],[0.911588,41.299729],[0.911596,41.299743],[0.911618,41.299776],[0.911652,41.299814],[0.91169,41.29985],[0.911697,41.299857],[0.911699,41.299863],[0.911699,41.299871],[0.911696,41.299881],[0.911691,41.299886],[0.911684,41.299884],[0.911676,41.299886],[0.911634,41.299904],[0.911593,41.299921],[0.911553,41.299937],[0.911514,41.299953],[0.911504,41.299958],[0.911498,41.299964],[0.911491,41.299965],[0.911483,41.299964],[0.911479,41.299962],[0.911476,41.29996],[0.911409,41.299902],[0.911402,41.299896],[0.911365,41.299869],[0.911322,41.299881],[0.911268,41.299859],[0.91121,41.299839],[0.911142,41.299816],[0.911072,41.299796],[0.910987,41.299776],[0.9109,41.299759],[0.910838,41.299751],[0.910782,41.299747],[0.910775,41.299746],[0.910756,41.299747],[0.910738,41.299752],[0.910708,41.299773],[0.91067,41.299805],[0.910634,41.299837],[0.910611,41.299857],[0.910587,41.299883],[0.910547,41.299867],[0.910532,41.299888],[0.910572,41.299904],[0.910644,41.299937],[0.91071,41.299972],[0.91077,41.300003],[0.910801,41.300018],[0.910833,41.300031],[0.910891,41.300051],[0.910946,41.300076],[0.911029,41.300119],[0.911092,41.300151],[0.911098,41.300153],[0.911113,41.300156],[0.911121,41.300155],[0.911204,41.300099],[0.911383,41.299949],[0.911429,41.299983],[0.911548,41.300075],[0.911692,41.30019],[0.911657,41.300225],[0.91163,41.300273],[0.911638,41.30032],[0.911679,41.300362],[0.911701,41.300381],[0.911585,41.300506],[0.911729,41.300578],[0.91169,41.300629],[0.911733,41.300656],[0.911789,41.300691],[0.911773,41.300704],[0.911812,41.300731],[0.911839,41.300708],[0.911931,41.300751],[0.912019,41.300793],[0.912121,41.300844],[0.912219,41.300902],[0.912331,41.300977],[0.912439,41.301053],[0.912478,41.301081],[0.912536,41.301122],[0.912594,41.301165]]]]}},{"type":"Feature","id":"430496_430496 AP01 PRI 3","properties":{"area_id":"430496_430496 AP01 PRI 3","nom":"Cornudella de Montsant","codi_icgc":"430496 AP01 PRI 3","categoria":"Àrees de poblament","codi_municipi":"430496","municipi":"Cornudella de Montsant","codi_comarca":"29","comarca":"Priorat","provincia":"Tarragona","font":"ICGC Àrees de poblament v3r1 202602"},"geometry":{"type":"MultiPolygon","coordinates":[[[[0.904759,41.260271],[0.904741,41.260252],[0.904317,41.259986],[0.904224,41.259931],[0.903905,41.259721],[0.90396,41.259665],[0.903651,41.259477],[0.903632,41.259472],[0.903502,41.259441],[0.903334,41.2594],[0.903078,41.259365],[0.902859,41.259422],[0.902841,41.259421],[0.902814,41.25942],[0.902795,41.259419],[0.902788,41.25942],[0.902778,41.25942],[0.90277,41.259422],[0.902673,41.259445],[0.902313,41.259541],[0.902301,41.259545],[0.902279,41.259554],[0.902272,41.259556],[0.902266,41.259558],[0.902252,41.259558],[0.902227,41.259556],[0.902219,41.259556],[0.902213,41.259557],[0.902198,41.25956],[0.902181,41.259565],[0.902151,41.259577],[0.902137,41.259583],[0.90213,41.259587],[0.902126,41.259591],[0.902128,41.2596],[0.902132,41.259605],[0.902135,41.259609],[0.902147,41.259617],[0.902232,41.259665],[0.902244,41.259673],[0.902263,41.259686],[0.902276,41.259696],[0.902289,41.259706],[0.902294,41.259711],[0.902298,41.259715],[0.902305,41.259726],[0.902311,41.259738],[0.90232,41.259758],[0.902323,41.259764],[0.902326,41.25977],[0.902329,41.259774],[0.902338,41.259782],[0.902344,41.259786],[0.90235,41.25979],[0.902356,41.259793],[0.902362,41.259796],[0.902377,41.259798],[0.902402,41.259799],[0.902418,41.259801],[0.902677,41.259829],[0.902795,41.259842],[0.902817,41.259845],[0.902826,41.259846],[0.902833,41.259846],[0.902838,41.259844],[0.902875,41.259859],[0.903025,41.25992],[0.903231,41.260005],[0.903297,41.260035],[0.903317,41.260045],[0.903355,41.260065],[0.903416,41.260102],[0.903442,41.260118],[0.903453,41.260126],[0.903473,41.260144],[0.903496,41.260165],[0.903489,41.260175],[0.903683,41.26028],[0.903846,41.260371],[0.903591,41.260824],[0.903741,41.260874],[0.903724,41.26098],[0.903758,41.260985],[0.903747,41.261016],[0.903787,41.261026],[0.903733,41.261205],[0.904176,41.261317],[0.904275,41.261371],[0.904191,41.261489],[0.903952,41.261828],[0.903714,41.262166],[0.903702,41.262183],[0.903661,41.262252],[0.903622,41.262326],[0.903601,41.262383],[0.90359,41.262441],[0.903585,41.262504],[0.903589,41.26254],[0.903601,41.262576],[0.903658,41.262675],[0.903712,41.26277],[0.903798,41.262928],[0.903883,41.263088],[0.903958,41.263217],[0.904023,41.263322],[0.904024,41.263331],[0.904025,41.26334],[0.904024,41.263346],[0.904019,41.263351],[0.904004,41.263361],[0.903979,41.263367],[0.903966,41.263368],[0.903953,41.263369],[0.903919,41.263367],[0.903892,41.263429],[0.903874,41.263421],[0.903852,41.263409],[0.903831,41.263398],[0.903795,41.263376],[0.903761,41.263352],[0.903721,41.263319],[0.903685,41.263285],[0.903652,41.263249],[0.903618,41.263212],[0.903613,41.263205],[0.903574,41.263147],[0.903534,41.26309],[0.903512,41.263061],[0.903475,41.263022],[0.903431,41.262985],[0.903398,41.262963],[0.903345,41.262932],[0.903293,41.2629],[0.903246,41.262867],[0.903202,41.262831],[0.903179,41.262804],[0.903165,41.262782],[0.903151,41.262748],[0.903142,41.262713],[0.903139,41.262692],[0.903141,41.26266],[0.90315,41.262629],[0.903179,41.262568],[0.903234,41.262479],[0.90326,41.262434],[0.903282,41.262388],[0.903294,41.262352],[0.903306,41.262296],[0.903311,41.262241],[0.903307,41.262212],[0.9033,41.262198],[0.903286,41.262184],[0.903271,41.262174],[0.903247,41.262168],[0.903223,41.262168],[0.903183,41.262179],[0.903145,41.262195],[0.903116,41.262212],[0.90307,41.262156],[0.903102,41.262137],[0.903136,41.26212],[0.903163,41.262108],[0.90319,41.262096],[0.903199,41.26209],[0.903207,41.262075],[0.903238,41.262044],[0.903235,41.262037],[0.903132,41.261947],[0.903048,41.261867],[0.902972,41.261868],[0.902964,41.261867],[0.90294,41.261869],[0.902887,41.261879],[0.902835,41.261892],[0.902765,41.261916],[0.902697,41.26194],[0.902602,41.261975],[0.902507,41.262012],[0.902451,41.262034],[0.902398,41.26206],[0.902365,41.262079],[0.902336,41.262098],[0.902345,41.262141],[0.902335,41.262149],[0.902322,41.262154],[0.902297,41.262159],[0.902272,41.262163],[0.902271,41.262262],[0.90227,41.262361],[0.902268,41.262454],[0.902266,41.262547],[0.90226,41.262631],[0.902257,41.262677],[0.902254,41.262715],[0.902256,41.262821],[0.902261,41.262874],[0.90227,41.262927],[0.902263,41.262987],[0.902255,41.263048],[0.902251,41.263088],[0.902251,41.263149],[0.902252,41.26321],[0.902255,41.263271],[0.902264,41.263331],[0.902269,41.26335],[0.902282,41.263376],[0.9023,41.263402],[0.902324,41.263426],[0.902354,41.263446],[0.90238,41.263458],[0.902393,41.26346],[0.902405,41.263458],[0.902424,41.263446],[0.902442,41.263434],[0.902472,41.26342],[0.902502,41.263405],[0.902529,41.263386],[0.902552,41.263363],[0.902587,41.263328],[0.902621,41.26329],[0.902645,41.263258],[0.902665,41.263223],[0.902672,41.263202],[0.902671,41.263181],[0.902657,41.263138],[0.902641,41.263096],[0.902622,41.263048],[0.902602,41.262999],[0.902671,41.262971],[0.902689,41.263],[0.902754,41.263104],[0.902786,41.263092],[0.902854,41.263195],[0.902899,41.263293],[0.902934,41.263376],[0.90295,41.263505],[0.902931,41.263637],[0.902925,41.263665],[0.902947,41.264124],[0.902953,41.264351],[0.902957,41.264461],[0.90296,41.264572],[0.902961,41.264622],[0.902961,41.264672],[0.902964,41.264715],[0.902963,41.264736],[0.902955,41.264755],[0.902939,41.264777],[0.902923,41.264798],[0.90286,41.264868],[0.902822,41.264882],[0.902686,41.264959],[0.90255,41.265037],[0.902489,41.26507],[0.902396,41.265118],[0.902303,41.265166],[0.902271,41.265185],[0.902236,41.265175],[0.902206,41.265151],[0.902166,41.26512],[0.902135,41.265095],[0.902114,41.265076],[0.901694,41.26475],[0.901354,41.264488],[0.901228,41.264572],[0.9011,41.264654],[0.900958,41.264734],[0.900815,41.264811],[0.900893,41.264905],[0.900971,41.264999],[0.901019,41.265053],[0.901066,41.265106],[0.901106,41.265157],[0.90114,41.265209],[0.901162,41.265262],[0.901183,41.265316],[0.901205,41.265359],[0.901229,41.265403],[0.901254,41.265441],[0.901287,41.265478],[0.901302,41.265491],[0.90133,41.265505],[0.901361,41.265515],[0.901386,41.265518],[0.901428,41.265565],[0.901416,41.265568],[0.90138,41.265574],[0.901366,41.265576],[0.901351,41.265578],[0.901344,41.265579],[0.90134,41.265579],[0.901325,41.265581],[0.901321,41.265582],[0.901311,41.265583],[0.901282,41.265587],[0.901274,41.265588],[0.901243,41.265592],[0.901027,41.265618],[0.900811,41.265645],[0.900543,41.265676],[0.900275,41.265706],[0.900255,41.265708],[0.900246,41.265754],[0.900246,41.265758],[0.900246,41.265784],[0.900248,41.265797],[0.90025,41.265811],[0.900259,41.265901],[0.900252,41.26595],[0.900234,41.266025],[0.900232,41.266056],[0.900206,41.266066],[0.900191,41.266114],[0.900189,41.266143],[0.900297,41.266201],[0.900347,41.26627],[0.900456,41.266347],[0.900527,41.266362],[0.900585,41.266342],[0.900631,41.266314],[0.900644,41.266303],[0.900661,41.266291],[0.900782,41.266185],[0.900798,41.266171],[0.900799,41.266167],[0.900802,41.266164],[0.900967,41.265996],[0.900973,41.265969],[0.900908,41.265868],[0.900867,41.265802],[0.900847,41.265763],[0.900826,41.265709],[0.90082,41.26569],[0.901037,41.265663],[0.901207,41.265642],[0.901215,41.265641],[0.901232,41.265639],[0.901252,41.265636],[0.901267,41.265635],[0.901276,41.265633],[0.901287,41.265632],[0.901307,41.26563],[0.901321,41.265628],[0.901392,41.265619],[0.901433,41.265612],[0.901473,41.265601],[0.901668,41.265542],[0.901842,41.265491],[0.901994,41.265451],[0.902224,41.265396],[0.902327,41.265371],[0.902343,41.265373],[0.902359,41.265374],[0.902372,41.265377],[0.902382,41.265384],[0.902394,41.265394],[0.902406,41.265405],[0.902425,41.265435],[0.902448,41.265479],[0.902458,41.265504],[0.902474,41.265526],[0.902497,41.265545],[0.902525,41.26556],[0.902556,41.265569],[0.902561,41.26557],[0.902661,41.265585],[0.902759,41.265606],[0.902855,41.265633],[0.902948,41.265664],[0.903038,41.265701],[0.903067,41.265714],[0.903247,41.265823],[0.903443,41.265943],[0.903636,41.26606],[0.903443,41.266225],[0.903565,41.266333],[0.903648,41.266398],[0.90373,41.266456],[0.903602,41.266567],[0.903672,41.266613],[0.903751,41.266677],[0.903886,41.266581],[0.903909,41.266577],[0.90395,41.266604],[0.903989,41.266634],[0.904045,41.266679],[0.904086,41.266712],[0.904069,41.266727],[0.904023,41.266768],[0.903989,41.2668],[0.903959,41.266833],[0.903904,41.266903],[0.903852,41.266973],[0.903801,41.267042],[0.903731,41.267141],[0.903715,41.267163],[0.903757,41.267196],[0.904111,41.26748],[0.903817,41.267701],[0.90381,41.267706],[0.903752,41.267743],[0.903802,41.26778],[0.903539,41.267989],[0.904073,41.268352],[0.904209,41.268345],[0.904206,41.268322],[0.904208,41.268282],[0.904215,41.268253],[0.904265,41.268131],[0.904358,41.268105],[0.904378,41.268122],[0.904418,41.268096],[0.90446,41.268069],[0.904484,41.268046],[0.904501,41.268019],[0.90451,41.267973],[0.904509,41.26793],[0.904505,41.267899],[0.904499,41.267867],[0.90449,41.267847],[0.904456,41.267781],[0.904422,41.267715],[0.904394,41.26766],[0.904367,41.267605],[0.904353,41.267568],[0.904346,41.267546],[0.904345,41.267536],[0.904344,41.267525],[0.904346,41.267516],[0.90435,41.267513],[0.904363,41.267511],[0.904394,41.267515],[0.904424,41.267522],[0.904435,41.267525],[0.904447,41.267528],[0.904522,41.267558],[0.904582,41.267564],[0.90463,41.26756],[0.904687,41.267542],[0.904701,41.267501],[0.904696,41.267466],[0.904678,41.267439],[0.904662,41.267417],[0.90469,41.267406],[0.904718,41.267395],[0.904752,41.267389],[0.90477,41.267392],[0.904835,41.267379],[0.904974,41.267349],[0.905108,41.267313],[0.905175,41.267312],[0.905209,41.267432],[0.905255,41.267552],[0.905309,41.267595],[0.905535,41.267838],[0.905633,41.267796],[0.905664,41.267833],[0.905851,41.267766],[0.905882,41.26781],[0.905913,41.267768],[0.905969,41.267733],[0.905903,41.26768],[0.905814,41.267565],[0.905802,41.26755],[0.90577,41.267508],[0.905728,41.267444],[0.905688,41.267378],[0.905659,41.267318],[0.905637,41.267257],[0.905629,41.267224],[0.905624,41.267174],[0.905627,41.267125],[0.90564,41.267063],[0.905663,41.267002],[0.905689,41.26695],[0.905722,41.266902],[0.905758,41.266866],[0.9058,41.266834],[0.905869,41.266792],[0.905943,41.266754],[0.906029,41.266717],[0.906116,41.266681],[0.906194,41.266652],[0.906271,41.266623],[0.906281,41.266625],[0.906292,41.266627],[0.906311,41.266632],[0.906329,41.266636],[0.906368,41.266641],[0.906426,41.266642],[0.906485,41.266641],[0.90654,41.266638],[0.906546,41.266638],[0.906574,41.266635],[0.906678,41.266636],[0.906726,41.266593],[0.906734,41.26653],[0.906737,41.266519],[0.906739,41.266505],[0.906737,41.266499],[0.906713,41.266444],[0.906688,41.26639],[0.906687,41.266379],[0.906689,41.266365],[0.906689,41.266319],[0.906688,41.266273],[0.906689,41.266248],[0.906693,41.266224],[0.906699,41.266199],[0.90671,41.266175],[0.906728,41.266146],[0.906747,41.266119],[0.906762,41.266099],[0.906777,41.266079],[0.906793,41.266062],[0.906813,41.266047],[0.906838,41.266033],[0.906866,41.266026],[0.906884,41.266023],[0.906891,41.266022],[0.906917,41.266018],[0.906937,41.266018],[0.906953,41.266022],[0.906975,41.266029],[0.906984,41.266033],[0.906989,41.266037],[0.906999,41.266058],[0.907001,41.266061],[0.907014,41.266086],[0.907039,41.266114],[0.907047,41.266118],[0.907072,41.266127],[0.907088,41.266128],[0.907103,41.266129],[0.907145,41.266122],[0.907173,41.266116],[0.907205,41.266107],[0.907228,41.266095],[0.907255,41.266073],[0.907262,41.266066],[0.907293,41.266028],[0.907321,41.265988],[0.907358,41.265931],[0.907301,41.266056],[0.907279,41.266085],[0.907328,41.266111],[0.90734,41.266117],[0.907351,41.266119],[0.907465,41.266141],[0.907485,41.266142],[0.907505,41.266142],[0.907531,41.266134],[0.907556,41.266123],[0.907604,41.266099],[0.907622,41.266102],[0.907629,41.266104],[0.907641,41.266106],[0.907653,41.266107],[0.907665,41.266106],[0.90768,41.266103],[0.907694,41.2661],[0.907726,41.266092],[0.907758,41.266083],[0.907744,41.266096],[0.90773,41.266109],[0.907713,41.266128],[0.907697,41.266148],[0.907685,41.266168],[0.907677,41.266189],[0.907673,41.266209],[0.907675,41.266228],[0.90768,41.266248],[0.907685,41.266268],[0.907715,41.266361],[0.907773,41.266568],[0.907816,41.266689],[0.90788,41.266829],[0.908006,41.267087],[0.908088,41.267275],[0.908142,41.267388],[0.90816,41.267431],[0.908178,41.267474],[0.908185,41.267503],[0.908257,41.267628],[0.908355,41.267605],[0.908396,41.267596],[0.908457,41.267582],[0.908518,41.267569],[0.908678,41.267534],[0.908838,41.267499],[0.908996,41.267467],[0.909154,41.267436],[0.909209,41.267424],[0.909265,41.267409],[0.909286,41.2674],[0.909304,41.267387],[0.909327,41.267362],[0.909336,41.267347],[0.909341,41.267333],[0.909348,41.2673],[0.909352,41.267267],[0.909358,41.267214],[0.909365,41.267155],[0.909307,41.267128],[0.909183,41.267065],[0.909136,41.26698],[0.909108,41.26691],[0.909099,41.26683],[0.909103,41.266738],[0.909148,41.266731],[0.909183,41.266727],[0.909178,41.266699],[0.909173,41.266669],[0.909161,41.266634],[0.909142,41.266602],[0.909089,41.266532],[0.909037,41.266463],[0.908996,41.266403],[0.908959,41.266343],[0.908937,41.266301],[0.908915,41.266258],[0.908897,41.266225],[0.908878,41.266192],[0.908893,41.266183],[0.908787,41.266025],[0.909019,41.26592],[0.90891,41.265778],[0.908774,41.265588],[0.908778,41.265554],[0.90874,41.265539],[0.908597,41.265484],[0.908524,41.265458],[0.90845,41.265437],[0.9084,41.265424],[0.90835,41.265411],[0.90828,41.26539],[0.908213,41.265365],[0.908149,41.265335],[0.908098,41.265306],[0.908083,41.26528],[0.908074,41.265251],[0.908073,41.265229],[0.908079,41.265195],[0.90809,41.265169],[0.908092,41.265162],[0.908119,41.265112],[0.908137,41.265088],[0.90816,41.265065],[0.908189,41.265045],[0.908206,41.265038],[0.908224,41.265032],[0.90829,41.264954],[0.908277,41.264936],[0.908273,41.264917],[0.908271,41.264882],[0.908269,41.264847],[0.908269,41.264828],[0.908273,41.264817],[0.908293,41.26478],[0.908318,41.264746],[0.90839,41.264659],[0.908463,41.264571],[0.908535,41.264484],[0.908608,41.264396],[0.908638,41.264404],[0.908656,41.264418],[0.908673,41.264432],[0.908748,41.264495],[0.90882,41.264558],[0.90888,41.264609],[0.908943,41.264659],[0.90899,41.26469],[0.908997,41.264693],[0.909006,41.264694],[0.909023,41.264692],[0.90904,41.264689],[0.909057,41.264685],[0.909064,41.264681],[0.909065,41.264677],[0.909063,41.26467],[0.909056,41.264657],[0.909055,41.264652],[0.909084,41.264666],[0.909112,41.264684],[0.909168,41.264721],[0.909252,41.264779],[0.909336,41.264838],[0.909377,41.264871],[0.909413,41.264906],[0.909434,41.264934],[0.909441,41.264948],[0.909534,41.264949],[0.909648,41.264853],[0.909307,41.26462],[0.909429,41.264538],[0.909227,41.264339],[0.909235,41.264306],[0.909229,41.264289],[0.909192,41.264253],[0.909089,41.264218],[0.909029,41.264197],[0.909078,41.264177],[0.909113,41.264164],[0.909102,41.264127],[0.909039,41.264064],[0.908712,41.264048],[0.908614,41.264043],[0.908559,41.264219],[0.90841,41.264013],[0.908318,41.264073],[0.908272,41.264098],[0.908056,41.2641],[0.908,41.26413],[0.907888,41.264212],[0.907749,41.264323],[0.907727,41.2644],[0.907699,41.264532],[0.907655,41.264624],[0.907628,41.264667],[0.9076,41.264709],[0.907589,41.264731],[0.907581,41.264765],[0.907577,41.264799],[0.907578,41.264818],[0.907578,41.264837],[0.907583,41.264856],[0.907589,41.264876],[0.907601,41.264922],[0.907603,41.264926],[0.907614,41.264946],[0.907623,41.264962],[0.907618,41.264963],[0.907597,41.264966],[0.907664,41.265145],[0.907678,41.26519],[0.907662,41.265236],[0.907701,41.265307],[0.907689,41.265342],[0.907692,41.265359],[0.907673,41.265395],[0.907623,41.265431],[0.907565,41.265476],[0.90755,41.265487],[0.907508,41.26552],[0.907457,41.265563],[0.907406,41.265605],[0.907387,41.265626],[0.907367,41.265662],[0.907353,41.2657],[0.907339,41.265775],[0.907326,41.26585],[0.907316,41.265887],[0.907292,41.26594],[0.907264,41.265994],[0.907238,41.266034],[0.907222,41.266053],[0.9072,41.266071],[0.907185,41.266079],[0.90716,41.266086],[0.907137,41.266091],[0.907134,41.266091],[0.9071,41.266097],[0.907083,41.266096],[0.907068,41.26609],[0.907051,41.26607],[0.90704,41.26605],[0.907038,41.266046],[0.907018,41.266002],[0.90701,41.265985],[0.907003,41.26597],[0.906996,41.265955],[0.906987,41.265934],[0.906982,41.265923],[0.906995,41.265888],[0.907013,41.265893],[0.907032,41.265898],[0.907046,41.265908],[0.907064,41.265928],[0.907073,41.265937],[0.907083,41.265942],[0.9071,41.265941],[0.907117,41.265935],[0.907123,41.265931],[0.907126,41.265927],[0.907125,41.265893],[0.907119,41.265866],[0.907105,41.265827],[0.907086,41.265789],[0.90703,41.265687],[0.906974,41.265585],[0.906953,41.265546],[0.906931,41.265508],[0.906921,41.265494],[0.9069,41.265479],[0.906878,41.265464],[0.906862,41.265451],[0.906848,41.265436],[0.906839,41.265422],[0.906825,41.265381],[0.906798,41.265267],[0.906774,41.265114],[0.90675,41.265012],[0.906722,41.264927],[0.906719,41.264919],[0.906719,41.264912],[0.906718,41.264905],[0.906718,41.264847],[0.906717,41.26479],[0.90672,41.264775],[0.90672,41.264767],[0.906717,41.26476],[0.906709,41.264757],[0.906699,41.264758],[0.906654,41.264758],[0.906608,41.264758],[0.906544,41.264756],[0.906494,41.264749],[0.906412,41.26474],[0.906548,41.264459],[0.906745,41.263908],[0.906881,41.263875],[0.906985,41.263819],[0.907075,41.263773],[0.907185,41.263739],[0.907247,41.263708],[0.907103,41.263471],[0.906972,41.263585],[0.906903,41.263648],[0.906806,41.26371],[0.906751,41.263631],[0.906693,41.263575],[0.906664,41.26356],[0.906632,41.263544],[0.90651,41.263468],[0.906495,41.263474],[0.90647,41.263464],[0.906432,41.263456],[0.906394,41.263453],[0.906362,41.263454],[0.90633,41.263456],[0.906301,41.26346],[0.906272,41.263467],[0.906241,41.263478],[0.906213,41.26349],[0.906166,41.263513],[0.906122,41.26354],[0.906096,41.26356],[0.906083,41.26357],[0.906011,41.263557],[0.9059,41.263517],[0.905839,41.263509],[0.905777,41.263505],[0.905728,41.263496],[0.905666,41.263479],[0.905618,41.263489],[0.90556,41.263525],[0.905543,41.263561],[0.905526,41.263609],[0.905537,41.263662],[0.905553,41.263713],[0.905512,41.263733],[0.90543,41.263781],[0.905405,41.263796],[0.905371,41.263786],[0.905338,41.263625],[0.905337,41.263566],[0.905365,41.263478],[0.905403,41.263393],[0.905407,41.263347],[0.905354,41.26328],[0.905196,41.263311],[0.905121,41.263295],[0.905013,41.26327],[0.904981,41.263259],[0.90495,41.263241],[0.904907,41.263224],[0.904869,41.263211],[0.904833,41.263198],[0.904807,41.263188],[0.904799,41.263182],[0.904793,41.263175],[0.90479,41.263166],[0.90479,41.263149],[0.904792,41.263131],[0.904799,41.263096],[0.904796,41.263055],[0.904679,41.263055],[0.904449,41.263058],[0.904423,41.263153],[0.904153,41.263157],[0.904099,41.263198],[0.904079,41.263206],[0.90406,41.263206],[0.904043,41.263201],[0.904027,41.263193],[0.904012,41.263185],[0.904002,41.263175],[0.903988,41.263152],[0.903974,41.263129],[0.90394,41.26307],[0.903855,41.262911],[0.903785,41.262782],[0.903879,41.26272],[0.903895,41.262726],[0.903912,41.262727],[0.903936,41.262726],[0.903961,41.262722],[0.903989,41.262712],[0.904014,41.262699],[0.904037,41.262678],[0.90404,41.262676],[0.904045,41.26267],[0.904051,41.262662],[0.904059,41.262652],[0.904066,41.262634],[0.904081,41.262584],[0.904094,41.262534],[0.904106,41.262485],[0.904117,41.262437],[0.904132,41.2624],[0.904149,41.26236],[0.904166,41.262321],[0.904204,41.262263],[0.904217,41.262245],[0.904229,41.262227],[0.904243,41.262206],[0.904262,41.262185],[0.904286,41.262152],[0.904314,41.262126],[0.904346,41.262103],[0.904386,41.262085],[0.904405,41.262074],[0.904439,41.262057],[0.904461,41.26202],[0.904466,41.262012],[0.904478,41.26199],[0.904481,41.261966],[0.904477,41.261943],[0.904466,41.261921],[0.904489,41.261888],[0.904499,41.261874],[0.904558,41.261788],[0.90482,41.261402],[0.904991,41.261027],[0.905185,41.261092],[0.905272,41.261122],[0.905356,41.260983],[0.905365,41.260968],[0.905541,41.260807],[0.905502,41.260772],[0.905446,41.260708],[0.905412,41.260641],[0.905405,41.26057],[0.905428,41.260466],[0.905472,41.260285],[0.90543,41.260248],[0.905417,41.260173],[0.905351,41.260127],[0.905278,41.260103],[0.905184,41.260105],[0.905088,41.260126],[0.904985,41.260168],[0.904818,41.260239],[0.904759,41.260271]]]]}},{"type":"Feature","id":"430496_430496 AP02 PRI 3","properties":{"area_id":"430496_430496 AP02 PRI 3","nom":"Siurana","codi_icgc":"430496 AP02 PRI 3","categoria":"Àrees de poblament","codi_municipi":"430496","municipi":"Cornudella de Montsant","codi_comarca":"29","comarca":"Priorat","provincia":"Tarragona","font":"ICGC Àrees de poblament v3r1 202602"},"geometry":{"type":"MultiPolygon","coordinates":[[[[0.932224,41.258614],[0.932272,41.258609],[0.932252,41.258415],[0.932308,41.258436],[0.93241,41.258467],[0.932474,41.258489],[0.932555,41.258514],[0.932621,41.258527],[0.932682,41.258544],[0.932753,41.258545],[0.93279,41.258556],[0.93282,41.258584],[0.932848,41.25859],[0.932886,41.258599],[0.932927,41.258647],[0.932948,41.258669],[0.932949,41.258669],[0.932985,41.258686],[0.933012,41.258702],[0.933077,41.258675],[0.933032,41.258614],[0.933056,41.258596],[0.932904,41.258447],[0.932852,41.258471],[0.932833,41.258453],[0.932808,41.258429],[0.93279,41.258404],[0.932768,41.258363],[0.932756,41.258344],[0.932738,41.258326],[0.932696,41.258302],[0.932671,41.258292],[0.932682,41.258284],[0.932737,41.25824],[0.932862,41.258299],[0.932923,41.258225],[0.932948,41.258194],[0.932974,41.258162],[0.932997,41.258136],[0.933036,41.2581],[0.933077,41.258064],[0.933094,41.258047],[0.933111,41.258029],[0.933116,41.258025],[0.933142,41.257993],[0.933116,41.257988],[0.933065,41.257977],[0.93305,41.257976],[0.933027,41.257982],[0.933004,41.257989],[0.932986,41.257998],[0.932962,41.258015],[0.93295,41.25802],[0.932938,41.258021],[0.932931,41.258018],[0.932928,41.258014],[0.932932,41.258008],[0.932949,41.257999],[0.932967,41.257989],[0.933014,41.257971],[0.933037,41.257963],[0.933059,41.257951],[0.933072,41.25794],[0.933079,41.257925],[0.933079,41.257916],[0.933075,41.257907],[0.933067,41.25789],[0.933104,41.25791],[0.93314,41.257882],[0.933065,41.25784],[0.933081,41.257816],[0.933143,41.257769],[0.933093,41.257743],[0.9331,41.257737],[0.933024,41.257692],[0.933008,41.257707],[0.93299,41.257696],[0.93294,41.257744],[0.932893,41.257729],[0.932845,41.257713],[0.932777,41.257693],[0.932707,41.257676],[0.932623,41.25766],[0.932537,41.257646],[0.9325,41.257638],[0.932481,41.257637],[0.932465,41.257641],[0.932448,41.257649],[0.932422,41.257587],[0.932397,41.257562],[0.93234,41.257536],[0.932233,41.257498],[0.932092,41.257467],[0.932002,41.257635],[0.931939,41.257751],[0.93193,41.257807],[0.931928,41.257824],[0.931917,41.257938],[0.931911,41.257987],[0.931914,41.258006],[0.931916,41.25801],[0.931918,41.258015],[0.931915,41.258032],[0.931906,41.258063],[0.931892,41.258102],[0.931879,41.258135],[0.931854,41.25819],[0.931839,41.258224],[0.931834,41.25824],[0.931834,41.258257],[0.931842,41.258288],[0.93185,41.25832],[0.931802,41.258326],[0.93171,41.258331],[0.931562,41.258313],[0.931542,41.258358],[0.931478,41.258414],[0.931522,41.258486],[0.931492,41.258497],[0.931519,41.258552],[0.931547,41.258576],[0.931686,41.258537],[0.931695,41.258556],[0.931737,41.258642],[0.931752,41.258649],[0.93176,41.25865],[0.931768,41.258652],[0.931786,41.258652],[0.931906,41.25864],[0.932028,41.258636],[0.932106,41.258629],[0.932224,41.258614]]]]}},{"type":"Feature","id":"430496_430496 AP04 PRI 2","properties":{"area_id":"430496_430496 AP04 PRI 2","nom":"el Poblat del Pantà","codi_icgc":"430496 AP04 PRI 2","categoria":"Àrees de poblament","codi_municipi":"430496","municipi":"Cornudella de Montsant","codi_comarca":"29","comarca":"Priorat","provincia":"Tarragona","font":"ICGC Àrees de poblament v3r1 202602"},"geometry":{"type":"MultiPolygon","coordinates":[[[[0.909328,41.261857],[0.908972,41.261966],[0.908939,41.261998],[0.908777,41.262047],[0.908782,41.262369],[0.908832,41.262435],[0.908847,41.262552],[0.908825,41.262851],[0.90898,41.262768],[0.908975,41.262788],[0.908973,41.262808],[0.908975,41.262828],[0.908985,41.262855],[0.909002,41.26288],[0.909026,41.262901],[0.909055,41.262918],[0.909125,41.262937],[0.909136,41.262939],[0.909173,41.262938],[0.909209,41.262932],[0.909242,41.26292],[0.909272,41.262903],[0.909296,41.262882],[0.909314,41.262858],[0.909325,41.262831],[0.909329,41.262804],[0.909325,41.262776],[0.909301,41.262735],[0.909335,41.262732],[0.909336,41.26273],[0.909486,41.262718],[0.909607,41.262631],[0.909884,41.262455],[0.909775,41.262292],[0.90961,41.262041],[0.909515,41.261812],[0.909328,41.261857]]]]}}]}