{"type":"FeatureCollection","name":"ICGC Àrees de poblament - la Febró","features":[{"type":"Feature","id":"430574_430574 AP01 BCA 3","properties":{"area_id":"430574_430574 AP01 BCA 3","nom":"la Febró","codi_icgc":"430574 AP01 BCA 3","categoria":"Àrees de poblament","codi_municipi":"430574","municipi":"la Febró","codi_comarca":"08","comarca":"Baix Camp","provincia":"Tarragona","font":"ICGC Àrees de poblament v3r1 202602"},"geometry":{"type":"MultiPolygon","coordinates":[[[[1.004694,41.277068],[1.004609,41.277082],[1.0045,41.2771],[1.004464,41.277008],[1.004401,41.277012],[1.004097,41.277057],[1.004021,41.277069],[1.003939,41.277059],[1.003877,41.277041],[1.003721,41.276976],[1.00348,41.276889],[1.003219,41.276848],[1.003065,41.276843],[1.002858,41.276867],[1.002878,41.276936],[1.002881,41.276983],[1.002915,41.276975],[1.00291,41.276992],[1.002847,41.277025],[1.002797,41.277018],[1.00262,41.277123],[1.002616,41.277137],[1.002611,41.277151],[1.00261,41.277168],[1.00262,41.277192],[1.002638,41.277214],[1.002668,41.277241],[1.002687,41.277251],[1.00271,41.277258],[1.002756,41.277262],[1.002801,41.277263],[1.002882,41.277261],[1.002925,41.27726],[1.002962,41.277259],[1.003021,41.277257],[1.003079,41.277257],[1.003096,41.277257],[1.003173,41.277268],[1.003375,41.277306],[1.00337,41.277327],[1.003367,41.277335],[1.003436,41.277346],[1.003477,41.277384],[1.003555,41.277452],[1.003668,41.277461],[1.003638,41.277469],[1.003591,41.277483],[1.003538,41.277495],[1.003485,41.277507],[1.003412,41.277527],[1.003339,41.277547],[1.003259,41.277568],[1.003178,41.277588],[1.00315,41.277593],[1.00312,41.277601],[1.003101,41.277611],[1.003065,41.277637],[1.003054,41.277645],[1.002851,41.277796],[1.002503,41.278049],[1.002225,41.278243],[1.002024,41.278399],[1.002019,41.278427],[1.002014,41.278441],[1.00201,41.278449],[1.002003,41.278456],[1.001982,41.278476],[1.001973,41.278485],[1.0019,41.278557],[1.001853,41.278607],[1.001848,41.278612],[1.001839,41.278624],[1.001829,41.278637],[1.001821,41.27865],[1.001814,41.278662],[1.001812,41.278668],[1.00181,41.278675],[1.001809,41.278684],[1.001809,41.278691],[1.00181,41.278698],[1.001814,41.278706],[1.001819,41.278712],[1.001825,41.278719],[1.001831,41.278724],[1.001843,41.278734],[1.001869,41.278751],[1.001908,41.278775],[1.001939,41.278793],[1.001959,41.278803],[1.001966,41.278807],[1.001996,41.27882],[1.002134,41.278878],[1.002162,41.278859],[1.002175,41.27885],[1.002234,41.278731],[1.002365,41.278618],[1.002347,41.278602],[1.002653,41.278379],[1.002993,41.278143],[1.003307,41.277925],[1.003628,41.277701],[1.003729,41.277629],[1.003763,41.277616],[1.003788,41.277648],[1.003881,41.277606],[1.003928,41.277572],[1.004143,41.277574],[1.00427,41.277595],[1.00432,41.277598],[1.004345,41.277661],[1.004414,41.277786],[1.004392,41.277792],[1.004456,41.277907],[1.004488,41.277885],[1.004524,41.277948],[1.004505,41.277955],[1.004731,41.278201],[1.004806,41.278162],[1.004821,41.278174],[1.004849,41.278207],[1.00487,41.278232],[1.004878,41.278243],[1.004909,41.278279],[1.004972,41.278352],[1.00501,41.278395],[1.005048,41.278376],[1.005128,41.278344],[1.005148,41.278323],[1.005186,41.278288],[1.005226,41.278257],[1.005268,41.278223],[1.005275,41.278215],[1.005336,41.278179],[1.005244,41.278084],[1.005203,41.278093],[1.005195,41.27808],[1.005159,41.278022],[1.005126,41.277963],[1.005108,41.277923],[1.005093,41.277881],[1.005071,41.277797],[1.00506,41.277737],[1.005049,41.277677],[1.005048,41.277668],[1.005046,41.277665],[1.005046,41.277534],[1.005054,41.27753],[1.005063,41.277527],[1.005071,41.277524],[1.005078,41.277523],[1.00509,41.277525],[1.005141,41.277533],[1.005238,41.277551],[1.005336,41.277569],[1.005378,41.277575],[1.005419,41.277581],[1.00545,41.277587],[1.005493,41.277601],[1.005567,41.277597],[1.005549,41.277582],[1.00537,41.27742],[1.005385,41.277372],[1.005296,41.277291],[1.005303,41.277267],[1.0052,41.27716],[1.00509,41.277083],[1.00501,41.277038],[1.004948,41.277019],[1.004852,41.277006],[1.004767,41.277043],[1.00471,41.277065],[1.004694,41.277068]]]]}}]}