{"type":"FeatureCollection","name":"ICGC Àrees de poblament - Cunit","features":[{"type":"Feature","id":"430516_430516 AP02 BPE 2","properties":{"area_id":"430516_430516 AP02 BPE 2","nom":"Costa Cunit","codi_icgc":"430516 AP02 BPE 2","categoria":"Àrees de poblament","codi_municipi":"430516","municipi":"Cunit","codi_comarca":"12","comarca":"Baix Penedès","provincia":"Tarragona","font":"ICGC Àrees de poblament v3r1 202602"},"geometry":{"type":"MultiPolygon","coordinates":[[[[1.645975,41.228055],[1.645874,41.227688],[1.645788,41.227576],[1.645775,41.227559],[1.645777,41.227522],[1.645761,41.227474],[1.64574,41.227446],[1.645692,41.227382],[1.645648,41.227317],[1.645623,41.227274],[1.645602,41.227224],[1.645585,41.227172],[1.645574,41.227141],[1.645524,41.22699],[1.645465,41.226809],[1.645405,41.226621],[1.645352,41.226432],[1.645329,41.226333],[1.645308,41.226233],[1.645267,41.226033],[1.645239,41.225888],[1.645213,41.225743],[1.645203,41.225668],[1.645195,41.225594],[1.645186,41.22549],[1.645177,41.225401],[1.645176,41.225386],[1.645165,41.225308],[1.645149,41.225242],[1.645147,41.225231],[1.645126,41.22518],[1.6451,41.225131],[1.645069,41.225084],[1.645035,41.22504],[1.645007,41.225011],[1.644957,41.22497],[1.644901,41.224936],[1.644874,41.224922],[1.644864,41.224918],[1.644823,41.224902],[1.644791,41.224898],[1.644757,41.224896],[1.644747,41.224898],[1.644708,41.224903],[1.644674,41.224906],[1.644275,41.224991],[1.643877,41.225075],[1.643788,41.225094],[1.643697,41.225112],[1.643515,41.225147],[1.643445,41.225159],[1.643259,41.22519],[1.643003,41.22523],[1.642861,41.225252],[1.642718,41.225274],[1.642679,41.225283],[1.642673,41.225284],[1.642657,41.22529],[1.642635,41.225299],[1.642629,41.225301],[1.642624,41.225303],[1.6426,41.225308],[1.642592,41.225315],[1.642529,41.225295],[1.642314,41.225297],[1.64219,41.225309],[1.641978,41.22533],[1.641968,41.225331],[1.641659,41.225425],[1.641655,41.225426],[1.641471,41.225502],[1.641283,41.225559],[1.641118,41.225639],[1.641079,41.225663],[1.641043,41.225684],[1.640936,41.225748],[1.640853,41.22581],[1.640769,41.225866],[1.640752,41.225877],[1.640724,41.225896],[1.640533,41.226018],[1.640524,41.226023],[1.640238,41.226197],[1.640224,41.226205],[1.640043,41.226306],[1.639859,41.226408],[1.639888,41.226429],[1.640047,41.226539],[1.640257,41.226685],[1.64037,41.22677],[1.640393,41.226792],[1.640309,41.226846],[1.640197,41.226917],[1.640101,41.226978],[1.640004,41.227038],[1.639972,41.227057],[1.63996,41.22706],[1.639954,41.227062],[1.639937,41.22706],[1.639856,41.227021],[1.639743,41.226968],[1.639613,41.226904],[1.639484,41.226837],[1.639419,41.226804],[1.639354,41.226769],[1.639295,41.226744],[1.639213,41.226781],[1.63919,41.226795],[1.639149,41.226819],[1.639026,41.22689],[1.638883,41.226973],[1.638878,41.226976],[1.638731,41.227063],[1.638728,41.227064],[1.638535,41.227126],[1.638312,41.227188],[1.638278,41.227191],[1.638221,41.227382],[1.638194,41.227473],[1.638192,41.227476],[1.638065,41.227693],[1.638054,41.227712],[1.637987,41.227844],[1.637978,41.227841],[1.637964,41.227866],[1.637955,41.227889],[1.637607,41.227856],[1.637257,41.227834],[1.637239,41.227781],[1.637232,41.227751],[1.63721,41.227692],[1.637189,41.227663],[1.637159,41.22764],[1.637153,41.227636],[1.637134,41.227626],[1.637094,41.227614],[1.637053,41.227609],[1.637025,41.22761],[1.636991,41.227615],[1.636929,41.22763],[1.63689,41.227644],[1.636836,41.227669],[1.636763,41.227587],[1.636648,41.227481],[1.63652,41.227396],[1.636442,41.227452],[1.636365,41.227507],[1.636278,41.227569],[1.63624,41.227597],[1.636191,41.227631],[1.636141,41.227673],[1.636097,41.227718],[1.63607,41.227749],[1.636048,41.227783],[1.636036,41.227807],[1.636031,41.227818],[1.636027,41.227824],[1.636016,41.22784],[1.63597,41.227892],[1.635916,41.22794],[1.635852,41.227985],[1.635804,41.228015],[1.635785,41.228027],[1.635738,41.228053],[1.635728,41.228058],[1.635661,41.228092],[1.635583,41.228128],[1.635528,41.228149],[1.635415,41.228189],[1.6353,41.228228],[1.635194,41.228262],[1.635089,41.228297],[1.635019,41.228322],[1.634862,41.228381],[1.634797,41.228405],[1.634705,41.228439],[1.634642,41.22846],[1.634541,41.228497],[1.634445,41.228538],[1.634352,41.228585],[1.634264,41.228636],[1.63425,41.228645],[1.63418,41.228691],[1.634157,41.228709],[1.634147,41.228712],[1.634124,41.228734],[1.634025,41.228826],[1.634066,41.228934],[1.634063,41.228998],[1.634089,41.229035],[1.634128,41.229089],[1.634153,41.229124],[1.634203,41.229189],[1.634222,41.229215],[1.634188,41.22926],[1.634161,41.229297],[1.63414,41.229324],[1.634004,41.229494],[1.634003,41.229518],[1.634002,41.229537],[1.633827,41.23004],[1.633752,41.230258],[1.633726,41.230333],[1.633814,41.230636],[1.633919,41.230718],[1.634158,41.230904],[1.634161,41.230906],[1.635787,41.231848],[1.635901,41.231913],[1.636229,41.232103],[1.636567,41.232395],[1.636669,41.232483],[1.637731,41.2334],[1.638149,41.233871],[1.638276,41.234014],[1.638542,41.234315],[1.638613,41.234395],[1.638678,41.234469],[1.63877,41.234572],[1.638789,41.234593],[1.638792,41.234597],[1.63894,41.234763],[1.639178,41.235032],[1.63922,41.235051],[1.639344,41.235108],[1.639622,41.235234],[1.639811,41.235259],[1.639829,41.235261],[1.640268,41.235286],[1.640495,41.235298],[1.640693,41.235309],[1.640736,41.235312],[1.640935,41.235356],[1.641239,41.235425],[1.641281,41.235366],[1.64136,41.235254],[1.641422,41.235167],[1.641465,41.235107],[1.642533,41.233602],[1.645377,41.229682],[1.645394,41.229658],[1.645401,41.229648],[1.645416,41.229627],[1.645428,41.229564],[1.645399,41.229485],[1.645375,41.229419],[1.645332,41.229299],[1.645323,41.229265],[1.645323,41.229233],[1.64532,41.229077],[1.645386,41.229072],[1.645455,41.22906],[1.645522,41.229042],[1.645587,41.229018],[1.64565,41.228989],[1.64571,41.228956],[1.645767,41.228921],[1.645815,41.228883],[1.645859,41.228843],[1.645892,41.228804],[1.645895,41.2288],[1.645921,41.228763],[1.645944,41.228719],[1.64596,41.228674],[1.645976,41.228612],[1.645982,41.22855],[1.64598,41.228492],[1.645971,41.228434],[1.645954,41.228372],[1.645929,41.228311],[1.645897,41.228256],[1.645895,41.228253],[1.645877,41.228229],[1.645855,41.228204],[1.645906,41.228101],[1.64591,41.228099],[1.645975,41.228055]]]]}},{"type":"Feature","id":"430516_430516 AP01 BPE 3","properties":{"area_id":"430516_430516 AP01 BPE 3","nom":"Cunit","codi_icgc":"430516 AP01 BPE 3","categoria":"Àrees de poblament","codi_municipi":"430516","municipi":"Cunit","codi_comarca":"12","comarca":"Baix Penedès","provincia":"Tarragona","font":"ICGC Àrees de poblament v3r1 202602"},"geometry":{"type":"MultiPolygon","coordinates":[[[[1.618486,41.20983],[1.618567,41.209711],[1.61863,41.20962],[1.618694,41.209529],[1.61871,41.209505],[1.618737,41.209465],[1.618779,41.209399],[1.618813,41.209339],[1.618844,41.209277],[1.61888,41.209196],[1.61889,41.209167],[1.618909,41.209115],[1.618941,41.209012],[1.618972,41.208909],[1.619013,41.208774],[1.619023,41.208739],[1.619074,41.20857],[1.619135,41.208366],[1.619138,41.208357],[1.619146,41.208328],[1.61915,41.208315],[1.619153,41.208304],[1.619153,41.208302],[1.61916,41.208278],[1.619899,41.208265],[1.619918,41.20811],[1.619899,41.207984],[1.619908,41.207983],[1.619893,41.207951],[1.619825,41.207797],[1.61982,41.207784],[1.619814,41.207772],[1.619566,41.207209],[1.619552,41.207178],[1.619501,41.207227],[1.619542,41.207153],[1.619544,41.207152],[1.61961,41.207115],[1.619645,41.2071],[1.619961,41.206971],[1.619985,41.206964],[1.620004,41.206965],[1.62002,41.206971],[1.620032,41.20698],[1.620065,41.207024],[1.620211,41.207208],[1.62023,41.207233],[1.620242,41.207249],[1.620254,41.207265],[1.620337,41.207373],[1.620393,41.207435],[1.620624,41.207626],[1.620635,41.207635],[1.620647,41.207645],[1.620662,41.207658],[1.620695,41.20764],[1.620834,41.207518],[1.620972,41.207397],[1.621091,41.207299],[1.62121,41.2072],[1.621313,41.20711],[1.621417,41.20702],[1.621465,41.207024],[1.621472,41.207028],[1.621514,41.207047],[1.621578,41.207067],[1.62164,41.207084],[1.621809,41.207124],[1.621979,41.207164],[1.622219,41.207219],[1.622403,41.207261],[1.622416,41.207264],[1.622429,41.207267],[1.62246,41.207274],[1.622567,41.207285],[1.623269,41.207319],[1.623313,41.207322],[1.623328,41.207323],[1.623342,41.207325],[1.623887,41.207365],[1.623973,41.207193],[1.624059,41.20702],[1.624146,41.206848],[1.624163,41.206813],[1.624167,41.206806],[1.624171,41.206798],[1.624232,41.206676],[1.624315,41.206509],[1.624399,41.206342],[1.624461,41.206217],[1.624468,41.206204],[1.624475,41.20619],[1.624508,41.206123],[1.624618,41.205905],[1.624671,41.205799],[1.624594,41.205782],[1.6242,41.205712],[1.624287,41.205401],[1.624316,41.205327],[1.624288,41.205297],[1.624273,41.205277],[1.624242,41.205229],[1.624209,41.205179],[1.624178,41.205145],[1.624359,41.204896],[1.624401,41.204844],[1.624484,41.204741],[1.624605,41.204591],[1.62463,41.20456],[1.624715,41.204456],[1.624853,41.204287],[1.62474,41.20419],[1.624607,41.204075],[1.624452,41.203976],[1.624423,41.203958],[1.624345,41.203879],[1.624325,41.203854],[1.624176,41.203669],[1.624044,41.203652],[1.624065,41.203606],[1.623826,41.203464],[1.623456,41.203229],[1.62291,41.202892],[1.622667,41.203115],[1.622746,41.203336],[1.622764,41.203386],[1.623037,41.203325],[1.623214,41.203784],[1.623173,41.203791],[1.622854,41.203844],[1.622535,41.203896],[1.622329,41.203926],[1.622122,41.203954],[1.621984,41.203975],[1.621812,41.204006],[1.62164,41.204036],[1.621586,41.204028],[1.621574,41.204014],[1.62153,41.203968],[1.621488,41.203933],[1.621437,41.203902],[1.621411,41.203889],[1.621405,41.203878],[1.621249,41.203843],[1.621211,41.203837],[1.621173,41.203826],[1.621143,41.203816],[1.621116,41.203801],[1.621103,41.20379],[1.621094,41.203779],[1.621092,41.203771],[1.621095,41.203756],[1.621098,41.203741],[1.62111,41.203713],[1.621133,41.203658],[1.621159,41.203598],[1.621185,41.203538],[1.621193,41.203515],[1.621197,41.20349],[1.621198,41.203473],[1.621292,41.203474],[1.621341,41.203259],[1.621395,41.20301],[1.621516,41.20297],[1.621348,41.202866],[1.621186,41.202598],[1.62118,41.202587],[1.621017,41.202287],[1.620897,41.202066],[1.620895,41.202063],[1.620894,41.202061],[1.620943,41.202056],[1.620962,41.202055],[1.620987,41.202062],[1.621012,41.202073],[1.621088,41.202111],[1.621164,41.202146],[1.621279,41.202187],[1.621339,41.202204],[1.621248,41.202542],[1.621389,41.202586],[1.621542,41.202256],[1.621621,41.202276],[1.621845,41.202331],[1.622014,41.202372],[1.622182,41.202414],[1.622277,41.202443],[1.622145,41.202768],[1.622331,41.20281],[1.622516,41.202851],[1.622813,41.20283],[1.622891,41.202717],[1.622872,41.202671],[1.623046,41.20249],[1.623148,41.202334],[1.623154,41.202324],[1.623298,41.202097],[1.623352,41.202011],[1.623337,41.201973],[1.623315,41.201952],[1.623253,41.201939],[1.623203,41.201936],[1.622996,41.201851],[1.622851,41.201788],[1.622655,41.201704],[1.62261,41.201686],[1.622726,41.201531],[1.622809,41.201419],[1.622803,41.201418],[1.622829,41.20138],[1.622872,41.201318],[1.622959,41.201355],[1.62336,41.20153],[1.623374,41.201536],[1.623688,41.201672],[1.62381,41.201711],[1.623836,41.20185],[1.623844,41.201892],[1.623862,41.201966],[1.623878,41.202015],[1.623928,41.202146],[1.623978,41.202277],[1.624036,41.202424],[1.624093,41.20257],[1.624151,41.202732],[1.6242,41.202896],[1.624243,41.202944],[1.624291,41.202966],[1.624369,41.202986],[1.624466,41.20299],[1.624505,41.202993],[1.624543,41.202997],[1.624612,41.203006],[1.624715,41.203024],[1.624817,41.203043],[1.624866,41.203053],[1.624915,41.203062],[1.624924,41.203064],[1.624931,41.203045],[1.624943,41.20302],[1.625064,41.202628],[1.625169,41.202389],[1.625176,41.202375],[1.62545,41.20188],[1.625523,41.201749],[1.625662,41.201497],[1.625704,41.201448],[1.625753,41.201293],[1.625783,41.201154],[1.625791,41.201006],[1.625793,41.200866],[1.62577,41.200723],[1.625844,41.200717],[1.625867,41.200722],[1.625895,41.200728],[1.625923,41.200734],[1.625943,41.200738],[1.626184,41.200802],[1.626202,41.200807],[1.626221,41.200811],[1.626261,41.200822],[1.626578,41.200905],[1.626766,41.200956],[1.626846,41.200977],[1.626859,41.200981],[1.626873,41.200985],[1.626955,41.201007],[1.627193,41.201069],[1.627313,41.201099],[1.627434,41.201128],[1.627561,41.201156],[1.627687,41.201183],[1.627987,41.201252],[1.628286,41.201323],[1.628383,41.201347],[1.628477,41.201369],[1.628669,41.201416],[1.628988,41.201491],[1.629307,41.201565],[1.629504,41.201611],[1.629661,41.201648],[1.62983,41.201582],[1.629835,41.201576],[1.62985,41.201564],[1.630009,41.201451],[1.630122,41.201364],[1.630146,41.201345],[1.630224,41.201286],[1.630305,41.201223],[1.630429,41.201127],[1.630532,41.201052],[1.630575,41.201029],[1.630633,41.201038],[1.630526,41.201355],[1.630979,41.201469],[1.630978,41.201471],[1.631046,41.201485],[1.63119,41.201515],[1.631487,41.201583],[1.631497,41.201558],[1.631527,41.201481],[1.631824,41.200732],[1.631823,41.200708],[1.631865,41.20069],[1.63192,41.200681],[1.632194,41.200744],[1.632395,41.20079],[1.632455,41.200802],[1.632484,41.200825],[1.632498,41.200844],[1.632502,41.200863],[1.632497,41.200883],[1.632651,41.200934],[1.632735,41.201188],[1.632724,41.201212],[1.632699,41.201602],[1.63274,41.201647],[1.632819,41.201666],[1.632826,41.201659],[1.633085,41.201377],[1.633113,41.201349],[1.633404,41.201496],[1.633414,41.201498],[1.633482,41.201517],[1.633691,41.201633],[1.633681,41.201685],[1.633673,41.201738],[1.633671,41.201782],[1.633671,41.201826],[1.633362,41.201847],[1.633195,41.201889],[1.632837,41.202104],[1.632623,41.202288],[1.632467,41.202482],[1.632387,41.202601],[1.632368,41.20263],[1.632253,41.202813],[1.632148,41.202919],[1.632027,41.203019],[1.632014,41.203046],[1.631978,41.203092],[1.631948,41.203134],[1.631922,41.203177],[1.631871,41.203264],[1.63181,41.203396],[1.631785,41.203437],[1.631766,41.203459],[1.63172,41.203508],[1.631674,41.203557],[1.63164,41.203596],[1.631552,41.203544],[1.631456,41.203671],[1.631256,41.203961],[1.631343,41.204025],[1.63126,41.204155],[1.631248,41.204161],[1.630961,41.204501],[1.630844,41.204911],[1.630858,41.204989],[1.630891,41.205098],[1.630925,41.205216],[1.631004,41.205439],[1.631059,41.205495],[1.631057,41.205547],[1.631035,41.205547],[1.631035,41.205694],[1.63119,41.206074],[1.631225,41.206066],[1.631288,41.206049],[1.631323,41.20604],[1.631461,41.206006],[1.631592,41.205973],[1.631683,41.205948],[1.631676,41.205927],[1.631662,41.20587],[1.631655,41.205819],[1.631655,41.205769],[1.631663,41.205725],[1.631677,41.205681],[1.631695,41.205639],[1.631716,41.205598],[1.631754,41.205526],[1.631797,41.205455],[1.631931,41.205263],[1.632073,41.205073],[1.632096,41.205044],[1.632102,41.205036],[1.632108,41.205029],[1.632163,41.204956],[1.632257,41.204841],[1.632384,41.204698],[1.632513,41.204554],[1.632636,41.204411],[1.632758,41.204267],[1.632834,41.204177],[1.63291,41.204086],[1.632963,41.204017],[1.632977,41.203998],[1.632985,41.203986],[1.632994,41.203974],[1.633013,41.203948],[1.633104,41.203814],[1.633195,41.203682],[1.633292,41.203549],[1.633322,41.203509],[1.633391,41.203417],[1.633477,41.203305],[1.633562,41.203193],[1.633765,41.202975],[1.633929,41.202811],[1.633943,41.202805],[1.633975,41.202799],[1.634216,41.202825],[1.634274,41.202825],[1.634333,41.202815],[1.634362,41.202819],[1.634399,41.202824],[1.634464,41.202833],[1.634527,41.20284],[1.634589,41.202847],[1.634626,41.202848],[1.634638,41.202819],[1.634692,41.202516],[1.634748,41.202198],[1.634755,41.202149],[1.634816,41.20187],[1.634817,41.201863],[1.634868,41.201663],[1.634878,41.20161],[1.634882,41.201611],[1.634888,41.201586],[1.634904,41.201521],[1.63495,41.201316],[1.635025,41.201326],[1.635117,41.20134],[1.635303,41.20137],[1.63548,41.201394],[1.635658,41.201415],[1.635778,41.201426],[1.63598,41.201442],[1.636181,41.201457],[1.636264,41.201468],[1.636415,41.201547],[1.636777,41.201703],[1.636623,41.201903],[1.636262,41.201757],[1.636261,41.201779],[1.636257,41.201821],[1.636256,41.201847],[1.636267,41.202052],[1.636284,41.202147],[1.636445,41.202217],[1.636707,41.202321],[1.637245,41.202559],[1.637243,41.202569],[1.637237,41.20264],[1.63723,41.202711],[1.637213,41.202853],[1.637212,41.202867],[1.63721,41.202881],[1.637203,41.202888],[1.637204,41.202961],[1.637162,41.203081],[1.637047,41.203235],[1.637046,41.203236],[1.636927,41.203396],[1.636891,41.203443],[1.63686,41.203449],[1.636812,41.203434],[1.63677,41.203416],[1.636333,41.203237],[1.636477,41.203019],[1.636187,41.202898],[1.636157,41.20295],[1.635968,41.203227],[1.636802,41.203561],[1.636802,41.203562],[1.636843,41.203577],[1.636937,41.203612],[1.637017,41.203644],[1.637163,41.203703],[1.637336,41.203772],[1.63721,41.203961],[1.636664,41.203751],[1.636592,41.203835],[1.636489,41.203994],[1.637044,41.204211],[1.637043,41.204213],[1.637492,41.204392],[1.637661,41.204458],[1.63769,41.20447],[1.637717,41.204482],[1.637733,41.204493],[1.637748,41.204503],[1.637825,41.204554],[1.63794,41.204631],[1.638054,41.204709],[1.638168,41.204788],[1.638298,41.204878],[1.63843,41.204968],[1.638517,41.205026],[1.638608,41.205082],[1.638711,41.20514],[1.638802,41.205187],[1.638883,41.205227],[1.638968,41.205263],[1.639053,41.205298],[1.639075,41.205413],[1.639026,41.205532],[1.63896,41.205695],[1.638916,41.205899],[1.638913,41.205913],[1.638936,41.206116],[1.638938,41.20613],[1.638923,41.206297],[1.638908,41.206479],[1.638915,41.206649],[1.638923,41.206841],[1.638923,41.206844],[1.638937,41.207006],[1.638938,41.207018],[1.638954,41.207177],[1.63891,41.207218],[1.638966,41.207276],[1.639026,41.207311],[1.639084,41.207334],[1.639164,41.20736],[1.639067,41.207641],[1.639608,41.207743],[1.63966,41.207753],[1.639852,41.207789],[1.640067,41.207803],[1.640079,41.207819],[1.640095,41.20787],[1.640072,41.208072],[1.640041,41.208294],[1.640019,41.208711],[1.640054,41.208914],[1.640131,41.209206],[1.640262,41.209701],[1.640328,41.209952],[1.640581,41.209934],[1.640953,41.209894],[1.640856,41.20941],[1.640786,41.208813],[1.640704,41.208213],[1.640659,41.207891],[1.640609,41.207682],[1.640622,41.207595],[1.640652,41.207389],[1.64066,41.207336],[1.640672,41.207267],[1.640691,41.20714],[1.640694,41.207094],[1.640702,41.207095],[1.640737,41.206894],[1.640709,41.206853],[1.6407,41.206838],[1.640572,41.206823],[1.640475,41.206815],[1.640453,41.206808],[1.64046,41.206787],[1.640468,41.206765],[1.640494,41.206676],[1.640515,41.206586],[1.640535,41.206475],[1.640556,41.206364],[1.640582,41.206223],[1.640607,41.206082],[1.640642,41.205865],[1.640674,41.205649],[1.640707,41.205444],[1.640722,41.205355],[1.64074,41.205238],[1.640762,41.205082],[1.640803,41.204809],[1.640851,41.204517],[1.640863,41.204408],[1.640867,41.204299],[1.640865,41.204227],[1.640848,41.203938],[1.640831,41.203649],[1.640818,41.203356],[1.640806,41.203063],[1.640807,41.202917],[1.640815,41.202771],[1.640824,41.202674],[1.64084,41.202544],[1.640856,41.202516],[1.640852,41.201862],[1.640859,41.201755],[1.640908,41.201619],[1.640974,41.201489],[1.641027,41.201386],[1.641178,41.201142],[1.641624,41.200516],[1.642199,41.199799],[1.642283,41.199649],[1.64231,41.199602],[1.642502,41.199313],[1.642678,41.19905],[1.642967,41.198599],[1.643109,41.19837],[1.643168,41.198277],[1.643247,41.198153],[1.643422,41.197961],[1.643583,41.197778],[1.643762,41.197576],[1.643926,41.19739],[1.644027,41.197228],[1.644177,41.197082],[1.644231,41.19703],[1.644472,41.196749],[1.644712,41.19647],[1.644745,41.19643],[1.644806,41.196339],[1.644835,41.196331],[1.645079,41.196048],[1.6452,41.195919],[1.644078,41.195683],[1.643237,41.195492],[1.642349,41.19529],[1.641029,41.19497],[1.639984,41.194702],[1.639521,41.194584],[1.639465,41.194708],[1.639214,41.19507],[1.639153,41.195157],[1.63912,41.195205],[1.639137,41.195214],[1.639169,41.195235],[1.639194,41.195261],[1.639214,41.195289],[1.639226,41.195319],[1.639301,41.195329],[1.639265,41.195486],[1.639191,41.195703],[1.639254,41.19572],[1.639213,41.195833],[1.639147,41.19598],[1.639036,41.196124],[1.638825,41.196074],[1.638822,41.196073],[1.638769,41.196044],[1.638688,41.196013],[1.638648,41.196],[1.638627,41.195995],[1.638601,41.19599],[1.638532,41.195979],[1.638523,41.195978],[1.638517,41.195977],[1.63845,41.195974],[1.638316,41.195985],[1.637919,41.1959],[1.637522,41.195815],[1.637069,41.195719],[1.636617,41.195623],[1.636164,41.195529],[1.635708,41.195443],[1.635551,41.195416],[1.635632,41.195228],[1.635642,41.195229],[1.635686,41.195227],[1.635734,41.195229],[1.635782,41.195231],[1.635816,41.195229],[1.635832,41.195224],[1.635844,41.195214],[1.635858,41.195198],[1.635873,41.195168],[1.635894,41.195076],[1.635915,41.194991],[1.635936,41.194905],[1.635942,41.194874],[1.635936,41.194773],[1.635888,41.194663],[1.635866,41.194631],[1.635975,41.194127],[1.636041,41.193818],[1.636076,41.193666],[1.636078,41.193659],[1.63614,41.193569],[1.636105,41.19353],[1.636047,41.193514],[1.636036,41.193529],[1.635413,41.193345],[1.635207,41.193289],[1.6352,41.193312],[1.634978,41.193266],[1.634932,41.193383],[1.634955,41.193388],[1.634938,41.193441],[1.634909,41.19353],[1.63488,41.193525],[1.634851,41.193634],[1.634915,41.193644],[1.634815,41.193971],[1.634716,41.194295],[1.634673,41.194432],[1.634602,41.194527],[1.634613,41.194544],[1.634576,41.194561],[1.634539,41.194579],[1.634527,41.194587],[1.634517,41.194597],[1.634504,41.19462],[1.634492,41.194673],[1.634471,41.194775],[1.63445,41.194878],[1.634439,41.194927],[1.634431,41.194949],[1.634422,41.194974],[1.633999,41.194918],[1.633741,41.194884],[1.633507,41.194854],[1.633145,41.194809],[1.632575,41.194754],[1.632474,41.194745],[1.632141,41.194714],[1.632143,41.194696],[1.63216,41.194628],[1.632054,41.194532],[1.631905,41.194397],[1.631649,41.194167],[1.631426,41.193971],[1.631201,41.193776],[1.631198,41.193772],[1.631185,41.193758],[1.631179,41.193741],[1.631088,41.193591],[1.630962,41.193566],[1.630942,41.193557],[1.630925,41.193543],[1.630912,41.193525],[1.6309,41.193498],[1.630868,41.193362],[1.630834,41.193226],[1.630785,41.193029],[1.630766,41.192906],[1.630765,41.192891],[1.630757,41.192821],[1.630757,41.19279],[1.630749,41.19276],[1.630734,41.192732],[1.630711,41.192707],[1.630683,41.192685],[1.63065,41.192667],[1.630614,41.192654],[1.630595,41.19265],[1.630599,41.192629],[1.630371,41.192589],[1.629891,41.19254],[1.62903,41.192453],[1.629005,41.192451],[1.628461,41.192396],[1.628217,41.192371],[1.627698,41.19232],[1.627391,41.192289],[1.626766,41.192227],[1.626229,41.192173],[1.625979,41.192144],[1.625292,41.192064],[1.625255,41.19206],[1.624626,41.191979],[1.624572,41.191973],[1.623853,41.191881],[1.623542,41.191841],[1.62321,41.1918],[1.622958,41.191769],[1.622954,41.191768],[1.622267,41.191683],[1.622031,41.191653],[1.622001,41.19165],[1.621987,41.191648],[1.62153,41.191593],[1.620938,41.191521],[1.620204,41.191438],[1.61973,41.191387],[1.61922,41.191331],[1.618991,41.191307],[1.618341,41.191245],[1.617552,41.191169],[1.617544,41.191215],[1.617545,41.19122],[1.617516,41.191217],[1.617523,41.191172],[1.616845,41.191109],[1.61674,41.191223],[1.616403,41.191699],[1.616345,41.19179],[1.616107,41.192134],[1.616038,41.19225],[1.615809,41.192566],[1.615756,41.19264],[1.615456,41.19305],[1.615211,41.193438],[1.615143,41.193539],[1.615118,41.193586],[1.614937,41.193872],[1.614863,41.193912],[1.614662,41.19423],[1.614605,41.194304],[1.614512,41.194424],[1.614434,41.194524],[1.614176,41.194592],[1.614068,41.194535],[1.614018,41.194563],[1.614007,41.194572],[1.613985,41.194578],[1.613918,41.194593],[1.613841,41.19461],[1.613716,41.194638],[1.613699,41.194642],[1.613645,41.194654],[1.613588,41.194666],[1.613565,41.194669],[1.613558,41.19467],[1.613396,41.194681],[1.613325,41.194688],[1.613222,41.194694],[1.613113,41.194694],[1.613098,41.194694],[1.612898,41.194709],[1.612828,41.194716],[1.612751,41.194722],[1.612719,41.19472],[1.612625,41.194715],[1.612487,41.194703],[1.612343,41.194675],[1.612267,41.194661],[1.612211,41.194651],[1.612066,41.194653],[1.612057,41.194652],[1.611975,41.194657],[1.61186,41.194663],[1.611746,41.19467],[1.611627,41.194677],[1.611546,41.194683],[1.611509,41.194685],[1.61148,41.194789],[1.61146,41.194862],[1.61145,41.194883],[1.61142,41.194947],[1.611401,41.19499],[1.611352,41.195096],[1.611335,41.195123],[1.611323,41.195143],[1.611307,41.195168],[1.61127,41.195226],[1.611267,41.195231],[1.611261,41.195241],[1.611254,41.195251],[1.611243,41.19527],[1.611238,41.195278],[1.611207,41.195327],[1.611174,41.19538],[1.611139,41.195432],[1.611124,41.195454],[1.611114,41.195469],[1.611106,41.195481],[1.61109,41.195476],[1.61108,41.195472],[1.611057,41.1955],[1.610994,41.195579],[1.610968,41.195612],[1.610949,41.195636],[1.610919,41.195673],[1.6109,41.195697],[1.610869,41.195737],[1.610866,41.195742],[1.610807,41.195816],[1.610789,41.195842],[1.610763,41.195873],[1.610717,41.19593],[1.61069,41.195964],[1.610671,41.195987],[1.610632,41.196033],[1.610605,41.196066],[1.610561,41.196118],[1.610552,41.196129],[1.610497,41.196188],[1.610478,41.196208],[1.610433,41.196257],[1.610398,41.196294],[1.610381,41.196321],[1.610371,41.196336],[1.610356,41.196361],[1.610333,41.196398],[1.61032,41.196418],[1.610279,41.196484],[1.610272,41.196495],[1.610255,41.196524],[1.610235,41.196555],[1.610208,41.196601],[1.610199,41.196615],[1.610171,41.196661],[1.610144,41.196707],[1.610138,41.196717],[1.610083,41.196808],[1.610013,41.196924],[1.609985,41.196969],[1.609947,41.197032],[1.609893,41.197122],[1.60985,41.197191],[1.609847,41.197197],[1.609804,41.197268],[1.609784,41.197303],[1.609782,41.197306],[1.609765,41.197332],[1.60971,41.197417],[1.609687,41.197454],[1.609635,41.197535],[1.609617,41.197564],[1.609593,41.197599],[1.609579,41.19762],[1.609525,41.197702],[1.609521,41.197709],[1.609515,41.197719],[1.60951,41.197729],[1.609505,41.197745],[1.609494,41.197775],[1.609472,41.197835],[1.609478,41.197863],[1.609518,41.198063],[1.609555,41.198213],[1.60956,41.198246],[1.609578,41.19837],[1.609573,41.198514],[1.609569,41.198697],[1.609645,41.198696],[1.609666,41.198794],[1.60968,41.198859],[1.609687,41.198902],[1.609707,41.199029],[1.609714,41.199071],[1.609718,41.199098],[1.609748,41.19924],[1.609762,41.199306],[1.609767,41.199327],[1.609784,41.199378],[1.609795,41.199411],[1.609806,41.199448],[1.609816,41.199471],[1.609846,41.199539],[1.60986,41.19957],[1.609886,41.199628],[1.609913,41.199689],[1.609923,41.199712],[1.609931,41.199732],[1.609942,41.199755],[1.609943,41.19976],[1.609955,41.199793],[1.609965,41.199818],[1.609985,41.199866],[1.610001,41.199902],[1.610029,41.199968],[1.610057,41.200037],[1.610089,41.200105],[1.61011,41.200152],[1.610151,41.200227],[1.610177,41.200275],[1.610189,41.200296],[1.610208,41.200348],[1.610232,41.200413],[1.610275,41.20053],[1.610292,41.200578],[1.610314,41.200634],[1.610363,41.200785],[1.610379,41.200835],[1.610423,41.200901],[1.610424,41.200908],[1.610452,41.201046],[1.610455,41.201064],[1.610464,41.201104],[1.610465,41.201112],[1.61047,41.201137],[1.610475,41.201162],[1.610478,41.201186],[1.61048,41.201211],[1.610479,41.201218],[1.610479,41.201253],[1.610477,41.201332],[1.610475,41.20139],[1.610472,41.20142],[1.610471,41.201437],[1.610465,41.201498],[1.610455,41.201571],[1.610453,41.201588],[1.61043,41.201752],[1.610429,41.201764],[1.610426,41.201881],[1.610425,41.20194],[1.610422,41.201989],[1.61042,41.202025],[1.610415,41.20213],[1.610413,41.202169],[1.610413,41.202209],[1.610421,41.202314],[1.610425,41.202365],[1.610427,41.202397],[1.610432,41.202449],[1.610467,41.202585],[1.610474,41.202611],[1.610481,41.202636],[1.610523,41.202807],[1.610565,41.202981],[1.610578,41.203034],[1.61059,41.203085],[1.610595,41.203106],[1.610621,41.203218],[1.610627,41.203241],[1.610635,41.203276],[1.610637,41.203284],[1.610638,41.203288],[1.610658,41.203373],[1.61067,41.203422],[1.610675,41.203442],[1.610691,41.203511],[1.610711,41.203599],[1.610731,41.20366],[1.610729,41.203755],[1.610726,41.20387],[1.610729,41.203942],[1.610745,41.203959],[1.610758,41.203974],[1.610805,41.204027],[1.610848,41.204076],[1.610865,41.204096],[1.610929,41.204168],[1.610954,41.204196],[1.610988,41.204235],[1.611028,41.20426],[1.611057,41.204277],[1.611106,41.204307],[1.611164,41.204342],[1.611169,41.204346],[1.611278,41.204293],[1.611332,41.204356],[1.611483,41.204535],[1.611717,41.204406],[1.611695,41.204374],[1.612947,41.203829],[1.613017,41.203798],[1.613464,41.203603],[1.613671,41.203855],[1.613935,41.204196],[1.613588,41.204386],[1.613346,41.204114],[1.613279,41.204038],[1.612057,41.20461],[1.612138,41.204679],[1.61242,41.20504],[1.612394,41.205055],[1.612259,41.205136],[1.612,41.205241],[1.612042,41.205294],[1.612056,41.205316],[1.612078,41.20535],[1.612122,41.205416],[1.612149,41.205455],[1.612168,41.205482],[1.612191,41.205514],[1.612299,41.205657],[1.612342,41.206093],[1.612349,41.206129],[1.612201,41.206235],[1.612202,41.206284],[1.612207,41.206435],[1.612209,41.206506],[1.612212,41.206587],[1.61219,41.206654],[1.612164,41.206739],[1.612152,41.206776],[1.612135,41.206828],[1.612134,41.206887],[1.612135,41.20694],[1.612136,41.207047],[1.612207,41.20708],[1.612243,41.207097],[1.612257,41.207107],[1.612311,41.207145],[1.612341,41.207166],[1.612378,41.207192],[1.612437,41.207213],[1.612494,41.207233],[1.612542,41.207251],[1.612558,41.207259],[1.612613,41.207286],[1.612634,41.207299],[1.612655,41.207311],[1.612683,41.207329],[1.61271,41.207346],[1.612762,41.207382],[1.612859,41.20745],[1.612904,41.207482],[1.612934,41.207506],[1.612939,41.20751],[1.612964,41.207531],[1.612996,41.207557],[1.61305,41.207602],[1.613079,41.207625],[1.613088,41.207633],[1.613125,41.20767],[1.613152,41.207696],[1.6133,41.207693],[1.613332,41.207693],[1.613499,41.207843],[1.613647,41.208014],[1.613844,41.208253],[1.613929,41.208377],[1.613833,41.208461],[1.613789,41.208479],[1.613814,41.208525],[1.613844,41.208579],[1.613868,41.208622],[1.613904,41.208688],[1.613909,41.208697],[1.613934,41.208741],[1.613958,41.208775],[1.613965,41.208784],[1.61399,41.208818],[1.613992,41.20882],[1.614009,41.208839],[1.614026,41.208857],[1.614067,41.208902],[1.614109,41.208948],[1.614157,41.209],[1.614159,41.209003],[1.614167,41.209019],[1.614171,41.209029],[1.614192,41.209077],[1.614198,41.209092],[1.614212,41.209124],[1.614222,41.209146],[1.61423,41.209164],[1.614232,41.209171],[1.614256,41.209225],[1.614274,41.209272],[1.614276,41.209285],[1.614302,41.209361],[1.614297,41.209379],[1.614288,41.209411],[1.614287,41.209495],[1.614288,41.209554],[1.61429,41.209669],[1.614635,41.209667],[1.614637,41.209785],[1.614656,41.210214],[1.614658,41.21035],[1.614707,41.210486],[1.614795,41.210598],[1.614879,41.210653],[1.61501,41.210712],[1.61479,41.210894],[1.614844,41.210922],[1.614859,41.21093],[1.614922,41.210962],[1.614966,41.210985],[1.615002,41.211003],[1.615045,41.211026],[1.615078,41.211044],[1.615083,41.211046],[1.615115,41.211062],[1.615249,41.211133],[1.61529,41.211159],[1.615305,41.211169],[1.61531,41.211172],[1.615346,41.211195],[1.615367,41.211209],[1.61543,41.211249],[1.615435,41.211252],[1.615555,41.211318],[1.6156,41.211338],[1.615629,41.211351],[1.615662,41.211365],[1.615718,41.21139],[1.615758,41.211407],[1.615788,41.211421],[1.615808,41.21143],[1.615816,41.211433],[1.61589,41.211473],[1.615916,41.211487],[1.615971,41.211516],[1.615978,41.21152],[1.616074,41.211571],[1.616078,41.211573],[1.616088,41.211578],[1.616212,41.211582],[1.616252,41.211594],[1.6163,41.211608],[1.616384,41.21166],[1.616432,41.211662],[1.616436,41.211662],[1.616497,41.211731],[1.616586,41.211755],[1.616589,41.211756],[1.616661,41.211775],[1.61672,41.211813],[1.616755,41.211824],[1.616908,41.211868],[1.617019,41.211901],[1.617055,41.211903],[1.617065,41.211901],[1.617232,41.211645],[1.617247,41.211633],[1.61728,41.211607],[1.617325,41.211571],[1.617385,41.211483],[1.617445,41.211395],[1.617534,41.211261],[1.617667,41.211058],[1.617765,41.21091],[1.617771,41.210902],[1.617776,41.210893],[1.617801,41.210856],[1.618022,41.210521],[1.618041,41.210492],[1.618245,41.210186],[1.618305,41.210098],[1.618405,41.209949],[1.618486,41.20983]],[[1.62626,41.195719],[1.626304,41.195414],[1.626186,41.195401],[1.624973,41.195271],[1.624998,41.195012],[1.625023,41.194759],[1.625025,41.194736],[1.625057,41.194479],[1.625081,41.194299],[1.625116,41.194049],[1.625569,41.194092],[1.625782,41.194113],[1.62628,41.19416],[1.626519,41.194182],[1.627145,41.194241],[1.627411,41.194265],[1.62801,41.19432],[1.628532,41.194367],[1.629055,41.194414],[1.62961,41.194466],[1.630068,41.19451],[1.630066,41.194523],[1.630057,41.194601],[1.630033,41.194799],[1.630028,41.194845],[1.630164,41.194864],[1.630301,41.194886],[1.630538,41.194925],[1.630793,41.194967],[1.630786,41.195003],[1.632536,41.19518],[1.632558,41.195194],[1.632757,41.195417],[1.632956,41.19564],[1.633077,41.195782],[1.633096,41.195805],[1.633192,41.195926],[1.633231,41.195983],[1.633263,41.196043],[1.633282,41.196088],[1.633287,41.196104],[1.633297,41.196135],[1.63331,41.196183],[1.633318,41.196231],[1.633325,41.196309],[1.633331,41.196389],[1.633354,41.196599],[1.633362,41.196682],[1.63335,41.196683],[1.633307,41.196686],[1.633264,41.19669],[1.633189,41.196699],[1.633151,41.196706],[1.633112,41.196717],[1.633084,41.196733],[1.633072,41.196744],[1.633065,41.196758],[1.633061,41.196776],[1.63306,41.196793],[1.63306,41.196806],[1.632685,41.196773],[1.632598,41.197389],[1.632589,41.197416],[1.632568,41.197551],[1.632467,41.198228],[1.632454,41.198283],[1.632347,41.198389],[1.632071,41.198326],[1.631864,41.198267],[1.631806,41.19825],[1.631783,41.198244],[1.631077,41.198097],[1.630675,41.198],[1.630213,41.197892],[1.629962,41.197836],[1.6297,41.197777],[1.62934,41.197716],[1.629081,41.197686],[1.628578,41.19763],[1.628866,41.196012],[1.626663,41.195754],[1.62626,41.195719]]]]}},{"type":"Feature","id":"430516_430516 AP03 BPE 2","properties":{"area_id":"430516_430516 AP03 BPE 2","nom":"Jardins de Cunit","codi_icgc":"430516 AP03 BPE 2","categoria":"Àrees de poblament","codi_municipi":"430516","municipi":"Cunit","codi_comarca":"12","comarca":"Baix Penedès","provincia":"Tarragona","font":"ICGC Àrees de poblament v3r1 202602"},"geometry":{"type":"MultiPolygon","coordinates":[[[[1.622418,41.222757],[1.622417,41.222751],[1.622491,41.222758],[1.622901,41.222809],[1.622916,41.222649],[1.622504,41.222594],[1.622406,41.222582],[1.622416,41.22252],[1.622427,41.222458],[1.622438,41.222399],[1.622449,41.222339],[1.622464,41.222271],[1.622485,41.222203],[1.622518,41.222125],[1.622556,41.222048],[1.622622,41.221923],[1.622669,41.221835],[1.622854,41.2219],[1.623064,41.221974],[1.623107,41.221985],[1.623487,41.222101],[1.623681,41.222027],[1.623607,41.221767],[1.623622,41.22175],[1.623766,41.221663],[1.623827,41.221713],[1.623981,41.221633],[1.623796,41.221488],[1.623846,41.221454],[1.623917,41.221399],[1.62406,41.221281],[1.624422,41.221567],[1.624431,41.221553],[1.624469,41.22157],[1.624491,41.221542],[1.624527,41.221421],[1.624551,41.221341],[1.624584,41.2213],[1.624627,41.221208],[1.624936,41.221314],[1.624896,41.221361],[1.62484,41.22143],[1.62481,41.22147],[1.624786,41.221503],[1.62476,41.221538],[1.624689,41.221623],[1.624642,41.221679],[1.624609,41.221718],[1.624581,41.22176],[1.624557,41.221809],[1.624545,41.221844],[1.62422,41.221816],[1.624183,41.222083],[1.624568,41.222114],[1.62459,41.222154],[1.624612,41.222186],[1.624657,41.222245],[1.624476,41.222363],[1.624179,41.222525],[1.624158,41.222666],[1.624148,41.222748],[1.624189,41.222756],[1.624243,41.222766],[1.624306,41.222778],[1.624372,41.22279],[1.624438,41.222802],[1.624455,41.222763],[1.624498,41.222718],[1.624629,41.222596],[1.624595,41.222549],[1.624781,41.222409],[1.624785,41.222414],[1.624825,41.222474],[1.624849,41.222518],[1.624856,41.22254],[1.62486,41.222563],[1.624864,41.22262],[1.624866,41.222679],[1.624866,41.222717],[1.624932,41.222716],[1.625217,41.222542],[1.625322,41.222665],[1.625404,41.22262],[1.625582,41.222543],[1.625635,41.22252],[1.625664,41.222566],[1.625707,41.22261],[1.625756,41.22265],[1.625806,41.222686],[1.62587,41.222728],[1.625928,41.222766],[1.625953,41.222786],[1.625973,41.222808],[1.626004,41.222851],[1.626037,41.222898],[1.626076,41.222952],[1.62613,41.22303],[1.626145,41.223053],[1.626198,41.223131],[1.626374,41.223164],[1.626426,41.223173],[1.628037,41.223474],[1.628177,41.2235],[1.628215,41.223439],[1.62824,41.223394],[1.628288,41.223295],[1.628308,41.223246],[1.628325,41.223196],[1.628333,41.223149],[1.628334,41.223101],[1.628324,41.223033],[1.628318,41.223008],[1.628706,41.222997],[1.628782,41.222771],[1.628696,41.222614],[1.628611,41.222508],[1.628607,41.222503],[1.628475,41.222275],[1.628474,41.222272],[1.628475,41.222223],[1.628458,41.222052],[1.628447,41.221951],[1.628705,41.221382],[1.628488,41.220986],[1.628447,41.220979],[1.628061,41.220914],[1.628055,41.220913],[1.627739,41.220853],[1.62755,41.220829],[1.627585,41.220634],[1.627611,41.220449],[1.627637,41.220353],[1.627666,41.220257],[1.627684,41.220202],[1.627704,41.220149],[1.627725,41.220105],[1.627754,41.220064],[1.627793,41.220023],[1.627838,41.219985],[1.627808,41.219903],[1.627565,41.21977],[1.627349,41.219652],[1.627316,41.219597],[1.627189,41.219497],[1.627201,41.21943],[1.62719,41.21943],[1.627171,41.219426],[1.627161,41.219421],[1.62715,41.219409],[1.627144,41.219396],[1.62714,41.219374],[1.627142,41.219364],[1.627148,41.219354],[1.627189,41.219313],[1.627196,41.219307],[1.627228,41.21928],[1.627235,41.219274],[1.627244,41.219265],[1.627303,41.219226],[1.627335,41.219203],[1.627387,41.219164],[1.627409,41.219148],[1.627433,41.21913],[1.6275,41.219069],[1.627561,41.219004],[1.627609,41.218943],[1.62763,41.218911],[1.627648,41.218878],[1.627661,41.218845],[1.627673,41.218799],[1.627674,41.218793],[1.627693,41.218743],[1.627727,41.218676],[1.627813,41.218508],[1.627897,41.218281],[1.62797,41.218083],[1.627764,41.217799],[1.627635,41.217598],[1.627604,41.21755],[1.627534,41.217471],[1.627405,41.217326],[1.627326,41.217223],[1.627235,41.217101],[1.627203,41.217067],[1.627051,41.216902],[1.626961,41.216863],[1.626857,41.216887],[1.626588,41.21696],[1.626443,41.217017],[1.626424,41.216977],[1.626413,41.216938],[1.626408,41.216904],[1.626405,41.21683],[1.626409,41.216765],[1.626415,41.216716],[1.626422,41.216669],[1.626426,41.216648],[1.626434,41.21662],[1.62644,41.2166],[1.626443,41.216591],[1.626453,41.216566],[1.62648,41.216491],[1.626508,41.21642],[1.626529,41.216368],[1.626569,41.216266],[1.62658,41.216237],[1.626597,41.216193],[1.626614,41.21615],[1.626638,41.216094],[1.626664,41.216037],[1.626674,41.216012],[1.62668,41.215985],[1.626682,41.215966],[1.626681,41.215948],[1.62668,41.215934],[1.626679,41.215926],[1.626677,41.215918],[1.62667,41.215903],[1.626663,41.215889],[1.626655,41.215876],[1.626646,41.215862],[1.62663,41.215846],[1.626613,41.215835],[1.626586,41.215822],[1.626547,41.215807],[1.626563,41.215804],[1.626585,41.215797],[1.626607,41.215788],[1.626516,41.215728],[1.626377,41.21562],[1.626228,41.215488],[1.626209,41.215502],[1.626133,41.215559],[1.626078,41.21559],[1.625995,41.21547],[1.625936,41.215418],[1.625921,41.215435],[1.625904,41.215451],[1.625893,41.215461],[1.625875,41.215473],[1.625854,41.215483],[1.625832,41.215495],[1.625802,41.215506],[1.625713,41.215537],[1.625624,41.215569],[1.625545,41.215598],[1.625471,41.215624],[1.62538,41.215584],[1.625245,41.215525],[1.625234,41.215517],[1.625105,41.215588],[1.62496,41.215641],[1.624668,41.215713],[1.624998,41.215903],[1.624958,41.215936],[1.624904,41.215984],[1.624896,41.215992],[1.62488,41.21601],[1.624861,41.216037],[1.624857,41.216046],[1.624328,41.215831],[1.624293,41.215867],[1.624248,41.215907],[1.624163,41.215974],[1.624079,41.216041],[1.624048,41.216064],[1.624586,41.216465],[1.624532,41.216498],[1.624473,41.216527],[1.624365,41.216574],[1.624317,41.216594],[1.624255,41.216619],[1.624239,41.216625],[1.623874,41.216194],[1.62386,41.216204],[1.623733,41.216289],[1.623608,41.216373],[1.623487,41.216454],[1.623481,41.216457],[1.623367,41.216507],[1.623275,41.216503],[1.623097,41.216495],[1.622915,41.216487],[1.622707,41.216478],[1.622688,41.216477],[1.622454,41.21648],[1.622289,41.216482],[1.622191,41.216479],[1.622161,41.21676],[1.622125,41.216757],[1.622076,41.216755],[1.622003,41.216756],[1.621944,41.21676],[1.62183,41.216426],[1.621524,41.216422],[1.621373,41.216451],[1.621147,41.216515],[1.621333,41.216799],[1.621481,41.21676],[1.621577,41.216934],[1.621561,41.216945],[1.621422,41.217037],[1.621418,41.217039],[1.621379,41.217063],[1.621335,41.217088],[1.621304,41.217103],[1.621271,41.217117],[1.621239,41.21713],[1.621205,41.217139],[1.621151,41.217146],[1.621097,41.21715],[1.621,41.217155],[1.620972,41.217156],[1.620714,41.216739],[1.620711,41.216733],[1.6207,41.21672],[1.620628,41.216744],[1.620505,41.216791],[1.620383,41.216836],[1.620246,41.216884],[1.620509,41.217151],[1.620252,41.217227],[1.620089,41.217332],[1.619999,41.217538],[1.619762,41.217483],[1.619689,41.217469],[1.619679,41.217488],[1.619624,41.217596],[1.619591,41.217654],[1.619568,41.217699],[1.619545,41.217743],[1.619518,41.217794],[1.619501,41.217831],[1.619492,41.217849],[1.61946,41.21792],[1.619376,41.218119],[1.619351,41.218161],[1.619321,41.218229],[1.619298,41.218279],[1.619278,41.218323],[1.619259,41.218372],[1.619232,41.218445],[1.619224,41.218466],[1.619211,41.218501],[1.619206,41.218512],[1.619194,41.218551],[1.619183,41.21859],[1.619176,41.218608],[1.619158,41.218659],[1.619154,41.218674],[1.619155,41.218762],[1.619155,41.218814],[1.619157,41.218861],[1.619157,41.218886],[1.619159,41.218951],[1.61916,41.219046],[1.61916,41.219088],[1.619163,41.219149],[1.619164,41.219188],[1.619165,41.219211],[1.619167,41.219214],[1.619186,41.219263],[1.619202,41.219303],[1.619235,41.219383],[1.619278,41.219487],[1.619336,41.21962],[1.619356,41.219662],[1.619364,41.219678],[1.619392,41.219736],[1.61943,41.219807],[1.619451,41.219845],[1.619469,41.219878],[1.619464,41.219879],[1.619527,41.219987],[1.619568,41.220054],[1.619574,41.220065],[1.619626,41.220138],[1.619698,41.220159],[1.619977,41.2208],[1.619984,41.220897],[1.619992,41.221007],[1.620044,41.221126],[1.620064,41.22117],[1.62011,41.221244],[1.620162,41.221306],[1.620248,41.221393],[1.620309,41.221457],[1.620375,41.221514],[1.620457,41.221582],[1.620554,41.221699],[1.620607,41.221769],[1.62067,41.221852],[1.620733,41.221917],[1.620813,41.222003],[1.620877,41.222066],[1.62095,41.222175],[1.620988,41.222235],[1.621036,41.22232],[1.621072,41.222429],[1.621091,41.222475],[1.621133,41.222539],[1.621154,41.222567],[1.621188,41.222603],[1.621226,41.222642],[1.621199,41.222661],[1.621267,41.222781],[1.621341,41.222905],[1.621364,41.223021],[1.621386,41.223136],[1.621391,41.223184],[1.621395,41.223231],[1.621403,41.223325],[1.621407,41.223362],[1.621417,41.22345],[1.621422,41.223495],[1.621428,41.22354],[1.621495,41.223629],[1.621564,41.22359],[1.622464,41.223078],[1.622491,41.223063],[1.622469,41.222991],[1.62246,41.222957],[1.622458,41.22295],[1.622434,41.222849],[1.62242,41.222769],[1.622418,41.222757]]],[[[1.631273,41.22399],[1.631275,41.223976],[1.63128,41.223982],[1.631346,41.223832],[1.631349,41.223824],[1.631345,41.223825],[1.631347,41.22382],[1.631363,41.223791],[1.631384,41.22374],[1.63142,41.223662],[1.631419,41.223655],[1.631438,41.22361],[1.631439,41.223607],[1.63153,41.223376],[1.631531,41.223371],[1.631534,41.223305],[1.631545,41.22309],[1.631545,41.223083],[1.631327,41.22307],[1.631258,41.223066],[1.631255,41.222979],[1.631238,41.222851],[1.631236,41.222822],[1.631236,41.222813],[1.631228,41.222716],[1.631226,41.222659],[1.631231,41.222604],[1.631231,41.222601],[1.631585,41.222576],[1.63159,41.222535],[1.631598,41.222535],[1.631603,41.222473],[1.631598,41.222472],[1.631613,41.222356],[1.631618,41.222327],[1.631652,41.222127],[1.631295,41.22203],[1.631297,41.222008],[1.631306,41.221898],[1.631203,41.221768],[1.630844,41.221627],[1.630512,41.221496],[1.630391,41.221464],[1.629927,41.221269],[1.62992,41.221267],[1.629848,41.221242],[1.629849,41.221225],[1.629811,41.221222],[1.629811,41.22123],[1.629679,41.221186],[1.629248,41.221037],[1.629179,41.221072],[1.629195,41.221101],[1.629215,41.221138],[1.629248,41.221206],[1.629274,41.221251],[1.629318,41.221321],[1.629365,41.221426],[1.629131,41.221384],[1.629027,41.221631],[1.628953,41.221806],[1.628891,41.221952],[1.62897,41.222148],[1.629047,41.222339],[1.629106,41.222485],[1.629118,41.222537],[1.629399,41.222526],[1.629393,41.222584],[1.629384,41.222681],[1.629375,41.222803],[1.629365,41.222923],[1.629353,41.222979],[1.629336,41.223037],[1.629307,41.223128],[1.629275,41.223219],[1.629225,41.223332],[1.629174,41.223447],[1.629138,41.223529],[1.629104,41.223608],[1.629077,41.223668],[1.62918,41.223687],[1.630364,41.223908],[1.630521,41.224163],[1.630542,41.224197],[1.630628,41.224167],[1.630929,41.224089],[1.631145,41.224031],[1.631273,41.22399]]]]}},{"type":"Feature","id":"430516_430516 AP05 BPE 2","properties":{"area_id":"430516_430516 AP05 BPE 2","nom":"Puigdetiula","codi_icgc":"430516 AP05 BPE 2","categoria":"Àrees de poblament","codi_municipi":"430516","municipi":"Cunit","codi_comarca":"12","comarca":"Baix Penedès","provincia":"Tarragona","font":"ICGC Àrees de poblament v3r1 202602"},"geometry":{"type":"MultiPolygon","coordinates":[[[[1.64219,41.224502],[1.641323,41.224311],[1.641211,41.224524],[1.641508,41.22479],[1.64171,41.224826],[1.64214,41.224797],[1.642285,41.22478],[1.642439,41.224643],[1.642516,41.224611],[1.642699,41.224613],[1.642831,41.224629],[1.642918,41.224382],[1.642602,41.224334],[1.642511,41.224549],[1.64219,41.224502]]]]}},{"type":"Feature","id":"430516_430516 AP04 BPE 2","properties":{"area_id":"430516_430516 AP04 BPE 2","nom":"la Gavina","codi_icgc":"430516 AP04 BPE 2","categoria":"Àrees de poblament","codi_municipi":"430516","municipi":"Cunit","codi_comarca":"12","comarca":"Baix Penedès","provincia":"Tarragona","font":"ICGC Àrees de poblament v3r1 202602"},"geometry":{"type":"MultiPolygon","coordinates":[[[[1.642033,41.200456],[1.642095,41.200162],[1.641143,41.201676],[1.6413,41.202464],[1.640984,41.202502],[1.641274,41.204113],[1.641315,41.203917],[1.642033,41.200456]]]]}}]}