{"type":"FeatureCollection","name":"ICGC Àrees de poblament - Gandesa","features":[{"type":"Feature","id":"430640_430640 AP01 TAL 3","properties":{"area_id":"430640_430640 AP01 TAL 3","nom":"Gandesa","codi_icgc":"430640 AP01 TAL 3","categoria":"Àrees de poblament","codi_municipi":"430640","municipi":"Gandesa","codi_comarca":"37","comarca":"Terra Alta","provincia":"Tarragona","font":"ICGC Àrees de poblament v3r1 202602"},"geometry":{"type":"MultiPolygon","coordinates":[[[[0.441589,41.059444],[0.441438,41.058911],[0.441321,41.058466],[0.441357,41.058478],[0.441402,41.058493],[0.441423,41.058496],[0.441442,41.058494],[0.441451,41.058487],[0.441451,41.058478],[0.441447,41.058464],[0.441415,41.05843],[0.44138,41.058406],[0.441346,41.058382],[0.44155,41.05837],[0.441565,41.058362],[0.441608,41.058358],[0.442195,41.058475],[0.442215,41.058478],[0.442225,41.05848],[0.442229,41.058477],[0.442246,41.058436],[0.442263,41.058395],[0.442302,41.058303],[0.442343,41.058162],[0.442364,41.058166],[0.442442,41.057962],[0.442243,41.057921],[0.44211,41.057899],[0.441447,41.057778],[0.441386,41.057767],[0.441384,41.057759],[0.441334,41.057589],[0.441304,41.057466],[0.441302,41.057456],[0.441355,41.057465],[0.441473,41.057491],[0.441591,41.057518],[0.441834,41.057572],[0.442076,41.057626],[0.442103,41.057576],[0.44213,41.057525],[0.442283,41.057564],[0.442286,41.057491],[0.442311,41.057335],[0.44227,41.057221],[0.442229,41.05712],[0.44222,41.05709],[0.442174,41.05704],[0.442156,41.057011],[0.442134,41.056977],[0.442108,41.056936],[0.442092,41.05691],[0.442067,41.056874],[0.442052,41.056852],[0.442,41.056776],[0.441987,41.056739],[0.441983,41.056738],[0.441926,41.056728],[0.441869,41.05672],[0.441809,41.056707],[0.441799,41.056703],[0.441672,41.056674],[0.441466,41.056639],[0.441446,41.056632],[0.441432,41.05662],[0.441421,41.056577],[0.44145,41.056573],[0.441509,41.056372],[0.441518,41.05634],[0.441537,41.056265],[0.441644,41.055878],[0.441728,41.055579],[0.441744,41.055504],[0.441512,41.055462],[0.441513,41.055435],[0.441568,41.055183],[0.44377,41.05564],[0.443918,41.055268],[0.442949,41.055086],[0.441678,41.054825],[0.441502,41.054793],[0.441465,41.054785],[0.440747,41.054651],[0.440721,41.054513],[0.440875,41.054465],[0.44096,41.054439],[0.44127,41.054405],[0.441303,41.054296],[0.441208,41.054278],[0.441019,41.054156],[0.441027,41.054104],[0.440954,41.054031],[0.440755,41.053986],[0.440777,41.053892],[0.440863,41.053563],[0.44093,41.053306],[0.440887,41.053258],[0.440887,41.053245],[0.441015,41.053263],[0.441811,41.053376],[0.443539,41.053735],[0.443557,41.053689],[0.443569,41.053652],[0.44401,41.053739],[0.444359,41.053811],[0.444482,41.053464],[0.443684,41.053294],[0.443794,41.052951],[0.443903,41.052643],[0.444629,41.052798],[0.444854,41.052844],[0.446696,41.05322],[0.446832,41.052851],[0.446974,41.052498],[0.446832,41.052463],[0.446352,41.052345],[0.446057,41.052278],[0.445908,41.052246],[0.44576,41.052214],[0.445731,41.052208],[0.445591,41.052179],[0.445343,41.052128],[0.444927,41.052043],[0.444854,41.052028],[0.444814,41.05202],[0.444851,41.051913],[0.444936,41.051629],[0.44411,41.051463],[0.443446,41.0513],[0.443441,41.051297],[0.443408,41.05128],[0.443382,41.051347],[0.443326,41.051474],[0.443274,41.051562],[0.443266,41.051574],[0.443243,41.051593],[0.443239,41.051593],[0.443216,41.051588],[0.443171,41.051578],[0.442834,41.051509],[0.442484,41.051436],[0.442482,41.051442],[0.442477,41.051442],[0.441883,41.051328],[0.441878,41.051327],[0.441798,41.051312],[0.441837,41.051181],[0.441869,41.051063],[0.442343,41.051125],[0.442438,41.050818],[0.442351,41.050805],[0.442346,41.050805],[0.441627,41.050704],[0.441622,41.050704],[0.44159,41.050698],[0.44164,41.050521],[0.442016,41.050376],[0.44288,41.050042],[0.443187,41.049917],[0.443851,41.049661],[0.444011,41.049608],[0.444127,41.049573],[0.444804,41.049312],[0.445113,41.049212],[0.445441,41.049085],[0.445493,41.049131],[0.445492,41.049132],[0.445493,41.049131],[0.445497,41.04913],[0.44553,41.049202],[0.445577,41.049266],[0.445495,41.049467],[0.446098,41.049589],[0.446107,41.049573],[0.446408,41.049056],[0.447019,41.049205],[0.447121,41.049229],[0.447225,41.049254],[0.447264,41.04921],[0.447554,41.048886],[0.447624,41.048704],[0.447666,41.048595],[0.447295,41.048498],[0.447183,41.048476],[0.447068,41.048453],[0.44691,41.048422],[0.446906,41.048423],[0.446905,41.048422],[0.446179,41.048235],[0.446186,41.048219],[0.445071,41.047892],[0.445063,41.047913],[0.444972,41.047887],[0.44493,41.047865],[0.444368,41.048235],[0.444368,41.048238],[0.444271,41.048294],[0.444235,41.048315],[0.444112,41.048383],[0.443989,41.048451],[0.443932,41.048478],[0.443842,41.048513],[0.443752,41.048551],[0.443692,41.048581],[0.443634,41.048612],[0.443564,41.048651],[0.443495,41.048691],[0.4434,41.04874],[0.443304,41.04879],[0.443265,41.048813],[0.443211,41.048851],[0.443158,41.048889],[0.443107,41.048929],[0.443055,41.048967],[0.442978,41.049011],[0.4429,41.049054],[0.442859,41.049077],[0.442803,41.049111],[0.44275,41.049153],[0.442684,41.049209],[0.442619,41.049265],[0.442518,41.049347],[0.442424,41.049424],[0.442416,41.04943],[0.442227,41.049595],[0.442126,41.049693],[0.442025,41.049791],[0.44191,41.049895],[0.441814,41.04998],[0.441792,41.049999],[0.441705,41.050076],[0.441618,41.050152],[0.441538,41.050222],[0.441519,41.050239],[0.4415,41.050256],[0.441302,41.050394],[0.441107,41.050565],[0.441066,41.05056],[0.441061,41.05056],[0.440927,41.050539],[0.440923,41.050539],[0.440788,41.050518],[0.440784,41.050517],[0.440531,41.050473],[0.440462,41.05046],[0.440445,41.050453],[0.440412,41.050413],[0.440404,41.050393],[0.440405,41.050373],[0.44042,41.05033],[0.440433,41.050294],[0.440429,41.050294],[0.440347,41.050289],[0.440307,41.050287],[0.440303,41.050286],[0.440135,41.050278],[0.440127,41.050359],[0.440122,41.050389],[0.440118,41.050389],[0.440093,41.050386],[0.440079,41.050454],[0.440074,41.050453],[0.439819,41.050421],[0.439791,41.0505],[0.439777,41.050562],[0.439773,41.050581],[0.439768,41.05058],[0.43973,41.050586],[0.439725,41.050586],[0.439711,41.050584],[0.439706,41.050584],[0.439323,41.050529],[0.439319,41.050529],[0.439276,41.050523],[0.439196,41.050513],[0.439192,41.050512],[0.439181,41.050511],[0.439177,41.05051],[0.439167,41.050509],[0.439162,41.050508],[0.438818,41.050459],[0.438813,41.050459],[0.438798,41.050456],[0.438798,41.05041],[0.438939,41.050088],[0.438998,41.050079],[0.438998,41.050056],[0.439018,41.050041],[0.43891,41.050036],[0.43875,41.050017],[0.437566,41.049933],[0.437557,41.050319],[0.437512,41.050315],[0.436973,41.050263],[0.436978,41.050236],[0.437031,41.049943],[0.437046,41.049863],[0.437041,41.049863],[0.436946,41.049859],[0.436433,41.049842],[0.436429,41.049842],[0.436348,41.049852],[0.436369,41.04992],[0.436439,41.050143],[0.43646,41.050211],[0.436456,41.050211],[0.436362,41.050215],[0.436207,41.05022],[0.436176,41.050221],[0.435158,41.050254],[0.435154,41.050253],[0.435029,41.050232],[0.435025,41.050234],[0.434972,41.050205],[0.433712,41.050332],[0.433676,41.050334],[0.433661,41.050335],[0.433663,41.050353],[0.433681,41.050536],[0.433702,41.050741],[0.433714,41.050853],[0.433726,41.050966],[0.433728,41.051012],[0.433729,41.051058],[0.433733,41.051089],[0.433733,41.051133],[0.433722,41.051153],[0.433733,41.051241],[0.433798,41.051748],[0.434399,41.051682],[0.434911,41.051638],[0.434987,41.051634],[0.434985,41.051653],[0.434987,41.051698],[0.434988,41.051731],[0.434989,41.051752],[0.43502,41.051773],[0.435445,41.052028],[0.435438,41.052034],[0.435385,41.052081],[0.435339,41.052131],[0.435318,41.052159],[0.435417,41.052193],[0.435603,41.052241],[0.435549,41.052386],[0.435634,41.05251],[0.43553,41.052868],[0.435555,41.05291],[0.435232,41.052993],[0.435246,41.05313],[0.435545,41.053204],[0.435524,41.053229],[0.435501,41.053263],[0.43548,41.053312],[0.435466,41.053362],[0.435455,41.053411],[0.43545,41.053461],[0.435098,41.053462],[0.435118,41.053599],[0.435158,41.053638],[0.435197,41.053676],[0.435219,41.053697],[0.435221,41.053761],[0.435222,41.053784],[0.434915,41.053794],[0.434802,41.053782],[0.434802,41.052481],[0.433853,41.052613],[0.433113,41.052701],[0.433068,41.052562],[0.433017,41.052413],[0.432367,41.052465],[0.432422,41.052814],[0.432927,41.052773],[0.433009,41.052789],[0.433009,41.053118],[0.432998,41.053385],[0.432957,41.053465],[0.43247,41.053521],[0.432575,41.053914],[0.431812,41.053935],[0.431207,41.053955],[0.431466,41.054742],[0.431687,41.054714],[0.432459,41.054617],[0.43339,41.054485],[0.434137,41.054373],[0.434765,41.054268],[0.434918,41.054205],[0.434943,41.054204],[0.434982,41.054208],[0.43507,41.054221],[0.435188,41.054245],[0.435225,41.054254],[0.435265,41.054263],[0.4353,41.054265],[0.435333,41.054265],[0.435396,41.054265],[0.435512,41.054276],[0.435628,41.054288],[0.435703,41.054296],[0.435777,41.054308],[0.43584,41.054322],[0.435867,41.054339],[0.435873,41.054386],[0.43588,41.054444],[0.435904,41.054621],[0.435932,41.054798],[0.435953,41.054929],[0.435975,41.055059],[0.435982,41.055088],[0.435991,41.055119],[0.436006,41.05514],[0.436028,41.055156],[0.436073,41.055176],[0.436124,41.055185],[0.436172,41.055184],[0.436302,41.05517],[0.436429,41.055154],[0.436537,41.055154],[0.43669,41.055127],[0.436706,41.055123],[0.436766,41.055109],[0.436845,41.0551],[0.436858,41.055099],[0.436862,41.0551],[0.436868,41.055101],[0.436872,41.055104],[0.436876,41.055107],[0.43688,41.05511],[0.436882,41.055114],[0.436884,41.05512],[0.43689,41.055144],[0.436892,41.055152],[0.436914,41.055188],[0.436942,41.055231],[0.436963,41.055326],[0.43698,41.055423],[0.436989,41.055483],[0.436996,41.055544],[0.437,41.05558],[0.436997,41.055617],[0.437001,41.055675],[0.437004,41.055733],[0.437013,41.055821],[0.437028,41.055908],[0.437029,41.055911],[0.437131,41.056084],[0.437176,41.056109],[0.43725,41.056145],[0.437329,41.056174],[0.437428,41.056206],[0.437512,41.056232],[0.437528,41.056236],[0.437626,41.056264],[0.437724,41.056291],[0.437783,41.056311],[0.43784,41.056337],[0.43786,41.05635],[0.43788,41.056374],[0.438834,41.056364],[0.43885,41.056448],[0.438796,41.056438],[0.438775,41.056486],[0.43878,41.056487],[0.438782,41.05653],[0.438785,41.056579],[0.438843,41.05658],[0.438848,41.05658],[0.438898,41.056779],[0.438918,41.05686],[0.438817,41.056862],[0.438478,41.05687],[0.438406,41.056872],[0.438354,41.056878],[0.438295,41.056905],[0.43807,41.057064],[0.437842,41.057257],[0.437922,41.057273],[0.437705,41.0576],[0.437642,41.057779],[0.437604,41.057884],[0.438247,41.058034],[0.438361,41.05806],[0.438288,41.058253],[0.438835,41.058361],[0.438836,41.058388],[0.438815,41.05843],[0.438802,41.058444],[0.438786,41.058462],[0.438573,41.058714],[0.438513,41.058785],[0.43859,41.058816],[0.438663,41.058844],[0.438716,41.05885],[0.43877,41.058856],[0.43884,41.058864],[0.438944,41.058881],[0.438995,41.058892],[0.439054,41.05891],[0.439078,41.058918],[0.439117,41.058931],[0.439157,41.058944],[0.439235,41.058971],[0.439372,41.058992],[0.439407,41.059247],[0.439392,41.059256],[0.439459,41.059339],[0.439547,41.059333],[0.439552,41.059332],[0.439778,41.059317],[0.439866,41.059312],[0.439871,41.059401],[0.44028,41.059387],[0.440275,41.059464],[0.440486,41.059505],[0.440722,41.059556],[0.441589,41.059444]]]]}},{"type":"Feature","id":"430640_430640 SI01 TAL 2","properties":{"area_id":"430640_430640 SI01 TAL 2","nom":"Polígon industrial La Plana","codi_icgc":"430640 SI01 TAL 2","categoria":"Sector industrial","codi_municipi":"430640","municipi":"Gandesa","codi_comarca":"37","comarca":"Terra Alta","provincia":"Tarragona","font":"ICGC Àrees de poblament v3r1 202602"},"geometry":{"type":"MultiPolygon","coordinates":[[[[0.451038,41.052593],[0.451171,41.05232],[0.451177,41.052309],[0.451306,41.052069],[0.451252,41.052064],[0.451225,41.052062],[0.450987,41.052008],[0.450792,41.051955],[0.450578,41.051881],[0.450569,41.05186],[0.450533,41.051823],[0.450396,41.051788],[0.450457,41.051679],[0.449072,41.051128],[0.449125,41.050651],[0.447488,41.050304],[0.447168,41.051079],[0.447043,41.051051],[0.446913,41.051024],[0.446871,41.051016],[0.446851,41.051066],[0.446803,41.051195],[0.446776,41.05127],[0.446731,41.051417],[0.446713,41.0515],[0.446702,41.051583],[0.446693,41.051707],[0.446683,41.051831],[0.446675,41.051877],[0.44666,41.051923],[0.446646,41.051952],[0.4466,41.052021],[0.446548,41.052089],[0.446481,41.052169],[0.446391,41.052246],[0.446472,41.052254],[0.446521,41.052266],[0.446598,41.052284],[0.44684,41.052344],[0.446949,41.05237],[0.447081,41.052403],[0.447313,41.052456],[0.44735,41.052465],[0.447515,41.052503],[0.447493,41.05262],[0.447043,41.053687],[0.447623,41.053801],[0.448273,41.053931],[0.448262,41.054056],[0.448161,41.054313],[0.448079,41.054509],[0.448064,41.054557],[0.448118,41.054571],[0.448212,41.054589],[0.448308,41.054604],[0.448381,41.054616],[0.448454,41.054629],[0.448517,41.054645],[0.448606,41.054675],[0.448696,41.054705],[0.448764,41.054724],[0.448868,41.05475],[0.448974,41.054774],[0.449037,41.054786],[0.449061,41.05479],[0.449092,41.054794],[0.449112,41.054791],[0.449135,41.054783],[0.449153,41.05477],[0.449239,41.054726],[0.449269,41.054637],[0.449286,41.054561],[0.449322,41.054407],[0.449321,41.054269],[0.44932,41.0541],[0.449343,41.054041],[0.449402,41.053928],[0.449483,41.053799],[0.449593,41.05363],[0.450359,41.053855],[0.450362,41.053857],[0.450423,41.053865],[0.450444,41.053859],[0.450551,41.053891],[0.45062,41.053915],[0.450719,41.053951],[0.450754,41.053968],[0.451138,41.054091],[0.451377,41.053629],[0.452812,41.054064],[0.453675,41.054302],[0.454044,41.054405],[0.45396,41.05455],[0.454189,41.054626],[0.454022,41.054847],[0.454015,41.0549],[0.454051,41.054939],[0.454225,41.055011],[0.454279,41.05503],[0.45434,41.055025],[0.454376,41.055003],[0.454412,41.054974],[0.454459,41.054866],[0.454523,41.054717],[0.454633,41.054458],[0.454766,41.054447],[0.45507,41.054317],[0.455212,41.054233],[0.455308,41.054167],[0.455377,41.054066],[0.455379,41.054062],[0.455038,41.053956],[0.454819,41.053885],[0.454718,41.053852],[0.454715,41.053851],[0.454531,41.05379],[0.454051,41.053631],[0.453135,41.053325],[0.453345,41.053032],[0.452762,41.0528],[0.451947,41.052563],[0.451808,41.052811],[0.451038,41.052593]]]]}}]}