{"type":"FeatureCollection","name":"ICGC Àrees de poblament - Mas de Barberans","features":[{"type":"Feature","id":"430770_430770 AP01 MON 3","properties":{"area_id":"430770_430770 AP01 MON 3","nom":"Mas de Barberans","codi_icgc":"430770 AP01 MON 3","categoria":"Àrees de poblament","codi_municipi":"430770","municipi":"Mas de Barberans","codi_comarca":"22","comarca":"Montsià","provincia":"Tarragona","font":"ICGC Àrees de poblament v3r1 202602"},"geometry":{"type":"MultiPolygon","coordinates":[[[[0.368615,40.732094],[0.368572,40.732096],[0.368535,40.732085],[0.368472,40.732026],[0.368403,40.731971],[0.368369,40.731898],[0.368363,40.731802],[0.368393,40.731634],[0.368414,40.731463],[0.368402,40.731399],[0.368361,40.731373],[0.368311,40.731339],[0.368245,40.731334],[0.368184,40.731333],[0.368145,40.731364],[0.367987,40.731352],[0.367926,40.731872],[0.367885,40.73188],[0.367723,40.731941],[0.36776,40.732681],[0.367945,40.732673],[0.367971,40.732635],[0.368005,40.732577],[0.368101,40.732538],[0.368215,40.7325],[0.368293,40.732497],[0.368365,40.732518],[0.368463,40.732573],[0.368793,40.732942],[0.368596,40.733081],[0.368594,40.733138],[0.368848,40.733366],[0.368931,40.733315],[0.369035,40.733398],[0.369134,40.733424],[0.369228,40.733262],[0.369311,40.733309],[0.369434,40.73335],[0.369647,40.733443],[0.369755,40.733493],[0.369867,40.733422],[0.369996,40.733494],[0.370128,40.733566],[0.37013,40.733588],[0.3703,40.733811],[0.37034,40.733828],[0.370375,40.733889],[0.370412,40.73399],[0.370455,40.734077],[0.370504,40.734104],[0.370543,40.734116],[0.370543,40.734123],[0.370569,40.734124],[0.37068,40.734119],[0.370775,40.734106],[0.37086,40.734078],[0.371042,40.733998],[0.371176,40.733936],[0.371259,40.733906],[0.371347,40.733889],[0.371433,40.733886],[0.371491,40.733889],[0.371631,40.733917],[0.371755,40.733947],[0.371872,40.733977],[0.372027,40.734025],[0.372132,40.734033],[0.372199,40.734034],[0.372202,40.733957],[0.372294,40.733894],[0.372331,40.733865],[0.372395,40.733914],[0.372463,40.733993],[0.372541,40.734087],[0.372654,40.734316],[0.372771,40.734518],[0.372912,40.734721],[0.372996,40.734976],[0.37305,40.735085],[0.373137,40.73524],[0.373099,40.735259],[0.373162,40.735341],[0.373374,40.735255],[0.373451,40.735353],[0.37353,40.735334],[0.373618,40.735473],[0.373638,40.735504],[0.373721,40.735721],[0.373801,40.735927],[0.373799,40.735957],[0.373777,40.736028],[0.373743,40.736089],[0.373632,40.736617],[0.373616,40.736721],[0.37355,40.736827],[0.373493,40.736882],[0.373515,40.736918],[0.373645,40.736981],[0.373696,40.736991],[0.37375,40.737013],[0.373787,40.737056],[0.373813,40.737095],[0.373871,40.737114],[0.373981,40.737102],[0.374032,40.737109],[0.374089,40.737146],[0.374123,40.737194],[0.37414,40.737239],[0.374186,40.737282],[0.374245,40.737277],[0.374325,40.73722],[0.374361,40.737107],[0.374397,40.73678],[0.374494,40.736419],[0.374635,40.736414],[0.374696,40.736367],[0.374699,40.736308],[0.374722,40.736199],[0.374731,40.736115],[0.374996,40.736064],[0.374999,40.736007],[0.374976,40.735954],[0.374917,40.735922],[0.374846,40.735904],[0.374819,40.735886],[0.374826,40.735767],[0.374835,40.735632],[0.37482,40.735534],[0.374788,40.735466],[0.374741,40.735386],[0.374715,40.735321],[0.374708,40.735286],[0.374721,40.73525],[0.374717,40.7352],[0.374693,40.735168],[0.374653,40.735146],[0.374563,40.735125],[0.374502,40.735102],[0.374465,40.735077],[0.374379,40.734961],[0.374333,40.734862],[0.374212,40.734667],[0.374143,40.734572],[0.374072,40.734482],[0.374012,40.734419],[0.373986,40.734359],[0.374092,40.734285],[0.374216,40.734233],[0.374416,40.734407],[0.374549,40.734541],[0.374696,40.734549],[0.374742,40.734729],[0.374961,40.734667],[0.37494,40.734621],[0.374969,40.734615],[0.375057,40.734617],[0.375117,40.734599],[0.375181,40.73455],[0.375268,40.734331],[0.375266,40.734297],[0.37524,40.734259],[0.374946,40.733933],[0.374915,40.733906],[0.374884,40.733895],[0.374838,40.733892],[0.374735,40.733937],[0.374604,40.734022],[0.374558,40.73399],[0.374295,40.733818],[0.374187,40.733701],[0.374086,40.733567],[0.373912,40.733616],[0.373655,40.733763],[0.373624,40.733757],[0.373603,40.733745],[0.373537,40.733581],[0.373468,40.733346],[0.373397,40.733085],[0.373324,40.732871],[0.37329,40.732784],[0.373248,40.732738],[0.373178,40.732665],[0.373026,40.732559],[0.372949,40.732517],[0.37284,40.732502],[0.372578,40.73247],[0.372431,40.732467],[0.372093,40.732469],[0.372161,40.732656],[0.372282,40.732661],[0.372322,40.732681],[0.372379,40.732752],[0.372408,40.732807],[0.372406,40.732879],[0.372376,40.732911],[0.372303,40.732929],[0.372272,40.733097],[0.372251,40.73314],[0.372145,40.733135],[0.371963,40.73314],[0.371772,40.733141],[0.371587,40.733141],[0.371383,40.733156],[0.3714,40.733263],[0.37142,40.73333],[0.371126,40.733381],[0.371116,40.733402],[0.371002,40.733447],[0.370856,40.733493],[0.370833,40.733642],[0.370874,40.733707],[0.370716,40.733735],[0.370632,40.733735],[0.370563,40.733722],[0.370471,40.733686],[0.370549,40.733621],[0.37038,40.73345],[0.370233,40.73329],[0.370122,40.733166],[0.370076,40.73312],[0.369966,40.733176],[0.369943,40.733157],[0.369724,40.732974],[0.369683,40.732954],[0.369524,40.733057],[0.369429,40.733009],[0.369283,40.732913],[0.369185,40.732854],[0.369128,40.732783],[0.369201,40.732747],[0.369104,40.732594],[0.369087,40.732561],[0.369149,40.732538],[0.369148,40.732518],[0.369103,40.732419],[0.369058,40.732293],[0.36906,40.73227],[0.369062,40.732238],[0.369019,40.732216],[0.369007,40.732184],[0.368973,40.732153],[0.368896,40.732094],[0.368798,40.732062],[0.368704,40.732051],[0.368663,40.732059],[0.368625,40.732071],[0.368623,40.732093],[0.368615,40.732094]]]]}},{"type":"Feature","id":"430770_430770 AP02 MON 2","properties":{"area_id":"430770_430770 AP02 MON 2","nom":"el Carrascal","codi_icgc":"430770 AP02 MON 2","categoria":"Àrees de poblament","codi_municipi":"430770","municipi":"Mas de Barberans","codi_comarca":"22","comarca":"Montsià","provincia":"Tarragona","font":"ICGC Àrees de poblament v3r1 202602"},"geometry":{"type":"MultiPolygon","coordinates":[[[[0.33598,40.695169],[0.336059,40.695122],[0.336081,40.695144],[0.336116,40.695124],[0.336144,40.695074],[0.336192,40.695055],[0.336149,40.694993],[0.336101,40.695012],[0.336074,40.694987],[0.336048,40.694961],[0.335983,40.6949],[0.335918,40.69484],[0.335905,40.69482],[0.335897,40.694799],[0.335895,40.694785],[0.335897,40.69477],[0.335902,40.694737],[0.3359,40.694713],[0.33589,40.69469],[0.335877,40.694667],[0.335864,40.694653],[0.335842,40.694639],[0.335767,40.69461],[0.335693,40.694582],[0.335573,40.694536],[0.335453,40.694491],[0.335427,40.69448],[0.335402,40.694502],[0.335369,40.694542],[0.335347,40.694532],[0.335258,40.694491],[0.335168,40.694449],[0.335091,40.694413],[0.335032,40.694436],[0.33493,40.694468],[0.334916,40.694471],[0.334904,40.694475],[0.334896,40.69448],[0.334892,40.694487],[0.33489,40.694499],[0.334894,40.69451],[0.33492,40.694532],[0.334946,40.694555],[0.33496,40.694568],[0.334973,40.694582],[0.335087,40.69464],[0.335163,40.69468],[0.335271,40.694719],[0.335242,40.694759],[0.335319,40.694779],[0.33527,40.694826],[0.335366,40.694883],[0.33544,40.694927],[0.335507,40.694861],[0.335535,40.694879],[0.33554,40.694889],[0.335545,40.694899],[0.335552,40.694908],[0.335561,40.694915],[0.33558,40.694924],[0.335601,40.69493],[0.335612,40.694937],[0.335622,40.694948],[0.33563,40.694961],[0.335646,40.694984],[0.335661,40.694997],[0.335678,40.695007],[0.335688,40.69501],[0.335699,40.695008],[0.335713,40.695004],[0.335725,40.694996],[0.335741,40.694979],[0.335757,40.69496],[0.335908,40.695109],[0.335916,40.695105],[0.33598,40.695169]]]]}}]}