{"type":"FeatureCollection","name":"ICGC Àrees de poblament - Móra la Nova","features":[{"type":"Feature","id":"430944_430944 SI03 REB 2","properties":{"area_id":"430944_430944 SI03 REB 2","nom":"Manuel Vilaseca SA","codi_icgc":"430944 SI03 REB 2","categoria":"Sector industrial","codi_municipi":"430944","municipi":"Móra la Nova","codi_comarca":"30","comarca":"Ribera d'Ebre","provincia":"Tarragona","font":"ICGC Àrees de poblament v3r1 202602"},"geometry":{"type":"MultiPolygon","coordinates":[[[[0.645519,41.110057],[0.645195,41.110101],[0.645192,41.110176],[0.644852,41.110196],[0.644825,41.110111],[0.644822,41.110056],[0.644673,41.110067],[0.644702,41.110207],[0.644597,41.110223],[0.644577,41.110645],[0.644037,41.110534],[0.643986,41.110564],[0.643892,41.110617],[0.643851,41.110641],[0.643807,41.110665],[0.64379,41.110668],[0.643773,41.110668],[0.643742,41.110667],[0.643711,41.110663],[0.643652,41.110653],[0.643593,41.110641],[0.643528,41.110624],[0.643463,41.110608],[0.643396,41.110593],[0.643328,41.110577],[0.643299,41.110569],[0.643273,41.110556],[0.643257,41.110545],[0.643234,41.110522],[0.643218,41.110497],[0.643201,41.11047],[0.643188,41.110443],[0.643181,41.110414],[0.643173,41.110385],[0.643165,41.110364],[0.643156,41.110343],[0.64314,41.11031],[0.643123,41.110277],[0.643117,41.110267],[0.64311,41.110258],[0.643099,41.11025],[0.643084,41.110247],[0.64306,41.110246],[0.643035,41.110244],[0.64301,41.110244],[0.642988,41.110243],[0.642986,41.110243],[0.642972,41.11024],[0.642959,41.110235],[0.642935,41.11022],[0.642908,41.110201],[0.642882,41.110182],[0.642851,41.110156],[0.642823,41.110128],[0.642813,41.110115],[0.642779,41.110129],[0.642647,41.110184],[0.642647,41.110191],[0.642644,41.110217],[0.642616,41.110538],[0.642612,41.110608],[0.642558,41.110682],[0.642526,41.110709],[0.642396,41.110718],[0.642381,41.111004],[0.64239,41.111022],[0.642412,41.111044],[0.642719,41.111066],[0.642713,41.110975],[0.643204,41.111014],[0.64318,41.111228],[0.643059,41.111236],[0.64262,41.111222],[0.642605,41.111442],[0.642698,41.111449],[0.643329,41.111477],[0.644164,41.111521],[0.6452,41.111561],[0.646279,41.1116],[0.64655,41.11161],[0.646566,41.111359],[0.646509,41.111357],[0.646552,41.110868],[0.64664,41.11087],[0.646648,41.110732],[0.646649,41.110623],[0.646658,41.11054],[0.646258,41.11048],[0.64647,41.11002],[0.646079,41.109983],[0.646053,41.109859],[0.646045,41.10982],[0.645959,41.109816],[0.645905,41.109812],[0.645912,41.109772],[0.645646,41.109707],[0.645614,41.109796],[0.645519,41.110057]]]]}},{"type":"Feature","id":"430944_430944 AP02 REB 2","properties":{"area_id":"430944_430944 AP02 REB 2","nom":"Móra Residencial","codi_icgc":"430944 AP02 REB 2","categoria":"Àrees de poblament","codi_municipi":"430944","municipi":"Móra la Nova","codi_comarca":"30","comarca":"Ribera d'Ebre","provincia":"Tarragona","font":"ICGC Àrees de poblament v3r1 202602"},"geometry":{"type":"MultiPolygon","coordinates":[[[[0.656662,41.106395],[0.656832,41.106472],[0.657021,41.106335],[0.657154,41.106389],[0.657341,41.106271],[0.657439,41.106346],[0.657826,41.106137],[0.657912,41.106177],[0.658068,41.106048],[0.658246,41.106193],[0.658277,41.106219],[0.658393,41.106315],[0.658645,41.10615],[0.658627,41.106137],[0.658613,41.106127],[0.658538,41.106075],[0.658411,41.105987],[0.658257,41.105888],[0.658103,41.105781],[0.658076,41.105763],[0.658033,41.105739],[0.658002,41.105701],[0.657997,41.105694],[0.657989,41.10568],[0.657974,41.105661],[0.657955,41.10564],[0.657931,41.10562],[0.657905,41.105605],[0.65788,41.105595],[0.657835,41.105579],[0.657811,41.105568],[0.657768,41.10554],[0.657763,41.105535],[0.657758,41.10553],[0.657758,41.10552],[0.657763,41.105513],[0.657771,41.105511],[0.657783,41.105509],[0.657794,41.105507],[0.657998,41.105511],[0.658162,41.105512],[0.658217,41.105449],[0.658253,41.105406],[0.658477,41.105177],[0.658252,41.105054],[0.658066,41.104961],[0.657871,41.104863],[0.657866,41.104867],[0.657411,41.105335],[0.657312,41.105391],[0.657228,41.105371],[0.657251,41.105333],[0.656923,41.105172],[0.656137,41.104787],[0.656286,41.104593],[0.655798,41.104349],[0.655616,41.104636],[0.65564,41.104645],[0.655619,41.104678],[0.655584,41.104666],[0.655533,41.10475],[0.655482,41.104849],[0.655448,41.104853],[0.655329,41.104805],[0.655186,41.105004],[0.655491,41.105122],[0.655433,41.105194],[0.655292,41.105366],[0.655207,41.105471],[0.655082,41.105625],[0.65502,41.105701],[0.65517,41.105781],[0.655276,41.105811],[0.655293,41.105816],[0.65541,41.105859],[0.655386,41.105887],[0.655761,41.106017],[0.65577,41.106018],[0.655801,41.106022],[0.655841,41.106027],[0.655865,41.106032],[0.655898,41.106046],[0.655928,41.106064],[0.655996,41.106114],[0.656026,41.106136],[0.656065,41.106164],[0.656319,41.106281],[0.656415,41.106326],[0.656662,41.106395]]]]}},{"type":"Feature","id":"430944_430944 AP01 REB 3","properties":{"area_id":"430944_430944 AP01 REB 3","nom":"Móra la Nova","codi_icgc":"430944 AP01 REB 3","categoria":"Àrees de poblament","codi_municipi":"430944","municipi":"Móra la Nova","codi_comarca":"30","comarca":"Ribera d'Ebre","provincia":"Tarragona","font":"ICGC Àrees de poblament v3r1 202602"},"geometry":{"type":"MultiPolygon","coordinates":[[[[0.648951,41.104806],[0.649066,41.104587],[0.649462,41.104728],[0.649685,41.104672],[0.649779,41.104665],[0.649892,41.10459],[0.6499,41.104503],[0.649917,41.104403],[0.649765,41.104358],[0.649765,41.104357],[0.649659,41.104324],[0.649487,41.104268],[0.649094,41.104135],[0.648947,41.104085],[0.648902,41.104067],[0.64889,41.104057],[0.648888,41.104045],[0.648895,41.104028],[0.648964,41.103913],[0.648996,41.10386],[0.649044,41.103779],[0.649087,41.1037],[0.649081,41.103698],[0.649255,41.103369],[0.649344,41.103201],[0.649412,41.103005],[0.649486,41.102794],[0.649527,41.102619],[0.649587,41.102346],[0.649594,41.102302],[0.649629,41.102205],[0.649677,41.101883],[0.649708,41.10164],[0.649726,41.101539],[0.649734,41.101511],[0.649745,41.101485],[0.649772,41.101433],[0.649808,41.101371],[0.649844,41.101309],[0.649953,41.101464],[0.65026,41.101366],[0.650388,41.101532],[0.65042,41.101515],[0.650564,41.101679],[0.650784,41.101922],[0.650624,41.10199],[0.650475,41.10207],[0.650702,41.102339],[0.650686,41.102413],[0.650463,41.102983],[0.650372,41.103215],[0.650094,41.103954],[0.650192,41.103978],[0.650532,41.104063],[0.650566,41.104106],[0.650264,41.104323],[0.650289,41.104343],[0.650374,41.104416],[0.650541,41.104549],[0.651235,41.10406],[0.651071,41.103926],[0.65123,41.103804],[0.651587,41.103887],[0.651872,41.103675],[0.652271,41.103388],[0.652295,41.103393],[0.652313,41.103397],[0.652444,41.103423],[0.652616,41.103458],[0.652611,41.103476],[0.652784,41.103516],[0.65281,41.103522],[0.652827,41.103539],[0.652834,41.10355],[0.652838,41.103565],[0.652845,41.103576],[0.652885,41.10361],[0.652924,41.103639],[0.653013,41.103708],[0.653103,41.103776],[0.653185,41.103832],[0.653267,41.103886],[0.653377,41.103967],[0.653431,41.104009],[0.653488,41.104049],[0.65358,41.10411],[0.653672,41.104171],[0.65372,41.10414],[0.653837,41.104215],[0.65404,41.104341],[0.653986,41.10441],[0.653935,41.104476],[0.653963,41.104483],[0.654043,41.104504],[0.654077,41.104464],[0.654205,41.104512],[0.65444,41.104599],[0.654576,41.10442],[0.65461,41.104386],[0.654798,41.104491],[0.654892,41.104394],[0.655043,41.104215],[0.655128,41.104113],[0.654595,41.103864],[0.654523,41.103937],[0.654109,41.103719],[0.654329,41.103508],[0.654377,41.103485],[0.654547,41.103526],[0.654843,41.103596],[0.654898,41.10352],[0.65498,41.103514],[0.654979,41.103509],[0.654981,41.103497],[0.654985,41.103484],[0.65499,41.103471],[0.655002,41.103445],[0.655017,41.10342],[0.655046,41.103373],[0.655075,41.103326],[0.655097,41.103284],[0.655112,41.103241],[0.655119,41.103211],[0.655118,41.103174],[0.655113,41.103136],[0.655108,41.10311],[0.655096,41.103041],[0.655151,41.102902],[0.655305,41.102636],[0.655216,41.102608],[0.655019,41.102546],[0.654943,41.102446],[0.655173,41.102056],[0.654874,41.102103],[0.654167,41.102296],[0.654135,41.10229],[0.654121,41.102272],[0.654106,41.102253],[0.654035,41.102161],[0.653956,41.102029],[0.653941,41.102026],[0.65393,41.102019],[0.653867,41.101932],[0.653871,41.101909],[0.653874,41.101888],[0.653876,41.101881],[0.653895,41.101815],[0.654248,41.101709],[0.654573,41.101642],[0.654729,41.101607],[0.655506,41.101502],[0.655616,41.101495],[0.655646,41.101443],[0.65567,41.101403],[0.655686,41.101376],[0.655717,41.101324],[0.655748,41.101272],[0.655767,41.101216],[0.655795,41.101146],[0.655908,41.100804],[0.655941,41.100717],[0.655945,41.100677],[0.655921,41.100658],[0.655884,41.100636],[0.65599,41.100402],[0.656043,41.100277],[0.655877,41.100247],[0.65562,41.1002],[0.655347,41.100146],[0.655191,41.100118],[0.655053,41.100087],[0.654975,41.100064],[0.654573,41.099939],[0.65428,41.099866],[0.654047,41.099799],[0.653767,41.099743],[0.653496,41.099697],[0.653318,41.099671],[0.653155,41.099665],[0.653111,41.099663],[0.652941,41.099661],[0.652758,41.099661],[0.652732,41.099662],[0.652606,41.09967],[0.652415,41.099725],[0.65221,41.099784],[0.65203,41.099847],[0.651879,41.099917],[0.651763,41.099972],[0.651679,41.100029],[0.651661,41.100042],[0.651648,41.100052],[0.651593,41.100057],[0.651545,41.100052],[0.65151,41.100006],[0.651511,41.099998],[0.651591,41.099959],[0.651662,41.09987],[0.651986,41.099665],[0.652288,41.099499],[0.652945,41.099463],[0.653222,41.099448],[0.653516,41.099511],[0.653776,41.099527],[0.65376,41.099489],[0.653747,41.099457],[0.653725,41.099428],[0.653727,41.099425],[0.653712,41.099417],[0.653697,41.099403],[0.653664,41.099381],[0.653626,41.099364],[0.653609,41.099359],[0.653718,41.099366],[0.654021,41.099398],[0.654608,41.099548],[0.654738,41.099241],[0.655034,41.099413],[0.656109,41.099465],[0.656133,41.099271],[0.656148,41.099106],[0.656157,41.098982],[0.656189,41.098629],[0.656222,41.098383],[0.656255,41.098086],[0.656265,41.098042],[0.656182,41.098033],[0.655908,41.098001],[0.655725,41.097982],[0.655532,41.097965],[0.65534,41.097946],[0.655164,41.097926],[0.655069,41.09791],[0.655003,41.097892],[0.654967,41.09788],[0.65493,41.097861],[0.655189,41.097878],[0.655198,41.097797],[0.655144,41.097794],[0.65515,41.097738],[0.655079,41.097734],[0.654929,41.097728],[0.655075,41.097426],[0.655165,41.097241],[0.654879,41.097194],[0.654982,41.096898],[0.65503,41.096758],[0.655092,41.096583],[0.655214,41.096243],[0.655175,41.096231],[0.655116,41.096211],[0.655101,41.096205],[0.654539,41.095971],[0.654523,41.095964],[0.654251,41.09585],[0.654143,41.095878],[0.654133,41.095936],[0.654123,41.095993],[0.654103,41.096108],[0.654083,41.096223],[0.654072,41.096285],[0.654039,41.096315],[0.654017,41.096331],[0.653592,41.096263],[0.65359,41.096285],[0.653588,41.096301],[0.653586,41.096326],[0.653569,41.096416],[0.653523,41.096658],[0.653492,41.096888],[0.65346,41.097133],[0.65342,41.097428],[0.653382,41.097427],[0.653375,41.097551],[0.653068,41.097544],[0.653057,41.097641],[0.652918,41.097637],[0.652185,41.097631],[0.65212,41.097635],[0.652038,41.097611],[0.652033,41.097618],[0.652023,41.097625],[0.65201,41.097627],[0.651989,41.097627],[0.65197,41.097625],[0.651955,41.097622],[0.651941,41.097619],[0.651923,41.097612],[0.651909,41.097607],[0.651887,41.097598],[0.651829,41.097565],[0.651773,41.097532],[0.651697,41.097483],[0.651623,41.097433],[0.651571,41.097402],[0.651519,41.097377],[0.651466,41.097355],[0.651357,41.097311],[0.651308,41.097288],[0.651259,41.097264],[0.651228,41.097244],[0.651218,41.097233],[0.651215,41.097221],[0.651219,41.097203],[0.651225,41.097185],[0.651261,41.097106],[0.651297,41.097028],[0.651349,41.096946],[0.651362,41.096919],[0.651369,41.096905],[0.651371,41.096891],[0.651369,41.096875],[0.651366,41.096854],[0.651406,41.09687],[0.651649,41.096653],[0.651646,41.096626],[0.651934,41.096363],[0.652013,41.096314],[0.651911,41.096249],[0.651864,41.09622],[0.651818,41.096191],[0.651801,41.096179],[0.651789,41.096165],[0.651788,41.096154],[0.651794,41.096135],[0.6518,41.096115],[0.651907,41.096131],[0.65197,41.096133],[0.652077,41.09612],[0.652165,41.096074],[0.652298,41.09599],[0.652397,41.095769],[0.652616,41.095256],[0.652639,41.095204],[0.652114,41.095091],[0.651999,41.095144],[0.652004,41.095158],[0.652012,41.095212],[0.652011,41.095248],[0.652004,41.095304],[0.65199,41.09536],[0.651955,41.095468],[0.651915,41.095574],[0.651835,41.09575],[0.651797,41.09583],[0.651763,41.095892],[0.651729,41.095957],[0.651695,41.096024],[0.651662,41.096091],[0.651646,41.096122],[0.651629,41.096151],[0.651592,41.096209],[0.651573,41.096232],[0.651552,41.096254],[0.651505,41.096294],[0.651495,41.096302],[0.651484,41.096307],[0.651468,41.096311],[0.651452,41.096313],[0.65131,41.096227],[0.651195,41.096343],[0.651119,41.096296],[0.651,41.096404],[0.651016,41.096414],[0.650966,41.09646],[0.650873,41.096544],[0.650821,41.09658],[0.650785,41.096605],[0.650765,41.096624],[0.650544,41.09683],[0.650339,41.097006],[0.649945,41.097367],[0.649795,41.097515],[0.649644,41.097662],[0.649224,41.097471],[0.649086,41.097406],[0.648863,41.097314],[0.648829,41.097302],[0.648615,41.097608],[0.64855,41.097682],[0.648475,41.097693],[0.648386,41.097705],[0.648345,41.097711],[0.648336,41.097718],[0.648316,41.097736],[0.648263,41.097788],[0.648213,41.097842],[0.648153,41.097906],[0.648093,41.097971],[0.648034,41.098033],[0.64802,41.098047],[0.647972,41.098093],[0.647946,41.098109],[0.647821,41.098053],[0.647775,41.098092],[0.647737,41.098123],[0.647777,41.098151],[0.647751,41.098176],[0.647833,41.098224],[0.64789,41.098263],[0.64787,41.098292],[0.647913,41.098309],[0.647859,41.098387],[0.647797,41.098434],[0.647758,41.098424],[0.647739,41.098418],[0.647713,41.098411],[0.64769,41.098458],[0.647568,41.098566],[0.647658,41.098616],[0.647694,41.098644],[0.647601,41.098793],[0.647558,41.098767],[0.647361,41.098913],[0.647336,41.098897],[0.647286,41.098943],[0.647315,41.098961],[0.647283,41.098991],[0.647265,41.099004],[0.647251,41.099016],[0.647247,41.099024],[0.647328,41.099077],[0.647336,41.099082],[0.647343,41.099086],[0.647357,41.099141],[0.647553,41.099262],[0.647407,41.099396],[0.64733,41.099353],[0.64722,41.099434],[0.647096,41.099598],[0.647123,41.099626],[0.646878,41.099755],[0.646688,41.0999],[0.646614,41.099869],[0.646507,41.099987],[0.646207,41.099923],[0.646182,41.099965],[0.646225,41.100109],[0.646759,41.100255],[0.646842,41.100133],[0.646876,41.100147],[0.646982,41.100244],[0.646983,41.100246],[0.64692,41.100359],[0.64704,41.100409],[0.647104,41.100408],[0.647402,41.100372],[0.647473,41.100364],[0.647485,41.100326],[0.64779,41.100318],[0.647875,41.100312],[0.647927,41.100307],[0.648064,41.100286],[0.648137,41.100267],[0.648129,41.100258],[0.648169,41.100238],[0.648143,41.100165],[0.648262,41.10016],[0.648423,41.100194],[0.648619,41.100167],[0.649096,41.100114],[0.64918,41.100102],[0.649264,41.100089],[0.64963,41.100004],[0.650082,41.099874],[0.650343,41.099822],[0.650449,41.10002],[0.650272,41.100059],[0.650218,41.100068],[0.649736,41.10016],[0.649927,41.10066],[0.650022,41.100896],[0.649962,41.100911],[0.649947,41.100885],[0.649851,41.100917],[0.649867,41.100943],[0.64974,41.100975],[0.649534,41.101015],[0.649345,41.101019],[0.649346,41.101078],[0.649296,41.101079],[0.649293,41.101057],[0.649266,41.100917],[0.649204,41.100917],[0.64887,41.100916],[0.648774,41.100988],[0.648599,41.100984],[0.648594,41.100981],[0.648589,41.100976],[0.648547,41.100948],[0.648544,41.100945],[0.648478,41.100953],[0.648226,41.100971],[0.648111,41.101001],[0.647979,41.101052],[0.647895,41.101095],[0.647888,41.101093],[0.647794,41.101072],[0.647692,41.101051],[0.647672,41.1011],[0.647513,41.101091],[0.647508,41.101193],[0.647529,41.101226],[0.647795,41.10125],[0.647824,41.10113],[0.647888,41.101144],[0.647978,41.101164],[0.648065,41.101177],[0.648103,41.101181],[0.647979,41.101623],[0.647958,41.101679],[0.648334,41.101746],[0.648228,41.102063],[0.648214,41.102151],[0.648067,41.102732],[0.648018,41.102869],[0.648215,41.102936],[0.648205,41.102961],[0.64808,41.103175],[0.647527,41.103012],[0.647499,41.103047],[0.647096,41.102871],[0.647158,41.102785],[0.646749,41.102624],[0.646521,41.102548],[0.645893,41.102317],[0.645779,41.10228],[0.645353,41.102117],[0.644897,41.101942],[0.644838,41.101997],[0.644727,41.102102],[0.644628,41.102182],[0.644611,41.102197],[0.64449,41.102304],[0.644374,41.102412],[0.644281,41.102499],[0.644187,41.102585],[0.644159,41.102612],[0.644118,41.102648],[0.644077,41.102753],[0.64415,41.102914],[0.645161,41.10329],[0.645037,41.103476],[0.645395,41.103622],[0.645357,41.10367],[0.645287,41.103756],[0.645235,41.103821],[0.645239,41.103871],[0.645239,41.103876],[0.645245,41.103884],[0.645262,41.103899],[0.645826,41.104111],[0.645847,41.104119],[0.646381,41.104319],[0.646483,41.104358],[0.646618,41.104131],[0.64669,41.10403],[0.647006,41.104142],[0.647665,41.104384],[0.647773,41.104411],[0.648408,41.104631],[0.648951,41.104806]]],[[[0.653341,41.106611],[0.653868,41.105958],[0.654261,41.105473],[0.654211,41.10545],[0.653437,41.106087],[0.653097,41.105929],[0.653183,41.105867],[0.653369,41.105766],[0.653575,41.10564],[0.653478,41.105547],[0.653402,41.105555],[0.653356,41.105549],[0.653001,41.105432],[0.652919,41.105404],[0.652714,41.105333],[0.65244,41.105239],[0.652261,41.105181],[0.652074,41.105124],[0.651833,41.105053],[0.651778,41.105036],[0.651591,41.10498],[0.651336,41.104902],[0.65129,41.104989],[0.651135,41.105271],[0.650994,41.105528],[0.650966,41.105604],[0.650964,41.10564],[0.651209,41.105713],[0.651254,41.105726],[0.651538,41.105819],[0.651547,41.105842],[0.651541,41.105865],[0.65158,41.105894],[0.651592,41.105912],[0.651579,41.105931],[0.651558,41.105968],[0.651562,41.105991],[0.651589,41.106003],[0.651721,41.106052],[0.65175,41.106007],[0.65179,41.105967],[0.651817,41.105968],[0.651849,41.10594],[0.651868,41.105897],[0.651861,41.105866],[0.651842,41.105845],[0.651903,41.105766],[0.651867,41.105744],[0.652029,41.105516],[0.65215,41.105346],[0.652243,41.10525],[0.65236,41.105277],[0.652532,41.105333],[0.652461,41.105448],[0.652647,41.105516],[0.652574,41.105609],[0.652585,41.105614],[0.652915,41.105785],[0.653039,41.105901],[0.652954,41.105982],[0.652839,41.106094],[0.652691,41.106276],[0.652639,41.106248],[0.652605,41.106289],[0.652505,41.10626],[0.652496,41.10628],[0.652044,41.106115],[0.651771,41.10646],[0.652125,41.106627],[0.651849,41.106968],[0.652231,41.107181],[0.652252,41.107191],[0.652564,41.107346],[0.652407,41.107537],[0.652493,41.107578],[0.651975,41.108209],[0.652028,41.108235],[0.652273,41.107932],[0.65268,41.10741],[0.653341,41.106611]]]]}},{"type":"Feature","id":"430944_430944 SI02 REB 2","properties":{"area_id":"430944_430944 SI02 REB 2","nom":"Polígon industrial Aubals","codi_icgc":"430944 SI02 REB 2","categoria":"Sector industrial","codi_municipi":"430944","municipi":"Móra la Nova","codi_comarca":"30","comarca":"Ribera d'Ebre","provincia":"Tarragona","font":"ICGC Àrees de poblament v3r1 202602"},"geometry":{"type":"MultiPolygon","coordinates":[[[[0.649152,41.108092],[0.649218,41.108017],[0.649245,41.108024],[0.649311,41.10804],[0.649376,41.108056],[0.649415,41.108066],[0.649517,41.108095],[0.649588,41.10812],[0.649693,41.10816],[0.649746,41.108181],[0.649798,41.108202],[0.649873,41.108232],[0.649948,41.108262],[0.649984,41.108254],[0.650188,41.108018],[0.650283,41.107871],[0.650544,41.107955],[0.650729,41.107722],[0.65008,41.107393],[0.649911,41.107308],[0.649956,41.107251],[0.650411,41.106746],[0.651195,41.107143],[0.651496,41.106785],[0.650668,41.106439],[0.650599,41.106538],[0.650439,41.106456],[0.650376,41.106429],[0.650031,41.106299],[0.650008,41.106336],[0.64971,41.106223],[0.649287,41.106059],[0.649004,41.105956],[0.64891,41.10586],[0.648801,41.105822],[0.648733,41.105799],[0.648666,41.105775],[0.648629,41.105755],[0.648612,41.105742],[0.648595,41.105725],[0.648563,41.105682],[0.648541,41.105654],[0.648737,41.105511],[0.64875,41.105502],[0.648553,41.105411],[0.648545,41.105409],[0.648537,41.105407],[0.648451,41.105375],[0.648367,41.105343],[0.648026,41.105218],[0.647685,41.105093],[0.647529,41.105035],[0.647313,41.104954],[0.646995,41.104835],[0.646941,41.104814],[0.646355,41.104598],[0.646243,41.10457],[0.646103,41.104741],[0.645847,41.104653],[0.645796,41.104635],[0.645747,41.104618],[0.645247,41.10542],[0.644826,41.106134],[0.645133,41.106222],[0.645295,41.106261],[0.645848,41.10644],[0.645925,41.106465],[0.646706,41.106718],[0.646868,41.106779],[0.646854,41.106807],[0.646768,41.106866],[0.646658,41.106941],[0.64674,41.10698],[0.646745,41.106982],[0.646784,41.107004],[0.646823,41.107022],[0.646865,41.107037],[0.647521,41.107268],[0.647537,41.107243],[0.647294,41.107668],[0.64728,41.107692],[0.647281,41.107693],[0.647286,41.107698],[0.647297,41.107707],[0.647304,41.107712],[0.647318,41.107721],[0.647335,41.107729],[0.647353,41.107737],[0.647371,41.107745],[0.6474,41.107756],[0.647435,41.107768],[0.647458,41.107776],[0.647496,41.107787],[0.647586,41.10781],[0.647769,41.107854],[0.647818,41.107867],[0.647839,41.107873],[0.647852,41.107878],[0.647867,41.107883],[0.64789,41.107894],[0.647982,41.107937],[0.648049,41.10801],[0.648083,41.108024],[0.648151,41.108051],[0.648375,41.108141],[0.648727,41.108283],[0.648911,41.108365],[0.648975,41.108292],[0.64904,41.108219],[0.649064,41.108191],[0.649152,41.108092]]]]}},{"type":"Feature","id":"430944_430944 SI01 REB 2","properties":{"area_id":"430944_430944 SI01 REB 2","nom":"Polígon industrial El Molló","codi_icgc":"430944 SI01 REB 2","categoria":"Sector industrial","codi_municipi":"430944","municipi":"Móra la Nova","codi_comarca":"30","comarca":"Ribera d'Ebre","provincia":"Tarragona","font":"ICGC Àrees de poblament v3r1 202602"},"geometry":{"type":"MultiPolygon","coordinates":[[[[0.667912,41.07308],[0.667913,41.073086],[0.668023,41.073642],[0.668056,41.073758],[0.668991,41.073651],[0.669052,41.073642],[0.66912,41.073622],[0.669223,41.073577],[0.669277,41.073532],[0.669296,41.073475],[0.669268,41.073339],[0.669188,41.07294],[0.669027,41.072957],[0.668308,41.07304],[0.667912,41.07308]]]]}},{"type":"Feature","id":"430944_430944 AP03 REB 4","properties":{"area_id":"430944_430944 AP03 REB 4","nom":"les Sequines","codi_icgc":"430944 AP03 REB 4","categoria":"Àrees de poblament","codi_municipi":"430944","municipi":"Móra la Nova","codi_comarca":"30","comarca":"Ribera d'Ebre","provincia":"Tarragona","font":"ICGC Àrees de poblament v3r1 202602"},"geometry":{"type":"MultiPolygon","coordinates":[[[[0.652528,41.093804],[0.652552,41.093781],[0.652739,41.093845],[0.652901,41.093888],[0.653155,41.093922],[0.65323,41.093916],[0.653236,41.093889],[0.653264,41.093767],[0.653269,41.093745],[0.652959,41.093713],[0.652876,41.093671],[0.652852,41.093656],[0.652783,41.093615],[0.652887,41.093512],[0.653021,41.093374],[0.653155,41.093236],[0.65325,41.093139],[0.653392,41.092992],[0.653534,41.092846],[0.653636,41.092742],[0.65365,41.092727],[0.65367,41.092706],[0.653715,41.092661],[0.653896,41.092476],[0.654023,41.092344],[0.654047,41.092232],[0.654135,41.092137],[0.654231,41.092042],[0.654241,41.092033],[0.654324,41.091943],[0.654362,41.091901],[0.65438,41.091881],[0.654405,41.091854],[0.65443,41.091831],[0.654452,41.091808],[0.654444,41.091799],[0.654426,41.091765],[0.654408,41.091729],[0.654395,41.091714],[0.65439,41.091707],[0.654389,41.091699],[0.654394,41.091694],[0.654426,41.091662],[0.654458,41.091629],[0.654492,41.091593],[0.654526,41.091557],[0.654535,41.091555],[0.654574,41.091559],[0.654613,41.091562],[0.654638,41.091565],[0.654662,41.091567],[0.654677,41.091568],[0.654742,41.091525],[0.654807,41.091483],[0.654833,41.091462],[0.654856,41.09144],[0.65493,41.091366],[0.655003,41.091291],[0.655153,41.091137],[0.655304,41.090983],[0.655359,41.090929],[0.655415,41.090875],[0.655484,41.090811],[0.655541,41.090757],[0.655459,41.090679],[0.655298,41.090523],[0.65497,41.090628],[0.654499,41.090709],[0.653995,41.090733],[0.6539,41.090834],[0.653734,41.091012],[0.653646,41.091106],[0.653567,41.091179],[0.653502,41.091358],[0.653495,41.091373],[0.653492,41.091381],[0.653485,41.091396],[0.653479,41.091427],[0.653474,41.091453],[0.653473,41.091468],[0.653471,41.091502],[0.653422,41.09166],[0.65342,41.091666],[0.653413,41.09169],[0.65339,41.091764],[0.653279,41.091808],[0.653266,41.091814],[0.65311,41.091885],[0.653389,41.09219],[0.653507,41.092444],[0.653364,41.092336],[0.653344,41.092321],[0.653213,41.092242],[0.653163,41.092226],[0.653089,41.092253],[0.652915,41.092474],[0.652871,41.092515],[0.652864,41.092565],[0.652904,41.092634],[0.652901,41.092656],[0.652832,41.092626],[0.652613,41.092504],[0.652609,41.092502],[0.65259,41.092522],[0.652556,41.092557],[0.652525,41.092593],[0.652516,41.092603],[0.652496,41.092625],[0.652485,41.092638],[0.652431,41.092697],[0.652398,41.092735],[0.652456,41.092797],[0.652328,41.092948],[0.652276,41.09301],[0.652265,41.093004],[0.652215,41.093045],[0.652172,41.093091],[0.652144,41.093119],[0.652135,41.093129],[0.652113,41.093151],[0.652057,41.09316],[0.652031,41.093144],[0.651949,41.093209],[0.651944,41.093205],[0.651892,41.093261],[0.651834,41.093291],[0.65175,41.09344],[0.651818,41.093476],[0.6518,41.093512],[0.651861,41.093582],[0.652043,41.093746],[0.652164,41.093896],[0.652181,41.093917],[0.652204,41.093935],[0.652232,41.093948],[0.652262,41.093956],[0.652281,41.093959],[0.6523,41.093959],[0.65232,41.093958],[0.652338,41.093954],[0.652356,41.093949],[0.652373,41.093942],[0.652389,41.093934],[0.652403,41.093924],[0.652528,41.093804]]]]}}]}