{"type":"FeatureCollection","name":"ICGC Àrees de poblament - Nulles","features":[{"type":"Feature","id":"430982_430982 AP02 ACA 3","properties":{"area_id":"430982_430982 AP02 ACA 3","nom":"Bellavista","codi_icgc":"430982 AP02 ACA 3","categoria":"Àrees de poblament","codi_municipi":"430982","municipi":"Nulles","codi_comarca":"01","comarca":"Alt Camp","provincia":"Tarragona","font":"ICGC Àrees de poblament v3r1 202602"},"geometry":{"type":"MultiPolygon","coordinates":[[[[1.276041,41.260742],[1.27602,41.260761],[1.275935,41.260876],[1.275806,41.261033],[1.275755,41.261118],[1.275715,41.261184],[1.275686,41.261215],[1.275656,41.261246],[1.275619,41.261289],[1.275588,41.261335],[1.275579,41.261356],[1.275579,41.261378],[1.275589,41.261425],[1.275605,41.261472],[1.275628,41.26152],[1.275654,41.261567],[1.275682,41.261607],[1.2757,41.261625],[1.275724,41.261642],[1.275743,41.261652],[1.275774,41.261661],[1.275789,41.261662],[1.275804,41.26166],[1.27593,41.261627],[1.275993,41.261608],[1.276054,41.261588],[1.276218,41.261532],[1.276382,41.261477],[1.276496,41.261481],[1.276621,41.261468],[1.276682,41.261453],[1.276801,41.261449],[1.27701,41.261858],[1.277099,41.262003],[1.277132,41.262057],[1.27723,41.262012],[1.277682,41.261767],[1.277683,41.26173],[1.277704,41.261696],[1.277562,41.261633],[1.277493,41.261599],[1.277426,41.261563],[1.277253,41.261462],[1.27718,41.261419],[1.277169,41.261411],[1.277165,41.261404],[1.277167,41.261394],[1.277229,41.261369],[1.277291,41.261343],[1.277264,41.26131],[1.277025,41.261012],[1.276988,41.260967],[1.276908,41.26086],[1.276865,41.260816],[1.276862,41.260817],[1.276752,41.260705],[1.276741,41.260694],[1.276729,41.260681],[1.276723,41.260677],[1.276716,41.260677],[1.276701,41.260682],[1.276686,41.260688],[1.276635,41.260713],[1.276586,41.26074],[1.276553,41.260754],[1.276538,41.260757],[1.276522,41.260754],[1.276413,41.260762],[1.276405,41.26076],[1.276374,41.260696],[1.276376,41.260594],[1.276373,41.260456],[1.27628,41.260457],[1.276209,41.26051],[1.276141,41.260581],[1.276146,41.260667],[1.276115,41.260698],[1.276041,41.260742]]]]}},{"type":"Feature","id":"430982_430982 AP03 ACA 3","properties":{"area_id":"430982_430982 AP03 ACA 3","nom":"Casafort","codi_icgc":"430982 AP03 ACA 3","categoria":"Àrees de poblament","codi_municipi":"430982","municipi":"Nulles","codi_comarca":"01","comarca":"Alt Camp","provincia":"Tarragona","font":"ICGC Àrees de poblament v3r1 202602"},"geometry":{"type":"MultiPolygon","coordinates":[[[[1.302798,41.256198],[1.302791,41.256118],[1.302765,41.256025],[1.302899,41.256001],[1.302916,41.255981],[1.302927,41.255959],[1.30293,41.255935],[1.302926,41.255911],[1.302914,41.255889],[1.302896,41.255869],[1.302872,41.255854],[1.302865,41.25585],[1.302763,41.25562],[1.30263,41.255619],[1.302569,41.255585],[1.30261,41.25551],[1.302682,41.255346],[1.302768,41.255148],[1.302245,41.255109],[1.302217,41.255241],[1.302115,41.25551],[1.302075,41.255522],[1.302065,41.255569],[1.302068,41.255616],[1.302074,41.255663],[1.30208,41.255708],[1.30207,41.255785],[1.302059,41.255781],[1.302028,41.255773],[1.301996,41.255772],[1.301965,41.255776],[1.301935,41.255785],[1.301909,41.255799],[1.301889,41.255818],[1.301875,41.25584],[1.301869,41.255859],[1.301869,41.255883],[1.301876,41.255907],[1.301891,41.255928],[1.301912,41.255946],[1.301937,41.25596],[1.301967,41.255969],[1.301998,41.255972],[1.302077,41.256175],[1.302187,41.256151],[1.302208,41.256182],[1.302215,41.256195],[1.30227,41.256276],[1.302305,41.256325],[1.302338,41.256368],[1.302395,41.256443],[1.302432,41.256502],[1.30245,41.256537],[1.302472,41.256542],[1.302599,41.256544],[1.302643,41.256544],[1.302811,41.256547],[1.302808,41.256498],[1.302799,41.256363],[1.302798,41.256198]]]]}},{"type":"Feature","id":"430982_430982 AP04 ACA 4","properties":{"area_id":"430982_430982 AP04 ACA 4","nom":"Gardeny","codi_icgc":"430982 AP04 ACA 4","categoria":"Àrees de poblament","codi_municipi":"430982","municipi":"Nulles","codi_comarca":"01","comarca":"Alt Camp","provincia":"Tarragona","font":"ICGC Àrees de poblament v3r1 202602"},"geometry":{"type":"MultiPolygon","coordinates":[[[[1.291953,41.266157],[1.29175,41.266198],[1.291828,41.266399],[1.290737,41.266657],[1.290899,41.266987],[1.290775,41.267042],[1.289604,41.267551],[1.289342,41.267669],[1.289485,41.267699],[1.289999,41.267813],[1.290169,41.267838],[1.290443,41.267877],[1.290725,41.267912],[1.29083,41.267917],[1.290919,41.267921],[1.291068,41.267931],[1.291363,41.267949],[1.291417,41.267938],[1.291391,41.267853],[1.291353,41.26775],[1.291291,41.267627],[1.291209,41.267484],[1.2912,41.267454],[1.29154,41.267358],[1.291606,41.267339],[1.291538,41.267203],[1.291405,41.26693],[1.291656,41.266868],[1.292049,41.266769],[1.292343,41.266699],[1.292193,41.266371],[1.292137,41.266234],[1.292088,41.266137],[1.291953,41.266157]]]]}},{"type":"Feature","id":"430982_430982 AP01 ACA 3","properties":{"area_id":"430982_430982 AP01 ACA 3","nom":"Nulles","codi_icgc":"430982 AP01 ACA 3","categoria":"Àrees de poblament","codi_municipi":"430982","municipi":"Nulles","codi_comarca":"01","comarca":"Alt Camp","provincia":"Tarragona","font":"ICGC Àrees de poblament v3r1 202602"},"geometry":{"type":"MultiPolygon","coordinates":[[[[1.298296,41.250395],[1.298298,41.250393],[1.298773,41.250831],[1.299084,41.250699],[1.298657,41.250092],[1.298563,41.250036],[1.298556,41.250031],[1.29855,41.250028],[1.298362,41.249916],[1.298279,41.250008],[1.298263,41.250026],[1.298178,41.24997],[1.298047,41.250084],[1.297951,41.250033],[1.297794,41.249944],[1.298001,41.249735],[1.297997,41.24973],[1.297972,41.249712],[1.297908,41.249674],[1.298442,41.249151],[1.29843,41.249142],[1.298258,41.248848],[1.298254,41.248845],[1.298244,41.248829],[1.299046,41.248445],[1.299102,41.248418],[1.2991,41.248402],[1.299069,41.248375],[1.299038,41.248348],[1.298932,41.248254],[1.298776,41.24811],[1.298619,41.247967],[1.298386,41.247762],[1.298153,41.247558],[1.297923,41.247357],[1.297852,41.247295],[1.297694,41.247156],[1.297684,41.247147],[1.297683,41.247137],[1.297676,41.247137],[1.297514,41.247142],[1.297494,41.247143],[1.297498,41.247166],[1.297381,41.247297],[1.297295,41.247402],[1.297273,41.247421],[1.297253,41.247437],[1.29723,41.247458],[1.297162,41.247503],[1.297212,41.247537],[1.297225,41.247548],[1.297225,41.247554],[1.297669,41.247877],[1.297672,41.247915],[1.297281,41.248163],[1.296955,41.247963],[1.297074,41.24787],[1.296892,41.247759],[1.296886,41.247755],[1.296832,41.247718],[1.296787,41.247748],[1.296585,41.247879],[1.296415,41.24772],[1.296084,41.247919],[1.295633,41.247417],[1.29558,41.247381],[1.29556,41.247396],[1.295532,41.247418],[1.295515,41.247432],[1.295364,41.247538],[1.295203,41.247354],[1.295094,41.247424],[1.29506,41.247445],[1.295236,41.247631],[1.295,41.247816],[1.294959,41.247872],[1.294843,41.247855],[1.294769,41.247745],[1.294564,41.247824],[1.294566,41.248072],[1.294563,41.24818],[1.29455,41.248235],[1.294519,41.248255],[1.29447,41.248251],[1.29447,41.248265],[1.294368,41.248242],[1.294253,41.248312],[1.294149,41.248523],[1.294045,41.248497],[1.293989,41.24824],[1.293943,41.248241],[1.293928,41.248243],[1.293901,41.248245],[1.293864,41.248247],[1.293826,41.248246],[1.293796,41.248244],[1.293788,41.248283],[1.293787,41.248389],[1.293787,41.248461],[1.293785,41.248486],[1.293784,41.248488],[1.293816,41.248514],[1.293826,41.248548],[1.293827,41.248572],[1.293893,41.248577],[1.293978,41.248593],[1.294072,41.248623],[1.294157,41.248664],[1.294155,41.248714],[1.294154,41.248729],[1.294155,41.248815],[1.294155,41.24887],[1.294154,41.248926],[1.294159,41.248979],[1.29417,41.24903],[1.294201,41.249132],[1.294218,41.249179],[1.294241,41.249225],[1.294262,41.249255],[1.294289,41.249287],[1.2943,41.2493],[1.294339,41.249344],[1.294365,41.249374],[1.294393,41.249403],[1.294437,41.249442],[1.294482,41.24948],[1.294572,41.249556],[1.294666,41.249665],[1.294811,41.24984],[1.294845,41.249908],[1.294854,41.24994],[1.294852,41.249987],[1.294846,41.249987],[1.294812,41.24999],[1.294791,41.249995],[1.294786,41.249996],[1.294765,41.250005],[1.294711,41.25003],[1.294708,41.250032],[1.2947,41.250035],[1.294694,41.250039],[1.294687,41.250042],[1.294659,41.250055],[1.294619,41.25008],[1.294578,41.250103],[1.294566,41.250107],[1.294553,41.250107],[1.294527,41.250103],[1.294482,41.25009],[1.294437,41.250074],[1.294351,41.250041],[1.294326,41.250032],[1.294265,41.250008],[1.294184,41.249975],[1.294153,41.250006],[1.294128,41.250032],[1.293987,41.250173],[1.294282,41.250364],[1.294522,41.250205],[1.294589,41.250158],[1.294898,41.250328],[1.294923,41.250342],[1.29501,41.250342],[1.295077,41.250507],[1.295098,41.250547],[1.295146,41.25054],[1.295249,41.250854],[1.29524,41.250925],[1.295376,41.25087],[1.295511,41.250816],[1.295538,41.250847],[1.295789,41.250822],[1.295853,41.250815],[1.295981,41.251],[1.295807,41.251024],[1.295807,41.251028],[1.295807,41.251252],[1.295909,41.251339],[1.295969,41.251405],[1.296081,41.251451],[1.296223,41.251313],[1.296263,41.251208],[1.296301,41.25119],[1.296363,41.251152],[1.296398,41.251127],[1.296435,41.251094],[1.296477,41.251065],[1.296502,41.25105],[1.296507,41.251044],[1.296517,41.251039],[1.296527,41.251037],[1.296533,41.251039],[1.296537,41.251041],[1.29656,41.251053],[1.296611,41.251077],[1.29665,41.251109],[1.296722,41.25113],[1.296766,41.251098],[1.296781,41.251089],[1.296806,41.251079],[1.29683,41.251066],[1.296861,41.251044],[1.296892,41.251022],[1.296921,41.250998],[1.296954,41.250966],[1.296991,41.250922],[1.297014,41.2509],[1.297023,41.250892],[1.297031,41.250885],[1.297041,41.25088],[1.297076,41.250873],[1.297085,41.250872],[1.297093,41.250874],[1.297134,41.250892],[1.297175,41.250913],[1.297235,41.250945],[1.297296,41.250977],[1.297324,41.250991],[1.297353,41.251005],[1.297422,41.251042],[1.297491,41.25108],[1.297596,41.251139],[1.2977,41.2512],[1.297729,41.251216],[1.297765,41.251236],[1.297857,41.251224],[1.297883,41.251215],[1.297909,41.251206],[1.297917,41.251203],[1.297992,41.251152],[1.298083,41.251101],[1.298174,41.251051],[1.29826,41.251009],[1.298268,41.251006],[1.298234,41.250984],[1.298182,41.250903],[1.298055,41.250799],[1.29786,41.250639],[1.298296,41.250395]]]]}}]}