{"type":"FeatureCollection","name":"ICGC Àrees de poblament - la Pobla de Mafumet","features":[{"type":"Feature","id":"431093_431093 SI02 TAR 2","properties":{"area_id":"431093_431093 SI02 TAR 2","nom":"Polígon industrial La Coma","codi_icgc":"431093 SI02 TAR 2","categoria":"Sector industrial","codi_municipi":"431093","municipi":"la Pobla de Mafumet","codi_comarca":"36","comarca":"Tarragonès","provincia":"Tarragona","font":"ICGC Àrees de poblament v3r1 202602"},"geometry":{"type":"MultiPolygon","coordinates":[[[[1.213103,41.185483],[1.213056,41.185518],[1.213177,41.18591],[1.213294,41.186264],[1.213335,41.186388],[1.213423,41.186653],[1.21371,41.187533],[1.213744,41.187637],[1.213805,41.187677],[1.213844,41.187692],[1.213885,41.187701],[1.213928,41.187705],[1.213971,41.187703],[1.214013,41.187695],[1.214028,41.187691],[1.214088,41.187663],[1.214145,41.187631],[1.214196,41.187595],[1.214242,41.187554],[1.214261,41.187533],[1.214281,41.18751],[1.214314,41.187463],[1.214334,41.187429],[1.214348,41.187371],[1.214355,41.187312],[1.214354,41.187253],[1.214345,41.187195],[1.214329,41.187137],[1.214306,41.187081],[1.214301,41.187071],[1.214218,41.186853],[1.214201,41.186809],[1.214185,41.186759],[1.214165,41.186683],[1.214143,41.186607],[1.214133,41.186581],[1.214125,41.186568],[1.214124,41.186567],[1.214042,41.186253],[1.21404,41.186234],[1.213905,41.185773],[1.213809,41.185444],[1.213633,41.185453],[1.213103,41.185483]]]]}},{"type":"Feature","id":"431093_431093 SI01 TAR 2","properties":{"area_id":"431093_431093 SI01 TAR 2","nom":"Repsol Química, SA","codi_icgc":"431093 SI01 TAR 2","categoria":"Sector industrial","codi_municipi":"431093","municipi":"la Pobla de Mafumet","codi_comarca":"36","comarca":"Tarragonès","provincia":"Tarragona","font":"ICGC Àrees de poblament v3r1 202602"},"geometry":{"type":"MultiPolygon","coordinates":[[[[1.226614,41.186534],[1.227526,41.1865],[1.227551,41.186266],[1.227643,41.185653],[1.227425,41.185531],[1.227328,41.185508],[1.225762,41.185761],[1.225151,41.18588],[1.224766,41.185944],[1.224511,41.185984],[1.224031,41.186066],[1.223192,41.186212],[1.223177,41.186217],[1.223179,41.186214],[1.223177,41.186214],[1.222972,41.186251],[1.222714,41.186297],[1.222015,41.186423],[1.221989,41.186427],[1.221655,41.186483],[1.221266,41.186552],[1.221201,41.186564],[1.221035,41.186593],[1.221054,41.186707],[1.221051,41.186707],[1.221007,41.186711],[1.220551,41.186752],[1.220512,41.186764],[1.220502,41.18677],[1.220473,41.186787],[1.220438,41.186861],[1.220399,41.186846],[1.220396,41.186853],[1.220194,41.187293],[1.220291,41.187529],[1.22139,41.187558],[1.221552,41.187562],[1.222828,41.187541],[1.222834,41.187578],[1.222987,41.188465],[1.22345,41.188467],[1.223508,41.188467],[1.223684,41.188468],[1.223754,41.188468],[1.224398,41.18847],[1.224622,41.188448],[1.224724,41.188438],[1.225725,41.188337],[1.225814,41.188328],[1.225988,41.18831],[1.226194,41.188307],[1.226151,41.188068],[1.226899,41.187998],[1.226855,41.187699],[1.226614,41.186534]]]]}},{"type":"Feature","id":"431093_431093 AP01 TAR 3","properties":{"area_id":"431093_431093 AP01 TAR 3","nom":"la Pobla de Mafumet","codi_icgc":"431093 AP01 TAR 3","categoria":"Àrees de poblament","codi_municipi":"431093","municipi":"la Pobla de Mafumet","codi_comarca":"36","comarca":"Tarragonès","provincia":"Tarragona","font":"ICGC Àrees de poblament v3r1 202602"},"geometry":{"type":"MultiPolygon","coordinates":[[[[1.210945,41.185518],[1.210902,41.185005],[1.210901,41.184809],[1.210886,41.184542],[1.210879,41.184444],[1.210705,41.184456],[1.210682,41.184377],[1.210622,41.184278],[1.21056,41.184229],[1.21044,41.18423],[1.210267,41.184232],[1.21028,41.183879],[1.210292,41.183583],[1.2102,41.18359],[1.209954,41.183573],[1.209718,41.183558],[1.209471,41.182838],[1.209346,41.182697],[1.209257,41.182651],[1.209163,41.182614],[1.209092,41.182595],[1.209017,41.18255],[1.20895,41.182551],[1.208916,41.182554],[1.208817,41.182588],[1.208757,41.182611],[1.208694,41.182681],[1.208744,41.182815],[1.208917,41.183276],[1.209171,41.183786],[1.208728,41.183811],[1.208413,41.183828],[1.20816,41.18384],[1.207823,41.182727],[1.207318,41.182734],[1.207327,41.182991],[1.206257,41.183043],[1.206339,41.18333],[1.206188,41.183367],[1.20605,41.183247],[1.205896,41.183323],[1.205857,41.183362],[1.206007,41.183709],[1.206273,41.183654],[1.206332,41.183634],[1.206421,41.183617],[1.206508,41.183921],[1.206482,41.183922],[1.205436,41.183966],[1.20499,41.184641],[1.204679,41.185112],[1.204646,41.185161],[1.204635,41.185179],[1.204595,41.18524],[1.203639,41.185298],[1.20382,41.185909],[1.20449,41.185853],[1.204535,41.186062],[1.204859,41.186438],[1.205274,41.186684],[1.204914,41.18672],[1.204741,41.186829],[1.204702,41.186814],[1.204636,41.186811],[1.204595,41.186813],[1.204544,41.186824],[1.204512,41.186842],[1.204492,41.186871],[1.20445,41.186896],[1.204403,41.1869],[1.20435,41.186892],[1.204238,41.186877],[1.204165,41.18688],[1.204089,41.186901],[1.203988,41.186921],[1.203864,41.186932],[1.203955,41.187293],[1.203923,41.187312],[1.204042,41.187711],[1.204207,41.187683],[1.204368,41.187659],[1.204425,41.187658],[1.20449,41.187687],[1.204586,41.187751],[1.204669,41.187831],[1.204774,41.187928],[1.204913,41.188018],[1.205044,41.188082],[1.205082,41.188078],[1.205104,41.188058],[1.205221,41.188113],[1.205399,41.1882],[1.205576,41.188287],[1.205689,41.188341],[1.205803,41.188396],[1.20581,41.1884],[1.205828,41.188458],[1.205839,41.188494],[1.205842,41.188495],[1.205365,41.189057],[1.205308,41.189064],[1.205222,41.189072],[1.205068,41.188992],[1.205076,41.188967],[1.204936,41.188898],[1.204591,41.189292],[1.209212,41.188779],[1.209334,41.188832],[1.209443,41.188881],[1.209487,41.188877],[1.20953,41.188868],[1.20957,41.188853],[1.209606,41.188833],[1.209623,41.188821],[1.209639,41.188807],[1.20964,41.188806],[1.209655,41.188789],[1.209668,41.188771],[1.209673,41.188764],[1.209662,41.188739],[1.209655,41.188714],[1.209653,41.188688],[1.209655,41.188662],[1.209664,41.188631],[1.209679,41.188602],[1.209701,41.188575],[1.209727,41.188551],[1.209758,41.188531],[1.209793,41.188515],[1.209831,41.188503],[1.209872,41.188495],[1.209913,41.188493],[1.209946,41.188495],[1.209979,41.1885],[1.210011,41.188508],[1.210719,41.188398],[1.211512,41.188145],[1.212711,41.187907],[1.213572,41.187768],[1.213198,41.186274],[1.212984,41.186297],[1.21296,41.186298],[1.211964,41.186353],[1.21191,41.185612],[1.211901,41.185469],[1.211845,41.185472],[1.211739,41.185477],[1.210945,41.185518]]]]}},{"type":"Feature","id":"431093_431093 SI03 TAR 2","properties":{"area_id":"431093_431093 SI03 TAR 2","nom":"la Refineria","codi_icgc":"431093 SI03 TAR 2","categoria":"Sector industrial","codi_municipi":"431093","municipi":"la Pobla de Mafumet","codi_comarca":"36","comarca":"Tarragonès","provincia":"Tarragona","font":"ICGC Àrees de poblament v3r1 202602"},"geometry":{"type":"MultiPolygon","coordinates":[[[[1.219374,41.186358],[1.220108,41.186274],[1.220307,41.186291],[1.220316,41.186293],[1.220536,41.186338],[1.220579,41.186346],[1.220649,41.186342],[1.220706,41.186321],[1.220748,41.186307],[1.220838,41.186292],[1.221224,41.186238],[1.221249,41.186234],[1.221857,41.186129],[1.223896,41.185761],[1.223951,41.185752],[1.224004,41.185737],[1.224054,41.185717],[1.224099,41.185692],[1.22414,41.185663],[1.224176,41.18563],[1.224205,41.185593],[1.224225,41.18556],[1.224297,41.185397],[1.224675,41.184553],[1.224931,41.183965],[1.226379,41.183908],[1.226383,41.183908],[1.226561,41.184531],[1.226915,41.184541],[1.226917,41.184543],[1.227111,41.184772],[1.227132,41.184777],[1.227686,41.184928],[1.227836,41.185101],[1.22808,41.185272],[1.228098,41.185284],[1.228114,41.185285],[1.228193,41.185289],[1.229358,41.18548],[1.229492,41.185357],[1.22951,41.185359],[1.229642,41.185154],[1.229639,41.185137],[1.229644,41.185131],[1.229572,41.184687],[1.229547,41.184518],[1.229541,41.18449],[1.229538,41.184477],[1.229525,41.184412],[1.230357,41.184338],[1.230529,41.184087],[1.230546,41.184062],[1.230948,41.183477],[1.230944,41.183477],[1.231058,41.183274],[1.231085,41.183265],[1.231135,41.183256],[1.231156,41.183251],[1.231229,41.183233],[1.231241,41.183229],[1.231263,41.183221],[1.231276,41.183217],[1.231285,41.183213],[1.231315,41.183199],[1.231343,41.183183],[1.231362,41.183177],[1.231375,41.18317],[1.231418,41.18314],[1.231472,41.183091],[1.231509,41.183047],[1.231517,41.183037],[1.231557,41.182978],[1.231588,41.182933],[1.231618,41.182888],[1.231618,41.182883],[1.231632,41.182862],[1.231747,41.182693],[1.231962,41.18239],[1.232182,41.182088],[1.232439,41.181744],[1.232447,41.181734],[1.232454,41.181724],[1.232466,41.181709],[1.232473,41.181705],[1.232473,41.1817],[1.232483,41.181686],[1.232493,41.181677],[1.232497,41.181673],[1.232499,41.181669],[1.232625,41.181497],[1.232634,41.181486],[1.232642,41.181476],[1.232663,41.181451],[1.232759,41.181325],[1.23282,41.18124],[1.232862,41.181177],[1.233101,41.18076],[1.233169,41.180622],[1.233231,41.180475],[1.233318,41.180213],[1.233324,41.180196],[1.233373,41.179967],[1.233388,41.179884],[1.233417,41.179674],[1.233433,41.179506],[1.233433,41.179462],[1.233444,41.179334],[1.233444,41.179327],[1.233455,41.179135],[1.233469,41.178808],[1.233481,41.178485],[1.233482,41.178323],[1.233478,41.178159],[1.233468,41.178047],[1.233447,41.177882],[1.233421,41.177717],[1.233367,41.177393],[1.233313,41.177069],[1.233305,41.177013],[1.233298,41.176959],[1.233238,41.176557],[1.233186,41.176216],[1.233184,41.176203],[1.233183,41.176191],[1.233181,41.17618],[1.233177,41.176153],[1.233155,41.176025],[1.233146,41.175976],[1.230413,41.176171],[1.230066,41.173722],[1.228978,41.173817],[1.228837,41.172864],[1.228776,41.172864],[1.228684,41.172867],[1.228433,41.172883],[1.228183,41.172902],[1.228068,41.172911],[1.227998,41.172894],[1.227964,41.172874],[1.227947,41.172862],[1.227934,41.172848],[1.227916,41.172814],[1.227908,41.172791],[1.227896,41.172744],[1.227884,41.172697],[1.227842,41.172404],[1.227803,41.172131],[1.227804,41.172122],[1.227815,41.172067],[1.227823,41.172043],[1.227806,41.171962],[1.227791,41.171961],[1.227778,41.171955],[1.227775,41.171953],[1.227766,41.171896],[1.227746,41.171789],[1.227733,41.171733],[1.227721,41.171681],[1.227679,41.171539],[1.227668,41.171504],[1.227664,41.171492],[1.227662,41.171482],[1.227639,41.171414],[1.227635,41.171403],[1.227634,41.171398],[1.227631,41.171391],[1.227629,41.171383],[1.227623,41.171367],[1.227602,41.171303],[1.227596,41.171286],[1.22759,41.171267],[1.227585,41.171253],[1.227529,41.171094],[1.227514,41.171051],[1.227431,41.170817],[1.227346,41.170561],[1.227259,41.170304],[1.227246,41.170268],[1.214086,41.171824],[1.214126,41.171865],[1.214126,41.171939],[1.214132,41.172037],[1.214149,41.172167],[1.214187,41.172378],[1.214228,41.17259],[1.214251,41.172731],[1.214311,41.173153],[1.214373,41.173575],[1.214452,41.174091],[1.214532,41.174606],[1.21458,41.174912],[1.214626,41.175168],[1.214668,41.175371],[1.214684,41.175415],[1.214688,41.175425],[1.214694,41.17544],[1.214701,41.175457],[1.214705,41.175468],[1.214709,41.175474],[1.214729,41.175509],[1.214772,41.175566],[1.214782,41.175579],[1.214828,41.175695],[1.214844,41.175738],[1.214849,41.175812],[1.214855,41.175877],[1.214872,41.176116],[1.214891,41.176354],[1.214894,41.176396],[1.214924,41.176749],[1.214952,41.177073],[1.214962,41.177141],[1.214962,41.177144],[1.215078,41.177972],[1.215113,41.178265],[1.21514,41.178449],[1.215188,41.178769],[1.215205,41.178862],[1.215225,41.178956],[1.215273,41.179141],[1.21531,41.179264],[1.215394,41.17952],[1.215429,41.179614],[1.215551,41.179974],[1.215585,41.180081],[1.215631,41.180223],[1.21564,41.180252],[1.215648,41.180256],[1.215651,41.180263],[1.215656,41.180277],[1.215659,41.180285],[1.215663,41.180296],[1.215667,41.180308],[1.215684,41.180355],[1.21582,41.180722],[1.215955,41.18107],[1.21609,41.181419],[1.216114,41.181485],[1.216251,41.181451],[1.216289,41.181442],[1.216619,41.181028],[1.216636,41.181012],[1.21667,41.180988],[1.216698,41.180972],[1.216702,41.18097],[1.216743,41.180952],[1.216791,41.180937],[1.216923,41.180911],[1.21712,41.180877],[1.21732,41.180851],[1.217566,41.180824],[1.217721,41.180808],[1.217797,41.1808],[1.217822,41.180795],[1.217839,41.180787],[1.217847,41.180783],[1.217858,41.180775],[1.217875,41.180836],[1.217888,41.180837],[1.217907,41.180845],[1.217913,41.18085],[1.217921,41.180857],[1.217929,41.180871],[1.217932,41.180893],[1.218076,41.181796],[1.218226,41.182738],[1.218224,41.182797],[1.218221,41.182911],[1.21822,41.182948],[1.218219,41.18297],[1.216957,41.183005],[1.216861,41.183007],[1.216871,41.183029],[1.216898,41.183109],[1.216909,41.183163],[1.216914,41.183233],[1.216914,41.183237],[1.21691,41.183305],[1.216906,41.183331],[1.216905,41.183336],[1.216902,41.183352],[1.216882,41.183413],[1.216798,41.183615],[1.216739,41.183752],[1.216726,41.183786],[1.216624,41.184033],[1.216475,41.184394],[1.216434,41.184579],[1.216434,41.184582],[1.216435,41.184585],[1.216435,41.184593],[1.216437,41.184628],[1.21644,41.18469],[1.216444,41.184762],[1.216451,41.184754],[1.216464,41.184795],[1.216465,41.184812],[1.216473,41.184823],[1.216568,41.185151],[1.216566,41.185151],[1.216559,41.185153],[1.216554,41.185154],[1.216555,41.185156],[1.216556,41.185162],[1.216566,41.185173],[1.216592,41.185218],[1.216623,41.185293],[1.216624,41.185296],[1.216626,41.185299],[1.216628,41.185302],[1.21669,41.185384],[1.216692,41.185387],[1.216694,41.18539],[1.216697,41.185392],[1.2167,41.185394],[1.216702,41.185395],[1.216708,41.185399],[1.21671,41.185401],[1.216713,41.185404],[1.216716,41.185407],[1.216719,41.185409],[1.216728,41.185416],[1.216731,41.185419],[1.216737,41.185422],[1.216764,41.185441],[1.216786,41.185445],[1.216819,41.185451],[1.217046,41.185528],[1.217254,41.185513],[1.21749,41.185502],[1.217769,41.185503],[1.218268,41.185502],[1.218694,41.185497],[1.219119,41.185488],[1.219451,41.185472],[1.21977,41.18546],[1.219943,41.185452],[1.219963,41.185451],[1.219959,41.185485],[1.219947,41.185551],[1.219946,41.185557],[1.219941,41.185631],[1.21994,41.185642],[1.219935,41.185666],[1.219931,41.185679],[1.219929,41.185685],[1.219927,41.18569],[1.219922,41.185698],[1.21992,41.185702],[1.219911,41.185712],[1.219921,41.185727],[1.219936,41.185745],[1.219979,41.185804],[1.219458,41.18594],[1.219357,41.18615],[1.219364,41.186187],[1.21936,41.186194],[1.219374,41.186358]],[[1.219861,41.180598],[1.219856,41.180599],[1.219792,41.180504],[1.21968,41.180337],[1.219114,41.1795],[1.218583,41.178726],[1.218567,41.178702],[1.218076,41.178081],[1.219271,41.177859],[1.220403,41.177649],[1.221769,41.177493],[1.223329,41.177312],[1.224454,41.177148],[1.224485,41.177144],[1.223946,41.178136],[1.223663,41.179488],[1.219875,41.180618],[1.219861,41.180598]]]]}}]}