{"type":"FeatureCollection","name":"ICGC Àrees de poblament - els Pallaresos","features":[{"type":"Feature","id":"431009_431009 SI02 TAR 2","properties":{"area_id":"431009_431009 SI02 TAR 2","nom":"Carretera de Sant Salvador","codi_icgc":"431009 SI02 TAR 2","categoria":"Sector industrial","codi_municipi":"431009","municipi":"els Pallaresos","codi_comarca":"36","comarca":"Tarragonès","provincia":"Tarragona","font":"ICGC Àrees de poblament v3r1 202602"},"geometry":{"type":"MultiPolygon","coordinates":[[[[1.248074,41.167258],[1.247834,41.167077],[1.247717,41.166989],[1.247688,41.166988],[1.247645,41.16702],[1.247592,41.167069],[1.247571,41.167122],[1.247532,41.16719],[1.247491,41.1673],[1.247465,41.167396],[1.247619,41.167504],[1.247828,41.167676],[1.248111,41.167857],[1.24934,41.168297],[1.249121,41.168102],[1.248783,41.167837],[1.248074,41.167258]]]]}},{"type":"Feature","id":"431009_431009 SI01 TAR 2","properties":{"area_id":"431009_431009 SI01 TAR 2","nom":"Carretera de Santes Creus","codi_icgc":"431009 SI01 TAR 2","categoria":"Sector industrial","codi_municipi":"431009","municipi":"els Pallaresos","codi_comarca":"36","comarca":"Tarragonès","provincia":"Tarragona","font":"ICGC Àrees de poblament v3r1 202602"},"geometry":{"type":"MultiPolygon","coordinates":[[[[1.272551,41.176177],[1.27303,41.176125],[1.273056,41.176122],[1.272929,41.17573],[1.272375,41.175847],[1.271944,41.175934],[1.271538,41.176014],[1.270917,41.176108],[1.270917,41.176107],[1.270276,41.176219],[1.270093,41.176251],[1.27009,41.176251],[1.270074,41.176254],[1.269936,41.176416],[1.269925,41.176428],[1.269891,41.176469],[1.271166,41.176329],[1.271588,41.176283],[1.272551,41.176177]]]]}},{"type":"Feature","id":"431009_431009 AP02 TAR 3","properties":{"area_id":"431009_431009 AP02 TAR 3","nom":"Pallaresos Park","codi_icgc":"431009 AP02 TAR 3","categoria":"Àrees de poblament","codi_municipi":"431009","municipi":"els Pallaresos","codi_comarca":"36","comarca":"Tarragonès","provincia":"Tarragona","font":"ICGC Àrees de poblament v3r1 202602"},"geometry":{"type":"MultiPolygon","coordinates":[[[[1.261865,41.179773],[1.261867,41.179771],[1.261878,41.179771],[1.261879,41.179771],[1.261889,41.179755],[1.262131,41.179382],[1.262296,41.179127],[1.262298,41.179123],[1.262358,41.179023],[1.262521,41.178751],[1.262643,41.17861],[1.262688,41.178571],[1.263063,41.17875],[1.263074,41.178733],[1.263126,41.178765],[1.263129,41.178761],[1.263303,41.178556],[1.263334,41.178528],[1.263511,41.178352],[1.263449,41.178303],[1.263333,41.178212],[1.262934,41.177862],[1.262925,41.177855],[1.26274,41.177713],[1.262725,41.177702],[1.262709,41.177725],[1.262702,41.177735],[1.262684,41.177755],[1.262641,41.177803],[1.262634,41.17781],[1.262593,41.177869],[1.262568,41.177845],[1.262472,41.17777],[1.262367,41.177678],[1.262281,41.177599],[1.262144,41.177487],[1.262004,41.177376],[1.261834,41.177245],[1.261658,41.177117],[1.261618,41.177091],[1.261543,41.17705],[1.261484,41.177023],[1.261391,41.176987],[1.261293,41.176955],[1.261191,41.176928],[1.261113,41.176911],[1.260995,41.176891],[1.260876,41.176875],[1.260793,41.176866],[1.260731,41.176863],[1.260734,41.176818],[1.260754,41.176797],[1.260854,41.176697],[1.260854,41.176672],[1.26083,41.176633],[1.260781,41.176573],[1.26071,41.176512],[1.260636,41.176464],[1.260555,41.176434],[1.260473,41.176411],[1.26036,41.176409],[1.260268,41.176408],[1.260123,41.176434],[1.260113,41.176444],[1.260074,41.176472],[1.260022,41.176543],[1.260005,41.176595],[1.259946,41.176649],[1.259406,41.176845],[1.259385,41.176824],[1.259357,41.176788],[1.259331,41.176738],[1.259317,41.1767],[1.259305,41.176643],[1.259302,41.176586],[1.259308,41.176529],[1.259315,41.176486],[1.259334,41.176423],[1.259361,41.176361],[1.259455,41.176205],[1.259555,41.176051],[1.25959,41.176001],[1.259645,41.175922],[1.25974,41.175796],[1.259772,41.175761],[1.259834,41.175703],[1.259935,41.175619],[1.259984,41.175576],[1.260029,41.175531],[1.260069,41.175486],[1.260122,41.175416],[1.260144,41.17538],[1.260164,41.175342],[1.260179,41.175306],[1.260191,41.175269],[1.260199,41.175242],[1.260205,41.175215],[1.260422,41.175131],[1.261234,41.174814],[1.261322,41.174735],[1.261174,41.174661],[1.261168,41.174658],[1.261025,41.174488],[1.261024,41.174483],[1.261003,41.174417],[1.260965,41.174301],[1.260964,41.174297],[1.260914,41.174287],[1.260889,41.174282],[1.260877,41.174268],[1.260825,41.17421],[1.260815,41.174199],[1.260773,41.174121],[1.260621,41.173845],[1.260526,41.173748],[1.260483,41.173704],[1.26037,41.173582],[1.260368,41.173581],[1.260363,41.173582],[1.260321,41.173594],[1.260287,41.173604],[1.260272,41.173585],[1.26027,41.173583],[1.260259,41.17359],[1.259954,41.173169],[1.259944,41.173156],[1.259903,41.173177],[1.259882,41.173187],[1.259847,41.173195],[1.259782,41.173211],[1.25969,41.173265],[1.259682,41.17327],[1.259557,41.173346],[1.259556,41.173346],[1.259556,41.173347],[1.259466,41.173428],[1.259382,41.173515],[1.259366,41.17353],[1.259338,41.173569],[1.259263,41.173672],[1.259168,41.173802],[1.259164,41.173806],[1.259164,41.173806],[1.258773,41.174153],[1.258742,41.174175],[1.258738,41.174178],[1.258734,41.17418],[1.258564,41.174302],[1.25846,41.174376],[1.258234,41.174539],[1.258201,41.174562],[1.258149,41.174613],[1.258098,41.174672],[1.258077,41.174688],[1.258047,41.174713],[1.258007,41.174751],[1.258007,41.174751],[1.257776,41.174959],[1.257771,41.174964],[1.257763,41.174965],[1.257333,41.175025],[1.257307,41.175],[1.257192,41.174896],[1.256901,41.174664],[1.256901,41.174664],[1.25687,41.174675],[1.256847,41.174683],[1.256804,41.174697],[1.256712,41.1746],[1.256703,41.174592],[1.256589,41.174415],[1.256582,41.174403],[1.256306,41.174504],[1.256222,41.174535],[1.255896,41.174655],[1.255825,41.174536],[1.255817,41.17454],[1.255739,41.174577],[1.255497,41.174699],[1.255465,41.174714],[1.255529,41.174821],[1.255592,41.174906],[1.255665,41.17504],[1.255727,41.175152],[1.255732,41.175161],[1.255805,41.175326],[1.255818,41.175355],[1.255885,41.175479],[1.255944,41.175569],[1.25602,41.175725],[1.256111,41.17591],[1.256186,41.176082],[1.256245,41.17624],[1.256299,41.176382],[1.256356,41.176497],[1.256407,41.176584],[1.256431,41.176613],[1.256488,41.176681],[1.256537,41.176759],[1.256612,41.176916],[1.256696,41.177138],[1.256769,41.177339],[1.256822,41.177483],[1.256835,41.177522],[1.256864,41.177608],[1.256887,41.177701],[1.256927,41.177808],[1.256991,41.17793],[1.25702,41.177987],[1.257084,41.178026],[1.257125,41.178086],[1.257171,41.178217],[1.257248,41.178336],[1.257258,41.178385],[1.25727,41.178413],[1.25736,41.178615],[1.25736,41.178616],[1.257438,41.17876],[1.257528,41.178927],[1.257635,41.179125],[1.257956,41.179057],[1.25822,41.178996],[1.258247,41.17899],[1.258572,41.178906],[1.258621,41.178893],[1.258845,41.178826],[1.259236,41.178708],[1.259514,41.1786],[1.259621,41.178558],[1.259658,41.178552],[1.259714,41.178543],[1.259725,41.178541],[1.259777,41.178552],[1.259822,41.178578],[1.259917,41.178633],[1.260045,41.178729],[1.260101,41.178771],[1.260117,41.178781],[1.260533,41.17906],[1.260914,41.179283],[1.26163,41.179652],[1.261865,41.179773]]]]}},{"type":"Feature","id":"431009_431009 SI03 TAR 2","properties":{"area_id":"431009_431009 SI03 TAR 2","nom":"Polígon Els Hostalets","codi_icgc":"431009 SI03 TAR 2","categoria":"Sector industrial","codi_municipi":"431009","municipi":"els Pallaresos","codi_comarca":"36","comarca":"Tarragonès","provincia":"Tarragona","font":"ICGC Àrees de poblament v3r1 202602"},"geometry":{"type":"MultiPolygon","coordinates":[[[[1.2707,41.161127],[1.270687,41.161161],[1.271373,41.161294],[1.271177,41.16178],[1.271058,41.162069],[1.270755,41.162012],[1.270744,41.162036],[1.270737,41.162063],[1.27065,41.162336],[1.270919,41.162371],[1.271231,41.162419],[1.271292,41.162429],[1.27148,41.161987],[1.271713,41.161383],[1.271748,41.16124],[1.271491,41.160666],[1.2708,41.160824],[1.2707,41.161127]]]]}},{"type":"Feature","id":"431009_431009 AP03 TAR 3","properties":{"area_id":"431009_431009 AP03 TAR 3","nom":"els Hostalets","codi_icgc":"431009 AP03 TAR 3","categoria":"Àrees de poblament","codi_municipi":"431009","municipi":"els Pallaresos","codi_comarca":"36","comarca":"Tarragonès","provincia":"Tarragona","font":"ICGC Àrees de poblament v3r1 202602"},"geometry":{"type":"MultiPolygon","coordinates":[[[[1.270569,41.162377],[1.270679,41.162023],[1.270697,41.16198],[1.271053,41.162045],[1.271216,41.16154],[1.2713,41.1613],[1.270602,41.161161],[1.270725,41.160809],[1.271086,41.160743],[1.271415,41.160658],[1.271478,41.16064],[1.271336,41.16035],[1.271049,41.159928],[1.271087,41.159739],[1.271124,41.159571],[1.271057,41.15927],[1.271034,41.159198],[1.270995,41.159204],[1.270566,41.15928],[1.269948,41.159383],[1.269199,41.159479],[1.269072,41.159488],[1.268455,41.159464],[1.26813,41.159438],[1.2677,41.159393],[1.267205,41.159334],[1.266631,41.159286],[1.266294,41.159256],[1.265698,41.159172],[1.265384,41.159139],[1.264714,41.159074],[1.264233,41.15903],[1.264074,41.159022],[1.263885,41.159015],[1.263689,41.159016],[1.263332,41.159055],[1.262997,41.158937],[1.262896,41.158918],[1.262823,41.158931],[1.262751,41.158977],[1.262701,41.159047],[1.26266,41.159119],[1.262704,41.159167],[1.2625,41.159253],[1.26237,41.159297],[1.261947,41.15934],[1.261841,41.159367],[1.261507,41.159408],[1.261145,41.159448],[1.260789,41.159451],[1.260635,41.159441],[1.260357,41.159396],[1.260062,41.159351],[1.259994,41.159347],[1.259903,41.159342],[1.259722,41.159326],[1.259659,41.159333],[1.259551,41.159367],[1.259498,41.15938],[1.25941,41.1594],[1.259324,41.159425],[1.259312,41.159429],[1.259225,41.159456],[1.259226,41.159459],[1.259217,41.159461],[1.259293,41.159623],[1.259474,41.160125],[1.259507,41.160218],[1.259537,41.160266],[1.259592,41.160303],[1.259642,41.16033],[1.259689,41.160352],[1.259726,41.160363],[1.259743,41.160367],[1.259793,41.160378],[1.259866,41.16038],[1.260359,41.160324],[1.260537,41.160293],[1.260558,41.160291],[1.260592,41.1603],[1.260796,41.160326],[1.261287,41.160437],[1.261298,41.16044],[1.261379,41.160477],[1.261554,41.160559],[1.2616,41.160581],[1.261746,41.160641],[1.26193,41.160732],[1.262098,41.160795],[1.262314,41.160854],[1.262314,41.160851],[1.262397,41.160873],[1.262603,41.160905],[1.262766,41.160963],[1.26283,41.160985],[1.263036,41.161124],[1.263057,41.161133],[1.263181,41.161186],[1.263179,41.161189],[1.263172,41.161205],[1.263087,41.161313],[1.262997,41.16142],[1.26316,41.161539],[1.263375,41.161684],[1.26368,41.161938],[1.263748,41.16199],[1.263744,41.161991],[1.263837,41.162068],[1.263865,41.162091],[1.263893,41.162113],[1.263897,41.162117],[1.263906,41.162126],[1.263912,41.162135],[1.26392,41.162149],[1.263931,41.162173],[1.263943,41.162208],[1.263947,41.162228],[1.263949,41.162243],[1.263949,41.162279],[1.263943,41.162298],[1.263933,41.162316],[1.263912,41.162336],[1.2639,41.162342],[1.263886,41.162345],[1.263872,41.162345],[1.26385,41.162341],[1.263829,41.162333],[1.263788,41.162318],[1.26375,41.1623],[1.263679,41.162258],[1.263609,41.162215],[1.263556,41.16218],[1.263502,41.162145],[1.263456,41.162122],[1.263404,41.162106],[1.263361,41.162097],[1.263317,41.162094],[1.263006,41.162102],[1.262694,41.16211],[1.262561,41.162112],[1.262429,41.162115],[1.262406,41.162117],[1.26239,41.162122],[1.262374,41.162127],[1.262358,41.162136],[1.262344,41.162146],[1.26233,41.16216],[1.262318,41.162182],[1.262317,41.162205],[1.262359,41.162391],[1.262361,41.1624],[1.262401,41.162577],[1.262417,41.162637],[1.262432,41.162698],[1.262434,41.162707],[1.262434,41.162712],[1.262431,41.162725],[1.26243,41.162731],[1.262426,41.162744],[1.262416,41.162751],[1.262409,41.162757],[1.262405,41.162761],[1.262386,41.162771],[1.262367,41.16278],[1.262274,41.162826],[1.262182,41.162871],[1.262141,41.16289],[1.262099,41.16291],[1.262076,41.162921],[1.262068,41.162928],[1.262066,41.162932],[1.262064,41.162995],[1.262053,41.163149],[1.26199,41.163149],[1.261991,41.163153],[1.261991,41.163179],[1.261991,41.163215],[1.261989,41.163635],[1.261998,41.163648],[1.262014,41.163673],[1.262053,41.163734],[1.262115,41.163794],[1.262149,41.163814],[1.262198,41.163848],[1.262243,41.163877],[1.262288,41.163906],[1.262357,41.163961],[1.262425,41.164017],[1.262516,41.164097],[1.262606,41.164179],[1.262603,41.164196],[1.262596,41.164203],[1.262186,41.164364],[1.261958,41.164453],[1.261895,41.164459],[1.261804,41.16446],[1.261731,41.164466],[1.261475,41.164496],[1.261298,41.164493],[1.261217,41.164475],[1.260824,41.1644],[1.26061,41.164395],[1.260656,41.164572],[1.260655,41.164593],[1.260651,41.164622],[1.260624,41.164705],[1.260268,41.165281],[1.260162,41.165603],[1.260176,41.165606],[1.2603,41.165636],[1.26036,41.165654],[1.260699,41.165742],[1.260726,41.165749],[1.261078,41.165829],[1.261087,41.165831],[1.261385,41.165903],[1.261692,41.165979],[1.261848,41.16633],[1.261863,41.166354],[1.261888,41.166361],[1.262132,41.166367],[1.26219,41.166369],[1.262248,41.166364],[1.262305,41.166354],[1.26235,41.166342],[1.262427,41.166296],[1.262582,41.16623],[1.262822,41.166123],[1.262825,41.166131],[1.262869,41.166101],[1.262868,41.166094],[1.263098,41.16596],[1.26316,41.165924],[1.264075,41.165922],[1.264089,41.165934],[1.264101,41.165975],[1.264119,41.166034],[1.264137,41.166094],[1.264158,41.166152],[1.264196,41.166237],[1.264239,41.16632],[1.264294,41.166418],[1.264349,41.166514],[1.264391,41.166592],[1.264408,41.166632],[1.264423,41.166672],[1.264429,41.166698],[1.264449,41.166778],[1.264474,41.166885],[1.264498,41.167013],[1.264516,41.167077],[1.26453,41.167109],[1.264542,41.16713],[1.264548,41.167139],[1.26457,41.167171],[1.264586,41.167193],[1.264654,41.167257],[1.264658,41.167248],[1.264714,41.167225],[1.264809,41.167178],[1.264814,41.167174],[1.264937,41.167088],[1.265083,41.166986],[1.265307,41.166828],[1.265491,41.166697],[1.265529,41.16667],[1.265655,41.166585],[1.265782,41.1665],[1.265785,41.166498],[1.265867,41.166442],[1.265884,41.166427],[1.265889,41.16642],[1.265894,41.166414],[1.265896,41.166411],[1.265911,41.166378],[1.265915,41.166344],[1.265912,41.16631],[1.265905,41.166287],[1.265876,41.166227],[1.265843,41.166168],[1.265829,41.166149],[1.265816,41.166131],[1.265785,41.166092],[1.26576,41.16606],[1.265735,41.166027],[1.265727,41.166013],[1.265726,41.165998],[1.265732,41.165987],[1.265742,41.165977],[1.265751,41.165968],[1.265762,41.165963],[1.265784,41.165954],[1.265795,41.16595],[1.26581,41.165945],[1.265856,41.165928],[1.265902,41.165914],[1.266025,41.165876],[1.266147,41.165837],[1.266357,41.165761],[1.266565,41.165681],[1.266746,41.165608],[1.266926,41.165535],[1.267248,41.165399],[1.267568,41.165261],[1.267755,41.165178],[1.268032,41.16505],[1.268171,41.164988],[1.268314,41.16493],[1.2685,41.164857],[1.268686,41.164785],[1.268986,41.164669],[1.269286,41.164551],[1.269386,41.164509],[1.269534,41.164441],[1.269682,41.164373],[1.269879,41.164287],[1.270077,41.164202],[1.270096,41.164195],[1.270123,41.164192],[1.270252,41.164011],[1.270591,41.163625],[1.270695,41.163488],[1.270819,41.163323],[1.270867,41.163256],[1.270996,41.162999],[1.271033,41.16294],[1.271207,41.162624],[1.271265,41.16249],[1.271274,41.162471],[1.270569,41.162377]]]]}},{"type":"Feature","id":"431009_431009 AP01 TAR 3","properties":{"area_id":"431009_431009 AP01 TAR 3","nom":"els Pallaresos","codi_icgc":"431009 AP01 TAR 3","categoria":"Àrees de poblament","codi_municipi":"431009","municipi":"els Pallaresos","codi_comarca":"36","comarca":"Tarragonès","provincia":"Tarragona","font":"ICGC Àrees de poblament v3r1 202602"},"geometry":{"type":"MultiPolygon","coordinates":[[[[1.270827,41.176025],[1.271105,41.175979],[1.271554,41.175909],[1.272168,41.175813],[1.272384,41.175762],[1.27286,41.175652],[1.27292,41.175644],[1.273111,41.176116],[1.274027,41.176016],[1.274011,41.175958],[1.274002,41.175922],[1.274439,41.175861],[1.274724,41.175826],[1.275401,41.175804],[1.275861,41.175775],[1.275786,41.175426],[1.276266,41.175412],[1.276492,41.175391],[1.276548,41.17574],[1.276706,41.175722],[1.276831,41.175709],[1.277018,41.175688],[1.277339,41.175653],[1.278028,41.175578],[1.278072,41.175447],[1.278094,41.17534],[1.279285,41.175374],[1.279283,41.17537],[1.279087,41.175028],[1.278966,41.174806],[1.278901,41.174745],[1.278797,41.174648],[1.278776,41.174558],[1.278794,41.174475],[1.27885,41.174419],[1.27893,41.17437],[1.27904,41.174255],[1.279118,41.174149],[1.279237,41.173949],[1.279481,41.17352],[1.279543,41.173396],[1.27958,41.173215],[1.279559,41.173116],[1.279487,41.173005],[1.279434,41.172964],[1.279408,41.172956],[1.279326,41.172928],[1.279286,41.172916],[1.279192,41.172891],[1.279095,41.172872],[1.278997,41.172859],[1.278898,41.172851],[1.278798,41.172849],[1.278698,41.172853],[1.278599,41.172863],[1.278501,41.172878],[1.278405,41.172899],[1.278311,41.172925],[1.27822,41.172956],[1.278132,41.172993],[1.278049,41.173035],[1.278009,41.173056],[1.277623,41.172618],[1.277561,41.172543],[1.277493,41.172478],[1.277415,41.172463],[1.277257,41.172455],[1.276841,41.172668],[1.27671,41.172752],[1.276833,41.172907],[1.276355,41.173086],[1.275472,41.173416],[1.274659,41.173379],[1.274226,41.173444],[1.274009,41.173448],[1.274206,41.173318],[1.274596,41.173067],[1.274688,41.172997],[1.274752,41.17288],[1.274769,41.172794],[1.274753,41.172658],[1.274682,41.172321],[1.274663,41.172137],[1.274722,41.172062],[1.27559,41.171965],[1.275941,41.171934],[1.276305,41.171761],[1.276923,41.171477],[1.277034,41.171378],[1.276944,41.171202],[1.276853,41.171068],[1.276744,41.170913],[1.276633,41.170806],[1.276438,41.170649],[1.27609,41.170415],[1.275705,41.170106],[1.275502,41.169892],[1.275315,41.169642],[1.275257,41.169498],[1.275287,41.169438],[1.275317,41.169388],[1.275314,41.169335],[1.275249,41.169266],[1.275155,41.169239],[1.274948,41.168836],[1.274848,41.168856],[1.27474,41.168676],[1.274435,41.168264],[1.274457,41.16824],[1.274041,41.167781],[1.273738,41.167916],[1.273631,41.167738],[1.273322,41.167262],[1.273209,41.167074],[1.273151,41.166915],[1.273038,41.166556],[1.272968,41.166158],[1.272929,41.165657],[1.27291,41.165288],[1.273322,41.165288],[1.273473,41.165283],[1.273464,41.165114],[1.273381,41.164641],[1.273317,41.164454],[1.273138,41.164047],[1.272852,41.16341],[1.272708,41.163133],[1.272519,41.162783],[1.272266,41.162322],[1.271708,41.162471],[1.271509,41.162514],[1.271461,41.162542],[1.271425,41.162631],[1.271226,41.162996],[1.270882,41.163491],[1.270764,41.163665],[1.27055,41.163908],[1.270451,41.16407],[1.27027,41.164285],[1.27022,41.16437],[1.270194,41.16447],[1.270196,41.164588],[1.270222,41.164853],[1.270464,41.166631],[1.27116,41.166598],[1.271248,41.166668],[1.271291,41.166665],[1.271386,41.166648],[1.2715,41.166607],[1.271681,41.167105],[1.271939,41.167723],[1.271929,41.167766],[1.271876,41.167776],[1.271514,41.167696],[1.271061,41.167664],[1.270792,41.167645],[1.27063,41.167668],[1.270606,41.167693],[1.270653,41.168072],[1.270831,41.169388],[1.270894,41.169861],[1.270948,41.170341],[1.271091,41.171396],[1.271169,41.172012],[1.271228,41.172484],[1.271229,41.172599],[1.271194,41.172666],[1.271169,41.172711],[1.271001,41.172743],[1.270934,41.172764],[1.270918,41.172767],[1.27082,41.172791],[1.270772,41.172947],[1.270682,41.173247],[1.270664,41.173303],[1.270603,41.173366],[1.270596,41.173374],[1.270547,41.173466],[1.270499,41.173486],[1.270426,41.173875],[1.270423,41.173898],[1.270422,41.1739],[1.270409,41.173921],[1.27023,41.173897],[1.270144,41.173892],[1.270103,41.173913],[1.270052,41.173958],[1.270006,41.174022],[1.269968,41.174122],[1.269965,41.174225],[1.269951,41.174369],[1.269886,41.174538],[1.269793,41.174746],[1.269596,41.174743],[1.269348,41.174774],[1.269143,41.174793],[1.269032,41.174788],[1.268846,41.17477],[1.268715,41.174745],[1.268598,41.174692],[1.268182,41.174595],[1.268146,41.174588],[1.268134,41.174586],[1.268088,41.174602],[1.268048,41.174609],[1.268012,41.174635],[1.26795,41.174682],[1.267837,41.174734],[1.267713,41.17477],[1.267657,41.174784],[1.267585,41.174812],[1.267544,41.174853],[1.267523,41.174901],[1.267833,41.175187],[1.26767,41.175281],[1.267798,41.175419],[1.26774,41.175472],[1.267869,41.175558],[1.268,41.175682],[1.268036,41.17572],[1.268109,41.175775],[1.268038,41.175822],[1.267892,41.175917],[1.268188,41.176062],[1.26822,41.176087],[1.268177,41.176125],[1.268125,41.176146],[1.267981,41.176194],[1.267964,41.1762],[1.267851,41.176327],[1.267819,41.176367],[1.267673,41.176511],[1.26786,41.176625],[1.268191,41.176424],[1.268274,41.176364],[1.268293,41.176317],[1.268333,41.176255],[1.2684,41.17621],[1.26865,41.176257],[1.268865,41.176324],[1.26905,41.176338],[1.269268,41.176323],[1.269401,41.176296],[1.269507,41.176234],[1.269583,41.176206],[1.269669,41.17619],[1.26974,41.176191],[1.269962,41.17618],[1.270176,41.17614],[1.270723,41.176041],[1.270827,41.176025]]]]}}]}