{"type":"FeatureCollection","name":"ICGC Àrees de poblament - Prat de Comte","features":[{"type":"Feature","id":"431172_431172 AP01 TAL 3","properties":{"area_id":"431172_431172 AP01 TAL 3","nom":"Prat de Comte","codi_icgc":"431172 AP01 TAL 3","categoria":"Àrees de poblament","codi_municipi":"431172","municipi":"Prat de Comte","codi_comarca":"37","comarca":"Terra Alta","provincia":"Tarragona","font":"ICGC Àrees de poblament v3r1 202602"},"geometry":{"type":"MultiPolygon","coordinates":[[[[0.404559,40.98462],[0.404605,40.984536],[0.404665,40.984414],[0.404718,40.984424],[0.404775,40.984416],[0.404931,40.984436],[0.404985,40.984401],[0.404965,40.984383],[0.405279,40.984167],[0.405319,40.984142],[0.405378,40.984097],[0.405486,40.984143],[0.405653,40.983878],[0.405706,40.983908],[0.405779,40.983758],[0.405888,40.983584],[0.405939,40.983578],[0.406004,40.983615],[0.406089,40.983605],[0.40622,40.983567],[0.406162,40.983435],[0.406124,40.983351],[0.406126,40.98335],[0.406205,40.983327],[0.406478,40.98322],[0.406538,40.98315],[0.406938,40.982966],[0.406932,40.98292],[0.406913,40.982792],[0.406874,40.982672],[0.406868,40.982652],[0.406867,40.982649],[0.406861,40.982638],[0.406856,40.982628],[0.406812,40.982545],[0.406683,40.982535],[0.406479,40.982423],[0.406491,40.982402],[0.406585,40.982437],[0.406628,40.982356],[0.406643,40.982348],[0.406669,40.98235],[0.406705,40.982366],[0.406714,40.982371],[0.406756,40.982393],[0.406822,40.982426],[0.406874,40.982449],[0.406944,40.98244],[0.407021,40.982389],[0.407047,40.982381],[0.407114,40.982362],[0.407181,40.982343],[0.407257,40.982316],[0.407342,40.982285],[0.4074,40.982286],[0.407442,40.982294],[0.407472,40.9823],[0.407582,40.982374],[0.407759,40.982392],[0.407784,40.982356],[0.407843,40.98228],[0.407842,40.982277],[0.407791,40.982257],[0.407673,40.982192],[0.407704,40.982165],[0.407782,40.982101],[0.407789,40.982101],[0.407782,40.982078],[0.407781,40.982033],[0.407791,40.981972],[0.407792,40.981968],[0.407684,40.981892],[0.407656,40.981873],[0.407629,40.981854],[0.407682,40.981794],[0.407721,40.981738],[0.407759,40.981668],[0.407789,40.981621],[0.407818,40.98154],[0.407818,40.981494],[0.407818,40.981451],[0.4078,40.981309],[0.407651,40.981301],[0.407553,40.981315],[0.407551,40.981366],[0.407542,40.98143],[0.407525,40.981492],[0.407501,40.981552],[0.407492,40.981569],[0.407197,40.981462],[0.407195,40.981513],[0.40718,40.981507],[0.40716,40.981536],[0.407102,40.981624],[0.407047,40.981676],[0.407079,40.981708],[0.407007,40.981735],[0.406933,40.98176],[0.406857,40.981781],[0.406781,40.981803],[0.406757,40.981817],[0.406736,40.981835],[0.4066,40.981871],[0.40658,40.98183],[0.406526,40.98187],[0.40645,40.981816],[0.406396,40.981779],[0.406377,40.981766],[0.406276,40.981697],[0.406035,40.981852],[0.405841,40.981976],[0.405775,40.981981],[0.405776,40.982008],[0.405636,40.982003],[0.405411,40.981979],[0.405378,40.982004],[0.405363,40.982068],[0.405163,40.982047],[0.405138,40.98213],[0.405138,40.98213],[0.405092,40.98234],[0.405328,40.982367],[0.405565,40.982395],[0.405739,40.982415],[0.405714,40.982475],[0.40551,40.982799],[0.405487,40.982836],[0.40546,40.982882],[0.405426,40.982856],[0.4054,40.982844],[0.404671,40.982663],[0.404628,40.982674],[0.404595,40.982742],[0.404593,40.982766],[0.404587,40.982839],[0.40458,40.982862],[0.404567,40.982884],[0.404547,40.982908],[0.40452,40.982929],[0.40447,40.982959],[0.404419,40.982989],[0.404405,40.982998],[0.404392,40.983004],[0.404386,40.983004],[0.404372,40.983],[0.404356,40.982995],[0.404331,40.982988],[0.404306,40.982982],[0.404269,40.982979],[0.40424,40.982977],[0.404224,40.982993],[0.404308,40.983039],[0.404337,40.98305],[0.404368,40.983054],[0.404388,40.983053],[0.404434,40.983047],[0.404478,40.983041],[0.404528,40.98304],[0.404578,40.983042],[0.40464,40.983055],[0.404673,40.983062],[0.404621,40.983178],[0.404629,40.98318],[0.404619,40.983222],[0.404606,40.98325],[0.404597,40.983278],[0.404692,40.983314],[0.40465,40.98337],[0.404586,40.983401],[0.404566,40.983465],[0.40454,40.983527],[0.404515,40.983565],[0.404406,40.983629],[0.404255,40.983774],[0.404228,40.983763],[0.404201,40.983752],[0.404182,40.983773],[0.404006,40.983686],[0.403925,40.983813],[0.403899,40.983854],[0.403859,40.983834],[0.403635,40.984181],[0.403617,40.984209],[0.40365,40.984229],[0.403717,40.984268],[0.403751,40.984284],[0.403868,40.98433],[0.403925,40.984356],[0.403952,40.984372],[0.403977,40.984391],[0.403985,40.984404],[0.403986,40.984417],[0.403971,40.984436],[0.403943,40.984453],[0.40393,40.984448],[0.403787,40.984398],[0.403722,40.984518],[0.403694,40.984569],[0.403589,40.984526],[0.403557,40.984605],[0.403718,40.98467],[0.403871,40.984739],[0.403976,40.984793],[0.403922,40.985036],[0.403923,40.985071],[0.404006,40.985094],[0.404021,40.985099],[0.404133,40.985131],[0.40421,40.985151],[0.40429,40.985167],[0.40435,40.985173],[0.404369,40.985164],[0.404378,40.985153],[0.40441,40.985087],[0.40444,40.985023],[0.404458,40.984985],[0.404483,40.984944],[0.40449,40.984936],[0.404495,40.98493],[0.404517,40.984886],[0.404522,40.984878],[0.404547,40.984841],[0.404528,40.984832],[0.404484,40.984813],[0.404444,40.984797],[0.40446,40.984768],[0.404501,40.984703],[0.404559,40.98462]]]]}}]}