{"type":"FeatureCollection","name":"ICGC Àrees de poblament - Rocafort de Queralt","features":[{"type":"Feature","id":"431303_431303 AP01 CBA 3","properties":{"area_id":"431303_431303 AP01 CBA 3","nom":"Rocafort de Queralt","codi_icgc":"431303 AP01 CBA 3","categoria":"Àrees de poblament","codi_municipi":"431303","municipi":"Rocafort de Queralt","codi_comarca":"16","comarca":"Conca de Barberà","provincia":"Tarragona","font":"ICGC Àrees de poblament v3r1 202602"},"geometry":{"type":"MultiPolygon","coordinates":[[[[1.283936,41.47668],[1.284124,41.476617],[1.284065,41.476498],[1.283897,41.47656],[1.283921,41.47653],[1.283929,41.476495],[1.283913,41.476407],[1.283883,41.476357],[1.283857,41.476334],[1.283799,41.476296],[1.283768,41.476266],[1.283718,41.476215],[1.283677,41.476181],[1.283566,41.476234],[1.283531,41.476204],[1.283505,41.476181],[1.283471,41.476164],[1.283433,41.47614],[1.283433,41.476117],[1.283445,41.47608],[1.283494,41.476049],[1.283408,41.475965],[1.283442,41.47594],[1.283364,41.475869],[1.283324,41.475876],[1.2833,41.475851],[1.283266,41.475823],[1.28323,41.475803],[1.283175,41.475797],[1.283109,41.475802],[1.283043,41.475819],[1.283049,41.475798],[1.283065,41.475776],[1.283093,41.475753],[1.283154,41.475703],[1.283176,41.475686],[1.283167,41.475665],[1.28316,41.475581],[1.28302,41.475467],[1.282863,41.475434],[1.282816,41.47546],[1.282707,41.475537],[1.282599,41.475491],[1.282564,41.475473],[1.282561,41.47547],[1.282558,41.475468],[1.282541,41.475456],[1.282498,41.475433],[1.282464,41.475412],[1.282532,41.475329],[1.282396,41.475261],[1.282342,41.475322],[1.282296,41.475347],[1.282267,41.475355],[1.28225,41.475356],[1.282246,41.475355],[1.282207,41.475357],[1.282174,41.475348],[1.282164,41.475345],[1.282148,41.475204],[1.281951,41.475202],[1.2819,41.475196],[1.281897,41.475157],[1.281921,41.475039],[1.281902,41.475028],[1.28185,41.474919],[1.281729,41.474667],[1.281442,41.474676],[1.280971,41.475395],[1.281104,41.475424],[1.281237,41.475453],[1.28122,41.475531],[1.281723,41.475626],[1.281853,41.475648],[1.282318,41.475739],[1.28264,41.475845],[1.282638,41.475931],[1.282639,41.475953],[1.282637,41.475981],[1.282621,41.476025],[1.2826,41.476068],[1.282517,41.476243],[1.282434,41.476417],[1.282394,41.476498],[1.282353,41.476579],[1.282347,41.476599],[1.282347,41.476611],[1.282353,41.476621],[1.282363,41.476631],[1.282368,41.476644],[1.28237,41.476656],[1.282372,41.476672],[1.282273,41.476858],[1.282147,41.476912],[1.282181,41.476936],[1.282126,41.477011],[1.282067,41.4771],[1.282032,41.477152],[1.281967,41.477196],[1.281927,41.477211],[1.28186,41.4772],[1.281669,41.477136],[1.281629,41.47712],[1.281483,41.477172],[1.281493,41.477196],[1.28135,41.477245],[1.281337,41.477231],[1.281207,41.477261],[1.280756,41.477368],[1.280468,41.477447],[1.280386,41.477343],[1.280348,41.477365],[1.280243,41.477381],[1.280014,41.477476],[1.280021,41.477491],[1.28004,41.477518],[1.28008,41.477554],[1.2801,41.477572],[1.280118,41.47759],[1.280139,41.477616],[1.28016,41.477642],[1.280056,41.477759],[1.279981,41.477735],[1.279857,41.477686],[1.279771,41.477649],[1.279676,41.477624],[1.279588,41.47761],[1.279464,41.477595],[1.279334,41.477587],[1.279221,41.477582],[1.27918,41.477625],[1.279178,41.477792],[1.280036,41.477983],[1.280223,41.478039],[1.280175,41.478353],[1.280149,41.478654],[1.279625,41.478726],[1.279631,41.478743],[1.279663,41.478735],[1.279718,41.478847],[1.279751,41.478877],[1.279791,41.478872],[1.279821,41.478869],[1.27998,41.478853],[1.279986,41.478852],[1.280064,41.478926],[1.280171,41.479033],[1.280209,41.479065],[1.280283,41.479137],[1.280413,41.479186],[1.280449,41.479134],[1.280594,41.478987],[1.280629,41.479013],[1.280741,41.479086],[1.280601,41.479199],[1.280555,41.479236],[1.280593,41.479262],[1.280626,41.479283],[1.280646,41.479264],[1.280731,41.479317],[1.280768,41.479344],[1.280633,41.479491],[1.280681,41.47952],[1.280863,41.479585],[1.281023,41.479662],[1.281066,41.479657],[1.281103,41.47965],[1.281144,41.479638],[1.281178,41.479622],[1.281192,41.479604],[1.281199,41.47958],[1.281205,41.479561],[1.281254,41.479517],[1.281303,41.479552],[1.281364,41.479503],[1.281403,41.479428],[1.281271,41.479338],[1.281061,41.479199],[1.28105,41.479192],[1.280829,41.479047],[1.280697,41.478955],[1.280666,41.478928],[1.280745,41.47896],[1.280792,41.478979],[1.280839,41.478997],[1.280932,41.479034],[1.281043,41.479072],[1.281155,41.479109],[1.281219,41.479132],[1.281284,41.479154],[1.281413,41.479199],[1.281436,41.479208],[1.281529,41.479248],[1.281568,41.47927],[1.281623,41.47931],[1.281678,41.479352],[1.281737,41.479396],[1.281763,41.479418],[1.281784,41.479441],[1.281818,41.4795],[1.281852,41.479561],[1.281861,41.479577],[1.281891,41.479634],[1.281944,41.479653],[1.282031,41.479644],[1.282279,41.4796],[1.282303,41.479573],[1.282347,41.479559],[1.282413,41.479537],[1.28258,41.479765],[1.282647,41.479854],[1.282656,41.479867],[1.282664,41.479877],[1.282697,41.479922],[1.28275,41.479948],[1.28281,41.479977],[1.282862,41.480004],[1.282893,41.479997],[1.282954,41.479972],[1.282898,41.479896],[1.282896,41.479885],[1.28296,41.479863],[1.283026,41.47984],[1.283059,41.479824],[1.283089,41.4798],[1.283101,41.47978],[1.283101,41.479759],[1.283088,41.479733],[1.283072,41.479708],[1.283018,41.479636],[1.282966,41.479565],[1.282918,41.479489],[1.282871,41.479412],[1.282836,41.479362],[1.282736,41.47923],[1.282712,41.4792],[1.282636,41.479098],[1.282617,41.479073],[1.282594,41.479049],[1.282573,41.479037],[1.282559,41.479031],[1.282546,41.479026],[1.282536,41.479022],[1.282529,41.479006],[1.282524,41.478985],[1.282521,41.478968],[1.282522,41.478953],[1.282528,41.478935],[1.282589,41.478808],[1.282647,41.478691],[1.282652,41.478677],[1.282576,41.478328],[1.282484,41.478319],[1.282381,41.478291],[1.282357,41.47822],[1.282195,41.477966],[1.282167,41.477908],[1.282086,41.477762],[1.282242,41.477672],[1.282534,41.477469],[1.282578,41.477439],[1.282627,41.477416],[1.282693,41.47737],[1.282782,41.477315],[1.282887,41.477271],[1.282943,41.477256],[1.283054,41.477228],[1.283215,41.477192],[1.283177,41.477102],[1.28314,41.477014],[1.283159,41.477005],[1.283172,41.477001],[1.28326,41.476991],[1.283394,41.476974],[1.283528,41.476958],[1.283603,41.476951],[1.283614,41.47695],[1.283701,41.476942],[1.283728,41.476938],[1.283747,41.476937],[1.283814,41.476859],[1.283912,41.476816],[1.283967,41.476816],[1.28397,41.47677],[1.283961,41.476727],[1.283945,41.476698],[1.283936,41.47668]]]]}}]}