{"type":"FeatureCollection","name":"ICGC Àrees de poblament - Senan","features":[{"type":"Feature","id":"431460_431460 AP03 CBA 2","properties":{"area_id":"431460_431460 AP03 CBA 2","nom":"Raval de la Creu","codi_icgc":"431460 AP03 CBA 2","categoria":"Àrees de poblament","codi_municipi":"431460","municipi":"Senan","codi_comarca":"16","comarca":"Conca de Barberà","provincia":"Tarragona","font":"ICGC Àrees de poblament v3r1 202602"},"geometry":{"type":"MultiPolygon","coordinates":[[[[1.085467,41.469808],[1.085476,41.469801],[1.085746,41.46964],[1.085789,41.469617],[1.085655,41.46949],[1.085749,41.469417],[1.08554,41.469259],[1.08542,41.469359],[1.085164,41.469174],[1.085006,41.469073],[1.084828,41.469192],[1.084778,41.469365],[1.084744,41.469436],[1.084674,41.469522],[1.084664,41.469589],[1.084686,41.469599],[1.084742,41.469615],[1.084728,41.46964],[1.084696,41.469695],[1.084716,41.469729],[1.084993,41.469846],[1.085131,41.469906],[1.085241,41.469961],[1.085262,41.469947],[1.085284,41.469933],[1.085327,41.469909],[1.08536,41.469885],[1.085394,41.469862],[1.085426,41.469836],[1.085467,41.469808]]]]}},{"type":"Feature","id":"431460_431460 AP02 CBA 2","properties":{"area_id":"431460_431460 AP02 CBA 2","nom":"Raval de la Font","codi_icgc":"431460 AP02 CBA 2","categoria":"Àrees de poblament","codi_municipi":"431460","municipi":"Senan","codi_comarca":"16","comarca":"Conca de Barberà","provincia":"Tarragona","font":"ICGC Àrees de poblament v3r1 202602"},"geometry":{"type":"MultiPolygon","coordinates":[[[[1.083198,41.469839],[1.083104,41.469901],[1.083268,41.470033],[1.083278,41.470027],[1.083399,41.470111],[1.083412,41.47012],[1.083472,41.470162],[1.083464,41.470172],[1.083415,41.47024],[1.083398,41.470262],[1.083366,41.470292],[1.083331,41.47031],[1.083297,41.470277],[1.083295,41.47028],[1.083264,41.470266],[1.083245,41.470286],[1.083216,41.4703],[1.083191,41.470304],[1.083162,41.470328],[1.083069,41.470271],[1.082933,41.470375],[1.082979,41.470414],[1.08307,41.470481],[1.083058,41.470493],[1.083046,41.470504],[1.083032,41.470518],[1.083018,41.470532],[1.082995,41.470551],[1.082971,41.470568],[1.082946,41.470584],[1.082921,41.470598],[1.082894,41.470609],[1.082865,41.470616],[1.08283,41.470621],[1.082795,41.470626],[1.082753,41.470631],[1.082711,41.470637],[1.082697,41.47064],[1.082614,41.470705],[1.082611,41.470707],[1.082623,41.470874],[1.082642,41.470884],[1.083027,41.470979],[1.083011,41.471044],[1.083018,41.471103],[1.083041,41.471111],[1.083101,41.471132],[1.08314,41.471073],[1.083191,41.471041],[1.083237,41.471015],[1.083246,41.471006],[1.08339,41.471066],[1.08342,41.471079],[1.083453,41.471059],[1.083504,41.471026],[1.083526,41.471012],[1.083568,41.470987],[1.083602,41.470964],[1.083636,41.47094],[1.083667,41.470915],[1.083709,41.470886],[1.083742,41.470863],[1.083761,41.470844],[1.083778,41.470825],[1.083797,41.470803],[1.083816,41.470781],[1.083821,41.470776],[1.083836,41.470766],[1.08385,41.470758],[1.083913,41.47074],[1.08399,41.470719],[1.084045,41.470704],[1.084079,41.470691],[1.084123,41.470663],[1.084154,41.470643],[1.084207,41.470601],[1.084261,41.470567],[1.084318,41.470539],[1.084377,41.470512],[1.08444,41.470479],[1.084499,41.470443],[1.084541,41.47041],[1.084554,41.4704],[1.084493,41.470349],[1.084463,41.470342],[1.084446,41.470332],[1.084421,41.470308],[1.084404,41.470295],[1.084305,41.470295],[1.084275,41.470303],[1.084233,41.470314],[1.084196,41.470322],[1.084155,41.470331],[1.084137,41.47034],[1.084118,41.470358],[1.084105,41.470378],[1.084093,41.470408],[1.084086,41.470439],[1.084081,41.470515],[1.083806,41.470596],[1.083781,41.470629],[1.083757,41.470594],[1.083727,41.470555],[1.083699,41.470515],[1.08368,41.470476],[1.083661,41.470437],[1.083652,41.470419],[1.083647,41.470405],[1.083658,41.470385],[1.08367,41.470352],[1.083675,41.470319],[1.083676,41.470281],[1.083676,41.470235],[1.083676,41.470189],[1.083677,41.470142],[1.083682,41.470095],[1.083686,41.470071],[1.083765,41.470089],[1.083853,41.470017],[1.0837,41.469985],[1.083617,41.469968],[1.083615,41.469969],[1.083607,41.469981],[1.083605,41.469985],[1.083596,41.469996],[1.083574,41.470023],[1.083552,41.470052],[1.083261,41.46989],[1.083198,41.469839]]]]}},{"type":"Feature","id":"431460_431460 AP01 CBA 3","properties":{"area_id":"431460_431460 AP01 CBA 3","nom":"Senan","codi_icgc":"431460 AP01 CBA 3","categoria":"Àrees de poblament","codi_municipi":"431460","municipi":"Senan","codi_comarca":"16","comarca":"Conca de Barberà","provincia":"Tarragona","font":"ICGC Àrees de poblament v3r1 202602"},"geometry":{"type":"MultiPolygon","coordinates":[[[[1.086252,41.4699],[1.08619,41.469902],[1.086179,41.469954],[1.086179,41.469989],[1.086183,41.470061],[1.086269,41.470062],[1.086347,41.470067],[1.086367,41.470068],[1.086367,41.47011],[1.086368,41.470174],[1.086368,41.470214],[1.086455,41.470178],[1.086485,41.470198],[1.0865,41.470192],[1.086552,41.470173],[1.086568,41.470167],[1.086584,41.470162],[1.086601,41.470158],[1.086613,41.470155],[1.086624,41.470153],[1.086649,41.470151],[1.086703,41.470147],[1.086717,41.470146],[1.086731,41.470145],[1.086882,41.470104],[1.086949,41.470096],[1.086948,41.470138],[1.086968,41.470167],[1.087,41.470162],[1.086994,41.470138],[1.087038,41.470137],[1.087055,41.470108],[1.087112,41.470095],[1.087208,41.470075],[1.087238,41.470069],[1.087323,41.470003],[1.087355,41.470024],[1.087425,41.470122],[1.087473,41.470207],[1.087517,41.470225],[1.08753,41.470217],[1.087544,41.470208],[1.087559,41.470201],[1.087584,41.470195],[1.087608,41.47019],[1.087619,41.470187],[1.087629,41.470184],[1.087636,41.470181],[1.087645,41.470177],[1.087672,41.470219],[1.087737,41.470295],[1.087777,41.470284],[1.087788,41.47032],[1.08788,41.470307],[1.087975,41.470292],[1.08805,41.470279],[1.088095,41.47027],[1.088169,41.470252],[1.088227,41.470239],[1.088381,41.470188],[1.088469,41.470156],[1.088513,41.470135],[1.088556,41.470115],[1.08857,41.470108],[1.088611,41.470084],[1.088633,41.47007],[1.088677,41.470005],[1.088702,41.469952],[1.088708,41.469927],[1.088673,41.469866],[1.088805,41.46982],[1.088864,41.469777],[1.089154,41.469944],[1.089204,41.469891],[1.089261,41.469841],[1.089289,41.46982],[1.089118,41.469638],[1.089137,41.46963],[1.089192,41.469602],[1.089248,41.469576],[1.089327,41.469518],[1.089284,41.469475],[1.089247,41.469445],[1.089201,41.469407],[1.089142,41.469442],[1.089113,41.469416],[1.089024,41.469465],[1.088905,41.46953],[1.0889,41.469533],[1.088858,41.469466],[1.088839,41.469476],[1.088784,41.469495],[1.088723,41.469511],[1.088668,41.469524],[1.088618,41.469533],[1.088557,41.469537],[1.088439,41.469483],[1.088342,41.469527],[1.088357,41.469556],[1.088342,41.469559],[1.088174,41.469606],[1.088197,41.469652],[1.088094,41.469652],[1.087791,41.469689],[1.087622,41.46971],[1.087533,41.469717],[1.087488,41.469586],[1.087482,41.469487],[1.087336,41.469511],[1.087292,41.469525],[1.087231,41.469451],[1.087189,41.469468],[1.087146,41.469486],[1.0871,41.469506],[1.087053,41.469526],[1.087013,41.469543],[1.086973,41.46956],[1.086944,41.469573],[1.086916,41.469588],[1.086893,41.469602],[1.086872,41.469617],[1.086854,41.469632],[1.086835,41.469647],[1.086823,41.469656],[1.086814,41.469661],[1.086807,41.469663],[1.086804,41.469661],[1.086715,41.469719],[1.0867,41.469728],[1.086688,41.469735],[1.086673,41.469743],[1.086591,41.469641],[1.086518,41.469669],[1.086504,41.469694],[1.086477,41.469718],[1.086252,41.4699]]]]}}]}