{"type":"FeatureCollection","name":"ICGC Àrees de poblament - Santa Oliva","features":[{"type":"Feature","id":"431401_431401 AP06 BPE 3","properties":{"area_id":"431401_431401 AP06 BPE 3","nom":"Canyelles","codi_icgc":"431401 AP06 BPE 3","categoria":"Àrees de poblament","codi_municipi":"431401","municipi":"Santa Oliva","codi_comarca":"12","comarca":"Baix Penedès","provincia":"Tarragona","font":"ICGC Àrees de poblament v3r1 202602"},"geometry":{"type":"MultiPolygon","coordinates":[[[[1.552572,41.252689],[1.55264,41.252879],[1.552843,41.253334],[1.552881,41.253772],[1.552931,41.254166],[1.552953,41.254444],[1.552998,41.254447],[1.552995,41.254443],[1.552993,41.254428],[1.553273,41.254415],[1.553412,41.254403],[1.553618,41.254362],[1.553684,41.25435],[1.553834,41.254325],[1.553976,41.254305],[1.554041,41.254305],[1.554154,41.254288],[1.554161,41.254288],[1.554225,41.254271],[1.554225,41.254136],[1.554225,41.25412],[1.554287,41.25409],[1.55472,41.254113],[1.555395,41.25415],[1.555447,41.254191],[1.55547,41.254194],[1.555479,41.254195],[1.555489,41.254195],[1.555493,41.254196],[1.555544,41.254158],[1.555614,41.254159],[1.555847,41.25418],[1.556537,41.2543],[1.556557,41.254303],[1.556619,41.254315],[1.556678,41.254328],[1.556691,41.254334],[1.556701,41.254346],[1.556708,41.25436],[1.556712,41.254375],[1.556712,41.25439],[1.556712,41.254406],[1.556732,41.254409],[1.556744,41.254411],[1.556764,41.254413],[1.55673,41.254622],[1.557124,41.254707],[1.557149,41.254445],[1.557467,41.254492],[1.557948,41.254593],[1.558429,41.254665],[1.559151,41.254791],[1.559127,41.255031],[1.559061,41.25538],[1.558977,41.2557],[1.559429,41.255764],[1.560018,41.255808],[1.560462,41.255813],[1.560499,41.25588],[1.560515,41.256033],[1.56052,41.256237],[1.560637,41.256209],[1.56111,41.256201],[1.561343,41.256153],[1.561347,41.255985],[1.561231,41.255539],[1.561171,41.255195],[1.561317,41.255146],[1.561887,41.255124],[1.562245,41.255121],[1.562381,41.255064],[1.56245,41.254591],[1.562471,41.254044],[1.562288,41.254042],[1.561515,41.254062],[1.561011,41.254114],[1.560393,41.254121],[1.55991,41.2541],[1.559283,41.254078],[1.558878,41.254043],[1.558541,41.254003],[1.558155,41.253947],[1.557816,41.253863],[1.557604,41.253824],[1.557451,41.253771],[1.557261,41.253615],[1.557053,41.253394],[1.557057,41.253365],[1.557121,41.252928],[1.557142,41.252367],[1.558205,41.252484],[1.558188,41.251828],[1.558939,41.251748],[1.559561,41.251646],[1.5595,41.251199],[1.558209,41.251209],[1.557491,41.2512],[1.557608,41.251769],[1.557634,41.251875],[1.557173,41.251884],[1.556394,41.2519],[1.556255,41.251903],[1.555424,41.251922],[1.554651,41.251934],[1.554592,41.251995],[1.554471,41.252101],[1.554323,41.252135],[1.554027,41.252242],[1.553489,41.252392],[1.553352,41.252376],[1.553098,41.252477],[1.552617,41.252632],[1.552572,41.252689]]]]}},{"type":"Feature","id":"431401_431401 SI05 BPE 2","properties":{"area_id":"431401_431401 SI05 BPE 2","nom":"Celler de Ca l'Alegret","codi_icgc":"431401 SI05 BPE 2","categoria":"Sector industrial","codi_municipi":"431401","municipi":"Santa Oliva","codi_comarca":"12","comarca":"Baix Penedès","provincia":"Tarragona","font":"ICGC Àrees de poblament v3r1 202602"},"geometry":{"type":"MultiPolygon","coordinates":[[[[1.540267,41.229312],[1.540511,41.229201],[1.540587,41.229273],[1.540871,41.229125],[1.54074,41.228984],[1.540789,41.228946],[1.540795,41.228939],[1.540814,41.228912],[1.540826,41.228883],[1.54083,41.228852],[1.540827,41.228822],[1.540816,41.228792],[1.540798,41.228765],[1.540787,41.228722],[1.540772,41.228715],[1.540731,41.228641],[1.54069,41.228579],[1.540659,41.22853],[1.540274,41.228695],[1.540119,41.228761],[1.540023,41.228803],[1.540267,41.229312]]]]}},{"type":"Feature","id":"431401_431401 SI02 BPE 3","properties":{"area_id":"431401_431401 SI02 BPE 3","nom":"Institut d'Investigació Aplicada de l'Automòbil","codi_icgc":"431401 SI02 BPE 3","categoria":"Sector industrial","codi_municipi":"431401","municipi":"Santa Oliva","codi_comarca":"12","comarca":"Baix Penedès","provincia":"Tarragona","font":"ICGC Àrees de poblament v3r1 202602"},"geometry":{"type":"MultiPolygon","coordinates":[[[[1.509182,41.268471],[1.509459,41.268474],[1.50972,41.268483],[1.509953,41.268329],[1.510514,41.268322],[1.524135,41.267943],[1.526231,41.268031],[1.526418,41.268098],[1.526403,41.267682],[1.526369,41.267391],[1.526335,41.267214],[1.526296,41.267065],[1.526258,41.266957],[1.526127,41.266771],[1.526094,41.266675],[1.52604,41.266469],[1.525938,41.266093],[1.525875,41.265865],[1.525772,41.265543],[1.525733,41.265353],[1.52573,41.265262],[1.525758,41.265221],[1.52581,41.265171],[1.525878,41.265135],[1.525962,41.265143],[1.526047,41.265194],[1.526137,41.265265],[1.526275,41.265342],[1.52647,41.265427],[1.526641,41.265483],[1.526772,41.265507],[1.52698,41.265499],[1.527121,41.26546],[1.527225,41.265399],[1.527294,41.265324],[1.527369,41.265193],[1.527438,41.265007],[1.52752,41.264726],[1.527551,41.264635],[1.527599,41.264564],[1.527718,41.264415],[1.52776,41.264338],[1.527864,41.264037],[1.527947,41.26368],[1.527942,41.263556],[1.527928,41.263471],[1.527903,41.263373],[1.527838,41.263167],[1.52771,41.26271],[1.527654,41.262473],[1.527651,41.262354],[1.527678,41.262138],[1.52775,41.261802],[1.52785,41.261401],[1.527921,41.26102],[1.528022,41.260452],[1.528101,41.260147],[1.527744,41.260098],[1.525567,41.260433],[1.52547,41.260123],[1.523528,41.259506],[1.523324,41.259489],[1.521236,41.259531],[1.519982,41.259558],[1.518019,41.259609],[1.516354,41.259645],[1.514717,41.259688],[1.513294,41.259705],[1.511827,41.259758],[1.511808,41.259957],[1.511834,41.260431],[1.511888,41.260699],[1.511954,41.260891],[1.511972,41.260937],[1.512022,41.261065],[1.512043,41.26114],[1.512084,41.261248],[1.512105,41.261315],[1.512111,41.26137],[1.512106,41.261428],[1.512089,41.261496],[1.512054,41.261582],[1.511971,41.261718],[1.51186,41.261878],[1.511747,41.262038],[1.511688,41.262119],[1.51156,41.262258],[1.511401,41.262439],[1.511253,41.2626],[1.511074,41.262784],[1.510959,41.26288],[1.51075,41.263039],[1.51048,41.263251],[1.510386,41.263313],[1.510305,41.263355],[1.509913,41.263531],[1.509517,41.263725],[1.509187,41.263907],[1.5087,41.264187],[1.508356,41.264394],[1.50824,41.264476],[1.508155,41.264546],[1.508071,41.264635],[1.507982,41.264732],[1.507909,41.264827],[1.507836,41.264927],[1.507786,41.264973],[1.507689,41.265047],[1.507546,41.265123],[1.507315,41.26522],[1.50718,41.265265],[1.507037,41.265296],[1.506854,41.265321],[1.506625,41.265345],[1.506489,41.265353],[1.506376,41.265361],[1.506298,41.265376],[1.506163,41.265408],[1.506039,41.265447],[1.505948,41.265497],[1.50587,41.265558],[1.505762,41.265657],[1.505613,41.265777],[1.505553,41.265823],[1.505476,41.265863],[1.505355,41.265911],[1.505232,41.26595],[1.505172,41.265962],[1.505123,41.265971],[1.505109,41.265973],[1.504959,41.265986],[1.504864,41.266],[1.504869,41.266176],[1.504872,41.266292],[1.504917,41.267922],[1.504999,41.267928],[1.505276,41.267958],[1.505661,41.268047],[1.506025,41.268133],[1.506163,41.26818],[1.506279,41.268226],[1.506384,41.268273],[1.506612,41.268359],[1.507088,41.268462],[1.507341,41.268497],[1.507673,41.268538],[1.507836,41.268545],[1.508086,41.268543],[1.508455,41.268511],[1.508678,41.268493],[1.509182,41.268471]],[[1.525013,41.266603],[1.525107,41.266589],[1.525196,41.266753],[1.525267,41.266849],[1.52519,41.267101],[1.525177,41.26714],[1.525192,41.267149],[1.52522,41.267164],[1.525249,41.267179],[1.525276,41.267187],[1.525281,41.26722],[1.525282,41.267239],[1.525282,41.267256],[1.525277,41.267276],[1.525267,41.267282],[1.525259,41.26729],[1.525237,41.267322],[1.525215,41.267355],[1.525169,41.26743],[1.525122,41.267505],[1.52509,41.267554],[1.525073,41.267587],[1.525064,41.2676],[1.52504,41.267619],[1.525017,41.267631],[1.525005,41.267635],[1.524979,41.267645],[1.524939,41.267657],[1.524877,41.267672],[1.524783,41.267686],[1.52469,41.267694],[1.524659,41.267693],[1.524644,41.267689],[1.524629,41.267684],[1.524597,41.267664],[1.524556,41.267631],[1.524539,41.267613],[1.524525,41.267593],[1.524494,41.267544],[1.52445,41.26747],[1.524406,41.267397],[1.524375,41.267345],[1.524339,41.267295],[1.524323,41.26728],[1.524288,41.267257],[1.524228,41.267228],[1.524199,41.267213],[1.524172,41.267196],[1.524108,41.267148],[1.524082,41.267121],[1.524072,41.267106],[1.524065,41.26709],[1.524036,41.267],[1.524008,41.266909],[1.523987,41.266839],[1.523979,41.266813],[1.524021,41.266785],[1.524363,41.266721],[1.524643,41.266678],[1.524688,41.266651],[1.524913,41.266618],[1.52492,41.266617],[1.525013,41.266603]]]]}},{"type":"Feature","id":"431401_431401 SI01 BPE 3","properties":{"area_id":"431401_431401 SI01 BPE 3","nom":"Polígon industrial El Molí d'en Serra","codi_icgc":"431401 SI01 BPE 3","categoria":"Sector industrial","codi_municipi":"431401","municipi":"Santa Oliva","codi_comarca":"12","comarca":"Baix Penedès","provincia":"Tarragona","font":"ICGC Àrees de poblament v3r1 202602"},"geometry":{"type":"MultiPolygon","coordinates":[[[[1.543837,41.233651],[1.543819,41.233656],[1.543804,41.233651],[1.542987,41.23388],[1.542527,41.234004],[1.542538,41.234021],[1.542726,41.234303],[1.543017,41.234677],[1.543052,41.234792],[1.543091,41.234851],[1.543275,41.234774],[1.54332,41.234831],[1.543339,41.234853],[1.54352,41.234801],[1.543558,41.234791],[1.543673,41.234924],[1.543842,41.235118],[1.544011,41.235291],[1.54399,41.23531],[1.543869,41.235415],[1.543943,41.235625],[1.544192,41.235816],[1.544335,41.235952],[1.544178,41.235946],[1.544144,41.236052],[1.544164,41.236155],[1.54419,41.236257],[1.544609,41.237456],[1.544998,41.23856],[1.545263,41.239294],[1.5454,41.239665],[1.545488,41.239936],[1.545494,41.239967],[1.545471,41.239986],[1.545418,41.239987],[1.545412,41.240021],[1.545454,41.240386],[1.54554,41.240854],[1.546734,41.240854],[1.546772,41.240163],[1.546796,41.240166],[1.546997,41.240171],[1.547969,41.240123],[1.548643,41.240073],[1.548633,41.239992],[1.548575,41.23983],[1.548456,41.239514],[1.548327,41.239152],[1.548274,41.238955],[1.548539,41.238725],[1.548584,41.238695],[1.548511,41.238657],[1.548235,41.238558],[1.548011,41.238427],[1.547817,41.238334],[1.547687,41.238208],[1.547596,41.238035],[1.547506,41.237834],[1.547483,41.237729],[1.547557,41.237267],[1.547623,41.23701],[1.547654,41.236886],[1.54766,41.236864],[1.547657,41.236731],[1.547906,41.23639],[1.547194,41.236284],[1.546866,41.236234],[1.546467,41.23617],[1.546498,41.236087],[1.546925,41.234928],[1.545811,41.234546],[1.54476,41.234185],[1.544685,41.234184],[1.544541,41.234218],[1.54446,41.234236],[1.544352,41.233949],[1.544357,41.233903],[1.544302,41.233792],[1.543837,41.233651]]]]}},{"type":"Feature","id":"431401_431401 SI03 BPE 3","properties":{"area_id":"431401_431401 SI03 BPE 3","nom":"Polígon industrial Torrent del Lluc","codi_icgc":"431401 SI03 BPE 3","categoria":"Sector industrial","codi_municipi":"431401","municipi":"Santa Oliva","codi_comarca":"12","comarca":"Baix Penedès","provincia":"Tarragona","font":"ICGC Àrees de poblament v3r1 202602"},"geometry":{"type":"MultiPolygon","coordinates":[[[[1.543035,41.22918],[1.542987,41.229174],[1.542938,41.229174],[1.542889,41.22918],[1.542842,41.229193],[1.54279,41.229241],[1.542732,41.229285],[1.542645,41.229374],[1.542185,41.229844],[1.542141,41.229881],[1.542244,41.230094],[1.54243,41.230476],[1.542455,41.230528],[1.542355,41.230559],[1.541335,41.230825],[1.540971,41.230941],[1.541177,41.23137],[1.541438,41.231911],[1.541455,41.23193],[1.541471,41.231947],[1.541548,41.231986],[1.541631,41.232008],[1.541641,41.232009],[1.541715,41.232013],[1.541836,41.231983],[1.542129,41.231906],[1.542355,41.231844],[1.542761,41.231731],[1.542952,41.231674],[1.542977,41.231669],[1.542946,41.231545],[1.542696,41.230987],[1.542783,41.23096],[1.542784,41.23096],[1.542568,41.230496],[1.542555,41.230469],[1.542544,41.230448],[1.542936,41.230343],[1.54348,41.230167],[1.543485,41.230165],[1.543539,41.230033],[1.543514,41.229962],[1.543488,41.229887],[1.543346,41.229555],[1.543304,41.229456],[1.543231,41.229312],[1.543199,41.229258],[1.543165,41.229231],[1.543126,41.229208],[1.543082,41.229191],[1.543035,41.22918]]]]}},{"type":"Feature","id":"431401_431401 SI04 BPE 3","properties":{"area_id":"431401_431401 SI04 BPE 3","nom":"Polígon industrial l'Albonar","codi_icgc":"431401 SI04 BPE 3","categoria":"Sector industrial","codi_municipi":"431401","municipi":"Santa Oliva","codi_comarca":"12","comarca":"Baix Penedès","provincia":"Tarragona","font":"ICGC Àrees de poblament v3r1 202602"},"geometry":{"type":"MultiPolygon","coordinates":[[[[1.522247,41.272138],[1.522197,41.2699],[1.522193,41.269681],[1.522146,41.268933],[1.520746,41.268965],[1.520688,41.26894],[1.520596,41.268924],[1.52051,41.268923],[1.520462,41.268942],[1.52041,41.268969],[1.520282,41.268977],[1.519566,41.268988],[1.518254,41.269018],[1.517905,41.269023],[1.517859,41.26902],[1.517777,41.268989],[1.517688,41.268981],[1.517586,41.268999],[1.517529,41.269029],[1.516497,41.269057],[1.515851,41.269072],[1.51503,41.269088],[1.514971,41.269075],[1.514929,41.269057],[1.51483,41.269046],[1.514754,41.269062],[1.514674,41.269091],[1.514114,41.269106],[1.513217,41.269127],[1.512657,41.26913],[1.512182,41.269148],[1.51214,41.269143],[1.512055,41.26911],[1.511943,41.269096],[1.511874,41.269116],[1.509834,41.269162],[1.509835,41.2692],[1.509859,41.269835],[1.509979,41.269965],[1.511982,41.270645],[1.511988,41.270647],[1.516876,41.272306],[1.522234,41.272433],[1.522268,41.272434],[1.522247,41.272138]]]]}},{"type":"Feature","id":"431401_431401 AP04 BPE 3","properties":{"area_id":"431401_431401 AP04 BPE 3","nom":"Sant Jordi","codi_icgc":"431401 AP04 BPE 3","categoria":"Àrees de poblament","codi_municipi":"431401","municipi":"Santa Oliva","codi_comarca":"12","comarca":"Baix Penedès","provincia":"Tarragona","font":"ICGC Àrees de poblament v3r1 202602"},"geometry":{"type":"MultiPolygon","coordinates":[[[[1.532162,41.226621],[1.53222,41.226588],[1.532429,41.226568],[1.532612,41.226554],[1.532592,41.226462],[1.532585,41.226429],[1.53255,41.226326],[1.532533,41.226264],[1.532507,41.226165],[1.532458,41.225981],[1.532455,41.225983],[1.532428,41.225879],[1.532155,41.226071],[1.532046,41.226119],[1.53175,41.226258],[1.531571,41.226349],[1.531418,41.226395],[1.531141,41.226456],[1.531159,41.226511],[1.531212,41.226676],[1.530872,41.226725],[1.530855,41.226727],[1.530838,41.226729],[1.53081,41.226895],[1.530901,41.227255],[1.530921,41.227353],[1.531,41.227667],[1.53107,41.227715],[1.531676,41.227683],[1.532267,41.227654],[1.532257,41.227628],[1.532258,41.227628],[1.532255,41.227609],[1.532353,41.2276],[1.532373,41.227593],[1.532253,41.227087],[1.532162,41.226621]]]]}},{"type":"Feature","id":"431401_431401 AP01 BPE 3","properties":{"area_id":"431401_431401 AP01 BPE 3","nom":"Santa Oliva","codi_icgc":"431401 AP01 BPE 3","categoria":"Àrees de poblament","codi_municipi":"431401","municipi":"Santa Oliva","codi_comarca":"12","comarca":"Baix Penedès","provincia":"Tarragona","font":"ICGC Àrees de poblament v3r1 202602"},"geometry":{"type":"MultiPolygon","coordinates":[[[[1.54679,41.250552],[1.547598,41.250866],[1.547635,41.250939],[1.54764,41.250949],[1.547832,41.251276],[1.54768,41.251508],[1.547664,41.251507],[1.547703,41.251582],[1.54772,41.251583],[1.547795,41.251585],[1.547959,41.251604],[1.548009,41.251609],[1.548137,41.251624],[1.548241,41.251656],[1.548371,41.251696],[1.548467,41.25177],[1.548432,41.251777],[1.548432,41.251777],[1.548296,41.251806],[1.547967,41.251855],[1.547432,41.251955],[1.547312,41.251993],[1.547118,41.252014],[1.547043,41.252019],[1.546886,41.252008],[1.546779,41.251989],[1.546709,41.251964],[1.546594,41.251984],[1.546648,41.252237],[1.546723,41.252399],[1.546798,41.2524],[1.546809,41.252594],[1.547137,41.252586],[1.547403,41.252551],[1.547545,41.252529],[1.547684,41.252516],[1.547758,41.252524],[1.547968,41.252457],[1.548279,41.252375],[1.548654,41.252275],[1.548775,41.252244],[1.54878,41.25225],[1.548775,41.25227],[1.548728,41.252462],[1.548723,41.252483],[1.54866,41.252603],[1.548504,41.252602],[1.548479,41.252602],[1.548478,41.252606],[1.548351,41.253177],[1.548926,41.253268],[1.54884,41.253453],[1.548716,41.253718],[1.548723,41.253762],[1.548806,41.253929],[1.548866,41.253944],[1.548967,41.254116],[1.549003,41.254187],[1.549071,41.254194],[1.54911,41.254198],[1.549267,41.253807],[1.549743,41.253947],[1.549767,41.253954],[1.549789,41.253981],[1.549894,41.25411],[1.549744,41.254164],[1.55002,41.254367],[1.550039,41.254381],[1.550123,41.254312],[1.550145,41.254332],[1.550375,41.254538],[1.550631,41.25443],[1.550665,41.254466],[1.550714,41.254512],[1.550751,41.254539],[1.550765,41.254549],[1.55078,41.25456],[1.550796,41.254572],[1.550805,41.254578],[1.550812,41.254575],[1.550852,41.254611],[1.550879,41.25463],[1.550916,41.25465],[1.550968,41.254676],[1.550972,41.25468],[1.551003,41.254703],[1.55103,41.254728],[1.551043,41.254742],[1.551057,41.254757],[1.551085,41.254746],[1.551082,41.254743],[1.551082,41.254728],[1.551089,41.25471],[1.551102,41.254694],[1.551122,41.254682],[1.551145,41.254675],[1.551157,41.254669],[1.551165,41.254667],[1.551176,41.254665],[1.551188,41.254665],[1.5512,41.254666],[1.551201,41.254666],[1.551401,41.254689],[1.551699,41.254723],[1.5517,41.254723],[1.5517,41.254723],[1.55176,41.254729],[1.55183,41.254739],[1.551852,41.254744],[1.551864,41.254749],[1.551876,41.254757],[1.551913,41.254788],[1.551944,41.254823],[1.551969,41.25486],[1.551987,41.2549],[1.551989,41.25491],[1.552148,41.254954],[1.552201,41.254967],[1.552302,41.254987],[1.552365,41.255009],[1.552525,41.255053],[1.552581,41.255069],[1.552698,41.255096],[1.552733,41.255104],[1.552832,41.255127],[1.552889,41.255156],[1.552956,41.255178],[1.552957,41.255181],[1.553094,41.255229],[1.553196,41.25525],[1.553228,41.255257],[1.553332,41.255253],[1.553121,41.254881],[1.553025,41.254708],[1.552943,41.254564],[1.552874,41.254467],[1.552867,41.254363],[1.552828,41.254006],[1.552822,41.253856],[1.552761,41.253397],[1.552707,41.253275],[1.552535,41.252905],[1.552472,41.252761],[1.552451,41.252637],[1.55254,41.252601],[1.552543,41.252599],[1.55254,41.252598],[1.55254,41.252598],[1.552913,41.252466],[1.55283,41.252298],[1.552458,41.252341],[1.552378,41.252348],[1.55207,41.252378],[1.551503,41.252335],[1.551619,41.251728],[1.551437,41.251707],[1.551399,41.251703],[1.551318,41.251693],[1.551174,41.251682],[1.550817,41.251649],[1.550461,41.251611],[1.55018,41.251578],[1.55001,41.251558],[1.549977,41.251554],[1.549914,41.251546],[1.549642,41.251512],[1.54936,41.251475],[1.549079,41.251437],[1.548985,41.251428],[1.548891,41.251425],[1.548828,41.251426],[1.548774,41.251431],[1.548725,41.251439],[1.548597,41.251451],[1.548523,41.25146],[1.548281,41.251487],[1.548323,41.250715],[1.548338,41.250258],[1.548357,41.249899],[1.548373,41.249565],[1.548124,41.249547],[1.548104,41.249571],[1.548107,41.24961],[1.547794,41.249668],[1.547548,41.249019],[1.547475,41.24908],[1.54725,41.249271],[1.547077,41.249406],[1.546944,41.249532],[1.546968,41.249711],[1.54698,41.249837],[1.546968,41.25002],[1.546968,41.250132],[1.54696,41.2502],[1.546874,41.250336],[1.546784,41.250457],[1.546691,41.250472],[1.54638,41.250471],[1.546405,41.250776],[1.546072,41.250816],[1.546215,41.250976],[1.546419,41.251169],[1.546451,41.251187],[1.54649,41.251197],[1.546561,41.251189],[1.546594,41.251141],[1.54679,41.250552]]]]}},{"type":"Feature","id":"431401_431401 AP05 BPE 3","properties":{"area_id":"431401_431401 AP05 BPE 3","nom":"el Camí dels Molins","codi_icgc":"431401 AP05 BPE 3","categoria":"Àrees de poblament","codi_municipi":"431401","municipi":"Santa Oliva","codi_comarca":"12","comarca":"Baix Penedès","provincia":"Tarragona","font":"ICGC Àrees de poblament v3r1 202602"},"geometry":{"type":"MultiPolygon","coordinates":[[[[1.532893,41.22932],[1.532992,41.229736],[1.533079,41.229884],[1.533415,41.229983],[1.533743,41.230009],[1.533795,41.230258],[1.534038,41.230195],[1.534082,41.230385],[1.534578,41.230426],[1.534563,41.230305],[1.535492,41.229818],[1.535605,41.229617],[1.535755,41.2294],[1.535523,41.229412],[1.535135,41.229501],[1.534873,41.229542],[1.534818,41.229439],[1.534671,41.229073],[1.534525,41.228691],[1.534167,41.228745],[1.534018,41.228487],[1.533107,41.228233],[1.533077,41.228228],[1.533007,41.228474],[1.533001,41.228529],[1.53298,41.228753],[1.532975,41.228811],[1.532978,41.228813],[1.533189,41.228899],[1.533219,41.228971],[1.533223,41.229138],[1.532995,41.229147],[1.53303,41.229302],[1.532893,41.22932]]]]}},{"type":"Feature","id":"431401_431401 AP07 BPE 3","properties":{"area_id":"431401_431401 AP07 BPE 3","nom":"l'Albornar","codi_icgc":"431401 AP07 BPE 3","categoria":"Àrees de poblament","codi_municipi":"431401","municipi":"Santa Oliva","codi_comarca":"12","comarca":"Baix Penedès","provincia":"Tarragona","font":"ICGC Àrees de poblament v3r1 202602"},"geometry":{"type":"MultiPolygon","coordinates":[[[[1.525196,41.266753],[1.525107,41.266589],[1.525013,41.266603],[1.52492,41.266617],[1.524913,41.266618],[1.524688,41.266651],[1.524643,41.266678],[1.524363,41.266721],[1.524021,41.266785],[1.523979,41.266813],[1.523987,41.266839],[1.524008,41.266909],[1.524036,41.267],[1.524065,41.26709],[1.524072,41.267106],[1.524082,41.267121],[1.524108,41.267148],[1.524172,41.267196],[1.524199,41.267213],[1.524228,41.267228],[1.524288,41.267257],[1.524323,41.26728],[1.524339,41.267295],[1.524375,41.267345],[1.524406,41.267397],[1.52445,41.26747],[1.524494,41.267544],[1.524525,41.267593],[1.524539,41.267613],[1.524556,41.267631],[1.524597,41.267664],[1.524629,41.267684],[1.524644,41.267689],[1.524659,41.267693],[1.52469,41.267694],[1.524783,41.267686],[1.524877,41.267672],[1.524939,41.267657],[1.524979,41.267645],[1.525005,41.267635],[1.525017,41.267631],[1.52504,41.267619],[1.525064,41.2676],[1.525073,41.267587],[1.52509,41.267554],[1.525122,41.267505],[1.525169,41.26743],[1.525215,41.267355],[1.525237,41.267322],[1.525259,41.26729],[1.525267,41.267282],[1.525277,41.267276],[1.525282,41.267256],[1.525282,41.267239],[1.525281,41.26722],[1.525276,41.267187],[1.525249,41.267179],[1.52522,41.267164],[1.525192,41.267149],[1.525177,41.26714],[1.52519,41.267101],[1.525267,41.266849],[1.525196,41.266753]]]]}},{"type":"Feature","id":"431401_431401 AP02 BPE 3","properties":{"area_id":"431401_431401 AP02 BPE 3","nom":"la Carretera del Vendrell","codi_icgc":"431401 AP02 BPE 3","categoria":"Àrees de poblament","codi_municipi":"431401","municipi":"Santa Oliva","codi_comarca":"12","comarca":"Baix Penedès","provincia":"Tarragona","font":"ICGC Àrees de poblament v3r1 202602"},"geometry":{"type":"MultiPolygon","coordinates":[[[[1.540374,41.22677],[1.540469,41.226734],[1.540475,41.226726],[1.540506,41.226675],[1.540467,41.22661],[1.540361,41.226561],[1.539803,41.226266],[1.539518,41.226112],[1.539465,41.225952],[1.53945,41.225907],[1.539216,41.22595],[1.53916,41.225961],[1.539014,41.225988],[1.538975,41.225874],[1.538954,41.22581],[1.538927,41.225736],[1.538758,41.225767],[1.538756,41.225763],[1.538747,41.225765],[1.538721,41.225772],[1.538683,41.225735],[1.53861,41.225664],[1.538586,41.22564],[1.538557,41.225612],[1.538513,41.225567],[1.53851,41.225564],[1.538493,41.225571],[1.538415,41.225606],[1.538324,41.225647],[1.53829,41.225643],[1.537834,41.22585],[1.537774,41.225901],[1.537788,41.226005],[1.537789,41.226099],[1.537767,41.226223],[1.537707,41.226363],[1.537606,41.22653],[1.537476,41.226688],[1.53749,41.226783],[1.538751,41.227434],[1.538778,41.227458],[1.538332,41.22771],[1.537802,41.228016],[1.537766,41.228035],[1.538243,41.228287],[1.538297,41.228321],[1.537953,41.228572],[1.537495,41.228903],[1.537985,41.229249],[1.538036,41.229283],[1.538061,41.229283],[1.538354,41.229041],[1.538837,41.228642],[1.538967,41.228557],[1.53944,41.228288],[1.539586,41.228217],[1.539672,41.228156],[1.539698,41.228129],[1.539716,41.228068],[1.539665,41.227908],[1.539629,41.227801],[1.540765,41.227401],[1.540762,41.227354],[1.540771,41.227121],[1.540417,41.227072],[1.540374,41.22677]]]]}},{"type":"Feature","id":"431401_431401 AP03 BPE 3","properties":{"area_id":"431401_431401 AP03 BPE 3","nom":"les Pedreres","codi_icgc":"431401 AP03 BPE 3","categoria":"Àrees de poblament","codi_municipi":"431401","municipi":"Santa Oliva","codi_comarca":"12","comarca":"Baix Penedès","provincia":"Tarragona","font":"ICGC Àrees de poblament v3r1 202602"},"geometry":{"type":"MultiPolygon","coordinates":[[[[1.534784,41.244532],[1.535622,41.243866],[1.535645,41.243847],[1.53598,41.244118],[1.536197,41.244035],[1.536499,41.244336],[1.537081,41.244006],[1.536639,41.243469],[1.536877,41.243161],[1.536483,41.242997],[1.536502,41.242971],[1.53658,41.242862],[1.536588,41.242851],[1.536695,41.2427],[1.536774,41.24258],[1.536849,41.242457],[1.536916,41.242339],[1.53698,41.242219],[1.537024,41.242133],[1.537073,41.242033],[1.53741,41.242042],[1.537691,41.24205],[1.537694,41.242014],[1.537765,41.24199],[1.537761,41.242035],[1.538037,41.241933],[1.538403,41.241798],[1.5384,41.241769],[1.538371,41.241524],[1.538464,41.241471],[1.538543,41.241421],[1.538626,41.24137],[1.538711,41.241321],[1.538881,41.241221],[1.539106,41.241081],[1.539332,41.240943],[1.539523,41.240833],[1.539715,41.240723],[1.539733,41.240711],[1.539751,41.240697],[1.539766,41.240679],[1.539773,41.240657],[1.539772,41.240616],[1.539766,41.240578],[1.539741,41.240462],[1.539711,41.240347],[1.539677,41.240245],[1.539638,41.240145],[1.539599,41.240057],[1.539557,41.23997],[1.539476,41.239813],[1.539432,41.239725],[1.539464,41.239717],[1.539511,41.239704],[1.539527,41.239699],[1.539467,41.239244],[1.539939,41.23903],[1.539759,41.238637],[1.540064,41.238555],[1.539886,41.238251],[1.53987,41.238224],[1.540187,41.23811],[1.540187,41.23811],[1.54053,41.237985],[1.540553,41.237977],[1.54053,41.237986],[1.540341,41.238056],[1.540297,41.238073],[1.540744,41.237932],[1.540634,41.237626],[1.540523,41.237377],[1.540534,41.237276],[1.540898,41.237189],[1.541813,41.236973],[1.541937,41.236946],[1.541937,41.236946],[1.542367,41.236849],[1.542496,41.23682],[1.542779,41.236757],[1.543074,41.236696],[1.543187,41.236673],[1.543194,41.236689],[1.543522,41.236621],[1.543865,41.23655],[1.54386,41.236539],[1.543941,41.236524],[1.543963,41.23652],[1.543953,41.236501],[1.543845,41.236301],[1.54378,41.23618],[1.543751,41.236128],[1.543706,41.236044],[1.543691,41.236015],[1.543657,41.235953],[1.543304,41.236067],[1.542175,41.236429],[1.542148,41.236437],[1.541858,41.236531],[1.541696,41.236579],[1.541199,41.236727],[1.541079,41.236762],[1.540821,41.236839],[1.540757,41.236858],[1.540709,41.236868],[1.540455,41.236922],[1.540174,41.236986],[1.539851,41.23706],[1.539274,41.237221],[1.538854,41.237353],[1.538705,41.237401],[1.538643,41.237341],[1.538518,41.23722],[1.538358,41.23705],[1.537945,41.236928],[1.537701,41.237057],[1.537435,41.237134],[1.537414,41.23714],[1.537297,41.237119],[1.537281,41.237118],[1.537204,41.237113],[1.537134,41.237109],[1.537066,41.237102],[1.537036,41.237097],[1.537008,41.237089],[1.536977,41.237074],[1.536946,41.237056],[1.536893,41.237023],[1.536842,41.236988],[1.536686,41.236877],[1.53653,41.236765],[1.536408,41.236679],[1.53629,41.236592],[1.536218,41.236531],[1.536153,41.236466],[1.535974,41.236334],[1.535999,41.236314],[1.536008,41.236308],[1.536791,41.235703],[1.536807,41.235707],[1.537797,41.234972],[1.537549,41.23477],[1.53763,41.234687],[1.53762,41.234674],[1.537658,41.234607],[1.536894,41.234149],[1.536264,41.233556],[1.536738,41.233117],[1.536001,41.232636],[1.535968,41.232612],[1.535572,41.233363],[1.535477,41.233686],[1.534546,41.234656],[1.534297,41.234919],[1.534524,41.235085],[1.534236,41.23551],[1.533954,41.235716],[1.533826,41.235885],[1.533836,41.235893],[1.533595,41.2361],[1.533355,41.236687],[1.533441,41.236793],[1.533455,41.236806],[1.533776,41.237084],[1.53324,41.237789],[1.533251,41.237804],[1.533475,41.238109],[1.533475,41.238109],[1.533371,41.238152],[1.53337,41.238164],[1.533362,41.238183],[1.533346,41.238199],[1.533326,41.238211],[1.532464,41.238586],[1.532454,41.238583],[1.532437,41.238575],[1.532424,41.238562],[1.532418,41.238547],[1.532419,41.23854],[1.532137,41.238655],[1.532126,41.238663],[1.532117,41.238674],[1.531908,41.238851],[1.531829,41.238916],[1.531257,41.23937],[1.531256,41.239367],[1.531232,41.239266],[1.531206,41.239169],[1.531188,41.239107],[1.531138,41.239104],[1.531139,41.239108],[1.531119,41.239117],[1.530824,41.239353],[1.529941,41.240068],[1.529921,41.240087],[1.529908,41.240109],[1.529902,41.240133],[1.529903,41.240158],[1.529912,41.240181],[1.529928,41.240203],[1.52995,41.240221],[1.530088,41.240305],[1.530128,41.240331],[1.53,41.240443],[1.529999,41.240445],[1.529973,41.240427],[1.529942,41.240406],[1.529686,41.240734],[1.529658,41.240774],[1.52973,41.240802],[1.529759,41.240814],[1.52987,41.240863],[1.529741,41.240981],[1.529665,41.241058],[1.529627,41.241094],[1.529592,41.241129],[1.529552,41.24117],[1.529329,41.241411],[1.529492,41.241521],[1.529634,41.241617],[1.529669,41.241643],[1.529564,41.241733],[1.529525,41.241763],[1.529449,41.241718],[1.529386,41.241772],[1.529367,41.241788],[1.529291,41.241857],[1.529362,41.241902],[1.529458,41.242055],[1.52945,41.24211],[1.529493,41.242164],[1.529499,41.242167],[1.529656,41.242258],[1.529685,41.242275],[1.529941,41.242449],[1.530083,41.242555],[1.530151,41.242604],[1.53022,41.242653],[1.530436,41.242769],[1.530582,41.242843],[1.530771,41.242939],[1.530781,41.242945],[1.530789,41.24295],[1.53099,41.243077],[1.530979,41.24308],[1.531063,41.243106],[1.531426,41.243326],[1.531472,41.243289],[1.531506,41.243307],[1.531625,41.24321],[1.531749,41.243108],[1.532017,41.242889],[1.532029,41.24288],[1.53207,41.242847],[1.532074,41.242843],[1.532314,41.243006],[1.532602,41.243194],[1.532921,41.243358],[1.532937,41.243372],[1.532942,41.243376],[1.532974,41.243403],[1.533072,41.243488],[1.533079,41.243494],[1.533215,41.243619],[1.533334,41.243728],[1.533342,41.243736],[1.533353,41.243747],[1.533486,41.243877],[1.533641,41.244029],[1.533675,41.243996],[1.533728,41.243947],[1.533901,41.244057],[1.53395,41.244088],[1.533991,41.244114],[1.534038,41.244142],[1.534182,41.24423],[1.534274,41.244291],[1.534395,41.244371],[1.534423,41.244389],[1.534457,41.244411],[1.534465,41.244416],[1.534743,41.244517],[1.534784,41.244532]]]]}}]}