{"type":"FeatureCollection","name":"ICGC Àrees de poblament - Ulldecona","features":[{"type":"Feature","id":"431567_431567 AP03 MON 2","properties":{"area_id":"431567_431567 AP03 MON 2","nom":"Anolls","codi_icgc":"431567 AP03 MON 2","categoria":"Àrees de poblament","codi_municipi":"431567","municipi":"Ulldecona","codi_comarca":"22","comarca":"Montsià","provincia":"Tarragona","font":"ICGC Àrees de poblament v3r1 202602"},"geometry":{"type":"MultiPolygon","coordinates":[[[[0.360156,40.621268],[0.360222,40.621227],[0.360265,40.621273],[0.360314,40.62133],[0.360364,40.621349],[0.360391,40.62135],[0.360435,40.62133],[0.360505,40.621323],[0.360574,40.621357],[0.360615,40.621387],[0.360863,40.621216],[0.360791,40.621179],[0.360689,40.621125],[0.360587,40.621069],[0.360535,40.621037],[0.360524,40.62103],[0.36049,40.621007],[0.360462,40.620987],[0.360399,40.620946],[0.360338,40.620902],[0.360295,40.620869],[0.360274,40.620853],[0.360248,40.620833],[0.360238,40.620826],[0.360092,40.620718],[0.360083,40.620711],[0.360065,40.620698],[0.360048,40.620686],[0.359938,40.620603],[0.359796,40.620496],[0.359785,40.620488],[0.359776,40.620481],[0.359695,40.62042],[0.359667,40.620399],[0.359649,40.620386],[0.359639,40.620378],[0.359514,40.620284],[0.359463,40.620244],[0.359414,40.620201],[0.359007,40.620516],[0.358835,40.62065],[0.358816,40.620651],[0.358798,40.620655],[0.358769,40.620667],[0.358729,40.620689],[0.35869,40.620713],[0.358651,40.620738],[0.358617,40.620764],[0.358612,40.620772],[0.358608,40.62079],[0.358611,40.620804],[0.358622,40.620824],[0.358631,40.620831],[0.358641,40.620835],[0.358689,40.620848],[0.358737,40.62086],[0.358709,40.620959],[0.358771,40.620968],[0.35877,40.621015],[0.358769,40.621036],[0.35877,40.621049],[0.358772,40.62106],[0.358774,40.621065],[0.358777,40.621071],[0.35878,40.621077],[0.358784,40.621083],[0.358789,40.621089],[0.358794,40.621095],[0.358804,40.621103],[0.358809,40.621106],[0.358816,40.621108],[0.358824,40.621109],[0.358832,40.62111],[0.358886,40.621107],[0.358976,40.621101],[0.359086,40.621022],[0.359386,40.621287],[0.359404,40.621302],[0.35943,40.621321],[0.359465,40.621346],[0.359513,40.621378],[0.359553,40.6214],[0.359615,40.621429],[0.359649,40.621441],[0.359684,40.62145],[0.359749,40.621464],[0.359792,40.621473],[0.359818,40.62148],[0.359864,40.621452],[0.36001,40.62136],[0.360156,40.621268]]]]}},{"type":"Feature","id":"431567_431567 AP10 MON 2","properties":{"area_id":"431567_431567 AP10 MON 2","nom":"Bordales","codi_icgc":"431567 AP10 MON 2","categoria":"Àrees de poblament","codi_municipi":"431567","municipi":"Ulldecona","codi_comarca":"22","comarca":"Montsià","provincia":"Tarragona","font":"ICGC Àrees de poblament v3r1 202602"},"geometry":{"type":"MultiPolygon","coordinates":[[[[0.335765,40.610168],[0.336256,40.610382],[0.336688,40.610414],[0.336723,40.610932],[0.336723,40.610934],[0.336904,40.610905],[0.337246,40.610849],[0.337268,40.610823],[0.33727,40.61082],[0.337285,40.610803],[0.337323,40.610783],[0.337322,40.610653],[0.337322,40.610653],[0.337329,40.610575],[0.337374,40.610105],[0.337374,40.610098],[0.337378,40.610066],[0.337393,40.609967],[0.337393,40.609963],[0.337394,40.609963],[0.337428,40.609981],[0.337565,40.610053],[0.337685,40.60993],[0.337689,40.609927],[0.337733,40.609943],[0.337758,40.609943],[0.337788,40.609944],[0.337804,40.609944],[0.337819,40.609945],[0.337844,40.609947],[0.337868,40.609951],[0.337902,40.609962],[0.337934,40.609976],[0.337976,40.61],[0.338019,40.610026],[0.33808,40.610057],[0.338146,40.610082],[0.338162,40.610087],[0.338172,40.610074],[0.338207,40.61003],[0.338295,40.609921],[0.337995,40.609786],[0.337988,40.60973],[0.337946,40.609733],[0.337911,40.609729],[0.337885,40.609708],[0.337979,40.609659],[0.337976,40.609637],[0.338007,40.609617],[0.337966,40.609561],[0.33795,40.609539],[0.337936,40.609489],[0.338086,40.609456],[0.338212,40.609425],[0.338223,40.609432],[0.338247,40.609448],[0.338431,40.60957],[0.338436,40.609572],[0.338559,40.609485],[0.33859,40.609462],[0.338592,40.609461],[0.33843,40.609292],[0.338429,40.609292],[0.338394,40.609301],[0.33834,40.609246],[0.338316,40.60922],[0.338291,40.609195],[0.338272,40.609181],[0.338252,40.609167],[0.338242,40.609156],[0.338239,40.609151],[0.338231,40.609136],[0.338231,40.609135],[0.338221,40.609117],[0.338217,40.60911],[0.338199,40.609081],[0.338189,40.609066],[0.33819,40.609066],[0.338421,40.608983],[0.338431,40.608979],[0.338441,40.608997],[0.338457,40.609027],[0.338467,40.609046],[0.338473,40.609055],[0.338492,40.609089],[0.338501,40.60911],[0.338596,40.60916],[0.338599,40.60916],[0.33884,40.609286],[0.338873,40.609295],[0.33901,40.6092],[0.338897,40.609099],[0.338834,40.609053],[0.338806,40.609033],[0.338786,40.609018],[0.33875,40.609027],[0.338649,40.60905],[0.338537,40.609072],[0.338514,40.609064],[0.338472,40.608987],[0.338469,40.608981],[0.338463,40.608968],[0.338441,40.608926],[0.338305,40.608975],[0.338275,40.608958],[0.338274,40.608957],[0.338233,40.608933],[0.338221,40.608928],[0.338163,40.608901],[0.338092,40.608868],[0.337985,40.608885],[0.337933,40.608861],[0.337822,40.608799],[0.337775,40.608805],[0.337589,40.608827],[0.336945,40.608948],[0.336927,40.608951],[0.336061,40.609149],[0.336037,40.609155],[0.336016,40.609178],[0.336015,40.609181],[0.336002,40.609205],[0.335968,40.609245],[0.335931,40.609285],[0.335902,40.609314],[0.335872,40.609341],[0.335864,40.609347],[0.335847,40.609365],[0.33544,40.609541],[0.334929,40.609689],[0.334695,40.609757],[0.334694,40.609758],[0.334797,40.609974],[0.334967,40.609912],[0.334976,40.609921],[0.334996,40.609951],[0.335014,40.609982],[0.335029,40.61001],[0.335043,40.610039],[0.335048,40.610051],[0.33507,40.610046],[0.335102,40.610039],[0.336046,40.609712],[0.336045,40.609744],[0.336041,40.609844],[0.336038,40.609917],[0.336034,40.609937],[0.336015,40.610017],[0.335876,40.610061],[0.335765,40.610168]]]]}},{"type":"Feature","id":"431567_431567 AP09 MON 2","properties":{"area_id":"431567_431567 AP09 MON 2","nom":"Molí de l'Om","codi_icgc":"431567 AP09 MON 2","categoria":"Àrees de poblament","codi_municipi":"431567","municipi":"Ulldecona","codi_comarca":"22","comarca":"Montsià","provincia":"Tarragona","font":"ICGC Àrees de poblament v3r1 202602"},"geometry":{"type":"MultiPolygon","coordinates":[[[[0.357515,40.607332],[0.357232,40.607394],[0.356807,40.607487],[0.356537,40.60758],[0.35636,40.607641],[0.355918,40.607766],[0.355599,40.607855],[0.355573,40.607863],[0.355515,40.607879],[0.354927,40.608045],[0.354121,40.608262],[0.354132,40.608477],[0.355382,40.608475],[0.355623,40.608475],[0.356476,40.608502],[0.358227,40.608342],[0.358598,40.608288],[0.358991,40.608231],[0.360197,40.608101],[0.359692,40.606434],[0.359682,40.606402],[0.359681,40.606402],[0.359283,40.606529],[0.359196,40.606704],[0.359182,40.606734],[0.359054,40.606782],[0.358896,40.606841],[0.358685,40.606853],[0.358493,40.606978],[0.35846,40.606999],[0.358383,40.60705],[0.358164,40.607045],[0.35801,40.606981],[0.357785,40.606946],[0.357611,40.606984],[0.357529,40.607084],[0.357496,40.607142],[0.357518,40.607331],[0.357515,40.607332]]]]}},{"type":"Feature","id":"431567_431567 SI04 MON 2","properties":{"area_id":"431567_431567 SI04 MON 2","nom":"Polígon industrial Valldepins","codi_icgc":"431567 SI04 MON 2","categoria":"Sector industrial","codi_municipi":"431567","municipi":"Ulldecona","codi_comarca":"22","comarca":"Montsià","provincia":"Tarragona","font":"ICGC Àrees de poblament v3r1 202602"},"geometry":{"type":"MultiPolygon","coordinates":[[[[0.453021,40.583609],[0.453215,40.583207],[0.453212,40.583205],[0.452735,40.582786],[0.453683,40.582137],[0.453651,40.58211],[0.453099,40.581643],[0.452942,40.581509],[0.452746,40.581343],[0.452377,40.581002],[0.452363,40.580989],[0.452314,40.581023],[0.451029,40.581927],[0.451009,40.58191],[0.450307,40.581308],[0.450281,40.581249],[0.450269,40.581222],[0.450263,40.58121],[0.451199,40.580601],[0.451278,40.580553],[0.451557,40.580409],[0.451368,40.580277],[0.451182,40.580148],[0.450925,40.579969],[0.450822,40.579898],[0.450186,40.579482],[0.449994,40.579362],[0.4496,40.579115],[0.449504,40.579054],[0.448681,40.578566],[0.448626,40.578533],[0.448607,40.578522],[0.447871,40.578978],[0.447982,40.57909],[0.44698,40.579686],[0.446905,40.579724],[0.446873,40.579769],[0.446875,40.579834],[0.446893,40.579887],[0.447092,40.580085],[0.447059,40.580106],[0.447021,40.580129],[0.446994,40.580145],[0.446986,40.580137],[0.446711,40.5803],[0.44654,40.580402],[0.446545,40.580418],[0.446811,40.580724],[0.446826,40.580742],[0.446921,40.580679],[0.446959,40.580734],[0.447548,40.581315],[0.447889,40.581101],[0.448135,40.581354],[0.44821,40.58143],[0.44889,40.582129],[0.448914,40.582155],[0.448899,40.582166],[0.448861,40.582199],[0.448811,40.58225],[0.448787,40.582275],[0.44876,40.582298],[0.448619,40.582407],[0.448616,40.582409],[0.448472,40.58252],[0.448243,40.582696],[0.448013,40.582871],[0.447885,40.582973],[0.447865,40.582988],[0.447855,40.582997],[0.447698,40.583123],[0.447631,40.583175],[0.447525,40.58325],[0.447417,40.583324],[0.447358,40.583362],[0.44731,40.583388],[0.447295,40.583395],[0.44725,40.583416],[0.447204,40.583437],[0.447191,40.583443],[0.447175,40.58345],[0.447163,40.583461],[0.447157,40.583471],[0.447148,40.583484],[0.44714,40.583497],[0.447156,40.583526],[0.447174,40.583572],[0.447258,40.583606],[0.447261,40.583608],[0.44729,40.583619],[0.447313,40.583628],[0.447651,40.583759],[0.44814,40.583912],[0.448154,40.583916],[0.44848,40.584016],[0.448833,40.584104],[0.449143,40.584182],[0.449428,40.584255],[0.449843,40.584357],[0.450029,40.584411],[0.4501,40.584435],[0.450161,40.584456],[0.450354,40.584538],[0.450585,40.584641],[0.450591,40.584644],[0.450611,40.584655],[0.450673,40.584687],[0.450788,40.584747],[0.450855,40.584784],[0.450902,40.584814],[0.450949,40.584845],[0.451005,40.584881],[0.451019,40.58489],[0.451081,40.584931],[0.451088,40.584936],[0.451136,40.584968],[0.451155,40.584982],[0.451181,40.585],[0.451221,40.585029],[0.451282,40.585074],[0.451334,40.585113],[0.451444,40.585198],[0.451494,40.58524],[0.451595,40.585331],[0.451652,40.585383],[0.451717,40.585449],[0.451751,40.585486],[0.451806,40.585501],[0.451859,40.585512],[0.451921,40.585518],[0.452054,40.585509],[0.452101,40.585504],[0.452139,40.585494],[0.45218,40.585474],[0.45261,40.58458],[0.452779,40.584235],[0.452793,40.584207],[0.452759,40.584184],[0.453021,40.583609]]]]}},{"type":"Feature","id":"431567_431567 AP08 MON 3","properties":{"area_id":"431567_431567 AP08 MON 3","nom":"Sant Joan del Pas","codi_icgc":"431567 AP08 MON 3","categoria":"Àrees de poblament","codi_municipi":"431567","municipi":"Ulldecona","codi_comarca":"22","comarca":"Montsià","provincia":"Tarragona","font":"ICGC Àrees de poblament v3r1 202602"},"geometry":{"type":"MultiPolygon","coordinates":[[[[0.391196,40.605419],[0.391349,40.605516],[0.391501,40.605637],[0.391568,40.605617],[0.391674,40.605546],[0.391955,40.60538],[0.392009,40.605369],[0.392077,40.605437],[0.392256,40.605675],[0.392186,40.605697],[0.39211,40.605728],[0.391852,40.605839],[0.391649,40.60593],[0.391729,40.606032],[0.391943,40.60623],[0.391989,40.606256],[0.392066,40.606218],[0.39225,40.606146],[0.392336,40.606117],[0.39239,40.606092],[0.392452,40.606084],[0.392537,40.606079],[0.392568,40.606089],[0.392615,40.606097],[0.39277,40.606037],[0.39288,40.606029],[0.392943,40.606019],[0.392972,40.606003],[0.393905,40.605872],[0.394039,40.605813],[0.394116,40.605774],[0.393872,40.605532],[0.393898,40.605488],[0.393889,40.605416],[0.39389,40.605378],[0.393953,40.605303],[0.393994,40.605278],[0.394039,40.605253],[0.394049,40.605229],[0.394076,40.605187],[0.394304,40.605079],[0.39429,40.605067],[0.394536,40.604945],[0.394449,40.604852],[0.394381,40.604753],[0.39413,40.604848],[0.393908,40.604914],[0.393651,40.604603],[0.393188,40.604852],[0.393112,40.604812],[0.393027,40.604746],[0.393,40.604707],[0.393024,40.604667],[0.393134,40.604651],[0.3932,40.604631],[0.393065,40.604482],[0.392989,40.604511],[0.392936,40.604513],[0.392874,40.604487],[0.392804,40.604436],[0.392704,40.604353],[0.392611,40.604422],[0.392582,40.604517],[0.392605,40.604565],[0.392578,40.604619],[0.392536,40.604649],[0.392479,40.604674],[0.392435,40.604685],[0.392435,40.604685],[0.392377,40.604734],[0.392306,40.604796],[0.392203,40.604851],[0.392057,40.604919],[0.391961,40.604982],[0.39188,40.605044],[0.391771,40.605104],[0.391718,40.605134],[0.39167,40.605147],[0.391468,40.60519],[0.391196,40.605419]]]]}},{"type":"Feature","id":"431567_431567 SI05 MON 2","properties":{"area_id":"431567_431567 SI05 MON 2","nom":"Serradora del Patoto","codi_icgc":"431567 SI05 MON 2","categoria":"Sector industrial","codi_municipi":"431567","municipi":"Ulldecona","codi_comarca":"22","comarca":"Montsià","provincia":"Tarragona","font":"ICGC Àrees de poblament v3r1 202602"},"geometry":{"type":"MultiPolygon","coordinates":[[[[0.427285,40.602841],[0.427332,40.602845],[0.427447,40.602724],[0.427536,40.60261],[0.427599,40.602524],[0.427633,40.602483],[0.427332,40.602349],[0.427065,40.602676],[0.427158,40.602724],[0.427163,40.602762],[0.427221,40.602809],[0.427285,40.602841]]]]}},{"type":"Feature","id":"431567_431567 AP01 MON 3","properties":{"area_id":"431567_431567 AP01 MON 3","nom":"Ulldecona","codi_icgc":"431567 AP01 MON 3","categoria":"Àrees de poblament","codi_municipi":"431567","municipi":"Ulldecona","codi_comarca":"22","comarca":"Montsià","provincia":"Tarragona","font":"ICGC Àrees de poblament v3r1 202602"},"geometry":{"type":"MultiPolygon","coordinates":[[[[0.440473,40.602983],[0.440656,40.603104],[0.440919,40.603297],[0.44107,40.603191],[0.441124,40.603224],[0.441235,40.603304],[0.441396,40.603469],[0.441483,40.603566],[0.441576,40.603672],[0.441677,40.603698],[0.442113,40.603443],[0.442697,40.603095],[0.443112,40.60286],[0.44328,40.602754],[0.443481,40.602627],[0.443556,40.60259],[0.443561,40.602557],[0.443451,40.60248],[0.443375,40.602425],[0.443322,40.602376],[0.44325,40.602306],[0.443164,40.602221],[0.443028,40.602084],[0.442916,40.601959],[0.442814,40.601862],[0.442755,40.601783],[0.442718,40.601708],[0.44268,40.601585],[0.442645,40.601474],[0.442617,40.6013],[0.442603,40.601237],[0.442542,40.601105],[0.442435,40.600948],[0.442287,40.60073],[0.442243,40.600654],[0.442527,40.600583],[0.442692,40.600542],[0.442748,40.600514],[0.442764,40.600401],[0.442748,40.60012],[0.442747,40.59993],[0.442739,40.59962],[0.442835,40.599577],[0.442923,40.599725],[0.44302,40.599852],[0.443051,40.599963],[0.443064,40.600121],[0.443041,40.600204],[0.443379,40.600259],[0.443397,40.600215],[0.443347,40.600086],[0.44341,40.600058],[0.443619,40.60002],[0.443466,40.599737],[0.443798,40.599634],[0.444073,40.599494],[0.444296,40.599377],[0.444446,40.599285],[0.444502,40.599353],[0.444559,40.599399],[0.444646,40.599461],[0.444708,40.599492],[0.444798,40.599586],[0.444931,40.599777],[0.445007,40.599847],[0.445192,40.600009],[0.445404,40.600207],[0.445498,40.600293],[0.44571,40.600568],[0.445897,40.600787],[0.445543,40.601071],[0.445705,40.601224],[0.445882,40.601287],[0.44586,40.601355],[0.445784,40.601413],[0.445511,40.601583],[0.444999,40.601893],[0.445237,40.602107],[0.445726,40.60179],[0.445837,40.601766],[0.445957,40.601673],[0.446274,40.601478],[0.44673,40.601193],[0.446795,40.601233],[0.446893,40.601333],[0.447028,40.60147],[0.447178,40.601632],[0.447225,40.601636],[0.447309,40.60159],[0.447638,40.601368],[0.447174,40.600917],[0.447195,40.600881],[0.447619,40.600635],[0.447871,40.600494],[0.448286,40.600256],[0.448662,40.600026],[0.448834,40.599932],[0.448938,40.599871],[0.44907,40.599794],[0.449194,40.599907],[0.449303,40.600025],[0.449511,40.600304],[0.450119,40.599942],[0.450343,40.599807],[0.450901,40.60026],[0.451448,40.600709],[0.45176,40.600526],[0.452132,40.600293],[0.452188,40.600255],[0.451739,40.59974],[0.452209,40.599458],[0.452085,40.599339],[0.451293,40.599813],[0.45091,40.599486],[0.450628,40.599197],[0.45042,40.599019],[0.450712,40.598835],[0.450996,40.598671],[0.451604,40.598307],[0.451847,40.598175],[0.451867,40.598161],[0.450048,40.596458],[0.450266,40.596231],[0.450061,40.596032],[0.449864,40.595858],[0.449645,40.595654],[0.449283,40.595312],[0.449135,40.595187],[0.449137,40.595139],[0.44874,40.594788],[0.448797,40.594735],[0.448703,40.594638],[0.448605,40.59454],[0.448542,40.594459],[0.448497,40.594404],[0.448336,40.594222],[0.448284,40.594259],[0.44811,40.594312],[0.447861,40.594422],[0.447707,40.594279],[0.447645,40.594305],[0.447609,40.594322],[0.447582,40.594318],[0.447517,40.594266],[0.447098,40.593893],[0.446588,40.593435],[0.446304,40.593176],[0.446074,40.592971],[0.445911,40.592833],[0.445842,40.592805],[0.445622,40.592928],[0.445055,40.593243],[0.445055,40.593244],[0.445002,40.593198],[0.444904,40.593112],[0.444854,40.593075],[0.444796,40.593077],[0.444757,40.593058],[0.444258,40.593342],[0.443982,40.593518],[0.443856,40.593631],[0.444004,40.593867],[0.444154,40.594132],[0.444227,40.59425],[0.44421,40.594285],[0.444142,40.594328],[0.443502,40.594719],[0.44321,40.594904],[0.443175,40.594894],[0.443132,40.59489],[0.443109,40.594908],[0.443094,40.594899],[0.442662,40.595161],[0.4423,40.595377],[0.441408,40.595906],[0.440979,40.596156],[0.441223,40.596378],[0.441211,40.596476],[0.441933,40.59665],[0.442106,40.596689],[0.442317,40.596736],[0.442382,40.596764],[0.44231,40.596848],[0.442217,40.596899],[0.442092,40.596977],[0.442186,40.597067],[0.442266,40.597155],[0.442047,40.597284],[0.441724,40.597487],[0.441479,40.597619],[0.441317,40.597731],[0.44122,40.597657],[0.440984,40.597819],[0.440883,40.597878],[0.440695,40.597689],[0.440279,40.597918],[0.440174,40.59782],[0.44003,40.597888],[0.439837,40.597929],[0.43971,40.597992],[0.43959,40.598069],[0.439558,40.598069],[0.439463,40.59801],[0.43931,40.597923],[0.439038,40.597786],[0.438904,40.597714],[0.43883,40.597689],[0.438763,40.59772],[0.438455,40.597907],[0.438198,40.598077],[0.438114,40.598132],[0.438327,40.598294],[0.438142,40.598421],[0.438555,40.598749],[0.438527,40.598779],[0.438274,40.598964],[0.438186,40.599006],[0.438304,40.599101],[0.438489,40.599257],[0.438522,40.599312],[0.438832,40.599086],[0.439149,40.59937],[0.438868,40.599558],[0.438871,40.599582],[0.439335,40.600027],[0.439844,40.600524],[0.439755,40.600605],[0.439105,40.601047],[0.438214,40.601649],[0.43814,40.601642],[0.438071,40.601607],[0.437891,40.601508],[0.437773,40.601437],[0.437603,40.601386],[0.437463,40.60135],[0.437362,40.601333],[0.437284,40.601328],[0.436617,40.601912],[0.437113,40.60223],[0.436621,40.602642],[0.43642,40.602771],[0.436527,40.602839],[0.436569,40.602864],[0.436244,40.603086],[0.436055,40.603228],[0.435978,40.603295],[0.435719,40.603505],[0.435893,40.603551],[0.436005,40.603583],[0.436122,40.603632],[0.436237,40.603679],[0.436254,40.603711],[0.43627,40.603742],[0.436307,40.603785],[0.436485,40.604039],[0.43657,40.60416],[0.436618,40.604143],[0.436948,40.603984],[0.43664,40.603661],[0.43672,40.603606],[0.437331,40.604004],[0.437609,40.603772],[0.437034,40.603375],[0.436993,40.603335],[0.436986,40.603308],[0.43698,40.603269],[0.437165,40.603119],[0.437387,40.602945],[0.437459,40.602997],[0.437967,40.603312],[0.438104,40.603199],[0.438215,40.603255],[0.438345,40.603142],[0.438204,40.603049],[0.438374,40.602895],[0.438459,40.602921],[0.43881,40.60314],[0.438869,40.602912],[0.438904,40.602934],[0.438941,40.602869],[0.438942,40.602762],[0.43855,40.602565],[0.438555,40.602536],[0.438211,40.602346],[0.438526,40.602088],[0.438706,40.601982],[0.43887,40.601864],[0.438978,40.601806],[0.439094,40.601743],[0.439758,40.60236],[0.439868,40.602452],[0.440473,40.602983]]]]}},{"type":"Feature","id":"431567_431567 SI01 MON 2","properties":{"area_id":"431567_431567 SI01 MON 2","nom":"Ulldecona 1","codi_icgc":"431567 SI01 MON 2","categoria":"Sector industrial","codi_municipi":"431567","municipi":"Ulldecona","codi_comarca":"22","comarca":"Montsià","provincia":"Tarragona","font":"ICGC Àrees de poblament v3r1 202602"},"geometry":{"type":"MultiPolygon","coordinates":[[[[0.443649,40.593301],[0.443804,40.593553],[0.444722,40.593025],[0.444472,40.592767],[0.444451,40.592745],[0.444437,40.592749],[0.444422,40.592735],[0.444358,40.592674],[0.444281,40.592632],[0.44418,40.592613],[0.444099,40.592606],[0.444021,40.592627],[0.44398,40.592641],[0.443956,40.59265],[0.443889,40.592672],[0.44383,40.592665],[0.4438,40.592658],[0.443772,40.592646],[0.443747,40.592629],[0.443729,40.592609],[0.443724,40.5926],[0.443722,40.592593],[0.443619,40.592596],[0.443289,40.59258],[0.443187,40.592352],[0.443147,40.592263],[0.443139,40.592245],[0.443044,40.592129],[0.442958,40.59199],[0.442831,40.591888],[0.442807,40.591869],[0.442673,40.591762],[0.44245,40.591601],[0.442866,40.591346],[0.442937,40.591302],[0.44295,40.591294],[0.443037,40.591237],[0.443068,40.591217],[0.443093,40.591196],[0.443146,40.591152],[0.443506,40.590927],[0.443734,40.590785],[0.443767,40.590753],[0.443849,40.590672],[0.443653,40.590483],[0.443272,40.590115],[0.443092,40.589954],[0.443022,40.589892],[0.442932,40.589811],[0.44288,40.589833],[0.442826,40.589856],[0.442208,40.590121],[0.442425,40.590319],[0.441632,40.590909],[0.44154,40.590953],[0.441461,40.590991],[0.441398,40.590947],[0.441095,40.590735],[0.440856,40.590561],[0.440561,40.590339],[0.440563,40.590337],[0.440574,40.590322],[0.440586,40.590311],[0.440595,40.590306],[0.440586,40.590301],[0.440544,40.590327],[0.440255,40.590116],[0.440929,40.58969],[0.440891,40.589539],[0.440829,40.589494],[0.441006,40.589395],[0.441294,40.589241],[0.440978,40.588914],[0.440872,40.588804],[0.440717,40.588644],[0.440327,40.588858],[0.440013,40.589038],[0.439281,40.589487],[0.439217,40.589438],[0.439153,40.589406],[0.439076,40.589368],[0.439046,40.589391],[0.438992,40.589432],[0.437929,40.59009],[0.437963,40.590108],[0.438833,40.590845],[0.438837,40.590849],[0.438853,40.590863],[0.439163,40.591146],[0.43919,40.591171],[0.439302,40.591273],[0.439616,40.591043],[0.439807,40.590902],[0.439943,40.591015],[0.440661,40.590544],[0.440719,40.590513],[0.440774,40.59059],[0.440857,40.590648],[0.440886,40.590637],[0.440907,40.590652],[0.440988,40.590711],[0.44106,40.590763],[0.441252,40.590898],[0.440616,40.591339],[0.439885,40.591806],[0.439897,40.591817],[0.4399,40.591819],[0.439916,40.591834],[0.440264,40.592146],[0.440296,40.592167],[0.44042,40.592073],[0.440797,40.592363],[0.440792,40.592366],[0.440692,40.592432],[0.440692,40.592432],[0.440708,40.592442],[0.44093,40.59259],[0.440949,40.592603],[0.440958,40.592614],[0.441066,40.592734],[0.4411,40.592767],[0.44111,40.592761],[0.442507,40.591858],[0.44258,40.591775],[0.442738,40.591881],[0.442817,40.591942],[0.442867,40.591984],[0.442892,40.59201],[0.442915,40.592037],[0.442956,40.592096],[0.442971,40.59212],[0.443009,40.592199],[0.443047,40.592278],[0.443084,40.592348],[0.443121,40.592418],[0.443142,40.592466],[0.44315,40.592482],[0.443156,40.592498],[0.443161,40.592513],[0.443161,40.592533],[0.443158,40.592553],[0.443154,40.592569],[0.443147,40.592584],[0.443139,40.592598],[0.443123,40.592617],[0.443113,40.592628],[0.443089,40.592648],[0.4428,40.592821],[0.442506,40.592999],[0.441987,40.593316],[0.441798,40.593431],[0.441641,40.593527],[0.441451,40.593342],[0.441097,40.59358],[0.440716,40.593854],[0.440785,40.593927],[0.440779,40.594024],[0.440795,40.594041],[0.440851,40.594098],[0.441384,40.594646],[0.441851,40.594367],[0.442163,40.59415],[0.442209,40.594117],[0.442393,40.594041],[0.442434,40.594016],[0.442737,40.593829],[0.443377,40.593432],[0.443393,40.593424],[0.443533,40.593356],[0.443646,40.593302],[0.443649,40.593301]]]]}},{"type":"Feature","id":"431567_431567 SI02 MON 2","properties":{"area_id":"431567_431567 SI02 MON 2","nom":"Ulldecona 2","codi_icgc":"431567 SI02 MON 2","categoria":"Sector industrial","codi_municipi":"431567","municipi":"Ulldecona","codi_comarca":"22","comarca":"Montsià","provincia":"Tarragona","font":"ICGC Àrees de poblament v3r1 202602"},"geometry":{"type":"MultiPolygon","coordinates":[[[[0.435659,40.596723],[0.435609,40.596751],[0.435253,40.596952],[0.435257,40.596955],[0.435354,40.597031],[0.435449,40.597106],[0.43563,40.597247],[0.435682,40.597287],[0.435744,40.597341],[0.435776,40.597368],[0.435228,40.597779],[0.434581,40.59826],[0.434156,40.598561],[0.434589,40.598878],[0.434634,40.598835],[0.434649,40.59884],[0.434652,40.598838],[0.435167,40.598881],[0.435444,40.598927],[0.435828,40.59905],[0.435901,40.598968],[0.435909,40.598956],[0.43598,40.599005],[0.436111,40.598883],[0.436123,40.598892],[0.436136,40.59888],[0.436346,40.599004],[0.437331,40.598292],[0.43732,40.598278],[0.437185,40.59816],[0.437079,40.598017],[0.437167,40.59795],[0.437495,40.597695],[0.437808,40.597452],[0.437846,40.597419],[0.437855,40.597408],[0.437706,40.597371],[0.43769,40.597366],[0.437679,40.597364],[0.437675,40.597363],[0.437663,40.59736],[0.437619,40.597348],[0.437528,40.597324],[0.437495,40.597315],[0.437392,40.597288],[0.437357,40.597283],[0.437323,40.597283],[0.437269,40.597287],[0.437216,40.597291],[0.437112,40.597305],[0.437011,40.597319],[0.436989,40.59732],[0.436954,40.597316],[0.436939,40.597313],[0.436917,40.597309],[0.436914,40.597308],[0.436821,40.597283],[0.436818,40.597276],[0.437676,40.596698],[0.437939,40.596511],[0.438045,40.596435],[0.43818,40.596339],[0.437859,40.596307],[0.437619,40.596297],[0.437598,40.596299],[0.437577,40.596306],[0.43756,40.596319],[0.437534,40.596332],[0.437495,40.596347],[0.43749,40.596349],[0.437443,40.59636],[0.437394,40.596366],[0.437344,40.596367],[0.437295,40.596361],[0.437267,40.59636],[0.437064,40.596471],[0.436985,40.596516],[0.436864,40.596585],[0.436794,40.59663],[0.436739,40.59666],[0.436705,40.596679],[0.436692,40.596687],[0.436564,40.596744],[0.436497,40.596642],[0.436398,40.596524],[0.436307,40.596431],[0.436272,40.596388],[0.435948,40.59656],[0.435801,40.596642],[0.435659,40.596723]]]]}},{"type":"Feature","id":"431567_431567 SI03 MON 2","properties":{"area_id":"431567_431567 SI03 MON 2","nom":"Ulldecona 3","codi_icgc":"431567 SI03 MON 2","categoria":"Sector industrial","codi_municipi":"431567","municipi":"Ulldecona","codi_comarca":"22","comarca":"Montsià","provincia":"Tarragona","font":"ICGC Àrees de poblament v3r1 202602"},"geometry":{"type":"MultiPolygon","coordinates":[[[[0.453578,40.602283],[0.453691,40.602219],[0.454196,40.601941],[0.454126,40.601873],[0.454283,40.601784],[0.454134,40.601647],[0.45387,40.601804],[0.453739,40.60174],[0.453651,40.601708],[0.453939,40.601538],[0.453664,40.601265],[0.45341,40.601419],[0.452791,40.601776],[0.452502,40.60153],[0.45316,40.601138],[0.452942,40.600941],[0.452954,40.600934],[0.452859,40.600841],[0.452851,40.600826],[0.452439,40.601066],[0.452229,40.601191],[0.452189,40.601223],[0.452173,40.601252],[0.451711,40.600855],[0.451628,40.600899],[0.451058,40.601239],[0.450632,40.601484],[0.450842,40.601715],[0.451044,40.601914],[0.451051,40.60192],[0.451461,40.601692],[0.451728,40.601972],[0.451376,40.602182],[0.451283,40.602237],[0.450943,40.602421],[0.450621,40.602613],[0.450397,40.602745],[0.45043,40.602778],[0.450713,40.603061],[0.450717,40.603064],[0.450669,40.603091],[0.450573,40.603146],[0.450561,40.603153],[0.450735,40.603329],[0.450747,40.603322],[0.450843,40.603267],[0.450876,40.603284],[0.450901,40.603301],[0.450924,40.603318],[0.450944,40.603338],[0.450974,40.60337],[0.451,40.603404],[0.451022,40.603434],[0.451043,40.603464],[0.451049,40.603472],[0.451054,40.60348],[0.451062,40.603488],[0.451071,40.603496],[0.451078,40.603503],[0.451176,40.60359],[0.451192,40.603605],[0.451217,40.603589],[0.451234,40.603579],[0.451295,40.603543],[0.451386,40.603489],[0.45147,40.603439],[0.451477,40.603434],[0.45156,40.603384],[0.451694,40.603307],[0.451707,40.603321],[0.451741,40.603359],[0.451955,40.603586],[0.451975,40.603601],[0.452415,40.603323],[0.452956,40.603003],[0.453453,40.602707],[0.453561,40.602643],[0.453589,40.602628],[0.453724,40.602554],[0.453661,40.602505],[0.453554,40.602417],[0.453479,40.602355],[0.453578,40.602283]]]]}},{"type":"Feature","id":"431567_431567 AP07 MON 3","properties":{"area_id":"431567_431567 AP07 MON 3","nom":"el Castell","codi_icgc":"431567 AP07 MON 3","categoria":"Àrees de poblament","codi_municipi":"431567","municipi":"Ulldecona","codi_comarca":"22","comarca":"Montsià","provincia":"Tarragona","font":"ICGC Àrees de poblament v3r1 202602"},"geometry":{"type":"MultiPolygon","coordinates":[[[[0.344929,40.608622],[0.345355,40.608583],[0.345425,40.608586],[0.345829,40.608603],[0.346112,40.608619],[0.346104,40.608645],[0.346055,40.60877],[0.346131,40.608804],[0.346172,40.608819],[0.346621,40.608695],[0.346653,40.608782],[0.346988,40.608678],[0.347013,40.608713],[0.347068,40.608697],[0.347204,40.608946],[0.347036,40.609025],[0.347206,40.609228],[0.347376,40.609249],[0.34791,40.609264],[0.347994,40.609366],[0.348011,40.609365],[0.348129,40.609509],[0.348128,40.609534],[0.348015,40.609544],[0.347893,40.609548],[0.347797,40.609559],[0.347786,40.609703],[0.347795,40.609818],[0.347793,40.609903],[0.347807,40.61017],[0.347791,40.610372],[0.348574,40.610412],[0.348787,40.610285],[0.34891,40.610415],[0.348941,40.610396],[0.34899,40.610374],[0.349012,40.610346],[0.349025,40.610199],[0.349038,40.610112],[0.348772,40.609824],[0.348793,40.609812],[0.349159,40.609663],[0.349228,40.609665],[0.349594,40.610192],[0.349636,40.61018],[0.350048,40.610095],[0.349828,40.609634],[0.350008,40.609597],[0.350112,40.609572],[0.35004,40.609406],[0.350037,40.60938],[0.350012,40.609315],[0.349934,40.609149],[0.350191,40.609082],[0.350061,40.608781],[0.349955,40.608556],[0.349878,40.608567],[0.349804,40.608581],[0.349788,40.608572],[0.349768,40.608557],[0.349767,40.608526],[0.349774,40.608487],[0.349764,40.608451],[0.349694,40.608411],[0.349661,40.608398],[0.349585,40.608392],[0.349408,40.608403],[0.349182,40.608424],[0.348986,40.608436],[0.348815,40.608451],[0.348657,40.608465],[0.348555,40.608467],[0.348466,40.608456],[0.348339,40.608432],[0.348023,40.608363],[0.347831,40.608316],[0.347634,40.608271],[0.347524,40.608251],[0.347439,40.608282],[0.34739,40.608287],[0.347332,40.608278],[0.347289,40.608269],[0.347258,40.608242],[0.34722,40.608223],[0.347167,40.608223],[0.347115,40.608223],[0.347057,40.608216],[0.346962,40.608231],[0.346797,40.608189],[0.346722,40.608181],[0.346507,40.608175],[0.346396,40.608174],[0.346466,40.608057],[0.346435,40.608046],[0.346357,40.608036],[0.346257,40.608033],[0.346187,40.608016],[0.346113,40.607987],[0.346087,40.607965],[0.346078,40.607905],[0.345884,40.607892],[0.345798,40.60789],[0.34572,40.607905],[0.345643,40.607918],[0.345558,40.60792],[0.345423,40.607924],[0.345329,40.607922],[0.345344,40.607808],[0.344811,40.60781],[0.344781,40.608329],[0.344938,40.608326],[0.344929,40.608622]]]]}},{"type":"Feature","id":"431567_431567 AP06 MON 3","properties":{"area_id":"431567_431567 AP06 MON 3","nom":"els Valentins","codi_icgc":"431567 AP06 MON 3","categoria":"Àrees de poblament","codi_municipi":"431567","municipi":"Ulldecona","codi_comarca":"22","comarca":"Montsià","provincia":"Tarragona","font":"ICGC Àrees de poblament v3r1 202602"},"geometry":{"type":"MultiPolygon","coordinates":[[[[0.363561,40.629282],[0.363828,40.629449],[0.363897,40.629379],[0.364162,40.629516],[0.364268,40.629408],[0.36446,40.629183],[0.364441,40.629182],[0.364465,40.629172],[0.364548,40.62921],[0.36476,40.628988],[0.36443,40.628795],[0.364629,40.628587],[0.36474,40.628468],[0.364829,40.628513],[0.364831,40.628618],[0.365004,40.628672],[0.365079,40.628753],[0.365397,40.628862],[0.365557,40.628597],[0.365505,40.628581],[0.365338,40.628539],[0.365282,40.628519],[0.365249,40.628487],[0.365301,40.628431],[0.365551,40.628196],[0.365844,40.628315],[0.365895,40.628361],[0.365987,40.628411],[0.366046,40.628432],[0.366112,40.628421],[0.366217,40.628285],[0.3663,40.628247],[0.366375,40.628177],[0.366451,40.628136],[0.366534,40.628176],[0.366675,40.628248],[0.366736,40.628283],[0.366757,40.628312],[0.366759,40.628341],[0.366714,40.628366],[0.366595,40.628449],[0.366603,40.628506],[0.366823,40.628709],[0.36704,40.628905],[0.367119,40.628978],[0.367181,40.628998],[0.367256,40.629081],[0.367335,40.62914],[0.367473,40.629053],[0.367487,40.629001],[0.367483,40.628958],[0.367462,40.628926],[0.367158,40.628612],[0.366885,40.628329],[0.366845,40.628295],[0.36676,40.628233],[0.366694,40.628179],[0.366601,40.628139],[0.366497,40.628082],[0.366688,40.627929],[0.367021,40.627648],[0.367054,40.627613],[0.366742,40.62743],[0.366902,40.627257],[0.36713,40.627033],[0.36727,40.626891],[0.367449,40.626705],[0.367257,40.626588],[0.367345,40.626497],[0.367155,40.626395],[0.367341,40.626195],[0.36743,40.626161],[0.36749,40.626134],[0.367577,40.626079],[0.367657,40.626026],[0.367987,40.625666],[0.367589,40.625447],[0.367519,40.625415],[0.367222,40.625727],[0.367153,40.625809],[0.367092,40.625836],[0.366841,40.625628],[0.366492,40.625344],[0.366366,40.625367],[0.366285,40.625356],[0.366015,40.62514],[0.365768,40.625308],[0.365514,40.625076],[0.365233,40.624826],[0.365147,40.624879],[0.365104,40.624928],[0.365043,40.624896],[0.364984,40.624952],[0.364954,40.625003],[0.364943,40.625063],[0.364946,40.625127],[0.364976,40.625173],[0.364999,40.625212],[0.364979,40.625254],[0.364892,40.625312],[0.365064,40.625475],[0.365474,40.625792],[0.365804,40.626069],[0.366019,40.626238],[0.365989,40.626295],[0.365893,40.626381],[0.36579,40.626479],[0.365715,40.626553],[0.365613,40.626532],[0.3655,40.626492],[0.365298,40.626721],[0.365214,40.626795],[0.365088,40.626888],[0.365258,40.627055],[0.365203,40.627089],[0.365005,40.627203],[0.364877,40.62729],[0.364714,40.627161],[0.364641,40.627245],[0.364599,40.627308],[0.36453,40.627451],[0.364488,40.627513],[0.364451,40.627534],[0.364404,40.627537],[0.364357,40.627532],[0.364318,40.627531],[0.364291,40.627542],[0.364262,40.627581],[0.364224,40.627644],[0.36418,40.627736],[0.364147,40.627813],[0.364162,40.627878],[0.364185,40.627914],[0.364246,40.627955],[0.364276,40.628001],[0.364304,40.628023],[0.364375,40.628064],[0.364435,40.628108],[0.36452,40.628167],[0.364532,40.628191],[0.364526,40.628217],[0.364228,40.628517],[0.364077,40.628698],[0.363871,40.628553],[0.363738,40.628473],[0.363346,40.628878],[0.363503,40.628965],[0.363625,40.629036],[0.363713,40.629095],[0.363731,40.629121],[0.363561,40.629282]]]]}},{"type":"Feature","id":"431567_431567 SI06 MON 2","properties":{"area_id":"431567_431567 SI06 MON 2","nom":"fàbrica de sulfur","codi_icgc":"431567 SI06 MON 2","categoria":"Sector industrial","codi_municipi":"431567","municipi":"Ulldecona","codi_comarca":"22","comarca":"Montsià","provincia":"Tarragona","font":"ICGC Àrees de poblament v3r1 202602"},"geometry":{"type":"MultiPolygon","coordinates":[[[[0.449252,40.595104],[0.449576,40.595395],[0.449601,40.595394],[0.449994,40.595191],[0.449774,40.594827],[0.449252,40.595104]]]]}},{"type":"Feature","id":"431567_431567 AP04 MON 3","properties":{"area_id":"431567_431567 AP04 MON 3","nom":"la Miliana","codi_icgc":"431567 AP04 MON 3","categoria":"Àrees de poblament","codi_municipi":"431567","municipi":"Ulldecona","codi_comarca":"22","comarca":"Montsià","provincia":"Tarragona","font":"ICGC Àrees de poblament v3r1 202602"},"geometry":{"type":"MultiPolygon","coordinates":[[[[0.415341,40.640404],[0.415419,40.640452],[0.415722,40.640186],[0.415873,40.640124],[0.415978,40.640002],[0.416044,40.640009],[0.416088,40.640007],[0.416187,40.639933],[0.416285,40.639826],[0.416376,40.639735],[0.416378,40.639682],[0.416363,40.639596],[0.416337,40.639553],[0.416228,40.639526],[0.41617,40.639501],[0.416258,40.639394],[0.416258,40.639317],[0.416194,40.639275],[0.416144,40.639265],[0.416162,40.639206],[0.41617,40.639168],[0.415898,40.639157],[0.415505,40.639143],[0.415264,40.639138],[0.415189,40.639131],[0.41514,40.639183],[0.415064,40.639291],[0.414889,40.639523],[0.414901,40.639535],[0.41495,40.639565],[0.415065,40.639596],[0.414977,40.639756],[0.415122,40.639823],[0.415297,40.639908],[0.415397,40.63998],[0.415544,40.640078],[0.415526,40.640138],[0.415483,40.640182],[0.415355,40.64027],[0.415253,40.640342],[0.415341,40.640404]]]]}},{"type":"Feature","id":"431567_431567 AP11 MON 2","properties":{"area_id":"431567_431567 AP11 MON 2","nom":"la Selleta","codi_icgc":"431567 AP11 MON 2","categoria":"Àrees de poblament","codi_municipi":"431567","municipi":"Ulldecona","codi_comarca":"22","comarca":"Montsià","provincia":"Tarragona","font":"ICGC Àrees de poblament v3r1 202602"},"geometry":{"type":"MultiPolygon","coordinates":[[[[0.50319,40.565602],[0.503203,40.565569],[0.503194,40.565518],[0.503173,40.565523],[0.503067,40.565544],[0.502822,40.565558],[0.502792,40.565551],[0.502679,40.565551],[0.50251,40.565547],[0.502387,40.565534],[0.502302,40.565574],[0.502193,40.565543],[0.502185,40.565555],[0.502175,40.565564],[0.502182,40.56561],[0.502148,40.565683],[0.502072,40.565726],[0.501997,40.565755],[0.501951,40.565758],[0.501895,40.565761],[0.501824,40.565763],[0.5018,40.565777],[0.501776,40.565792],[0.501752,40.565806],[0.501752,40.565821],[0.501755,40.565845],[0.50177,40.565863],[0.501813,40.565867],[0.501847,40.565882],[0.501964,40.565894],[0.502171,40.565907],[0.50221,40.56591],[0.50246,40.565905],[0.502605,40.565896],[0.50272,40.565885],[0.502845,40.565833],[0.502924,40.56581],[0.502995,40.565788],[0.503079,40.565748],[0.503123,40.565722],[0.503167,40.565688],[0.503184,40.565652],[0.50319,40.565602]]]]}},{"type":"Feature","id":"431567_431567 AP02 MON 2","properties":{"area_id":"431567_431567 AP02 MON 2","nom":"les Cases del Pas","codi_icgc":"431567 AP02 MON 2","categoria":"Àrees de poblament","codi_municipi":"431567","municipi":"Ulldecona","codi_comarca":"22","comarca":"Montsià","provincia":"Tarragona","font":"ICGC Àrees de poblament v3r1 202602"},"geometry":{"type":"MultiPolygon","coordinates":[[[[0.400425,40.604221],[0.400352,40.603854],[0.400362,40.603853],[0.40037,40.603853],[0.400386,40.603851],[0.400401,40.603849],[0.400414,40.603847],[0.400427,40.603846],[0.400443,40.603843],[0.40046,40.603839],[0.400475,40.603834],[0.400489,40.603829],[0.400503,40.603822],[0.400517,40.603815],[0.400525,40.603808],[0.40053,40.6038],[0.400532,40.603791],[0.400534,40.603783],[0.400534,40.603774],[0.400535,40.603766],[0.400535,40.603757],[0.400536,40.603747],[0.400536,40.603737],[0.400537,40.603727],[0.400539,40.603722],[0.400543,40.603717],[0.400553,40.603712],[0.400571,40.603711],[0.400588,40.603761],[0.400594,40.603761],[0.400603,40.603802],[0.400611,40.60384],[0.400615,40.603853],[0.400621,40.603866],[0.400625,40.603874],[0.400631,40.603881],[0.400638,40.603885],[0.400646,40.603887],[0.400654,40.603888],[0.400662,40.603887],[0.400673,40.603879],[0.400679,40.603872],[0.400686,40.603865],[0.400697,40.603859],[0.40071,40.603857],[0.40072,40.603856],[0.400729,40.603856],[0.400733,40.60396],[0.400812,40.603956],[0.400812,40.603953],[0.400867,40.603952],[0.400882,40.603949],[0.400898,40.603947],[0.400903,40.603947],[0.400931,40.603948],[0.400942,40.603951],[0.400953,40.603955],[0.400959,40.603962],[0.400967,40.603976],[0.400974,40.603993],[0.400977,40.604013],[0.400977,40.604016],[0.400978,40.604026],[0.400976,40.604038],[0.400975,40.60405],[0.400972,40.604076],[0.40097,40.604102],[0.400966,40.604137],[0.400997,40.604153],[0.401112,40.604146],[0.401235,40.604137],[0.401281,40.604133],[0.401255,40.604014],[0.401225,40.603875],[0.401438,40.603845],[0.401408,40.603682],[0.401728,40.603644],[0.401706,40.603512],[0.401698,40.603436],[0.401948,40.603407],[0.402049,40.603394],[0.402093,40.603388],[0.40216,40.603383],[0.402227,40.603379],[0.402228,40.603138],[0.402198,40.603142],[0.40217,40.603146],[0.401985,40.603162],[0.40195,40.603166],[0.401815,40.60318],[0.401755,40.60319],[0.401749,40.603191],[0.40173,40.603193],[0.401726,40.603193],[0.401682,40.603187],[0.401658,40.603183],[0.401646,40.603182],[0.401528,40.603207],[0.401531,40.603223],[0.401405,40.60325],[0.401118,40.60327],[0.400842,40.603272],[0.400781,40.603273],[0.400579,40.603271],[0.400534,40.603277],[0.400435,40.603288],[0.400369,40.60329],[0.400298,40.603286],[0.400263,40.603283],[0.399958,40.603244],[0.399868,40.603248],[0.399753,40.603248],[0.399661,40.60325],[0.399582,40.60325],[0.399276,40.603249],[0.399243,40.603252],[0.399208,40.60326],[0.399185,40.603269],[0.399173,40.603282],[0.399172,40.603304],[0.399177,40.6034],[0.399172,40.60345],[0.399173,40.603528],[0.399099,40.603527],[0.398921,40.60354],[0.399064,40.604221],[0.399083,40.604311],[0.399246,40.604317],[0.399584,40.604328],[0.399578,40.604221],[0.399568,40.604054],[0.399598,40.604058],[0.399857,40.604095],[0.399935,40.604097],[0.400158,40.604086],[0.400187,40.604221],[0.400246,40.604488],[0.400299,40.604482],[0.400474,40.604462],[0.400425,40.604221]]]]}},{"type":"Feature","id":"431567_431567 AP05 MON 3","properties":{"area_id":"431567_431567 AP05 MON 3","nom":"les Ventalles","codi_icgc":"431567 AP05 MON 3","categoria":"Àrees de poblament","codi_municipi":"431567","municipi":"Ulldecona","codi_comarca":"22","comarca":"Montsià","provincia":"Tarragona","font":"ICGC Àrees de poblament v3r1 202602"},"geometry":{"type":"MultiPolygon","coordinates":[[[[0.496793,40.645173],[0.496855,40.645223],[0.496882,40.645218],[0.49694,40.645209],[0.496993,40.645202],[0.497053,40.645197],[0.496986,40.645302],[0.4971,40.645345],[0.497086,40.645377],[0.497186,40.645409],[0.497225,40.64537],[0.497259,40.645325],[0.497288,40.645295],[0.497323,40.645267],[0.497331,40.645253],[0.497334,40.645236],[0.497351,40.645197],[0.497357,40.645173],[0.497388,40.645143],[0.497447,40.645103],[0.497509,40.645088],[0.497559,40.645075],[0.497601,40.645072],[0.497666,40.645051],[0.49777,40.645009],[0.49785,40.644959],[0.497841,40.644911],[0.497885,40.644893],[0.497812,40.644795],[0.49787,40.644747],[0.497817,40.644669],[0.497762,40.644686],[0.497568,40.644483],[0.497519,40.644407],[0.497443,40.644358],[0.497407,40.644388],[0.497259,40.644311],[0.497209,40.644363],[0.497179,40.644348],[0.497135,40.644398],[0.497097,40.644432],[0.497028,40.644422],[0.496991,40.644457],[0.496946,40.644516],[0.496866,40.644491],[0.496768,40.644596],[0.496716,40.64457],[0.496553,40.644714],[0.496485,40.644824],[0.496427,40.644923],[0.496501,40.644964],[0.496563,40.645013],[0.496652,40.645078],[0.496738,40.645139],[0.496793,40.645173]]]]}}]}