{"type":"FeatureCollection","name":"ICGC Àrees de poblament - Vallclara","features":[{"type":"Feature","id":"431589_431589 AP01 CBA 3","properties":{"area_id":"431589_431589 AP01 CBA 3","nom":"Vallclara","codi_icgc":"431589 AP01 CBA 3","categoria":"Àrees de poblament","codi_municipi":"431589","municipi":"Vallclara","codi_comarca":"16","comarca":"Conca de Barberà","provincia":"Tarragona","font":"ICGC Àrees de poblament v3r1 202602"},"geometry":{"type":"MultiPolygon","coordinates":[[[[0.97941,41.377576],[0.979366,41.378031],[0.979326,41.378048],[0.97914,41.377952],[0.979114,41.377987],[0.979079,41.378012],[0.979014,41.378071],[0.978996,41.378096],[0.979081,41.378192],[0.979172,41.378298],[0.9793,41.378238],[0.979228,41.378159],[0.979236,41.378155],[0.979242,41.37815],[0.97925,41.378146],[0.979259,41.378143],[0.979269,41.378141],[0.979279,41.37814],[0.979291,41.378141],[0.979302,41.378142],[0.979338,41.378153],[0.979374,41.378164],[0.979433,41.378182],[0.979491,41.3782],[0.979544,41.378224],[0.979597,41.37825],[0.979621,41.378262],[0.979649,41.378272],[0.979671,41.378273],[0.979708,41.378278],[0.979743,41.378287],[0.979761,41.378267],[0.979826,41.378228],[0.980015,41.37804],[0.980109,41.377939],[0.980144,41.3779],[0.98017,41.377873],[0.980222,41.377837],[0.980345,41.37758],[0.980409,41.377451],[0.980478,41.377357],[0.980592,41.377358],[0.980678,41.377378],[0.980541,41.377556],[0.98059,41.377578],[0.980699,41.377612],[0.980744,41.377613],[0.980819,41.377592],[0.980868,41.37752],[0.98091,41.377467],[0.981012,41.377509],[0.98109,41.377541],[0.981272,41.377617],[0.981374,41.37764],[0.98153,41.377651],[0.981578,41.377648],[0.981678,41.377653],[0.981818,41.377663],[0.981987,41.377673],[0.982155,41.377693],[0.982261,41.377702],[0.982303,41.377714],[0.982303,41.377744],[0.98223,41.377743],[0.982122,41.377747],[0.982016,41.377758],[0.981905,41.377786],[0.981869,41.378126],[0.982186,41.378164],[0.982515,41.378202],[0.98271,41.378237],[0.983129,41.378308],[0.983201,41.378318],[0.983275,41.378315],[0.983367,41.378301],[0.983419,41.378276],[0.983453,41.37822],[0.983461,41.378129],[0.983439,41.378092],[0.983424,41.378073],[0.983409,41.378052],[0.983401,41.37804],[0.983381,41.378012],[0.983371,41.377994],[0.983364,41.377977],[0.983359,41.377964],[0.983357,41.377957],[0.983346,41.377932],[0.983333,41.377894],[0.983322,41.377864],[0.983311,41.377835],[0.9833,41.377802],[0.983288,41.37777],[0.983274,41.377729],[0.983254,41.377657],[0.983341,41.377594],[0.983344,41.377424],[0.98335,41.377301],[0.983436,41.377303],[0.983534,41.377302],[0.983533,41.37722],[0.983531,41.377157],[0.98352,41.377122],[0.983403,41.376997],[0.983349,41.376913],[0.98319,41.376955],[0.98294,41.377043],[0.982888,41.376998],[0.982844,41.376971],[0.982825,41.376963],[0.982758,41.37698],[0.982666,41.37704],[0.982653,41.377041],[0.982466,41.377047],[0.982308,41.377054],[0.982187,41.377051],[0.982008,41.377024],[0.982018,41.376976],[0.982021,41.376966],[0.98205,41.376834],[0.982034,41.376809],[0.981933,41.376654],[0.981875,41.376607],[0.981741,41.376568],[0.981703,41.376568],[0.981553,41.376624],[0.981485,41.376654],[0.981358,41.376524],[0.981307,41.376484],[0.981201,41.376412],[0.981128,41.376372],[0.981042,41.376444],[0.980966,41.376409],[0.980969,41.376376],[0.980974,41.376312],[0.980887,41.37628],[0.980831,41.376339],[0.98081,41.376242],[0.980804,41.376239],[0.980799,41.376232],[0.980795,41.376226],[0.98079,41.376219],[0.98078,41.376198],[0.98077,41.376177],[0.980766,41.376169],[0.980763,41.376162],[0.980764,41.376159],[0.980766,41.376152],[0.980768,41.376148],[0.980772,41.376142],[0.980774,41.376137],[0.980776,41.376131],[0.980777,41.376123],[0.980776,41.376113],[0.980774,41.376105],[0.980769,41.376095],[0.980757,41.376088],[0.98075,41.376086],[0.980743,41.376084],[0.98073,41.376081],[0.980723,41.376081],[0.980714,41.376083],[0.980705,41.376085],[0.980696,41.376088],[0.980693,41.376084],[0.980689,41.376076],[0.980679,41.376072],[0.980667,41.376073],[0.980656,41.376084],[0.980657,41.376093],[0.980616,41.376109],[0.980602,41.376089],[0.980569,41.376102],[0.980589,41.376131],[0.980524,41.376168],[0.980574,41.376227],[0.980498,41.376265],[0.980479,41.376243],[0.980464,41.376244],[0.98042,41.376199],[0.980388,41.376222],[0.980353,41.376182],[0.980284,41.376172],[0.980271,41.376152],[0.980259,41.376157],[0.980255,41.376149],[0.980252,41.376141],[0.980243,41.376122],[0.980233,41.376104],[0.980225,41.376088],[0.980216,41.376072],[0.980201,41.376048],[0.980181,41.376026],[0.980137,41.375984],[0.980107,41.37596],[0.980076,41.375936],[0.98006,41.375918],[0.980048,41.375898],[0.980036,41.375878],[0.980018,41.375848],[0.98,41.375818],[0.97998,41.375775],[0.979956,41.375736],[0.979923,41.375705],[0.979901,41.37569],[0.979775,41.375576],[0.979698,41.375624],[0.979651,41.375621],[0.979564,41.375617],[0.979478,41.375671],[0.979585,41.375765],[0.979842,41.376062],[0.979895,41.376127],[0.98,41.376326],[0.979992,41.376329],[0.980011,41.376355],[0.979998,41.37636],[0.980041,41.376418],[0.980058,41.376411],[0.980078,41.376439],[0.980052,41.37645],[0.98012,41.376479],[0.980185,41.376447],[0.980262,41.376494],[0.980347,41.376416],[0.980393,41.376456],[0.980453,41.376496],[0.980524,41.376541],[0.980575,41.376577],[0.980648,41.376623],[0.980526,41.376698],[0.980464,41.37664],[0.980398,41.37668],[0.980373,41.376721],[0.980418,41.376814],[0.980446,41.376853],[0.980456,41.37686],[0.98065,41.376804],[0.980666,41.3769],[0.980784,41.376887],[0.98078,41.376924],[0.980768,41.376955],[0.980692,41.377005],[0.98064,41.377032],[0.98061,41.377048],[0.980569,41.377068],[0.98052,41.377079],[0.980476,41.377078],[0.980433,41.377072],[0.980396,41.377049],[0.980382,41.37704],[0.980376,41.377042],[0.980272,41.377035],[0.980214,41.377007],[0.980211,41.377005],[0.980146,41.377022],[0.980056,41.376934],[0.98003,41.37699],[0.979765,41.376759],[0.979579,41.376887],[0.979566,41.37705],[0.979603,41.377271],[0.979626,41.377409],[0.979596,41.377474],[0.979515,41.377538],[0.979499,41.377581],[0.97941,41.377576]]]]}}]}