{"type":"FeatureCollection","name":"ICGC Àrees de poblament - Tivissa","features":[{"type":"Feature","id":"431508_431508 SI01 REB 2","properties":{"area_id":"431508_431508 SI01 REB 2","nom":"Aigua de Fontdalt SA","codi_icgc":"431508 SI01 REB 2","categoria":"Sector industrial","codi_municipi":"431508","municipi":"Tivissa","codi_comarca":"30","comarca":"Ribera d'Ebre","provincia":"Tarragona","font":"ICGC Àrees de poblament v3r1 202602"},"geometry":{"type":"MultiPolygon","coordinates":[[[[0.824786,41.077422],[0.824604,41.077577],[0.824278,41.077702],[0.824069,41.077855],[0.824205,41.077947],[0.824355,41.077822],[0.824517,41.077799],[0.824671,41.077802],[0.824808,41.077788],[0.824901,41.077779],[0.824939,41.077769],[0.824968,41.077756],[0.825055,41.077707],[0.825198,41.077579],[0.825265,41.077513],[0.825272,41.077437],[0.825303,41.077213],[0.825143,41.077155],[0.825055,41.077157],[0.824954,41.077233],[0.824988,41.07727],[0.824802,41.077417],[0.824786,41.077422]]]]}},{"type":"Feature","id":"431508_431508 AP02 REB 3","properties":{"area_id":"431508_431508 AP02 REB 3","nom":"Darmós","codi_icgc":"431508 AP02 REB 3","categoria":"Àrees de poblament","codi_municipi":"431508","municipi":"Tivissa","codi_comarca":"30","comarca":"Ribera d'Ebre","provincia":"Tarragona","font":"ICGC Àrees de poblament v3r1 202602"},"geometry":{"type":"MultiPolygon","coordinates":[[[[0.703575,41.099104],[0.703539,41.09903],[0.703504,41.098955],[0.703468,41.09888],[0.703669,41.098814],[0.703523,41.098531],[0.703577,41.098509],[0.703454,41.098325],[0.703736,41.09819],[0.7036,41.098084],[0.704104,41.097823],[0.704599,41.098217],[0.7047,41.098296],[0.704811,41.098381],[0.704899,41.098333],[0.705053,41.098233],[0.705345,41.098063],[0.70535,41.097956],[0.705366,41.097621],[0.705523,41.097632],[0.70566,41.09764],[0.705777,41.097643],[0.705892,41.097636],[0.706006,41.097615],[0.706035,41.097605],[0.706118,41.097779],[0.706137,41.097825],[0.706153,41.097865],[0.70622,41.097858],[0.70627,41.097851],[0.70632,41.097841],[0.706369,41.097829],[0.706416,41.097815],[0.706591,41.097755],[0.706631,41.097807],[0.706655,41.097859],[0.706776,41.097889],[0.706807,41.097885],[0.706873,41.097857],[0.707015,41.097823],[0.707358,41.097563],[0.707519,41.097477],[0.707647,41.097429],[0.707876,41.097329],[0.707952,41.097296],[0.708046,41.097245],[0.708024,41.097197],[0.707947,41.097135],[0.707977,41.097054],[0.70794,41.097017],[0.707913,41.096904],[0.707776,41.096923],[0.707791,41.096983],[0.707232,41.097114],[0.707241,41.097135],[0.707062,41.097164],[0.707047,41.097118],[0.707041,41.097104],[0.706905,41.097131],[0.706776,41.097161],[0.706792,41.097198],[0.706751,41.097206],[0.706755,41.097218],[0.706727,41.097224],[0.706742,41.097266],[0.706678,41.097279],[0.706673,41.097265],[0.706615,41.097277],[0.706625,41.097305],[0.70657,41.097317],[0.706559,41.097287],[0.706482,41.097303],[0.706497,41.097344],[0.70643,41.097358],[0.706433,41.097366],[0.706306,41.09739],[0.706298,41.09737],[0.706162,41.097388],[0.706125,41.097411],[0.706125,41.097432],[0.706119,41.097433],[0.706102,41.097392],[0.706007,41.097389],[0.705892,41.097406],[0.705884,41.097385],[0.705701,41.097404],[0.705534,41.097414],[0.705465,41.097402],[0.705428,41.097388],[0.705349,41.09738],[0.705271,41.097368],[0.705207,41.097357],[0.705144,41.097345],[0.705092,41.097336],[0.705039,41.097329],[0.704993,41.097328],[0.704947,41.09733],[0.704895,41.097335],[0.704842,41.097341],[0.704832,41.097345],[0.704818,41.097349],[0.704797,41.097362],[0.704773,41.097387],[0.704732,41.097417],[0.704723,41.097328],[0.704691,41.097283],[0.704674,41.09719],[0.704667,41.097175],[0.704623,41.097171],[0.704594,41.097164],[0.70457,41.097139],[0.704577,41.097114],[0.704564,41.097088],[0.704513,41.097076],[0.704521,41.097057],[0.704484,41.097048],[0.704501,41.097009],[0.704336,41.096978],[0.704325,41.097011],[0.704296,41.097005],[0.704301,41.096992],[0.704149,41.096977],[0.704102,41.096826],[0.703783,41.096925],[0.703804,41.096973],[0.703799,41.096973],[0.703791,41.096976],[0.703773,41.096984],[0.70376,41.096989],[0.703751,41.096993],[0.703729,41.097002],[0.70371,41.097013],[0.703691,41.097022],[0.703635,41.097037],[0.70358,41.097052],[0.703541,41.097064],[0.70351,41.097074],[0.703464,41.097085],[0.7034,41.097102],[0.703336,41.097117],[0.703231,41.097139],[0.703124,41.097155],[0.703052,41.097163],[0.70302,41.097163],[0.702988,41.097159],[0.702957,41.097167],[0.702935,41.097175],[0.702913,41.097183],[0.702869,41.097198],[0.702799,41.097221],[0.7027,41.097248],[0.70263,41.097282],[0.702603,41.097297],[0.702591,41.097309],[0.702546,41.097337],[0.702321,41.097441],[0.702397,41.097518],[0.702341,41.097545],[0.70232,41.097526],[0.702275,41.097454],[0.702173,41.097495],[0.702091,41.097528],[0.701911,41.097614],[0.701943,41.097659],[0.701737,41.097688],[0.701704,41.097699],[0.701669,41.097705],[0.701621,41.097708],[0.701594,41.097705],[0.701575,41.097755],[0.701511,41.097792],[0.701559,41.09784],[0.70146,41.097922],[0.701489,41.097942],[0.70148,41.097985],[0.701552,41.098008],[0.701611,41.09804],[0.701612,41.098037],[0.701637,41.098002],[0.701663,41.097964],[0.701674,41.097954],[0.701697,41.097945],[0.701722,41.097939],[0.701756,41.097934],[0.701773,41.097935],[0.701789,41.09794],[0.701811,41.097953],[0.701827,41.097971],[0.701849,41.098012],[0.701873,41.098053],[0.701884,41.098067],[0.701957,41.09812],[0.701874,41.098165],[0.701836,41.098219],[0.701947,41.098294],[0.702022,41.098228],[0.702137,41.098319],[0.702181,41.098357],[0.702248,41.098415],[0.702308,41.098384],[0.702494,41.098311],[0.702548,41.098292],[0.702482,41.098202],[0.702709,41.098107],[0.70299,41.098632],[0.703167,41.098964],[0.703002,41.099061],[0.703027,41.099128],[0.703059,41.099114],[0.703226,41.099059],[0.703308,41.099227],[0.703395,41.099198],[0.703436,41.09918],[0.703527,41.09915],[0.703531,41.099149],[0.703586,41.099128],[0.703575,41.099104]]]]}},{"type":"Feature","id":"431508_431508 AP04 REB 3","properties":{"area_id":"431508_431508 AP04 REB 3","nom":"Llaberia","codi_icgc":"431508 AP04 REB 3","categoria":"Àrees de poblament","codi_municipi":"431508","municipi":"Tivissa","codi_comarca":"30","comarca":"Ribera d'Ebre","provincia":"Tarragona","font":"ICGC Àrees de poblament v3r1 202602"},"geometry":{"type":"MultiPolygon","coordinates":[[[[0.842038,41.086524],[0.842129,41.086387],[0.842185,41.086407],[0.842381,41.08619],[0.842417,41.086135],[0.842494,41.086083],[0.842523,41.086077],[0.842537,41.086074],[0.842563,41.086066],[0.842587,41.086058],[0.842603,41.086056],[0.842618,41.086054],[0.842667,41.086062],[0.84281,41.086119],[0.842934,41.086151],[0.842985,41.086048],[0.842852,41.086019],[0.842773,41.086022],[0.84275,41.086038],[0.842713,41.086058],[0.842658,41.086041],[0.842618,41.086037],[0.842599,41.086039],[0.842566,41.086043],[0.842544,41.086044],[0.842497,41.086043],[0.842491,41.086045],[0.842488,41.086009],[0.842231,41.085983],[0.842045,41.085942],[0.841868,41.085873],[0.841911,41.085794],[0.841897,41.085756],[0.841908,41.085702],[0.841993,41.085713],[0.842007,41.085645],[0.842042,41.085632],[0.842058,41.085601],[0.842053,41.085602],[0.84206,41.085551],[0.842031,41.085549],[0.842029,41.085537],[0.842007,41.085517],[0.841993,41.085507],[0.841962,41.085494],[0.841909,41.085483],[0.841855,41.085474],[0.841768,41.08546],[0.841681,41.085445],[0.841649,41.085439],[0.841644,41.085467],[0.841625,41.085541],[0.841583,41.085501],[0.841597,41.085453],[0.841605,41.085431],[0.84159,41.085428],[0.841531,41.085422],[0.841481,41.085414],[0.841471,41.085415],[0.841459,41.085417],[0.841422,41.08542],[0.841373,41.085423],[0.841327,41.085419],[0.841259,41.08541],[0.841191,41.085397],[0.841143,41.085385],[0.841074,41.085362],[0.841005,41.085343],[0.840975,41.085338],[0.840952,41.085337],[0.840929,41.085339],[0.840917,41.08534],[0.840901,41.085344],[0.840887,41.085351],[0.840833,41.085387],[0.840782,41.085424],[0.840759,41.085444],[0.840747,41.085454],[0.840732,41.085462],[0.840705,41.085468],[0.840679,41.085472],[0.840559,41.085452],[0.84054,41.085491],[0.840519,41.085563],[0.840684,41.085591],[0.840654,41.085617],[0.840601,41.085634],[0.840537,41.085684],[0.840534,41.085686],[0.840504,41.085739],[0.840503,41.085742],[0.840494,41.08577],[0.840489,41.085812],[0.840493,41.085854],[0.840499,41.085873],[0.840514,41.085902],[0.840525,41.085931],[0.840527,41.085953],[0.840524,41.085976],[0.840521,41.085991],[0.840517,41.085997],[0.84053,41.086021],[0.840544,41.086019],[0.840562,41.086017],[0.840627,41.086012],[0.840645,41.086011],[0.840662,41.086011],[0.840702,41.086013],[0.840728,41.086017],[0.840786,41.086029],[0.840845,41.08604],[0.840924,41.086055],[0.841003,41.08607],[0.841064,41.086078],[0.841126,41.086085],[0.841174,41.08609],[0.841223,41.08609],[0.841255,41.086083],[0.841287,41.086073],[0.841295,41.086071],[0.841302,41.08607],[0.841322,41.086057],[0.841329,41.086027],[0.841339,41.085998],[0.84136,41.08596],[0.841388,41.085925],[0.841406,41.085903],[0.841427,41.085884],[0.841445,41.085875],[0.841462,41.085871],[0.841474,41.085872],[0.841499,41.085878],[0.841526,41.085884],[0.841596,41.085905],[0.841611,41.085909],[0.841611,41.085913],[0.841638,41.085983],[0.841662,41.085996],[0.841647,41.086019],[0.841666,41.086026],[0.841615,41.086099],[0.841859,41.086201],[0.841833,41.08624],[0.841837,41.086412],[0.841966,41.086419],[0.841968,41.086517],[0.842038,41.086524]]]]}},{"type":"Feature","id":"431508_431508 AP01 REB 3","properties":{"area_id":"431508_431508 AP01 REB 3","nom":"Tivissa","codi_icgc":"431508 AP01 REB 3","categoria":"Àrees de poblament","codi_municipi":"431508","municipi":"Tivissa","codi_comarca":"30","comarca":"Ribera d'Ebre","provincia":"Tarragona","font":"ICGC Àrees de poblament v3r1 202602"},"geometry":{"type":"MultiPolygon","coordinates":[[[[0.738631,41.040045],[0.738601,41.040075],[0.738333,41.040362],[0.738301,41.040441],[0.738188,41.040565],[0.738185,41.040569],[0.738054,41.040776],[0.737998,41.040915],[0.738034,41.040957],[0.738011,41.041054],[0.737967,41.041201],[0.737951,41.041249],[0.737894,41.0413],[0.737852,41.041272],[0.737787,41.041329],[0.737758,41.041341],[0.737752,41.041337],[0.737734,41.041351],[0.737674,41.041369],[0.737674,41.041361],[0.737635,41.041362],[0.737634,41.041367],[0.7376,41.041363],[0.737537,41.041352],[0.737452,41.041333],[0.737372,41.041312],[0.737322,41.041299],[0.737176,41.041261],[0.737144,41.041279],[0.737069,41.041222],[0.736979,41.041153],[0.73696,41.04114],[0.736937,41.041123],[0.736775,41.041001],[0.736704,41.040948],[0.736707,41.040943],[0.736726,41.040913],[0.736733,41.040907],[0.736741,41.040904],[0.736756,41.040903],[0.736768,41.040906],[0.736802,41.040927],[0.73683,41.040951],[0.736849,41.040972],[0.736869,41.040994],[0.736892,41.041015],[0.73693,41.041043],[0.73697,41.04107],[0.737018,41.041099],[0.737071,41.041122],[0.737092,41.041126],[0.737122,41.041125],[0.737151,41.041119],[0.737194,41.041105],[0.737215,41.041095],[0.737232,41.041083],[0.737268,41.041048],[0.737603,41.041154],[0.737749,41.041067],[0.737785,41.04083],[0.737687,41.040818],[0.73763,41.040794],[0.737606,41.040775],[0.737565,41.040702],[0.737614,41.040662],[0.737754,41.040492],[0.737334,41.040321],[0.73717,41.040573],[0.737094,41.040562],[0.737043,41.040558],[0.736937,41.040555],[0.736831,41.040557],[0.736745,41.040561],[0.73666,41.040565],[0.736611,41.040561],[0.736569,41.040543],[0.736547,41.040533],[0.736505,41.040527],[0.736447,41.040507],[0.736409,41.040486],[0.736343,41.040488],[0.736299,41.040528],[0.736248,41.040551],[0.73615,41.040514],[0.736063,41.040609],[0.73602,41.04067],[0.735933,41.040652],[0.735787,41.040759],[0.735663,41.040887],[0.735616,41.040891],[0.73552,41.041028],[0.735359,41.041044],[0.735362,41.041156],[0.734779,41.040965],[0.734864,41.040798],[0.734615,41.040719],[0.734708,41.040559],[0.735113,41.040696],[0.735241,41.04055],[0.735209,41.040466],[0.735212,41.040366],[0.735237,41.040197],[0.735264,41.040055],[0.735315,41.039934],[0.735395,41.039891],[0.735306,41.039818],[0.735197,41.039731],[0.735114,41.039668],[0.735027,41.039607],[0.734952,41.039564],[0.734872,41.039528],[0.734794,41.039498],[0.734714,41.039471],[0.734637,41.039449],[0.73456,41.039426],[0.734455,41.039397],[0.734348,41.039368],[0.734264,41.03935],[0.73418,41.039337],[0.734067,41.039319],[0.733952,41.039305],[0.733912,41.039302],[0.733871,41.039302],[0.733792,41.039308],[0.733708,41.039324],[0.733651,41.03934],[0.733627,41.039346],[0.733551,41.039373],[0.733478,41.039402],[0.733398,41.039435],[0.733352,41.039455],[0.733318,41.039468],[0.73323,41.039502],[0.73314,41.039532],[0.733083,41.039547],[0.733024,41.039558],[0.732987,41.039561],[0.732968,41.039561],[0.73295,41.039561],[0.732926,41.039558],[0.732857,41.039546],[0.732788,41.039534],[0.732669,41.039511],[0.73261,41.039499],[0.732653,41.039204],[0.732673,41.039119],[0.732606,41.03912],[0.732594,41.039204],[0.7324,41.039185],[0.73235,41.039175],[0.732281,41.039253],[0.73213,41.039332],[0.732104,41.039352],[0.732101,41.039347],[0.731976,41.039302],[0.731938,41.039315],[0.731882,41.039331],[0.731756,41.039376],[0.731565,41.039492],[0.731561,41.039495],[0.731434,41.03958],[0.731166,41.039569],[0.730774,41.039554],[0.730771,41.039551],[0.730742,41.039516],[0.730748,41.039513],[0.730725,41.039477],[0.730715,41.039481],[0.730654,41.039398],[0.730649,41.039396],[0.730595,41.039316],[0.730281,41.039448],[0.730185,41.039483],[0.730325,41.039691],[0.730354,41.039733],[0.730368,41.039764],[0.730375,41.039797],[0.730374,41.03983],[0.730366,41.039862],[0.730352,41.03989],[0.730292,41.039884],[0.730242,41.039881],[0.730219,41.03989],[0.730187,41.040283],[0.730186,41.040318],[0.730207,41.040333],[0.730248,41.040339],[0.730332,41.040338],[0.730351,41.040364],[0.730353,41.04045],[0.730333,41.040689],[0.730341,41.040717],[0.730348,41.040743],[0.730405,41.040763],[0.730547,41.040766],[0.730573,41.04144],[0.730625,41.041448],[0.730623,41.041505],[0.730566,41.041484],[0.730531,41.041539],[0.730296,41.041448],[0.730276,41.041476],[0.730238,41.04151],[0.730338,41.041576],[0.73037,41.041594],[0.730314,41.04163],[0.730225,41.04164],[0.730103,41.041668],[0.729914,41.041741],[0.729766,41.041707],[0.72954,41.04189],[0.730022,41.042222],[0.730121,41.04229],[0.730195,41.042332],[0.73023,41.042362],[0.730345,41.042301],[0.730406,41.042263],[0.730527,41.042192],[0.730591,41.042163],[0.730664,41.042137],[0.730738,41.04211],[0.730866,41.042074],[0.730882,41.042071],[0.73091,41.042096],[0.730961,41.04215],[0.731152,41.042158],[0.731199,41.042094],[0.73127,41.042156],[0.731286,41.042145],[0.731346,41.042203],[0.731369,41.042258],[0.731349,41.042273],[0.731404,41.042313],[0.73149,41.042252],[0.731614,41.042354],[0.73179,41.042514],[0.731709,41.042564],[0.731665,41.04263],[0.731651,41.042622],[0.731608,41.042664],[0.731624,41.042673],[0.731572,41.042737],[0.731547,41.04272],[0.731504,41.042751],[0.731461,41.042712],[0.731421,41.042773],[0.73137,41.042907],[0.731335,41.042899],[0.731285,41.043],[0.731311,41.043008],[0.731308,41.043097],[0.731326,41.043097],[0.73132,41.043333],[0.731342,41.043325],[0.731361,41.043352],[0.731406,41.043334],[0.731444,41.043336],[0.731604,41.043455],[0.731892,41.043668],[0.732415,41.043774],[0.732436,41.043689],[0.732461,41.043691],[0.732525,41.043694],[0.732545,41.043694],[0.732618,41.043684],[0.732677,41.043668],[0.732708,41.043715],[0.732898,41.043642],[0.732947,41.043593],[0.733123,41.043503],[0.733057,41.043416],[0.733137,41.04328],[0.733078,41.043236],[0.733114,41.043208],[0.733179,41.043169],[0.733251,41.043129],[0.733282,41.043115],[0.733363,41.04321],[0.73352,41.043144],[0.733559,41.043181],[0.7338,41.04304],[0.73389,41.04313],[0.733916,41.043155],[0.733937,41.043143],[0.733958,41.04313],[0.733976,41.043119],[0.73402,41.043161],[0.734166,41.043093],[0.734235,41.043118],[0.734263,41.043101],[0.734149,41.043014],[0.734276,41.04293],[0.734283,41.042926],[0.734313,41.042924],[0.734329,41.042817],[0.734309,41.042761],[0.734301,41.042694],[0.734304,41.042662],[0.734307,41.042649],[0.734308,41.042616],[0.734361,41.042414],[0.734408,41.042417],[0.734411,41.042334],[0.73447,41.042335],[0.734471,41.042301],[0.734454,41.042276],[0.734435,41.042248],[0.734428,41.042213],[0.734435,41.042188],[0.734445,41.042161],[0.734453,41.042091],[0.73459,41.042032],[0.734607,41.04199],[0.734665,41.041997],[0.734692,41.041898],[0.734698,41.041826],[0.734684,41.041809],[0.734631,41.041805],[0.734547,41.041792],[0.73446,41.041782],[0.734396,41.04177],[0.734393,41.041734],[0.734288,41.041669],[0.734377,41.041543],[0.734565,41.04168],[0.73471,41.041573],[0.73479,41.041621],[0.734939,41.041574],[0.734969,41.04157],[0.735037,41.041551],[0.735243,41.041583],[0.735366,41.04163],[0.735425,41.041708],[0.735445,41.041735],[0.73548,41.041918],[0.735537,41.04205],[0.735557,41.042108],[0.735559,41.042163],[0.735377,41.042289],[0.735359,41.042436],[0.735365,41.042462],[0.735496,41.042616],[0.735581,41.04259],[0.73564,41.042574],[0.7359,41.04253],[0.736111,41.042489],[0.736122,41.042575],[0.736127,41.042592],[0.73651,41.042567],[0.736625,41.04252],[0.736748,41.042491],[0.736855,41.042477],[0.736914,41.042439],[0.737005,41.042381],[0.737104,41.042321],[0.737203,41.042259],[0.73732,41.042185],[0.737437,41.042109],[0.737533,41.042046],[0.737629,41.041982],[0.737752,41.041911],[0.737781,41.04194],[0.737842,41.041944],[0.737879,41.041966],[0.737889,41.041971],[0.737923,41.041999],[0.737976,41.042047],[0.738024,41.042097],[0.738118,41.042204],[0.738178,41.042266],[0.738185,41.042273],[0.738293,41.042369],[0.738407,41.042462],[0.738483,41.042518],[0.738565,41.04257],[0.738624,41.042602],[0.738663,41.042618],[0.738703,41.042633],[0.738784,41.042592],[0.738841,41.042501],[0.738965,41.04237],[0.738892,41.042245],[0.738833,41.042094],[0.738597,41.041951],[0.73887,41.041784],[0.738906,41.041708],[0.739044,41.041418],[0.739109,41.04136],[0.738803,41.041214],[0.739101,41.040855],[0.739213,41.040814],[0.739255,41.040779],[0.73949,41.040538],[0.739392,41.040465],[0.739353,41.040412],[0.739289,41.040337],[0.73916,41.040265],[0.739032,41.040227],[0.738919,41.040213],[0.738631,41.040045]]]]}},{"type":"Feature","id":"431508_431508 AP03 REB 3","properties":{"area_id":"431508_431508 AP03 REB 3","nom":"la Serra d'Almos","codi_icgc":"431508 AP03 REB 3","categoria":"Àrees de poblament","codi_municipi":"431508","municipi":"Tivissa","codi_comarca":"30","comarca":"Ribera d'Ebre","provincia":"Tarragona","font":"ICGC Àrees de poblament v3r1 202602"},"geometry":{"type":"MultiPolygon","coordinates":[[[[0.742691,41.080993],[0.742948,41.081087],[0.742921,41.081155],[0.742803,41.081394],[0.742722,41.081523],[0.742633,41.081657],[0.742498,41.081724],[0.742442,41.081704],[0.742403,41.081748],[0.742398,41.081796],[0.742177,41.081981],[0.74208,41.082065],[0.742033,41.082098],[0.742053,41.082119],[0.742181,41.082206],[0.742303,41.082269],[0.742332,41.082287],[0.742488,41.082381],[0.742543,41.082324],[0.742583,41.082284],[0.742588,41.082277],[0.742537,41.082251],[0.742559,41.082221],[0.742588,41.082186],[0.742587,41.082183],[0.742593,41.082181],[0.742665,41.082112],[0.742726,41.082059],[0.74278,41.082013],[0.742853,41.081942],[0.742875,41.081957],[0.743052,41.081807],[0.743132,41.08175],[0.74323,41.081671],[0.743344,41.081585],[0.7434,41.081588],[0.743447,41.081585],[0.743455,41.081585],[0.743509,41.081576],[0.743561,41.081561],[0.74361,41.081541],[0.743655,41.081517],[0.743676,41.081502],[0.743745,41.081453],[0.743829,41.081394],[0.743863,41.081371],[0.743846,41.081354],[0.743838,41.081348],[0.743734,41.081259],[0.743958,41.081075],[0.743999,41.081044],[0.744505,41.080714],[0.744769,41.080547],[0.744869,41.080208],[0.744768,41.080187],[0.74485,41.07999],[0.745037,41.079877],[0.745427,41.079799],[0.74589,41.079696],[0.746073,41.07978],[0.746113,41.079798],[0.746189,41.079702],[0.746308,41.07956],[0.746338,41.079538],[0.746356,41.079542],[0.74648,41.079342],[0.74643,41.079314],[0.746385,41.079295],[0.746318,41.079266],[0.746476,41.079115],[0.746432,41.079071],[0.746488,41.079027],[0.746436,41.078989],[0.746465,41.078953],[0.746512,41.078908],[0.746546,41.078876],[0.746563,41.078862],[0.74658,41.078851],[0.746638,41.078829],[0.746699,41.078808],[0.74676,41.078785],[0.746791,41.078772],[0.746821,41.078758],[0.746848,41.078744],[0.746874,41.078731],[0.746955,41.078677],[0.746993,41.078655],[0.746963,41.078619],[0.746891,41.078556],[0.746765,41.078444],[0.746725,41.0784],[0.746623,41.078257],[0.746573,41.078191],[0.746533,41.078184],[0.746545,41.078146],[0.746463,41.078106],[0.746478,41.078039],[0.746536,41.078071],[0.746572,41.078023],[0.746769,41.078117],[0.746821,41.078057],[0.746669,41.077982],[0.746722,41.077917],[0.74696,41.077602],[0.746917,41.077581],[0.747103,41.077331],[0.746997,41.077279],[0.747,41.077248],[0.747045,41.077175],[0.747113,41.07709],[0.747205,41.076986],[0.747228,41.076962],[0.747245,41.076969],[0.747262,41.076977],[0.74727,41.076978],[0.747282,41.076975],[0.747294,41.076968],[0.747302,41.07696],[0.747309,41.076946],[0.747319,41.076935],[0.747351,41.076918],[0.747384,41.076902],[0.747399,41.076894],[0.747415,41.076887],[0.747422,41.076881],[0.747429,41.076869],[0.747434,41.076857],[0.747436,41.07685],[0.747433,41.076843],[0.747422,41.076839],[0.747411,41.076836],[0.747395,41.076829],[0.747379,41.076823],[0.747393,41.076804],[0.747432,41.076756],[0.747508,41.076664],[0.747517,41.076654],[0.747491,41.076633],[0.747447,41.076594],[0.747294,41.076453],[0.747271,41.076478],[0.747163,41.076613],[0.746914,41.076683],[0.746872,41.076702],[0.746842,41.076803],[0.746606,41.077096],[0.746498,41.077231],[0.746595,41.077298],[0.746535,41.077366],[0.74663,41.077397],[0.746583,41.077454],[0.746507,41.077415],[0.746489,41.077436],[0.746433,41.0775],[0.746427,41.077507],[0.746449,41.077515],[0.746386,41.077611],[0.746442,41.077645],[0.746351,41.077785],[0.746247,41.077916],[0.746209,41.077894],[0.746161,41.077866],[0.746066,41.077948],[0.745686,41.07844],[0.745579,41.078565],[0.745526,41.078628],[0.745502,41.078652],[0.745294,41.07886],[0.745002,41.079148],[0.744604,41.079477],[0.744062,41.079929],[0.743976,41.079844],[0.743881,41.079899],[0.743856,41.079874],[0.7438,41.079906],[0.743826,41.079932],[0.743668,41.080022],[0.74364,41.079995],[0.743556,41.080043],[0.743449,41.080108],[0.743402,41.080072],[0.743356,41.080031],[0.743299,41.079988],[0.743268,41.079966],[0.743154,41.080054],[0.743121,41.08008],[0.743284,41.080207],[0.742879,41.080495],[0.742771,41.08044],[0.742783,41.080425],[0.742727,41.080397],[0.742695,41.080384],[0.742617,41.080461],[0.742284,41.080821],[0.742562,41.080974],[0.742691,41.080993]]]]}}]}