{"type":"FeatureCollection","name":"ICGC Àrees de poblament - Vilanova d'Escornalbou","features":[{"type":"Feature","id":"431671_431671 AP04 BCA 2","properties":{"area_id":"431671_431671 AP04 BCA 2","nom":"Residencial Parc d'Escornalbou","codi_icgc":"431671 AP04 BCA 2","categoria":"Àrees de poblament","codi_municipi":"431671","municipi":"Vilanova d'Escornalbou","codi_comarca":"08","comarca":"Baix Camp","provincia":"Tarragona","font":"ICGC Àrees de poblament v3r1 202602"},"geometry":{"type":"MultiPolygon","coordinates":[[[[0.945601,41.111408],[0.945433,41.111101],[0.945526,41.111051],[0.945698,41.111012],[0.945831,41.110985],[0.945957,41.110973],[0.946171,41.110991],[0.946328,41.110999],[0.946644,41.110971],[0.946754,41.110938],[0.946975,41.110872],[0.9473,41.110749],[0.947883,41.110469],[0.947538,41.110101],[0.94744,41.110011],[0.947366,41.10994],[0.9473,41.109874],[0.947238,41.109807],[0.947115,41.10967],[0.947011,41.109558],[0.946958,41.10947],[0.947018,41.109436],[0.947278,41.109301],[0.947083,41.109055],[0.946894,41.108847],[0.946811,41.108773],[0.946206,41.108141],[0.946627,41.107877],[0.946313,41.107589],[0.945538,41.108072],[0.945426,41.108139],[0.945447,41.108211],[0.945492,41.108411],[0.945512,41.108525],[0.94548,41.108697],[0.945412,41.109161],[0.945392,41.109287],[0.94541,41.109327],[0.945438,41.109347],[0.945478,41.109357],[0.945516,41.109351],[0.945717,41.109276],[0.946195,41.109101],[0.946349,41.109349],[0.946412,41.10936],[0.946637,41.109279],[0.946778,41.109436],[0.946782,41.109456],[0.946779,41.109477],[0.946769,41.109496],[0.946752,41.109512],[0.94673,41.109523],[0.946705,41.10953],[0.945502,41.109858],[0.94524,41.109929],[0.945218,41.109939],[0.945085,41.109976],[0.944201,41.110221],[0.944409,41.110722],[0.944758,41.110633],[0.945016,41.111208],[0.945059,41.111195],[0.945082,41.111189],[0.945239,41.111514],[0.945601,41.111408]]]]}},{"type":"Feature","id":"431671_431671 AP02 BCA 2","properties":{"area_id":"431671_431671 AP02 BCA 2","nom":"Rifà","codi_icgc":"431671 AP02 BCA 2","categoria":"Àrees de poblament","codi_municipi":"431671","municipi":"Vilanova d'Escornalbou","codi_comarca":"08","comarca":"Baix Camp","provincia":"Tarragona","font":"ICGC Àrees de poblament v3r1 202602"},"geometry":{"type":"MultiPolygon","coordinates":[[[[0.920448,41.10326],[0.920449,41.103193],[0.920447,41.103159],[0.920439,41.103126],[0.920427,41.103098],[0.920403,41.103057],[0.92038,41.103018],[0.920371,41.103002],[0.920358,41.102978],[0.920449,41.102745],[0.920421,41.102738],[0.920437,41.102698],[0.920274,41.102615],[0.920371,41.102411],[0.920215,41.102177],[0.920302,41.102073],[0.920278,41.102006],[0.920211,41.101943],[0.920142,41.101881],[0.920116,41.101857],[0.920084,41.101827],[0.920122,41.101806],[0.920099,41.101781],[0.920081,41.101765],[0.92007,41.101754],[0.920053,41.101729],[0.920042,41.101709],[0.920033,41.101672],[0.920028,41.101615],[0.920022,41.101587],[0.920009,41.101561],[0.919997,41.101544],[0.919983,41.101528],[0.919951,41.101496],[0.91992,41.101464],[0.919902,41.101437],[0.919892,41.101416],[0.919884,41.101384],[0.919883,41.101352],[0.919896,41.101284],[0.919911,41.101215],[0.919918,41.101143],[0.919922,41.101071],[0.919919,41.101017],[0.919917,41.101006],[0.919908,41.100964],[0.919879,41.100891],[0.919848,41.100819],[0.919837,41.100781],[0.919826,41.100723],[0.919818,41.100694],[0.919807,41.100665],[0.919798,41.100653],[0.919778,41.100638],[0.919753,41.100629],[0.91971,41.100621],[0.919646,41.100618],[0.919582,41.100621],[0.919543,41.100625],[0.919449,41.100633],[0.919393,41.100641],[0.919353,41.100648],[0.919314,41.100655],[0.919237,41.100671],[0.919164,41.100685],[0.91915,41.100687],[0.919135,41.10069],[0.919106,41.100696],[0.919062,41.100704],[0.919014,41.100716],[0.918969,41.100734],[0.918882,41.100771],[0.918811,41.100801],[0.918739,41.100829],[0.918678,41.10085],[0.918654,41.100905],[0.918654,41.100914],[0.918658,41.100992],[0.918666,41.101071],[0.918668,41.101081],[0.918683,41.101181],[0.918696,41.101262],[0.9187,41.10128],[0.918725,41.101469],[0.918729,41.101468],[0.918732,41.101489],[0.918735,41.101534],[0.918734,41.101599],[0.918736,41.101666],[0.91875,41.101749],[0.918762,41.101804],[0.918768,41.101832],[0.918781,41.101884],[0.918794,41.101937],[0.918801,41.101971],[0.918814,41.102032],[0.918832,41.102129],[0.918848,41.102212],[0.918862,41.102295],[0.918869,41.102336],[0.918871,41.102353],[0.918868,41.102354],[0.918872,41.102357],[0.918874,41.102372],[0.918878,41.102396],[0.918887,41.102457],[0.918895,41.102514],[0.918902,41.102571],[0.918903,41.102581],[0.918904,41.102591],[0.918904,41.10262],[0.918907,41.10265],[0.918921,41.102693],[0.918936,41.102736],[0.918938,41.102742],[0.918943,41.102757],[0.91895,41.102777],[0.918965,41.102841],[0.918976,41.102906],[0.918982,41.102957],[0.918987,41.10301],[0.918987,41.103062],[0.918988,41.103114],[0.918991,41.103123],[0.918999,41.103131],[0.919011,41.103139],[0.919024,41.103142],[0.919068,41.103184],[0.919161,41.103185],[0.919254,41.103184],[0.919346,41.103184],[0.919379,41.103187],[0.919411,41.103192],[0.919477,41.103206],[0.919521,41.103217],[0.919563,41.103231],[0.919588,41.103243],[0.919623,41.103265],[0.919659,41.103288],[0.91969,41.103303],[0.919722,41.103314],[0.919745,41.103319],[0.919812,41.103329],[0.919876,41.103338],[0.919952,41.103358],[0.920027,41.103384],[0.920057,41.103397],[0.920083,41.103414],[0.920098,41.103427],[0.920136,41.103472],[0.92017,41.103519],[0.920198,41.10356],[0.920228,41.103602],[0.920253,41.103594],[0.920523,41.103524],[0.920466,41.103345],[0.920452,41.103301],[0.920448,41.10326]]]]}},{"type":"Feature","id":"431671_431671 AP01 BCA 3","properties":{"area_id":"431671_431671 AP01 BCA 3","nom":"Vilanova d'Escornalbou","codi_icgc":"431671 AP01 BCA 3","categoria":"Àrees de poblament","codi_municipi":"431671","municipi":"Vilanova d'Escornalbou","codi_comarca":"08","comarca":"Baix Camp","provincia":"Tarragona","font":"ICGC Àrees de poblament v3r1 202602"},"geometry":{"type":"MultiPolygon","coordinates":[[[[0.93803,41.114875],[0.938145,41.114802],[0.93816,41.114819],[0.938334,41.114699],[0.938472,41.11456],[0.938499,41.114515],[0.938564,41.114529],[0.938678,41.114555],[0.93869,41.114603],[0.938716,41.114787],[0.938844,41.114769],[0.938989,41.114828],[0.939025,41.114614],[0.939066,41.114609],[0.939253,41.114586],[0.939292,41.114577],[0.939591,41.114508],[0.939678,41.114488],[0.939677,41.114421],[0.939546,41.114335],[0.939441,41.114286],[0.939336,41.114266],[0.939206,41.114246],[0.939024,41.114252],[0.938995,41.114245],[0.938972,41.114236],[0.938941,41.114221],[0.93891,41.114204],[0.938844,41.114166],[0.938775,41.114127],[0.938625,41.114094],[0.938588,41.114131],[0.938546,41.114178],[0.938479,41.114194],[0.93838,41.114234],[0.938291,41.114286],[0.938144,41.114349],[0.938024,41.114392],[0.93794,41.114432],[0.937857,41.114451],[0.937784,41.114442],[0.937886,41.11439],[0.937959,41.114351],[0.938342,41.114116],[0.938325,41.114101],[0.9383,41.114079],[0.938275,41.114062],[0.938254,41.114047],[0.938229,41.114033],[0.938201,41.114022],[0.938086,41.113987],[0.937971,41.113954],[0.937903,41.113934],[0.937836,41.113912],[0.937827,41.113907],[0.937817,41.113896],[0.937811,41.113884],[0.937808,41.11387],[0.937811,41.113858],[0.937832,41.11383],[0.93787,41.113785],[0.93798,41.113704],[0.938124,41.113727],[0.938397,41.11356],[0.938602,41.113483],[0.938704,41.113479],[0.938685,41.113341],[0.93868,41.113301],[0.938679,41.113293],[0.938957,41.113224],[0.939087,41.113193],[0.939194,41.113159],[0.939285,41.113128],[0.939496,41.113044],[0.939591,41.11302],[0.939852,41.112967],[0.940002,41.112914],[0.940113,41.112843],[0.940225,41.112745],[0.940377,41.112627],[0.940461,41.112579],[0.940452,41.112554],[0.940457,41.112548],[0.940469,41.112533],[0.940491,41.112516],[0.940508,41.112506],[0.940566,41.112489],[0.941772,41.112147],[0.941808,41.112146],[0.941817,41.112153],[0.941978,41.112061],[0.942232,41.111994],[0.942357,41.112116],[0.942568,41.112179],[0.942736,41.112202],[0.942975,41.112173],[0.943125,41.112155],[0.943176,41.112158],[0.943204,41.11216],[0.943185,41.112104],[0.943345,41.112061],[0.943528,41.112011],[0.943405,41.111683],[0.943549,41.111645],[0.943557,41.111642],[0.943721,41.111957],[0.944093,41.111867],[0.943968,41.111518],[0.943859,41.110981],[0.943532,41.11022],[0.943452,41.110206],[0.943356,41.110274],[0.943259,41.110341],[0.943149,41.110416],[0.943038,41.110491],[0.943037,41.110496],[0.943051,41.110519],[0.9431,41.11059],[0.943207,41.11066],[0.943329,41.111216],[0.94307,41.111254],[0.942548,41.111359],[0.942493,41.111443],[0.942227,41.11152],[0.942223,41.11152],[0.942267,41.111613],[0.94199,41.111681],[0.941943,41.111584],[0.94183,41.111369],[0.941705,41.111124],[0.941632,41.11098],[0.941333,41.110394],[0.94121,41.110159],[0.940833,41.110267],[0.940825,41.110329],[0.940767,41.110399],[0.941152,41.111122],[0.941176,41.11111],[0.941373,41.111512],[0.94157,41.111831],[0.94132,41.111907],[0.941145,41.111586],[0.940792,41.111701],[0.940738,41.111727],[0.94086,41.111977],[0.940888,41.112032],[0.940602,41.112112],[0.940421,41.111767],[0.940049,41.111059],[0.93966,41.111103],[0.939612,41.111108],[0.939612,41.111109],[0.938943,41.111187],[0.9391,41.111455],[0.939088,41.111459],[0.938731,41.111553],[0.938791,41.111676],[0.939151,41.111587],[0.939162,41.111611],[0.939219,41.111726],[0.938796,41.111844],[0.938853,41.111984],[0.938852,41.111984],[0.938868,41.112019],[0.938924,41.112139],[0.93857,41.112243],[0.938508,41.112242],[0.938556,41.11235],[0.938613,41.112555],[0.938097,41.112701],[0.937937,41.112266],[0.937763,41.111801],[0.937624,41.11145],[0.93761,41.111417],[0.937576,41.111338],[0.937788,41.111304],[0.937899,41.111282],[0.938057,41.111232],[0.938082,41.111247],[0.938294,41.11114],[0.938041,41.110706],[0.937583,41.110867],[0.937032,41.110989],[0.937126,41.111185],[0.936624,41.111304],[0.936714,41.111523],[0.936631,41.111545],[0.93668,41.11166],[0.936683,41.111667],[0.936701,41.111711],[0.936729,41.111786],[0.936758,41.111863],[0.936864,41.112108],[0.936969,41.112352],[0.937013,41.112455],[0.937056,41.112558],[0.937057,41.112565],[0.937054,41.112569],[0.937049,41.112573],[0.937044,41.112575],[0.937032,41.112575],[0.936983,41.112568],[0.936934,41.112566],[0.936878,41.112563],[0.936755,41.112561],[0.936598,41.112565],[0.936499,41.112574],[0.936384,41.112587],[0.936279,41.112596],[0.936168,41.112605],[0.936085,41.112611],[0.936063,41.112613],[0.936021,41.112548],[0.935612,41.112427],[0.935543,41.112379],[0.935427,41.112353],[0.935139,41.112303],[0.935042,41.112368],[0.934917,41.112458],[0.934927,41.112525],[0.934973,41.112564],[0.935188,41.112542],[0.935425,41.112518],[0.935507,41.112544],[0.935465,41.112591],[0.935199,41.112722],[0.935321,41.112863],[0.935349,41.112892],[0.935607,41.11271],[0.935736,41.112854],[0.935884,41.11274],[0.935944,41.112783],[0.93578,41.112904],[0.935797,41.112923],[0.935842,41.113008],[0.935912,41.113135],[0.935952,41.113214],[0.935661,41.113329],[0.935511,41.11344],[0.935531,41.113453],[0.935762,41.113618],[0.935735,41.113719],[0.935944,41.114345],[0.935999,41.114386],[0.936074,41.114364],[0.936105,41.114451],[0.936153,41.114438],[0.936188,41.114549],[0.936494,41.114484],[0.936503,41.11451],[0.936528,41.114504],[0.936537,41.11452],[0.93684,41.11501],[0.936842,41.115016],[0.936963,41.114979],[0.936915,41.114894],[0.937038,41.11485],[0.936988,41.11468],[0.937165,41.114633],[0.937244,41.114789],[0.937457,41.114732],[0.93748,41.114742],[0.937522,41.114746],[0.93759,41.114738],[0.937649,41.11481],[0.937522,41.114847],[0.937498,41.114854],[0.937592,41.115069],[0.937375,41.115142],[0.93739,41.115161],[0.937448,41.11531],[0.937491,41.115305],[0.93763,41.115272],[0.937805,41.11523],[0.937944,41.1152],[0.93799,41.115151],[0.93808,41.115036],[0.93802,41.115016],[0.938027,41.114989],[0.938033,41.114951],[0.938034,41.114912],[0.93803,41.114875]]]]}},{"type":"Feature","id":"431671_431671 AP03 BCA 3","properties":{"area_id":"431671_431671 AP03 BCA 3","nom":"l'Arbocet","codi_icgc":"431671 AP03 BCA 3","categoria":"Àrees de poblament","codi_municipi":"431671","municipi":"Vilanova d'Escornalbou","codi_comarca":"08","comarca":"Baix Camp","provincia":"Tarragona","font":"ICGC Àrees de poblament v3r1 202602"},"geometry":{"type":"MultiPolygon","coordinates":[[[[0.963711,41.105377],[0.963765,41.105387],[0.963838,41.105397],[0.96396,41.105297],[0.963992,41.105285],[0.964,41.105277],[0.964003,41.105269],[0.963999,41.10526],[0.963989,41.105247],[0.963971,41.105232],[0.963962,41.105222],[0.963953,41.105211],[0.963943,41.105198],[0.963934,41.105186],[0.963894,41.105155],[0.963795,41.105077],[0.963792,41.105068],[0.96377,41.105037],[0.963745,41.105006],[0.963657,41.104913],[0.963567,41.104822],[0.96346,41.104717],[0.963349,41.104614],[0.963317,41.104589],[0.963279,41.104567],[0.963258,41.10456],[0.963236,41.10456],[0.963203,41.104569],[0.963155,41.104588],[0.963109,41.104612],[0.963046,41.104652],[0.962993,41.104697],[0.962984,41.104709],[0.962976,41.104732],[0.962969,41.104769],[0.962963,41.104786],[0.962952,41.104802],[0.96309,41.105016],[0.963171,41.105141],[0.963125,41.105152],[0.962998,41.105022],[0.962934,41.104967],[0.962822,41.104875],[0.962697,41.104846],[0.962485,41.104839],[0.962343,41.10484],[0.962243,41.104868],[0.962255,41.104902],[0.962277,41.104967],[0.962288,41.105017],[0.962299,41.105066],[0.962311,41.105093],[0.962316,41.105107],[0.962295,41.105142],[0.961766,41.105043],[0.961761,41.105042],[0.961541,41.105004],[0.961347,41.105004],[0.961139,41.105054],[0.961109,41.105058],[0.961034,41.105098],[0.960936,41.105151],[0.960827,41.105193],[0.960835,41.105213],[0.960775,41.105297],[0.960792,41.105371],[0.960843,41.105382],[0.960866,41.105436],[0.960885,41.10548],[0.960893,41.105505],[0.960901,41.105545],[0.960908,41.105586],[0.960914,41.105618],[0.960918,41.10564],[0.96092,41.105651],[0.960932,41.105716],[0.960943,41.105795],[0.960963,41.105808],[0.961009,41.105807],[0.961054,41.105806],[0.961147,41.105803],[0.96124,41.105799],[0.961275,41.105797],[0.961309,41.105795],[0.961331,41.105794],[0.961342,41.105791],[0.961349,41.105789],[0.961356,41.105784],[0.961359,41.105779],[0.961358,41.105765],[0.961358,41.105746],[0.961358,41.105734],[0.961358,41.10572],[0.961518,41.105714],[0.961555,41.10571],[0.961593,41.105706],[0.961729,41.105691],[0.961805,41.105686],[0.961851,41.105655],[0.961948,41.105656],[0.961952,41.105659],[0.961963,41.105661],[0.961975,41.10566],[0.962094,41.105658],[0.962214,41.105653],[0.962194,41.105471],[0.962298,41.105464],[0.962412,41.105454],[0.962492,41.105446],[0.962572,41.105436],[0.962731,41.105415],[0.962906,41.105397],[0.963085,41.105363],[0.963166,41.10535],[0.963233,41.105484],[0.9633,41.105481],[0.963368,41.105476],[0.963417,41.105446],[0.963479,41.105419],[0.96354,41.105399],[0.963684,41.105415],[0.963711,41.105377]]]]}}]}