{"type":"FeatureCollection","name":"ICGC Àrees de poblament - Vallmoll","features":[{"type":"Feature","id":"431606_431606 AP05 ACA 3","properties":{"area_id":"431606_431606 AP05 ACA 3","nom":"Bogatell","codi_icgc":"431606 AP05 ACA 3","categoria":"Àrees de poblament","codi_municipi":"431606","municipi":"Vallmoll","codi_comarca":"01","comarca":"Alt Camp","provincia":"Tarragona","font":"ICGC Àrees de poblament v3r1 202602"},"geometry":{"type":"MultiPolygon","coordinates":[[[[1.257309,41.226434],[1.257171,41.226524],[1.257033,41.226615],[1.25686,41.226737],[1.256688,41.22686],[1.25654,41.22696],[1.256392,41.227061],[1.256288,41.227132],[1.256241,41.227162],[1.256213,41.227175],[1.256193,41.227182],[1.256187,41.227184],[1.256172,41.227187],[1.256161,41.227188],[1.255953,41.227008],[1.255872,41.226961],[1.255844,41.22694],[1.255633,41.226778],[1.255479,41.22689],[1.255351,41.226971],[1.25505,41.227158],[1.255038,41.227166],[1.254949,41.227227],[1.25481,41.227318],[1.254744,41.227364],[1.254707,41.22739],[1.254653,41.227427],[1.254622,41.227448],[1.254616,41.227457],[1.254545,41.227503],[1.254471,41.227547],[1.254298,41.227661],[1.254209,41.227719],[1.254179,41.227739],[1.25417,41.227803],[1.253855,41.227968],[1.253815,41.22799],[1.253893,41.228072],[1.25396,41.22816],[1.254018,41.228219],[1.254197,41.22812],[1.254395,41.22801],[1.254409,41.22802],[1.254435,41.22804],[1.254512,41.228121],[1.254626,41.228242],[1.254737,41.228364],[1.254777,41.228413],[1.254802,41.228449],[1.254838,41.228504],[1.254496,41.228682],[1.254453,41.228641],[1.254221,41.228779],[1.254264,41.22882],[1.254379,41.22894],[1.254584,41.228783],[1.254604,41.228815],[1.254655,41.228796],[1.254686,41.22884],[1.254866,41.228751],[1.254843,41.228714],[1.25488,41.228695],[1.254934,41.228672],[1.25497,41.228738],[1.254978,41.228755],[1.254989,41.228784],[1.254997,41.228824],[1.254999,41.22885],[1.254998,41.228853],[1.254995,41.228914],[1.255038,41.228921],[1.255212,41.228796],[1.255352,41.2287],[1.255398,41.228666],[1.25549,41.2286],[1.255546,41.228562],[1.255684,41.228464],[1.255839,41.228355],[1.255868,41.22833],[1.255948,41.228269],[1.25598,41.228245],[1.255693,41.228039],[1.256018,41.227803],[1.256315,41.228019],[1.256325,41.228013],[1.25648,41.227902],[1.256584,41.227814],[1.256611,41.227804],[1.256654,41.227767],[1.256762,41.227691],[1.256831,41.227639],[1.256906,41.22758],[1.257054,41.227464],[1.257107,41.227422],[1.257194,41.227364],[1.257335,41.22727],[1.257346,41.227287],[1.257421,41.227372],[1.257637,41.227642],[1.257668,41.227672],[1.257773,41.227794],[1.257927,41.227974],[1.257997,41.227919],[1.258137,41.227808],[1.258165,41.22778],[1.258174,41.227762],[1.258173,41.227744],[1.258007,41.227576],[1.258235,41.227417],[1.258168,41.227361],[1.25809,41.227289],[1.257921,41.22713],[1.257757,41.226965],[1.25781,41.226931],[1.257852,41.226902],[1.257878,41.226887],[1.25792,41.226858],[1.257946,41.226839],[1.258092,41.226733],[1.258236,41.226628],[1.25797,41.226455],[1.2579,41.226405],[1.257609,41.226609],[1.257345,41.22641],[1.257309,41.226434]]]]}},{"type":"Feature","id":"431606_431606 AP08 ACA 1","properties":{"area_id":"431606_431606 AP08 ACA 1","nom":"Calders","codi_icgc":"431606 AP08 ACA 1","categoria":"Àrees de poblament","codi_municipi":"431606","municipi":"Vallmoll","codi_comarca":"01","comarca":"Alt Camp","provincia":"Tarragona","font":"ICGC Àrees de poblament v3r1 202602"},"geometry":{"type":"MultiPolygon","coordinates":[[[[1.267009,41.271434],[1.266326,41.271398],[1.266326,41.271229],[1.266326,41.271175],[1.266278,41.271171],[1.265686,41.271059],[1.265834,41.271495],[1.265839,41.27152],[1.265875,41.271765],[1.265876,41.271771],[1.265934,41.27203],[1.265952,41.272098],[1.266017,41.272272],[1.266077,41.272416],[1.266161,41.272533],[1.266171,41.272552],[1.266239,41.272688],[1.266308,41.272707],[1.266597,41.272625],[1.266943,41.272528],[1.26697,41.272518],[1.267,41.272508],[1.267036,41.2725],[1.26716,41.272476],[1.267182,41.272469],[1.267222,41.272455],[1.267303,41.272446],[1.267626,41.272442],[1.267633,41.272442],[1.267859,41.272439],[1.267995,41.272438],[1.268189,41.272436],[1.268234,41.272445],[1.268476,41.272443],[1.268704,41.272442],[1.268723,41.272445],[1.268817,41.272451],[1.268829,41.272462],[1.268829,41.272467],[1.26883,41.272476],[1.268828,41.272492],[1.268818,41.27252],[1.268776,41.272619],[1.268714,41.272765],[1.26863,41.272951],[1.268546,41.273137],[1.268481,41.273293],[1.268416,41.27345],[1.268338,41.273641],[1.26826,41.273832],[1.268245,41.273865],[1.268228,41.273897],[1.268215,41.273918],[1.268206,41.273933],[1.268218,41.273934],[1.268235,41.273936],[1.268306,41.273941],[1.268322,41.273968],[1.26833,41.273969],[1.268539,41.273984],[1.268778,41.273979],[1.269029,41.273944],[1.269337,41.273897],[1.269472,41.273882],[1.269798,41.273897],[1.270045,41.273906],[1.270113,41.273908],[1.27056,41.273892],[1.270722,41.27389],[1.270858,41.273882],[1.270884,41.273877],[1.270889,41.273875],[1.270957,41.273861],[1.271291,41.273759],[1.271372,41.273744],[1.27164,41.273667],[1.271712,41.273651],[1.271769,41.273595],[1.271812,41.273523],[1.271625,41.273017],[1.271627,41.272974],[1.271598,41.272888],[1.271602,41.27286],[1.271632,41.272678],[1.271669,41.27245],[1.271671,41.272437],[1.271709,41.272204],[1.271729,41.272087],[1.271776,41.271793],[1.27143,41.27173],[1.271425,41.271724],[1.271413,41.271716],[1.271396,41.271709],[1.271376,41.271702],[1.271337,41.271692],[1.271259,41.271674],[1.271183,41.271654],[1.271097,41.271632],[1.271057,41.271622],[1.270932,41.27159],[1.270889,41.271579],[1.270804,41.271557],[1.270675,41.271526],[1.270604,41.271511],[1.270535,41.271496],[1.270439,41.271468],[1.270341,41.271439],[1.270142,41.271388],[1.269943,41.271336],[1.269837,41.271308],[1.26973,41.27128],[1.269593,41.271251],[1.269455,41.271226],[1.269385,41.271214],[1.269315,41.271204],[1.269267,41.271201],[1.269243,41.2712],[1.269219,41.2712],[1.269173,41.271208],[1.269146,41.271223],[1.269124,41.271252],[1.269147,41.271402],[1.26914,41.271612],[1.269123,41.27174],[1.269028,41.271985],[1.268963,41.272163],[1.268938,41.272176],[1.268876,41.27213],[1.268814,41.272068],[1.268524,41.271926],[1.268066,41.271714],[1.267571,41.271434],[1.267496,41.271404],[1.267359,41.271327],[1.267021,41.271326],[1.267009,41.271434]]]]}},{"type":"Feature","id":"431606_431606 AP09 ACA 3","properties":{"area_id":"431606_431606 AP09 ACA 3","nom":"Calders-Escaldes","codi_icgc":"431606 AP09 ACA 3","categoria":"Àrees de poblament","codi_municipi":"431606","municipi":"Vallmoll","codi_comarca":"01","comarca":"Alt Camp","provincia":"Tarragona","font":"ICGC Àrees de poblament v3r1 202602"},"geometry":{"type":"MultiPolygon","coordinates":[[[[1.267037,41.271185],[1.267173,41.271223],[1.267313,41.271082],[1.267454,41.270924],[1.26749,41.270883],[1.267504,41.270865],[1.267531,41.27083],[1.267587,41.270751],[1.267627,41.27073],[1.26767,41.270668],[1.267828,41.270476],[1.267968,41.270324],[1.268251,41.270487],[1.268487,41.270609],[1.268481,41.270617],[1.268481,41.27065],[1.268497,41.270701],[1.268542,41.270725],[1.26878,41.270864],[1.268949,41.270964],[1.269031,41.270957],[1.269041,41.270864],[1.269055,41.270746],[1.269117,41.270601],[1.269166,41.270499],[1.269173,41.270452],[1.269257,41.270313],[1.269288,41.270254],[1.269343,41.270151],[1.269347,41.270143],[1.269505,41.270028],[1.269591,41.269968],[1.269679,41.269912],[1.269796,41.26982],[1.269937,41.269717],[1.269985,41.269689],[1.270157,41.269553],[1.270194,41.269524],[1.270247,41.269482],[1.270395,41.269365],[1.270395,41.269306],[1.270394,41.26927],[1.270365,41.269252],[1.270257,41.269185],[1.270168,41.269131],[1.270097,41.269087],[1.270081,41.269072],[1.270071,41.26906],[1.270029,41.26903],[1.269989,41.269002],[1.26988,41.268921],[1.269825,41.268881],[1.269782,41.268853],[1.269766,41.268842],[1.269698,41.268817],[1.269628,41.268864],[1.269612,41.268876],[1.269556,41.268911],[1.2695,41.268946],[1.26941,41.269001],[1.26932,41.269056],[1.269254,41.269089],[1.269185,41.269119],[1.269136,41.26914],[1.269086,41.269162],[1.269039,41.269178],[1.268991,41.269193],[1.268967,41.269199],[1.268938,41.269206],[1.268875,41.269251],[1.268917,41.269283],[1.268942,41.269265],[1.268961,41.269277],[1.268979,41.269288],[1.268973,41.269292],[1.268882,41.269346],[1.268802,41.269393],[1.268746,41.269428],[1.268518,41.269568],[1.268344,41.269676],[1.268341,41.269673],[1.268246,41.269733],[1.267919,41.269586],[1.267796,41.269739],[1.26734,41.270306],[1.267321,41.270329],[1.267161,41.270525],[1.267141,41.270522],[1.267109,41.270513],[1.267025,41.270477],[1.266998,41.270465],[1.266979,41.270456],[1.26696,41.270448],[1.266904,41.270422],[1.266846,41.270386],[1.266828,41.270375],[1.266788,41.270351],[1.266759,41.270332],[1.266731,41.270312],[1.266679,41.270269],[1.266493,41.270285],[1.266417,41.270505],[1.266419,41.270716],[1.266419,41.270771],[1.266417,41.270865],[1.266417,41.270897],[1.266407,41.27105],[1.266527,41.271052],[1.266541,41.270997],[1.267037,41.271185]]]]}},{"type":"Feature","id":"431606_431606 AP04 ACA 3","properties":{"area_id":"431606_431606 AP04 ACA 3","nom":"Garràfols","codi_icgc":"431606 AP04 ACA 3","categoria":"Àrees de poblament","codi_municipi":"431606","municipi":"Vallmoll","codi_comarca":"01","comarca":"Alt Camp","provincia":"Tarragona","font":"ICGC Àrees de poblament v3r1 202602"},"geometry":{"type":"MultiPolygon","coordinates":[[[[1.248668,41.227278],[1.248505,41.227011],[1.248324,41.226968],[1.248319,41.226962],[1.248227,41.22685],[1.24812,41.22672],[1.248088,41.226679],[1.247857,41.226381],[1.247814,41.226315],[1.247767,41.226252],[1.24747,41.225885],[1.247117,41.22605],[1.247237,41.226191],[1.247208,41.226245],[1.247258,41.226297],[1.247305,41.226355],[1.247344,41.226402],[1.247378,41.22644],[1.247438,41.226502],[1.247498,41.226564],[1.247574,41.226651],[1.247644,41.226732],[1.247616,41.226758],[1.247575,41.226794],[1.247516,41.226848],[1.247438,41.226908],[1.247386,41.226954],[1.247338,41.226996],[1.247315,41.227015],[1.247285,41.227041],[1.24722,41.226985],[1.247131,41.226911],[1.246979,41.226789],[1.246825,41.226666],[1.246794,41.226642],[1.246775,41.226617],[1.246739,41.226665],[1.24646,41.227177],[1.246348,41.227384],[1.246681,41.227574],[1.246687,41.227599],[1.24664,41.227653],[1.246627,41.227668],[1.246526,41.227772],[1.246458,41.227843],[1.24639,41.227913],[1.246433,41.22793],[1.246934,41.228174],[1.246938,41.228176],[1.247196,41.228277],[1.247377,41.228347],[1.247466,41.228384],[1.2478,41.228522],[1.24804,41.228253],[1.248068,41.228191],[1.248341,41.227894],[1.248387,41.22771],[1.248468,41.227616],[1.248575,41.227523],[1.248734,41.227386],[1.248668,41.227278]]]]}},{"type":"Feature","id":"431606_431606 SI02 ACA 2","properties":{"area_id":"431606_431606 SI02 ACA 2","nom":"Inmuro SA","codi_icgc":"431606 SI02 ACA 2","categoria":"Sector industrial","codi_municipi":"431606","municipi":"Vallmoll","codi_comarca":"01","comarca":"Alt Camp","provincia":"Tarragona","font":"ICGC Àrees de poblament v3r1 202602"},"geometry":{"type":"MultiPolygon","coordinates":[[[[1.244977,41.240074],[1.244957,41.239917],[1.24469,41.239745],[1.244443,41.239605],[1.244096,41.239377],[1.243828,41.239195],[1.243692,41.239103],[1.243329,41.238847],[1.243265,41.238801],[1.24303,41.238638],[1.243009,41.238655],[1.242699,41.238456],[1.242382,41.238183],[1.242219,41.238295],[1.242068,41.238397],[1.242143,41.23846],[1.242633,41.238857],[1.242697,41.238812],[1.242732,41.23884],[1.242763,41.238863],[1.242765,41.238865],[1.242812,41.238898],[1.242738,41.238959],[1.242682,41.239004],[1.242433,41.239209],[1.24258,41.23931],[1.242558,41.239331],[1.24252,41.239368],[1.242517,41.239376],[1.242519,41.239384],[1.242531,41.239404],[1.242547,41.239423],[1.242575,41.239451],[1.242605,41.239477],[1.242697,41.239544],[1.24279,41.239611],[1.242842,41.239648],[1.242825,41.239643],[1.242806,41.239636],[1.242787,41.23963],[1.242773,41.239629],[1.242761,41.239633],[1.242749,41.239644],[1.242744,41.239656],[1.242746,41.239664],[1.242756,41.23968],[1.242766,41.239696],[1.242803,41.239765],[1.24284,41.239833],[1.242866,41.239887],[1.24287,41.239904],[1.242866,41.239928],[1.242854,41.239961],[1.242836,41.239949],[1.242829,41.239955],[1.242611,41.240111],[1.242575,41.240139],[1.242589,41.24014],[1.242616,41.240146],[1.242663,41.240162],[1.242705,41.240182],[1.242874,41.24029],[1.243039,41.240396],[1.243238,41.24052],[1.243439,41.240642],[1.243469,41.240657],[1.243502,41.240669],[1.243521,41.240673],[1.243659,41.240676],[1.24372,41.240648],[1.243851,41.240632],[1.243935,41.240618],[1.244213,41.240539],[1.244352,41.240501],[1.244424,41.24047],[1.244544,41.240397],[1.244977,41.240074]]]]}},{"type":"Feature","id":"431606_431606 AP02 ACA 2","properties":{"area_id":"431606_431606 AP02 ACA 2","nom":"Mas de Fontana","codi_icgc":"431606 AP02 ACA 2","categoria":"Àrees de poblament","codi_municipi":"431606","municipi":"Vallmoll","codi_comarca":"01","comarca":"Alt Camp","provincia":"Tarragona","font":"ICGC Àrees de poblament v3r1 202602"},"geometry":{"type":"MultiPolygon","coordinates":[[[[1.234013,41.244662],[1.234041,41.244732],[1.234193,41.244914],[1.234225,41.244952],[1.234504,41.245303],[1.234547,41.245401],[1.234552,41.245603],[1.234594,41.245676],[1.234616,41.245828],[1.234654,41.246104],[1.23472,41.246351],[1.234924,41.246327],[1.235106,41.246296],[1.235265,41.24626],[1.235416,41.246203],[1.235559,41.246144],[1.23569,41.246076],[1.235823,41.246005],[1.235893,41.245942],[1.23595,41.245885],[1.236021,41.245705],[1.236086,41.245556],[1.236151,41.24546],[1.236192,41.245406],[1.236269,41.245303],[1.236223,41.245259],[1.236155,41.245208],[1.23609,41.245193],[1.235918,41.24517],[1.235848,41.245161],[1.235484,41.245119],[1.235505,41.24508],[1.235553,41.245017],[1.235601,41.244964],[1.235654,41.244925],[1.23571,41.244896],[1.235762,41.244872],[1.235814,41.244856],[1.235879,41.244844],[1.235956,41.244846],[1.236035,41.244861],[1.236135,41.244868],[1.236218,41.244867],[1.236292,41.244854],[1.236367,41.24483],[1.23644,41.244798],[1.236502,41.244756],[1.236518,41.244713],[1.236486,41.244638],[1.23643,41.244583],[1.236603,41.244353],[1.236622,41.244309],[1.236785,41.24398],[1.236689,41.243904],[1.236408,41.24376],[1.236404,41.243759],[1.236169,41.243677],[1.236164,41.243674],[1.235953,41.243575],[1.235545,41.243413],[1.235377,41.243398],[1.235212,41.24343],[1.235061,41.24346],[1.234979,41.243479],[1.234929,41.243489],[1.234882,41.243495],[1.234821,41.243501],[1.234744,41.243508],[1.234685,41.243515],[1.234582,41.243543],[1.234508,41.243577],[1.23448,41.24359],[1.234469,41.243595],[1.234257,41.243666],[1.233971,41.243748],[1.233936,41.243758],[1.233764,41.243816],[1.233641,41.243884],[1.233609,41.243917],[1.233602,41.243951],[1.233555,41.244023],[1.233592,41.244056],[1.233915,41.244217],[1.233748,41.244401],[1.233805,41.244433],[1.233915,41.244507],[1.233948,41.244507],[1.234013,41.244662]]]]}},{"type":"Feature","id":"431606_431606 SI01 ACA 2","properties":{"area_id":"431606_431606 SI01 ACA 2","nom":"Polígon industrial El Mas Vell","codi_icgc":"431606 SI01 ACA 2","categoria":"Sector industrial","codi_municipi":"431606","municipi":"Vallmoll","codi_comarca":"01","comarca":"Alt Camp","provincia":"Tarragona","font":"ICGC Àrees de poblament v3r1 202602"},"geometry":{"type":"MultiPolygon","coordinates":[[[[1.261881,41.237053],[1.261891,41.237023],[1.262013,41.237039],[1.261894,41.237012],[1.261919,41.23694],[1.26193,41.236907],[1.261831,41.236751],[1.261309,41.236457],[1.261018,41.23624],[1.261,41.236242],[1.261082,41.236096],[1.261358,41.23587],[1.261448,41.235788],[1.261668,41.235583],[1.26167,41.235581],[1.261688,41.235565],[1.261706,41.235548],[1.26201,41.23527],[1.262352,41.234958],[1.262707,41.234634],[1.263062,41.23431],[1.263481,41.233926],[1.263899,41.233542],[1.264041,41.233412],[1.264184,41.233282],[1.264367,41.233115],[1.264399,41.233086],[1.264628,41.232877],[1.262888,41.231802],[1.261091,41.230719],[1.260314,41.231427],[1.259575,41.230993],[1.258741,41.231783],[1.258744,41.232019],[1.258668,41.2321],[1.25861,41.232157],[1.25852,41.232155],[1.258339,41.232152],[1.258236,41.232196],[1.256718,41.233411],[1.256611,41.233497],[1.256263,41.233756],[1.255892,41.234032],[1.256017,41.234114],[1.256038,41.234095],[1.256593,41.234504],[1.256778,41.23487],[1.256938,41.234975],[1.257577,41.235664],[1.257851,41.236045],[1.258187,41.236528],[1.258518,41.237004],[1.258562,41.237052],[1.259246,41.237463],[1.260564,41.23829],[1.261859,41.237119],[1.261881,41.237053]]]]}},{"type":"Feature","id":"431606_431606 SI03 ACA 2","properties":{"area_id":"431606_431606 SI03 ACA 2","nom":"Rocamora Europea del Mueble SL","codi_icgc":"431606 SI03 ACA 2","categoria":"Sector industrial","codi_municipi":"431606","municipi":"Vallmoll","codi_comarca":"01","comarca":"Alt Camp","provincia":"Tarragona","font":"ICGC Àrees de poblament v3r1 202602"},"geometry":{"type":"MultiPolygon","coordinates":[[[[1.246083,41.253257],[1.24598,41.25334],[1.245948,41.253382],[1.245949,41.253418],[1.246096,41.253595],[1.246336,41.25382],[1.246527,41.254003],[1.246949,41.253799],[1.247408,41.253578],[1.247822,41.253382],[1.248046,41.253245],[1.248466,41.253044],[1.248511,41.252529],[1.248487,41.252385],[1.248436,41.252278],[1.248369,41.252191],[1.248277,41.252154],[1.248197,41.252135],[1.24744,41.252071],[1.247316,41.252125],[1.24722,41.252163],[1.247133,41.252198],[1.24725,41.252364],[1.247259,41.252398],[1.247253,41.252419],[1.246276,41.253121],[1.246251,41.253139],[1.246083,41.253257]]]]}},{"type":"Feature","id":"431606_431606 AP01 ACA 3","properties":{"area_id":"431606_431606 AP01 ACA 3","nom":"Vallmoll","codi_icgc":"431606 AP01 ACA 3","categoria":"Àrees de poblament","codi_municipi":"431606","municipi":"Vallmoll","codi_comarca":"01","comarca":"Alt Camp","provincia":"Tarragona","font":"ICGC Àrees de poblament v3r1 202602"},"geometry":{"type":"MultiPolygon","coordinates":[[[[1.249301,41.240439],[1.249051,41.240531],[1.248729,41.240654],[1.248662,41.240689],[1.24862,41.240696],[1.24852,41.240746],[1.248423,41.240796],[1.248316,41.240831],[1.24822,41.240878],[1.24821,41.24089],[1.248171,41.240941],[1.248148,41.24097],[1.24799,41.240965],[1.247946,41.240962],[1.247744,41.24095],[1.24702,41.24093],[1.247001,41.240932],[1.246968,41.240938],[1.246938,41.24095],[1.246913,41.240966],[1.246893,41.240987],[1.24688,41.24101],[1.246874,41.241035],[1.246876,41.241061],[1.246849,41.241173],[1.246831,41.241176],[1.246842,41.241185],[1.246847,41.241189],[1.246847,41.241209],[1.246842,41.241223],[1.246832,41.241236],[1.246819,41.241252],[1.246802,41.241266],[1.246728,41.241308],[1.246655,41.24135],[1.246676,41.241379],[1.246681,41.241385],[1.246688,41.241394],[1.246943,41.241543],[1.247081,41.241399],[1.247387,41.241626],[1.247438,41.241665],[1.247368,41.24178],[1.247425,41.241779],[1.247485,41.241772],[1.247541,41.241777],[1.247606,41.241791],[1.247639,41.241802],[1.247551,41.24193],[1.247405,41.241908],[1.247324,41.242044],[1.247363,41.242197],[1.247182,41.242248],[1.247082,41.242298],[1.247051,41.242337],[1.247039,41.242389],[1.247016,41.24243],[1.246982,41.242468],[1.246953,41.242507],[1.246925,41.242586],[1.247158,41.242587],[1.247436,41.242546],[1.247641,41.242524],[1.247619,41.242624],[1.247563,41.24262],[1.247478,41.24262],[1.247407,41.242623],[1.24731,41.242633],[1.247226,41.242646],[1.247205,41.242663],[1.247184,41.242689],[1.247168,41.24275],[1.247159,41.24281],[1.247149,41.24287],[1.247141,41.242947],[1.247128,41.243096],[1.247522,41.243093],[1.247552,41.243096],[1.247552,41.243182],[1.247551,41.243361],[1.247551,41.243407],[1.247548,41.243421],[1.247539,41.243433],[1.247509,41.243458],[1.247482,41.243472],[1.247453,41.243479],[1.247407,41.243482],[1.24736,41.243481],[1.24733,41.243477],[1.24726,41.243465],[1.247232,41.243461],[1.247206,41.24346],[1.247183,41.243464],[1.247166,41.243469],[1.24715,41.24348],[1.247138,41.243493],[1.247135,41.243496],[1.247126,41.243512],[1.247121,41.243528],[1.24712,41.243546],[1.246914,41.243559],[1.246685,41.243433],[1.246666,41.243452],[1.246418,41.24368],[1.246763,41.243891],[1.246849,41.243882],[1.246878,41.243879],[1.246892,41.243886],[1.247111,41.244009],[1.247115,41.244005],[1.247237,41.243909],[1.247395,41.243946],[1.247472,41.243951],[1.247534,41.243955],[1.247624,41.24396],[1.247679,41.243962],[1.247686,41.243972],[1.247717,41.244014],[1.247732,41.244041],[1.247754,41.24409],[1.247773,41.244139],[1.247799,41.244214],[1.247824,41.24429],[1.24784,41.244329],[1.24786,41.244367],[1.247895,41.244421],[1.247933,41.244474],[1.247974,41.244528],[1.248019,41.244581],[1.248058,41.244619],[1.248097,41.244657],[1.248143,41.244702],[1.248187,41.244747],[1.24821,41.244776],[1.248224,41.244808],[1.248233,41.244837],[1.248214,41.244847],[1.248094,41.24486],[1.248106,41.24493],[1.248074,41.244984],[1.247992,41.245002],[1.247858,41.245103],[1.247855,41.245151],[1.247849,41.245266],[1.247708,41.245297],[1.247472,41.245439],[1.247419,41.245437],[1.247331,41.245426],[1.247243,41.245414],[1.247127,41.245398],[1.247068,41.245391],[1.247007,41.245387],[1.246957,41.245387],[1.246907,41.245387],[1.246847,41.245386],[1.246818,41.245386],[1.246786,41.245386],[1.246764,41.245387],[1.246735,41.245395],[1.246706,41.245404],[1.246657,41.245428],[1.246608,41.245452],[1.246591,41.245458],[1.246565,41.245464],[1.246554,41.245465],[1.246543,41.245463],[1.246495,41.245449],[1.24649,41.245446],[1.246454,41.245423],[1.246416,41.245397],[1.246423,41.245391],[1.246528,41.245292],[1.246604,41.245292],[1.246738,41.245167],[1.245996,41.244846],[1.245755,41.245036],[1.245724,41.245078],[1.245709,41.245096],[1.245613,41.245216],[1.245563,41.245472],[1.245644,41.24555],[1.245868,41.245765],[1.246094,41.245842],[1.24611,41.245847],[1.246139,41.245858],[1.246153,41.245862],[1.246085,41.245929],[1.246002,41.245993],[1.245927,41.246042],[1.245791,41.246102],[1.246618,41.246169],[1.246663,41.246224],[1.246568,41.246263],[1.246528,41.246358],[1.24645,41.246419],[1.246335,41.246474],[1.246208,41.246506],[1.245962,41.246507],[1.24586,41.246524],[1.24582,41.246591],[1.245656,41.247055],[1.2455,41.247477],[1.245418,41.247714],[1.24544,41.247838],[1.245488,41.247911],[1.245676,41.247956],[1.245815,41.247987],[1.24591,41.247981],[1.245933,41.24798],[1.246547,41.247867],[1.246597,41.247725],[1.24664,41.247735],[1.246726,41.247743],[1.24687,41.247273],[1.246874,41.247262],[1.246887,41.247243],[1.246907,41.247227],[1.246931,41.247216],[1.246958,41.247211],[1.246986,41.247211],[1.247657,41.247252],[1.247584,41.247879],[1.247574,41.247966],[1.247839,41.247977],[1.247877,41.247974],[1.247914,41.247965],[1.247948,41.247951],[1.247978,41.247933],[1.248002,41.24791],[1.248014,41.247893],[1.248381,41.247898],[1.248436,41.247849],[1.248532,41.247764],[1.248561,41.247748],[1.248588,41.247734],[1.248938,41.247555],[1.248974,41.247566],[1.248971,41.247606],[1.248965,41.24769],[1.248963,41.24773],[1.248956,41.247833],[1.248955,41.247854],[1.248954,41.247864],[1.248661,41.24787],[1.248653,41.24787],[1.248628,41.247884],[1.248492,41.24801],[1.248405,41.248083],[1.248411,41.248144],[1.248396,41.24815],[1.248323,41.248181],[1.24825,41.248212],[1.248216,41.248221],[1.248181,41.248226],[1.248107,41.248229],[1.248059,41.248233],[1.248032,41.248238],[1.247971,41.248255],[1.247928,41.248266],[1.247825,41.248298],[1.247719,41.248334],[1.247613,41.248371],[1.247582,41.248378],[1.247553,41.248378],[1.247526,41.248373],[1.247512,41.248387],[1.24748,41.24842],[1.247463,41.248577],[1.247514,41.248654],[1.247552,41.248712],[1.247557,41.248719],[1.248032,41.248752],[1.248097,41.248748],[1.248129,41.248747],[1.248765,41.248789],[1.248839,41.248789],[1.248893,41.248776],[1.248966,41.248758],[1.248981,41.248542],[1.249,41.248282],[1.249007,41.248176],[1.249029,41.247811],[1.249034,41.247733],[1.249039,41.247663],[1.249043,41.247609],[1.249047,41.247544],[1.249079,41.247062],[1.249088,41.246835],[1.249171,41.246845],[1.249255,41.246851],[1.249484,41.24685],[1.24952,41.246866],[1.24952,41.246892],[1.249626,41.246893],[1.249626,41.246866],[1.249635,41.246794],[1.249653,41.246657],[1.249141,41.246605],[1.249158,41.246348],[1.249163,41.246233],[1.249244,41.246232],[1.249359,41.246107],[1.249509,41.246105],[1.249727,41.246091],[1.249734,41.246037],[1.24975,41.245855],[1.249769,41.245797],[1.249821,41.24557],[1.249684,41.245378],[1.249882,41.245395],[1.250074,41.245008],[1.250103,41.244878],[1.24973,41.244833],[1.249701,41.24483],[1.249701,41.244805],[1.2497,41.244484],[1.249759,41.244486],[1.24979,41.244473],[1.249838,41.244418],[1.249842,41.244405],[1.249869,41.244324],[1.249908,41.244116],[1.249913,41.244076],[1.249911,41.244041],[1.249845,41.244033],[1.249848,41.243907],[1.249965,41.243858],[1.250401,41.243682],[1.250864,41.243497],[1.251259,41.243341],[1.251278,41.243322],[1.251264,41.243244],[1.251209,41.243144],[1.251152,41.243005],[1.251091,41.242917],[1.250596,41.243113],[1.250545,41.243038],[1.250464,41.243052],[1.250421,41.242901],[1.250407,41.24285],[1.250392,41.242796],[1.250362,41.242688],[1.250326,41.242606],[1.250641,41.242469],[1.250553,41.242323],[1.25081,41.242216],[1.250896,41.242207],[1.251014,41.242583],[1.251394,41.242534],[1.251395,41.242404],[1.251326,41.242154],[1.251184,41.241686],[1.251182,41.241568],[1.251187,41.241497],[1.251168,41.24143],[1.251015,41.241417],[1.250785,41.241495],[1.250596,41.241581],[1.250762,41.241308],[1.250974,41.240928],[1.251019,41.24084],[1.251019,41.240831],[1.25096,41.240701],[1.250903,41.240714],[1.250857,41.240724],[1.250822,41.240728],[1.250747,41.240744],[1.250673,41.24076],[1.250502,41.240794],[1.25033,41.240828],[1.250247,41.240846],[1.249899,41.239711],[1.249775,41.239643],[1.249146,41.239771],[1.249361,41.240418],[1.249301,41.240439]]]]}},{"type":"Feature","id":"431606_431606 AP06 ACA 3","properties":{"area_id":"431606_431606 AP06 ACA 3","nom":"Vallmoll Paradís","codi_icgc":"431606 AP06 ACA 3","categoria":"Àrees de poblament","codi_municipi":"431606","municipi":"Vallmoll","codi_comarca":"01","comarca":"Alt Camp","provincia":"Tarragona","font":"ICGC Àrees de poblament v3r1 202602"},"geometry":{"type":"MultiPolygon","coordinates":[[[[1.251065,41.250941],[1.251039,41.250949],[1.251011,41.250953],[1.250953,41.250961],[1.250915,41.250969],[1.250894,41.250977],[1.250845,41.251],[1.250797,41.251023],[1.250743,41.251048],[1.25069,41.251072],[1.250669,41.251078],[1.250646,41.25108],[1.250593,41.251077],[1.250557,41.251079],[1.250537,41.251084],[1.250349,41.251163],[1.250244,41.251207],[1.249952,41.251329],[1.24979,41.251397],[1.249789,41.251417],[1.249821,41.251512],[1.249452,41.251692],[1.249443,41.251697],[1.249309,41.25183],[1.249224,41.251916],[1.249068,41.252074],[1.248966,41.252178],[1.248889,41.252175],[1.248885,41.25223],[1.248881,41.252285],[1.248866,41.25252],[1.248851,41.252754],[1.248836,41.252982],[1.248827,41.253105],[1.248807,41.253413],[1.248793,41.253643],[1.248789,41.253702],[1.248789,41.253714],[1.248784,41.253781],[1.248774,41.254001],[1.248773,41.254061],[1.248768,41.254149],[1.248759,41.254238],[1.248742,41.254416],[1.248734,41.254551],[1.248725,41.254686],[1.248718,41.254776],[1.248713,41.254818],[1.248709,41.25486],[1.248708,41.25487],[1.248725,41.25487],[1.248754,41.254871],[1.248773,41.254872],[1.248819,41.254881],[1.248902,41.254907],[1.248959,41.254935],[1.249017,41.254957],[1.249103,41.255017],[1.249198,41.255181],[1.249268,41.255209],[1.249419,41.25529],[1.249614,41.255383],[1.249733,41.255394],[1.249747,41.255376],[1.249902,41.2552],[1.250039,41.255044],[1.250041,41.255042],[1.250155,41.254928],[1.250259,41.254823],[1.250265,41.254819],[1.250441,41.254687],[1.250446,41.254683],[1.250725,41.254504],[1.250979,41.25434],[1.251361,41.254078],[1.251516,41.253971],[1.251565,41.253971],[1.251611,41.253964],[1.251656,41.253923],[1.251655,41.25392],[1.251642,41.253858],[1.251508,41.253764],[1.251498,41.253757],[1.251844,41.253559],[1.25239,41.253996],[1.252662,41.253832],[1.252687,41.25384],[1.25271,41.253852],[1.252736,41.253873],[1.252753,41.253885],[1.252779,41.253891],[1.252813,41.253881],[1.252837,41.253871],[1.252938,41.253828],[1.252988,41.253806],[1.25304,41.253785],[1.253058,41.253778],[1.253073,41.253776],[1.253079,41.253776],[1.253099,41.253784],[1.253127,41.253792],[1.253162,41.253794],[1.253195,41.25379],[1.253219,41.253785],[1.253241,41.253774],[1.253223,41.25373],[1.253242,41.253691],[1.253176,41.25363],[1.253133,41.253577],[1.253015,41.253455],[1.252889,41.253325],[1.252821,41.253253],[1.252761,41.253193],[1.252633,41.253066],[1.252497,41.25293],[1.252381,41.252815],[1.252373,41.252807],[1.252243,41.252683],[1.252109,41.252556],[1.251972,41.252426],[1.251906,41.252364],[1.251878,41.252334],[1.251912,41.252157],[1.251953,41.25194],[1.251988,41.251761],[1.251966,41.251739],[1.25198,41.251743],[1.252022,41.25175],[1.252039,41.251745],[1.252056,41.251735],[1.252069,41.25172],[1.252074,41.251704],[1.252071,41.251687],[1.252053,41.251661],[1.251968,41.251614],[1.251937,41.251594],[1.251929,41.251589],[1.251898,41.251571],[1.251879,41.251567],[1.251869,41.251566],[1.251849,41.25156],[1.251831,41.251555],[1.251822,41.251552],[1.251569,41.251662],[1.251066,41.250941],[1.251065,41.250941]]]]}},{"type":"Feature","id":"431606_431606 AP07 ACA 1","properties":{"area_id":"431606_431606 AP07 ACA 1","nom":"els Pinars","codi_icgc":"431606 AP07 ACA 1","categoria":"Àrees de poblament","codi_municipi":"431606","municipi":"Vallmoll","codi_comarca":"01","comarca":"Alt Camp","provincia":"Tarragona","font":"ICGC Àrees de poblament v3r1 202602"},"geometry":{"type":"MultiPolygon","coordinates":[[[[1.268305,41.250791],[1.268135,41.25063],[1.267877,41.250392],[1.267621,41.250154],[1.267531,41.250068],[1.267495,41.250031],[1.267445,41.24998],[1.267269,41.249804],[1.267206,41.249749],[1.267138,41.249699],[1.267089,41.249667],[1.267044,41.249643],[1.266997,41.249622],[1.266904,41.249582],[1.266846,41.249552],[1.266787,41.249516],[1.26673,41.249477],[1.266696,41.24945],[1.266655,41.24941],[1.26664,41.249387],[1.266664,41.249378],[1.266706,41.249362],[1.266849,41.249309],[1.266993,41.249257],[1.267059,41.249232],[1.267124,41.249206],[1.26714,41.2492],[1.267156,41.249189],[1.267158,41.249175],[1.267158,41.249165],[1.267165,41.249103],[1.267174,41.249033],[1.267257,41.24904],[1.267268,41.248969],[1.267146,41.248958],[1.267173,41.248757],[1.26715,41.248723],[1.267163,41.248692],[1.26717,41.248661],[1.267188,41.248534],[1.267207,41.248408],[1.267236,41.248251],[1.26727,41.248095],[1.267326,41.247885],[1.267383,41.247676],[1.26739,41.247651],[1.267398,41.247621],[1.267413,41.247566],[1.267416,41.247536],[1.26741,41.247506],[1.267398,41.247486],[1.267377,41.247471],[1.267358,41.247462],[1.26729,41.247469],[1.267234,41.247492],[1.267078,41.247546],[1.266919,41.247595],[1.266812,41.247624],[1.266737,41.247642],[1.266662,41.24766],[1.266612,41.247674],[1.266578,41.247686],[1.266568,41.247689],[1.26655,41.247672],[1.266528,41.247651],[1.266479,41.247613],[1.266428,41.247577],[1.26636,41.247525],[1.266293,41.247473],[1.26623,41.247422],[1.266167,41.24737],[1.266141,41.24735],[1.266127,41.247341],[1.266109,41.247337],[1.266078,41.247346],[1.26605,41.247359],[1.266029,41.247369],[1.26597,41.247396],[1.265946,41.247377],[1.265828,41.247464],[1.265807,41.247478],[1.265569,41.247262],[1.265292,41.247448],[1.265043,41.247615],[1.26469,41.247852],[1.264686,41.247888],[1.264793,41.247932],[1.264922,41.247988],[1.264983,41.248019],[1.265039,41.248055],[1.265075,41.248085],[1.265109,41.248091],[1.265138,41.248092],[1.265169,41.248092],[1.266399,41.247757],[1.266631,41.248237],[1.266267,41.248351],[1.266079,41.248409],[1.265787,41.248506],[1.265683,41.248561],[1.265653,41.248589],[1.26562,41.248619],[1.265627,41.248626],[1.265664,41.248658],[1.265723,41.248702],[1.265757,41.248722],[1.265793,41.248739],[1.265886,41.248775],[1.265978,41.24881],[1.266094,41.248855],[1.266207,41.248903],[1.266251,41.248925],[1.266281,41.248944],[1.266321,41.248975],[1.266354,41.249011],[1.266398,41.249078],[1.26646,41.249181],[1.266523,41.249285],[1.26657,41.249356],[1.266624,41.249426],[1.266667,41.249468],[1.266704,41.249497],[1.266762,41.249537],[1.266824,41.249575],[1.266884,41.249606],[1.26691,41.249619],[1.266935,41.249632],[1.266965,41.24965],[1.266988,41.249665],[1.266996,41.249675],[1.266997,41.249685],[1.266997,41.249693],[1.266838,41.249776],[1.266826,41.249782],[1.266648,41.249866],[1.266443,41.249962],[1.266304,41.250028],[1.266295,41.250031],[1.266255,41.250051],[1.266073,41.250136],[1.266411,41.25063],[1.266447,41.250679],[1.266678,41.250587],[1.26703,41.250979],[1.267299,41.250907],[1.266929,41.250488],[1.267381,41.250309],[1.267827,41.25076],[1.268136,41.250679],[1.268276,41.250809],[1.268445,41.250971],[1.268473,41.250995],[1.26852,41.251028],[1.268528,41.251032],[1.268578,41.251057],[1.268632,41.251077],[1.268656,41.251084],[1.268045,41.25123],[1.268064,41.251253],[1.268172,41.251359],[1.268248,41.25143],[1.268374,41.251547],[1.268778,41.251924],[1.268769,41.251953],[1.268738,41.251979],[1.268678,41.252017],[1.268693,41.252031],[1.268719,41.252038],[1.268922,41.252234],[1.269011,41.25228],[1.269223,41.252389],[1.269482,41.252522],[1.269522,41.252542],[1.26955,41.252572],[1.269607,41.252668],[1.269768,41.252942],[1.26977,41.252948],[1.269844,41.253123],[1.269891,41.253282],[1.269964,41.253378],[1.270094,41.25343],[1.270172,41.253453],[1.270442,41.253516],[1.270651,41.253488],[1.27075,41.253479],[1.270763,41.253468],[1.270887,41.253373],[1.270943,41.25333],[1.270976,41.253307],[1.270969,41.253302],[1.270941,41.253285],[1.270922,41.253271],[1.270887,41.253244],[1.270817,41.253191],[1.270712,41.25311],[1.270659,41.253065],[1.270609,41.253018],[1.270564,41.252974],[1.27051,41.252923],[1.270422,41.252845],[1.270333,41.252768],[1.270217,41.25267],[1.270102,41.252573],[1.270022,41.2525],[1.269948,41.252423],[1.269902,41.25237],[1.269849,41.252307],[1.269796,41.252244],[1.269711,41.252137],[1.269556,41.251944],[1.269438,41.251795],[1.269433,41.251789],[1.269428,41.251783],[1.269403,41.251751],[1.269305,41.251621],[1.269302,41.251617],[1.269171,41.251434],[1.269038,41.251246],[1.268995,41.251193],[1.268946,41.251143],[1.268909,41.25111],[1.268882,41.251094],[1.268854,41.251081],[1.268796,41.251063],[1.268756,41.251055],[1.268692,41.251045],[1.268628,41.251038],[1.268591,41.251029],[1.268543,41.251005],[1.2685,41.250976],[1.268474,41.250953],[1.268305,41.250791]]]]}},{"type":"Feature","id":"431606_431606 AP03 ACA 3","properties":{"area_id":"431606_431606 AP03 ACA 3","nom":"les Planes","codi_icgc":"431606 AP03 ACA 3","categoria":"Àrees de poblament","codi_municipi":"431606","municipi":"Vallmoll","codi_comarca":"01","comarca":"Alt Camp","provincia":"Tarragona","font":"ICGC Àrees de poblament v3r1 202602"},"geometry":{"type":"MultiPolygon","coordinates":[[[[1.237716,41.239328],[1.237987,41.239185],[1.237952,41.23913],[1.237938,41.239085],[1.237925,41.239062],[1.237919,41.239011],[1.23789,41.238952],[1.237864,41.238896],[1.237989,41.23883],[1.237959,41.238805],[1.237726,41.238593],[1.237678,41.238616],[1.237607,41.238653],[1.237466,41.238725],[1.237331,41.238803],[1.237218,41.238864],[1.237119,41.238936],[1.2369,41.239084],[1.236815,41.23914],[1.236724,41.23908],[1.236652,41.23903],[1.236559,41.238975],[1.236459,41.238933],[1.236212,41.23886],[1.236036,41.238817],[1.235991,41.238856],[1.235944,41.238905],[1.235881,41.238973],[1.235867,41.239022],[1.235915,41.23904],[1.236021,41.239102],[1.236148,41.239193],[1.236269,41.239295],[1.236372,41.239409],[1.236017,41.239633],[1.235781,41.239766],[1.235756,41.239748],[1.235531,41.239598],[1.235321,41.239443],[1.235291,41.23948],[1.235239,41.23959],[1.235146,41.23974],[1.235101,41.23994],[1.23507,41.24008],[1.235053,41.240114],[1.235008,41.240206],[1.235329,41.240302],[1.235205,41.24051],[1.235243,41.240573],[1.235293,41.240695],[1.235354,41.240822],[1.23539,41.24089],[1.235496,41.241037],[1.235424,41.24107],[1.235428,41.241108],[1.235453,41.241186],[1.235328,41.241239],[1.235145,41.24132],[1.234991,41.241387],[1.234962,41.241401],[1.234923,41.241381],[1.234827,41.241291],[1.234739,41.241155],[1.234544,41.241038],[1.234464,41.241181],[1.23446,41.241193],[1.234428,41.241298],[1.234417,41.241399],[1.234435,41.241504],[1.234491,41.241637],[1.234508,41.241664],[1.234595,41.241798],[1.234645,41.241864],[1.234716,41.241958],[1.234822,41.242042],[1.234881,41.242076],[1.234929,41.242104],[1.235008,41.242144],[1.235077,41.242162],[1.235288,41.242242],[1.235387,41.242268],[1.235453,41.242274],[1.235526,41.242263],[1.235619,41.242236],[1.235716,41.242238],[1.235758,41.242234],[1.235818,41.242222],[1.235933,41.242205],[1.236049,41.242192],[1.23629,41.24216],[1.236366,41.24216],[1.236436,41.242173],[1.236487,41.242182],[1.236574,41.242201],[1.236658,41.242226],[1.236724,41.242245],[1.236817,41.242195],[1.236835,41.242184],[1.23702,41.242083],[1.237207,41.241983],[1.237414,41.241873],[1.237621,41.241764],[1.23784,41.241648],[1.23806,41.241534],[1.238261,41.241436],[1.238462,41.241336],[1.238687,41.241217],[1.238912,41.241097],[1.238992,41.241056],[1.239074,41.241015],[1.239123,41.240989],[1.239143,41.240981],[1.239095,41.240831],[1.239074,41.240765],[1.239027,41.240619],[1.238972,41.240455],[1.238919,41.240291],[1.238856,41.240081],[1.238792,41.239871],[1.238775,41.239821],[1.238707,41.239549],[1.238295,41.239741],[1.237972,41.239885],[1.237716,41.239328]]]]}}]}