{"type":"FeatureCollection","name":"ICGC Àrees de poblament - Vila-seca","features":[{"type":"Feature","id":"431711_431711 SI02 TAR 2","properties":{"area_id":"431711_431711 SI02 TAR 2","nom":"Gran Indústria","codi_icgc":"431711 SI02 TAR 2","categoria":"Sector industrial","codi_municipi":"431711","municipi":"Vila-seca","codi_comarca":"36","comarca":"Tarragonès","provincia":"Tarragona","font":"ICGC Àrees de poblament v3r1 202602"},"geometry":{"type":"MultiPolygon","coordinates":[[[[1.172411,41.097597],[1.172229,41.09771],[1.171858,41.097496],[1.171452,41.097273],[1.171209,41.097147],[1.171113,41.097103],[1.170962,41.097198],[1.170808,41.097291],[1.170632,41.097386],[1.170377,41.0975],[1.170029,41.097607],[1.169256,41.097748],[1.169053,41.09779],[1.169784,41.098614],[1.169903,41.098748],[1.1702,41.098614],[1.170377,41.098547],[1.170507,41.098499],[1.170594,41.098479],[1.170674,41.09847],[1.170802,41.098468],[1.170895,41.098464],[1.170965,41.098449],[1.171378,41.098288],[1.171481,41.09825],[1.171598,41.098198],[1.171717,41.09814],[1.17197,41.098],[1.172179,41.097884],[1.172243,41.09785],[1.172321,41.097822],[1.172435,41.097783],[1.172503,41.097762],[1.17257,41.097739],[1.172664,41.097726],[1.172798,41.097707],[1.172927,41.097697],[1.173138,41.097681],[1.173352,41.097664],[1.173633,41.097638],[1.173725,41.097623],[1.173819,41.097604],[1.173986,41.097551],[1.174148,41.097503],[1.174206,41.097482],[1.174243,41.097477],[1.174301,41.097484],[1.174411,41.097511],[1.174617,41.097569],[1.174874,41.097651],[1.175068,41.097703],[1.175354,41.097779],[1.175576,41.097833],[1.175738,41.097886],[1.175886,41.097935],[1.176046,41.097997],[1.176346,41.098118],[1.176624,41.098235],[1.176827,41.098324],[1.17712,41.098444],[1.177379,41.098536],[1.177599,41.098622],[1.177829,41.098719],[1.178185,41.098871],[1.178471,41.098991],[1.178856,41.099141],[1.179079,41.099232],[1.17927,41.099297],[1.179338,41.099311],[1.1794,41.099324],[1.179449,41.099321],[1.179506,41.099309],[1.179552,41.099292],[1.179609,41.099259],[1.179673,41.099219],[1.179745,41.099169],[1.179812,41.099118],[1.179888,41.099057],[1.179984,41.098979],[1.180071,41.098912],[1.18021,41.098798],[1.180347,41.09868],[1.180524,41.098532],[1.180693,41.098387],[1.181184,41.097964],[1.181509,41.097685],[1.181694,41.097546],[1.181744,41.097505],[1.181739,41.097503],[1.181751,41.097494],[1.181523,41.097348],[1.177127,41.094544],[1.176344,41.095277],[1.174495,41.094226],[1.173955,41.094507],[1.173643,41.094718],[1.173293,41.094966],[1.173083,41.095159],[1.1729,41.095347],[1.172609,41.095634],[1.172381,41.095905],[1.172303,41.096034],[1.172277,41.09612],[1.172247,41.096319],[1.172681,41.096577],[1.173154,41.096855],[1.172411,41.097597]]],[[[1.159223,41.10559],[1.159772,41.104943],[1.159996,41.105045],[1.161079,41.105548],[1.161107,41.105559],[1.162502,41.106071],[1.163713,41.106448],[1.163492,41.106872],[1.163321,41.107618],[1.164546,41.107796],[1.164404,41.108576],[1.16493,41.108621],[1.165565,41.107024],[1.165597,41.106945],[1.1656,41.106937],[1.166656,41.104283],[1.166678,41.104228],[1.166766,41.104005],[1.166811,41.103893],[1.166811,41.103893],[1.166816,41.10388],[1.166467,41.103861],[1.165944,41.103812],[1.165168,41.103739],[1.165644,41.102755],[1.165068,41.102543],[1.163561,41.102404],[1.163478,41.102397],[1.163394,41.102791],[1.163299,41.103424],[1.161241,41.10319],[1.160255,41.102978],[1.158394,41.104052],[1.158397,41.104128],[1.15841,41.104204],[1.158432,41.104278],[1.158461,41.104351],[1.158584,41.104406],[1.158083,41.105061],[1.157885,41.105276],[1.158314,41.105469],[1.159071,41.105795],[1.159223,41.10559]]]]}},{"type":"Feature","id":"431711_431711 SI05 TAR 2","properties":{"area_id":"431711_431711 SI05 TAR 2","nom":"Parc Tecnològic i de Serveis L'Alba","codi_icgc":"431711 SI05 TAR 2","categoria":"Sector industrial","codi_municipi":"431711","municipi":"Vila-seca","codi_comarca":"36","comarca":"Tarragonès","provincia":"Tarragona","font":"ICGC Àrees de poblament v3r1 202602"},"geometry":{"type":"MultiPolygon","coordinates":[[[[1.152711,41.119691],[1.150928,41.118548],[1.150902,41.118454],[1.151122,41.118358],[1.152551,41.117952],[1.154239,41.119194],[1.15538,41.118175],[1.155833,41.117585],[1.156049,41.117317],[1.156373,41.117039],[1.156891,41.116562],[1.157478,41.11591],[1.157524,41.115854],[1.157531,41.115846],[1.157283,41.114964],[1.157206,41.114797],[1.157057,41.114037],[1.157034,41.113997],[1.157007,41.113959],[1.156976,41.113922],[1.156936,41.113884],[1.156891,41.113849],[1.156843,41.113818],[1.15679,41.11379],[1.156208,41.113791],[1.156172,41.113826],[1.156132,41.113857],[1.156088,41.113886],[1.156041,41.113911],[1.155984,41.113928],[1.155924,41.113941],[1.155863,41.113949],[1.155801,41.113951],[1.15574,41.113948],[1.155689,41.113942],[1.15564,41.113932],[1.155592,41.113918],[1.155528,41.113894],[1.155479,41.11387],[1.155434,41.113842],[1.155393,41.11381],[1.155357,41.113775],[1.155326,41.113738],[1.1552,41.113731],[1.155118,41.113727],[1.150749,41.113632],[1.150644,41.113629],[1.150132,41.114061],[1.149753,41.113827],[1.147073,41.11623],[1.146166,41.117046],[1.145471,41.117706],[1.145183,41.11798],[1.145145,41.118015],[1.145114,41.118055],[1.14509,41.118097],[1.145073,41.118142],[1.145064,41.118187],[1.145063,41.118227],[1.14507,41.118273],[1.145084,41.118319],[1.145107,41.118363],[1.145137,41.118404],[1.145169,41.118437],[1.145205,41.118466],[1.145245,41.118492],[1.145289,41.118514],[1.145337,41.118533],[1.1454,41.118574],[1.146348,41.119159],[1.146352,41.119206],[1.146365,41.119252],[1.146387,41.119297],[1.146416,41.119338],[1.146454,41.119376],[1.146498,41.119409],[1.146548,41.119437],[1.146603,41.11946],[1.146662,41.119476],[1.146723,41.119485],[1.146785,41.119488],[1.147369,41.120212],[1.147422,41.120292],[1.147776,41.120697],[1.148212,41.121134],[1.148644,41.121547],[1.149065,41.121947],[1.149527,41.122385],[1.14956,41.12239],[1.149698,41.122386],[1.150504,41.121632],[1.148908,41.120621],[1.149966,41.119633],[1.150054,41.119577],[1.15009,41.119564],[1.150139,41.119559],[1.150199,41.11958],[1.15033,41.119656],[1.152358,41.120917],[1.152448,41.12096],[1.152523,41.120957],[1.152595,41.120921],[1.152761,41.120752],[1.153294,41.120249],[1.153326,41.120208],[1.153328,41.120151],[1.153293,41.120064],[1.153211,41.119992],[1.152874,41.119795],[1.152711,41.119691]]]]}},{"type":"Feature","id":"431711_431711 SI01 TAR 2","properties":{"area_id":"431711_431711 SI01 TAR 2","nom":"Polígon Creu de la Beguda","codi_icgc":"431711 SI01 TAR 2","categoria":"Sector industrial","codi_municipi":"431711","municipi":"Vila-seca","codi_comarca":"36","comarca":"Tarragonès","provincia":"Tarragona","font":"ICGC Àrees de poblament v3r1 202602"},"geometry":{"type":"MultiPolygon","coordinates":[[[[1.152176,41.107539],[1.15273,41.107218],[1.15282,41.107301],[1.153502,41.106909],[1.153187,41.106601],[1.15317,41.106591],[1.153085,41.106576],[1.152998,41.106568],[1.15291,41.106566],[1.152822,41.106571],[1.152735,41.106582],[1.152651,41.1066],[1.152592,41.106634],[1.150914,41.107584],[1.150711,41.107696],[1.15018,41.108042],[1.150036,41.108137],[1.149967,41.108188],[1.149963,41.108191],[1.149959,41.108195],[1.149956,41.108198],[1.149952,41.1082],[1.149949,41.108204],[1.149947,41.108206],[1.149944,41.10821],[1.149941,41.108213],[1.149939,41.108216],[1.149937,41.108219],[1.149935,41.108223],[1.149933,41.108226],[1.149931,41.10823],[1.14993,41.108233],[1.149928,41.108237],[1.149927,41.10824],[1.149926,41.108244],[1.149925,41.108248],[1.149924,41.108251],[1.149923,41.108255],[1.149923,41.108259],[1.149923,41.108262],[1.149923,41.108266],[1.149923,41.10827],[1.149923,41.108273],[1.149923,41.108277],[1.149924,41.108281],[1.149925,41.108285],[1.149926,41.108289],[1.149927,41.108292],[1.149928,41.108296],[1.149929,41.108299],[1.149931,41.108303],[1.149933,41.108306],[1.149935,41.10831],[1.149936,41.108313],[1.149939,41.108317],[1.149941,41.10832],[1.149944,41.108324],[1.149946,41.108326],[1.14995,41.10833],[1.149952,41.108332],[1.149958,41.108338],[1.149965,41.108343],[1.149972,41.108348],[1.14998,41.108353],[1.149988,41.108357],[1.149996,41.108361],[1.150005,41.108365],[1.150014,41.108367],[1.151155,41.108698],[1.152288,41.109027],[1.152605,41.109118],[1.152877,41.109196],[1.153414,41.108722],[1.152966,41.108499],[1.152286,41.108345],[1.152772,41.107973],[1.152176,41.107539]]]]}},{"type":"Feature","id":"431711_431711 SI06 TAR 2","properties":{"area_id":"431711_431711 SI06 TAR 2","nom":"Polígon Industrial l'Estació (U.A.VI-25)","codi_icgc":"431711 SI06 TAR 2","categoria":"Sector industrial","codi_municipi":"431711","municipi":"Vila-seca","codi_comarca":"36","comarca":"Tarragonès","provincia":"Tarragona","font":"ICGC Àrees de poblament v3r1 202602"},"geometry":{"type":"MultiPolygon","coordinates":[[[[1.152151,41.112593],[1.152138,41.112596],[1.152099,41.112609],[1.151932,41.112662],[1.151831,41.112698],[1.15173,41.112738],[1.151616,41.112786],[1.151598,41.112794],[1.151551,41.112818],[1.151365,41.112916],[1.15115,41.113029],[1.150808,41.113208],[1.15067,41.113283],[1.150646,41.113293],[1.150626,41.113307],[1.150607,41.113323],[1.150593,41.113342],[1.150583,41.113363],[1.150577,41.113384],[1.150577,41.113406],[1.150582,41.113427],[1.150591,41.113448],[1.150605,41.113467],[1.150623,41.113484],[1.150645,41.113498],[1.150875,41.113509],[1.154798,41.113584],[1.155408,41.113607],[1.155413,41.113601],[1.15543,41.113563],[1.155454,41.113528],[1.155482,41.113494],[1.155516,41.113464],[1.155555,41.113437],[1.155452,41.113326],[1.155291,41.113139],[1.155024,41.112741],[1.154877,41.112432],[1.15472,41.112428],[1.15398,41.11238],[1.153987,41.112273],[1.15385,41.112271],[1.153843,41.112356],[1.153716,41.112353],[1.153588,41.112353],[1.153461,41.112356],[1.153346,41.112362],[1.153232,41.11237],[1.153184,41.112375],[1.153004,41.112396],[1.152825,41.112424],[1.152649,41.112459],[1.152475,41.1125],[1.152151,41.112593]]]]}},{"type":"Feature","id":"431711_431711 SI07 TAR 2","properties":{"area_id":"431711_431711 SI07 TAR 2","nom":"Polígon industrial Taqsa","codi_icgc":"431711 SI07 TAR 2","categoria":"Sector industrial","codi_municipi":"431711","municipi":"Vila-seca","codi_comarca":"36","comarca":"Tarragonès","provincia":"Tarragona","font":"ICGC Àrees de poblament v3r1 202602"},"geometry":{"type":"MultiPolygon","coordinates":[[[[1.16031,41.112711],[1.161197,41.111937],[1.16144,41.111725],[1.160189,41.111777],[1.160126,41.112695],[1.159342,41.112675],[1.159244,41.113628],[1.159524,41.113648],[1.159863,41.113244],[1.16031,41.112711]]]]}},{"type":"Feature","id":"431711_431711 AP04 TAR 2","properties":{"area_id":"431711_431711 AP04 TAR 2","nom":"Porta del Mar","codi_icgc":"431711 AP04 TAR 2","categoria":"Àrees de poblament","codi_municipi":"431711","municipi":"Vila-seca","codi_comarca":"36","comarca":"Tarragonès","provincia":"Tarragona","font":"ICGC Àrees de poblament v3r1 202602"},"geometry":{"type":"MultiPolygon","coordinates":[[[[1.186434,41.084305],[1.184317,41.086556],[1.184627,41.086807],[1.185154,41.087237],[1.18524,41.08714],[1.185309,41.087182],[1.185359,41.087222],[1.185498,41.087331],[1.185145,41.087674],[1.184954,41.087862],[1.185325,41.088089],[1.1855,41.087879],[1.185857,41.087519],[1.18632,41.086985],[1.187048,41.086229],[1.188221,41.085043],[1.188246,41.085017],[1.188072,41.084953],[1.188088,41.08493],[1.18809,41.084926],[1.188077,41.08492],[1.187722,41.084773],[1.187636,41.084743],[1.18753,41.084704],[1.18719,41.084579],[1.187065,41.08453],[1.186878,41.084457],[1.186469,41.084316],[1.186434,41.084305]]]]}},{"type":"Feature","id":"431711_431711 SI04 TAR 2","properties":{"area_id":"431711_431711 SI04 TAR 2","nom":"Repsol Petróleo, SA","codi_icgc":"431711 SI04 TAR 2","categoria":"Sector industrial","codi_municipi":"431711","municipi":"Vila-seca","codi_comarca":"36","comarca":"Tarragonès","provincia":"Tarragona","font":"ICGC Àrees de poblament v3r1 202602"},"geometry":{"type":"MultiPolygon","coordinates":[[[[1.19682,41.093411],[1.196599,41.093366],[1.196349,41.093315],[1.196048,41.093221],[1.195826,41.093128],[1.195624,41.09302],[1.195513,41.093111],[1.194256,41.094105],[1.193181,41.09495],[1.193649,41.095286],[1.194135,41.095634],[1.194739,41.095134],[1.196757,41.093464],[1.19682,41.093411]]]]}},{"type":"Feature","id":"431711_431711 SI10 TAR 2","properties":{"area_id":"431711_431711 SI10 TAR 2","nom":"Sumbisa Bidones SL","codi_icgc":"431711 SI10 TAR 2","categoria":"Sector industrial","codi_municipi":"431711","municipi":"Vila-seca","codi_comarca":"36","comarca":"Tarragonès","provincia":"Tarragona","font":"ICGC Àrees de poblament v3r1 202602"},"geometry":{"type":"MultiPolygon","coordinates":[[[[1.09417,41.092388],[1.094143,41.092385],[1.094133,41.092386],[1.094102,41.092387],[1.094061,41.092396],[1.094018,41.092411],[1.094012,41.09243],[1.094,41.092525],[1.093975,41.092639],[1.093973,41.092758],[1.093975,41.092764],[1.094731,41.095725],[1.094737,41.095729],[1.094753,41.095739],[1.094995,41.095893],[1.095232,41.096038],[1.095263,41.096045],[1.095296,41.096048],[1.095328,41.096047],[1.09536,41.096043],[1.095391,41.096035],[1.09542,41.096024],[1.095446,41.096009],[1.095469,41.095992],[1.095498,41.095926],[1.095501,41.095915],[1.095512,41.095883],[1.095529,41.095837],[1.095547,41.09579],[1.095567,41.095727],[1.095588,41.095666],[1.095603,41.095633],[1.095612,41.095595],[1.095597,41.095582],[1.095604,41.095562],[1.095649,41.095434],[1.095719,41.095069],[1.095723,41.095044],[1.095725,41.095012],[1.095723,41.09498],[1.095712,41.094919],[1.095698,41.094858],[1.095678,41.094799],[1.095645,41.094718],[1.095607,41.094639],[1.095571,41.094574],[1.095537,41.094511],[1.095524,41.094472],[1.095514,41.09443],[1.095514,41.094427],[1.095503,41.094345],[1.095494,41.094223],[1.095486,41.094101],[1.095477,41.093944],[1.095476,41.093927],[1.095467,41.093753],[1.095464,41.093671],[1.095465,41.093616],[1.095465,41.09359],[1.095483,41.093457],[1.095598,41.093059],[1.095668,41.092842],[1.095619,41.092829],[1.0956,41.092824],[1.095479,41.092792],[1.095363,41.092755],[1.095218,41.092715],[1.09507,41.092678],[1.094945,41.092654],[1.094848,41.092635],[1.09482,41.09263],[1.094722,41.092608],[1.094675,41.092593],[1.09463,41.092576],[1.094564,41.092543],[1.094499,41.09251],[1.094434,41.092478],[1.094367,41.092447],[1.09432,41.092428],[1.094263,41.09241],[1.094245,41.092405],[1.09417,41.092388]]]]}},{"type":"Feature","id":"431711_431711 AP01 TAR 3","properties":{"area_id":"431711_431711 AP01 TAR 3","nom":"Vila-seca","codi_icgc":"431711 AP01 TAR 3","categoria":"Àrees de poblament","codi_municipi":"431711","municipi":"Vila-seca","codi_comarca":"36","comarca":"Tarragonès","provincia":"Tarragona","font":"ICGC Àrees de poblament v3r1 202602"},"geometry":{"type":"MultiPolygon","coordinates":[[[[1.144082,41.115756],[1.144143,41.115824],[1.144733,41.116155],[1.145124,41.116374],[1.145205,41.116394],[1.145268,41.116388],[1.145303,41.116379],[1.145783,41.11591],[1.146135,41.11557],[1.146228,41.115477],[1.146516,41.115192],[1.146562,41.115147],[1.147043,41.114659],[1.147716,41.115026],[1.147759,41.114982],[1.147767,41.114986],[1.14802,41.114754],[1.148419,41.114414],[1.148807,41.114082],[1.149162,41.113793],[1.149308,41.113683],[1.149267,41.113657],[1.149264,41.113647],[1.149643,41.113389],[1.149813,41.113272],[1.150311,41.11294],[1.150286,41.112925],[1.150434,41.112834],[1.150709,41.112672],[1.150731,41.112689],[1.151127,41.112507],[1.151586,41.112316],[1.151952,41.112177],[1.152201,41.111976],[1.152757,41.111831],[1.152881,41.111642],[1.152948,41.111626],[1.152959,41.111667],[1.1542,41.111502],[1.154201,41.111485],[1.154314,41.111421],[1.15433,41.111387],[1.154355,41.111333],[1.154351,41.111271],[1.154343,41.111248],[1.154554,41.111188],[1.154588,41.111105],[1.154538,41.110908],[1.154519,41.110753],[1.154467,41.110602],[1.154548,41.11054],[1.15461,41.110491],[1.154582,41.110431],[1.154547,41.110368],[1.154514,41.110314],[1.154491,41.110278],[1.154445,41.110214],[1.15441,41.110168],[1.154372,41.110123],[1.154331,41.110078],[1.154287,41.110032],[1.154256,41.110001],[1.154205,41.109954],[1.15415,41.109905],[1.154093,41.109858],[1.154052,41.109826],[1.154005,41.109791],[1.15406,41.109747],[1.154058,41.109745],[1.153884,41.109554],[1.153559,41.109483],[1.153443,41.109455],[1.153329,41.109424],[1.153223,41.109395],[1.153118,41.109362],[1.152988,41.109326],[1.152969,41.10932],[1.150686,41.108705],[1.150114,41.108534],[1.149936,41.108496],[1.149667,41.108423],[1.149473,41.108375],[1.149467,41.108362],[1.149467,41.108343],[1.149515,41.108313],[1.149743,41.108168],[1.150316,41.107846],[1.152678,41.106519],[1.152778,41.106462],[1.152765,41.106443],[1.152756,41.106422],[1.152751,41.1064],[1.152752,41.106378],[1.152757,41.106356],[1.152767,41.106336],[1.152781,41.106317],[1.152799,41.1063],[1.152821,41.106285],[1.152846,41.106273],[1.152872,41.106265],[1.152901,41.10626],[1.15293,41.106258],[1.152958,41.106261],[1.152986,41.106266],[1.153013,41.106275],[1.153037,41.106288],[1.153058,41.106303],[1.153492,41.106056],[1.153308,41.105869],[1.152993,41.105584],[1.152671,41.105352],[1.152647,41.105332],[1.152628,41.105316],[1.152642,41.105278],[1.152254,41.105028],[1.152022,41.104944],[1.151633,41.104769],[1.151281,41.104619],[1.150756,41.104477],[1.150555,41.104883],[1.150494,41.104877],[1.150486,41.104877],[1.150461,41.104862],[1.150409,41.104823],[1.150369,41.104789],[1.150333,41.10477],[1.150322,41.104764],[1.150281,41.104759],[1.150203,41.104753],[1.150181,41.104756],[1.150136,41.104764],[1.150073,41.104777],[1.150032,41.104783],[1.149983,41.104773],[1.149975,41.104773],[1.149844,41.104726],[1.149062,41.104496],[1.148169,41.104249],[1.147778,41.10417],[1.147522,41.104134],[1.147378,41.10412],[1.147214,41.104105],[1.14692,41.104096],[1.146653,41.104108],[1.146414,41.104124],[1.146077,41.104163],[1.145855,41.104208],[1.145492,41.104312],[1.145251,41.104391],[1.145223,41.104368],[1.145209,41.104358],[1.145194,41.104348],[1.145178,41.104339],[1.145162,41.104331],[1.145145,41.104323],[1.145127,41.104316],[1.145109,41.104311],[1.14509,41.104306],[1.145071,41.104302],[1.145052,41.104299],[1.145032,41.104297],[1.145013,41.104295],[1.144993,41.104295],[1.144973,41.104296],[1.144953,41.104298],[1.144934,41.1043],[1.144915,41.104304],[1.144896,41.104308],[1.144878,41.104314],[1.144859,41.10432],[1.144842,41.104327],[1.144825,41.104335],[1.144809,41.104343],[1.144794,41.104353],[1.144779,41.104363],[1.144766,41.104374],[1.144753,41.104385],[1.144741,41.104397],[1.144731,41.10441],[1.144721,41.104423],[1.144712,41.104437],[1.144705,41.10445],[1.144699,41.104465],[1.144694,41.104479],[1.14469,41.104494],[1.144688,41.104509],[1.144687,41.104523],[1.144687,41.104539],[1.144688,41.104553],[1.144691,41.104568],[1.144699,41.104603],[1.142142,41.105937],[1.141711,41.106161],[1.140618,41.106731],[1.140154,41.107078],[1.139965,41.107271],[1.139761,41.107283],[1.139681,41.107303],[1.139613,41.107332],[1.139565,41.107365],[1.139519,41.107406],[1.139485,41.10745],[1.139463,41.107503],[1.139458,41.107587],[1.139469,41.107628],[1.139261,41.107554],[1.138755,41.108303],[1.139367,41.109072],[1.139426,41.109125],[1.139679,41.110057],[1.139692,41.110165],[1.139627,41.110241],[1.135509,41.111825],[1.135312,41.111845],[1.13525,41.111831],[1.135052,41.111902],[1.135737,41.112153],[1.135811,41.11218],[1.135607,41.112271],[1.135282,41.11253],[1.135172,41.112619],[1.13486,41.112521],[1.134224,41.113614],[1.134228,41.113693],[1.134304,41.113794],[1.134415,41.113868],[1.134549,41.113939],[1.134677,41.11397],[1.134787,41.113988],[1.13491,41.113985],[1.135043,41.113954],[1.135123,41.113908],[1.135188,41.113852],[1.135266,41.113743],[1.135312,41.11368],[1.135412,41.113505],[1.135974,41.113902],[1.136572,41.1135],[1.136592,41.113485],[1.136921,41.113695],[1.137205,41.113875],[1.137613,41.114138],[1.137972,41.11437],[1.138025,41.114414],[1.138185,41.114328],[1.138264,41.114294],[1.138624,41.11415],[1.138956,41.114029],[1.139051,41.113992],[1.139341,41.113909],[1.139404,41.113905],[1.139525,41.113857],[1.139766,41.113753],[1.139822,41.113731],[1.140306,41.114115],[1.140494,41.11404],[1.140599,41.113972],[1.140599,41.113972],[1.140608,41.113934],[1.140626,41.113878],[1.140649,41.113822],[1.140695,41.113729],[1.140743,41.113637],[1.140782,41.113564],[1.140822,41.113493],[1.140852,41.113441],[1.140889,41.11339],[1.14091,41.113371],[1.140936,41.113355],[1.140964,41.113342],[1.140971,41.113332],[1.140971,41.113321],[1.140972,41.113298],[1.140836,41.113092],[1.140945,41.113043],[1.141165,41.112945],[1.141513,41.11276],[1.141666,41.112648],[1.141846,41.112505],[1.142174,41.112807],[1.142185,41.112816],[1.142214,41.112807],[1.142234,41.112803],[1.142253,41.112803],[1.142275,41.112804],[1.142284,41.112808],[1.14229,41.11281],[1.1423,41.112818],[1.142311,41.112828],[1.142519,41.113016],[1.143101,41.113541],[1.143183,41.113616],[1.143257,41.113686],[1.143235,41.113697],[1.143381,41.11384],[1.143447,41.113901],[1.143586,41.11402],[1.143663,41.114093],[1.143914,41.114327],[1.144533,41.114737],[1.144595,41.114778],[1.144152,41.115193],[1.144115,41.115232],[1.143905,41.115074],[1.143261,41.114654],[1.142827,41.114408],[1.142443,41.114621],[1.142385,41.114678],[1.142482,41.114798],[1.142547,41.114742],[1.143461,41.115396],[1.144082,41.115756]]]]}},{"type":"Feature","id":"431711_431711 SI03 TAR 2","properties":{"area_id":"431711_431711 SI03 TAR 2","nom":"Zona d'Activitats Logítiques. Port de Tarragona","codi_icgc":"431711 SI03 TAR 2","categoria":"Sector industrial","codi_municipi":"431711","municipi":"Vila-seca","codi_comarca":"36","comarca":"Tarragonès","provincia":"Tarragona","font":"ICGC Àrees de poblament v3r1 202602"},"geometry":{"type":"MultiPolygon","coordinates":[[[[1.190149,41.091995],[1.190065,41.092047],[1.189983,41.092101],[1.189184,41.091699],[1.189102,41.091757],[1.189004,41.091826],[1.187356,41.093443],[1.189154,41.09564],[1.189172,41.095655],[1.191278,41.094036],[1.191611,41.093776],[1.191803,41.09391],[1.19183,41.093961],[1.191828,41.094018],[1.19181,41.094065],[1.191818,41.094066],[1.191951,41.094182],[1.192726,41.093599],[1.193151,41.093715],[1.193573,41.093026],[1.194082,41.092857],[1.19455,41.092769],[1.194802,41.092441],[1.194693,41.092336],[1.194576,41.092235],[1.194453,41.092138],[1.194323,41.092047],[1.194187,41.091961],[1.194046,41.09188],[1.193899,41.091804],[1.193747,41.091735],[1.193591,41.091672],[1.19343,41.091614],[1.193266,41.091563],[1.193099,41.091519],[1.19293,41.09149],[1.192759,41.091467],[1.192586,41.091451],[1.192413,41.091441],[1.19224,41.091438],[1.192066,41.091442],[1.191893,41.091453],[1.191721,41.09147],[1.19155,41.091495],[1.191381,41.091525],[1.191215,41.091562],[1.191051,41.091606],[1.19089,41.091656],[1.190733,41.091712],[1.19058,41.091774],[1.190431,41.091842],[1.190287,41.091916],[1.190149,41.091995]]]]}},{"type":"Feature","id":"431711_431711 SI08 TAR 2","properties":{"area_id":"431711_431711 SI08 TAR 2","nom":"fàbrica de pinsos","codi_icgc":"431711 SI08 TAR 2","categoria":"Sector industrial","codi_municipi":"431711","municipi":"Vila-seca","codi_comarca":"36","comarca":"Tarragonès","provincia":"Tarragona","font":"ICGC Àrees de poblament v3r1 202602"},"geometry":{"type":"MultiPolygon","coordinates":[[[[1.127831,41.112891],[1.127829,41.112843],[1.127767,41.111342],[1.127755,41.110979],[1.127752,41.110884],[1.127746,41.110721],[1.127104,41.110802],[1.127112,41.11094],[1.127148,41.111571],[1.127182,41.112394],[1.127202,41.112926],[1.127208,41.113046],[1.127229,41.113502],[1.127806,41.113573],[1.127856,41.113572],[1.127831,41.112891]]]]}},{"type":"Feature","id":"431711_431711 SI09 TAR 2","properties":{"area_id":"431711_431711 SI09 TAR 2","nom":"fàbrica de tubs","codi_icgc":"431711 SI09 TAR 2","categoria":"Sector industrial","codi_municipi":"431711","municipi":"Vila-seca","codi_comarca":"36","comarca":"Tarragonès","provincia":"Tarragona","font":"ICGC Àrees de poblament v3r1 202602"},"geometry":{"type":"MultiPolygon","coordinates":[[[[1.136955,41.106607],[1.136634,41.106581],[1.136408,41.106658],[1.136357,41.106684],[1.137114,41.107324],[1.137114,41.107324],[1.137458,41.107613],[1.137928,41.107315],[1.137421,41.10681],[1.137313,41.10673],[1.136955,41.106607]]]]}},{"type":"Feature","id":"431711_431711 AP03 TAR 3","properties":{"area_id":"431711_431711 AP03 TAR 3","nom":"la Pineda","codi_icgc":"431711 AP03 TAR 3","categoria":"Àrees de poblament","codi_municipi":"431711","municipi":"Vila-seca","codi_comarca":"36","comarca":"Tarragonès","provincia":"Tarragona","font":"ICGC Àrees de poblament v3r1 202602"},"geometry":{"type":"MultiPolygon","coordinates":[[[[1.180386,41.073288],[1.179352,41.071203],[1.178657,41.069807],[1.178018,41.068516],[1.17799,41.068128],[1.178049,41.067694],[1.17812,41.067099],[1.178312,41.066897],[1.178543,41.066561],[1.178812,41.066213],[1.17876,41.066123],[1.178731,41.066078],[1.178669,41.065972],[1.178324,41.065922],[1.17828,41.065915],[1.177482,41.065917],[1.17726,41.065928],[1.176619,41.066061],[1.176153,41.066164],[1.17589,41.066275],[1.175751,41.066377],[1.175471,41.066656],[1.175282,41.066874],[1.175036,41.067173],[1.174932,41.067346],[1.174812,41.067582],[1.174714,41.068045],[1.174609,41.068797],[1.174384,41.069755],[1.174315,41.070347],[1.174248,41.07074],[1.174248,41.070897],[1.17422,41.071244],[1.174217,41.071512],[1.174238,41.071605],[1.174269,41.071842],[1.174276,41.07206],[1.174247,41.072256],[1.174099,41.073036],[1.173953,41.073633],[1.173859,41.074027],[1.173783,41.074382],[1.173995,41.074444],[1.174658,41.074657],[1.175096,41.074789],[1.175716,41.074841],[1.175778,41.074878],[1.175832,41.074926],[1.175948,41.075005],[1.176041,41.075061],[1.176229,41.075087],[1.176451,41.075049],[1.176544,41.075104],[1.17712,41.076127],[1.177232,41.076375],[1.177185,41.076407],[1.176476,41.076762],[1.176384,41.076808],[1.176394,41.076833],[1.176632,41.077436],[1.176765,41.077774],[1.176775,41.077778],[1.177135,41.078721],[1.177282,41.078723],[1.17728,41.078718],[1.177575,41.078536],[1.178129,41.078193],[1.17824,41.078124],[1.17825,41.078119],[1.178259,41.078115],[1.178268,41.078113],[1.178285,41.078114],[1.1783,41.078121],[1.178334,41.07815],[1.178361,41.07818],[1.17847,41.078284],[1.178557,41.078383],[1.17883,41.078692],[1.178936,41.078812],[1.178265,41.079274],[1.178226,41.079292],[1.177268,41.079731],[1.177406,41.080212],[1.17746,41.080285],[1.177603,41.080237],[1.177896,41.080704],[1.177778,41.080816],[1.17803,41.080916],[1.17805,41.080911],[1.178076,41.08092],[1.178172,41.080956],[1.178286,41.081018],[1.178452,41.081109],[1.178777,41.081279],[1.179062,41.081423],[1.179107,41.081445],[1.17924,41.081528],[1.179379,41.081623],[1.179514,41.081721],[1.179643,41.081823],[1.179766,41.08193],[1.179884,41.08204],[1.179996,41.082153],[1.180486,41.082668],[1.180497,41.08268],[1.181099,41.083321],[1.181369,41.083582],[1.1817,41.083912],[1.182154,41.084329],[1.182313,41.084487],[1.182426,41.084587],[1.182578,41.084575],[1.182673,41.084562],[1.182806,41.084536],[1.182875,41.084437],[1.182997,41.08446],[1.182985,41.084538],[1.18304,41.084596],[1.183115,41.084619],[1.183211,41.084563],[1.183251,41.084485],[1.183525,41.084146],[1.183598,41.083897],[1.183703,41.083849],[1.184113,41.083398],[1.184224,41.083485],[1.184316,41.083471],[1.184792,41.083773],[1.18503,41.083907],[1.185267,41.083979],[1.185381,41.083953],[1.185529,41.083834],[1.185565,41.083791],[1.185624,41.08372],[1.185918,41.083366],[1.186084,41.083167],[1.18611,41.083136],[1.186116,41.083128],[1.186144,41.083097],[1.186587,41.082619],[1.186689,41.082509],[1.18674,41.082477],[1.186774,41.082444],[1.186754,41.082428],[1.186124,41.081609],[1.185828,41.081147],[1.185676,41.080846],[1.185452,41.080478],[1.185382,41.080364],[1.185359,41.080326],[1.185216,41.080092],[1.184871,41.079689],[1.184635,41.079399],[1.184604,41.079334],[1.184576,41.079278],[1.18453,41.07927],[1.184482,41.079262],[1.18442,41.079232],[1.184377,41.079174],[1.184384,41.079119],[1.184395,41.079099],[1.184415,41.079053],[1.184419,41.079046],[1.184359,41.078968],[1.184335,41.078939],[1.184315,41.078911],[1.184212,41.078868],[1.184206,41.07886],[1.184138,41.07882],[1.184128,41.078814],[1.184122,41.07881],[1.18411,41.078837],[1.184071,41.078865],[1.184026,41.078872],[1.18402,41.078873],[1.184017,41.078871],[1.183977,41.078849],[1.183953,41.07882],[1.183949,41.0788],[1.183949,41.078792],[1.183952,41.07878],[1.183955,41.078766],[1.18396,41.078753],[1.18396,41.078743],[1.183957,41.078643],[1.183954,41.078602],[1.18395,41.078533],[1.183872,41.078435],[1.183807,41.078388],[1.183772,41.078374],[1.183689,41.078338],[1.183667,41.078332],[1.183645,41.078324],[1.183641,41.078323],[1.183601,41.078304],[1.183592,41.078286],[1.183575,41.078257],[1.183574,41.078254],[1.183559,41.078227],[1.183556,41.078204],[1.183537,41.078103],[1.183536,41.078085],[1.183534,41.078023],[1.183534,41.078017],[1.183455,41.077887],[1.183429,41.077876],[1.183356,41.077843],[1.183252,41.07782],[1.183237,41.077817],[1.18323,41.077811],[1.183194,41.077778],[1.18317,41.077721],[1.183188,41.077496],[1.183185,41.077489],[1.183204,41.077426],[1.183191,41.077371],[1.183176,41.077301],[1.18317,41.07728],[1.183153,41.077206],[1.183107,41.077147],[1.183056,41.07708],[1.18303,41.077062],[1.182981,41.077027],[1.182953,41.077006],[1.18292,41.076978],[1.182859,41.076901],[1.182711,41.076807],[1.182562,41.076713],[1.182556,41.076709],[1.182528,41.076688],[1.18251,41.076674],[1.1825,41.076665],[1.182484,41.076651],[1.182467,41.076635],[1.182464,41.076632],[1.182444,41.07661],[1.182422,41.076584],[1.182378,41.076536],[1.182354,41.076474],[1.182241,41.076191],[1.182054,41.07572],[1.182005,41.075605],[1.181991,41.075577],[1.181765,41.07521],[1.181758,41.075193],[1.181729,41.075148],[1.181605,41.075084],[1.181545,41.075069],[1.181421,41.074778],[1.181055,41.074325],[1.18071,41.074236],[1.180647,41.074228],[1.18054,41.073783],[1.180429,41.073393],[1.180386,41.073288]]]]}},{"type":"Feature","id":"431711_431711 AP02 TAR 3","properties":{"area_id":"431711_431711 AP02 TAR 3","nom":"la Plana","codi_icgc":"431711 AP02 TAR 3","categoria":"Àrees de poblament","codi_municipi":"431711","municipi":"Vila-seca","codi_comarca":"36","comarca":"Tarragonès","provincia":"Tarragona","font":"ICGC Àrees de poblament v3r1 202602"},"geometry":{"type":"MultiPolygon","coordinates":[[[[1.125614,41.130678],[1.126229,41.130671],[1.126955,41.13064],[1.127046,41.13064],[1.127246,41.130634],[1.127356,41.130629],[1.127773,41.130624],[1.127887,41.130616],[1.128484,41.130612],[1.128946,41.130606],[1.129404,41.130607],[1.129764,41.130606],[1.129877,41.130599],[1.130326,41.129569],[1.129885,41.1294],[1.129128,41.129099],[1.129091,41.129048],[1.129108,41.128959],[1.12909,41.128916],[1.129058,41.128894],[1.12903,41.128883],[1.128959,41.128871],[1.128831,41.128879],[1.128289,41.128865],[1.128109,41.128843],[1.128052,41.128901],[1.128044,41.128903],[1.127928,41.129065],[1.127845,41.129139],[1.127816,41.129142],[1.127807,41.129152],[1.127739,41.129165],[1.127497,41.129151],[1.127258,41.129131],[1.12689,41.129098],[1.126428,41.12906],[1.126236,41.129047],[1.12621,41.129448],[1.125714,41.129423],[1.125571,41.129415],[1.125573,41.129341],[1.125298,41.12933],[1.125256,41.129675],[1.124701,41.129654],[1.124678,41.130044],[1.125662,41.130071],[1.125614,41.130678]]]]}}]}