{"type":"FeatureCollection","municipality":"Badia del Vallès","source":{"organization":"Àrea Metropolitana de Barcelona","title":"Àmbits Estadístics Metropolitans","official":true,"accessedAt":"2026-08-12"},"features":[{"type":"Feature","id":"089045--amb-aem--badia-del-valles","properties":{"name":"Badia del Vallès","municipality":"Badia del Vallès","kind":"zone","quality":"official","sourceCategory":"amb-aem","code":"0890401"},"geometry":{"type":"Polygon","coordinates":[[[2.1134885188310824,41.512346102998706],[2.1133699634686867,41.512428057111286],[2.113342963415688,41.51247468691404],[2.1133123206665165,41.51252489244549],[2.113274081694063,41.512604762591074],[2.1131686369980796,41.51357043465147],[2.113323310768757,41.51357605709988],[2.113423102495269,41.51362824103123],[2.1134948572151644,41.51372697375104],[2.1135917631298713,41.51382680011724],[2.113770248768127,41.51392004926401],[2.1140141353136537,41.51405073193624],[2.114283518969526,41.514157289858275],[2.1146163241079132,41.5142706405519],[2.114918147400744,41.51437114252378],[2.1151865797556297,41.5144596764109],[2.1156439229694466,41.51458028646239],[2.1160304983969827,41.51498041919314],[2.1152953564918486,41.51553688631568],[2.114693578906555,41.51598983042546],[2.1143143538569484,41.51629226045817],[2.1138151296962095,41.51669374554974],[2.1133508482289804,41.517081087076086],[2.113182386345673,41.51723700592887],[2.113158528377095,41.517259087076674],[2.11311052350355,41.51730351734756],[2.1130951229634687,41.517317077953436],[2.112419105323956,41.51793536431752],[2.112146500194512,41.51818468325142],[2.112010467407773,41.51721658472607],[2.1119893277372457,41.51700033200516],[2.1119713795015826,41.51682274971366],[2.1119485900997916,41.5166487329478],[2.1119089249358427,41.51648179168626],[2.1118713570972063,41.516249113349204],[2.1118843075591878,41.51609068496445],[2.111927952688014,41.51587844893712],[2.1119915509708163,41.51569699176729],[2.112076852152995,41.51550579410065],[2.112230967070894,41.51518992617763],[2.1123889447980826,41.514854270886886],[2.1125113112153224,41.51458139252861],[2.112553699530254,41.51446102184637],[2.1125541178159897,41.514430400260295],[2.112560956789083,41.51436830267726],[2.112575975633065,41.51432157972118],[2.1126399691769633,41.51419867352946],[2.1126416655420055,41.514074385896585],[2.1126431404894044,41.513966308789996],[2.1126133501908657,41.51386609790323],[2.112527463724515,41.51374924188585],[2.1123452567244345,41.51357759858336],[2.1121618536528266,41.513405944854526],[2.112000387924973,41.51320743922517],[2.1117115813266607,41.51285662719349],[2.1116409546053547,41.51276330734863],[2.1115102764545997,41.512592059839214],[2.1113184000386864,41.51233927447454],[2.1111560985902815,41.512114640002885],[2.1111101061874047,41.512060240713375],[2.1110194319286864,41.51194334563743],[2.1109239528076515,41.511827314973246],[2.110847719352693,41.51170602774771],[2.1107818879495537,41.511612743536915],[2.110736983467551,41.51156645997954],[2.110685781047251,41.51154264505716],[2.110573309838323,41.51153006667037],[2.110459640480551,41.51151747800522],[2.1103472174919067,41.51150129684955],[2.110239859916021,41.51146533871005],[2.110117232985786,41.511406743162],[2.109968308675686,41.51134344121412],[2.1097941595203302,41.511284447468086],[2.109707590433877,41.51121802401977],[2.10964254093725,41.511155370935555],[2.109541394168014,41.51101587534887],[2.1094198920539076,41.51087532221155],[2.10930307212818,41.51074291087915],[2.109258650828651,41.51066150110102],[2.1092331413773473,41.510599153126606],[2.109218145217511,41.51055670354732],[2.10920362944623,41.51047912740268],[2.1091790972321762,41.510433001030904],[2.109143522087951,41.51040570354786],[2.108944575228389,41.510422084089946],[2.1087386120761753,41.509363030586314],[2.105540937208391,41.508712196923355],[2.1058999227108752,41.50847099854486],[2.1061891531990278,41.50826427551855],[2.1064444995059524,41.508081608212564],[2.106729884507948,41.507892868539216],[2.1070080094519144,41.50770774135156],[2.1070082585698025,41.507707575750025],[2.1072014375918022,41.50758487383911],[2.107440608913318,41.507445314693975],[2.107922357432686,41.50717973047406],[2.1083497428973983,41.50694614995339],[2.1090288668952084,41.50663426416309],[2.10901308966543,41.506544156210815],[2.109021945692512,41.506509997046244],[2.109047129191293,41.50642101978483],[2.1091484462180192,41.50619752174063],[2.1092741072899095,41.505946289485],[2.1094290545884355,41.505743922444644],[2.109612000135552,41.50550934653743],[2.1096640686154373,41.50529447400871],[2.109812726591689,41.50511367618157],[2.1099203173986094,41.505044250992974],[2.1100598875025165,41.50500209510593],[2.110325798923565,41.504921283410305],[2.1107066394485363,41.504847664974385],[2.111264783054904,41.50477631449412],[2.111518132590381,41.504737737327254],[2.1119276385433947,41.504670641411124],[2.1122142382727627,41.504653937012016],[2.1123775954829793,41.504624572164055],[2.112679929807063,41.50459627853556],[2.112978497550427,41.50458056529934],[2.113452328768485,41.50454098109844],[2.113907796522274,41.50453007686325],[2.1143453040472138,41.504518131782746],[2.114577892074207,41.50450821228694],[2.1147293518158947,41.504472446475035],[2.114884578534972,41.50442410011549],[2.1150822404901244,41.50433915008354],[2.115299840092602,41.50428587868553],[2.1155243336338434,41.50425427654847],[2.115733837363379,41.504267596193614],[2.1161227607895037,41.50421563859233],[2.1164915734765986,41.504144610718186],[2.1168812898809715,41.50403410908883],[2.1170818693596236,41.5039987182448],[2.1172653098684924,41.50399021744773],[2.117421559246103,41.503954485744295],[2.1176449628763,41.50382649281559],[2.1177353669044052,41.5037866525575],[2.1178591099706088,41.50367410869349],[2.1179823991726847,41.503594888283494],[2.1183025868070016,41.50348655165274],[2.118676184123372,41.5034155534298],[2.1190122741343766,41.503283016020546],[2.119308862366178,41.503147473840905],[2.119559018124075,41.50298995787044],[2.1196412420457182,41.50293474193977],[2.119821692577119,41.50288117757733],[2.120223670173765,41.50274914084058],[2.120326372777048,41.50270487183883],[2.1204151506876747,41.50276591700384],[2.120637116652253,41.50292073702061],[2.1210906958898077,41.50322594763328],[2.12161442954205,41.5035713235867],[2.1219304643136154,41.50377009555352],[2.1223190007716797,41.504012654196636],[2.1227396815512463,41.50427076826041],[2.123265201547211,41.504573815908806],[2.124055681174478,41.5050437125097],[2.1244101788853755,41.505234663105064],[2.1247671719216226,41.5054184257435],[2.1252131517835617,41.50566771685383],[2.1255579514842524,41.505867597452024],[2.125695539724519,41.505972226743296],[2.126001248223286,41.506243878146726],[2.1255116655081907,41.50663647198081],[2.125324513354085,41.5068314090838],[2.125111558995458,41.506984716847775],[2.1247829182019675,41.50720199832077],[2.1246247534233613,41.50709720953625],[2.1245186889490655,41.507054068692554],[2.1244206972168684,41.507034407325776],[2.1242986458794375,41.50702176942824],[2.124154978536903,41.507012569707086],[2.124031753449753,41.506998121124816],[2.1238943330355236,41.50697005240138],[2.1237916086283195,41.50694585168956],[2.123679458374172,41.506909869555855],[2.1235592161052455,41.50676303479163],[2.1234173705522728,41.50661873833314],[2.1232555111952154,41.50644816791394],[2.1231290237557525,41.50632020044094],[2.1230094158072617,41.50612653279607],[2.122919188774788,41.50597542257383],[2.122833281679913,41.50585947375327],[2.122777700100241,41.50580500682325],[2.1227044983446244,41.50565221671847],[2.1134885188310824,41.512346102998706]]]}}]}
