{"type":"FeatureCollection","municipality":"Pallejà","source":{"organization":"Àrea Metropolitana de Barcelona","title":"Àmbits Estadístics Metropolitans","official":true,"accessedAt":"2026-08-12"},"features":[{"type":"Feature","id":"081574--amb-aem--casc-urba-nord","properties":{"name":"Casc Urbà Nord","municipality":"Pallejà","kind":"zone","quality":"official","sourceCategory":"amb-aem","code":"0815701"},"geometry":{"type":"Polygon","coordinates":[[[2.004678484287393,41.42299847755229],[2.004345683973274,41.42324629090794],[2.0040731642925884,41.423811187590786],[2.003915562670062,41.42416771330155],[2.0038010203163097,41.424662398752474],[2.0036484973021578,41.424997495274546],[2.0035059744046926,41.42530046683248],[2.003236280184498,41.42583496598488],[2.0028809742479057,41.42637051220889],[2.0022268014029834,41.42732577639445],[2.0016118028163468,41.42805053784288],[2.0009780527875254,41.42860155697057],[2.0001781994355454,41.42928533827187],[1.9994344922058693,41.42987297185056],[1.9992201773975726,41.43020394512458],[1.9989868690631412,41.43053296383712],[1.9980893618007605,41.43122482843686],[1.9976175210395457,41.43144797985925],[1.9972233019371113,41.432035063087554],[1.9965235504044985,41.433161682398115],[1.996308804958919,41.433673380306395],[1.9959989292283058,41.43418603820795],[1.9956321540795818,41.43468746075309],[1.9951313145383622,41.43509287235315],[1.9947747498996247,41.43539396432441],[1.9944251449047732,41.43555196080587],[1.9940806164769969,41.435587655162955],[1.9940717370927414,41.43568032381071],[1.994072247180257,41.43577046332265],[1.9940736240241403,41.43589609408489],[1.9940887416468718,41.43615854819708],[1.9940751863090442,41.436349934655645],[1.993998323702575,41.43652081975442],[1.9939052000465438,41.436707131833295],[1.9936252506353147,41.437043896441025],[1.9932157419363952,41.43745063796226],[1.9925825618120954,41.438030059825294],[1.9920976868235902,41.4384198473844],[1.9917965811006384,41.438655495300075],[1.9914681457081786,41.438920610033136],[1.9910825539716372,41.43918043511246],[1.990831823581585,41.439355302748005],[1.9906330745253902,41.4394588425885],[1.9904081742753594,41.43962051224141],[1.9891395440880655,41.438857322212606],[1.989283070748012,41.43878987600663],[1.9896423612388885,41.43859641476956],[1.9900102130895578,41.438361323421276],[1.9904102839233067,41.4380907678813],[1.9908430341456775,41.43775495994904],[1.9915007537117204,41.43720663018446],[1.991871270475971,41.43679877663722],[1.9923553690256222,41.43621317439563],[1.992573990464337,41.435899312979934],[1.9928173667423936,41.435520130169415],[1.9930373646929207,41.43511691314946],[1.9933147026375377,41.43458907593264],[1.9936523280508798,41.433745989078545],[1.9939818441795902,41.432914751448145],[1.9943280976797817,41.43202407519882],[1.9948299795286926,41.43079514764196],[1.9951426225895312,41.430029296528076],[1.9952185511166483,41.429726099952255],[1.9953123253966092,41.42929198362142],[1.9954563423714846,41.428679563244685],[1.9955394929663235,41.428365719654934],[1.9957576968684452,41.427472010616796],[1.9955797264183075,41.42760226658074],[1.9954100602300027,41.42775469441999],[1.995222666402876,41.4278510042394],[1.9950265196647523,41.42791225257505],[1.9945425718831442,41.42795000282147],[1.9939841691103,41.4279940896888],[1.9938820370717936,41.42798620226944],[1.9935006524025833,41.42800385335124],[1.9933516231109043,41.42802353660468],[1.993146938828586,41.42803573833622],[1.9930221273968123,41.428018959524245],[1.993152893762875,41.426993085712745],[1.9931007639902358,41.42591943450176],[1.993476027173043,41.42590255532772],[1.9951263950942724,41.4261343404048],[1.9953617943829738,41.42505621140861],[1.9956398092965664,41.42405090478177],[1.9956730641578317,41.42359672679652],[1.9955687589923228,41.42298327245427],[1.9961708822523385,41.42280740266608],[1.9969445106688943,41.42273427738136],[1.9971790992631282,41.42268446240023],[1.9977768928676745,41.422505254230906],[1.9979473036542306,41.42251990749665],[1.999190833623767,41.42245828117786],[2.000735661060341,41.42272035024992],[2.0008297137547686,41.42243630354548],[2.001552158422328,41.422544665739],[2.001844510546806,41.42259659925887],[2.0020732053954386,41.4225195478125],[2.0026928529802697,41.422627011100985],[2.004678484287393,41.42299847755229]]]}},{"type":"Feature","id":"081574--amb-aem--casc-urba-sud","properties":{"name":"Casc Urbà Sud","municipality":"Pallejà","kind":"zone","quality":"official","sourceCategory":"amb-aem","code":"0815702"},"geometry":{"type":"Polygon","coordinates":[[[2.0008297137547686,41.42243630354548],[2.000735661060341,41.42272035024992],[1.999190833623767,41.42245828117786],[1.9979473036542306,41.42251990749665],[1.9977768928676745,41.422505254230906],[1.9971790992631282,41.42268446240023],[1.9969445106688943,41.42273427738136],[1.9973196048701436,41.421230072875616],[1.9957787632607926,41.42099598777988],[1.9958814120890824,41.420865154989784],[1.9959721462857485,41.420655178154355],[1.996081348115963,41.42038279246262],[1.996097256926751,41.42020180139396],[1.9961103794687076,41.420060305992315],[1.9962794246210285,41.41945252909416],[1.9964630267821433,41.41889427998062],[1.99723292708507,41.418900993250006],[1.997451348715281,41.418922659124924],[1.9981352823625536,41.41882981942793],[1.9984023552232337,41.41796272737125],[1.9996756490461292,41.415385310007906],[1.999821640681682,41.415140447232645],[1.999952412046144,41.41489201112549],[2.0000351779412346,41.41473478553457],[2.002085592141777,41.410729214151],[2.002723568792971,41.40944086590955],[2.0029515665184325,41.40890190839752],[2.003484626219644,41.40916990746023],[2.0097107158984486,41.41097632524259],[2.0090094885644922,41.41199419607802],[2.008514484140727,41.41295436923703],[2.0081728993587853,41.413925509754066],[2.008119794031168,41.41407648913656],[2.007737464214077,41.415424981230935],[2.007257684034299,41.41736960435209],[2.0071294750555757,41.41794703322789],[2.0065680311979492,41.41917770325304],[2.0062033393481205,41.42024387883786],[2.0058410703443488,41.42099983998914],[2.0056039111568875,41.42144174555792],[2.004932441426553,41.4228093707037],[2.004678484287393,41.42299847755229],[2.0026928529802697,41.422627011100985],[2.0020732053954386,41.4225195478125],[2.001844510546806,41.42259659925887],[2.001552158422328,41.422544665739],[2.0008297137547686,41.42243630354548]]]}},{"type":"Feature","id":"081574--amb-aem--casc-urba-la-magina","properties":{"name":"Casc Urbà, La Magina","municipality":"Pallejà","kind":"zone","quality":"official","sourceCategory":"amb-aem","code":"0815703"},"geometry":{"type":"Polygon","coordinates":[[[1.999952412046144,41.41489201112549],[1.999821640681682,41.415140447232645],[1.9996756490461292,41.415385310007906],[1.9984023552232337,41.41796272737125],[1.9981352823625536,41.41882981942793],[1.997451348715281,41.418922659124924],[1.99723292708507,41.418900993250006],[1.9964630267821433,41.41889427998062],[1.9962794246210285,41.41945252909416],[1.9961103794687076,41.420060305992315],[1.996097256926751,41.42020180139396],[1.996081348115963,41.42038279246262],[1.9959721462857485,41.420655178154355],[1.9958814120890824,41.420865154989784],[1.9957787632607926,41.42099598777988],[1.9973196048701436,41.421230072875616],[1.9969445106688943,41.42273427738136],[1.9961708822523385,41.42280740266608],[1.9955687589923228,41.42298327245427],[1.9956730641578317,41.42359672679652],[1.9956398092965664,41.42405090478177],[1.9953617943829738,41.42505621140861],[1.9951263950942724,41.4261343404048],[1.993476027173043,41.42590255532772],[1.9931007639902358,41.42591943450176],[1.993152893762875,41.426993085712745],[1.9930221273968123,41.428018959524245],[1.993146938828586,41.42803573833622],[1.9933516231109043,41.42802353660468],[1.9935006524025833,41.42800385335124],[1.9938820370717936,41.42798620226944],[1.9939841691103,41.4279940896888],[1.9945425718831442,41.42795000282147],[1.9950265196647523,41.42791225257505],[1.995222666402876,41.4278510042394],[1.9954100602300027,41.42775469441999],[1.9955797264183075,41.42760226658074],[1.9957576968684452,41.427472010616796],[1.9955394929663235,41.428365719654934],[1.9954563423714846,41.428679563244685],[1.9953123253966092,41.42929198362142],[1.9952185511166483,41.429726099952255],[1.9951426225895312,41.430029296528076],[1.9948299795286926,41.43079514764196],[1.9943280976797817,41.43202407519882],[1.9939818441795902,41.432914751448145],[1.9936523280508798,41.433745989078545],[1.9933147026375377,41.43458907593264],[1.9930373646929207,41.43511691314946],[1.9928173667423936,41.435520130169415],[1.992573990464337,41.435899312979934],[1.9923553690256222,41.43621317439563],[1.991871270475971,41.43679877663722],[1.9915007537117204,41.43720663018446],[1.9908430341456775,41.43775495994904],[1.9904102839233067,41.4380907678813],[1.9900102130895578,41.438361323421276],[1.9896423612388885,41.43859641476956],[1.989283070748012,41.43878987600663],[1.9891395440880655,41.438857322212606],[1.9888782927522177,41.43870015250563],[1.9859076944048542,41.43691294206144],[1.9869008675556137,41.43562373004789],[1.9868077378318116,41.434839267921795],[1.9846022812335429,41.43427217348895],[1.9843736649190065,41.434349420267516],[1.9841586054494569,41.43440156564443],[1.9839005639774643,41.43452358852593],[1.983764432643171,41.43458003324373],[1.9836394090040033,41.43461495822973],[1.9834473673602335,41.434649290876784],[1.983172241911781,41.43463875269009],[1.982718618435712,41.434638345100055],[1.982482577921108,41.43465427228447],[1.982321095730898,41.43418806313202],[1.9803087527889174,41.433751400188946],[1.9791278766863394,41.433340098492444],[1.9782086441058881,41.4329599325719],[1.976075286884365,41.432383407057586],[1.9741983294643088,41.43217212599871],[1.9729662782862927,41.43042756383997],[1.9730459484963683,41.430404446060535],[1.9730459846092654,41.43040443287185],[1.9736537618471113,41.43023417695278],[1.9741763942387545,41.43016308647952],[1.9747910515499032,41.430058405577626],[1.9752343591649528,41.4297937958063],[1.9755403585809153,41.42953487027715],[1.9756711360861423,41.42936387670229],[1.9758658128552626,41.429200360514486],[1.97597614581586,41.42916692548453],[1.976317230301201,41.429004711679724],[1.9767579360981453,41.428905317775325],[1.9770340788160747,41.428797604330754],[1.977035183206525,41.42872877971708],[1.9768730066600453,41.42856894261941],[1.9766923234540175,41.42842275799957],[1.9766847792593485,41.4283193896944],[1.976842785173603,41.42816244075861],[1.976992471381389,41.427950301421376],[1.9770570547847477,41.42777465521744],[1.9770943790348414,41.42767309554655],[1.977129596946517,41.42751586949858],[1.9771131690456911,41.42730899939862],[1.9770113606692854,41.427130891792544],[1.9768375472005255,41.42695214370607],[1.9766376906061236,41.42676821412636],[1.9765884192143055,41.42657582387675],[1.976512170137789,41.426432391944104],[1.976415268491113,41.42635771424802],[1.9763704146410042,41.4262982401926],[1.9763127794271311,41.426218962234444],[1.9763269646127493,41.426150163923914],[1.9763667120195383,41.42611605983858],[1.9764784580714936,41.426082596335675],[1.9767335279456348,41.42607996089352],[1.9769551585921468,41.426126234884194],[1.9772743755669897,41.426207811290084],[1.9773527585532709,41.426213444146],[1.9775618457854491,41.42622515670595],[1.9778427952434872,41.42624241193984],[1.9781496053082233,41.42629601582722],[1.9783913777466127,41.426358030728906],[1.9785960987813995,41.42638187612243],[1.9787338262442264,41.426408333070974],[1.9792257547971057,41.426535550859555],[1.9794593508071041,41.4265848581046],[1.9795222165197872,41.42657914663461],[1.979589721287166,41.426545053462725],[1.9796027472232784,41.426516827252335],[1.9796267332516335,41.426321737286074],[1.9796690043482754,41.42629373893211],[1.9797194224707815,41.426281593763846],[1.9797661518937273,41.42623789450077],[1.9798615884263349,41.4260245270922],[1.9798955710536488,41.42572553987935],[1.9799824956896945,41.42551840654836],[1.9801025850968965,41.425333599248276],[1.9802560505069178,41.42506735910369],[1.9803439893445873,41.42504615603366],[1.9805948781692861,41.424872541684294],[1.980914635062576,41.42453376931449],[1.9808935245070889,41.424322178800004],[1.9808340393915878,41.4242205258309],[1.9806184243615539,41.42395208671341],[1.9805470404727281,41.42383195757742],[1.9805010842261492,41.423647740946],[1.980310031963896,41.423370304340054],[1.9800916776035125,41.42327646628234],[1.9798116115735578,41.423228013778115],[1.9797881674104134,41.423163461553884],[1.9797896057136943,41.42307157636852],[1.9798901434650975,41.422888649501644],[1.9798805223356144,41.42272309834556],[1.9796563055990926,41.42256131423424],[1.9794635114259957,41.422543440359554],[1.9792926404166002,41.42249349168284],[1.9792098606000832,41.4222989585839],[1.9791503053628248,41.42199157067838],[1.9792414357304642,41.421653246334344],[1.9795672755777651,41.421397723794485],[1.9799107930600581,41.42138462001725],[1.9803617635602098,41.42135632637351],[1.9807509351777484,41.421165962805425],[1.9811385894776181,41.4210725220877],[1.981133565736413,41.42139543783848],[1.980976834804133,41.42181394298715],[1.9807347980301397,41.42219942312371],[1.980859966907657,41.42242661316988],[1.9812007073135836,41.42259112030909],[1.9815762113397022,41.42283004704131],[1.9817072437386025,41.42304258348655],[1.9818771337798953,41.42310842695791],[1.9820602994683696,41.42311004332063],[1.9826120319921066,41.42296785569043],[1.9826840226812932,41.42305121174008],[1.9827300976346565,41.42322627706873],[1.9827886052378156,41.42339222873289],[1.9829210284802177,41.423512896155934],[1.983090532812755,41.42360630155762],[1.9833040725617461,41.423699199649036],[1.9834786607789743,41.42377516155101],[1.9837939735219348,41.42391581893267],[1.9841063991022305,41.42424025033829],[1.9843707412524751,41.42451835021566],[1.9847567366025813,41.424825054230794],[1.984938887223198,41.42489100588223],[1.9849637328600969,41.42486363545699],[1.9849777862561064,41.42474429439117],[1.9848937289695592,41.42465164127079],[1.9847404329913418,41.42430101330116],[1.9846831187772098,41.42406154581133],[1.9847221672187563,41.423905630147445],[1.9848573689746518,41.423851666477354],[1.9850650654561222,41.423844320487646],[1.9851979233997519,41.42393739947734],[1.9854512088967105,41.424141853983805],[1.9856811894584592,41.42427251203967],[1.9860331361843975,41.424413486283285],[1.9863738440039922,41.424490029614226],[1.9865189217135264,41.424583237261345],[1.9870344834172304,41.42441312014933],[1.9872575404912978,41.42420367592492],[1.9875164786054713,41.42404052079827],[1.9875089246992064,41.42382037661474],[1.987564965144606,41.42349461742012],[1.987542751738104,41.42328331557312],[1.9874843837972371,41.422937359194364],[1.987565319232586,41.42265021308572],[1.9877084378089542,41.42164392742593],[1.9877151245135618,41.42121222556742],[1.9876029258556174,41.42104807371103],[1.9876057747279319,41.42086581151669],[1.9876831550296543,41.420808903628554],[1.9882479730977487,41.420554805944995],[1.988293819534057,41.42048447851356],[1.9883785684445563,41.42035443179926],[1.988397558798409,41.4199515851089],[1.988477634794763,41.41972200595387],[1.9887347466320175,41.419580337024726],[1.9887236535099482,41.41947468626199],[1.9887672390354338,41.419129626460986],[1.9887848872087073,41.418813112794325],[1.988691123287161,41.41828454927358],[1.988754594218769,41.417479075021234],[1.98882058426484,41.41733573922062],[1.9889106773994338,41.41727893769297],[1.9892082777130198,41.41699369409594],[1.9893399159223604,41.416726159638365],[1.989176145193794,41.41661543844903],[1.988721777735113,41.41630814342225],[1.988329616651551,41.41611275672061],[1.9882423658352413,41.41598725935444],[1.9880519304350595,41.41593761998937],[1.9876076264050928,41.41581856932524],[1.9870988407721903,41.415746904690195],[1.9865767534228544,41.41571353722971],[1.9862955892922287,41.4157590200994],[1.985936953436317,41.415871019203394],[1.9856051311970495,41.41589690860436],[1.9853382187088362,41.41584654987165],[1.9848168606920622,41.41576520290126],[1.9845758864660346,41.415686319637125],[1.9843112475915239,41.4154920537319],[1.9841743421972544,41.41527977889821],[1.9841783670388573,41.41502070283454],[1.9841302171797917,41.414837981244375],[1.9840838682339628,41.41454008878841],[1.9839958738553751,41.414462577606685],[1.9838808723395922,41.414480738717884],[1.9838792094215758,41.4145862818545],[1.9838491031765324,41.41488345408448],[1.9837724567414718,41.414892374471066],[1.98372547202812,41.41463882423807],[1.9835313733037734,41.41440367348188],[1.9833666863069102,41.41426585424578],[1.9840089091141473,41.413603070585786],[1.9816360393281183,41.41269396045639],[1.9817112072053853,41.412580067740066],[1.9818218795131084,41.412500909213875],[1.9819366639755494,41.41245040711694],[1.9819780680972408,41.41243782264093],[1.9820815643950878,41.4124179069614],[1.982203735541029,41.41239439670791],[1.9822583733735035,41.412374117076965],[1.982334554696937,41.41232268309525],[1.9823779866906677,41.41228825272193],[1.9824659849228423,41.412219538869564],[1.9825392629179412,41.41216244853847],[1.982546556355006,41.41210144278663],[1.9825505041222846,41.41202473454846],[1.982552895034154,41.41194819268906],[1.982550225900438,41.41191213943483],[1.9825398208282023,41.411858183088995],[1.9825341998880146,41.41180426905198],[1.9825380866425388,41.41177755141057],[1.9825450952618926,41.41175779708559],[1.982561819257728,41.41172885014364],[1.9825855792722709,41.41170131743416],[1.9826196808588632,41.411670543428826],[1.9826731936031632,41.41163030312862],[1.9827300082289072,41.411593153618405],[1.9828082439951606,41.41154799763053],[1.9828851803629342,41.41150183838495],[1.9829666607899268,41.41144049672884],[1.9830402059782373,41.41137386147234],[1.983064304682886,41.411347682767314],[1.9830981538608479,41.41131434737997],[1.9852495705803135,41.41107483066057],[1.98621054494901,41.41190838178219],[1.9876656384923634,41.41097361464638],[1.9885956128671585,41.408330910823345],[1.9904851788035893,41.408956578335705],[1.9913478168146443,41.408964139906324],[1.9927175155863945,41.40881616015235],[1.9935563710772257,41.40864352775888],[1.9943673957312844,41.408560721087305],[1.9952604860192396,41.40833855909011],[1.9958894536088359,41.40800401637659],[1.9963550725937347,41.40792817971791],[1.9969419741237362,41.40775332615137],[1.998279936090455,41.40707500645597],[1.9993871163861168,41.406714608831436],[1.9996072303472259,41.40621669907629],[2.0001981265289936,41.40649016406704],[2.0009040332599923,41.40691784024915],[2.0017406407825966,41.40776504114065],[2.0020688169885466,41.40800775409712],[2.0028942272772596,41.40870487577742],[2.0029180344064876,41.408885050440674],[2.0029515665184325,41.40890190839752],[2.002723568792971,41.40944086590955],[2.002085592141777,41.410729214151],[2.0000351779412346,41.41473478553457],[1.999952412046144,41.41489201112549]]]}},{"type":"Feature","id":"081574--amb-aem--fontpineda","properties":{"name":"Fontpineda","municipality":"Pallejà","kind":"zone","quality":"official","sourceCategory":"amb-aem","code":"0815704"},"geometry":{"type":"Polygon","coordinates":[[[1.9729662782862927,41.43042756383997],[1.9728988141576755,41.430332032732245],[1.972256381861027,41.42856985561059],[1.9721579744470161,41.428509187204035],[1.972059567231027,41.428448517814154],[1.9719623806779982,41.42838725755502],[1.9718651943082106,41.42832599721525],[1.9718181820610547,41.42830785051583],[1.9717307940538764,41.42827586876487],[1.971643406147715,41.428243886047746],[1.9715995280842542,41.42822735347616],[1.971555651254151,41.428210819998114],[1.9714916700657852,41.42818735122504],[1.9714014459232636,41.42814733630352],[1.971311223103357,41.428107320422335],[1.9712266013640076,41.42806995859431],[1.9711419785401323,41.42803259579359],[1.9710572524996077,41.42800791530453],[1.97097252653858,41.427983233853105],[1.970833325189326,41.427953702729575],[1.9707667566338218,41.427939580787815],[1.9707001869255025,41.42792545789648],[1.9707003452834209,41.427923766825955],[1.9706839816574828,41.42791982290093],[1.9706348537961853,41.427907984475844],[1.970582231181901,41.42789736768462],[1.9705296085994584,41.42788674996887],[1.9704815075590674,41.42788840021698],[1.970416937356163,41.42789165138362],[1.9702683539664079,41.427903148911284],[1.9701411316440587,41.42789581298242],[1.9701337069147054,41.42789610680989],[1.9700214259316615,41.42788895945152],[1.9700213557403845,41.42788984154668],[1.9699499813343186,41.42788660926676],[1.9697595547531306,41.427868043135305],[1.969593933339837,41.42785429263575],[1.9695746372998713,41.4278522642794],[1.969524647173285,41.42785228488491],[1.9692292753315748,41.4278634812428],[1.9689515134754407,41.427895670552196],[1.9687270059053816,41.42781655137217],[1.9687014532016451,41.42779379663841],[1.9686750386945686,41.42775517036947],[1.9686401176330184,41.42769301710869],[1.9686051978337062,41.42763086384817],[1.9685508418829851,41.42752632321034],[1.9684964861037895,41.42742178254694],[1.9684655802183115,41.42734793311506],[1.968434674401359,41.42727408367474],[1.9684001018872357,41.42720324854305],[1.9683680082400665,41.42713035492407],[1.9683359158598326,41.427057461306745],[1.9682086034388164,41.426839983761646],[1.9681655845910282,41.426720851766646],[1.9681198920797858,41.426631665142395],[1.9681088747014563,41.42661768053462],[1.968104932216745,41.42661876028542],[1.968090149508032,41.42659391232251],[1.9680729399900085,41.42655302835923],[1.9680197310923189,41.42649035326183],[1.967966523492847,41.42642767815106],[1.967871383759778,41.426339171041974],[1.9677762430734553,41.426250664745744],[1.9676790422843455,41.4261764084829],[1.9675818417167124,41.426102152139535],[1.9674926606847125,41.42601785780101],[1.9674034798826117,41.42593356339478],[1.9673343947709154,41.42585850623631],[1.9672653098174486,41.42578344903721],[1.9672112386740492,41.42572769520272],[1.967157166440418,41.425671940432],[1.9671163859498018,41.4256233217287],[1.967012587360087,41.42558806348854],[1.9669038640271974,41.42556157825957],[1.966767444219576,41.42553080976885],[1.9666656367990476,41.42551490795714],[1.9665606079519042,41.4254969585614],[1.9665464953656056,41.42549337294764],[1.9665147587970346,41.42548651335127],[1.966485775462049,41.42547734466722],[1.9664586516003337,41.425466382197015],[1.966445811005094,41.42545993914619],[1.9664329704124095,41.425453496093944],[1.966422682290336,41.42544721558727],[1.9663700757069982,41.42540927220907],[1.9663678619725369,41.425407748085426],[1.9663247527033179,41.42537320563734],[1.966281642297452,41.42533866226206],[1.9662060555706744,41.42528739756043],[1.9661715077757067,41.42526237083035],[1.966136958796436,41.425237344979976],[1.9660355710589055,41.42515889819209],[1.9658865105351568,41.4250385086466],[1.9658649883715411,41.42502071474702],[1.9658411862598912,41.42500165012269],[1.9655298171760847,41.42475226444332],[1.9654611095958403,41.42469359398493],[1.9653924021390692,41.42463492348632],[1.9653733473379413,41.424613847774616],[1.9653637042945968,41.42461534364713],[1.9653469810490567,41.42459681096842],[1.965336454714325,41.424584443732],[1.965325928383548,41.424572076494655],[1.9653123950957452,41.42455086397979],[1.9652988606200912,41.4245296514526],[1.9652889038400065,41.42451080851946],[1.965278947065586,41.42449196558546],[1.9652649654700731,41.4244492438959],[1.965263025715189,41.424439511981845],[1.9652610859608544,41.42442978006774],[1.9652507477846237,41.424384384426865],[1.9652400236754808,41.424337368487414],[1.9652295449158699,41.42428989988042],[1.9652085929747867,41.42419250369594],[1.9652043890065796,41.42415571574042],[1.9651988437489425,41.424082886169145],[1.9651906200062892,41.42396160878686],[1.965173352034131,41.42379485191054],[1.965153349443806,41.423661722931605],[1.965133346929709,41.4235285939471],[1.9650869303989111,41.42332811598878],[1.965071593500543,41.423255085723724],[1.965070231803469,41.42324919795401],[1.9650633333965624,41.423225874313204],[1.9650547793058952,41.4232028177083],[1.9650413804623235,41.4231724080215],[1.965034050986346,41.42315731595641],[1.9650280900034631,41.42314602561099],[1.9650221290083105,41.423134736165856],[1.9650188814780378,41.423129215144264],[1.9650156339340064,41.423123695023165],[1.965004999552391,41.42310752476317],[1.9649930603252999,41.42309191022827],[1.964986519669248,41.42308434282373],[1.9649329826005197,41.42302498524927],[1.9648794468252528,41.42296562766117],[1.964851024021937,41.42293895774729],[1.9648226024383275,41.42291228783731],[1.9647365603770268,41.42284521108543],[1.9646505184927463,41.42277813427046],[1.9645090167770165,41.422693387425525],[1.9643675166414198,41.422608639519744],[1.964315693114569,41.42257999966954],[1.9641942886397459,41.42251442994808],[1.9640728844248123,41.42244885919999],[1.9640578772641206,41.42244137403331],[1.9638436838940587,41.42229515657279],[1.9637973227905763,41.42226740247372],[1.9636034679040009,41.42215491757976],[1.9634096148714937,41.42204243327611],[1.9632579427403287,41.42196005947228],[1.9632585393069433,41.421959343356484],[1.963131996995002,41.42188837762298],[1.9630060970379923,41.42181654292272],[1.9628801973597207,41.421744708087004],[1.9627816506783609,41.42168826655742],[1.9626831887479577,41.42163169870327],[1.96263528289296,41.421605499293904],[1.9625873770623268,41.421579300765536],[1.9625436637299678,41.42156712850276],[1.9624551129165475,41.42154251617755],[1.9624102742397922,41.42153007610351],[1.962181962061711,41.42148667186797],[1.9619536513929332,41.42144326719328],[1.961903275750293,41.421432338842386],[1.9618152419940917,41.42141172907142],[1.961727208309173,41.421391118333055],[1.9617024732920068,41.42138472593261],[1.9616777370976408,41.42137833261548],[1.961546276287147,41.421347291041],[1.9614148155903113,41.42131625021821],[1.9612983509489457,41.42128607874538],[1.961181885221055,41.42125590714495],[1.9610809202373898,41.42122819841655],[1.9609864240499486,41.42120464728637],[1.960891927946579,41.42118109517865],[1.9607618158507811,41.42115167361052],[1.9606317026787072,41.42112225188563],[1.9605979817879473,41.421116331117425],[1.96053003406353,41.42110440031045],[1.9604283619306833,41.42108654771294],[1.9603305219799945,41.421068969254634],[1.960240599254815,41.42105281247729],[1.9601916775301211,41.42104402316292],[1.96005283558277,41.42101907692639],[1.9599493898871208,41.421003422790825],[1.9598774043089384,41.42100075072113],[1.959805417526725,41.42099807949622],[1.9597043787515036,41.42100827109149],[1.9596033387643665,41.42101846168617],[1.9595369031190515,41.421019099368834],[1.9594744581896064,41.42099425967507],[1.9594120133082524,41.42096941994785],[1.9593473037620275,41.420945069519384],[1.9593229425653953,41.42093590030861],[1.9592819864406419,41.42092048927239],[1.9592368563694103,41.420903505601785],[1.9591880324103745,41.42088688572026],[1.9591403461688672,41.42086893761342],[1.9591026209292361,41.42085473661387],[1.9590507319331372,41.42083522369104],[1.9590174619564404,41.42082281671519],[1.9589580583380262,41.420800660540316],[1.9589212195237662,41.42080026862626],[1.958884378331602,41.42079987577812],[1.9588762219295321,41.420799425455144],[1.958867397900177,41.420797994489966],[1.9588300880003813,41.42078776401463],[1.9587927769160334,41.42077753351648],[1.9587401570696907,41.4207631048161],[1.9586875372326775,41.42074867699249],[1.9586858870845973,41.420747850490265],[1.958684838742671,41.420747630228256],[1.9586816913096088,41.42074697032106],[1.9586777816464562,41.420746832248206],[1.9586750307969223,41.420747115401355],[1.9586698547889763,41.42074587146786],[1.9586307074283065,41.42072886605083],[1.9585915601026243,41.42071185972006],[1.9585800815465657,41.42070550828578],[1.9585816561394618,41.42070379852514],[1.9585690669992388,41.42069722806478],[1.958556476679479,41.42069065669165],[1.9585312984117984,41.42067751576416],[1.9584944516148377,41.420656808372975],[1.9584821693592078,41.42064990560647],[1.9584812608228188,41.420650821539475],[1.9584704026658344,41.42064481258728],[1.9584192316070415,41.42061461680929],[1.9583680617923225,41.42058442101979],[1.9582999728848474,41.420557648843356],[1.9582985596026687,41.4205537574639],[1.9583011622552735,41.42053773796732],[1.9582621263948812,41.42051556679524],[1.9582014976484816,41.42048092570161],[1.958172806019096,41.42046172963742],[1.9581707163321134,41.4204603280788],[1.958169318568379,41.4204595092592],[1.9581674816034038,41.420458991812716],[1.9581656751380632,41.420458961942245],[1.9581640087969259,41.42045922427942],[1.9581623045004102,41.42046013930867],[1.9581544203196437,41.420465270577594],[1.9581471757692341,41.42046938980343],[1.9581380576137808,41.420473861364],[1.958130113449065,41.42047713026038],[1.9581211818260127,41.42048026320914],[1.9581105664966738,41.42048332236071],[1.9581009030380452,41.42048544976042],[1.9580929733459285,41.42048683984362],[1.9576789338583926,41.42028459972153],[1.9575948150231963,41.42027924288261],[1.9575638926788972,41.42028297007957],[1.9575197306951069,41.420295596396386],[1.957505817897452,41.420296155785195],[1.9574937437704283,41.4202949555767],[1.957472485676686,41.42029104288441],[1.9574515881336,41.420285162638514],[1.957410089323615,41.42026438121644],[1.9572170974619658,41.420166180908964],[1.9570005437313966,41.42018662188696],[1.9568819486164695,41.42010139868074],[1.9567633526010253,41.42001617624437],[1.9566574038277793,41.4199389012125],[1.9566081982012133,41.4199030018596],[1.9564666209807295,41.41980069173492],[1.9563853749545232,41.41975541409383],[1.956117893579463,41.41961392312067],[1.956043925295397,41.41959394097744],[1.9560064458825974,41.4195850258301],[1.955968966480266,41.419576110670654],[1.9559036349284087,41.419554899843696],[1.9559020452713183,41.4195592657108],[1.9558244401746745,41.41956321098115],[1.9556945606167768,41.41960260226528],[1.9556500125804321,41.41964560448969],[1.9556054644995164,41.419688605795244],[1.9555906416221727,41.41968435755295],[1.9554841740737383,41.41969722720287],[1.9553556892594866,41.4197100409481],[1.9552419563702168,41.419722267927845],[1.9551872330795275,41.41972741137755],[1.9550549900289198,41.41973981955004],[1.9550171708406696,41.41974262231183],[1.9549888898852819,41.41974379309317],[1.954942208762947,41.41974485617015],[1.9549056642071962,41.419751302253886],[1.9547451712775346,41.419751593403646],[1.9547306473721997,41.419724151935135],[1.9545207957638482,41.41971667488952],[1.9543687009926816,41.41970666712152],[1.9542885515894064,41.41971113407731],[1.9541518877498278,41.41972803444681],[1.9540152238281931,41.41974493555369],[1.9539414302821487,41.419751304768695],[1.9538676355261873,41.41975767392531],[1.9538281170676537,41.419762637930006],[1.9537885997998348,41.419767601931945],[1.9537313324237668,41.419778925842664],[1.9536740650283602,41.41979024972459],[1.953642387093527,41.41979714049744],[1.9535684278805319,41.41981173621674],[1.9535673570058159,41.419812250706165],[1.9535023361189399,41.4198238237388],[1.953486354814489,41.41982666791565],[1.9534373152241398,41.4198353958338],[1.9534110727154574,41.41984107315329],[1.9533643455567768,41.41985118309383],[1.9533103626537487,41.419863038387255],[1.9532559687750806,41.41987611762315],[1.9531794183227766,41.41990384841023],[1.95313306587659,41.419955667681364],[1.9531137872950308,41.419977168532036],[1.9530991200358034,41.419991251422836],[1.9530845743263234,41.42000521652029],[1.953055154742134,41.42003361030586],[1.9529777267543877,41.4200632857733],[1.9529083399432123,41.42013521057646],[1.9527839552453292,41.42017912254508],[1.9526595715784831,41.4202230343878],[1.9526637901838622,41.42024073268025],[1.9526337860836924,41.42024456689262],[1.9526151057255803,41.42024610012016],[1.9525960278166126,41.42024861783573],[1.952582995983897,41.42025251197911],[1.9525772732158453,41.42025544132141],[1.9525540705861126,41.420269791413006],[1.9525439367346296,41.420280703472706],[1.952537725509375,41.42029116755009],[1.9525344565916583,41.42030172146855],[1.952533741212348,41.42030788861933],[1.9524684174405984,41.420300068101135],[1.9524030948817561,41.420292247556915],[1.9523736134271612,41.42028805637349],[1.952368672681225,41.42030248715553],[1.952266333398894,41.420312362229865],[1.952163992905416,41.42032223630127],[1.9521015903513408,41.420341052710015],[1.9520001976278238,41.42035374917661],[1.9518988048810868,41.42036644465274],[1.9518697271036825,41.4203760698481],[1.951833490880525,41.420394034609245],[1.9517918619538301,41.42043748436814],[1.9516917634434772,41.420433387269895],[1.951591666143993,41.42042929009558],[1.9514397173999756,41.42042404108844],[1.9512877686990762,41.420418790980264],[1.9512211955674992,41.420426669051395],[1.9512132875971373,41.42042997292792],[1.9511319979882094,41.42043696196485],[1.9510627795624682,41.42046332240597],[1.950993561095875,41.420489681904044],[1.9508512367347215,41.420534925220245],[1.9507089109824993,41.42058016834678],[1.9506008082702937,41.420614104848156],[1.9504927066437312,41.420648041257316],[1.9504852099500307,41.420650026550966],[1.9504716160790612,41.42065447828867],[1.9504580222062622,41.420658930024715],[1.9504152567006274,41.420674206413885],[1.9503699860166364,41.42069026068706],[1.950334529362427,41.420706445921134],[1.950299073887239,41.420722631154966],[1.9502761429542936,41.42073545020589],[1.9502255113342666,41.420763754191654],[1.950214047036489,41.42077016462169],[1.9501519498708748,41.42080487809147],[1.9501059883772258,41.42081990361738],[1.9500600268772112,41.42083492822401],[1.9500310540056636,41.42084439988359],[1.9499769746806737,41.42086207780386],[1.9499518682293018,41.420870284066396],[1.9499144624649158,41.42088131626821],[1.9498205692718296,41.42090900720497],[1.949794689205006,41.42091694966047],[1.949717048952769,41.42094077789214],[1.9496310435279085,41.42096634288225],[1.9495728089673205,41.42099242529667],[1.9495035602416668,41.42103618228423],[1.9494196137680078,41.42106080032446],[1.9493024319977037,41.42109516430718],[1.949227454975385,41.42111580990062],[1.9491524778919354,41.42113645634512],[1.9489747591658477,41.42116621098074],[1.9488967814353717,41.4210988042618],[1.9488185695036644,41.4210312377204],[1.9487412523132444,41.42096592934674],[1.948672144846904,41.42090771270044],[1.9486493074073308,41.42088948742177],[1.948580788058939,41.42083480699048],[1.948495714380296,41.42076765851037],[1.9484212897647013,41.42070890040901],[1.9483529897548253,41.42065859763474],[1.9483302235022768,41.42064183033833],[1.9483183119276448,41.420633603089755],[1.948185536663741,41.420542128906824],[1.9480482562430061,41.4204645288872],[1.9480024961805886,41.42043866187804],[1.947898142615611,41.42038081692475],[1.947793789236776,41.42032297187844],[1.9476979535942538,41.420269214738454],[1.9476448064223908,41.4202395977966],[1.947612524852314,41.420221787632336],[1.9475112368459844,41.42018793812724],[1.947458325476862,41.420172554928214],[1.9473926314712051,41.42017800052652],[1.9472931118280765,41.420193600450624],[1.9472405513419093,41.42020183863188],[1.9471660441767271,41.420221497273374],[1.9471488913438875,41.42022424517758],[1.9470946377386162,41.42023306498664],[1.9470490087170074,41.42024060269221],[1.9470064370890217,41.42024725321366],[1.946974550344335,41.420251679417674],[1.946941632313509,41.42025549898309],[1.9469131796910906,41.42025801461201],[1.9468813467513564,41.42025992461879],[1.9468650821320956,41.42026043056616],[1.9468488175126304,41.420260936511255],[1.9468319920056432,41.42026097704187],[1.946815165287667,41.420261018459705],[1.9467962463437918,41.420260497575605],[1.9467773262038173,41.42025997667745],[1.9467464633986507,41.420258279062686],[1.9467089491497633,41.42025527842307],[1.9466703963698082,41.420251231512246],[1.946627918637742,41.42024577502393],[1.9465914940983033,41.42024035863451],[1.9465540203167897,41.420234114754976],[1.9464980239623506,41.42022355784703],[1.9464338943198192,41.420209725202085],[1.9463644944099565,41.42019272589585],[1.9463346572985516,41.42018458016911],[1.946304818998279,41.420176434423745],[1.9462523113840595,41.42016081747442],[1.9462063775257348,41.42014620198881],[1.9461298428133105,41.420120206362206],[1.94605610653527,41.42009372830545],[1.945962456363205,41.420057816262855],[1.9459498520067124,41.42005197748605],[1.9457788173861685,41.41998462755436],[1.9457143958597671,41.41995919752565],[1.9454996540163858,41.419878116594354],[1.9452609819030762,41.419791294339184],[1.9451726210894962,41.419708244951],[1.9451842425704287,41.41948945128179],[1.9451915654066703,41.41928686841792],[1.9452062204337184,41.418990411120184],[1.9452128170576737,41.41884704425711],[1.945215631545845,41.418787068244974],[1.9452086242508786,41.41867916844346],[1.9452044754118567,41.4186152860336],[1.9452021776780948,41.41858527666724],[1.945199469959877,41.41855590486774],[1.9451897407318004,41.418450351749954],[1.9451959265222623,41.4184136421056],[1.9451992545801902,41.41839269711277],[1.945221977119328,41.418122029832766],[1.9452194255178479,41.418122204601005],[1.945217173657342,41.41808973033056],[1.945210335125354,41.41797761570488],[1.9452129279058168,41.41790612080263],[1.9451998151418683,41.41778871084993],[1.9451926565040152,41.4176923147814],[1.945183084268183,41.417508736569005],[1.9449675224713743,41.41737164907021],[1.9455427252241564,41.41694997228646],[1.9468207060033107,41.41657796379856],[1.9495815377282397,41.417448998919305],[1.9497265447098175,41.41727899501463],[1.9505669002235648,41.41743518217747],[1.9510480786700006,41.41736207716961],[1.9523629329968797,41.41768402243203],[1.9524715376694146,41.4176665173967],[1.9525557855546758,41.41763940299521],[1.9526324976166332,41.41760168668032],[1.952699343561675,41.41755451641276],[1.95275429366012,41.417499325724755],[1.9527956756876994,41.417437790099235],[1.9528222355114782,41.417371779779685],[1.954269243913503,41.41718934632081],[1.9543209733083382,41.417175347940756],[1.954394908885643,41.417145690243956],[1.9544608793002023,41.4171068185068],[1.954516881644523,41.417059914326],[1.9545612118642375,41.41700640251323],[1.954592524075186,41.416947908396196],[1.9546098684149884,41.416886210421346],[1.9546127146947778,41.416823182719874],[1.9546009795954924,41.41676074040868],[1.9545750180434796,41.41670078006316],[1.95453561929978,41.41664512473703],[1.9546498538664179,41.416646952729074],[1.9550419543068394,41.41661992394624],[1.9551385060542643,41.416605161348606],[1.9555135401794095,41.41651489176],[1.9558620521598264,41.41637696980649],[1.9563342784757811,41.41594487968487],[1.9578506326113878,41.41649601692784],[1.9585987312077364,41.41668085755699],[1.9593295882007407,41.417227629286636],[1.9595972096572634,41.417210075020456],[1.9598730344784148,41.41715564325703],[1.9601321121277955,41.41706598285398],[1.9602621478045033,41.41726141886346],[1.9604332319305076,41.417434365780515],[1.960641613730356,41.417582321511965],[1.9608832797547402,41.41770101162664],[1.9611440043769321,41.41778617396527],[1.961422747103489,41.41783587592658],[1.9617387857615198,41.41786756214162],[1.962266269542291,41.417864891201276],[1.9621164510007334,41.417667392839036],[1.9614848523294253,41.416558205904245],[1.9615244581942395,41.41647864077971],[1.9616308116505004,41.41644338200156],[1.96181657379603,41.41635790741383],[1.961979795392317,41.41624944943852],[1.9621518746731466,41.41626711166294],[1.962268089555768,41.41632551731498],[1.9627730569954738,41.41652341222034],[1.963316004878448,41.4166522919976],[1.963871273530161,41.4168998346535],[1.9647767919629098,41.41715205000992],[1.965106547336353,41.41734936944255],[1.9653906768122675,41.41708771008661],[1.965848065957157,41.41686745362039],[1.9664698024313068,41.41666289636637],[1.9668888516807044,41.41664331483213],[1.9687727146884682,41.41665585969617],[1.968900167974224,41.41668873064138],[1.9692221159245318,41.41680585562435],[1.9695121563448548,41.41696328395443],[1.9698446672090792,41.4175096368464],[1.969948291042305,41.41763074501029],[1.9699554663209984,41.417632987242904],[1.969970915254381,41.41763407043881],[1.969988068765771,41.417628677261405],[1.96999934062659,41.41761755135701],[1.970001712602023,41.41760367237492],[1.9699979266978034,41.41759472745956],[1.9703113305455269,41.41679223176509],[1.971315681694448,41.41688371720312],[1.9717834996520331,41.41688746241732],[1.9731836190110486,41.41770744761381],[1.9735994471351344,41.417535180693285],[1.9737218867005646,41.41621849014091],[1.973256970944301,41.41580360429723],[1.973430332752289,41.415356582664444],[1.9763909220890696,41.41594682577966],[1.9759819382547992,41.41448398655136],[1.9784265533870022,41.4145552605975],[1.9776155378924551,41.413471671018385],[1.9800096412369237,41.413786563221315],[1.9828986050593027,41.414748910615366],[1.9833666863069102,41.41426585424578],[1.9835313733037734,41.41440367348188],[1.98372547202812,41.41463882423807],[1.9837724567414718,41.414892374471066],[1.9838491031765324,41.41488345408448],[1.9838792094215758,41.4145862818545],[1.9838808723395922,41.414480738717884],[1.9839958738553751,41.414462577606685],[1.9840838682339628,41.41454008878841],[1.9841302171797917,41.414837981244375],[1.9841783670388573,41.41502070283454],[1.9841743421972544,41.41527977889821],[1.9843112475915239,41.4154920537319],[1.9845758864660346,41.415686319637125],[1.9848168606920622,41.41576520290126],[1.9853382187088362,41.41584654987165],[1.9856051311970495,41.41589690860436],[1.985936953436317,41.415871019203394],[1.9862955892922287,41.4157590200994],[1.9865767534228544,41.41571353722971],[1.9870988407721903,41.415746904690195],[1.9876076264050928,41.41581856932524],[1.9880519304350595,41.41593761998937],[1.9882423658352413,41.41598725935444],[1.988329616651551,41.41611275672061],[1.988721777735113,41.41630814342225],[1.989176145193794,41.41661543844903],[1.9893399159223604,41.416726159638365],[1.9892082777130198,41.41699369409594],[1.9889106773994338,41.41727893769297],[1.98882058426484,41.41733573922062],[1.988754594218769,41.417479075021234],[1.988691123287161,41.41828454927358],[1.9887848872087073,41.418813112794325],[1.9887672390354338,41.419129626460986],[1.9887236535099482,41.41947468626199],[1.9887347466320175,41.419580337024726],[1.988477634794763,41.41972200595387],[1.988397558798409,41.4199515851089],[1.9883785684445563,41.42035443179926],[1.988293819534057,41.42048447851356],[1.9882479730977487,41.420554805944995],[1.9876831550296543,41.420808903628554],[1.9876057747279319,41.42086581151669],[1.9876029258556174,41.42104807371103],[1.9877151245135618,41.42121222556742],[1.9877084378089542,41.42164392742593],[1.987565319232586,41.42265021308572],[1.9874843837972371,41.422937359194364],[1.987542751738104,41.42328331557312],[1.987564965144606,41.42349461742012],[1.9875089246992064,41.42382037661474],[1.9875164786054713,41.42404052079827],[1.9872575404912978,41.42420367592492],[1.9870344834172304,41.42441312014933],[1.9865189217135264,41.424583237261345],[1.9863738440039922,41.424490029614226],[1.9860331361843975,41.424413486283285],[1.9856811894584592,41.42427251203967],[1.9854512088967105,41.424141853983805],[1.9851979233997519,41.42393739947734],[1.9850650654561222,41.423844320487646],[1.9848573689746518,41.423851666477354],[1.9847221672187563,41.423905630147445],[1.9846831187772098,41.42406154581133],[1.9847404329913418,41.42430101330116],[1.9848937289695592,41.42465164127079],[1.9849777862561064,41.42474429439117],[1.9849637328600969,41.42486363545699],[1.984938887223198,41.42489100588223],[1.9847567366025813,41.424825054230794],[1.9843707412524751,41.42451835021566],[1.9841063991022305,41.42424025033829],[1.9837939735219348,41.42391581893267],[1.9834786607789743,41.42377516155101],[1.9833040725617461,41.423699199649036],[1.983090532812755,41.42360630155762],[1.9829210284802177,41.423512896155934],[1.9827886052378156,41.42339222873289],[1.9827300976346565,41.42322627706873],[1.9826840226812932,41.42305121174008],[1.9826120319921066,41.42296785569043],[1.9820602994683696,41.42311004332063],[1.9818771337798953,41.42310842695791],[1.9817072437386025,41.42304258348655],[1.9815762113397022,41.42283004704131],[1.9812007073135836,41.42259112030909],[1.980859966907657,41.42242661316988],[1.9807347980301397,41.42219942312371],[1.980976834804133,41.42181394298715],[1.981133565736413,41.42139543783848],[1.9811385894776181,41.4210725220877],[1.9807509351777484,41.421165962805425],[1.9803617635602098,41.42135632637351],[1.9799107930600581,41.42138462001725],[1.9795672755777651,41.421397723794485],[1.9792414357304642,41.421653246334344],[1.9791503053628248,41.42199157067838],[1.9792098606000832,41.4222989585839],[1.9792926404166002,41.42249349168284],[1.9794635114259957,41.422543440359554],[1.9796563055990926,41.42256131423424],[1.9798805223356144,41.42272309834556],[1.9798901434650975,41.422888649501644],[1.9797896057136943,41.42307157636852],[1.9797881674104134,41.423163461553884],[1.9798116115735578,41.423228013778115],[1.9800916776035125,41.42327646628234],[1.980310031963896,41.423370304340054],[1.9805010842261492,41.423647740946],[1.9805470404727281,41.42383195757742],[1.9806184243615539,41.42395208671341],[1.9808340393915878,41.4242205258309],[1.9808935245070889,41.424322178800004],[1.980914635062576,41.42453376931449],[1.9805948781692861,41.424872541684294],[1.9803439893445873,41.42504615603366],[1.9802560505069178,41.42506735910369],[1.9801025850968965,41.425333599248276],[1.9799824956896945,41.42551840654836],[1.9798955710536488,41.42572553987935],[1.9798615884263349,41.4260245270922],[1.9797661518937273,41.42623789450077],[1.9797194224707815,41.426281593763846],[1.9796690043482754,41.42629373893211],[1.9796267332516335,41.426321737286074],[1.9796027472232784,41.426516827252335],[1.979589721287166,41.426545053462725],[1.9795222165197872,41.42657914663461],[1.9794593508071041,41.4265848581046],[1.9792257547971057,41.426535550859555],[1.9787338262442264,41.426408333070974],[1.9785960987813995,41.42638187612243],[1.9783913777466127,41.426358030728906],[1.9781496053082233,41.42629601582722],[1.9778427952434872,41.42624241193984],[1.9775618457854491,41.42622515670595],[1.9773527585532709,41.426213444146],[1.9772743755669897,41.426207811290084],[1.9769551585921468,41.426126234884194],[1.9767335279456348,41.42607996089352],[1.9764784580714936,41.426082596335675],[1.9763667120195383,41.42611605983858],[1.9763269646127493,41.426150163923914],[1.9763127794271311,41.426218962234444],[1.9763704146410042,41.4262982401926],[1.976415268491113,41.42635771424802],[1.976512170137789,41.426432391944104],[1.9765884192143055,41.42657582387675],[1.9766376906061236,41.42676821412636],[1.9768375472005255,41.42695214370607],[1.9770113606692854,41.427130891792544],[1.9771131690456911,41.42730899939862],[1.977129596946517,41.42751586949858],[1.9770943790348414,41.42767309554655],[1.9770570547847477,41.42777465521744],[1.976992471381389,41.427950301421376],[1.976842785173603,41.42816244075861],[1.9766847792593485,41.4283193896944],[1.9766923234540175,41.42842275799957],[1.9768730066600453,41.42856894261941],[1.977035183206525,41.42872877971708],[1.9770340788160747,41.428797604330754],[1.9767579360981453,41.428905317775325],[1.976317230301201,41.429004711679724],[1.97597614581586,41.42916692548453],[1.9758658128552626,41.429200360514486],[1.9756711360861423,41.42936387670229],[1.9755403585809153,41.42953487027715],[1.9752343591649528,41.4297937958063],[1.9747910515499032,41.430058405577626],[1.9741763942387545,41.43016308647952],[1.9736537618471113,41.43023417695278],[1.9730459846092654,41.43040443287185],[1.9730459484963683,41.430404446060535],[1.9729662782862927,41.43042756383997]]]}}]}
