{"type":"FeatureCollection","municipality":"Santa Coloma de Gramenet","source":{"organization":"Àrea Metropolitana de Barcelona","title":"Àmbits Estadístics Metropolitans","official":true,"accessedAt":"2026-08-12"},"features":[{"type":"Feature","id":"082457--amb-aem--centre","properties":{"name":"Centre","municipality":"Santa Coloma de Gramenet","kind":"zone","quality":"official","sourceCategory":"amb-aem","code":"0824504"},"geometry":{"type":"Polygon","coordinates":[[[2.210153332674681,41.45496390609205],[2.2096239286686887,41.455425120085806],[2.209270426484868,41.45577886640803],[2.2092056514006253,41.45585924917124],[2.209259785072936,41.45595657713098],[2.2092258889747987,41.45606501859063],[2.209190520040385,41.45635186879598],[2.208580294278228,41.45716335645624],[2.206325841103446,41.45534016154053],[2.2064920745079926,41.45497326083427],[2.206512635646428,41.45488357170014],[2.20650826901351,41.45474084157754],[2.2064853511348526,41.454621627952314],[2.2064727011490803,41.45455586310679],[2.206451724320514,41.45441935060502],[2.2064347790359355,41.454407866345825],[2.206397176497407,41.45423170107482],[2.2063660362111217,41.4540857597253],[2.206654402860744,41.45392691692017],[2.2066701226836654,41.45391270353939],[2.2067024268436417,41.45387768479927],[2.206700433028715,41.45385363925709],[2.2066716854418003,41.45383407054748],[2.2066556429323327,41.453823182531856],[2.206486036165296,41.453707825633415],[2.206492682343576,41.4536620372303],[2.2067977018150127,41.45332080960382],[2.2071415573704907,41.45263249568299],[2.2072987797078247,41.45235524992559],[2.207515703286728,41.45197257804425],[2.2076811442028923,41.45168083685529],[2.208018957949611,41.45109600078167],[2.2082837664572206,41.450616439895086],[2.2083862193758574,41.450435140969375],[2.209147922125394,41.44917680052392],[2.2098658229786086,41.447874364240974],[2.210431023062898,41.448066869563135],[2.2104253958646094,41.44823081567346],[2.210349521733268,41.44873361641183],[2.210474662482888,41.448763781031005],[2.2105468189687483,41.44912156034044],[2.2114734032126426,41.44898491811326],[2.2117360539856787,41.44920198670246],[2.21175267474799,41.44926249989452],[2.211963689276155,41.449874559066224],[2.2138910398447855,41.44953499729312],[2.21418432397298,41.44948332136841],[2.214294011565722,41.44930169722553],[2.21571113178881,41.44973073548361],[2.215249482500449,41.4506046987506],[2.2150692014056994,41.450967566898036],[2.216521915681589,41.451279106447785],[2.216545537224994,41.451438788823474],[2.2135007428682947,41.45324042923009],[2.213961634313736,41.453151780371705],[2.2142350571879987,41.453217416433304],[2.2145764014081495,41.45348602046551],[2.214690489553936,41.453586241312856],[2.2154246435841616,41.45428274160395],[2.2126169687413495,41.454571147476095],[2.2122385706091867,41.45460042950495],[2.210606557525717,41.45477870811595],[2.2104041666032193,41.454713605080634],[2.210153332674681,41.45496390609205]]]}},{"type":"Feature","id":"082457--amb-aem--can-franquesa","properties":{"name":"Can Franquesa","municipality":"Santa Coloma de Gramenet","kind":"zone","quality":"official","sourceCategory":"amb-aem","code":"0824501"},"geometry":{"type":"Polygon","coordinates":[[[2.195516059934154,41.47235261949432],[2.1953806385916916,41.472376429064965],[2.1952886702055463,41.47238881576816],[2.1951862900832513,41.472402431114865],[2.1950441181789637,41.47241186320352],[2.194917603584265,41.47241618853034],[2.1947876544331777,41.47241788293688],[2.1946923468625035,41.4724198242408],[2.1946176370280277,41.472437541109855],[2.1945639010823252,41.47243977338123],[2.194505008589709,41.47243936187844],[2.1944375626135586,41.472429769562076],[2.194373631855417,41.4724162926213],[2.1942674022857482,41.472380591769344],[2.1941394421727534,41.47237969624205],[2.1939787847556813,41.4723393577947],[2.1937617030644874,41.47226297600596],[2.193578324207444,41.4721440513205],[2.1934746497742257,41.47212595457264],[2.1934021859972472,41.47210199120952],[2.1933488451290315,41.472072954740106],[2.1932887311168274,41.47203083885577],[2.1932304505088087,41.47198091648692],[2.1931489715898045,41.47190748961964],[2.1930631271249785,41.471825794812595],[2.1930067574343486,41.47178260074224],[2.1929206969623225,41.47171892719318],[2.192861271851942,41.471680216206494],[2.1927632878329617,41.471611949770825],[2.19266821027489,41.471550465496954],[2.192581269323624,41.47151678101319],[2.192515319025798,41.471484234636314],[2.19244781646994,41.47145826892963],[2.192352555102527,41.47143450153843],[2.1922405577218402,41.47138494908874],[2.192123546085871,41.4713531518029],[2.191999203994223,41.471308824069766],[2.1918291664418588,41.47126142699472],[2.1917033451757364,41.47122186516646],[2.1915947805323843,41.47118545637107],[2.1915144325584626,41.47116706602357],[2.191436342962514,41.47114311231951],[2.1913589581785833,41.47110427250427],[2.191290553360733,41.47106550207892],[2.1911658441410693,41.470979023495104],[2.1910797537495923,41.47091760110271],[2.191002675030092,41.470853990180835],[2.1909492184783,41.470817570228405],[2.19088372390232,41.47078557647191],[2.1908182926565374,41.470749073124416],[2.1907650043006957,41.47069914408803],[2.190731260028555,41.4706693849651],[2.190699707302839,41.47065137787852],[2.190649327594407,41.47060822479415],[2.1905720547375993,41.47056037964895],[2.190550355612432,41.4705516302978],[2.190518415820958,41.47054106414308],[2.1904873260412527,41.47053533372326],[2.1904488820620607,41.470531613326735],[2.190176066566274,41.4705712007413],[2.1899186605550165,41.47060891891201],[2.1891439582983745,41.47080432502654],[2.1889301053669463,41.47084419271108],[2.1888080468806272,41.47064009288402],[2.1888410239931093,41.47057376985932],[2.1892778696968294,41.46947866888282],[2.19007247732263,41.469621440282815],[2.190247292737362,41.46925230072956],[2.191163075901845,41.46991717974014],[2.1916112002615495,41.46956824917781],[2.1906978624020614,41.46870677306829],[2.1903242278539685,41.46844351023825],[2.1903091766693032,41.46818734216168],[2.1906696408611848,41.467554303882274],[2.1907803628957647,41.4674499170648],[2.192059361452532,41.46774697333457],[2.192041121655745,41.46725758612927],[2.1899322780685226,41.46672149153706],[2.190113885567853,41.46580598422076],[2.1900641812866377,41.4656478832263],[2.1899563635351194,41.46551909287413],[2.1898788847888633,41.465395091855314],[2.189790180174158,41.46519556125704],[2.189789279226329,41.465024090113474],[2.1898441900973356,41.46476384334744],[2.1898802101419577,41.464556048683804],[2.1898739377832226,41.464327378746404],[2.189832744811697,41.463973863512074],[2.1899540436818823,41.463498888450985],[2.190190459054612,41.46356028566128],[2.1910446202709504,41.46355257765123],[2.1911671455030675,41.46323107795921],[2.191231509560892,41.46318809234208],[2.1913017736166083,41.463158866438356],[2.1913993684764907,41.46313211599609],[2.191484690651858,41.46311442622265],[2.191758091577624,41.4631254901144],[2.192189160744439,41.463167385152154],[2.1923805365387805,41.463175588116066],[2.1925752372092706,41.46316095331879],[2.19272773060044,41.46311858094029],[2.19285920211178,41.46305549245276],[2.192933016821525,41.46298513565181],[2.1930259230976357,41.46284632588779],[2.1930947945216843,41.46268448666171],[2.1928679131836124,41.462598301885606],[2.1928444802203404,41.462527262721636],[2.192870067704482,41.462424559729904],[2.192953282752825,41.46233140808197],[2.193045360095544,41.46225889595301],[2.191329949620228,41.46095226016196],[2.1917824081821857,41.46058619963777],[2.1922777813573755,41.46021151681677],[2.1925839542069987,41.45996633650051],[2.1928564459041002,41.459806331745455],[2.1945346793784575,41.46080802727765],[2.1947217194028013,41.46068899791327],[2.1948384948264166,41.46055985202227],[2.1948469185682877,41.46039625094158],[2.1948623371070357,41.46018456324131],[2.194915307041744,41.46004052726392],[2.1950004466635686,41.4598822775218],[2.1951103504978495,41.45979158990482],[2.1953159839092966,41.459720825225766],[2.1955399824805326,41.45971757752658],[2.195718655556783,41.45975733810942],[2.195877720274555,41.45983065354538],[2.1960296725461967,41.45996167904201],[2.196168469805955,41.460121494655525],[2.196326585101212,41.460271820656736],[2.196440801741785,41.46034963191659],[2.1965366577402774,41.460359930416274],[2.196625979358971,41.46036268003061],[2.1966144447449008,41.46045999654684],[2.1969487275765465,41.461098645380986],[2.1972147576109458,41.46101985001391],[2.1970985037214477,41.46051342144408],[2.197204985254329,41.460356868311784],[2.1973577464726888,41.46030073731523],[2.1976234036619307,41.46033833658701],[2.1980648806459473,41.46076324105044],[2.1983007936935146,41.460900730685815],[2.198430059829342,41.46097605973083],[2.1986306116213803,41.461131812486535],[2.1987118303403617,41.460996244867744],[2.198883336468854,41.461036972951696],[2.1989466753790543,41.46106988575386],[2.1988049071122466,41.46115072617009],[2.1986809660795,41.46117092664719],[2.198543931732645,41.461224155991665],[2.19842038156198,41.461223295094584],[2.1984191424686714,41.461324399081164],[2.1986167100796723,41.461489201514674],[2.1988245588509843,41.46159074415589],[2.198976441887262,41.46160609667613],[2.1990623239471536,41.46157809619294],[2.199120742621167,41.46153019173135],[2.199184200814223,41.46147754389619],[2.199236993065644,41.46138960282313],[2.1993617716322467,41.46118694907955],[2.1995087343202337,41.46113594512477],[2.1996261205007075,41.461136577311436],[2.199759438918195,41.46117270130591],[2.1999652865370476,41.4612948864544],[2.2001968234664635,41.46150785984584],[2.200295020697822,41.46167962021621],[2.2003804187803007,41.461805993289474],[2.200676081106861,41.462240781918496],[2.200720758345147,41.46241718260813],[2.2007261473685755,41.462522935444845],[2.2007917333744236,41.46262902547454],[2.20095805658954,41.46270564948867],[2.201065309175129,41.462686294449774],[2.2012660169305165,41.462628293488685],[2.201459426632901,41.46254534955244],[2.201606410570073,41.46278461115937],[2.2016543121180248,41.46296049791473],[2.2016770202894893,41.463081174568345],[2.201668636510514,41.46314867190287],[2.2016486677722518,41.46326446308621],[2.201594897516463,41.463381996777265],[2.20157576718151,41.46352606349377],[2.20157408480475,41.46366369392564],[2.2015814467836083,41.463775166586295],[2.201650020176407,41.46386733789095],[2.2017537452783658,41.46393363163464],[2.20186641414776,41.46397368122653],[2.2020839779583126,41.46399491682952],[2.202687118623984,41.46404450089823],[2.2031284301947185,41.46408078731531],[2.2033375700558593,41.4640756560726],[2.2035209280416006,41.46404414339996],[2.203783433674433,41.46395426090415],[2.2039578103007256,41.46394231699695],[2.204131637150539,41.46397630677215],[2.204261295870774,41.46405583391831],[2.2043473429010625,41.464148124496795],[2.20438454300183,41.464234744775716],[2.2046093091263876,41.46427673343708],[2.205448401681231,41.46457805188329],[2.2056630123654943,41.46464626544582],[2.205712456811617,41.464662883256224],[2.2059091316208743,41.4647289908785],[2.2062692433970668,41.4648172718534],[2.2072312683451045,41.46562665476676],[2.2074445546027435,41.46579914355528],[2.207669504283708,41.46548289418069],[2.2099392171091483,41.46387170164948],[2.2099714885030326,41.463701048342706],[2.2089854960487454,41.46286609985659],[2.21038897049906,41.463394015173314],[2.2105325011329207,41.46353484031124],[2.2106959900347776,41.463695244702905],[2.2110688738322515,41.46406109390637],[2.2112097505925616,41.46438358832324],[2.2114833269506056,41.46473375328638],[2.211661680013595,41.4649620298743],[2.2119429850282586,41.46510649059624],[2.212082840454327,41.465317050923176],[2.212262654241779,41.46546204962731],[2.2125037309829287,41.465605688521784],[2.2128512676913688,41.465782356027276],[2.21309702119299,41.46600687161073],[2.2133997606054967,41.46626052799677],[2.2131105696715143,41.466467008296604],[2.2133767622330534,41.46658204301984],[2.213719984776715,41.466649080836966],[2.2140255508400366,41.46666913894262],[2.2143841487527434,41.466650024968985],[2.2146905823553866,41.46659820817453],[2.2149592650643175,41.4665065949357],[2.215138255030106,41.46632452026957],[2.2153893911833924,41.466103399468466],[2.2156783134852405,41.46591847529768],[2.2158556944868355,41.46497713649351],[2.215797906721824,41.46352742858231],[2.215808412562999,41.46322047826211],[2.215828903785412,41.463041339040814],[2.2160053001810858,41.462856362842814],[2.216079788005302,41.46276033812214],[2.216155859293936,41.4625333068962],[2.216151215076796,41.46244814173545],[2.216212204684251,41.46220316400991],[2.21626209766056,41.46209608611688],[2.2176617743101623,41.46285336868483],[2.218037390234115,41.46323239183321],[2.2184244628378185,41.46345945556715],[2.2189235566310086,41.463575059935536],[2.2194315435429255,41.463551359889955],[2.2198210466937405,41.46357572372797],[2.2199986461127406,41.46362976561343],[2.2201482997920983,41.46371407180728],[2.220209631644005,41.463821671238485],[2.22023258173524,41.46395153797693],[2.220228984764045,41.46410034296847],[2.220254642596951,41.46423159717807],[2.2203224989254338,41.46432490097842],[2.2204195448745034,41.46440611646809],[2.221252460860369,41.464960214839834],[2.2214645569413274,41.465132724603485],[2.2116890198567063,41.47064877420513],[2.2109509600323975,41.4710062341502],[2.210823649562223,41.47100015987809],[2.2107696217128927,41.47099164739914],[2.210710236981883,41.47097800715766],[2.210630658356842,41.47095608742182],[2.210547063755123,41.47093006422247],[2.2104312044043506,41.47088652079075],[2.2101820310414375,41.47078811213099],[2.2098937943227046,41.470675113755036],[2.2096950662471557,41.470590782311056],[2.209552707203338,41.47052926091117],[2.209455030417537,41.47049295368298],[2.2093871569951684,41.4704747606281],[2.2092852918998904,41.47045239403417],[2.209218622104384,41.47044307242921],[2.209150605183039,41.470436695948514],[2.209078678516038,41.470429306234195],[2.2090302643733506,41.470426019797756],[2.2089844140896653,41.47042767261229],[2.208934586956754,41.47043323969367],[2.2088650241374386,41.470446551581816],[2.208783595488251,41.470466673363624],[2.2086823226142345,41.470490755131905],[2.2086037218186347,41.4705058160706],[2.20854354407913,41.470506740514885],[2.2085049968967567,41.47050206615459],[2.208444577196336,41.47048645581189],[2.2083897595079347,41.470474413988754],[2.2083394271038523,41.47045703009974],[2.20830145426038,41.47044157327076],[2.208238871542016,41.47041919599021],[2.2081492706002654,41.47040338552241],[2.2080618763417483,41.470390961645116],[2.2079587469820434,41.4703801236434],[2.2078667969381667,41.470372738508985],[2.2077860527388506,41.47036711756515],[2.207709778558094,41.47036321443909],[2.2076379743670027,41.470361030941014],[2.207530332812941,41.47035185125923],[2.207442837112056,41.47034786974324],[2.2073486431270615,41.470340466931674],[2.207243208202077,41.47033467725769],[2.2071400016163536,41.470330589031015],[2.207032339665291,41.470323093125245],[2.2069223307771697,41.470324023566405],[2.206814634846422,41.4703199076972],[2.206691222085748,41.47031567972811],[2.206594747789129,41.47031163744387],[2.2064420495826105,41.47031565073094],[2.206344037375534,41.470318304531034],[2.206246625632186,41.47032612182592],[2.2061462018292493,41.470346906910606],[2.206080168613901,41.470363391358745],[2.2059897676228726,41.47039013181663],[2.2059236389323638,41.47041443303165],[2.205838316450704,41.47045032301026],[2.2057616833951332,41.47048367249148],[2.2057034103379394,41.47050809807947],[2.205664157870058,41.47052599672764],[2.2056176409615165,41.47054633843889],[2.2055207529450738,41.47057606020915],[2.205387766789898,41.47062072890035],[2.2052592031509626,41.47067049465192],[2.205121603547303,41.4707252590694],[2.205024550029968,41.47076848676091],[2.20488231379223,41.47083504194708],[2.204715488274955,41.47089298251676],[2.2046276376251104,41.47091770025877],[2.2045937845106773,41.47093266253493],[2.2045237868748884,41.47096594808142],[2.2044672172987707,41.47100269882482],[2.204369669870195,41.471086445896304],[2.204294937249105,41.47113995617225],[2.2042223830541428,41.471198548127504],[2.2041611596722124,41.47124877670688],[2.204093039846852,41.471312466817956],[2.2040455080715917,41.47134421773386],[2.2040182824983816,41.471367664725],[2.2039658723932916,41.47143146167017],[2.203911281255483,41.4714901768383],[2.2038047293024143,41.47157554728272],[2.203682569159628,41.47165236784486],[2.203598999878695,41.47169399968871],[2.2034838414687004,41.471748922010235],[2.20342288570008,41.47177720193455],[2.2033125034607033,41.47180851816597],[2.2032089580944065,41.47183143632311],[2.2031280689631787,41.47183763330261],[2.2030348577006893,41.471838643964475],[2.2029618231853583,41.47184830004247],[2.202867459769337,41.47185439716448],[2.2027192142188996,41.47186181502939],[2.202593450135639,41.47186600538399],[2.202528186985124,41.47187906581043],[2.2024604947298996,41.47190729761709],[2.2023903962941724,41.471949021980976],[2.2023180890931684,41.47198735051079],[2.2022613115187752,41.47204098937219],[2.2022067390416264,41.47209801496501],[2.2021591022959046,41.47213820428946],[2.202106961293104,41.472180052134895],[2.201953141548692,41.47227522446065],[2.2018738953820933,41.472330391616254],[2.2017856932010975,41.47238381038255],[2.2017158364197518,41.472405272985995],[2.2016052304138953,41.47245515925346],[2.2015464965985916,41.47248514248514],[2.2014448024052253,41.47254015171115],[2.2013700828004623,41.47259197577393],[2.2013203508698154,41.472620332505414],[2.201277286758279,41.4726538021726],[2.2012027108215295,41.4726938049262],[2.2010942042038244,41.472755522069505],[2.2010016089937237,41.4728004661906],[2.2008706117482606,41.47286540646108],[2.2007396924432716,41.47292359068145],[2.200635777056097,41.472976895766394],[2.200579262158245,41.473008581904594],[2.20044599922616,41.47307518942131],[2.200374906540757,41.473099182697396],[2.2003106079423693,41.47311567407405],[2.200249607631014,41.47314521753275],[2.200169412821664,41.47318635600652],[2.2001048233431915,41.47322630138074],[2.2000714779901718,41.47326124783307],[2.2000487021475665,41.473281937031935],[2.199987718806898,41.47331017529808],[2.199944095648817,41.473335934752356],[2.199905599737244,41.4733669361244],[2.199874191716548,41.473384958504965],[2.199814993864354,41.473409302595506],[2.199754234573928,41.47341930684181],[2.199695404067475,41.47341368314977],[2.1996521422008315,41.47340947292838],[2.1995899890646538,41.473392102949624],[2.1995086710064204,41.473383722242886],[2.199461885384842,41.473384699100315],[2.1994169115189828,41.47337917620867],[2.1993806736141805,41.47336719636202],[2.1993342222942895,41.47334081375703],[2.1992825612733173,41.473315699136116],[2.199151407948773,41.47327439152688],[2.1990738224272874,41.473243884635366],[2.1989875259358267,41.473217226234766],[2.198952914672241,41.473214382964386],[2.1988717561875166,41.47319297013155],[2.198814895833927,41.473167816385036],[2.1987528554490905,41.473141327661324],[2.1986787062774495,41.47311344577402],[2.1985924249465882,41.47308548651601],[2.1985044686260444,41.473053604514476],[2.198413039615431,41.47302169464178],[2.198335492817313,41.472988583486526],[2.198297638474146,41.472967472053725],[2.198254635060689,41.47294241641282],[2.198139105778283,41.472898613417996],[2.1980685142669887,41.47286294383218],[2.1980117199818214,41.47283257577277],[2.1979480610580944,41.47279695444968],[2.197892868727059,41.47277702805577],[2.1977408320403313,41.47274339342012],[2.197614556693754,41.4727281827564],[2.1975523393097,41.472716022001855],[2.1974778858152852,41.47271289401985],[2.1973341539487237,41.47270798279832],[2.197207732876151,41.472704499189526],[2.197128114304344,41.47269873179703],[2.1970018332550656,41.47268351681813],[2.1969102345914506,41.47266593892204],[2.1968169686868824,41.472643138537805],[2.196716834728436,41.47261508114212],[2.1966279549729646,41.47258701669413],[2.196561540198974,41.47256448290515],[2.196485725357934,41.47253137899778],[2.1964031241575728,41.47248650451436],[2.196327406074953,41.472445580965214],[2.1962602840590852,41.47240993451121],[2.196218947846887,41.47239010053216],[2.196167156434044,41.47237540784936],[2.196118787139906,41.472364648266],[2.1960238177799978,41.47233922769499],[2.1959237317708076,41.47230725893665],[2.1958754580223614,41.47228867880477],[2.1958443231732403,41.47228455103057],[2.195804433681012,41.472288182252676],[2.1957435943888575,41.472304694362826],[2.1955838430418844,41.47233485269795],[2.195516059934154,41.47235261949432]]]}},{"type":"Feature","id":"082457--amb-aem--can-mariner-santa-rosa","properties":{"name":"Can Mariner, Santa Rosa","municipality":"Santa Coloma de Gramenet","kind":"zone","quality":"official","sourceCategory":"amb-aem","code":"0824502"},"geometry":{"type":"Polygon","coordinates":[[[2.2166657806478653,41.44336210924224],[2.217243541732369,41.443924689534384],[2.2174917865747443,41.44426992474245],[2.217922885816693,41.444628227639996],[2.218345122649252,41.444979159157164],[2.218957242343862,41.4455379414778],[2.2191505982129986,41.44584375132824],[2.21929224184707,41.44600198339575],[2.219376841581418,41.44609649153519],[2.2195539810099083,41.44623117911176],[2.2198278017039006,41.446445838000486],[2.2199288159411354,41.44654281519713],[2.2196153861373777,41.44660428184744],[2.218968141712223,41.44674432341384],[2.2187694255670247,41.44663222768114],[2.2187118718576553,41.44659689247316],[2.2184440565151458,41.44650833616903],[2.21822636908686,41.44659006315219],[2.218175645019612,41.44660910692378],[2.217889252134729,41.446831445208566],[2.2174448198592174,41.44721530993584],[2.21723113942739,41.4473991119695],[2.2169384480450574,41.44765087729821],[2.2168537579022827,41.44774469864283],[2.216731582566024,41.44787996909729],[2.216558002202429,41.44812155982742],[2.2163785338344146,41.448401171067125],[2.2162327140669253,41.448682488491706],[2.216139207177705,41.44886657571257],[2.21571113178881,41.44973073548361],[2.214294011565722,41.44930169722553],[2.21418432397298,41.44948332136841],[2.2138910398447855,41.44953499729312],[2.211963689276155,41.449874559066224],[2.21175267474799,41.44926249989452],[2.2117360539856787,41.44920198670246],[2.2114734032126426,41.44898491811326],[2.2105468189687483,41.44912156034044],[2.210474662482888,41.448763781031005],[2.210349521733268,41.44873361641183],[2.2104253958646094,41.44823081567346],[2.210431023062898,41.448066869563135],[2.2104682871407126,41.44777736986194],[2.2104843897393143,41.447723985259465],[2.210727023625158,41.44732599963263],[2.21074283508238,41.44730006763708],[2.2107631042267646,41.44723624494381],[2.210895320620809,41.44635917521956],[2.2109394187352382,41.44612734719687],[2.210977074319943,41.44582994589204],[2.2110236487764006,41.44555274634827],[2.211030787109525,41.445476862651],[2.211020963312092,41.445428065064824],[2.2109868293222514,41.44534045885488],[2.2109625042292746,41.44529201217176],[2.210934617183474,41.44525299885528],[2.210819470363231,41.44514104374275],[2.210943763656719,41.44502816851024],[2.210949266730168,41.44501611828139],[2.210979939357171,41.4448810235058],[2.211509932929866,41.4443146895333],[2.2120020451945064,41.444617743376185],[2.212116710286365,41.4447428944121],[2.2121806997443048,41.44474008547636],[2.212313198540101,41.44478389071086],[2.212633907926876,41.44497912456016],[2.212936918494893,41.445066993917294],[2.21317384356428,41.44511865998042],[2.2139141816023384,41.445156810163844],[2.2139091683386476,41.44485259936425],[2.213894990270256,41.44481477033702],[2.2143942411300372,41.444764942449595],[2.2150596802988503,41.44474088631769],[2.215496838036492,41.44472565534943],[2.21552706054356,41.44462266326835],[2.2156060934042574,41.44437516895129],[2.215969978848352,41.44371513914307],[2.216392360835668,41.443500627103575],[2.2166657806478653,41.44336210924224]]]}},{"type":"Feature","id":"082457--amb-aem--cementiri-vell-riera-alta","properties":{"name":"Cementiri Vell, Riera Alta","municipality":"Santa Coloma de Gramenet","kind":"zone","quality":"official","sourceCategory":"amb-aem","code":"0824503"},"geometry":{"type":"Polygon","coordinates":[[[2.221252460860369,41.464960214839834],[2.2204195448745034,41.46440611646809],[2.2203224989254338,41.46432490097842],[2.220254642596951,41.46423159717807],[2.220228984764045,41.46410034296847],[2.22023258173524,41.46395153797693],[2.220209631644005,41.463821671238485],[2.2201482997920983,41.46371407180728],[2.2199986461127406,41.46362976561343],[2.2198210466937405,41.46357572372797],[2.2194315435429255,41.463551359889955],[2.2189235566310086,41.463575059935536],[2.2184244628378185,41.46345945556715],[2.218037390234115,41.46323239183321],[2.2176617743101623,41.46285336868483],[2.21626209766056,41.46209608611688],[2.216212204684251,41.46220316400991],[2.216151215076796,41.46244814173545],[2.214929930662397,41.46126013067465],[2.214523416907853,41.46081646082679],[2.214158591746643,41.46051150021033],[2.213599043644671,41.46022243403528],[2.213427707279962,41.46006549741108],[2.213518587328276,41.45955675422297],[2.2130670641671224,41.4593376189087],[2.2127323855302015,41.45912179013112],[2.2106764938782657,41.45734362189799],[2.2106242144999118,41.45734983856469],[2.2097409208035894,41.457989344056394],[2.208580294278228,41.45716335645624],[2.209190520040385,41.45635186879598],[2.2092258889747987,41.45606501859063],[2.209259785072936,41.45595657713098],[2.2092056514006253,41.45585924917124],[2.209270426484868,41.45577886640803],[2.2096239286686887,41.455425120085806],[2.210153332674681,41.45496390609205],[2.2104041666032193,41.454713605080634],[2.210606557525717,41.45477870811595],[2.2122385706091867,41.45460042950495],[2.2126169687413495,41.454571147476095],[2.213594964551373,41.45545212016385],[2.2136381345892655,41.455490678795364],[2.214150003148695,41.455154209835065],[2.2147455245346066,41.45568258045043],[2.215616824255648,41.45646069037803],[2.2157705242414383,41.45662422763064],[2.2166730856830332,41.45739560509274],[2.216816810514126,41.45752203000591],[2.216850017043109,41.45755124014847],[2.216914983684321,41.45761076477521],[2.2170052636782738,41.45769546265351],[2.217163165964119,41.457838154645124],[2.2173549117743754,41.45801383665572],[2.2181171858229454,41.45871223382361],[2.218395296188736,41.45924887419269],[2.218351596802534,41.46025740114473],[2.2202819192666143,41.46065405370658],[2.220305981832195,41.46129125425054],[2.22081834855884,41.46167316520205],[2.220276380368952,41.46223317913197],[2.2199881575217635,41.46270382846481],[2.2197729863908053,41.46278003285205],[2.2209240078658854,41.46432597528062],[2.2214043518682334,41.465042872669855],[2.2214645569413274,41.465132724603485],[2.221252460860369,41.464960214839834]]]}},{"type":"Feature","id":"082457--amb-aem--el-raval-safaretjos","properties":{"name":"El Raval, Safaretjos","municipality":"Santa Coloma de Gramenet","kind":"zone","quality":"official","sourceCategory":"amb-aem","code":"0824505"},"geometry":{"type":"Polygon","coordinates":[[[2.2064475966006203,41.4436148707818],[2.2068345948275225,41.44311606252109],[2.206943374141101,41.44296212960453],[2.207063117507222,41.442779239387924],[2.2071940616375283,41.442576542317816],[2.207322238575841,41.44237285772304],[2.2073723882272644,41.44228984665531],[2.207470466996664,41.44212310296903],[2.207567653279637,41.44195115845665],[2.207615663068074,41.44186254522202],[2.2076624442345203,41.44177356410674],[2.2077495740575985,41.44160380112159],[2.207830267063391,41.44144219411135],[2.207911097447178,41.44127309559816],[2.2079515598457924,41.44118479864808],[2.2079907331499835,41.44109618745499],[2.208093846851993,41.440852641705725],[2.2081564859281233,41.44069740722657],[2.2082255557147676,41.44051524148995],[2.208290413641368,41.44033221623308],[2.2083468035039813,41.44016445341416],[2.208400991819385,41.43999629079537],[2.2084682919273955,41.43977030682533],[2.20862538942888,41.43919007170846],[2.209410851456516,41.43638587315427],[2.20953782390452,41.436009854298334],[2.2096270507106763,41.435759319918006],[2.209706554527278,41.43555502685126],[2.209746297604254,41.43545852655207],[2.209804880600161,41.43531177248734],[2.2098875826716866,41.4351169554633],[2.209979986688696,41.434910872727606],[2.2100971755945147,41.43466168110057],[2.2101665051679946,41.43451800640243],[2.210304635792908,41.43424841142724],[2.210459426422091,41.43396734432842],[2.210663721191765,41.43359911199711],[2.210759188015086,41.433430293595926],[2.2113843695867836,41.43366859990065],[2.213035809766466,41.43429806932186],[2.2132598805950434,41.43435161001707],[2.2133719780024297,41.43437737134016],[2.213634238931214,41.434385338024214],[2.214181744834139,41.434626287685525],[2.214231191396006,41.43466633837724],[2.2143627206108203,41.434730014108304],[2.214564607843506,41.43487896530478],[2.2146697861832454,41.43492090054108],[2.214024066054608,41.435688974955035],[2.2132218963980823,41.43673499671821],[2.213157443649371,41.43705400948568],[2.2134216647292138,41.43712674911214],[2.213600862977997,41.437269420849404],[2.213662968775068,41.43764299412352],[2.2137326642037163,41.43805603218991],[2.2138135165260913,41.43838555194806],[2.213657013692767,41.438677375547506],[2.213385255652516,41.439298737235625],[2.2132365011293986,41.4398661256184],[2.213781442355315,41.44055648848552],[2.215077247003834,41.44195855759341],[2.2155359190261876,41.442476243410965],[2.2166657806478653,41.44336210924224],[2.216392360835668,41.443500627103575],[2.215969978848352,41.44371513914307],[2.2156060934042574,41.44437516895129],[2.21552706054356,41.44462266326835],[2.215496838036492,41.44472565534943],[2.2150596802988503,41.44474088631769],[2.2143942411300372,41.444764942449595],[2.213894990270256,41.44481477033702],[2.2139091683386476,41.44485259936425],[2.2139141816023384,41.445156810163844],[2.21317384356428,41.44511865998042],[2.212936918494893,41.445066993917294],[2.212633907926876,41.44497912456016],[2.212313198540101,41.44478389071086],[2.2121806997443048,41.44474008547636],[2.212116710286365,41.4447428944121],[2.2120020451945064,41.444617743376185],[2.211509932929866,41.4443146895333],[2.210979939357171,41.4448810235058],[2.2108401010583276,41.44482157001725],[2.210809645438539,41.44480585929249],[2.2103325597265306,41.444534997002705],[2.210094133672523,41.44446679965395],[2.209749824310231,41.444372473527],[2.2092264234274896,41.44415297312783],[2.2088617080517152,41.44399052045958],[2.2086712670553315,41.44391722768162],[2.2084105388357913,41.443943451486156],[2.2082416361482884,41.44385030069282],[2.208082925166592,41.4437932495484],[2.207428923985591,41.443717086893855],[2.2066609020308325,41.44362763643469],[2.2064475966006203,41.4436148707818]]]}},{"type":"Feature","id":"082457--amb-aem--llati","properties":{"name":"Llatí","municipality":"Santa Coloma de Gramenet","kind":"zone","quality":"official","sourceCategory":"amb-aem","code":"0824506"},"geometry":{"type":"Polygon","coordinates":[[[2.218807359502659,41.454011306531385],[2.219025001491296,41.45418152757749],[2.218999861330552,41.45424996732133],[2.218982819392741,41.45429636233492],[2.218953584855416,41.45437594437073],[2.219042894256047,41.454452576064156],[2.21907308224155,41.4544779630538],[2.2190877210688034,41.45449007472888],[2.2190879854493977,41.454490292701756],[2.219088352959218,41.45449059694524],[2.2190884869236873,41.45449070774521],[2.2190886600065216,41.45449085123746],[2.2190889575735415,41.45449109735864],[2.219089074939407,41.454491194534796],[2.219089331004492,41.45449140704677],[2.219089552707577,41.454491589600984],[2.2190901774796905,41.45449210636458],[2.2190908129184956,41.454492632207995],[2.219091652264603,41.45449332697366],[2.2190934673049405,41.45449482822192],[2.219102943182676,41.45450266865574],[2.2191070913268334,41.454506100719726],[2.219187321412518,41.454573101181175],[2.219336222618841,41.45470037961723],[2.219378245299903,41.45473821222841],[2.219402397784465,41.454760121842156],[2.2194202918721126,41.45477635303998],[2.2194505073921915,41.45480376228244],[2.219479358506612,41.45482993274618],[2.2194932469260396,41.454842531983395],[2.2195121857139606,41.4548597106299],[2.219513236279475,41.45486066443783],[2.2195221099279485,41.454868712425124],[2.2195457484750865,41.454890155540056],[2.219555922597013,41.454899385114125],[2.2195796689561695,41.45492092533286],[2.219594072959336,41.45493396491559],[2.2196354360605035,41.4549715119256],[2.219635593582228,41.45497165531143],[2.2196357499283472,41.45497179688783],[2.2196358920700185,41.45497192485672],[2.219636055512965,41.454972073687195],[2.2196362308091513,41.45497223250623],[2.219636387144477,41.454972374983306],[2.2196365055904823,41.45497248207437],[2.2196365766559105,41.454972546509175],[2.2196366785138566,41.45497263907585],[2.2196367945870477,41.454972744349355],[2.2196369118466417,41.45497285053164],[2.219637004224152,41.454972934927326],[2.2196370563395282,41.454972982119465],[2.219637126229363,41.45497304474479],[2.2196372150584676,41.45497312551342],[2.2196372659874415,41.454973171796766],[2.219637347719708,41.45497324531132],[2.2196374223227733,41.45497331427382],[2.219637493399009,41.454973377807924],[2.2196375455143853,41.45497342500007],[2.2196378167365,41.45497367184183],[2.2196381744257274,41.454973996734],[2.21963841961175,41.45497421817835],[2.2196386872854634,41.45497446139307],[2.2196388708756962,41.45497462747432],[2.2196391918511935,41.45497491878996],[2.219639704700159,41.45497538434971],[2.219640237696396,41.45497586716024],[2.219640741075746,41.45497632364831],[2.219641587918302,41.45497709322242],[2.2196424537325465,41.4549778782378],[2.219646746068722,41.45498177153946],[2.2199789246312345,41.45528810958752],[2.2194402511865263,41.45564033966403],[2.2186733025450884,41.45614182359937],[2.2180698494313944,41.456535509662636],[2.217125378420662,41.45713865090213],[2.217086085188507,41.457160974073844],[2.217023931832142,41.45719628435378],[2.2170171966576047,41.45720027923631],[2.217011286042805,41.45720371046235],[2.2170028487406315,41.457208262125995],[2.2169834136640105,41.45721930353222],[2.2169711686421083,41.45722625947506],[2.2169639954504983,41.457230336042535],[2.2169572587029234,41.45723416247214],[2.2169499721998673,41.457238302220034],[2.2169423577824325,41.45724262799022],[2.216934848225809,41.457249981866234],[2.216910972346418,41.457262802619354],[2.2168894051374526,41.45727441137378],[2.2168655882733677,41.45728760002172],[2.216833423021063,41.45730541117897],[2.2167907529605837,41.457329038951244],[2.21676989744416,41.45734060478942],[2.2167698106359515,41.45734065463989],[2.2167697166009503,41.45734070804411],[2.216769556273387,41.45734079792737],[2.2167692753547743,41.45734095904884],[2.2167687630054007,41.45734124830132],[2.2167683470746686,41.45734148506656],[2.216767856405654,41.45734176365776],[2.216766542310038,41.45734251133313],[2.2167664687690065,41.45734255316726],[2.216766359061492,41.457342615472164],[2.2167663096386616,41.45734264305865],[2.2167662577996925,41.45734267243015],[2.2167661999311576,41.45734270536356],[2.216766122765888,41.45734274987524],[2.2167660540571696,41.45734278813929],[2.216765970873183,41.457342835312204],[2.2167658937079238,41.45734287982386],[2.2167658261964336,41.45734291809607],[2.2167657743574525,41.45734294746758],[2.2167657080432126,41.45734298574794],[2.216765653798916,41.45734301600381],[2.2167655983465435,41.45734304715219],[2.216765535656531,41.45734308275501],[2.2167654850147995,41.45734311213466],[2.216765429562416,41.45734314328304],[2.2167653656643385,41.45734317977838],[2.2167652692131674,41.45734323496763],[2.2167650751135977,41.45734334533796],[2.2167642927290787,41.45734378677859],[2.21674852374116,41.45735274537153],[2.2167271861642126,41.45736486818076],[2.2167085165315843,41.4573754751903],[2.216686949870658,41.45738772884109],[2.2166730856830332,41.45739560509274],[2.2157705242414383,41.45662422763064],[2.215616824255648,41.45646069037803],[2.2147455245346066,41.45568258045043],[2.214150003148695,41.455154209835065],[2.2136381345892655,41.455490678795364],[2.213594964551373,41.45545212016385],[2.2126169687413495,41.454571147476095],[2.2154246435841616,41.45428274160395],[2.214690489553936,41.453586241312856],[2.2145764014081495,41.45348602046551],[2.2142350571879987,41.453217416433304],[2.213961634313736,41.453151780371705],[2.2135007428682947,41.45324042923009],[2.216545537224994,41.451438788823474],[2.21660670946391,41.45156469236778],[2.2166668587447287,41.45173136101789],[2.216729337065629,41.45199157407867],[2.2167814392572422,41.45221466891472],[2.2168519858460227,41.452391442512216],[2.2169663338612557,41.45264490618325],[2.2171793133640776,41.452846545720135],[2.217441923233818,41.45306988360256],[2.2181254553705965,41.45350704728621],[2.2181529772578155,41.45352407462494],[2.218185659490558,41.45354368612968],[2.21821202972517,41.45355950944141],[2.21824147989387,41.45357718218496],[2.21826130752425,41.45358907882294],[2.2182879690161257,41.4536050779398],[2.218298333447834,41.453613183892664],[2.218329395902233,41.45363747901752],[2.218807359502659,41.454011306531385]]]}},{"type":"Feature","id":"082457--amb-aem--guinardera","properties":{"name":"Guinardera","municipality":"Santa Coloma de Gramenet","kind":"zone","quality":"official","sourceCategory":"amb-aem","code":"0824507"},"geometry":{"type":"Polygon","coordinates":[[[2.2057827135936807,41.463924383095446],[2.2061964074983678,41.464100018738414],[2.2062711411608946,41.46414224322868],[2.2063219679709425,41.46419621500707],[2.2063845678690353,41.46458392017581],[2.2058295006352595,41.4646337102754],[2.205712456811617,41.464662883256224],[2.2056630123654943,41.46464626544582],[2.205448401681231,41.46457805188329],[2.2046093091263876,41.46427673343708],[2.20438454300183,41.464234744775716],[2.2043473429010625,41.464148124496795],[2.204261295870774,41.46405583391831],[2.204131637150539,41.46397630677215],[2.2039578103007256,41.46394231699695],[2.203783433674433,41.46395426090415],[2.2035209280416006,41.46404414339996],[2.2033375700558593,41.4640756560726],[2.2031284301947185,41.46408078731531],[2.202687118623984,41.46404450089823],[2.2020839779583126,41.46399491682952],[2.20186641414776,41.46397368122653],[2.2017537452783658,41.46393363163464],[2.201650020176407,41.46386733789095],[2.2015814467836083,41.463775166586295],[2.20157408480475,41.46366369392564],[2.20157576718151,41.46352606349377],[2.201594897516463,41.463381996777265],[2.2016486677722518,41.46326446308621],[2.201668636510514,41.46314867190287],[2.2016770202894893,41.463081174568345],[2.2016543121180248,41.46296049791473],[2.201606410570073,41.46278461115937],[2.201459426632901,41.46254534955244],[2.2013094188475453,41.46228863742756],[2.2009702787773686,41.461636888808776],[2.2015842421683645,41.4614475693424],[2.202191952618837,41.46126011278667],[2.2023750298037568,41.46114293502971],[2.202436722114926,41.46104311036719],[2.2024258768106413,41.460942683656974],[2.2023567829926547,41.460462217875296],[2.2027288224834574,41.46045615449436],[2.2033542994358224,41.460445963561575],[2.203675733120588,41.460457818155795],[2.2038651393748183,41.4604576475062],[2.2043996900459213,41.46046132346181],[2.204727589282498,41.46038943743295],[2.2048646313782276,41.46035511180602],[2.2052253960146224,41.4602647566556],[2.2056130087116443,41.46061072448099],[2.2058041790682443,41.46081685046996],[2.205957896597903,41.461093578877346],[2.2060600676450295,41.461302990239396],[2.2064253665722138,41.46188699762293],[2.206430834781257,41.461958531631865],[2.2061830377259373,41.46253356149466],[2.2060704869739967,41.46302275149115],[2.2057827135936807,41.463924383095446]]]}},{"type":"Feature","id":"082457--amb-aem--fondo","properties":{"name":"Fondo","municipality":"Santa Coloma de Gramenet","kind":"zone","quality":"official","sourceCategory":"amb-aem","code":"0824511"},"geometry":{"type":"Polygon","coordinates":[[[2.2208150656713985,41.44713693845507],[2.2215513640666966,41.44792835955329],[2.221700053956999,41.44808817837366],[2.221722132149558,41.448118330600046],[2.221605326524215,41.44830433098754],[2.2212213098388762,41.448612801682536],[2.2211323561724567,41.448685341573956],[2.220746706923099,41.449027617095815],[2.220482901959607,41.44925824485863],[2.221090212485545,41.449749718169286],[2.221237784181335,41.44987464780453],[2.2213759760490492,41.44998748704244],[2.2217230928458402,41.45027933025931],[2.221815617590284,41.45036381626338],[2.2218730852026747,41.450416291358735],[2.2220487087062972,41.45057665575727],[2.2221567971629734,41.45067535236875],[2.2223690952707766,41.450869202563595],[2.2220551269016497,41.45107409739924],[2.2219637678682216,41.451133716691224],[2.2214716093943663,41.451454891145836],[2.221298932048312,41.451575177595515],[2.2212969064603314,41.45157656814131],[2.221289229054301,41.45158183595568],[2.2211736633477526,41.45166113680542],[2.220787350930834,41.45192679601188],[2.220142201354831,41.45237411581274],[2.220142112010522,41.452374178259],[2.219529941388045,41.45280463106557],[2.2193802892112124,41.45290448704723],[2.219116712247862,41.45307653956108],[2.218654008676687,41.45337727474605],[2.2182879690161257,41.4536050779398],[2.218261307513436,41.45358907972361],[2.21824147989387,41.45357718218496],[2.21821202972517,41.45355950944141],[2.218185659490558,41.45354368612968],[2.2181529748851077,41.45352407280732],[2.218138423964656,41.45351534119426],[2.2181254553705965,41.45350704728621],[2.217441923233818,41.45306988360256],[2.2171793133640776,41.452846545720135],[2.2169663338612557,41.45264490618325],[2.2168519858460227,41.452391442512216],[2.2167814392572422,41.45221466891472],[2.216729337065629,41.45199157407867],[2.2166668587447287,41.45173136101789],[2.21660670946391,41.45156469236778],[2.216545537224994,41.451438788823474],[2.216521915681589,41.451279106447785],[2.2150692014056994,41.450967566898036],[2.215249482500449,41.4506046987506],[2.21571113178881,41.44973073548361],[2.216139207177705,41.44886657571257],[2.2162327140669253,41.448682488491706],[2.2163785338344146,41.448401171067125],[2.216558002202429,41.44812155982742],[2.216731582566024,41.44787996909729],[2.2168537579022827,41.44774469864283],[2.2169384480450574,41.44765087729821],[2.21723113942739,41.4473991119695],[2.2174448198592174,41.44721530993584],[2.217889252134729,41.446831445208566],[2.218175645019612,41.44660910692378],[2.21822636908686,41.44659006315219],[2.2184440565151458,41.44650833616903],[2.2187118718576553,41.44659689247316],[2.2187694255670247,41.44663222768114],[2.218968141712223,41.44674432341384],[2.2196153861373777,41.44660428184744],[2.2199288159411354,41.44654281519713],[2.2200090741523035,41.446635416276465],[2.220130937380288,41.44672308315694],[2.2203495159913444,41.44687014650534],[2.2206549359942835,41.44706729814918],[2.2208150656713985,41.44713693845507]]]}},{"type":"Feature","id":"082457--amb-aem--les-oliveres","properties":{"name":"Les Oliveres","municipality":"Santa Coloma de Gramenet","kind":"zone","quality":"official","sourceCategory":"amb-aem","code":"0824508"},"geometry":{"type":"Polygon","coordinates":[[[2.187059930247129,41.46771683768227],[2.1871110287137365,41.467106164351996],[2.187181621744611,41.466286458995334],[2.1873801884146267,41.46447988858549],[2.1874536587710742,41.463795566183464],[2.1876399521348513,41.462130621258986],[2.1876434890086234,41.46210244046377],[2.187681224902786,41.46180172826825],[2.1877169680489157,41.46161749108994],[2.187797872989569,41.46130982009562],[2.1878731719471145,41.46107903266133],[2.187961374024768,41.46083227605879],[2.188056106282671,41.46059855414605],[2.188198808503126,41.46029258003364],[2.1883284958189573,41.46004501697771],[2.188459537659229,41.45981742372704],[2.188608976920332,41.459583537809934],[2.1888347285604937,41.45926663716449],[2.1890144681969703,41.45903871108653],[2.189365394739086,41.45863860767052],[2.1897866171310953,41.45821898384056],[2.190148294044449,41.45787410603811],[2.1906166118158445,41.45743312981934],[2.190955701306057,41.45713906340831],[2.1913113180531996,41.45685116514713],[2.1917055793022264,41.456554746086475],[2.192328118988784,41.45610477605108],[2.193800314320968,41.45504512194528],[2.1945062048221695,41.45453509517756],[2.1952774523158882,41.45398949158383],[2.19686552989523,41.45287508205353],[2.1970501844770625,41.45299474660387],[2.198118199853121,41.45368685036232],[2.1986119243939997,41.454093471978396],[2.1986369349747754,41.45414507405613],[2.198717201723609,41.45444315714366],[2.198780050035015,41.45469150599842],[2.1988528120473636,41.45510675017715],[2.198902221601174,41.45547674054092],[2.1988899129496,41.45599051874461],[2.198898840434054,41.456238514457866],[2.198804176733787,41.456625538686275],[2.1986533557665853,41.45719698567191],[2.1985036152620063,41.45754381763319],[2.1983573233154257,41.457475319206104],[2.198181786107745,41.45745158173592],[2.1980067543524133,41.457541358907946],[2.1983341312078477,41.45780440994943],[2.198659464456951,41.45799586843447],[2.1988016791765337,41.45810488042683],[2.199151039878489,41.45818736208759],[2.199505531485841,41.458274278513464],[2.199565785252576,41.4584970457065],[2.199577383495957,41.45852611225519],[2.1992980306286447,41.45874243109957],[2.1992516784629847,41.458780083676146],[2.1990701055597546,41.45899113318817],[2.1992091470294626,41.45906632677319],[2.1993461932700584,41.45911733942585],[2.1994696681719814,41.4591527196891],[2.1996483754399545,41.459174675771834],[2.199781494436511,41.45917215207223],[2.1999028830308944,41.45919025916277],[2.1999713747357013,41.459218352255974],[2.200022310154439,41.459253984014424],[2.199710274059402,41.45992797709377],[2.199525340754431,41.46025148389083],[2.19933821063014,41.46032024563042],[2.199236966961857,41.46035950673859],[2.1991718585954487,41.46045051017341],[2.1990734554368108,41.46064717731582],[2.1990323456519167,41.460868315616985],[2.1989466753790543,41.46106988575386],[2.198883336468854,41.461036972951696],[2.1987118303403617,41.460996244867744],[2.1986306116213803,41.461131812486535],[2.198430059829342,41.46097605973083],[2.1983007936935146,41.460900730685815],[2.1980648806459473,41.46076324105044],[2.1976234036619307,41.46033833658701],[2.1973577464726888,41.46030073731523],[2.197204985254329,41.460356868311784],[2.1970985037214477,41.46051342144408],[2.1972147576109458,41.46101985001391],[2.1969487275765465,41.461098645380986],[2.1966144447449008,41.46045999654684],[2.196625979358971,41.46036268003061],[2.1965366577402774,41.460359930416274],[2.196440801741785,41.46034963191659],[2.196326585101212,41.460271820656736],[2.196168469805955,41.460121494655525],[2.1960296725461967,41.45996167904201],[2.195877720274555,41.45983065354538],[2.195718655556783,41.45975733810942],[2.1955399824805326,41.45971757752658],[2.1953159839092966,41.459720825225766],[2.1951103504978495,41.45979158990482],[2.1950004466635686,41.4598822775218],[2.194915307041744,41.46004052726392],[2.1948623371070357,41.46018456324131],[2.1948469185682877,41.46039625094158],[2.1948384948264166,41.46055985202227],[2.1947217194028013,41.46068899791327],[2.1945346793784575,41.46080802727765],[2.1928564459041002,41.459806331745455],[2.1925839542069987,41.45996633650051],[2.1922777813573755,41.46021151681677],[2.1917824081821857,41.46058619963777],[2.191329949620228,41.46095226016196],[2.193045360095544,41.46225889595301],[2.192953282752825,41.46233140808197],[2.192870067704482,41.462424559729904],[2.1928444802203404,41.462527262721636],[2.1928679131836124,41.462598301885606],[2.1930947945216843,41.46268448666171],[2.1930259230976357,41.46284632588779],[2.192933016821525,41.46298513565181],[2.19285920211178,41.46305549245276],[2.19272773060044,41.46311858094029],[2.1925752372092706,41.46316095331879],[2.1923805365387805,41.463175588116066],[2.192189160744439,41.463167385152154],[2.191758091577624,41.4631254901144],[2.191484690651858,41.46311442622265],[2.1913993684764907,41.46313211599609],[2.1913017736166083,41.463158866438356],[2.191231509560892,41.46318809234208],[2.1911671455030675,41.46323107795921],[2.1910446202709504,41.46355257765123],[2.190190459054612,41.46356028566128],[2.1899540436818823,41.463498888450985],[2.189832744811697,41.463973863512074],[2.1898739377832226,41.464327378746404],[2.1898802101419577,41.464556048683804],[2.1898441900973356,41.46476384334744],[2.189789279226329,41.465024090113474],[2.189790180174158,41.46519556125704],[2.1898788847888633,41.465395091855314],[2.1899563635351194,41.46551909287413],[2.1900641812866377,41.4656478832263],[2.190113885567853,41.46580598422076],[2.1899322780685226,41.46672149153706],[2.192041121655745,41.46725758612927],[2.192059361452532,41.46774697333457],[2.1907803628957647,41.4674499170648],[2.1906696408611848,41.467554303882274],[2.1903091766693032,41.46818734216168],[2.1903242278539685,41.46844351023825],[2.1906978624020614,41.46870677306829],[2.1916112002615495,41.46956824917781],[2.191163075901845,41.46991717974014],[2.190247292737362,41.46925230072956],[2.19007247732263,41.469621440282815],[2.1892778696968294,41.46947866888282],[2.1888410239931093,41.47057376985932],[2.1888080468806272,41.47064009288402],[2.188055362349497,41.46938146535732],[2.187059930247129,41.46771683768227]]]}},{"type":"Feature","id":"082457--amb-aem--riu-nord-riu-sud","properties":{"name":"Riu Nord, Riu Sud","municipality":"Santa Coloma de Gramenet","kind":"zone","quality":"official","sourceCategory":"amb-aem","code":"0824509"},"geometry":{"type":"Polygon","coordinates":[[[2.210431023062898,41.448066869563135],[2.2098658229786086,41.447874364240974],[2.209147922125394,41.44917680052392],[2.2083862193758574,41.450435140969375],[2.2082837664572206,41.450616439895086],[2.208018957949611,41.45109600078167],[2.2076811442028923,41.45168083685529],[2.207515703286728,41.45197257804425],[2.2072987797078247,41.45235524992559],[2.2071415573704907,41.45263249568299],[2.2067977018150127,41.45332080960382],[2.206492682343576,41.4536620372303],[2.206486036165296,41.453707825633415],[2.2066556429323327,41.453823182531856],[2.2066716854418003,41.45383407054748],[2.206700433028715,41.45385363925709],[2.2067024268436417,41.45387768479927],[2.2066701226836654,41.45391270353939],[2.206654402860744,41.45392691692017],[2.2063660362111217,41.4540857597253],[2.206397176497407,41.45423170107482],[2.2064347790359355,41.454407866345825],[2.206451724320514,41.45441935060502],[2.2064727011490803,41.45455586310679],[2.2064853511348526,41.454621627952314],[2.20650826901351,41.45474084157754],[2.206512635646428,41.45488357170014],[2.2064920745079926,41.45497326083427],[2.206325841103446,41.45534016154053],[2.2050780813399258,41.45446669861699],[2.202413188481547,41.45297258945824],[2.2008705571651745,41.45205510180261],[2.2006883793037386,41.45216673507095],[2.2001499218091265,41.45166700776142],[2.19951195492009,41.45110188968873],[2.199327631848568,41.450939263261546],[2.199572972306465,41.450724907842456],[2.2001771687969254,41.450136458048256],[2.20070147983835,41.44962095953597],[2.201312871351454,41.44901580521234],[2.2018296862158717,41.44850425227588],[2.201942202642914,41.44839144027618],[2.203210771743165,41.44710332489266],[2.2033131285401173,41.44699496287331],[2.2034113989042967,41.44689092575296],[2.203863501601806,41.446416163716336],[2.2041083982727776,41.44615584932483],[2.204988342882819,41.445226756421306],[2.2053092353552928,41.444890586062854],[2.2056055342625442,41.44457771832202],[2.2058813156751023,41.44428300946384],[2.2061330132487633,41.4440002325098],[2.206298029649818,41.44380764738963],[2.2064475966006203,41.4436148707818],[2.2066609020308325,41.44362763643469],[2.207428923985591,41.443717086893855],[2.208082925166592,41.4437932495484],[2.2082416361482884,41.44385030069282],[2.2084105388357913,41.443943451486156],[2.2086712670553315,41.44391722768162],[2.2088617080517152,41.44399052045958],[2.2092264234274896,41.44415297312783],[2.209749824310231,41.444372473527],[2.210094133672523,41.44446679965395],[2.2103325597265306,41.444534997002705],[2.210809645438539,41.44480585929249],[2.2108401010583276,41.44482157001725],[2.210979939357171,41.4448810235058],[2.210949266730168,41.44501611828139],[2.210943763656719,41.44502816851024],[2.210819470363231,41.44514104374275],[2.210934617183474,41.44525299885528],[2.2109625042292746,41.44529201217176],[2.2109868293222514,41.44534045885488],[2.211020963312092,41.445428065064824],[2.211030787109525,41.445476862651],[2.2110236487764006,41.44555274634827],[2.210977074319943,41.44582994589204],[2.2109394187352382,41.44612734719687],[2.210895320620809,41.44635917521956],[2.2107631042267646,41.44723624494381],[2.21074283508238,41.44730006763708],[2.210727023625158,41.44732599963263],[2.2104843897393143,41.447723985259465],[2.2104682871407126,41.44777736986194],[2.210431023062898,41.448066869563135]]]}},{"type":"Feature","id":"082457--amb-aem--can-calvet-serra-de-marina-singuerlin","properties":{"name":"Can Calvet, Serra de Marina, Singuerlín","municipality":"Santa Coloma de Gramenet","kind":"zone","quality":"official","sourceCategory":"amb-aem","code":"0824510"},"geometry":{"type":"Polygon","coordinates":[[[2.208580294278228,41.45716335645624],[2.2097409208035894,41.457989344056394],[2.2106242144999118,41.45734983856469],[2.2106764938782657,41.45734362189799],[2.2127323855302015,41.45912179013112],[2.2130670641671224,41.4593376189087],[2.213518587328276,41.45955675422297],[2.213427707279962,41.46006549741108],[2.213599043644671,41.46022243403528],[2.214158591746643,41.46051150021033],[2.214523416907853,41.46081646082679],[2.214929930662397,41.46126013067465],[2.216151215076796,41.46244814173545],[2.216155859293936,41.4625333068962],[2.216079788005302,41.46276033812214],[2.2160053001810858,41.462856362842814],[2.215828903785412,41.463041339040814],[2.215808412562999,41.46322047826211],[2.215797906721824,41.46352742858231],[2.2158556944868355,41.46497713649351],[2.2156783134852405,41.46591847529768],[2.2153893911833924,41.466103399468466],[2.215138255030106,41.46632452026957],[2.2149592650643175,41.4665065949357],[2.2146905823553866,41.46659820817453],[2.2143841487527434,41.466650024968985],[2.2140255508400366,41.46666913894262],[2.213719984776715,41.466649080836966],[2.2133767622330534,41.46658204301984],[2.2131105696715143,41.466467008296604],[2.2133997606054967,41.46626052799677],[2.21309702119299,41.46600687161073],[2.2128512676913688,41.465782356027276],[2.2125037309829287,41.465605688521784],[2.212262654241779,41.46546204962731],[2.212082840454327,41.465317050923176],[2.2119429850282586,41.46510649059624],[2.211661680013595,41.4649620298743],[2.2114833269506056,41.46473375328638],[2.2112097505925616,41.46438358832324],[2.2110688738322515,41.46406109390637],[2.2106959900347776,41.463695244702905],[2.2105325011329207,41.46353484031124],[2.21038897049906,41.463394015173314],[2.2089854960487454,41.46286609985659],[2.2099714885030326,41.463701048342706],[2.2099392171091483,41.46387170164948],[2.207669504283708,41.46548289418069],[2.2074445546027435,41.46579914355528],[2.2072312683451045,41.46562665476676],[2.2062692433970668,41.4648172718534],[2.2059091316208743,41.4647289908785],[2.205712456811617,41.464662883256224],[2.2058295006352595,41.4646337102754],[2.2063845678690353,41.46458392017581],[2.2063219679709425,41.46419621500707],[2.2062711411608946,41.46414224322868],[2.2061964074983678,41.464100018738414],[2.2057827135936807,41.463924383095446],[2.2060704869739967,41.46302275149115],[2.2061830377259373,41.46253356149466],[2.206430834781257,41.461958531631865],[2.2064253665722138,41.46188699762293],[2.2060600676450295,41.461302990239396],[2.205957896597903,41.461093578877346],[2.2058041790682443,41.46081685046996],[2.2056130087116443,41.46061072448099],[2.2052253960146224,41.4602647566556],[2.2048646313782276,41.46035511180602],[2.204727589282498,41.46038943743295],[2.2043996900459213,41.46046132346181],[2.2038651393748183,41.4604576475062],[2.203675733120588,41.460457818155795],[2.2033542994358224,41.460445963561575],[2.2027288224834574,41.46045615449436],[2.2023567829926547,41.460462217875296],[2.2024258768106413,41.460942683656974],[2.202436722114926,41.46104311036719],[2.2023750298037568,41.46114293502971],[2.202191952618837,41.46126011278667],[2.2015842421683645,41.4614475693424],[2.2009702787773686,41.461636888808776],[2.2013094188475453,41.46228863742756],[2.201459426632901,41.46254534955244],[2.2012660169305165,41.462628293488685],[2.201065309175129,41.462686294449774],[2.20095805658954,41.46270564948867],[2.2007917333744236,41.46262902547454],[2.2007261473685755,41.462522935444845],[2.200720758345147,41.46241718260813],[2.200676081106861,41.462240781918496],[2.2003804187803007,41.461805993289474],[2.200295020697822,41.46167962021621],[2.2001968234664635,41.46150785984584],[2.1999652865370476,41.4612948864544],[2.199759438918195,41.46117270130591],[2.1996261205007075,41.461136577311436],[2.1995087343202337,41.46113594512477],[2.1993617716322467,41.46118694907955],[2.199236993065644,41.46138960282313],[2.199184200814223,41.46147754389619],[2.199120742621167,41.46153019173135],[2.1990623239471536,41.46157809619294],[2.198976441887262,41.46160609667613],[2.1988245588509843,41.46159074415589],[2.1986167100796723,41.461489201514674],[2.1984191424686714,41.461324399081164],[2.19842038156198,41.461223295094584],[2.198543931732645,41.461224155991665],[2.1986809660795,41.46117092664719],[2.1988049071122466,41.46115072617009],[2.1989466753790543,41.46106988575386],[2.1990323456519167,41.460868315616985],[2.1990734554368108,41.46064717731582],[2.1991718585954487,41.46045051017341],[2.199236966961857,41.46035950673859],[2.19933821063014,41.46032024563042],[2.199525340754431,41.46025148389083],[2.199710274059402,41.45992797709377],[2.200022310154439,41.459253984014424],[2.1999713747357013,41.459218352255974],[2.1999028830308944,41.45919025916277],[2.199781494436511,41.45917215207223],[2.1996483754399545,41.459174675771834],[2.1994696681719814,41.4591527196891],[2.1993461932700584,41.45911733942585],[2.1992091470294626,41.45906632677319],[2.1990701055597546,41.45899113318817],[2.1992516784629847,41.458780083676146],[2.1992980306286447,41.45874243109957],[2.199577383495957,41.45852611225519],[2.199565785252576,41.4584970457065],[2.199505531485841,41.458274278513464],[2.199151039878489,41.45818736208759],[2.1988016791765337,41.45810488042683],[2.198659464456951,41.45799586843447],[2.1983341312078477,41.45780440994943],[2.1980067543524133,41.457541358907946],[2.198181786107745,41.45745158173592],[2.1983573233154257,41.457475319206104],[2.1985036152620063,41.45754381763319],[2.1986533557665853,41.45719698567191],[2.198804176733787,41.456625538686275],[2.198898840434054,41.456238514457866],[2.1988899129496,41.45599051874461],[2.198902221601174,41.45547674054092],[2.1988528120473636,41.45510675017715],[2.198780050035015,41.45469150599842],[2.198717201723609,41.45444315714366],[2.1986369349747754,41.45414507405613],[2.1986119243939997,41.454093471978396],[2.198118199853121,41.45368685036232],[2.1970501844770625,41.45299474660387],[2.19686552989523,41.45287508205353],[2.196993491516846,41.452785284204495],[2.1977126376570477,41.45227590646865],[2.198106069905486,41.45198091854161],[2.1984764768948337,41.45166930325168],[2.1991813204458555,41.451067094142864],[2.199327631848568,41.450939263261546],[2.19951195492009,41.45110188968873],[2.2001499218091265,41.45166700776142],[2.2006883793037386,41.45216673507095],[2.2008705571651745,41.45205510180261],[2.202413188481547,41.45297258945824],[2.2050780813399258,41.45446669861699],[2.206325841103446,41.45534016154053],[2.208580294278228,41.45716335645624]]]}}]}
