{"type":"FeatureCollection","municipality":"Sant Just Desvern","source":{"organization":"Àrea Metropolitana de Barcelona","title":"Àmbits Estadístics Metropolitans","official":true,"accessedAt":"2026-08-12"},"features":[{"type":"Feature","id":"082212--amb-aem--can-sagrera-mas-llui-poligon-sud-oest-torreblanca","properties":{"name":"Can Sagrera, Mas Lluí, Polígon Sud-Oest Torreblanca","municipality":"Sant Just Desvern","kind":"zone","quality":"official","sourceCategory":"amb-aem","code":"0822103"},"geometry":{"type":"Polygon","coordinates":[[[2.05926667526388,41.38954799989804],[2.0586856258923176,41.38915932137485],[2.058061286377079,41.388693937278084],[2.057837973438741,41.38852859806071],[2.057831622766867,41.38850785589172],[2.057816842736683,41.38847597631468],[2.0578367760896747,41.388416020954935],[2.057855438815942,41.38815892120989],[2.057853795365371,41.38801568710783],[2.0578474620956624,41.38782556852602],[2.057853952497987,41.387768695330294],[2.0579130830297863,41.3877307544995],[2.057978573362934,41.38769054538083],[2.058039108790718,41.38766455899774],[2.058115591193134,41.38756970586359],[2.0582189112929865,41.3874300331672],[2.0582880098602354,41.387324494258046],[2.0583226536312607,41.38726910798778],[2.0583268939947867,41.38723203098989],[2.0583241078632097,41.38716832803523],[2.0583131846844784,41.38711211035306],[2.0582661938141236,41.386963716714874],[2.058222447049356,41.386852353221315],[2.05819299632155,41.38679803217665],[2.0581879946594768,41.386712243662764],[2.058219086146575,41.38663827924411],[2.058246155342167,41.38658544676307],[2.058280453903799,41.386546000906506],[2.0582933017156857,41.38643468356704],[2.05829368378797,41.38640820561201],[2.058310472619051,41.38628908581858],[2.058311504639643,41.386217481216505],[2.0583501608102224,41.38613869481125],[2.058377202279548,41.386090745921635],[2.058370198830941,41.38605357689928],[2.058352037903487,41.38601100485665],[2.058322482431912,41.385978963878024],[2.0582816002460724,41.38594413335094],[2.058267067950832,41.385914918456784],[2.0582377803201672,41.38586423957336],[2.0581971282356295,41.38581355503563],[2.0581301733591983,41.38577057815681],[2.0580441790029944,41.385746007985354],[2.057927759916168,41.385716334522066],[2.0578793415970607,41.385691888121634],[2.0578308102742287,41.38562813214079],[2.057834347137883,41.38530028888621],[2.0584394562833435,41.384362946231285],[2.0593561606842368,41.3829428715942],[2.057660433213072,41.382232895620426],[2.0572634851981615,41.382059843091476],[2.0571089033501746,41.38198411882031],[2.0564103161382254,41.38162430527285],[2.0565067751291526,41.38149455888776],[2.0560297221539114,41.38130812576753],[2.056633465707526,41.380362231742815],[2.0566529207385886,41.38031937959808],[2.056633002344302,41.38031195716518],[2.056521854888962,41.380276954332224],[2.0563356522491145,41.38021519795714],[2.056232064515442,41.380179119196846],[2.056089383359322,41.38013362930168],[2.055970742884147,41.38009515423503],[2.055840081719628,41.380053171979185],[2.0557183741007563,41.380018080818665],[2.0555366343974684,41.37996090585435],[2.0553984473346096,41.37991772367853],[2.0552677375664787,41.379879149707605],[2.0551626254597446,41.37984419421404],[2.055039361394535,41.37981249888877],[2.0549416290968026,41.37978896854422],[2.0548739203951385,41.37977591182848],[2.054776007223125,41.379764880446984],[2.054667550733645,41.37975262561822],[2.054563536767672,41.37974609001237],[2.0544535701006774,41.379733822573606],[2.0543644515198523,41.3797125720581],[2.0541770104930044,41.37968131937747],[2.0535965479180227,41.379637209998336],[2.0531202860975246,41.379620918219956],[2.052831315705523,41.37960616632307],[2.0526148059805815,41.37954308526449],[2.0528992612128323,41.379544256884806],[2.052863240197671,41.37948864722212],[2.0528006084944606,41.379420642176896],[2.052750461557873,41.37937262029808],[2.052685865613542,41.37931563048776],[2.05259706887821,41.379244844583816],[2.052542944541095,41.379207954644706],[2.0525641121088336,41.37915858776294],[2.0525923650798816,41.379090039224494],[2.0526320261705857,41.378986679693554],[2.052670060612209,41.37890178651462],[2.052724700047373,41.378799577116055],[2.0527678395435505,41.37873833455215],[2.05281505226351,41.37867815595723],[2.0528897988897614,41.3785986982637],[2.0529698115897643,41.37853262395052],[2.053053846724688,41.37847069640319],[2.0531681192303584,41.37839156379936],[2.053254572198157,41.37833036939138],[2.053305186993971,41.378300417085],[2.0534072709102746,41.378253913567434],[2.05350189793424,41.378213625939246],[2.0536114686858817,41.37817654620641],[2.053694384657572,41.37815446081041],[2.053718582941644,41.37815398875679],[2.0537542529159736,41.37816575313008],[2.0538290469396765,41.37819808714234],[2.0539566533657116,41.37824611040931],[2.054066279406492,41.37829936679689],[2.054143240750108,41.378349275817754],[2.0542162616210304,41.37839845251664],[2.0543379887740163,41.378360110979884],[2.0544735732309176,41.37831502938553],[2.054592701736017,41.37827699679908],[2.054698183816401,41.37823987883395],[2.0547554623942,41.37823727242131],[2.0547948228732684,41.37824888663921],[2.0548595549296995,41.3782712561138],[2.0548941067206314,41.37827246858495],[2.054940092394054,41.37825145619984],[2.0550253318624447,41.378248437063334],[2.0552080016355547,41.3782527239996],[2.055385669322807,41.378261621049454],[2.0555079127556386,41.37826076357124],[2.055566031341894,41.37825473269752],[2.0556106787405657,41.378241150145975],[2.0556764727971335,41.37821657814406],[2.0557398699020792,41.37818640899727],[2.0558564273108906,41.37815202725401],[2.0559370082241526,41.37812944008008],[2.05598647405658,41.37812426487214],[2.056265395919796,41.37813213207002],[2.0564542134048214,41.37813832659401],[2.056502400044521,41.37813593479791],[2.056577975166762,41.37811795399324],[2.0567699825701045,41.37807395649895],[2.056995406190498,41.37802465510674],[2.0570598738957697,41.378006581153805],[2.0571196779905683,41.377968943414714],[2.0571694122267385,41.37794516943059],[2.057205063559793,41.377955693152224],[2.0572502315418513,41.37799140050924],[2.057302686278217,41.37803553910724],[2.0574647989023584,41.378009896897076],[2.057690059541571,41.377971752185516],[2.0578868407188735,41.37793895399842],[2.0580542953738648,41.377912778214686],[2.0581571058845256,41.377899851837086],[2.0590723823984676,41.37776822283363],[2.0596271778146282,41.379251129548926],[2.0605858544028806,41.3791217978754],[2.0607461325896836,41.379105310200465],[2.0609062041808106,41.37908671826791],[2.061055707528796,41.37906804437917],[2.0612039551054218,41.37904537874007],[2.061349607574101,41.37901871493343],[2.0614936916933106,41.37898193174687],[2.0617448039578035,41.37938758268312],[2.061840335483136,41.37936866133502],[2.061952791849041,41.379346626180805],[2.0620505976488452,41.37932630451859],[2.062133628123487,41.37931596514484],[2.0622288625636767,41.379304805507694],[2.0623460319910567,41.37929382543922],[2.0624521799204145,41.3792864287037],[2.0625753769912034,41.379280085929146],[2.0626618315617025,41.3792793814576],[2.062797230117481,41.37927913682724],[2.0629604763896636,41.37928505835743],[2.063107839427291,41.37929359851743],[2.0632186648164916,41.37930000890874],[2.063328288466312,41.37930549424986],[2.0634415628601306,41.379311004697456],[2.0635305466551026,41.3793108101667],[2.0636146002421514,41.37931424960119],[2.063741283936995,41.37931986977613],[2.0639593333675235,41.37932898848292],[2.0640993450612797,41.379340223863096],[2.0642551934944806,41.37935158696166],[2.064441469281763,41.37936687410421],[2.064627635224761,41.37938949935519],[2.0648246994540207,41.37941680669922],[2.0649231455984616,41.37943688368797],[2.065037557121412,41.37946539342388],[2.065090336083998,41.37943883042014],[2.0657641263292663,41.3798469116676],[2.065175291454002,41.37987059298811],[2.0651345208510183,41.38007615043493],[2.064148688160855,41.38093268890433],[2.065807338348221,41.38207858841278],[2.0667542227955527,41.382783176821505],[2.067472864369598,41.38334748082417],[2.068010283554644,41.383014423648994],[2.069966263330005,41.38424594518785],[2.068470330548967,41.38539298562195],[2.0686665543132787,41.385686745233535],[2.068754428207292,41.3860210080038],[2.068769731587606,41.38615342473349],[2.0687509208191592,41.38622154469348],[2.0686741211592996,41.386302193092],[2.068618182220706,41.38633743695],[2.0684351311281444,41.386413595063075],[2.0681716488132085,41.38643848851036],[2.067932958876044,41.38640191247388],[2.067923411544066,41.386400447983085],[2.0678909087495407,41.38639546927006],[2.067861353768345,41.386390937780135],[2.0678403270745944,41.386381759957494],[2.0678019227082785,41.38636500116544],[2.0677982677254954,41.38636340425235],[2.06777815031045,41.38635462561044],[2.067777235070171,41.386354226369875],[2.0676355160191564,41.386292376681716],[2.06763003056763,41.38628998127997],[2.067623629813789,41.38628719113946],[2.0676090039394617,41.38628080341557],[2.067599857473106,41.38627681554806],[2.067599930239435,41.38627172240753],[2.0675879713377907,41.38627162549892],[2.0675643323219774,41.38625191923085],[2.067564439577484,41.38624441236506],[2.067555243186063,41.38624433783967],[2.067552512787246,41.38624206834664],[2.06754432776443,41.386235246405974],[2.0675406933204203,41.386232212958014],[2.067533418389635,41.38622615051651],[2.0675288738571598,41.386222357568194],[2.0675289488808875,41.386217106815074],[2.0675225090178664,41.386217054626016],[2.0675170543331207,41.3862125066804],[2.067511599649134,41.38620795873452],[2.067505234876989,41.386202651288194],[2.0675006902834503,41.38619886284201],[2.067493415424422,41.3861927958948],[2.067489780920791,41.386189766948476],[2.0674815959110746,41.38618294500342],[2.067478865581738,41.386180671005455],[2.067469776465637,41.38617308960763],[2.0674461375211086,41.38615338331571],[2.067446266217841,41.386144376878185],[2.0674365077735652,41.386144297788036],[2.067385243763526,41.38609591745618],[2.0671394490721227,41.38585365041079],[2.0668206818615493,41.385562826200825],[2.0663131489896123,41.38509032437322],[2.0656183514742477,41.384718246423745],[2.0646844892794847,41.385206975855745],[2.0628682054253713,41.38615280913883],[2.062696592887249,41.38626028470252],[2.0625463490532616,41.386656110363575],[2.062412557026079,41.38709050025959],[2.061653187476262,41.387859205201785],[2.0609990617009024,41.38840462191472],[2.060236766946156,41.388931537295214],[2.0597864045414096,41.389203234553996],[2.05926667526388,41.38954799989804]]]}},{"type":"Feature","id":"082212--amb-aem--centre-nord","properties":{"name":"Centre, Nord","municipality":"Sant Just Desvern","kind":"zone","quality":"official","sourceCategory":"amb-aem","code":"0822101"},"geometry":{"type":"Polygon","coordinates":[[[2.080658659056918,41.378312125886694],[2.080762081063275,41.378902895420076],[2.080657873933371,41.379213211514184],[2.0802902060564024,41.38059992528031],[2.080280865690532,41.38071690029418],[2.0802780010331343,41.38075911353167],[2.0802665081900877,41.380912652565904],[2.08106842033643,41.38132008754544],[2.08119274136295,41.381331583063734],[2.08135987085347,41.38135473543513],[2.081625772443041,41.38141372048923],[2.0816410593166834,41.38143154492264],[2.0816577248488093,41.38144615837712],[2.081672803175124,41.3814560257246],[2.0817000021103422,41.381473392158746],[2.08171633305341,41.38148297224998],[2.08173332866524,41.38149095701184],[2.0817679666859252,41.38149988602902],[2.081881466986458,41.38150723747825],[2.081885889003863,41.38175206397196],[2.0819128618040486,41.38206729819577],[2.081975318843739,41.382432195473726],[2.082001014145179,41.38258915874049],[2.08201568785391,41.382736236620566],[2.082019048908463,41.38282991701532],[2.0820216699439653,41.382952659576354],[2.082871907119619,41.38281039893826],[2.082911254842722,41.38290391125838],[2.0833252578399106,41.38389139107153],[2.0832076379432425,41.38400408435043],[2.079455218439616,41.38396922503621],[2.0792168087676584,41.384895912790775],[2.078785316750559,41.384741961932555],[2.07860720111704,41.384773813934665],[2.078842450440944,41.385006293647216],[2.0789988496263083,41.38520987627022],[2.0788167341700383,41.38552926054783],[2.0786756214661266,41.38572587204674],[2.078481931806812,41.38587793913393],[2.0782427913521397,41.38599916497323],[2.0778594554502754,41.386093419336135],[2.077641142505213,41.38615790154766],[2.0774429509372445,41.38624490124973],[2.0772282739896646,41.38622768692847],[2.0770385678016168,41.38625842568327],[2.0768761150358483,41.3863253766799],[2.076860318317028,41.3867758447789],[2.077039909080481,41.38700462984045],[2.077260480453009,41.38704162267737],[2.07715545300347,41.38755310792392],[2.0762453091109165,41.3877382764611],[2.076291023417707,41.38784044601054],[2.0764005752384778,41.38804038625274],[2.07698320314016,41.38814337817189],[2.0776858214145655,41.388278580480126],[2.07778577361877,41.38868207905951],[2.0775732502404076,41.38897816728086],[2.077256934133848,41.38911781405799],[2.076999098313908,41.38906049415845],[2.076143635156732,41.38904674689849],[2.0757417593187246,41.38860163952984],[2.074919312882225,41.38903050567856],[2.0743293842895443,41.38865432430987],[2.0738052088815824,41.388438772650126],[2.073268784902453,41.388276164995574],[2.073247135785954,41.387795707312804],[2.0731203565782463,41.38793613957718],[2.0724372535723705,41.38783457455415],[2.071578192549037,41.38754906726735],[2.0710684303255005,41.38721834621091],[2.070606214208878,41.386833570235154],[2.070224372997903,41.386776048645004],[2.06992586567256,41.38668878116272],[2.06937548249,41.38622644020195],[2.0691161740708996,41.38614829246518],[2.068994194026726,41.38613049759369],[2.0688328302287875,41.386116383200566],[2.068769731587606,41.38615342473349],[2.068754428207292,41.3860210080038],[2.0686665543132787,41.385686745233535],[2.068470330548967,41.38539298562195],[2.069966263330005,41.38424594518785],[2.0704698046191172,41.383772815567944],[2.0709055369383904,41.38332796013497],[2.071359523141301,41.382869833673915],[2.071591877252882,41.3826384913286],[2.0717666826929886,41.382576007017825],[2.0722881243307136,41.38137003824433],[2.071622636010964,41.38123018450305],[2.0722410856109836,41.3798935159353],[2.0721201263382247,41.37914127971289],[2.0733888148357065,41.379012238413814],[2.0735428578373045,41.37899540976343],[2.074886601204432,41.37884905381559],[2.0750430915170837,41.378836692532154],[2.0752323591990405,41.378816451691144],[2.075271653710197,41.37881240785992],[2.0759524232565933,41.37874299752965],[2.07603845454545,41.37873462683672],[2.076104932062338,41.37872758981974],[2.0761331078913363,41.37872458685957],[2.0765421869881795,41.378680995617756],[2.0770041607652017,41.378631832733646],[2.0773273997648016,41.37859741331333],[2.0775452384432325,41.37857529450864],[2.0780310277476133,41.378526066206184],[2.078240482296363,41.37850482919647],[2.0790271625188863,41.37842500766273],[2.079149455545241,41.37841258775813],[2.0792156802991575,41.378405195626506],[2.0796743858984743,41.37835811712087],[2.079784916805746,41.37834657076968],[2.0805172707422295,41.37827011473413],[2.080542402862758,41.37826718185047],[2.080658659056918,41.378312125886694]]]}},{"type":"Feature","id":"082212--amb-aem--les-basses-de-sant-pere-poligon-pont-reixat-sant-just-diagonal","properties":{"name":"Les Basses de Sant Pere, Polígon Pont Reixat, Sant Just Diagonal","municipality":"Sant Just Desvern","kind":"zone","quality":"official","sourceCategory":"amb-aem","code":"0822102"},"geometry":{"type":"Polygon","coordinates":[[[2.0761331078913363,41.37872458685957],[2.076104932062338,41.37872758981974],[2.07603845454545,41.37873462683672],[2.0759524232565933,41.37874299752965],[2.075271653710197,41.37881240785992],[2.0752323591990405,41.378816451691144],[2.0750430915170837,41.378836692532154],[2.074886601204432,41.37884905381559],[2.0735428578373045,41.37899540976343],[2.0733888148357065,41.379012238413814],[2.0721201263382247,41.37914127971289],[2.071932206249329,41.379160391353],[2.0700866186364006,41.379389112070406],[2.0681483254569963,41.37958962910311],[2.066234366195761,41.37981794589587],[2.0657641263292663,41.3798469116676],[2.065090336083998,41.37943883042014],[2.0655041811224697,41.37923054946873],[2.0655046099997962,41.3791579030367],[2.0654859076225125,41.37907418054832],[2.065461759616402,41.379008220736544],[2.065445471651808,41.37895441641357],[2.065432922825441,41.378880679154854],[2.0655381385552447,41.37879038056063],[2.065712945017566,41.37863759449494],[2.065824719995881,41.37854098689962],[2.065941287252741,41.37846029379942],[2.0660940557315115,41.37837460520318],[2.066235769141306,41.378289580617675],[2.0663662688733857,41.378217316759915],[2.066441093039238,41.378151317945765],[2.066505915133202,41.37807692762638],[2.066563166709113,41.37799671556474],[2.0666528571233576,41.377877382238744],[2.066745288640563,41.377744630090206],[2.06681847413898,41.377620362670086],[2.066856132555196,41.37757264281741],[2.066974227455466,41.37743923927743],[2.0671024884398124,41.377323874472474],[2.067296389543574,41.37717538600028],[2.0674510485226523,41.37707706527444],[2.067621689639383,41.377003531857326],[2.0677833966392205,41.376930883302585],[2.0679309660619722,41.37689608028804],[2.0680170805076465,41.37688806665283],[2.0693562467194795,41.376631843053474],[2.0693833345741868,41.376409658050136],[2.069654906787617,41.376371733800575],[2.0699728268424646,41.37622924798971],[2.0706799404323903,41.37587331451802],[2.071422753636911,41.375499402052576],[2.0727454046582343,41.375395805174065],[2.0752278444473884,41.373403782563805],[2.075327587645472,41.37351128970076],[2.075408927986346,41.37359902784039],[2.075532394914805,41.373732484171875],[2.0756115496031136,41.3738217620037],[2.0756508855546385,41.37386694436403],[2.0757186394826377,41.37395995962703],[2.0757645585232334,41.374041125750495],[2.0758386087571363,41.374214816759],[2.075871421929276,41.374298525783445],[2.0759177102735213,41.37441699487093],[2.0759953783683653,41.3746140271367],[2.076041416999493,41.37473073770126],[2.0760747525505403,41.374815594808695],[2.076119749824525,41.37492732483685],[2.0761355173200915,41.37495643756919],[2.0762039610398206,41.37515388202277],[2.0762835607203813,41.37527502878254],[2.0763962638546016,41.375422111671675],[2.0764784815902284,41.37547725613481],[2.076603029094455,41.37556067068942],[2.077315403708036,41.3758120349711],[2.077463511515858,41.37590107894229],[2.077569736124768,41.37597373741512],[2.0776542040049613,41.376031062676184],[2.078242242423557,41.3763501075958],[2.07868397934862,41.37662360455993],[2.079370137107345,41.37704842338578],[2.079548586698112,41.377106539675744],[2.0796707284147855,41.37715573649249],[2.079776907768685,41.377200788181355],[2.0798803593960424,41.377249835304575],[2.0799995496597248,41.37731909939599],[2.0800841141882134,41.37738206053399],[2.080135026624686,41.377439798470576],[2.080209088343953,41.3775717486513],[2.0802434585497855,41.37769195821747],[2.0803420345956956,41.37818971856576],[2.080542402862758,41.37826718185047],[2.0805172707422295,41.37827011473413],[2.079784916805746,41.37834657076968],[2.0796743858984743,41.37835811712087],[2.0792156802991575,41.378405195626506],[2.079149455545241,41.37841258775813],[2.0790271625188863,41.37842500766273],[2.078240482296363,41.37850482919647],[2.0780310277476133,41.378526066206184],[2.0775452384432325,41.37857529450864],[2.0773273997648016,41.37859741331333],[2.0770041607652017,41.378631832733646],[2.0765421869881795,41.378680995617756],[2.0761331078913363,41.37872458685957]]]}},{"type":"Feature","id":"082212--amb-aem--collserola-la-miranda-can-candeler-la-plana-bellsoleig","properties":{"name":"Collserola, La Miranda - Can Candeler, La Plana - Bellsoleig","municipality":"Sant Just Desvern","kind":"zone","quality":"official","sourceCategory":"amb-aem","code":"0822104"},"geometry":{"type":"Polygon","coordinates":[[[2.0832076379432425,41.38400408435043],[2.083078494662097,41.38412781713359],[2.0831108530923883,41.384157378149126],[2.0831547936552846,41.38420668218131],[2.083191666044227,41.384289441339085],[2.083338702626386,41.38446153800582],[2.0833862108903753,41.38453462491809],[2.0834251131993504,41.384590739804864],[2.08343456403372,41.38460316975865],[2.0836018767094355,41.384811457546505],[2.083653329326065,41.38486848838608],[2.0836724422528072,41.3848760987964],[2.0836954754549866,41.384892414633306],[2.0837071359053865,41.384910175677476],[2.08371176056759,41.38494563445064],[2.0836957943834356,41.384978141433415],[2.0836553491725724,41.38500360327564],[2.0838528752128265,41.3849832645523],[2.0839265396166593,41.38530117402548],[2.083728994170652,41.38531320150912],[2.0837323385523034,41.3857060707629],[2.0837646140598753,41.3858683796601],[2.0838106081694945,41.38612005566016],[2.0838363102326105,41.38626893516848],[2.0838696324821395,41.386416014393234],[2.0838817578015894,41.38649721523386],[2.0838987661283843,41.386739309717946],[2.083916704679941,41.386984756074995],[2.0838367752734315,41.38717604215159],[2.0843082629879177,41.38729926788789],[2.0842464754186483,41.387533470653466],[2.0841861057273765,41.387737345654806],[2.08456755220502,41.38806925779822],[2.084963141970563,41.38840888165737],[2.0853238987375065,41.388732137182835],[2.085479930673809,41.38886763666986],[2.0857644090056016,41.38898888081246],[2.085953080544065,41.389096414948526],[2.086139047153267,41.38919592144116],[2.086470024241382,41.38937547106387],[2.0867791826955253,41.38949836965472],[2.0871750196779235,41.389646132082426],[2.0882374782705164,41.38981045035189],[2.088282548115077,41.38981380247089],[2.088398201930486,41.38979874405667],[2.088518177737571,41.38977859360574],[2.0886262866332657,41.3897372327952],[2.0887209489185308,41.38970221024023],[2.08878257810854,41.389684441958806],[2.0888784256469872,41.38966962974019],[2.0889661755177653,41.38967247194421],[2.089253605305216,41.38973336539131],[2.0893767861258805,41.38975847949158],[2.0894751294396765,41.389781587310736],[2.0895572026458544,41.38980930334175],[2.0896758067520174,41.38986979292297],[2.0897670550298773,41.38993114867637],[2.0898709688878228,41.39001317672993],[2.0899348475392063,41.39007648125234],[2.0899670608658005,41.39012313897921],[2.090000578339003,41.39021342754252],[2.090018261767214,41.39026195468688],[2.0900575029994104,41.39036903610929],[2.09009286922254,41.39047344047497],[2.0901346758387636,41.390571208603006],[2.0901840109244048,41.39063800637294],[2.090253530327087,41.39071356585772],[2.090342384101226,41.390798459482056],[2.0904264178345358,41.390833322514965],[2.0906701489876043,41.390968822723714],[2.0908201812846277,41.391070039112364],[2.0909113150159566,41.391156897727846],[2.0910096806162106,41.39125492683239],[2.0916379290157523,41.391985922755865],[2.0918514318362367,41.3922262099127],[2.091948021110399,41.392332194001234],[2.0921235804865894,41.39252574403275],[2.09227853141413,41.39268093680043],[2.0923841369352516,41.39277044581049],[2.092449665212733,41.39283720278797],[2.0926007457895244,41.39296073753137],[2.0930514210686857,41.393311070622595],[2.0933595332248824,41.393541967248645],[2.093431138959269,41.393627291825574],[2.0935878473172114,41.39375213695846],[2.09378684215436,41.39389307892057],[2.0938755639523525,41.3939430683803],[2.0940809849544104,41.39397656070432],[2.0942142196658944,41.393973430180665],[2.0943176843449676,41.39398260178036],[2.094849539856576,41.39404807659682],[2.095021251472595,41.394071714493705],[2.095239145489306,41.39409989386468],[2.095416463778865,41.39411939579015],[2.0956344353658243,41.394142002997256],[2.0959926754061655,41.39418799915159],[2.0962864657401963,41.394252581149665],[2.096470315472152,41.3942948297935],[2.096625186529321,41.39433226311621],[2.096770946090439,41.39435987411027],[2.0968301349395344,41.3943603378342],[2.0968986125745137,41.394358089323866],[2.096950519526624,41.394350138692275],[2.0971349305048945,41.39426449170405],[2.097350892313641,41.394157156930746],[2.0975630545982007,41.39405957767221],[2.0977918086327896,41.39395695962926],[2.0979223234700273,41.394093347337034],[2.098087052675829,41.39425278030509],[2.0982115463734514,41.39444028385725],[2.098327673368751,41.39460987879192],[2.0984083978155854,41.394788795468806],[2.0984601954999267,41.394908656700196],[2.098508906334128,41.39498278527873],[2.098619173232149,41.39507605057247],[2.098748465542496,41.39517843353133],[2.0988711311514416,41.39526454828427],[2.0989679636747516,41.395349649034664],[2.0990209459327605,41.395412510062584],[2.0990745830850384,41.39558404869359],[2.0991194036361205,41.39577011577936],[2.099171748153986,41.395879198107345],[2.0992649623846464,41.396070509845586],[2.0993871196108116,41.39627178063385],[2.0994986503958057,41.39638456875924],[2.0996275019221264,41.39649100603489],[2.099755108358097,41.396609597117475],[2.0998417361784414,41.396704788515876],[2.099925158512513,41.39681262828918],[2.099967794247686,41.39689006129062],[2.100010340501531,41.39697407443641],[2.1000398301238055,41.39709935676926],[2.100067604242454,41.397258473960235],[2.1000923726924796,41.39736397496432],[2.100147058020208,41.39756373265392],[2.1001750621595283,41.397615664474095],[2.100214380401873,41.39766204338675],[2.100270907560386,41.397728302139946],[2.1003192825332433,41.39778579409931],[2.1003683214775855,41.39787017853705],[2.100383818580092,41.39791443452438],[2.100444580809402,41.398003076546374],[2.100463118160634,41.39807462281304],[2.100477216997196,41.3982658364818],[2.1004593853716407,41.39834549787432],[2.100462734542357,41.398507227103245],[2.100495591704838,41.39855158456549],[2.100529898278857,41.39858279073004],[2.1005764834964467,41.398614934167256],[2.1007094194542812,41.39868134770686],[2.1008280875302097,41.398733121438454],[2.1009275885415377,41.398775664842525],[2.101063061708802,41.39883301736685],[2.1011622374825114,41.398872881006234],[2.1012637178010456,41.39892061527542],[2.1013691490922723,41.39897037817067],[2.1014837961575332,41.39902520758155],[2.1015759100164986,41.39907886110008],[2.101681039235582,41.39915059507759],[2.101736030660695,41.399202960596305],[2.1018065930486682,41.39928041635549],[2.101919159496113,41.39939016205424],[2.101971539519246,41.399439510289994],[2.102035649722894,41.39950393217773],[2.1020890265161603,41.39957725972166],[2.102126391284311,41.3996574529857],[2.10216230589669,41.399746624376455],[2.1022169258920624,41.399825954230344],[2.1022875319386265,41.39990041414504],[2.1023424969870512,41.3999547770209],[2.1024181121314878,41.400051233445595],[2.102548941478251,41.400193899175235],[2.10267441106324,41.40032402508839],[2.1027761416861686,41.400445560875674],[2.1028326560691992,41.40052041588048],[2.102869276852875,41.400600444560844],[2.102894472774855,41.4006672764785],[2.102901900399322,41.40076018699207],[2.1028973784979033,41.40087812886719],[2.1028931107626634,41.40097750202225],[2.1029094082050177,41.40105846572556],[2.1029256923665613,41.401096557372504],[2.1029571990369127,41.401170260732115],[2.103015536098116,41.401253736486844],[2.1030652438199486,41.40133168281118],[2.1030889592148756,41.401400687448465],[2.1030982436753405,41.4014641174578],[2.1031185315907424,41.40152025522288],[2.103146501878802,41.401575636791215],[2.1031756263036248,41.401651577887385],[2.103177711411494,41.40170892127091],[2.1031641001967927,41.40175857062754],[2.103141840688489,41.40181031616282],[2.103130597049425,41.40189675965971],[2.1031366202233843,41.40198117415731],[2.103152906782312,41.40205052620218],[2.103179396074355,41.402109141604434],[2.1032201154935084,41.40217760138462],[2.103314781616973,41.40229299255491],[2.103408069706778,41.40240404662072],[2.10348711307318,41.40250633614163],[2.1035461513826457,41.40260089896327],[2.103586752570137,41.402678011161676],[2.1036256211332143,41.4027767430792],[2.1036476091912184,41.40284938395498],[2.1036847749679306,41.40296757222294],[2.1037168470103014,41.403038128947735],[2.1037448184370655,41.40309351036779],[2.1037839698394643,41.40317169299452],[2.103803382102687,41.40322268144179],[2.1038254596635166,41.40328883309678],[2.1038427666355815,41.403388478781444],[2.1038431197016143,41.403467440976236],[2.1038435310075925,41.40354207733792],[2.1038381225673013,41.40362207645102],[2.1038297676702316,41.40370746159554],[2.103816509534356,41.4038360732026],[2.103802155282513,41.403939798549786],[2.103786646670103,41.40402296437042],[2.1037536340329925,41.4041254634719],[2.103707588390651,41.404235431807344],[2.1036533410950278,41.40431505132964],[2.103590354689415,41.4044032553074],[2.1034119200223858,41.40450722075506],[2.1032012468873855,41.40464185636443],[2.1030587258255644,41.40471451290908],[2.102864929496814,41.40481619955292],[2.1026876035188478,41.40486132855429],[2.102556538829391,41.40489557322044],[2.1024303428641313,41.40492862800198],[2.1022432416219705,41.40497290901722],[2.102139706979088,41.40500188517546],[2.1020574650403567,41.405023581852944],[2.1019766211680535,41.40504635316503],[2.101907063543421,41.405070275399844],[2.101853103692495,41.4050900651299],[2.1018117256949522,41.40511952618873],[2.1017872129864763,41.40515550158692],[2.1017719585621375,41.40523728825271],[2.1017535944464285,41.405442441158534],[2.101752811075703,41.40560199142105],[2.1017662141109503,41.40575739730975],[2.101753993742617,41.405882688469035],[2.1017266142410302,41.40599526884058],[2.1017047739031205,41.406080665598736],[2.1017114591388046,41.40618855962049],[2.101713864343677,41.4062925839459],[2.1017078406577108,41.40645143482521],[2.1016672840944053,41.40661001517246],[2.1016581400578476,41.40671683890782],[2.10163011424708,41.40681324400087],[2.10161002829746,41.40691012812926],[2.1016017709556376,41.40699582637723],[2.1015591875166284,41.407086896148705],[2.101514610566769,41.40713516670454],[2.101456852942789,41.40720278050834],[2.1014373934356594,41.40722447612368],[2.1013066474799396,41.407316199325926],[2.101239571026859,41.407404007909854],[2.101139021823854,41.40752664890843],[2.1010573251048554,41.40761477191374],[2.10102091289796,41.40765628021369],[2.100986632081277,41.407712758437796],[2.10090764966435,41.407837584514766],[2.100733834936935,41.40811698584529],[2.1006543851225215,41.40826114349229],[2.1006074765005143,41.40836810876565],[2.100491010951008,41.408387519990846],[2.1003622642863973,41.40840473633036],[2.100277100475005,41.40841438390898],[2.099688691097904,41.40861055988368],[2.099442031661355,41.40870197732291],[2.099003275267448,41.408861901392015],[2.098830070353902,41.40890504979637],[2.09865700964897,41.408950213135924],[2.0984076038954305,41.409008843111664],[2.098158242593112,41.40906422660658],[2.0979609053988932,41.40909838064657],[2.097805459093295,41.40911663591741],[2.0976012220736564,41.409130181121476],[2.0974461199541907,41.40912355641212],[2.097324199757824,41.40910745477878],[2.0972670568551846,41.409083206033706],[2.0972215268090815,41.409050394921394],[2.0970794768442977,41.40893136181338],[2.096946152887129,41.408804824452595],[2.0968728993159704,41.40870203195074],[2.096786107718198,41.408572327834634],[2.0966986143321833,41.40835736076953],[2.096655376981595,41.408240545881206],[2.096518465634788,41.408156345517824],[2.0964424756935522,41.40810953060143],[2.0963288918863303,41.40803541600839],[2.096224477461781,41.40796667512063],[2.0961966501666254,41.40795611326236],[2.096170246099781,41.40794610752909],[2.0961292104572755,41.407938553067005],[2.0959536237169805,41.4079054330203],[2.095815442379441,41.4078799810813],[2.0956526735167045,41.40784977613927],[2.0954856320973687,41.407886699674194],[2.095280562264684,41.40791291491788],[2.09515474452171,41.407923888278916],[2.0950073082762573,41.40793142895437],[2.0947501987613277,41.40793158246698],[2.0945609997000374,41.40793009456561],[2.0943597473965143,41.407931395663454],[2.0942314353236746,41.407947077294175],[2.0941082659423738,41.40797546916111],[2.094008202941135,41.40800404285164],[2.09382414722466,41.408048267443746],[2.093628611770469,41.40808696440464],[2.0933201973916855,41.40814108313621],[2.093101597806845,41.40817633493784],[2.092794399616447,41.40824677434429],[2.092664082633222,41.40826967140072],[2.0925049855559723,41.40828473000538],[2.0923649065361762,41.4082825378219],[2.092222014136206,41.408274886370286],[2.092054364739077,41.40824449461345],[2.091877930581239,41.40821750474658],[2.0917252601175496,41.40819326213177],[2.091534656198343,41.408207116771386],[2.0913472392781833,41.40823635667721],[2.0910744782862922,41.40829838297206],[2.0908991229777283,41.40831700757072],[2.090789717210053,41.408314966660136],[2.0906381223315136,41.40831141492007],[2.0904458843015328,41.408307542580474],[2.0903238410915903,41.40831481771227],[2.0900417799586477,41.408362021918606],[2.0895998314907516,41.4084397395615],[2.089228323367793,41.40851095129898],[2.0888819736284643,41.40857176740488],[2.08866939553523,41.40861001290197],[2.088445978209566,41.40867071417848],[2.088238717570561,41.408734983905745],[2.088059757126878,41.40878770754013],[2.0878665972811565,41.40884973471345],[2.0875918877977866,41.40892994674799],[2.0874864967929865,41.40897558575564],[2.0873821741647287,41.40903737539538],[2.0872573101262293,41.409117328541],[2.0871588375695485,41.409195964184164],[2.0870745638788977,41.40927471240917],[2.0869819401629868,41.40937019320446],[2.086893458434342,41.40945959794258],[2.0868240235978766,41.4094926464461],[2.0866956573512474,41.40953286362874],[2.0865387880443143,41.40958049088528],[2.0862506292807588,41.409652930274966],[2.086001389371828,41.40971214893808],[2.08569471574965,41.409737204772824],[2.085455665349507,41.409713924723164],[2.0852071141657444,41.40964475223907],[2.085033186338219,41.40960671606144],[2.084889513350904,41.4095811388762],[2.084723742214001,41.409540112682066],[2.0845681124962865,41.40949916784285],[2.084436845966449,41.40945688901101],[2.0842651398657033,41.409405124884636],[2.0841856866348363,41.4093870882656],[2.0841333242134894,41.40935486253637],[2.084125890800928,41.409320011184334],[2.0841277408206387,41.409282252266955],[2.084154208757201,41.40921486564906],[2.0841757202112032,41.40915639117465],[2.0841863491978248,41.40909294262854],[2.084176828797105,41.4090485772095],[2.0841614157932353,41.408990419512754],[2.0841352087895837,41.408938373915845],[2.0840979218712197,41.408889117088165],[2.084065832986544,41.40886289945454],[2.083961450756132,41.40878418008242],[2.083872816082534,41.40872455480156],[2.083770361521215,41.40863146210183],[2.0836378269611022,41.40854258752139],[2.0836206308097016,41.40848944260495],[2.083560153241625,41.40835595775914],[2.0835425264963163,41.408279145022135],[2.0834027494745837,41.40816850001413],[2.0832641012965065,41.408064823888196],[2.0831807466364283,41.40799304585277],[2.083048996683007,41.407902805907185],[2.0829354682362933,41.407847135734116],[2.0828632374391094,41.40781057159507],[2.0827914636546554,41.407762531055816],[2.0826963471592888,41.40755888257081],[2.0826403124030892,41.407479816947],[2.082595717308689,41.407324933103766],[2.0825613792115507,41.40725424623145],[2.082497121005473,41.40713757459694],[2.0824516402801283,41.40708070994215],[2.0823946919003364,41.40703882057639],[2.082331436454121,41.407000648694606],[2.0822011742954887,41.40692427310043],[2.082023705022915,41.4068249210134],[2.081832824812415,41.4067242789496],[2.0817516892776293,41.40668902929331],[2.081621043884213,41.40663995968177],[2.081451748206141,41.406582107143144],[2.0813073992546505,41.40652916085227],[2.081144622961035,41.40646683367312],[2.080975274517498,41.40639037421526],[2.080910596540564,41.406334309491385],[2.080839140372664,41.406242983144],[2.080759963722467,41.406134026928264],[2.080673673711742,41.40605527616248],[2.0805775210832818,41.40600383548357],[2.0804222147612785,41.405963476707925],[2.0803579138779296,41.40587140108054],[2.080281446422619,41.40566213214764],[2.080276904218883,41.405540614995076],[2.0802827935247947,41.40538904768723],[2.0803132146161154,41.40514991863568],[2.0802585766988413,41.40497732687285],[2.080236775099304,41.40487383886961],[2.080203600370128,41.40474612626124],[2.080161750788638,41.40463835705362],[2.080119664865776,41.40454743889068],[2.0800634863910314,41.40446378063544],[2.0799434236025154,41.404346960373104],[2.0797402205904376,41.404173651302166],[2.0795851886090397,41.40405655095629],[2.0794064518964666,41.40393399407163],[2.0793080588473485,41.40386790358323],[2.079230012570613,41.403818320778086],[2.079178922854975,41.40377312411913],[2.0791325011993536,41.40373581930239],[2.079036162739649,41.40362593455298],[2.0789892187371892,41.40356200845938],[2.0789539348278767,41.403484836545296],[2.078900601299192,41.40339804067108],[2.0787849024611744,41.40326966783121],[2.078740825933697,41.40322086379479],[2.078674368487599,41.40317188142367],[2.0785925541450623,41.403120669185626],[2.078478374652081,41.40308288990448],[2.0783529762457666,41.403047128386454],[2.0782136640461593,41.403005987697455],[2.0780718220539387,41.40294586857124],[2.0779799496097886,41.40291353419999],[2.07787264588042,41.402884236796496],[2.0777747367457877,41.40286697560012],[2.077748673103053,41.40274381037162],[2.0777053992439596,41.40258645988339],[2.0776725314668427,41.40249770352776],[2.0776308448687844,41.40240697318729],[2.077592895277278,41.40232007934286],[2.07757012328692,41.40223235598158],[2.077550953691121,41.40215798262843],[2.0775177773510984,41.40200166419976],[2.0774933257936397,41.40185398000579],[2.0774817915825357,41.4017758622049],[2.077474224223249,41.40168540536302],[2.077465513629576,41.40158637596023],[2.077454289011848,41.40148637430848],[2.077441437927549,41.4014120515919],[2.077419144314616,41.40135820548043],[2.0773544242039272,41.40122009483528],[2.077266912983074,41.40106334148057],[2.077179201464087,41.40092085967248],[2.0770704246243414,41.400748711185024],[2.0769936535845535,41.40062883384169],[2.076903725640428,41.40047238057611],[2.0768223337604197,41.40032994918779],[2.0767531462285165,41.400218064496535],[2.0767011651282106,41.40014057321998],[2.0766516308043177,41.400068810484726],[2.076585750739921,41.39999120761166],[2.076504759112537,41.39994007523905],[2.0764252501796094,41.3998923802491],[2.076315287759973,41.399830235955214],[2.076173656111719,41.39975629511431],[2.0761028270449082,41.39971574946013],[2.0760217028308254,41.39967529492978],[2.0759511459703814,41.39965211235164],[2.0758793754152545,41.39962982523199],[2.0758063014585724,41.39961476509424],[2.0757391448258136,41.39960608469115],[2.075671082509953,41.39958626915349],[2.07562316948988,41.39956625426027],[2.0755456369058973,41.399526732599135],[2.0753958866385975,41.39942594367936],[2.0752927507188526,41.39934396658885],[2.075253761869597,41.399314858171316],[2.0752055908169758,41.39927956797588],[2.0751137825009036,41.399216005654054],[2.075078283330628,41.399186052405504],[2.0750300988970554,41.39915163485188],[2.074963461121168,41.399110961857225],[2.0748852748709057,41.39906757749902],[2.0748070626133943,41.39901650320704],[2.074718671032543,41.398953738181554],[2.0745959448871294,41.39889069693865],[2.074463248092658,41.39880430547816],[2.0742751759553038,41.39874849634681],[2.0740558721193656,41.398715705449355],[2.0739116039716166,41.3986758167384],[2.07378599567776,41.39863184995801],[2.0736833060579585,41.39859457635343],[2.073559952163669,41.39854089851499],[2.073379668565651,41.398466941145436],[2.0731491387370045,41.398389988194154],[2.0729427307717385,41.39836100563128],[2.0727549427117347,41.39836669025953],[2.0725235207343227,41.3983348103205],[2.0722805016114427,41.39828440623612],[2.072210827005278,41.3982728183821],[2.0721456473053204,41.39826211523746],[2.07209736015975,41.398242728182886],[2.072076394967761,41.398220844809686],[2.0720602362811573,41.39818357401521],[2.072040782063993,41.3981111439276],[2.072011195392327,41.3980200668294],[2.0719785140667937,41.39796262925764],[2.0719170664407422,41.39788646371557],[2.0718599523120695,41.39783657454283],[2.071803103092892,41.39779455639931],[2.071731671615755,41.39774817896534],[2.0716447785858536,41.3977177919883],[2.0715408417224426,41.39770168746019],[2.0714216484427936,41.397687154915666],[2.0713105560154834,41.397657421784196],[2.0711871831819266,41.39761995468433],[2.0710504165345274,41.39757389788543],[2.0709541108477683,41.397534105359846],[2.070831028359564,41.39747628425404],[2.0707112888041697,41.39742103552604],[2.0706241145640876,41.397372834147056],[2.0705436742204704,41.39732638320554],[2.070425146505073,41.39726520624838],[2.070342393757666,41.39722297809848],[2.070290970601625,41.39719542129767],[2.070222691361971,41.397165183652334],[2.0701453645774333,41.3971374174563],[2.070024605406676,41.397112659949045],[2.0698733629772237,41.397083448504794],[2.0697206167884317,41.397055344331285],[2.06950870700804,41.39700548947408],[2.0692347723123827,41.39692602396533],[2.0691548521174408,41.39689067796076],[2.06892350937026,41.39684250683334],[2.068772705029926,41.396813606444425],[2.068687255544093,41.39685263773848],[2.068566245062302,41.396887030488635],[2.068449948917036,41.39690960115182],[2.068318865287295,41.39692645381676],[2.0681878775345583,41.39693658934172],[2.068039274009259,41.39693090814294],[2.067862662487541,41.39690820633243],[2.067702533149223,41.39687668078311],[2.0676100522017475,41.396850884326625],[2.0675125664168474,41.396819223908395],[2.067421839212017,41.39679276325193],[2.067314867078387,41.396767998453946],[2.067174819743337,41.39673711145381],[2.067069512525225,41.39673295279095],[2.066941973576075,41.39674844818174],[2.066791400840497,41.396760214875634],[2.0665738633686512,41.39676188120733],[2.066359815515358,41.396758431281775],[2.066133340526268,41.39674801910808],[2.0659774765995644,41.39673732221243],[2.065784060002453,41.39672460517923],[2.0656418479454364,41.39671487618606],[2.065561062656748,41.39670993256343],[2.0655271950428338,41.396705188899624],[2.0654998066866908,41.396693143256634],[2.0654814318359054,41.39667283170696],[2.065466912987858,41.39663978699701],[2.065442925245697,41.39656997617197],[2.0654312407380147,41.39651343508965],[2.065415421463313,41.39639665272795],[2.0654071249959576,41.396278048908556],[2.0653723525645074,41.39617616405502],[2.065327612828252,41.39607231746177],[2.0652789777119978,41.39597878697948],[2.065226433724891,41.395896513774154],[2.065178563526835,41.39583685753026],[2.0651208608741527,41.39576583141809],[2.065060566593354,41.395701370475884],[2.064993864840254,41.395648145587586],[2.06490230002833,41.39558625247956],[2.064812064984466,41.39551872512818],[2.0647454028624774,41.395462679279035],[2.0646898501438256,41.395416130196466],[2.0646331285367148,41.39536392750648],[2.064562759957884,41.39530502847924],[2.064486064778015,41.395251722947265],[2.0643969725772906,41.395191731199176],[2.064339927631039,41.39516210384811],[2.0642469400596637,41.39511242808275],[2.0641539661181834,41.395061811973584],[2.064100776565702,41.39502469012452],[2.0636914337231347,41.39474920546464],[2.0636294675768614,41.394712966766804],[2.063545176658903,41.39466517801415],[2.063465644909759,41.39461476172767],[2.0634353060691906,41.39459051978666],[2.063389996796281,41.394540382010405],[2.0633366561887296,41.394474181574644],[2.063279813692269,41.39440528639385],[2.063216005600253,41.39432833674247],[2.06316013849458,41.39427366862988],[2.063083222500067,41.39420549984219],[2.0630131957625033,41.39415071725623],[2.0629268876250437,41.39409563088587],[2.0628538785802015,41.39407069627704],[2.0627666051009212,41.39404618857922],[2.0626634400939152,41.394028041234336],[2.0625242125022814,41.3940204179393],[2.0623791459743646,41.394019235873216],[2.062278589712106,41.394019499086596],[2.06218967917984,41.394009040066834],[2.0619665490946324,41.393942320580166],[2.0617623084138423,41.393860610440804],[2.061566686797624,41.39377897113813],[2.0612666986371213,41.393662947053436],[2.06084519707604,41.393481107273146],[2.0607211643375707,41.393421315675155],[2.060584671168039,41.39333296491755],[2.060449574209064,41.39325641437209],[2.0601821376646137,41.393129271429125],[2.059880521392712,41.39298416513461],[2.059606639112256,41.39286993533696],[2.059556536042654,41.3928572360381],[2.0595596410420054,41.39281965704063],[2.059561999917925,41.39275467302867],[2.0595651049527226,41.39266837714017],[2.0595675324790204,41.3926408701592],[2.059588498192646,41.39259516468331],[2.059623798395084,41.39254116428487],[2.059668324122297,41.39248112320074],[2.05968827926154,41.39244519155681],[2.0596992499452274,41.39241699415938],[2.059710183604252,41.39239144825689],[2.059721039637556,41.39237120531632],[2.059774647038633,41.39231683654669],[2.0598271053556685,41.392260690195855],[2.059869995511696,41.392216841903185],[2.0599082932177346,41.39216588340704],[2.059944077566255,41.39212639699269],[2.0599857433562083,41.392086074083764],[2.0600214257483347,41.39205365857562],[2.060040663629767,41.39202199234942],[2.0600376901536253,41.39198395653812],[2.0600244708090134,41.39192373809857],[2.060005420962902,41.391860820225055],[2.0599910526670846,41.391798825128504],[2.05998201950537,41.391773999704036],[2.0599825033904673,41.39174041210115],[2.059989173118999,41.39168477610913],[2.0599956784964215,41.39164063050335],[2.059995191647708,41.39159289143998],[2.059998378569048,41.39153457519327],[2.0600023452058984,41.39150366874173],[2.0600110060845163,41.39147279973913],[2.0600316856384384,41.39142258179371],[2.0600486138075405,41.39138824489419],[2.0600513168253065,41.391363516249285],[2.0600510059770953,41.391337184874565],[2.060052147702358,41.39131463949613],[2.0600540519172137,41.39129579160783],[2.060055904172405,41.391280633655555],[2.060066479757631,41.39126472638456],[2.0601071098824,41.39122874827429],[2.0601372490849292,41.39119549118295],[2.060159879393469,41.39116868605099],[2.0601849951547564,41.39114097164476],[2.060202697050092,41.39111319577672],[2.06023906817137,41.39107626677162],[2.0602816444688807,41.39103752658956],[2.0603391958216624,41.39098867079779],[2.0603867015632114,41.39095090130491],[2.060406686590899,41.39093617425642],[2.0604269191854563,41.39092701404155],[2.060452655576682,41.39091865088947],[2.0604765774566447,41.39090455587337],[2.0605000994831912,41.39088574938219],[2.060532643410474,41.3908571650793],[2.060562781040006,41.390823906959845],[2.060600440835301,41.390783264670894],[2.0606787767301524,41.39067938962072],[2.05978189390241,41.3899592399247],[2.059285058887865,41.38956029677745],[2.05926667526388,41.38954799989804],[2.0597864045414096,41.389203234553996],[2.060236766946156,41.388931537295214],[2.0609990617009024,41.38840462191472],[2.061653187476262,41.387859205201785],[2.062412557026079,41.38709050025959],[2.0625463490532616,41.386656110363575],[2.062696592887249,41.38626028470252],[2.0628682054253713,41.38615280913883],[2.0646844892794847,41.385206975855745],[2.0656183514742477,41.384718246423745],[2.0663131489896123,41.38509032437322],[2.0668206818615493,41.385562826200825],[2.0671394490721227,41.38585365041079],[2.067385243763526,41.38609591745618],[2.0674365077735652,41.386144297788036],[2.067446266217841,41.386144376878185],[2.0674461375211086,41.38615338331571],[2.067469776465637,41.38617308960763],[2.067478865581738,41.386180671005455],[2.0674815959110746,41.38618294500342],[2.067489780920791,41.386189766948476],[2.067493415424422,41.3861927958948],[2.0675006902834503,41.38619886284201],[2.067505234876989,41.386202651288194],[2.067511599649134,41.38620795873452],[2.0675170543331207,41.3862125066804],[2.0675225090178664,41.386217054626016],[2.0675289488808875,41.386217106815074],[2.0675288738571598,41.386222357568194],[2.067533418389635,41.38622615051651],[2.0675406933204203,41.386232212958014],[2.06754432776443,41.386235246405974],[2.067552512787246,41.38624206834664],[2.067555243186063,41.38624433783967],[2.067564439577484,41.38624441236506],[2.0675643323219774,41.38625191923085],[2.0675879713377907,41.38627162549892],[2.067599930239435,41.38627172240753],[2.067599857473106,41.38627681554806],[2.0676090039394617,41.38628080341557],[2.067623629813789,41.38628719113946],[2.06763003056763,41.38628998127997],[2.0676355160191564,41.386292376681716],[2.067777235070171,41.386354226369875],[2.06777815031045,41.38635462561044],[2.0677982677254954,41.38636340425235],[2.0678019227082785,41.38636500116544],[2.0678403270745944,41.386381759957494],[2.067861353768345,41.386390937780135],[2.0678909087495407,41.38639546927006],[2.067923411544066,41.386400447983085],[2.067932958876044,41.38640191247388],[2.0681716488132085,41.38643848851036],[2.0684351311281444,41.386413595063075],[2.068618182220706,41.38633743695],[2.0686741211592996,41.386302193092],[2.0687509208191592,41.38622154469348],[2.068769731587606,41.38615342473349],[2.0688328302287875,41.386116383200566],[2.068994194026726,41.38613049759369],[2.0691161740708996,41.38614829246518],[2.06937548249,41.38622644020195],[2.06992586567256,41.38668878116272],[2.070224372997903,41.386776048645004],[2.070606214208878,41.386833570235154],[2.0710684303255005,41.38721834621091],[2.071578192549037,41.38754906726735],[2.0724372535723705,41.38783457455415],[2.0731203565782463,41.38793613957718],[2.073247135785954,41.387795707312804],[2.073268784902453,41.388276164995574],[2.0738052088815824,41.388438772650126],[2.0743293842895443,41.38865432430987],[2.074919312882225,41.38903050567856],[2.0757417593187246,41.38860163952984],[2.076143635156732,41.38904674689849],[2.076999098313908,41.38906049415845],[2.077256934133848,41.38911781405799],[2.0775732502404076,41.38897816728086],[2.07778577361877,41.38868207905951],[2.0776858214145655,41.388278580480126],[2.07698320314016,41.38814337817189],[2.0764005752384778,41.38804038625274],[2.076291023417707,41.38784044601054],[2.0762453091109165,41.3877382764611],[2.07715545300347,41.38755310792392],[2.077260480453009,41.38704162267737],[2.077039909080481,41.38700462984045],[2.076860318317028,41.3867758447789],[2.0768761150358483,41.3863253766799],[2.0770385678016168,41.38625842568327],[2.0772282739896646,41.38622768692847],[2.0774429509372445,41.38624490124973],[2.077641142505213,41.38615790154766],[2.0778594554502754,41.386093419336135],[2.0782427913521397,41.38599916497323],[2.078481931806812,41.38587793913393],[2.0786756214661266,41.38572587204674],[2.0788167341700383,41.38552926054783],[2.0789988496263083,41.38520987627022],[2.078842450440944,41.385006293647216],[2.07860720111704,41.384773813934665],[2.078785316750559,41.384741961932555],[2.0792168087676584,41.384895912790775],[2.079455218439616,41.38396922503621],[2.0832076379432425,41.38400408435043]]]}},{"type":"Feature","id":"082212--amb-aem--sud","properties":{"name":"Sud","municipality":"Sant Just Desvern","kind":"zone","quality":"official","sourceCategory":"amb-aem","code":"0822105"},"geometry":{"type":"Polygon","coordinates":[[[2.069966263330005,41.38424594518785],[2.068010283554644,41.383014423648994],[2.067472864369598,41.38334748082417],[2.0667542227955527,41.382783176821505],[2.065807338348221,41.38207858841278],[2.064148688160855,41.38093268890433],[2.0651345208510183,41.38007615043493],[2.065175291454002,41.37987059298811],[2.0657641263292663,41.3798469116676],[2.066234366195761,41.37981794589587],[2.0681483254569963,41.37958962910311],[2.0700866186364006,41.379389112070406],[2.071932206249329,41.379160391353],[2.0721201263382247,41.37914127971289],[2.0722410856109836,41.3798935159353],[2.071622636010964,41.38123018450305],[2.0722881243307136,41.38137003824433],[2.0717666826929886,41.382576007017825],[2.071591877252882,41.3826384913286],[2.071359523141301,41.382869833673915],[2.0709055369383904,41.38332796013497],[2.0704698046191172,41.383772815567944],[2.069966263330005,41.38424594518785]]]}}]}
